{"type":"FeatureCollection","features":[{"type":"Feature","id":"ABW-5150","properties":{"kind":"division","code":"ABW-5150","countryCode":"ABW","name":"Aruba","localName":"Aruba","labelEnglish":"Aruba","labelLocal":"Aruba","labelBoth":"Aruba","type":null,"iso":"AW-X01~","qid":"Q21203"},"geometry":{"type":"Polygon","coordinates":[[[-69.9969,12.5776],[-70.0581,12.5372],[-69.8881,12.4177],[-69.9969,12.5776]]]}},{"type":"Feature","id":"label-ABW-5150","properties":{"kind":"division-label","code":"ABW-5150","countryCode":"ABW","name":"Aruba","localName":"Aruba","labelEnglish":"Aruba","labelLocal":"Aruba","labelBoth":"Aruba","type":null,"iso":"AW-X01~","qid":"Q21203"},"geometry":{"type":"Point","coordinates":[-69.9689,12.5147]}}]}