{"type":"FeatureCollection","features":[{"type":"Feature","id":"AFG-1760","properties":{"kind":"division","code":"AFG-1760","countryCode":"AFG","name":"Badakhshan","localName":"Badakhshan","labelEnglish":"Badakhshan","labelLocal":"Badakhshan","labelBoth":"Badakhshan","type":"Province","iso":"AF-BDS","qid":"Q165376"},"geometry":{"type":"Polygon","coordinates":[[[74.5424,37.0217],[74.3826,37.1266],[74.7215,37.2978],[74.8923,37.2311],[74.6604,37.394],[73.6177,37.2332],[73.7535,37.4284],[73.2761,37.4595],[72.761,37.1875],[72.6577,37.0288],[72.2598,36.9673],[71.8366,36.6992],[71.6111,36.7048],[71.4311,37.067],[71.5977,37.8984],[71.2583,37.9265],[71.3344,38.2807],[70.974,38.4737],[70.5958,38.3382],[70.2986,37.9981],[70.2831,37.7048],[70.0042,37.5514],[70.0431,36.4572],[70.4725,36.2836],[70.4635,35.9783],[70.2734,35.8502],[70.2312,35.6704],[70.4866,35.6615],[70.5435,35.4463],[70.8644,35.4842],[71.1699,36.0308],[71.6291,36.4595],[71.7363,36.3959],[72.2136,36.7264],[72.5652,36.8206],[73.7118,36.8941],[74.0943,36.8312],[74.5424,37.0217]]]}},{"type":"Feature","id":"label-AFG-1760","properties":{"kind":"division-label","code":"AFG-1760","countryCode":"AFG","name":"Badakhshan","localName":"Badakhshan","labelEnglish":"Badakhshan","labelLocal":"Badakhshan","labelBoth":"Badakhshan","type":"Province","iso":"AF-BDS","qid":"Q165376"},"geometry":{"type":"Point","coordinates":[70.8036,36.781]}},{"type":"Feature","id":"AFG-1765","properties":{"kind":"division","code":"AFG-1765","countryCode":"AFG","name":"Takhar","localName":"Takhar","labelEnglish":"Takhar","labelLocal":"Takhar","labelBoth":"Takhar","type":"Province","iso":"AF-TAK","qid":"Q186395"},"geometry":{"type":"Polygon","coordinates":[[[70.0042,37.5514],[69.5287,37.586],[69.3086,37.1169],[69.2207,36.297],[69.6707,36.3531],[69.961,35.8099],[70.2734,35.8502],[70.4635,35.9783],[70.4725,36.2836],[70.0431,36.4572],[70.0042,37.5514]]]}},{"type":"Feature","id":"label-AFG-1765","properties":{"kind":"division-label","code":"AFG-1765","countryCode":"AFG","name":"Takhar","localName":"Takhar","labelEnglish":"Takhar","labelLocal":"Takhar","labelBoth":"Takhar","type":"Province","iso":"AF-TAK","qid":"Q186395"},"geometry":{"type":"Point","coordinates":[69.8124,36.8335]}},{"type":"Feature","id":"AFG-1763","properties":{"kind":"division","code":"AFG-1763","countryCode":"AFG","name":"Kunduz","localName":"Kunduz","labelEnglish":"Kunduz","labelLocal":"Kunduz","labelBoth":"Kunduz","type":"Province","iso":"AF-KDZ","qid":"Q186418"},"geometry":{"type":"Polygon","coordinates":[[[69.3086,37.1169],[68.9654,37.3291],[68.3073,37.1142],[68.0248,36.9255],[68.1891,36.5932],[68.2395,36.5712],[68.7228,36.5343],[69.2207,36.297],[69.3086,37.1169]]]}},{"type":"Feature","id":"label-AFG-1763","properties":{"kind":"division-label","code":"AFG-1763","countryCode":"AFG","name":"Kunduz","localName":"Kunduz","labelEnglish":"Kunduz","labelLocal":"Kunduz","labelBoth":"Kunduz","type":"Province","iso":"AF-KDZ","qid":"Q186418"},"geometry":{"type":"Point","coordinates":[68.682,36.9043]}},{"type":"Feature","id":"AFG-1744","properties":{"kind":"division","code":"AFG-1744","countryCode":"AFG","name":"Balkh","localName":"Balkh","labelEnglish":"Balkh","labelLocal":"Balkh","labelBoth":"Balkh","type":"Province","iso":"AF-BAL","qid":"Q121104"},"geometry":{"type":"Polygon","coordinates":[[[67.7805,37.1889],[67.4824,37.2774],[67.2368,37.1924],[67.0059,37.3844],[66.5196,37.3642],[66.2508,37.3597],[66.5036,37.1124],[66.5273,36.5877],[66.6799,36.5461],[66.4614,36.2242],[66.6288,35.8625],[66.5204,35.67],[66.9049,35.7181],[67.0675,36.0639],[67.3738,36.2894],[67.3743,36.554],[67.688,36.6479],[68.1891,36.5932],[68.0248,36.9255],[67.7805,37.1889]]]}},{"type":"Feature","id":"label-AFG-1744","properties":{"kind":"division-label","code":"AFG-1744","countryCode":"AFG","name":"Balkh","localName":"Balkh","labelEnglish":"Balkh","labelLocal":"Balkh","labelBoth":"Balkh","type":"Province","iso":"AF-BAL","qid":"Q121104"},"geometry":{"type":"Point","coordinates":[67.2185,36.6851]}},{"type":"Feature","id":"AFG-1746","properties":{"kind":"division","code":"AFG-1746","countryCode":"AFG","name":"Jowzjan","localName":"Jowzjan","labelEnglish":"Jowzjan","labelLocal":"Jowzjan","labelBoth":"Jowzjan","type":"Province","iso":"AF-JOW","qid":"Q183036"},"geometry":{"type":"Polygon","coordinates":[[[66.2508,37.3597],[65.6688,37.5206],[65.4879,37.242],[65.3403,36.9068],[65.4848,36.3856],[65.2779,36.3612],[65.1449,35.9371],[65.5765,35.9279],[65.6852,36.0004],[65.5332,35.9742],[65.5271,36.3396],[66.0477,36.5303],[66.5273,36.5877],[66.5036,37.1124],[66.2508,37.3597]]]}},{"type":"Feature","id":"label-AFG-1746","properties":{"kind":"division-label","code":"AFG-1746","countryCode":"AFG","name":"Jowzjan","localName":"Jowzjan","labelEnglish":"Jowzjan","labelLocal":"Jowzjan","labelBoth":"Jowzjan","type":"Province","iso":"AF-JOW","qid":"Q183036"},"geometry":{"type":"Point","coordinates":[65.9617,36.8971]}},{"type":"Feature","id":"AFG-1745","properties":{"kind":"division","code":"AFG-1745","countryCode":"AFG","name":"Faryab","localName":"Faryab","labelEnglish":"Faryab","labelLocal":"Faryab","labelBoth":"Faryab","type":"Province","iso":"AF-FYB","qid":"Q173830"},"geometry":{"type":"Polygon","coordinates":[[[64.7285,36.8506],[64.4446,36.25],[63.9063,36.0317],[63.8893,35.7128],[64.0271,35.4872],[64.4158,35.4177],[64.4164,35.2368],[64.7301,35.2131],[65.4514,35.2539],[65.5212,35.6772],[65.7946,35.7943],[65.6852,36.0004],[65.5765,35.9279],[65.1449,35.9371],[65.2779,36.3612],[65.4848,36.3856],[65.3403,36.9068],[65.4879,37.242],[65.0631,37.2332],[64.7602,37.0926],[64.7285,36.8506]]]}},{"type":"Feature","id":"label-AFG-1745","properties":{"kind":"division-label","code":"AFG-1745","countryCode":"AFG","name":"Faryab","localName":"Faryab","labelEnglish":"Faryab","labelLocal":"Faryab","labelBoth":"Faryab","type":"Province","iso":"AF-FYB","qid":"Q173830"},"geometry":{"type":"Point","coordinates":[64.7678,35.8043]}},{"type":"Feature","id":"AFG-1741","properties":{"kind":"division","code":"AFG-1741","countryCode":"AFG","name":"Badghis","localName":"Badghis","labelEnglish":"Badghis","labelLocal":"Badghis","labelBoth":"Badghis","type":"Province","iso":"AF-BDG","qid":"Q172052"},"geometry":{"type":"Polygon","coordinates":[[[63.9063,36.0317],[63.3429,35.8563],[63.0802,35.4371],[62.8231,35.3275],[62.6718,34.8413],[63.1733,34.6107],[63.8053,34.5112],[64.2113,34.6812],[64.4763,34.6714],[64.9656,34.7654],[65.0473,34.9397],[64.7301,35.2131],[64.4164,35.2368],[64.4158,35.4177],[64.0271,35.4872],[63.8893,35.7128],[63.9063,36.0317]]]}},{"type":"Feature","id":"label-AFG-1741","properties":{"kind":"division-label","code":"AFG-1741","countryCode":"AFG","name":"Badghis","localName":"Badghis","labelEnglish":"Badghis","labelLocal":"Badghis","labelBoth":"Badghis","type":"Province","iso":"AF-BDG","qid":"Q172052"},"geometry":{"type":"Point","coordinates":[63.8495,35.2699]}},{"type":"Feature","id":"AFG-1742","properties":{"kind":"division","code":"AFG-1742","countryCode":"AFG","name":"Herat","localName":"Herat","labelEnglish":"Herat","labelLocal":"Herat","labelBoth":"Herat","type":"Province","iso":"AF-HER","qid":"Q182844"},"geometry":{"type":"Polygon","coordinates":[[[62.8231,35.3275],[62.302,35.1475],[62.0338,35.424],[61.5387,35.4523],[61.4193,35.5459],[61.2697,35.6185],[61.1083,35.278],[61.0655,34.8147],[60.6997,34.5164],[60.8905,34.3189],[60.6437,34.3066],[60.4885,34.0809],[60.5118,33.6384],[60.9198,33.5126],[61.8474,33.4765],[61.8441,33.1669],[61.6723,32.9007],[62.0325,32.7866],[62.3525,32.8451],[62.3965,32.9972],[63.0414,33.1765],[63.1403,33.3195],[63.0746,33.5328],[63.5774,33.7949],[63.3879,34.074],[63.4931,34.2685],[64.2013,34.2716],[64.1937,34.4653],[64.4703,34.4864],[64.4763,34.6714],[64.2113,34.6812],[63.8053,34.5112],[63.1733,34.6107],[62.6718,34.8413],[62.8231,35.3275]]]}},{"type":"Feature","id":"label-AFG-1742","properties":{"kind":"division-label","code":"AFG-1742","countryCode":"AFG","name":"Herat","localName":"Herat","labelEnglish":"Herat","labelLocal":"Herat","labelBoth":"Herat","type":"Province","iso":"AF-HER","qid":"Q182844"},"geometry":{"type":"Point","coordinates":[62.4845,34.1551]}},{"type":"Feature","id":"AFG-1751","properties":{"kind":"division","code":"AFG-1751","countryCode":"AFG","name":"Nimruz","localName":"Nimruz","labelEnglish":"Nimruz","labelLocal":"Nimruz","labelBoth":"Nimruz","type":"Province","iso":"AF-NIM","qid":"Q183021"},"geometry":{"type":"Polygon","coordinates":[[[60.8444,29.8582],[62.3745,29.4249],[62.6026,29.4181],[62.7641,30.1947],[63.0923,30.5187],[63.1431,30.9364],[63.3429,31.1253],[63.3164,31.3166],[63.5301,32.2002],[63.1395,32.2443],[63.0659,32.0466],[62.7433,31.93],[62.6009,32.0549],[61.9792,32.0211],[61.6651,31.5979],[61.6063,31.3887],[61.8263,31.0346],[61.7852,30.8314],[60.8444,29.8582]]]}},{"type":"Feature","id":"label-AFG-1751","properties":{"kind":"division-label","code":"AFG-1751","countryCode":"AFG","name":"Nimruz","localName":"Nimruz","labelEnglish":"Nimruz","labelLocal":"Nimruz","labelBoth":"Nimruz","type":"Province","iso":"AF-NIM","qid":"Q183021"},"geometry":{"type":"Point","coordinates":[62.2069,30.7528]}},{"type":"Feature","id":"AFG-1749","properties":{"kind":"division","code":"AFG-1749","countryCode":"AFG","name":"Farah","localName":"Farah","labelEnglish":"Farah","labelLocal":"Farah","labelBoth":"Farah","type":"Province","iso":"AF-FRA","qid":"Q180330"},"geometry":{"type":"Polygon","coordinates":[[[61.6063,31.3887],[61.6651,31.5979],[61.9792,32.0211],[62.6009,32.0549],[62.7433,31.93],[63.0659,32.0466],[63.1395,32.2443],[63.5301,32.2002],[64.2935,32.63],[64.5673,32.9042],[64.7252,33.2278],[64.5511,33.323],[64.3265,33.1233],[64.0115,33.4874],[63.499,33.3355],[63.1403,33.3195],[63.0414,33.1765],[62.3965,32.9972],[62.3525,32.8451],[62.0325,32.7866],[61.6723,32.9007],[61.8441,33.1669],[61.8474,33.4765],[60.9198,33.5126],[60.5676,33.1513],[60.8303,32.2489],[60.8217,31.4947],[61.1251,31.4489],[61.6063,31.3887]]]}},{"type":"Feature","id":"label-AFG-1749","properties":{"kind":"division-label","code":"AFG-1749","countryCode":"AFG","name":"Farah","localName":"Farah","labelEnglish":"Farah","labelLocal":"Farah","labelBoth":"Farah","type":"Province","iso":"AF-FRA","qid":"Q180330"},"geometry":{"type":"Point","coordinates":[62.6498,32.5314]}},{"type":"Feature","id":"AFG-1762","properties":{"kind":"division","code":"AFG-1762","countryCode":"AFG","name":"Kunar","localName":"Kunar","labelEnglish":"Kunar","labelLocal":"Kunar","labelBoth":"Kunar","type":"Province","iso":"AF-KNR","qid":"Q188147"},"geometry":{"type":"Polygon","coordinates":[[[71.4452,34.9378],[71.6337,35.2031],[71.5934,35.4642],[71.2343,35.3151],[71.1113,35.1034],[70.652,35.1316],[70.5744,34.994],[70.6155,34.8002],[70.7419,34.531],[70.9834,34.5553],[71.4452,34.9378]]]}},{"type":"Feature","id":"label-AFG-1762","properties":{"kind":"division-label","code":"AFG-1762","countryCode":"AFG","name":"Kunar","localName":"Kunar","labelEnglish":"Kunar","labelLocal":"Kunar","labelBoth":"Kunar","type":"Province","iso":"AF-KNR","qid":"Q188147"},"geometry":{"type":"Point","coordinates":[71.1061,34.9013]}},{"type":"Feature","id":"AFG-1761","properties":{"kind":"division","code":"AFG-1761","countryCode":"AFG","name":"Nuristan","localName":"Nuristan","labelEnglish":"Nuristan","labelLocal":"Nuristan","labelBoth":"Nuristan","type":"Province","iso":"AF-NUR","qid":"Q167485"},"geometry":{"type":"Polygon","coordinates":[[[71.1699,36.0308],[70.8644,35.4842],[70.5435,35.4463],[70.4866,35.6615],[70.2312,35.6704],[69.9199,35.343],[69.9722,35.2358],[70.2596,34.9422],[70.5744,34.994],[70.652,35.1316],[71.1113,35.1034],[71.2343,35.3151],[71.5934,35.4642],[71.3416,35.9473],[71.1699,36.0308]]]}},{"type":"Feature","id":"label-AFG-1761","properties":{"kind":"division-label","code":"AFG-1761","countryCode":"AFG","name":"Nuristan","localName":"Nuristan","labelEnglish":"Nuristan","labelLocal":"Nuristan","labelBoth":"Nuristan","type":"Province","iso":"AF-NUR","qid":"Q167485"},"geometry":{"type":"Point","coordinates":[70.7567,35.2898]}},{"type":"Feature","id":"AFG-1764","properties":{"kind":"division","code":"AFG-1764","countryCode":"AFG","name":"Nangarhar","localName":"Nangarhar","labelEnglish":"Nangarhar","labelLocal":"Nangarhar","labelBoth":"Nangarhar","type":"Province","iso":"AF-NAN","qid":"Q178471"},"geometry":{"type":"Polygon","coordinates":[[[70.9834,34.5553],[70.7419,34.531],[70.6155,34.8002],[70.3033,34.4659],[69.812,34.411],[69.4859,34.159],[69.7351,34.2502],[69.8976,34.0451],[69.9054,34.0358],[70.522,33.9387],[71.0626,34.0543],[71.122,34.3568],[70.9834,34.5553]]]}},{"type":"Feature","id":"label-AFG-1764","properties":{"kind":"division-label","code":"AFG-1764","countryCode":"AFG","name":"Nangarhar","localName":"Nangarhar","labelEnglish":"Nangarhar","labelLocal":"Nangarhar","labelBoth":"Nangarhar","type":"Province","iso":"AF-NAN","qid":"Q178471"},"geometry":{"type":"Point","coordinates":[70.3027,34.2153]}},{"type":"Feature","id":"AFG-1758","properties":{"kind":"division","code":"AFG-1758","countryCode":"AFG","name":"Khost","localName":"Khost","labelEnglish":"Khost","labelLocal":"Khost","labelBoth":"Khost","type":"Province","iso":"AF-KHO","qid":"Q185752"},"geometry":{"type":"Polygon","coordinates":[[[69.9965,33.7421],[69.5836,33.5546],[69.4012,33.2446],[69.4781,33.0114],[69.8809,33.0892],[70.2944,33.3189],[70.1702,33.6387],[69.9965,33.7421]]]}},{"type":"Feature","id":"label-AFG-1758","properties":{"kind":"division-label","code":"AFG-1758","countryCode":"AFG","name":"Khost","localName":"Khost","labelEnglish":"Khost","labelLocal":"Khost","labelBoth":"Khost","type":"Province","iso":"AF-KHO","qid":"Q185752"},"geometry":{"type":"Point","coordinates":[69.8211,33.363]}},{"type":"Feature","id":"AFG-3413","properties":{"kind":"division","code":"AFG-3413","countryCode":"AFG","name":"Paktia","localName":"Paktia","labelEnglish":"Paktia","labelLocal":"Paktia","labelBoth":"Paktia","type":"Province","iso":"AF-PKA","qid":"Q182493"},"geometry":{"type":"Polygon","coordinates":[[[69.9054,34.0358],[69.8976,34.0451],[69.5427,34.0501],[68.9845,33.6044],[68.7724,33.613],[68.7688,33.3933],[68.9811,33.3616],[68.9988,33.1603],[69.4012,33.2446],[69.5836,33.5546],[69.9965,33.7421],[69.9054,34.0358]]]}},{"type":"Feature","id":"label-AFG-3413","properties":{"kind":"division-label","code":"AFG-3413","countryCode":"AFG","name":"Paktia","localName":"Paktia","labelEnglish":"Paktia","labelLocal":"Paktia","labelBoth":"Paktia","type":"Province","iso":"AF-PKA","qid":"Q182493"},"geometry":{"type":"Point","coordinates":[69.3826,33.575]}},{"type":"Feature","id":"AFG-1759","properties":{"kind":"division","code":"AFG-1759","countryCode":"AFG","name":"Paktika","localName":"Paktika","labelEnglish":"Paktika","labelLocal":"Paktika","labelBoth":"Paktika","type":"Province","iso":"AF-PIA","qid":"Q185575"},"geometry":{"type":"Polygon","coordinates":[[[69.3012,31.9413],[69.228,32.4213],[69.4291,32.6674],[69.4781,33.0114],[69.4012,33.2446],[68.9988,33.1603],[68.9811,33.3616],[68.7688,33.3933],[68.1528,32.7306],[67.8188,32.7069],[68.0572,32.5029],[68.0513,32.0984],[68.0983,31.7591],[68.6758,31.7747],[69.004,31.6511],[69.3012,31.9413]]]}},{"type":"Feature","id":"label-AFG-1759","properties":{"kind":"division-label","code":"AFG-1759","countryCode":"AFG","name":"Paktika","localName":"Paktika","labelEnglish":"Paktika","labelLocal":"Paktika","labelBoth":"Paktika","type":"Province","iso":"AF-PIA","qid":"Q185575"},"geometry":{"type":"Point","coordinates":[68.651,32.5106]}},{"type":"Feature","id":"AFG-1755","properties":{"kind":"division","code":"AFG-1755","countryCode":"AFG","name":"Zabul","localName":"Zabul","labelEnglish":"Zabul","labelLocal":"Zabul","labelBoth":"Zabul","type":"Province","iso":"AF-ZAB","qid":"Q139126"},"geometry":{"type":"Polygon","coordinates":[[[68.0983,31.7591],[68.0513,32.0984],[67.7152,32.1675],[67.7807,32.3786],[67.4066,32.7989],[67.3983,33.0029],[67.0115,32.9271],[66.3266,32.4917],[66.5392,32.5018],[66.1821,31.8351],[66.3202,31.6936],[66.6963,31.8755],[66.9367,31.7371],[67.1885,31.761],[67.4112,31.5486],[67.7483,31.5444],[68.0983,31.7591]]]}},{"type":"Feature","id":"label-AFG-1755","properties":{"kind":"division-label","code":"AFG-1755","countryCode":"AFG","name":"Zabul","localName":"Zabul","labelEnglish":"Zabul","labelLocal":"Zabul","labelBoth":"Zabul","type":"Province","iso":"AF-ZAB","qid":"Q139126"},"geometry":{"type":"Point","coordinates":[67.1401,32.4033]}},{"type":"Feature","id":"AFG-1754","properties":{"kind":"division","code":"AFG-1754","countryCode":"AFG","name":"Kandahar","localName":"Kandahar","labelEnglish":"Kandahar","labelLocal":"Kandahar","labelBoth":"Kandahar","type":"Province","iso":"AF-KAN","qid":"Q173808"},"geometry":{"type":"Polygon","coordinates":[[[67.7483,31.5444],[67.4112,31.5486],[67.1885,31.761],[66.9367,31.7371],[66.6963,31.8755],[66.3202,31.6936],[66.1821,31.8351],[66.5392,32.5018],[66.3266,32.4917],[66.0359,32.4287],[65.6061,32.5752],[65.4143,32.2741],[65.2354,32.3239],[65.1153,32.0694],[64.818,31.8515],[64.736,31.4251],[64.6602,30.4153],[64.4995,29.5702],[65.0364,29.5402],[66.1956,29.8353],[66.3663,30.9229],[66.9433,31.3147],[67.3462,31.2078],[67.7494,31.328],[67.7483,31.5444]]]}},{"type":"Feature","id":"label-AFG-1754","properties":{"kind":"division-label","code":"AFG-1754","countryCode":"AFG","name":"Kandahar","localName":"Kandahar","labelEnglish":"Kandahar","labelLocal":"Kandahar","labelBoth":"Kandahar","type":"Province","iso":"AF-KAN","qid":"Q173808"},"geometry":{"type":"Point","coordinates":[65.7163,31.135]}},{"type":"Feature","id":"AFG-1750","properties":{"kind":"division","code":"AFG-1750","countryCode":"AFG","name":"Helmand","localName":"Helmand","labelEnglish":"Helmand","labelLocal":"Helmand","labelBoth":"Helmand","type":"Province","iso":"AF-HEL","qid":"Q173821"},"geometry":{"type":"Polygon","coordinates":[[[64.4995,29.5702],[64.6602,30.4153],[64.736,31.4251],[64.818,31.8515],[65.1153,32.0694],[65.2354,32.3239],[65.292,32.5505],[65.1854,32.9006],[65.3482,33.0925],[65.2191,33.363],[64.7252,33.2278],[64.5673,32.9042],[64.2935,32.63],[63.5301,32.2002],[63.3164,31.3166],[63.3429,31.1253],[63.1431,30.9364],[63.0923,30.5187],[62.7641,30.1947],[62.6026,29.4181],[63.5686,29.4975],[64.0861,29.3866],[64.4995,29.5702]]]}},{"type":"Feature","id":"label-AFG-1750","properties":{"kind":"division-label","code":"AFG-1750","countryCode":"AFG","name":"Helmand","localName":"Helmand","labelEnglish":"Helmand","labelLocal":"Helmand","labelBoth":"Helmand","type":"Province","iso":"AF-HEL","qid":"Q173821"},"geometry":{"type":"Point","coordinates":[63.9824,30.9278]}},{"type":"Feature","id":"AFG-1752","properties":{"kind":"division","code":"AFG-1752","countryCode":"AFG","name":"Urozgan","localName":"Urozgan","labelEnglish":"Urozgan","labelLocal":"Urozgan","labelBoth":"Urozgan","type":"Province","iso":"AF-URU","qid":"Q183028"},"geometry":{"type":"Polygon","coordinates":[[[66.8292,33.2809],[66.2952,33.2975],[66.0339,33.0602],[65.8056,33.1424],[65.3482,33.0925],[65.1854,32.9006],[65.292,32.5505],[65.2354,32.3239],[65.4143,32.2741],[65.6061,32.5752],[66.0359,32.4287],[66.3266,32.4917],[67.0115,32.9271],[66.9892,33.2458],[66.8292,33.2809]]]}},{"type":"Feature","id":"label-AFG-1752","properties":{"kind":"division-label","code":"AFG-1752","countryCode":"AFG","name":"Urozgan","localName":"Urozgan","labelEnglish":"Urozgan","labelLocal":"Urozgan","labelBoth":"Urozgan","type":"Province","iso":"AF-URU","qid":"Q183028"},"geometry":{"type":"Point","coordinates":[66.0947,32.807]}},{"type":"Feature","id":"AFG-1757","properties":{"kind":"division","code":"AFG-1757","countryCode":"AFG","name":"Ghazni","localName":"Ghazni","labelEnglish":"Ghazni","labelLocal":"Ghazni","labelBoth":"Ghazni","type":"Province","iso":"AF-GHA","qid":"Q180415"},"geometry":{"type":"Polygon","coordinates":[[[66.8292,33.2809],[66.9892,33.2458],[67.0115,32.9271],[67.3983,33.0029],[67.4066,32.7989],[67.7807,32.3786],[67.7152,32.1675],[68.0513,32.0984],[68.0572,32.5029],[67.8188,32.7069],[68.1528,32.7306],[68.7688,33.3933],[68.7724,33.613],[68.7119,33.7901],[68.5185,33.6764],[68.1452,33.9563],[68.0992,34.167],[67.4314,34.1386],[67.347,34.0366],[67.182,33.6839],[66.8444,33.5802],[66.8292,33.2809]]]}},{"type":"Feature","id":"label-AFG-1757","properties":{"kind":"division-label","code":"AFG-1757","countryCode":"AFG","name":"Ghazni","localName":"Ghazni","labelEnglish":"Ghazni","labelLocal":"Ghazni","labelBoth":"Ghazni","type":"Province","iso":"AF-GHA","qid":"Q180415"},"geometry":{"type":"Point","coordinates":[67.8006,33.4079]}},{"type":"Feature","id":"AFG-1769","properties":{"kind":"division","code":"AFG-1769","countryCode":"AFG","name":"Parwan","localName":"Parwan","labelEnglish":"Parwan","labelLocal":"Parwan","labelBoth":"Parwan","type":"Province","iso":"AF-PAR","qid":"Q188157"},"geometry":{"type":"Polygon","coordinates":[[[70.2734,35.8502],[69.961,35.8099],[69.7489,35.5411],[69.2635,35.3924],[69.2833,35.1617],[69.7969,35.0809],[69.9722,35.2358],[69.9199,35.343],[70.2312,35.6704],[70.2734,35.8502]]]}},{"type":"Feature","id":"label-AFG-1769","properties":{"kind":"division-label","code":"AFG-1769","countryCode":"AFG","name":"Parwan","localName":"Parwan","labelEnglish":"Parwan","labelLocal":"Parwan","labelBoth":"Parwan","type":"Province","iso":"AF-PAR","qid":"Q188157"},"geometry":{"type":"Point","coordinates":[69.7587,35.3368]}},{"type":"Feature","id":"AFG-1767","properties":{"kind":"division","code":"AFG-1767","countryCode":"AFG","name":"Kabul","localName":"Kabul","labelEnglish":"Kabul","labelLocal":"Kabul","labelBoth":"Kabul","type":"Province","iso":"AF-KAB","qid":"Q188933"},"geometry":{"type":"Polygon","coordinates":[[[69.8971,34.8536],[69.6043,34.6493],[69.4483,34.5912],[69.2275,34.8728],[68.9828,34.8954],[68.8627,34.6222],[68.9692,34.3491],[69.2815,34.3641],[69.4859,34.159],[69.812,34.411],[69.8971,34.8536]]]}},{"type":"Feature","id":"label-AFG-1767","properties":{"kind":"division-label","code":"AFG-1767","countryCode":"AFG","name":"Kabul","localName":"Kabul","labelEnglish":"Kabul","labelLocal":"Kabul","labelBoth":"Kabul","type":"Province","iso":"AF-KAB","qid":"Q188933"},"geometry":{"type":"Point","coordinates":[69.3846,34.4949]}},{"type":"Feature","id":"AFG-1770","properties":{"kind":"division","code":"AFG-1770","countryCode":"AFG","name":"Laghman","localName":"Laghman","labelEnglish":"Laghman","labelLocal":"Laghman","labelBoth":"Laghman","type":"Province","iso":"AF-LAG","qid":"Q185442"},"geometry":{"type":"Polygon","coordinates":[[[69.812,34.411],[70.3033,34.4659],[70.6155,34.8002],[70.5744,34.994],[70.2596,34.9422],[69.9722,35.2358],[69.7969,35.0809],[69.8971,34.8536],[69.812,34.411]]]}},{"type":"Feature","id":"label-AFG-1770","properties":{"kind":"division-label","code":"AFG-1770","countryCode":"AFG","name":"Laghman","localName":"Laghman","labelEnglish":"Laghman","labelLocal":"Laghman","labelBoth":"Laghman","type":"Province","iso":"AF-LAG","qid":"Q185442"},"geometry":{"type":"Point","coordinates":[70.2085,34.7273]}},{"type":"Feature","id":"AFG-1771","properties":{"kind":"division","code":"AFG-1771","countryCode":"AFG","name":"Logar","localName":"Logar","labelEnglish":"Logar","labelLocal":"Logar","labelBoth":"Logar","type":"Province","iso":"AF-LOG","qid":"Q6667298"},"geometry":{"type":"Polygon","coordinates":[[[69.4859,34.159],[69.2815,34.3641],[68.9692,34.3491],[68.7119,33.7901],[68.7724,33.613],[68.9845,33.6044],[69.5427,34.0501],[69.8976,34.0451],[69.7351,34.2502],[69.4859,34.159]]]}},{"type":"Feature","id":"label-AFG-1771","properties":{"kind":"division-label","code":"AFG-1771","countryCode":"AFG","name":"Logar","localName":"Logar","labelEnglish":"Logar","labelLocal":"Logar","labelBoth":"Logar","type":"Province","iso":"AF-LOG","qid":"Q6667298"},"geometry":{"type":"Point","coordinates":[69.3047,34.0857]}},{"type":"Feature","id":"AFG-1768","properties":{"kind":"division","code":"AFG-1768","countryCode":"AFG","name":"Kapisa","localName":"Kapisa","labelEnglish":"Kapisa","labelLocal":"Kapisa","labelBoth":"Kapisa","type":"Province","iso":"AF-KAP","qid":"Q173816"},"geometry":{"type":"Polygon","coordinates":[[[69.8971,34.8536],[69.7969,35.0809],[69.2833,35.1617],[69.566,34.9103],[69.6043,34.6493],[69.8971,34.8536]]]}},{"type":"Feature","id":"label-AFG-1768","properties":{"kind":"division-label","code":"AFG-1768","countryCode":"AFG","name":"Kapisa","localName":"Kapisa","labelEnglish":"Kapisa","labelLocal":"Kapisa","labelBoth":"Kapisa","type":"Province","iso":"AF-KAP","qid":"Q173816"},"geometry":{"type":"Point","coordinates":[69.6626,34.9748]}},{"type":"Feature","id":"AFG-1774","properties":{"kind":"division","code":"AFG-1774","countryCode":"AFG","name":"Maidan Wardak","localName":"Maidan Wardak","labelEnglish":"Maidan Wardak","labelLocal":"Maidan Wardak","labelBoth":"Maidan Wardak","type":"Province","iso":"AF-WAR","qid":"Q183056"},"geometry":{"type":"Polygon","coordinates":[[[68.8627,34.6222],[68.3995,34.6247],[68.2827,34.8003],[67.9743,34.596],[67.507,34.6811],[67.2903,34.6203],[67.2767,34.4154],[67.5481,34.2777],[67.4314,34.1386],[68.0992,34.167],[68.1452,33.9563],[68.5185,33.6764],[68.7119,33.7901],[68.9692,34.3491],[68.8627,34.6222]]]}},{"type":"Feature","id":"label-AFG-1774","properties":{"kind":"division-label","code":"AFG-1774","countryCode":"AFG","name":"Maidan Wardak","localName":"Maidan Wardak","labelEnglish":"Maidan Wardak","labelLocal":"Maidan Wardak","labelBoth":"Maidan Wardak","type":"Province","iso":"AF-WAR","qid":"Q183056"},"geometry":{"type":"Point","coordinates":[68.1087,34.4269]}},{"type":"Feature","id":"AFG-1743","properties":{"kind":"division","code":"AFG-1743","countryCode":"AFG","name":"Bamyan","localName":"Bamyan","labelEnglish":"Bamyan","labelLocal":"Bamyan","labelBoth":"Bamyan","type":"Province","iso":"AF-BAM","qid":"Q171382"},"geometry":{"type":"Polygon","coordinates":[[[67.4314,34.1386],[67.5481,34.2777],[67.2767,34.4154],[67.2903,34.6203],[67.507,34.6811],[67.9743,34.596],[68.2827,34.8003],[68.184,35.0096],[68.0155,35.0644],[68.0885,35.4612],[67.5987,35.4696],[66.8346,35.3752],[66.6822,35.2149],[66.3399,35.1409],[66.3636,34.9142],[66.7649,34.645],[66.487,34.3892],[66.5159,34.0611],[67.0396,33.939],[67.347,34.0366],[67.4314,34.1386]]]}},{"type":"Feature","id":"label-AFG-1743","properties":{"kind":"division-label","code":"AFG-1743","countryCode":"AFG","name":"Bamyan","localName":"Bamyan","labelEnglish":"Bamyan","labelLocal":"Bamyan","labelBoth":"Bamyan","type":"Province","iso":"AF-BAM","qid":"Q171382"},"geometry":{"type":"Point","coordinates":[67.2365,34.9693]}},{"type":"Feature","id":"AFG-1772","properties":{"kind":"division","code":"AFG-1772","countryCode":"AFG","name":"Parwan","localName":"Parwan","labelEnglish":"Parwan","labelLocal":"Parwan","labelBoth":"Parwan","type":"Province","iso":"AF-PAR","qid":"Q188157"},"geometry":{"type":"Polygon","coordinates":[[[68.8627,34.6222],[68.9828,34.8954],[69.2275,34.8728],[69.4483,34.5912],[69.6043,34.6493],[69.566,34.9103],[69.2833,35.1617],[69.2635,35.3924],[68.791,35.2438],[68.5756,35.0639],[68.184,35.0096],[68.2827,34.8003],[68.3995,34.6247],[68.8627,34.6222]]]}},{"type":"Feature","id":"label-AFG-1772","properties":{"kind":"division-label","code":"AFG-1772","countryCode":"AFG","name":"Parwan","localName":"Parwan","labelEnglish":"Parwan","labelLocal":"Parwan","labelBoth":"Parwan","type":"Province","iso":"AF-PAR","qid":"Q188157"},"geometry":{"type":"Point","coordinates":[68.8995,34.9984]}},{"type":"Feature","id":"AFG-1748","properties":{"kind":"division","code":"AFG-1748","countryCode":"AFG","name":"Sar-e Pol","localName":"Sar-e Pol","labelEnglish":"Sar-e Pol","labelLocal":"Sar-e Pol","labelBoth":"Sar-e Pol","type":"Province","iso":"AF-SAR","qid":"Q182487"},"geometry":{"type":"Polygon","coordinates":[[[66.5273,36.5877],[66.0477,36.5303],[65.5271,36.3396],[65.5332,35.9742],[65.6852,36.0004],[65.7946,35.7943],[65.5212,35.6772],[65.4514,35.2539],[65.6423,35.2696],[66.0369,35.0628],[66.1078,34.829],[66.3636,34.9142],[66.3399,35.1409],[66.6822,35.2149],[66.8346,35.3752],[67.0261,35.6474],[66.9049,35.7181],[66.5204,35.67],[66.6288,35.8625],[66.4614,36.2242],[66.6799,36.5461],[66.5273,36.5877]]]}},{"type":"Feature","id":"label-AFG-1748","properties":{"kind":"division-label","code":"AFG-1748","countryCode":"AFG","name":"Sar-e Pol","localName":"Sar-e Pol","labelEnglish":"Sar-e Pol","labelLocal":"Sar-e Pol","labelBoth":"Sar-e Pol","type":"Province","iso":"AF-SAR","qid":"Q182487"},"geometry":{"type":"Point","coordinates":[66.2158,35.7062]}},{"type":"Feature","id":"AFG-1747","properties":{"kind":"division","code":"AFG-1747","countryCode":"AFG","name":"Ghōr","localName":"Ghōr","labelEnglish":"Ghōr","labelLocal":"Ghōr","labelBoth":"Ghōr","type":"Province","iso":"AF-GHO","qid":"Q186392"},"geometry":{"type":"Polygon","coordinates":[[[66.3636,34.9142],[66.1078,34.829],[66.0369,35.0628],[65.6423,35.2696],[65.4514,35.2539],[64.7301,35.2131],[65.0473,34.9397],[64.9656,34.7654],[64.4763,34.6714],[64.4703,34.4864],[64.1937,34.4653],[64.2013,34.2716],[63.4931,34.2685],[63.3879,34.074],[63.5774,33.7949],[63.0746,33.5328],[63.1403,33.3195],[63.499,33.3355],[64.0115,33.4874],[64.3265,33.1233],[64.5511,33.323],[64.7252,33.2278],[65.2191,33.363],[65.5744,33.6007],[65.4084,33.8848],[65.5218,34.345],[66.487,34.3892],[66.7649,34.645],[66.3636,34.9142]]]}},{"type":"Feature","id":"label-AFG-1747","properties":{"kind":"division-label","code":"AFG-1747","countryCode":"AFG","name":"Ghōr","localName":"Ghōr","labelEnglish":"Ghōr","labelLocal":"Ghōr","labelBoth":"Ghōr","type":"Province","iso":"AF-GHO","qid":"Q186392"},"geometry":{"type":"Point","coordinates":[64.9224,34.002]}},{"type":"Feature","id":"AFG-1766","properties":{"kind":"division","code":"AFG-1766","countryCode":"AFG","name":"Baghlan","localName":"Baghlan","labelEnglish":"Baghlan","labelLocal":"Baghlan","labelBoth":"Baghlan","type":"Province","iso":"AF-BGL","qid":"Q170309"},"geometry":{"type":"Polygon","coordinates":[[[69.961,35.8099],[69.6707,36.3531],[69.2207,36.297],[68.7228,36.5343],[68.2395,36.5712],[68.1727,36.5212],[68.5314,36.1526],[68.3443,35.9946],[68.0885,35.4612],[68.0155,35.0644],[68.184,35.0096],[68.5756,35.0639],[68.791,35.2438],[69.2635,35.3924],[69.7489,35.5411],[69.961,35.8099]]]}},{"type":"Feature","id":"label-AFG-1766","properties":{"kind":"division-label","code":"AFG-1766","countryCode":"AFG","name":"Baghlan","localName":"Baghlan","labelEnglish":"Baghlan","labelLocal":"Baghlan","labelBoth":"Baghlan","type":"Province","iso":"AF-BGL","qid":"Q170309"},"geometry":{"type":"Point","coordinates":[68.9831,35.8588]}},{"type":"Feature","id":"AFG-1773","properties":{"kind":"division","code":"AFG-1773","countryCode":"AFG","name":"Samangan","localName":"Samangan","labelEnglish":"Samangan","labelLocal":"Samangan","labelBoth":"Samangan","type":"Province","iso":"AF-SAM","qid":"Q183015"},"geometry":{"type":"Polygon","coordinates":[[[68.1891,36.5932],[67.688,36.6479],[67.3743,36.554],[67.3738,36.2894],[67.0675,36.0639],[66.9049,35.7181],[67.0261,35.6474],[66.8346,35.3752],[67.5987,35.4696],[68.0885,35.4612],[68.3443,35.9946],[68.5314,36.1526],[68.1727,36.5212],[68.2395,36.5712],[68.1891,36.5932]]]}},{"type":"Feature","id":"label-AFG-1773","properties":{"kind":"division-label","code":"AFG-1773","countryCode":"AFG","name":"Samangan","localName":"Samangan","labelEnglish":"Samangan","labelLocal":"Samangan","labelBoth":"Samangan","type":"Province","iso":"AF-SAM","qid":"Q183015"},"geometry":{"type":"Point","coordinates":[67.683,36.0506]}},{"type":"Feature","id":"AFG-1753","properties":{"kind":"division","code":"AFG-1753","countryCode":"AFG","name":"Urozgan","localName":"Urozgan","labelEnglish":"Urozgan","labelLocal":"Urozgan","labelBoth":"Urozgan","type":"Province","iso":"AF-URU","qid":"Q183028"},"geometry":{"type":"Polygon","coordinates":[[[67.347,34.0366],[67.0396,33.939],[66.5159,34.0611],[66.487,34.3892],[65.5218,34.345],[65.4084,33.8848],[65.5744,33.6007],[65.2191,33.363],[65.3482,33.0925],[65.8056,33.1424],[66.0339,33.0602],[66.2952,33.2975],[66.8292,33.2809],[66.8444,33.5802],[67.182,33.6839],[67.347,34.0366]]]}},{"type":"Feature","id":"label-AFG-1753","properties":{"kind":"division-label","code":"AFG-1753","countryCode":"AFG","name":"Urozgan","localName":"Urozgan","labelEnglish":"Urozgan","labelLocal":"Urozgan","labelBoth":"Urozgan","type":"Province","iso":"AF-URU","qid":"Q183028"},"geometry":{"type":"Point","coordinates":[66.3011,33.8446]}}]}