{"type":"FeatureCollection","features":[{"type":"Feature","id":"AGO-1885","properties":{"kind":"division","code":"AGO-1885","countryCode":"AGO","name":"Cabinda","localName":"Cabinda","labelEnglish":"Cabinda","labelLocal":"Cabinda","labelBoth":"Cabinda","type":"Province","iso":"AO-CAB","qid":"Q168787"},"geometry":{"type":"Polygon","coordinates":[[[12.7827,-4.4001],[12.387,-4.6055],[12.0096,-5.0196],[12.2322,-5.4796],[12.2105,-5.7634],[12.509,-5.7263],[12.5307,-5.1627],[12.4444,-5.0551],[12.8332,-4.7227],[13.0737,-4.6353],[12.7827,-4.4001]]]}},{"type":"Feature","id":"label-AGO-1885","properties":{"kind":"division-label","code":"AGO-1885","countryCode":"AGO","name":"Cabinda","localName":"Cabinda","labelEnglish":"Cabinda","labelLocal":"Cabinda","labelBoth":"Cabinda","type":"Province","iso":"AO-CAB","qid":"Q168787"},"geometry":{"type":"Point","coordinates":[12.543,-4.80148]}},{"type":"Feature","id":"AGO-1888","properties":{"kind":"division","code":"AGO-1888","countryCode":"AGO","name":"Cuando Cubango","localName":"Cuando Cubango","labelEnglish":"Cuando Cubango","labelLocal":"Cuando Cubango","labelBoth":"Cuando Cubango","type":"Province","iso":"AO-CCU","qid":"Q215268"},"geometry":{"type":"Polygon","coordinates":[[[21.9838,-16.1659],[21.6223,-15.8453],[21.3774,-15.4228],[20.9276,-15.0045],[20.2711,-14.9854],[20.0877,-14.9061],[19.6822,-14.5298],[19.5278,-14.2897],[19.2219,-14.2533],[19.1588,-14.3896],[18.8972,-14.3837],[18.7275,-13.9493],[18.5549,-13.8066],[17.9531,-13.5723],[17.807,-13.8512],[17.4654,-14.0301],[17.3177,-14.3094],[16.9534,-13.9984],[16.4736,-14.0103],[16.5023,-14.6268],[16.748,-15.1631],[17.0545,-15.4502],[17.3835,-15.9248],[17.4175,-16.3655],[17.2352,-16.7706],[17.279,-17.3889],[18.0005,-17.3891],[18.4536,-17.3899],[18.762,-17.7477],[19.0206,-17.8223],[20.0343,-17.8959],[20.3362,-17.8549],[20.8062,-18.0314],[20.9865,-17.9658],[21.3812,-18.0126],[23.3817,-17.6411],[22.7559,-17.1549],[22.3337,-16.6737],[22.1081,-16.5439],[21.9838,-16.1659]]]}},{"type":"Feature","id":"label-AGO-1888","properties":{"kind":"division-label","code":"AGO-1888","countryCode":"AGO","name":"Cuando Cubango","localName":"Cuando Cubango","labelEnglish":"Cuando Cubango","labelLocal":"Cuando Cubango","labelBoth":"Cuando Cubango","type":"Province","iso":"AO-CCU","qid":"Q215268"},"geometry":{"type":"Point","coordinates":[19.9218,-16.311]}},{"type":"Feature","id":"AGO-1892","properties":{"kind":"division","code":"AGO-1892","countryCode":"AGO","name":"Moxico","localName":"Moxico","labelEnglish":"Moxico","labelLocal":"Moxico","labelBoth":"Moxico","type":"Province","iso":"AO-MOX","qid":"Q173988"},"geometry":{"type":"Polygon","coordinates":[[[21.9804,-13.6948],[21.9799,-13.0015],[24.0006,-13.0015],[23.8657,-12.7897],[24.0308,-12.3851],[23.9596,-12.1967],[23.9599,-11.6172],[24.0611,-11.395],[23.9675,-10.8723],[23.8337,-11.0285],[23.4948,-10.9643],[23.0143,-11.1025],[22.5376,-11.0372],[22.2376,-11.2495],[22.1655,-10.8524],[22.3086,-10.6125],[21.7949,-10.6304],[21.674,-10.888],[21.6962,-11.1325],[21.2356,-11.2746],[21.0355,-11.4716],[20.7473,-11.4435],[20.1768,-11.209],[19.6242,-11.256],[19.1886,-11.456],[18.8575,-11.9],[18.7107,-12.2623],[18.5186,-12.3771],[18.059,-13.0865],[17.9531,-13.5723],[18.5549,-13.8066],[18.7275,-13.9493],[18.8972,-14.3837],[19.1588,-14.3896],[19.2219,-14.2533],[19.5278,-14.2897],[19.6822,-14.5298],[20.0877,-14.9061],[20.2711,-14.9854],[20.9276,-15.0045],[21.3774,-15.4228],[21.6223,-15.8453],[21.9838,-16.1659],[21.9804,-13.6948]]]}},{"type":"Feature","id":"label-AGO-1892","properties":{"kind":"division-label","code":"AGO-1892","countryCode":"AGO","name":"Moxico","localName":"Moxico","labelEnglish":"Moxico","labelLocal":"Moxico","labelBoth":"Moxico","type":"Province","iso":"AO-MOX","qid":"Q173988"},"geometry":{"type":"Point","coordinates":[21.0033,-13.281]}},{"type":"Feature","id":"AGO-1893","properties":{"kind":"division","code":"AGO-1893","countryCode":"AGO","name":"Namibe","localName":"Namibe","labelEnglish":"Namibe","labelLocal":"Namibe","labelBoth":"Namibe","type":"Province","iso":"AO-NAM","qid":"Q216819"},"geometry":{"type":"Polygon","coordinates":[[[11.7661,-17.2527],[12.0289,-17.149],[12.5546,-17.2356],[12.8872,-17.0298],[13.3459,-16.9687],[13.1547,-16.714],[13.2271,-16.4288],[13.4809,-16.2482],[13.5898,-15.8202],[13.5458,-15.5309],[13.2207,-15.2293],[13.2966,-14.8864],[13.5903,-14.6762],[13.6811,-14.438],[13.5647,-13.8469],[13.3821,-13.8221],[13.2865,-13.5621],[12.5334,-13.567],[12.5025,-13.8552],[12.3288,-14.0922],[12.2727,-14.7506],[12.0564,-15.2331],[11.992,-15.6173],[11.7518,-15.7991],[11.822,-16.4791],[11.7661,-17.2527]]]}},{"type":"Feature","id":"label-AGO-1893","properties":{"kind":"division-label","code":"AGO-1893","countryCode":"AGO","name":"Namibe","localName":"Namibe","labelEnglish":"Namibe","labelLocal":"Namibe","labelBoth":"Namibe","type":"Province","iso":"AO-NAM","qid":"Q216819"},"geometry":{"type":"Point","coordinates":[12.6525,-15.8249]}},{"type":"Feature","id":"AGO-1889","properties":{"kind":"division","code":"AGO-1889","countryCode":"AGO","name":"Cunene","localName":"Cunene","labelEnglish":"Cunene","labelLocal":"Cunene","labelBoth":"Cunene","type":"Province","iso":"AO-CNN","qid":"Q216987"},"geometry":{"type":"Polygon","coordinates":[[[13.3459,-16.9687],[13.9427,-17.4082],[14.2191,-17.3881],[15.5591,-17.3885],[17.279,-17.3889],[17.2352,-16.7706],[17.4175,-16.3655],[17.3835,-15.9248],[17.0545,-15.4502],[16.748,-15.1631],[16.5173,-15.1558],[16.2341,-15.3809],[15.7106,-15.3998],[15.4591,-15.5712],[15.1684,-16.0386],[14.5269,-15.857],[14.0118,-16.1993],[13.8946,-16.1561],[13.6159,-16.3665],[13.4809,-16.2482],[13.2271,-16.4288],[13.1547,-16.714],[13.3459,-16.9687]]]}},{"type":"Feature","id":"label-AGO-1889","properties":{"kind":"division-label","code":"AGO-1889","countryCode":"AGO","name":"Cunene","localName":"Cunene","labelEnglish":"Cunene","labelLocal":"Cunene","labelBoth":"Cunene","type":"Province","iso":"AO-CNN","qid":"Q216987"},"geometry":{"type":"Point","coordinates":[15.281,-16.6271]}},{"type":"Feature","id":"AGO-1882","properties":{"kind":"division","code":"AGO-1882","countryCode":"AGO","name":"Zaire","localName":"Zaire","labelEnglish":"Zaire","labelLocal":"Zaire","labelBoth":"Zaire","type":"Province","iso":"AO-ZAI","qid":"Q196674"},"geometry":{"type":"Polygon","coordinates":[[[14.7597,-5.8805],[13.1839,-5.8564],[12.7425,-6.0494],[12.2751,-6.1148],[12.6204,-6.7348],[12.8288,-6.9046],[12.85,-7.2659],[13.0941,-7.7928],[13.817,-7.6198],[13.9553,-7.4846],[13.7975,-6.9795],[14.2908,-6.715],[14.7883,-6.5367],[14.9676,-6.2633],[14.7597,-5.8805]]]}},{"type":"Feature","id":"label-AGO-1882","properties":{"kind":"division-label","code":"AGO-1882","countryCode":"AGO","name":"Zaire","localName":"Zaire","labelEnglish":"Zaire","labelLocal":"Zaire","labelBoth":"Zaire","type":"Province","iso":"AO-ZAI","qid":"Q196674"},"geometry":{"type":"Point","coordinates":[13.6096,-6.78301]}},{"type":"Feature","id":"AGO-1881","properties":{"kind":"division","code":"AGO-1881","countryCode":"AGO","name":"Uíge","localName":"Uíge","labelEnglish":"Uíge","labelLocal":"Uíge","labelBoth":"Uíge","type":"Province","iso":"AO-UIG","qid":"Q216972"},"geometry":{"type":"Polygon","coordinates":[[[17.0979,-7.3783],[16.9732,-7.0148],[16.7681,-6.7083],[16.7268,-6.1892],[16.5974,-5.9247],[16.1009,-5.8581],[14.7597,-5.8805],[14.9676,-6.2633],[14.7883,-6.5367],[14.2908,-6.715],[13.7975,-6.9795],[13.9553,-7.4846],[13.817,-7.6198],[14.1249,-7.6418],[14.4183,-7.8929],[14.7183,-7.9271],[14.6618,-8.3985],[15.1127,-8.2978],[15.1925,-7.9698],[15.7161,-8.0113],[15.8005,-8.2115],[16.092,-8.1152],[16.0585,-7.6605],[16.3457,-7.434],[16.6272,-7.3326],[16.8907,-7.6009],[17.0979,-7.3783]]]}},{"type":"Feature","id":"label-AGO-1881","properties":{"kind":"division-label","code":"AGO-1881","countryCode":"AGO","name":"Uíge","localName":"Uíge","labelEnglish":"Uíge","labelLocal":"Uíge","labelBoth":"Uíge","type":"Province","iso":"AO-UIG","qid":"Q216972"},"geometry":{"type":"Point","coordinates":[15.4475,-6.95896]}},{"type":"Feature","id":"AGO-1874","properties":{"kind":"division","code":"AGO-1874","countryCode":"AGO","name":"Lunda Norte","localName":"Lunda Norte","labelEnglish":"Lunda Norte","labelLocal":"Lunda Norte","labelBoth":"Lunda Norte","type":"Province","iso":"AO-LNO","qid":"Q214221"},"geometry":{"type":"Polygon","coordinates":[[[21.8266,-7.6456],[21.785,-7.2834],[20.5205,-7.2864],[20.6115,-6.916],[19.9631,-7.0019],[19.5218,-7.0019],[19.5132,-7.4794],[19.3556,-7.5741],[19.3555,-8.002],[18.1766,-7.9992],[17.5362,-8.0754],[17.5851,-9.1098],[17.3365,-9.3279],[17.4136,-9.5773],[17.7134,-9.8068],[18.2354,-10.0027],[18.1768,-10.2128],[18.4697,-10.4023],[18.6323,-10.4035],[19.8639,-9.8431],[19.9919,-9.4701],[20.6944,-8.9848],[21.0288,-8.6088],[21.5522,-8.5416],[21.9131,-8.333],[21.7585,-8.0151],[21.8266,-7.6456]]]}},{"type":"Feature","id":"label-AGO-1874","properties":{"kind":"division-label","code":"AGO-1874","countryCode":"AGO","name":"Lunda Norte","localName":"Lunda Norte","labelEnglish":"Lunda Norte","labelLocal":"Lunda Norte","labelBoth":"Lunda Norte","type":"Province","iso":"AO-LNO","qid":"Q214221"},"geometry":{"type":"Point","coordinates":[19.6268,-8.4722]}},{"type":"Feature","id":"AGO-1876","properties":{"kind":"division","code":"AGO-1876","countryCode":"AGO","name":"Malanje","localName":"Malanje","labelEnglish":"Malanje","labelLocal":"Malanje","labelBoth":"Malanje","type":"Province","iso":"AO-MAL","qid":"Q219072"},"geometry":{"type":"Polygon","coordinates":[[[17.0979,-7.3783],[16.8907,-7.6009],[16.6272,-7.3326],[16.3457,-7.434],[16.0585,-7.6605],[16.092,-8.1152],[15.8005,-8.2115],[15.8161,-8.4028],[15.6169,-8.6016],[15.7224,-8.7207],[15.6378,-9.1516],[15.1206,-9.3552],[15.1094,-9.7237],[15.3638,-9.8168],[15.809,-9.716],[16.1633,-9.7432],[16.3079,-9.899],[16.336,-10.2492],[16.6116,-10.5742],[16.7862,-10.7689],[17.2813,-10.8577],[17.4489,-11.1025],[17.5006,-11.684],[17.9115,-11.5204],[18.4056,-11.5404],[18.8369,-11.3476],[18.7627,-10.9613],[18.6739,-10.6119],[18.4697,-10.4023],[18.1768,-10.2128],[18.2354,-10.0027],[17.7134,-9.8068],[17.4136,-9.5773],[17.3365,-9.3279],[17.5851,-9.1098],[17.5362,-8.0754],[17.0979,-7.3783]]]}},{"type":"Feature","id":"label-AGO-1876","properties":{"kind":"division-label","code":"AGO-1876","countryCode":"AGO","name":"Malanje","localName":"Malanje","labelEnglish":"Malanje","labelLocal":"Malanje","labelBoth":"Malanje","type":"Province","iso":"AO-MAL","qid":"Q219072"},"geometry":{"type":"Point","coordinates":[16.9731,-9.14742]}},{"type":"Feature","id":"AGO-1875","properties":{"kind":"division","code":"AGO-1875","countryCode":"AGO","name":"Lunda Sul","localName":"Lunda Sul","labelEnglish":"Lunda Sul","labelLocal":"Lunda Sul","labelBoth":"Lunda Sul","type":"Province","iso":"AO-LSU","qid":"Q219648"},"geometry":{"type":"Polygon","coordinates":[[[21.9131,-8.333],[21.5522,-8.5416],[21.0288,-8.6088],[20.6944,-8.9848],[19.9919,-9.4701],[19.8639,-9.8431],[18.6323,-10.4035],[18.4697,-10.4023],[18.6739,-10.6119],[18.7627,-10.9613],[19.236,-11.2937],[19.1886,-11.456],[19.6242,-11.256],[20.1768,-11.209],[20.7473,-11.4435],[21.0355,-11.4716],[21.2356,-11.2746],[21.6962,-11.1325],[21.674,-10.888],[21.7949,-10.6304],[22.3086,-10.6125],[22.3134,-10.3686],[22.1599,-9.9315],[21.8541,-9.6178],[21.8599,-8.8464],[21.9131,-8.333]]]}},{"type":"Feature","id":"label-AGO-1875","properties":{"kind":"division-label","code":"AGO-1875","countryCode":"AGO","name":"Lunda Sul","localName":"Lunda Sul","labelEnglish":"Lunda Sul","labelLocal":"Lunda Sul","labelBoth":"Lunda Sul","type":"Province","iso":"AO-LSU","qid":"Q219648"},"geometry":{"type":"Point","coordinates":[20.3821,-10.2341]}},{"type":"Feature","id":"AGO-1879","properties":{"kind":"division","code":"AGO-1879","countryCode":"AGO","name":"Cuanza Sul","localName":"Cuanza Sul","labelEnglish":"Cuanza Sul","labelLocal":"Cuanza Sul","labelBoth":"Cuanza Sul","type":"Province","iso":"AO-CUS","qid":"Q216998"},"geometry":{"type":"Polygon","coordinates":[[[13.7926,-11.7487],[14.0759,-11.7877],[14.2362,-12.0015],[14.517,-11.8598],[14.6711,-12.0822],[15.0212,-12.206],[15.3826,-11.9669],[15.4034,-11.5579],[15.7482,-11.4437],[15.9511,-10.9468],[16.2065,-10.9941],[16.6116,-10.5742],[16.336,-10.2492],[16.3079,-9.899],[16.1633,-9.7432],[15.809,-9.716],[15.3638,-9.8168],[15.1094,-9.7237],[14.9485,-9.6735],[14.5652,-9.7692],[14.55,-10.439],[14.2152,-10.2764],[14.0239,-10.3998],[13.4891,-10.2493],[13.7529,-10.6462],[13.8465,-11.1137],[13.7926,-11.7487]]]}},{"type":"Feature","id":"label-AGO-1879","properties":{"kind":"division-label","code":"AGO-1879","countryCode":"AGO","name":"Cuanza Sul","localName":"Cuanza Sul","labelEnglish":"Cuanza Sul","labelLocal":"Cuanza Sul","labelBoth":"Cuanza Sul","type":"Province","iso":"AO-CUS","qid":"Q216998"},"geometry":{"type":"Point","coordinates":[15.0504,-10.9232]}},{"type":"Feature","id":"AGO-1887","properties":{"kind":"division","code":"AGO-1887","countryCode":"AGO","name":"Benguela","localName":"Benguela","labelEnglish":"Benguela","labelLocal":"Benguela","labelBoth":"Benguela","type":"Province","iso":"AO-BGU","qid":"Q212786"},"geometry":{"type":"Polygon","coordinates":[[[12.5334,-13.567],[13.2865,-13.5621],[13.3821,-13.8221],[13.5647,-13.8469],[14.3541,-13.8552],[14.4762,-13.6143],[14.6393,-13.6575],[15.1108,-13.4029],[14.9621,-13.2854],[14.8066,-12.685],[15.0693,-12.516],[15.0212,-12.206],[14.6711,-12.0822],[14.517,-11.8598],[14.2362,-12.0015],[14.0759,-11.7877],[13.7926,-11.7487],[13.6398,-12.2487],[13.364,-12.5927],[13.1786,-12.6017],[12.9395,-12.8167],[12.9448,-12.9824],[12.5127,-13.4421],[12.5334,-13.567]]]}},{"type":"Feature","id":"label-AGO-1887","properties":{"kind":"division-label","code":"AGO-1887","countryCode":"AGO","name":"Benguela","localName":"Benguela","labelEnglish":"Benguela","labelLocal":"Benguela","labelBoth":"Benguela","type":"Province","iso":"AO-BGU","qid":"Q212786"},"geometry":{"type":"Point","coordinates":[13.8119,-12.7993]}},{"type":"Feature","id":"AGO-1877","properties":{"kind":"division","code":"AGO-1877","countryCode":"AGO","name":"Bengo","localName":"Bengo","labelEnglish":"Bengo","labelLocal":"Bengo","labelBoth":"Bengo","type":"Province","iso":"AO-BGO","qid":"Q191299"},"geometry":{"type":"Polygon","coordinates":[[[13.371,-8.5816],[13.6161,-8.6939],[13.4747,-9.1717],[13.1434,-9.3303],[13.1986,-9.7087],[13.4891,-10.2493],[14.0239,-10.3998],[14.2152,-10.2764],[14.55,-10.439],[14.5652,-9.7692],[14.0845,-9.5256],[14.2003,-9.2655],[14.1206,-8.8898],[14.3732,-8.7181],[14.2631,-8.4672],[14.6618,-8.3985],[14.7183,-7.9271],[14.4183,-7.8929],[14.1249,-7.6418],[13.817,-7.6198],[13.0941,-7.7928],[13.3694,-8.3235],[13.371,-8.5816]]]}},{"type":"Feature","id":"label-AGO-1877","properties":{"kind":"division-label","code":"AGO-1877","countryCode":"AGO","name":"Bengo","localName":"Bengo","labelEnglish":"Bengo","labelLocal":"Bengo","labelBoth":"Bengo","type":"Province","iso":"AO-BGO","qid":"Q191299"},"geometry":{"type":"Point","coordinates":[13.907,-8.99949]}},{"type":"Feature","id":"AGO-1880","properties":{"kind":"division","code":"AGO-1880","countryCode":"AGO","name":"Luanda","localName":"Luanda","labelEnglish":"Luanda","labelLocal":"Luanda","labelBoth":"Luanda","type":"Province","iso":"AO-LUA","qid":"Q190066"},"geometry":{"type":"Polygon","coordinates":[[[13.1434,-9.3303],[13.4747,-9.1717],[13.6161,-8.6939],[13.371,-8.5816],[12.9963,-9.0938],[13.1434,-9.3303]]]}},{"type":"Feature","id":"label-AGO-1880","properties":{"kind":"division-label","code":"AGO-1880","countryCode":"AGO","name":"Luanda","localName":"Luanda","labelEnglish":"Luanda","labelLocal":"Luanda","labelBoth":"Luanda","type":"Province","iso":"AO-LUA","qid":"Q190066"},"geometry":{"type":"Point","coordinates":[13.3166,-8.95941]}},{"type":"Feature","id":"AGO-1886","properties":{"kind":"division","code":"AGO-1886","countryCode":"AGO","name":"Bié","localName":"Bié","labelEnglish":"Bié","labelLocal":"Bié","labelBoth":"Bié","type":"Province","iso":"AO-BIE","qid":"Q213977"},"geometry":{"type":"Polygon","coordinates":[[[16.6116,-10.5742],[16.2065,-10.9941],[15.9511,-10.9468],[15.7482,-11.4437],[16.2923,-11.503],[16.5789,-11.9696],[16.3375,-12.2769],[16.306,-12.5795],[16.5029,-12.7515],[16.5262,-13.3563],[16.4736,-14.0103],[16.9534,-13.9984],[17.3177,-14.3094],[17.4654,-14.0301],[17.807,-13.8512],[17.9531,-13.5723],[18.059,-13.0865],[18.5186,-12.3771],[18.7107,-12.2623],[18.8575,-11.9],[19.1886,-11.456],[19.236,-11.2937],[18.7627,-10.9613],[18.8369,-11.3476],[18.4056,-11.5404],[17.9115,-11.5204],[17.5006,-11.684],[17.4489,-11.1025],[17.2813,-10.8577],[16.7862,-10.7689],[16.6116,-10.5742]]]}},{"type":"Feature","id":"label-AGO-1886","properties":{"kind":"division-label","code":"AGO-1886","countryCode":"AGO","name":"Bié","localName":"Bié","labelEnglish":"Bié","labelLocal":"Bié","labelBoth":"Bié","type":"Province","iso":"AO-BIE","qid":"Q213977"},"geometry":{"type":"Point","coordinates":[17.4921,-12.7997]}},{"type":"Feature","id":"AGO-1878","properties":{"kind":"division","code":"AGO-1878","countryCode":"AGO","name":"Cuanza Norte","localName":"Cuanza Norte","labelEnglish":"Cuanza Norte","labelLocal":"Cuanza Norte","labelBoth":"Cuanza Norte","type":"Province","iso":"AO-CNO","qid":"Q216834"},"geometry":{"type":"Polygon","coordinates":[[[15.8005,-8.2115],[15.7161,-8.0113],[15.1925,-7.9698],[15.1127,-8.2978],[14.6618,-8.3985],[14.2631,-8.4672],[14.3732,-8.7181],[14.1206,-8.8898],[14.2003,-9.2655],[14.0845,-9.5256],[14.5652,-9.7692],[14.9485,-9.6735],[15.1094,-9.7237],[15.1206,-9.3552],[15.6378,-9.1516],[15.7224,-8.7207],[15.6169,-8.6016],[15.8161,-8.4028],[15.8005,-8.2115]]]}},{"type":"Feature","id":"label-AGO-1878","properties":{"kind":"division-label","code":"AGO-1878","countryCode":"AGO","name":"Cuanza Norte","localName":"Cuanza Norte","labelEnglish":"Cuanza Norte","labelLocal":"Cuanza Norte","labelBoth":"Cuanza Norte","type":"Province","iso":"AO-CNO","qid":"Q216834"},"geometry":{"type":"Point","coordinates":[14.9458,-9.6988]}},{"type":"Feature","id":"AGO-1891","properties":{"kind":"division","code":"AGO-1891","countryCode":"AGO","name":"Huíla","localName":"Huíla","labelEnglish":"Huíla","labelLocal":"Huíla","labelBoth":"Huíla","type":"Province","iso":"AO-HUI","qid":"Q214572"},"geometry":{"type":"Polygon","coordinates":[[[16.5262,-13.3563],[15.9156,-13.4365],[15.613,-13.7199],[15.3777,-13.6002],[15.3127,-13.3899],[15.1108,-13.4029],[14.6393,-13.6575],[14.4762,-13.6143],[14.3541,-13.8552],[13.5647,-13.8469],[13.6811,-14.438],[13.5903,-14.6762],[13.2966,-14.8864],[13.2207,-15.2293],[13.5458,-15.5309],[13.5898,-15.8202],[13.4809,-16.2482],[13.6159,-16.3665],[13.8946,-16.1561],[14.0118,-16.1993],[14.5269,-15.857],[15.1684,-16.0386],[15.4591,-15.5712],[15.7106,-15.3998],[16.2341,-15.3809],[16.5173,-15.1558],[16.748,-15.1631],[16.5023,-14.6268],[16.4736,-14.0103],[16.5262,-13.3563]]]}},{"type":"Feature","id":"label-AGO-1891","properties":{"kind":"division-label","code":"AGO-1891","countryCode":"AGO","name":"Huíla","localName":"Huíla","labelEnglish":"Huíla","labelLocal":"Huíla","labelBoth":"Huíla","type":"Province","iso":"AO-HUI","qid":"Q214572"},"geometry":{"type":"Point","coordinates":[14.9844,-14.7348]}},{"type":"Feature","id":"AGO-1890","properties":{"kind":"division","code":"AGO-1890","countryCode":"AGO","name":"Huambo","localName":"Huambo","labelEnglish":"Huambo","labelLocal":"Huambo","labelBoth":"Huambo","type":"Province","iso":"AO-HUA","qid":"Q218848"},"geometry":{"type":"Polygon","coordinates":[[[15.7482,-11.4437],[15.4034,-11.5579],[15.3826,-11.9669],[15.0212,-12.206],[15.0693,-12.516],[14.8066,-12.685],[14.9621,-13.2854],[15.1108,-13.4029],[15.3127,-13.3899],[15.3777,-13.6002],[15.613,-13.7199],[15.9156,-13.4365],[16.5262,-13.3563],[16.5029,-12.7515],[16.306,-12.5795],[16.3375,-12.2769],[16.5789,-11.9696],[16.2923,-11.503],[15.7482,-11.4437]]]}},{"type":"Feature","id":"label-AGO-1890","properties":{"kind":"division-label","code":"AGO-1890","countryCode":"AGO","name":"Huambo","localName":"Huambo","labelEnglish":"Huambo","labelLocal":"Huambo","labelBoth":"Huambo","type":"Province","iso":"AO-HUA","qid":"Q218848"},"geometry":{"type":"Point","coordinates":[15.6947,-12.5587]}}]}