{"type":"FeatureCollection","features":[{"type":"Feature","id":"AIA-5115","properties":{"kind":"division","code":"AIA-5115","countryCode":"AIA","name":"East End","localName":"East End","labelEnglish":"East End","labelLocal":"East End","labelBoth":"East End","type":"District","iso":"AI-X02~","qid":null},"geometry":{"type":"Polygon","coordinates":[[[-63.0135,18.272],[-62.9952,18.2562],[-62.9948,18.2345],[-62.9945,18.2749],[-63,18.2673],[-63.0074,18.273],[-63.0135,18.272]]]}},{"type":"Feature","id":"label-AIA-5115","properties":{"kind":"division-label","code":"AIA-5115","countryCode":"AIA","name":"East End","localName":"East End","labelEnglish":"East End","labelLocal":"East End","labelBoth":"East End","type":"District","iso":"AI-X02~","qid":null},"geometry":{"type":"Point","coordinates":[-62.9852,18.2622]}},{"type":"Feature","id":"AIA-5123","properties":{"kind":"division","code":"AIA-5123","countryCode":"AIA","name":"Stoney Ground","localName":"Stoney Ground","labelEnglish":"Stoney Ground","labelLocal":"Stoney Ground","labelBoth":"Stoney Ground","type":"District","iso":"AI-X10~","qid":null},"geometry":{"type":"Polygon","coordinates":[[[-63.0229,18.2704],[-63.0481,18.2354],[-63.0441,18.2323],[-63.0293,18.2352],[-62.9952,18.2562],[-63.0135,18.272],[-63.0229,18.2704]]]}},{"type":"Feature","id":"label-AIA-5123","properties":{"kind":"division-label","code":"AIA-5123","countryCode":"AIA","name":"Stoney Ground","localName":"Stoney Ground","labelEnglish":"Stoney Ground","labelLocal":"Stoney Ground","labelBoth":"Stoney Ground","type":"District","iso":"AI-X10~","qid":null},"geometry":{"type":"Point","coordinates":[-63.0368,18.2387]}},{"type":"Feature","id":"AIA-5119","properties":{"kind":"division","code":"AIA-5119","countryCode":"AIA","name":"North Side","localName":"North Side","labelEnglish":"North Side","labelLocal":"North Side","labelBoth":"North Side","type":"District","iso":"AI-X06~","qid":null},"geometry":{"type":"Polygon","coordinates":[[[-63.0612,18.2458],[-63.0481,18.2354],[-63.0229,18.2704],[-63.0612,18.2458]]]}},{"type":"Feature","id":"label-AIA-5119","properties":{"kind":"division-label","code":"AIA-5119","countryCode":"AIA","name":"North Side","localName":"North Side","labelEnglish":"North Side","labelLocal":"North Side","labelBoth":"North Side","type":"District","iso":"AI-X06~","qid":null},"geometry":{"type":"Point","coordinates":[-63.033,18.2606]}},{"type":"Feature","id":"AIA-5126","properties":{"kind":"division","code":"AIA-5126","countryCode":"AIA","name":"The Valley","localName":"The Valley","labelEnglish":"The Valley","labelLocal":"The Valley","labelBoth":"The Valley","type":"District","iso":"AI-X13~","qid":null},"geometry":{"type":"Polygon","coordinates":[[[-63.0727,18.2313],[-63.047,18.2267],[-63.0441,18.2323],[-63.0481,18.2354],[-63.0612,18.2458],[-63.0727,18.2313]]]}},{"type":"Feature","id":"label-AIA-5126","properties":{"kind":"division-label","code":"AIA-5126","countryCode":"AIA","name":"The Valley","localName":"The Valley","labelEnglish":"The Valley","labelLocal":"The Valley","labelBoth":"The Valley","type":"District","iso":"AI-X13~","qid":null},"geometry":{"type":"Point","coordinates":[-63.052,18.2321]}},{"type":"Feature","id":"AIA-5118","properties":{"kind":"division","code":"AIA-5118","countryCode":"AIA","name":"North Hill","localName":"North Hill","labelEnglish":"North Hill","labelLocal":"North Hill","labelBoth":"North Hill","type":"District","iso":"AI-X05~","qid":null},"geometry":{"type":"Polygon","coordinates":[[[-63.0779,18.226],[-63.0758,18.2163],[-63.0613,18.2192],[-63.047,18.2267],[-63.0727,18.2313],[-63.0779,18.226]]]}},{"type":"Feature","id":"label-AIA-5118","properties":{"kind":"division-label","code":"AIA-5118","countryCode":"AIA","name":"North Hill","localName":"North Hill","labelEnglish":"North Hill","labelLocal":"North Hill","labelBoth":"North Hill","type":"District","iso":"AI-X05~","qid":null},"geometry":{"type":"Point","coordinates":[-63.074,18.2243]}},{"type":"Feature","id":"AIA-5120","properties":{"kind":"division","code":"AIA-5120","countryCode":"AIA","name":"Sandy Ground","localName":"Sandy Ground","labelEnglish":"Sandy Ground","labelLocal":"Sandy Ground","labelBoth":"Sandy Ground","type":"District","iso":"AI-X07~","qid":null},"geometry":{"type":"Polygon","coordinates":[[[-63.0972,18.2125],[-63.0758,18.2163],[-63.0779,18.226],[-63.0972,18.2125]]]}},{"type":"Feature","id":"label-AIA-5120","properties":{"kind":"division-label","code":"AIA-5120","countryCode":"AIA","name":"Sandy Ground","localName":"Sandy Ground","labelEnglish":"Sandy Ground","labelLocal":"Sandy Ground","labelBoth":"Sandy Ground","type":"District","iso":"AI-X07~","qid":null},"geometry":{"type":"Point","coordinates":[-63.0814,18.2192]}},{"type":"Feature","id":"AIA-5122","properties":{"kind":"division","code":"AIA-5122","countryCode":"AIA","name":"South Hill","localName":"South Hill","labelEnglish":"South Hill","labelLocal":"South Hill","labelBoth":"South Hill","type":"District","iso":"AI-X09~","qid":null},"geometry":{"type":"Polygon","coordinates":[[[-63.1228,18.2081],[-63.1226,18.1836],[-63.1138,18.1898],[-63.0726,18.2121],[-63.0613,18.2192],[-63.0758,18.2163],[-63.0972,18.2125],[-63.1228,18.2081]]]}},{"type":"Feature","id":"label-AIA-5122","properties":{"kind":"division-label","code":"AIA-5122","countryCode":"AIA","name":"South Hill","localName":"South Hill","labelEnglish":"South Hill","labelLocal":"South Hill","labelBoth":"South Hill","type":"District","iso":"AI-X09~","qid":null},"geometry":{"type":"Point","coordinates":[-63.0881,18.2083]}},{"type":"Feature","id":"AIA-5127","properties":{"kind":"division","code":"AIA-5127","countryCode":"AIA","name":"West End","localName":"West End","labelEnglish":"West End","labelLocal":"West End","labelBoth":"West End","type":"District","iso":"AI-X14~","qid":null},"geometry":{"type":"Polygon","coordinates":[[[-63.1226,18.1836],[-63.1228,18.2081],[-63.1678,18.1693],[-63.1226,18.1836]]]}},{"type":"Feature","id":"label-AIA-5127","properties":{"kind":"division-label","code":"AIA-5127","countryCode":"AIA","name":"West End","localName":"West End","labelEnglish":"West End","labelLocal":"West End","labelBoth":"West End","type":"District","iso":"AI-X14~","qid":null},"geometry":{"type":"Point","coordinates":[-63.1384,18.1865]}},{"type":"Feature","id":"AIA-5114","properties":{"kind":"division","code":"AIA-5114","countryCode":"AIA","name":"Blowing Point","localName":"Blowing Point","labelEnglish":"Blowing Point","labelLocal":"Blowing Point","labelBoth":"Blowing Point","type":"District","iso":"AI-X01~","qid":null},"geometry":{"type":"Polygon","coordinates":[[[-63.0614,18.1989],[-63.0613,18.2125],[-63.0726,18.2121],[-63.1138,18.1898],[-63.0614,18.1989]]]}},{"type":"Feature","id":"label-AIA-5114","properties":{"kind":"division-label","code":"AIA-5114","countryCode":"AIA","name":"Blowing Point","localName":"Blowing Point","labelEnglish":"Blowing Point","labelLocal":"Blowing Point","labelBoth":"Blowing Point","type":"District","iso":"AI-X01~","qid":null},"geometry":{"type":"Point","coordinates":[-63.0943,18.1889]}},{"type":"Feature","id":"AIA-5124","properties":{"kind":"division","code":"AIA-5124","countryCode":"AIA","name":"The Farrington","localName":"The Farrington","labelEnglish":"The Farrington","labelLocal":"The Farrington","labelBoth":"The Farrington","type":"District","iso":"AI-X11~","qid":null},"geometry":{"type":"Polygon","coordinates":[[[-63.0304,18.215],[-63.0342,18.2279],[-63.047,18.2267],[-63.0613,18.2192],[-63.0613,18.2125],[-63.0614,18.1989],[-63.0304,18.215]]]}},{"type":"Feature","id":"label-AIA-5124","properties":{"kind":"division-label","code":"AIA-5124","countryCode":"AIA","name":"The Farrington","localName":"The Farrington","labelEnglish":"The Farrington","labelLocal":"The Farrington","labelBoth":"The Farrington","type":"District","iso":"AI-X11~","qid":null},"geometry":{"type":"Point","coordinates":[-63.0439,18.2173]}},{"type":"Feature","id":"AIA-5121","properties":{"kind":"division","code":"AIA-5121","countryCode":"AIA","name":"Sandy Hill Bay","localName":"Sandy Hill Bay","labelEnglish":"Sandy Hill Bay","labelLocal":"Sandy Hill Bay","labelBoth":"Sandy Hill Bay","type":"District","iso":"AI-X08~","qid":null},"geometry":{"type":"Polygon","coordinates":[[[-62.9948,18.2345],[-62.9952,18.2562],[-63.0293,18.2352],[-63.0342,18.2279],[-63.0304,18.215],[-62.9948,18.2345]]]}},{"type":"Feature","id":"label-AIA-5121","properties":{"kind":"division-label","code":"AIA-5121","countryCode":"AIA","name":"Sandy Hill Bay","localName":"Sandy Hill Bay","labelEnglish":"Sandy Hill Bay","labelLocal":"Sandy Hill Bay","labelBoth":"Sandy Hill Bay","type":"District","iso":"AI-X08~","qid":null},"geometry":{"type":"Point","coordinates":[-63.0151,18.2301]}},{"type":"Feature","id":"AIA-5117","properties":{"kind":"division","code":"AIA-5117","countryCode":"AIA","name":"Island Harbour","localName":"Island Harbour","labelEnglish":"Island Harbour","labelLocal":"Island Harbour","labelBoth":"Island Harbour","type":"District","iso":"AI-X04~","qid":null},"geometry":{"type":"Polygon","coordinates":[[[-63.0074,18.273],[-63,18.2673],[-62.9945,18.2749],[-63.0074,18.273]]]}},{"type":"Feature","id":"label-AIA-5117","properties":{"kind":"division-label","code":"AIA-5117","countryCode":"AIA","name":"Island Harbour","localName":"Island Harbour","labelEnglish":"Island Harbour","labelLocal":"Island Harbour","labelBoth":"Island Harbour","type":"District","iso":"AI-X04~","qid":null},"geometry":{"type":"Point","coordinates":[-63.0028,18.2705]}},{"type":"Feature","id":"AIA+99?","properties":{"kind":"division","code":"AIA+99?","countryCode":"AIA","name":"AIA+99?","localName":"AIA+99?","labelEnglish":"AIA+99?","labelLocal":"AIA+99?","labelBoth":"AIA+99?","type":null,"iso":"AI-X00","qid":null},"geometry":{"type":"Polygon","coordinates":[[[-63.252,18.273],[-63.236,18.283],[-63.2626,18.282],[-63.252,18.273]]]}},{"type":"Feature","id":"label-AIA+99?","properties":{"kind":"division-label","code":"AIA+99?","countryCode":"AIA","name":"AIA+99?","localName":"AIA+99?","labelEnglish":"AIA+99?","labelLocal":"AIA+99?","labelBoth":"AIA+99?","type":null,"iso":"AI-X00","qid":null},"geometry":{"type":"Point","coordinates":[-63.4262,18.5982]}},{"type":"Feature","id":"AIA-5116","properties":{"kind":"division","code":"AIA-5116","countryCode":"AIA","name":"George Hill","localName":"George Hill","labelEnglish":"George Hill","labelLocal":"George Hill","labelBoth":"George Hill","type":"District","iso":"AI-X03~","qid":null},"geometry":{"type":"Polygon","coordinates":[[[-63.0726,18.2121],[-63.0613,18.2125],[-63.0613,18.2192],[-63.0726,18.2121]]]}},{"type":"Feature","id":"label-AIA-5116","properties":{"kind":"division-label","code":"AIA-5116","countryCode":"AIA","name":"George Hill","localName":"George Hill","labelEnglish":"George Hill","labelLocal":"George Hill","labelBoth":"George Hill","type":"District","iso":"AI-X03~","qid":null},"geometry":{"type":"Point","coordinates":[-63.066,18.2089]}},{"type":"Feature","id":"AIA-5125","properties":{"kind":"division","code":"AIA-5125","countryCode":"AIA","name":"The Quarter","localName":"The Quarter","labelEnglish":"The Quarter","labelLocal":"The Quarter","labelBoth":"The Quarter","type":"District","iso":"AI-X12~","qid":null},"geometry":{"type":"Polygon","coordinates":[[[-63.0342,18.2279],[-63.0293,18.2352],[-63.0441,18.2323],[-63.047,18.2267],[-63.0342,18.2279]]]}},{"type":"Feature","id":"label-AIA-5125","properties":{"kind":"division-label","code":"AIA-5125","countryCode":"AIA","name":"The Quarter","localName":"The Quarter","labelEnglish":"The Quarter","labelLocal":"The Quarter","labelBoth":"The Quarter","type":"District","iso":"AI-X12~","qid":null},"geometry":{"type":"Point","coordinates":[-63.04,18.2299]}}]}