{"type":"FeatureCollection","features":[{"type":"Feature","id":"ALB-1526","properties":{"kind":"division","code":"ALB-1526","countryCode":"ALB","name":"Dibër","localName":"Dibër","labelEnglish":"Dibër","labelLocal":"Dibër","labelBoth":"Dibër","type":"County","iso":"AL-09","qid":"Q192866"},"geometry":{"type":"Polygon","coordinates":[[[20.539,41.4029],[20.4816,41.4683],[20.5347,41.5873],[20.5501,41.8001],[20.5408,41.8449],[20.2072,41.8992],[19.8135,41.7069],[19.8362,41.5667],[19.9111,41.5098],[20.2357,41.3444],[20.4781,41.3216],[20.539,41.4029]]]}},{"type":"Feature","id":"label-ALB-1526","properties":{"kind":"division-label","code":"ALB-1526","countryCode":"ALB","name":"Dibër","localName":"Dibër","labelEnglish":"Dibër","labelLocal":"Dibër","labelBoth":"Dibër","type":"County","iso":"AL-09","qid":"Q192866"},"geometry":{"type":"Point","coordinates":[20.1772,41.608]}},{"type":"Feature","id":"ALB-1502","properties":{"kind":"division","code":"ALB-1502","countryCode":"ALB","name":"Kukës","localName":"Kukës","labelEnglish":"Kukës","labelLocal":"Kukës","labelBoth":"Kukës","type":"County","iso":"AL-07","qid":"Q231896"},"geometry":{"type":"Polygon","coordinates":[[[20.5671,41.8732],[20.5522,42.0738],[20.4737,42.2371],[20.1527,42.4934],[20.065,42.5468],[19.8291,42.4687],[19.87,42.223],[20.2356,42.1924],[20.2126,42.0282],[20.2072,41.8992],[20.5408,41.8449],[20.5671,41.8732]]]}},{"type":"Feature","id":"label-ALB-1502","properties":{"kind":"division-label","code":"ALB-1502","countryCode":"ALB","name":"Kukës","localName":"Kukës","labelEnglish":"Kukës","labelLocal":"Kukës","labelBoth":"Kukës","type":"County","iso":"AL-07","qid":"Q231896"},"geometry":{"type":"Point","coordinates":[20.1933,42.0902]}},{"type":"Feature","id":"ALB-1521","properties":{"kind":"division","code":"ALB-1521","countryCode":"ALB","name":"Korçë","localName":"Korçë","labelEnglish":"Korçë","labelLocal":"Korçë","labelBoth":"Korçë","type":"County","iso":"AL-06","qid":"Q193464"},"geometry":{"type":"Polygon","coordinates":[[[20.5974,41.0863],[20.2932,40.726],[20.4426,40.4397],[20.6154,40.081],[20.7396,40.3092],[21.0367,40.6397],[20.9653,40.8494],[20.8365,40.9239],[20.6641,41.0591],[20.6539,41.0753],[20.5974,41.0863]]]}},{"type":"Feature","id":"label-ALB-1521","properties":{"kind":"division-label","code":"ALB-1521","countryCode":"ALB","name":"Korçë","localName":"Korçë","labelEnglish":"Korçë","labelLocal":"Korçë","labelBoth":"Korçë","type":"County","iso":"AL-06","qid":"Q193464"},"geometry":{"type":"Point","coordinates":[20.6648,40.6138]}},{"type":"Feature","id":"ALB-1524","properties":{"kind":"division","code":"ALB-1524","countryCode":"ALB","name":"Elbasan","localName":"Elbasan","labelEnglish":"Elbasan","labelLocal":"Elbasan","labelBoth":"Elbasan","type":"County","iso":"AL-03","qid":"Q193790"},"geometry":{"type":"Polygon","coordinates":[[[20.5127,41.2101],[20.4954,41.2503],[20.4781,41.3216],[20.2357,41.3444],[19.6709,41.0566],[19.8672,40.8684],[20.2932,40.726],[20.5974,41.0863],[20.5127,41.2101]]]}},{"type":"Feature","id":"label-ALB-1524","properties":{"kind":"division-label","code":"ALB-1524","countryCode":"ALB","name":"Elbasan","localName":"Elbasan","labelEnglish":"Elbasan","labelLocal":"Elbasan","labelBoth":"Elbasan","type":"County","iso":"AL-03","qid":"Q193790"},"geometry":{"type":"Point","coordinates":[20.1358,41.0299]}},{"type":"Feature","id":"ALB-1525","properties":{"kind":"division","code":"ALB-1525","countryCode":"ALB","name":"Gjirokastër","localName":"Gjirokastër","labelEnglish":"Gjirokastër","labelLocal":"Gjirokastër","labelBoth":"Gjirokastër","type":"County","iso":"AL-05","qid":"Q193454"},"geometry":{"type":"Polygon","coordinates":[[[20.6154,40.081],[20.4426,40.4397],[20.2978,40.3553],[19.9049,40.5273],[19.7764,40.423],[19.9394,40.0653],[20.2996,39.8051],[20.31,39.9899],[20.6154,40.081]]]}},{"type":"Feature","id":"label-ALB-1525","properties":{"kind":"division-label","code":"ALB-1525","countryCode":"ALB","name":"Gjirokastër","localName":"Gjirokastër","labelEnglish":"Gjirokastër","labelLocal":"Gjirokastër","labelBoth":"Gjirokastër","type":"County","iso":"AL-05","qid":"Q193454"},"geometry":{"type":"Point","coordinates":[20.1868,40.1927]}},{"type":"Feature","id":"ALB-1504","properties":{"kind":"division","code":"ALB-1504","countryCode":"ALB","name":"Vlorë","localName":"Vlorë","labelEnglish":"Vlorë","labelLocal":"Vlorë","labelBoth":"Vlorë","type":"County","iso":"AL-12","qid":"Q192849"},"geometry":{"type":"Polygon","coordinates":[[[20.2996,39.8051],[19.9394,40.0653],[19.7764,40.423],[19.3047,40.6526],[19.4762,40.2137],[19.8552,40.0499],[19.9998,39.6935],[20.2996,39.8051]]]}},{"type":"Feature","id":"label-ALB-1504","properties":{"kind":"division-label","code":"ALB-1504","countryCode":"ALB","name":"Vlorë","localName":"Vlorë","labelEnglish":"Vlorë","labelLocal":"Vlorë","labelBoth":"Vlorë","type":"County","iso":"AL-12","qid":"Q192849"},"geometry":{"type":"Point","coordinates":[19.7946,40.1908]}},{"type":"Feature","id":"ALB-1498","properties":{"kind":"division","code":"ALB-1498","countryCode":"ALB","name":"Shkodër","localName":"Shkodër","labelEnglish":"Shkodër","labelLocal":"Shkodër","labelBoth":"Shkodër","type":"County","iso":"AL-10","qid":"Q193438"},"geometry":{"type":"Polygon","coordinates":[[[19.7469,42.5889],[19.658,42.6346],[19.2834,42.198],[19.37,42.1065],[19.3651,41.8524],[19.5295,41.8357],[20.2126,42.0282],[20.2356,42.1924],[19.87,42.223],[19.8291,42.4687],[19.7469,42.5889]]]}},{"type":"Feature","id":"label-ALB-1498","properties":{"kind":"division-label","code":"ALB-1498","countryCode":"ALB","name":"Shkodër","localName":"Shkodër","labelEnglish":"Shkodër","labelLocal":"Shkodër","labelBoth":"Shkodër","type":"County","iso":"AL-10","qid":"Q193438"},"geometry":{"type":"Point","coordinates":[19.7573,42.2144]}},{"type":"Feature","id":"ALB-1495","properties":{"kind":"division","code":"ALB-1495","countryCode":"ALB","name":"Fier","localName":"Fier","labelEnglish":"Fier","labelLocal":"Fier","labelBoth":"Fier","type":"County","iso":"AL-04","qid":"Q231900"},"geometry":{"type":"Polygon","coordinates":[[[19.3047,40.6526],[19.7764,40.423],[19.9049,40.5273],[19.7319,40.812],[19.8672,40.8684],[19.6709,41.0566],[19.448,41.0093],[19.3047,40.6526]]]}},{"type":"Feature","id":"label-ALB-1495","properties":{"kind":"division-label","code":"ALB-1495","countryCode":"ALB","name":"Fier","localName":"Fier","labelEnglish":"Fier","labelLocal":"Fier","labelBoth":"Fier","type":"County","iso":"AL-04","qid":"Q231900"},"geometry":{"type":"Point","coordinates":[19.6047,40.8112]}},{"type":"Feature","id":"ALB-1529","properties":{"kind":"division","code":"ALB-1529","countryCode":"ALB","name":"Tirana","localName":"Tirana","labelEnglish":"Tirana","labelLocal":"Tirana","labelBoth":"Tirana","type":"County","iso":"AL-11","qid":"Q229892"},"geometry":{"type":"Polygon","coordinates":[[[19.448,41.0093],[19.6709,41.0566],[20.2357,41.3444],[19.9111,41.5098],[19.516,41.2605],[19.448,41.0093]]]}},{"type":"Feature","id":"label-ALB-1529","properties":{"kind":"division-label","code":"ALB-1529","countryCode":"ALB","name":"Tirana","localName":"Tirana","labelEnglish":"Tirana","labelLocal":"Tirana","labelBoth":"Tirana","type":"County","iso":"AL-11","qid":"Q229892"},"geometry":{"type":"Point","coordinates":[19.8383,41.1326]}},{"type":"Feature","id":"ALB-1494","properties":{"kind":"division","code":"ALB-1494","countryCode":"ALB","name":"Durrës","localName":"Durrës","labelEnglish":"Durrës","labelLocal":"Durrës","labelBoth":"Durrës","type":"County","iso":"AL-02","qid":"Q192853"},"geometry":{"type":"Polygon","coordinates":[[[19.516,41.2605],[19.9111,41.5098],[19.8362,41.5667],[19.5564,41.5831],[19.516,41.2605]]]}},{"type":"Feature","id":"label-ALB-1494","properties":{"kind":"division-label","code":"ALB-1494","countryCode":"ALB","name":"Durrës","localName":"Durrës","labelEnglish":"Durrës","labelLocal":"Durrës","labelBoth":"Durrës","type":"County","iso":"AL-02","qid":"Q192853"},"geometry":{"type":"Point","coordinates":[19.6522,41.5152]}},{"type":"Feature","id":"ALB-1528","properties":{"kind":"division","code":"ALB-1528","countryCode":"ALB","name":"Lezhë","localName":"Lezhë","labelEnglish":"Lezhë","labelLocal":"Lezhë","labelBoth":"Lezhë","type":"County","iso":"AL-08","qid":"Q193436"},"geometry":{"type":"Polygon","coordinates":[[[19.5564,41.5831],[19.8362,41.5667],[19.8135,41.7069],[20.2072,41.8992],[20.2126,42.0282],[19.5295,41.8357],[19.5564,41.5831]]]}},{"type":"Feature","id":"label-ALB-1528","properties":{"kind":"division-label","code":"ALB-1528","countryCode":"ALB","name":"Lezhë","localName":"Lezhë","labelEnglish":"Lezhë","labelLocal":"Lezhë","labelBoth":"Lezhë","type":"County","iso":"AL-08","qid":"Q193436"},"geometry":{"type":"Point","coordinates":[19.8649,41.824]}},{"type":"Feature","id":"ALB-1523","properties":{"kind":"division","code":"ALB-1523","countryCode":"ALB","name":"Berat","localName":"Berat","labelEnglish":"Berat","labelLocal":"Berat","labelBoth":"Berat","type":"County","iso":"AL-01","qid":"Q189296"},"geometry":{"type":"Polygon","coordinates":[[[20.2932,40.726],[19.8672,40.8684],[19.7319,40.812],[19.9049,40.5273],[20.2978,40.3553],[20.4426,40.4397],[20.2932,40.726]]]}},{"type":"Feature","id":"label-ALB-1523","properties":{"kind":"division-label","code":"ALB-1523","countryCode":"ALB","name":"Berat","localName":"Berat","labelEnglish":"Berat","labelLocal":"Berat","labelBoth":"Berat","type":"County","iso":"AL-01","qid":"Q189296"},"geometry":{"type":"Point","coordinates":[20.0865,40.6441]}}]}