{"type":"FeatureCollection","features":[{"type":"Feature","id":"ALD-4819","properties":{"kind":"division","code":"ALD-4819","countryCode":"ALD","name":"Lumparland","localName":"Lumparland","labelEnglish":"Lumparland","labelLocal":"Lumparland","labelBoth":"Lumparland","type":null,"iso":"AX-X11~","qid":null},"geometry":{"type":"Polygon","coordinates":[[[20.2776,60.1422],[20.2019,60.0876],[20.2663,60.0605],[20.2776,60.1422]]]}},{"type":"Feature","id":"label-ALD-4819","properties":{"kind":"division-label","code":"ALD-4819","countryCode":"ALD","name":"Lumparland","localName":"Lumparland","labelEnglish":"Lumparland","labelLocal":"Lumparland","labelBoth":"Lumparland","type":null,"iso":"AX-X11~","qid":null},"geometry":{"type":"Point","coordinates":[20.2285,60.1022]}},{"type":"Feature","id":"ALD-4812","properties":{"kind":"division","code":"ALD-4812","countryCode":"ALD","name":"Eckerö","localName":"Eckerö","labelEnglish":"Eckerö","labelLocal":"Eckerö","labelBoth":"Eckerö","type":null,"iso":"AX-X04~","qid":null},"geometry":{"type":"Polygon","coordinates":[[[19.6395,60.2209],[19.5132,60.1838],[19.5652,60.13],[19.6395,60.2209]]]}},{"type":"Feature","id":"label-ALD-4812","properties":{"kind":"division-label","code":"ALD-4812","countryCode":"ALD","name":"Eckerö","localName":"Eckerö","labelEnglish":"Eckerö","labelLocal":"Eckerö","labelBoth":"Eckerö","type":null,"iso":"AX-X04~","qid":null},"geometry":{"type":"Point","coordinates":[19.5905,60.2169]}},{"type":"Feature","id":"ALD-4820","properties":{"kind":"division","code":"ALD-4820","countryCode":"ALD","name":"Vårdö","localName":"Vårdö","labelEnglish":"Vårdö","labelLocal":"Vårdö","labelBoth":"Vårdö","type":null,"iso":"AX-X12~","qid":null},"geometry":{"type":"Polygon","coordinates":[[[20.4279,60.2657],[20.3827,60.2407],[20.3929,60.1968],[20.4279,60.2657]]]}},{"type":"Feature","id":"label-ALD-4820","properties":{"kind":"division-label","code":"ALD-4820","countryCode":"ALD","name":"Vårdö","localName":"Vårdö","labelEnglish":"Vårdö","labelLocal":"Vårdö","labelBoth":"Vårdö","type":null,"iso":"AX-X12~","qid":null},"geometry":{"type":"Point","coordinates":[20.4053,60.2456]}},{"type":"Feature","id":"ALD-4822","properties":{"kind":"division","code":"ALD-4822","countryCode":"ALD","name":"Kumlinge","localName":"Kumlinge","labelEnglish":"Kumlinge","labelLocal":"Kumlinge","labelBoth":"Kumlinge","type":null,"iso":"AX-X14~","qid":null},"geometry":{"type":"Polygon","coordinates":[[[20.8189,60.2322],[20.853,60.2657],[20.7873,60.2863],[20.8189,60.2322]]]}},{"type":"Feature","id":"label-ALD-4822","properties":{"kind":"division-label","code":"ALD-4822","countryCode":"ALD","name":"Kumlinge","localName":"Kumlinge","labelEnglish":"Kumlinge","labelLocal":"Kumlinge","labelBoth":"Kumlinge","type":null,"iso":"AX-X14~","qid":null},"geometry":{"type":"Point","coordinates":[20.8067,60.2647]}},{"type":"Feature","id":"ALD-4810","properties":{"kind":"division","code":"ALD-4810","countryCode":"ALD","name":"Jomala","localName":"Jomala","labelEnglish":"Jomala","labelLocal":"Jomala","labelBoth":"Jomala","type":null,"iso":"AX-X02~","qid":null},"geometry":{"type":"Polygon","coordinates":[[[19.9103,60.1011],[19.966,60.0911],[20.0442,60.1763],[19.8469,60.1781],[19.9103,60.1011]]]}},{"type":"Feature","id":"label-ALD-4810","properties":{"kind":"division-label","code":"ALD-4810","countryCode":"ALD","name":"Jomala","localName":"Jomala","labelEnglish":"Jomala","labelLocal":"Jomala","labelBoth":"Jomala","type":null,"iso":"AX-X02~","qid":null},"geometry":{"type":"Point","coordinates":[19.8953,60.1395]}},{"type":"Feature","id":"ALD-4817","properties":{"kind":"division","code":"ALD-4817","countryCode":"ALD","name":"Mariehamn","localName":"Mariehamn","labelEnglish":"Mariehamn","labelLocal":"Mariehamn","labelBoth":"Mariehamn","type":null,"iso":"AX-X09~","qid":null},"geometry":{"type":"Polygon","coordinates":[[[19.966,60.0911],[19.9103,60.1011],[19.9412,60.0602],[19.966,60.0911]]]}},{"type":"Feature","id":"label-ALD-4817","properties":{"kind":"division-label","code":"ALD-4817","countryCode":"ALD","name":"Mariehamn","localName":"Mariehamn","labelEnglish":"Mariehamn","labelLocal":"Mariehamn","labelBoth":"Mariehamn","type":null,"iso":"AX-X09~","qid":null},"geometry":{"type":"Point","coordinates":[19.9417,60.0903]}},{"type":"Feature","id":"ALD-4824","properties":{"kind":"division","code":"ALD-4824","countryCode":"ALD","name":"Kökar","localName":"Kökar","labelEnglish":"Kökar","labelLocal":"Kökar","labelBoth":"Kökar","type":null,"iso":"AX-X16~","qid":null},"geometry":{"type":"Polygon","coordinates":[[[20.9836,59.9428],[20.9133,59.9484],[20.9828,59.9215],[20.9836,59.9428]]]}},{"type":"Feature","id":"label-ALD-4824","properties":{"kind":"division-label","code":"ALD-4824","countryCode":"ALD","name":"Kökar","localName":"Kökar","labelEnglish":"Kökar","labelLocal":"Kökar","labelBoth":"Kökar","type":null,"iso":"AX-X16~","qid":null},"geometry":{"type":"Point","coordinates":[20.8903,59.923]}},{"type":"Feature","id":"ALD-4814","properties":{"kind":"division","code":"ALD-4814","countryCode":"ALD","name":"Föglö","localName":"Föglö","labelEnglish":"Föglö","labelLocal":"Föglö","labelBoth":"Föglö","type":null,"iso":"AX-X06~","qid":null},"geometry":{"type":"Polygon","coordinates":[[[20.2813,59.9766],[20.4367,60.005],[20.3394,60.0201],[20.2813,59.9766]]]}},{"type":"Feature","id":"label-ALD-4814","properties":{"kind":"division-label","code":"ALD-4814","countryCode":"ALD","name":"Föglö","localName":"Föglö","labelEnglish":"Föglö","labelLocal":"Föglö","labelBoth":"Föglö","type":null,"iso":"AX-X06~","qid":null},"geometry":{"type":"Point","coordinates":[20.3479,60.0019]}},{"type":"Feature","id":"ALD-4821","properties":{"kind":"division","code":"ALD-4821","countryCode":"ALD","name":"Sottunga","localName":"Sottunga","labelEnglish":"Sottunga","labelLocal":"Sottunga","labelBoth":"Sottunga","type":null,"iso":"AX-X13~","qid":null},"geometry":{"type":"Polygon","coordinates":[[[20.6834,60.1305],[20.6387,60.1313],[20.6716,60.1092],[20.6834,60.1305]]]}},{"type":"Feature","id":"label-ALD-4821","properties":{"kind":"division-label","code":"ALD-4821","countryCode":"ALD","name":"Sottunga","localName":"Sottunga","labelEnglish":"Sottunga","labelLocal":"Sottunga","labelBoth":"Sottunga","type":null,"iso":"AX-X13~","qid":null},"geometry":{"type":"Point","coordinates":[20.6633,60.1333]}},{"type":"Feature","id":"ALD-4818","properties":{"kind":"division","code":"ALD-4818","countryCode":"ALD","name":"Lemland","localName":"Lemland","labelEnglish":"Lemland","labelLocal":"Lemland","labelBoth":"Lemland","type":null,"iso":"AX-X10~","qid":null},"geometry":{"type":"Polygon","coordinates":[[[20.0337,60.0636],[20.1751,59.9714],[20.1633,60.0878],[20.0337,60.0636]]]}},{"type":"Feature","id":"label-ALD-4818","properties":{"kind":"division-label","code":"ALD-4818","countryCode":"ALD","name":"Lemland","localName":"Lemland","labelEnglish":"Lemland","labelLocal":"Lemland","labelBoth":"Lemland","type":null,"iso":"AX-X10~","qid":null},"geometry":{"type":"Point","coordinates":[20.1496,60.0449]}},{"type":"Feature","id":"ALD-4823","properties":{"kind":"division","code":"ALD-4823","countryCode":"ALD","name":"Brändö","localName":"Brändö","labelEnglish":"Brändö","labelLocal":"Brändö","labelBoth":"Brändö","type":null,"iso":"AX-X15~","qid":null},"geometry":{"type":"Polygon","coordinates":[[[21.0886,60.4801],[21.0593,60.4667],[21.0784,60.449],[21.0886,60.4801]]]}},{"type":"Feature","id":"label-ALD-4823","properties":{"kind":"division-label","code":"ALD-4823","countryCode":"ALD","name":"Brändö","localName":"Brändö","labelEnglish":"Brändö","labelLocal":"Brändö","labelBoth":"Brändö","type":null,"iso":"AX-X15~","qid":null},"geometry":{"type":"Point","coordinates":[21.048,60.4104]}}]}