{"type":"FeatureCollection","features":[{"type":"Feature","id":"AND-4878","properties":{"kind":"division","code":"AND-4878","countryCode":"AND","name":"Ordino","localName":"Ordino","labelEnglish":"Ordino","labelLocal":"Ordino","labelBoth":"Ordino","type":null,"iso":"AD-05","qid":"Q24272"},"geometry":{"type":"Polygon","coordinates":[[[1.5973,42.6219],[1.4514,42.6021],[1.5556,42.5627],[1.5973,42.6219]]]}},{"type":"Feature","id":"label-AND-4878","properties":{"kind":"division-label","code":"AND-4878","countryCode":"AND","name":"Ordino","localName":"Ordino","labelEnglish":"Ordino","labelLocal":"Ordino","labelBoth":"Ordino","type":null,"iso":"AD-05","qid":"Q24272"},"geometry":{"type":"Point","coordinates":[1.52437,42.6036]}},{"type":"Feature","id":"AND-4879","properties":{"kind":"division","code":"AND-4879","countryCode":"AND","name":"Canillo","localName":"Canillo","labelEnglish":"Canillo","labelLocal":"Canillo","labelBoth":"Canillo","type":null,"iso":"AD-02","qid":"Q24260"},"geometry":{"type":"Polygon","coordinates":[[[1.5973,42.6219],[1.5556,42.5627],[1.7171,42.5399],[1.7611,42.5676],[1.5973,42.6219]]]}},{"type":"Feature","id":"label-AND-4879","properties":{"kind":"division-label","code":"AND-4879","countryCode":"AND","name":"Canillo","localName":"Canillo","labelEnglish":"Canillo","labelLocal":"Canillo","labelBoth":"Canillo","type":null,"iso":"AD-02","qid":"Q24260"},"geometry":{"type":"Point","coordinates":[1.60543,42.5842]}},{"type":"Feature","id":"AND-4880","properties":{"kind":"division","code":"AND-4880","countryCode":"AND","name":"Encamp","localName":"Encamp","labelEnglish":"Encamp","labelLocal":"Encamp","labelBoth":"Encamp","type":null,"iso":"AD-03","qid":"Q24269"},"geometry":{"type":"Polygon","coordinates":[[[1.7171,42.5399],[1.5556,42.5627],[1.5564,42.5381],[1.657,42.4976],[1.707,42.5028],[1.7171,42.5399]]]}},{"type":"Feature","id":"label-AND-4880","properties":{"kind":"division-label","code":"AND-4880","countryCode":"AND","name":"Encamp","localName":"Encamp","labelEnglish":"Encamp","labelLocal":"Encamp","labelBoth":"Encamp","type":null,"iso":"AD-03","qid":"Q24269"},"geometry":{"type":"Point","coordinates":[1.6441,42.5381]}},{"type":"Feature","id":"AND-4877","properties":{"kind":"division","code":"AND-4877","countryCode":"AND","name":"La Massana","localName":"La Massana","labelEnglish":"La Massana","labelLocal":"La Massana","labelBoth":"La Massana","type":null,"iso":"AD-04","qid":"Q24276"},"geometry":{"type":"Polygon","coordinates":[[[1.4293,42.5954],[1.45,42.5041],[1.4872,42.518],[1.5564,42.5381],[1.5556,42.5627],[1.4514,42.6021],[1.4293,42.5954]]]}},{"type":"Feature","id":"label-AND-4877","properties":{"kind":"division-label","code":"AND-4877","countryCode":"AND","name":"La Massana","localName":"La Massana","labelEnglish":"La Massana","labelLocal":"La Massana","labelBoth":"La Massana","type":null,"iso":"AD-04","qid":"Q24276"},"geometry":{"type":"Point","coordinates":[1.47083,42.55]}},{"type":"Feature","id":"AND-4882","properties":{"kind":"division","code":"AND-4882","countryCode":"AND","name":"Sant Julià de Lòria","localName":"Sant Julià de Lòria","labelEnglish":"Sant Julià de Lòria","labelLocal":"Sant Julià de Lòria","labelBoth":"Sant Julià de Lòria","type":null,"iso":"AD-06","qid":"Q24282"},"geometry":{"type":"Polygon","coordinates":[[[1.45,42.5041],[1.5727,42.4531],[1.4991,42.489],[1.4872,42.518],[1.45,42.5041]]]}},{"type":"Feature","id":"label-AND-4882","properties":{"kind":"division-label","code":"AND-4882","countryCode":"AND","name":"Sant Julià de Lòria","localName":"Sant Julià de Lòria","labelEnglish":"Sant Julià de Lòria","labelLocal":"Sant Julià de Lòria","labelBoth":"Sant Julià de Lòria","type":null,"iso":"AD-06","qid":"Q24282"},"geometry":{"type":"Point","coordinates":[1.47975,42.4511]}},{"type":"Feature","id":"AND-4881","properties":{"kind":"division","code":"AND-4881","countryCode":"AND","name":"Escaldes-Engordany","localName":"Escaldes-Engordany","labelEnglish":"Escaldes-Engordany","labelLocal":"Escaldes-Engordany","labelBoth":"Escaldes-Engordany","type":null,"iso":"AD-08","qid":"Q24286"},"geometry":{"type":"Polygon","coordinates":[[[1.657,42.4976],[1.5564,42.5381],[1.4991,42.489],[1.5727,42.4531],[1.657,42.4976]]]}},{"type":"Feature","id":"label-AND-4881","properties":{"kind":"division-label","code":"AND-4881","countryCode":"AND","name":"Escaldes-Engordany","localName":"Escaldes-Engordany","labelEnglish":"Escaldes-Engordany","labelLocal":"Escaldes-Engordany","labelBoth":"Escaldes-Engordany","type":null,"iso":"AD-08","qid":"Q24286"},"geometry":{"type":"Point","coordinates":[1.59428,42.495]}},{"type":"Feature","id":"AND-4876","properties":{"kind":"division","code":"AND-4876","countryCode":"AND","name":"Andorra la Vella","localName":"Andorra la Vella","labelEnglish":"Andorra la Vella","labelLocal":"Andorra la Vella","labelBoth":"Andorra la Vella","type":null,"iso":"AD-07","qid":"Q2522163"},"geometry":{"type":"Polygon","coordinates":[[[1.5564,42.5381],[1.4872,42.518],[1.4991,42.489],[1.5564,42.5381]]]}},{"type":"Feature","id":"label-AND-4876","properties":{"kind":"division-label","code":"AND-4876","countryCode":"AND","name":"Andorra la Vella","localName":"Andorra la Vella","labelEnglish":"Andorra la Vella","labelLocal":"Andorra la Vella","labelBoth":"Andorra la Vella","type":null,"iso":"AD-07","qid":"Q2522163"},"geometry":{"type":"Point","coordinates":[1.51066,42.5128]}}]}