{"type":"FeatureCollection","features":[{"type":"Feature","id":"ARE-341","properties":{"kind":"division","code":"ARE-341","countryCode":"ARE","name":"Emirate of Fujairah","localName":"Emirate of Fujairah","labelEnglish":"Emirate of Fujairah","labelLocal":"Emirate of Fujairah","labelBoth":"Emirate of Fujairah","type":"Emirate","iso":"AE-FU","qid":"Q4091"},"geometry":{"type":"MultiPolygon","coordinates":[[[[56.3491,25.294],[56.2067,25.2267],[56.164,25.0534],[56.2705,24.9392],[56.2823,24.9514],[56.3622,25.0683],[56.383,25.3213],[56.3491,25.294]]],[[[56.2606,25.3311],[56.365,25.4232],[56.2791,25.6274],[56.1525,25.658],[55.9657,25.5767],[56.0013,25.3809],[55.9831,25.3318],[55.9773,25.282],[55.9862,25.2253],[56.2336,25.3125],[56.2606,25.3311]]],[[[56.3143,24.912],[56.2756,24.914],[56.2529,24.8948],[56.2747,24.8719],[56.3143,24.912]]]]}},{"type":"Feature","id":"label-ARE-341","properties":{"kind":"division-label","code":"ARE-341","countryCode":"ARE","name":"Emirate of Fujairah","localName":"Emirate of Fujairah","labelEnglish":"Emirate of Fujairah","labelLocal":"Emirate of Fujairah","labelBoth":"Emirate of Fujairah","type":"Emirate","iso":"AE-FU","qid":"Q4091"},"geometry":{"type":"Point","coordinates":[56.2221,25.4752]}},{"type":"Feature","id":"ARE-348","properties":{"kind":"division","code":"ARE-348","countryCode":"ARE","name":"Emirate of Sharjah","localName":"Emirate of Sharjah","labelEnglish":"Emirate of Sharjah","labelLocal":"Emirate of Sharjah","labelBoth":"Emirate of Sharjah","type":"Emirate","iso":"AE-SH","qid":"Q188810"},"geometry":{"type":"MultiPolygon","coordinates":[[[[56.3491,25.294],[56.383,25.3213],[56.365,25.4232],[56.2606,25.3311],[56.3491,25.294]]],[[[56.3833,24.9782],[56.3622,25.0683],[56.2823,24.9514],[56.3161,24.9299],[56.3833,24.9782]]],[[[55.9759,24.9721],[55.9862,25.2253],[55.9773,25.282],[55.9831,25.3318],[56.0013,25.3809],[55.9281,25.3476],[55.5152,25.5133],[55.4921,25.4602],[55.5975,25.3596],[55.4245,25.3945],[55.3248,25.3071],[55.6008,25.2003],[55.6709,24.709],[55.7999,24.6932],[55.9759,24.9721]]],[[[56.164,25.0534],[56.2529,24.8948],[56.2756,24.914],[56.2705,24.9392],[56.164,25.0534]]]]}},{"type":"Feature","id":"label-ARE-348","properties":{"kind":"division-label","code":"ARE-348","countryCode":"ARE","name":"Emirate of Sharjah","localName":"Emirate of Sharjah","labelEnglish":"Emirate of Sharjah","labelLocal":"Emirate of Sharjah","labelBoth":"Emirate of Sharjah","type":"Emirate","iso":"AE-SH","qid":"Q188810"},"geometry":{"type":"Point","coordinates":[55.7788,25.172]}},{"type":"Feature","id":"ARE-338","properties":{"kind":"division","code":"ARE-338","countryCode":"ARE","name":"Emirate of Ras Al Khaimah","localName":"Emirate of Ras Al Khaimah","labelEnglish":"Emirate of Ras Al Khaimah","labelLocal":"Emirate of Ras Al Khaimah","labelBoth":"Emirate of Ras Al Khaimah","type":"Emirate","iso":"AE-RK","qid":"Q170024"},"geometry":{"type":"MultiPolygon","coordinates":[[[[56.2336,25.3125],[55.9862,25.2253],[55.9759,24.9721],[56.0253,24.8826],[56.1057,24.8204],[56.1714,24.8241],[56.2747,24.8719],[56.2529,24.8948],[56.164,25.0534],[56.2067,25.2267],[56.2336,25.3125]]],[[[56.1525,25.658],[56.1835,26.0145],[56.0774,26.061],[55.746,25.6623],[55.9281,25.3476],[56.0013,25.3809],[55.9657,25.5767],[56.1525,25.658]]]]}},{"type":"Feature","id":"label-ARE-338","properties":{"kind":"division-label","code":"ARE-338","countryCode":"ARE","name":"Emirate of Ras Al Khaimah","localName":"Emirate of Ras Al Khaimah","labelEnglish":"Emirate of Ras Al Khaimah","labelLocal":"Emirate of Ras Al Khaimah","labelBoth":"Emirate of Ras Al Khaimah","type":"Emirate","iso":"AE-RK","qid":"Q170024"},"geometry":{"type":"Point","coordinates":[55.9791,25.6964]}},{"type":"Feature","id":"ARE-350","properties":{"kind":"division","code":"ARE-350","countryCode":"ARE","name":"Emirate of Dubai","localName":"Emirate of Dubai","labelEnglish":"Emirate of Dubai","labelLocal":"Emirate of Dubai","labelBoth":"Emirate of Dubai","type":"Emirate","iso":"AE-DU","qid":"Q613"},"geometry":{"type":"MultiPolygon","coordinates":[[[[56.1714,24.8241],[56.1057,24.8204],[56.0763,24.73],[56.1714,24.8241]]],[[[55.3248,25.3071],[55.0059,24.9699],[55.1379,24.6369],[55.4124,24.6028],[55.6709,24.709],[55.6008,25.2003],[55.3248,25.3071]]]]}},{"type":"Feature","id":"label-ARE-350","properties":{"kind":"division-label","code":"ARE-350","countryCode":"ARE","name":"Emirate of Dubai","localName":"Emirate of Dubai","labelEnglish":"Emirate of Dubai","labelLocal":"Emirate of Dubai","labelBoth":"Emirate of Dubai","type":"Emirate","iso":"AE-DU","qid":"Q613"},"geometry":{"type":"Point","coordinates":[55.3436,24.9508]}},{"type":"Feature","id":"ARE-344","properties":{"kind":"division","code":"ARE-344","countryCode":"ARE","name":"Fujairah","localName":"Fujairah","labelEnglish":"Fujairah","labelLocal":"Fujairah","labelBoth":"Fujairah","type":"Emirate","iso":"AE-X01~","qid":null},"geometry":{"type":"Polygon","coordinates":[[[56.3161,24.9299],[56.2823,24.9514],[56.2705,24.9392],[56.2756,24.914],[56.3143,24.912],[56.3161,24.9299]]]}},{"type":"Feature","id":"label-ARE-344","properties":{"kind":"division-label","code":"ARE-344","countryCode":"ARE","name":"Fujairah","localName":"Fujairah","labelEnglish":"Fujairah","labelLocal":"Fujairah","labelBoth":"Fujairah","type":"Emirate","iso":"AE-X01~","qid":null},"geometry":{"type":"Point","coordinates":[56.2932,24.925]}},{"type":"Feature","id":"ARE-347","properties":{"kind":"division","code":"ARE-347","countryCode":"ARE","name":"Sayh Mudayrah","localName":"Sayh Mudayrah","labelEnglish":"Sayh Mudayrah","labelLocal":"Sayh Mudayrah","labelBoth":"Sayh Mudayrah","type":"Emirate","iso":"AE-X02~","qid":null},"geometry":{"type":"Polygon","coordinates":[[[56.0253,24.8826],[56.0763,24.73],[56.1057,24.8204],[56.0253,24.8826]]]}},{"type":"Feature","id":"label-ARE-347","properties":{"kind":"division-label","code":"ARE-347","countryCode":"ARE","name":"Sayh Mudayrah","localName":"Sayh Mudayrah","labelEnglish":"Sayh Mudayrah","labelLocal":"Sayh Mudayrah","labelBoth":"Sayh Mudayrah","type":"Emirate","iso":"AE-X02~","qid":null},"geometry":{"type":"Point","coordinates":[56.0315,24.8164]}},{"type":"Feature","id":"ARE-349","properties":{"kind":"division","code":"ARE-349","countryCode":"ARE","name":"Emirate of Abu Dhabi","localName":"Emirate of Abu Dhabi","labelEnglish":"Emirate of Abu Dhabi","labelLocal":"Emirate of Abu Dhabi","labelBoth":"Emirate of Abu Dhabi","type":"Emirate","iso":"AE-AZ","qid":"Q187712"},"geometry":{"type":"Polygon","coordinates":[[[55.7999,24.6932],[55.6709,24.709],[55.4124,24.6028],[55.1379,24.6369],[55.0059,24.9699],[54.707,24.8039],[54.4856,24.3883],[54.1226,24.1447],[53.5813,24.0485],[52.5746,24.1521],[52.3411,24.0075],[51.8094,24.0007],[51.7588,24.2905],[51.5693,24.2562],[51.5935,24.0783],[52.5831,22.9311],[55.1053,22.6209],[55.1868,22.7036],[55.1913,22.9954],[55.4453,23.5523],[55.4568,23.9632],[55.9979,24.0813],[55.7557,24.2303],[55.7999,24.6932]]]}},{"type":"Feature","id":"label-ARE-349","properties":{"kind":"division-label","code":"ARE-349","countryCode":"ARE","name":"Emirate of Abu Dhabi","localName":"Emirate of Abu Dhabi","labelEnglish":"Emirate of Abu Dhabi","labelLocal":"Emirate of Abu Dhabi","labelBoth":"Emirate of Abu Dhabi","type":"Emirate","iso":"AE-AZ","qid":"Q187712"},"geometry":{"type":"Point","coordinates":[54.0817,23.5238]}},{"type":"Feature","id":"ARE-339","properties":{"kind":"division","code":"ARE-339","countryCode":"ARE","name":"Emirate of Umm Al Quwain","localName":"Emirate of Umm Al Quwain","labelEnglish":"Emirate of Umm Al Quwain","labelLocal":"Emirate of Umm Al Quwain","labelBoth":"Emirate of Umm Al Quwain","type":"Emirate","iso":"AE-UQ","qid":"Q175021"},"geometry":{"type":"Polygon","coordinates":[[[55.5152,25.5133],[55.9281,25.3476],[55.746,25.6623],[55.5152,25.5133]]]}},{"type":"Feature","id":"label-ARE-339","properties":{"kind":"division-label","code":"ARE-339","countryCode":"ARE","name":"Emirate of Umm Al Quwain","localName":"Emirate of Umm Al Quwain","labelEnglish":"Emirate of Umm Al Quwain","labelLocal":"Emirate of Umm Al Quwain","labelBoth":"Emirate of Umm Al Quwain","type":"Emirate","iso":"AE-UQ","qid":"Q175021"},"geometry":{"type":"Point","coordinates":[55.7217,25.5218]}},{"type":"Feature","id":"ARE-346","properties":{"kind":"division","code":"ARE-346","countryCode":"ARE","name":"Emirate of Ajman","localName":"Emirate of Ajman","labelEnglish":"Emirate of Ajman","labelLocal":"Emirate of Ajman","labelBoth":"Emirate of Ajman","type":"Emirate","iso":"AE-AJ","qid":"Q159477"},"geometry":{"type":"Polygon","coordinates":[[[55.4245,25.3945],[55.5975,25.3596],[55.4921,25.4602],[55.4245,25.3945]]]}},{"type":"Feature","id":"label-ARE-346","properties":{"kind":"division-label","code":"ARE-346","countryCode":"ARE","name":"Emirate of Ajman","localName":"Emirate of Ajman","labelEnglish":"Emirate of Ajman","labelLocal":"Emirate of Ajman","labelBoth":"Emirate of Ajman","type":"Emirate","iso":"AE-AJ","qid":"Q159477"},"geometry":{"type":"Point","coordinates":[55.5411,25.3971]}}]}