{"type":"FeatureCollection","features":[{"type":"Feature","id":"ARG-1309","properties":{"kind":"division","code":"ARG-1309","countryCode":"ARG","name":"Entre Ríos","localName":"Entre Ríos","labelEnglish":"Entre Ríos","labelLocal":"Entre Ríos","labelBoth":"Entre Ríos","type":"Province","iso":"AR-E","qid":"Q44762"},"geometry":{"type":"Polygon","coordinates":[[[-58.2001,-32.4472],[-58.1686,-31.846],[-58.039,-31.5086],[-57.7994,-30.7915],[-57.8087,-30.7473],[-58.2608,-30.2307],[-58.6297,-30.1523],[-59.005,-30.2041],[-59.2413,-30.3435],[-59.6615,-30.3369],[-59.6606,-30.7361],[-60.094,-31.3537],[-60.4141,-31.6735],[-60.6478,-31.716],[-60.7657,-32.5411],[-60.4954,-33.1221],[-60.2941,-33.2566],[-59.6028,-33.6778],[-59.2623,-33.7242],[-58.6798,-34.0312],[-58.447,-34.0069],[-58.5494,-33.683],[-58.3832,-33.0755],[-58.1468,-33.05],[-58.2001,-32.4472]]]}},{"type":"Feature","id":"label-ARG-1309","properties":{"kind":"division-label","code":"ARG-1309","countryCode":"ARG","name":"Entre Ríos","localName":"Entre Ríos","labelEnglish":"Entre Ríos","labelLocal":"Entre Ríos","labelBoth":"Entre Ríos","type":"Province","iso":"AR-E","qid":"Q44762"},"geometry":{"type":"Point","coordinates":[-59.2824,-32.0275]}},{"type":"Feature","id":"ARG-1303","properties":{"kind":"division","code":"ARG-1303","countryCode":"ARG","name":"Salta","localName":"Salta","labelEnglish":"Salta","labelLocal":"Salta","labelBoth":"Salta","type":"Province","iso":"AR-A","qid":"Q44803"},"geometry":{"type":"Polygon","coordinates":[[[-67.2513,-23.7331],[-67.3624,-24.0304],[-68.2445,-24.3854],[-68.5724,-24.7699],[-68.3792,-25.1368],[-68.4965,-25.16],[-67.8069,-25.2832],[-66.601,-25.2691],[-66.5125,-25.6309],[-66.8068,-25.725],[-66.5333,-26.26],[-66.3584,-26.3661],[-66.2248,-26.171],[-66.0538,-26.2535],[-65.7118,-26.2954],[-65.6653,-26.0748],[-64.9664,-26.2688],[-64.4863,-26.2202],[-64.2116,-25.6037],[-63.3986,-25.6594],[-62.3344,-24.4029],[-62.3392,-24.1206],[-62.3414,-22.4723],[-62.6504,-22.2345],[-62.8044,-22.0041],[-63.9476,-22.0076],[-64.2508,-22.5407],[-64.3439,-22.8637],[-64.5869,-22.2128],[-65.1905,-22.0985],[-65.3455,-22.5882],[-65.1925,-22.9805],[-65.0393,-23.0023],[-65.0429,-23.2514],[-64.879,-23.4891],[-64.6601,-23.4546],[-64.4383,-23.6196],[-64.1888,-23.5133],[-64.1588,-24.1836],[-64.3149,-24.414],[-64.6255,-24.6132],[-64.8166,-24.4589],[-64.9017,-24.5926],[-65.1746,-24.4547],[-65.5871,-24.4026],[-65.7591,-24.0768],[-66.0002,-23.9413],[-65.9868,-23.5433],[-66.3522,-23.3678],[-66.352,-24.0414],[-66.5045,-24.2371],[-66.6753,-24.1991],[-67.2513,-23.7331]]]}},{"type":"Feature","id":"label-ARG-1303","properties":{"kind":"division-label","code":"ARG-1303","countryCode":"ARG","name":"Salta","localName":"Salta","labelEnglish":"Salta","labelLocal":"Salta","labelBoth":"Salta","type":"Province","iso":"AR-A","qid":"Q44803"},"geometry":{"type":"Point","coordinates":[-64.4715,-25.0203]}},{"type":"Feature","id":"ARG-1301","properties":{"kind":"division","code":"ARG-1301","countryCode":"ARG","name":"Jujuy","localName":"Jujuy","labelEnglish":"Jujuy","labelLocal":"Jujuy","labelBoth":"Jujuy","type":"Province","iso":"AR-Y","qid":"Q44764"},"geometry":{"type":"Polygon","coordinates":[[[-67.2513,-23.7331],[-66.6753,-24.1991],[-66.5045,-24.2371],[-66.352,-24.0414],[-66.3522,-23.3678],[-65.9868,-23.5433],[-66.0002,-23.9413],[-65.7591,-24.0768],[-65.5871,-24.4026],[-65.1746,-24.4547],[-64.9017,-24.5926],[-64.8166,-24.4589],[-64.6255,-24.6132],[-64.3149,-24.414],[-64.1588,-24.1836],[-64.1888,-23.5133],[-64.4383,-23.6196],[-64.6601,-23.4546],[-64.879,-23.4891],[-65.0429,-23.2514],[-65.0393,-23.0023],[-65.1925,-22.9805],[-65.3455,-22.5882],[-65.1905,-22.0985],[-65.7446,-22.114],[-66.24,-21.7924],[-66.3775,-22.1271],[-66.7359,-22.2251],[-66.7851,-22.4276],[-67.0327,-22.5246],[-67.1939,-22.8222],[-67.014,-23.0007],[-67.2513,-23.7331]]]}},{"type":"Feature","id":"label-ARG-1301","properties":{"kind":"division-label","code":"ARG-1301","countryCode":"ARG","name":"Jujuy","localName":"Jujuy","labelEnglish":"Jujuy","labelLocal":"Jujuy","labelBoth":"Jujuy","type":"Province","iso":"AR-Y","qid":"Q44764"},"geometry":{"type":"Point","coordinates":[-65.7054,-23.1764]}},{"type":"Feature","id":"ARG-1307","properties":{"kind":"division","code":"ARG-1307","countryCode":"ARG","name":"Formosa","localName":"Formosa","labelEnglish":"Formosa","labelLocal":"Formosa","labelBoth":"Formosa","type":"Province","iso":"AR-P","qid":"Q44761"},"geometry":{"type":"Polygon","coordinates":[[[-62.3414,-22.4723],[-62.3392,-24.1206],[-61.7757,-24.3417],[-61.4511,-24.6194],[-61.1452,-24.7257],[-61.0959,-24.8772],[-60.4997,-25.2096],[-60.1781,-25.6651],[-60.0334,-25.7012],[-59.4131,-26.1901],[-59.1468,-26.2995],[-58.3513,-26.8858],[-58.2479,-26.7582],[-58.17,-26.2703],[-57.8197,-25.8498],[-57.5975,-25.4034],[-57.672,-25.2898],[-57.8905,-25.0787],[-58.8092,-24.7768],[-59.341,-24.4876],[-60.0337,-24.007],[-60.328,-24.018],[-60.7878,-23.8734],[-61.1099,-23.607],[-61.4918,-23.4132],[-61.9564,-23.0344],[-62.3414,-22.4723]]]}},{"type":"Feature","id":"label-ARG-1307","properties":{"kind":"division-label","code":"ARG-1307","countryCode":"ARG","name":"Formosa","localName":"Formosa","labelEnglish":"Formosa","labelLocal":"Formosa","labelBoth":"Formosa","type":"Province","iso":"AR-P","qid":"Q44761"},"geometry":{"type":"Point","coordinates":[-59.9494,-24.9146]}},{"type":"Feature","id":"ARG-1312","properties":{"kind":"division","code":"ARG-1312","countryCode":"ARG","name":"Misiones","localName":"Misiones","labelEnglish":"Misiones","labelLocal":"Misiones","labelBoth":"Misiones","type":"Province","iso":"AR-N","qid":"Q44798"},"geometry":{"type":"Polygon","coordinates":[[[-54.6002,-25.5749],[-54.665,-26.2389],[-54.7931,-26.645],[-55.1384,-26.9537],[-55.4308,-26.9964],[-55.7547,-27.4437],[-55.9661,-27.3317],[-56.0173,-27.4516],[-55.8386,-27.9066],[-55.623,-28.1443],[-55.3141,-27.915],[-55.0258,-27.8402],[-54.8983,-27.6236],[-53.842,-27.1635],[-53.7107,-26.8738],[-53.6616,-26.2598],[-53.91,-25.6292],[-54.1072,-25.5006],[-54.4606,-25.6421],[-54.6002,-25.5749]]]}},{"type":"Feature","id":"label-ARG-1312","properties":{"kind":"division-label","code":"ARG-1312","countryCode":"ARG","name":"Misiones","localName":"Misiones","labelEnglish":"Misiones","labelLocal":"Misiones","labelBoth":"Misiones","type":"Province","iso":"AR-N","qid":"Q44798"},"geometry":{"type":"Point","coordinates":[-54.8406,-27.1262]}},{"type":"Feature","id":"ARG-1306","properties":{"kind":"division","code":"ARG-1306","countryCode":"ARG","name":"Chaco","localName":"Chaco","labelEnglish":"Chaco","labelLocal":"Chaco","labelBoth":"Chaco","type":"Province","iso":"AR-H","qid":"Q44757"},"geometry":{"type":"Polygon","coordinates":[[[-58.3513,-26.8858],[-59.1468,-26.2995],[-59.4131,-26.1901],[-60.0334,-25.7012],[-60.1781,-25.6651],[-60.4997,-25.2096],[-61.0959,-24.8772],[-61.1452,-24.7257],[-61.4511,-24.6194],[-61.7757,-24.3417],[-62.3392,-24.1206],[-62.3344,-24.4029],[-63.3986,-25.6594],[-61.7539,-25.6614],[-61.7223,-25.7442],[-61.7099,-28.0004],[-60.0413,-28.0001],[-58.8647,-27.9993],[-58.8865,-27.4789],[-58.6042,-27.3163],[-58.6533,-27.1563],[-58.3513,-26.8858]]]}},{"type":"Feature","id":"label-ARG-1306","properties":{"kind":"division-label","code":"ARG-1306","countryCode":"ARG","name":"Chaco","localName":"Chaco","labelEnglish":"Chaco","labelLocal":"Chaco","labelBoth":"Chaco","type":"Province","iso":"AR-H","qid":"Q44757"},"geometry":{"type":"Point","coordinates":[-60.8752,-26.509]}},{"type":"Feature","id":"ARG-1308","properties":{"kind":"division","code":"ARG-1308","countryCode":"ARG","name":"Corrientes","localName":"Corrientes","labelEnglish":"Corrientes","labelLocal":"Corrientes","labelBoth":"Corrientes","type":"Province","iso":"AR-W","qid":"Q44758"},"geometry":{"type":"Polygon","coordinates":[[[-57.3101,-27.4292],[-58.022,-27.2598],[-58.6042,-27.3163],[-58.8865,-27.4789],[-58.8647,-27.9993],[-59.0814,-28.1576],[-59.0991,-28.6642],[-59.1974,-29.0221],[-59.5113,-29.2076],[-59.6648,-29.8783],[-59.6615,-30.3369],[-59.2413,-30.3435],[-59.005,-30.2041],[-58.6297,-30.1523],[-58.2608,-30.2307],[-57.8087,-30.7473],[-57.8496,-30.4853],[-57.6425,-30.1931],[-57.6117,-30.183],[-57.3252,-29.981],[-56.4158,-29.0514],[-55.623,-28.1443],[-55.8386,-27.9066],[-56.0173,-27.4516],[-55.9661,-27.3317],[-56.2798,-27.3896],[-56.3675,-27.5806],[-56.638,-27.4529],[-57.3101,-27.4292]]]}},{"type":"Feature","id":"label-ARG-1308","properties":{"kind":"division-label","code":"ARG-1308","countryCode":"ARG","name":"Corrientes","localName":"Corrientes","labelEnglish":"Corrientes","labelLocal":"Corrientes","labelBoth":"Corrientes","type":"Province","iso":"AR-W","qid":"Q44758"},"geometry":{"type":"Point","coordinates":[-57.6482,-28.8387]}},{"type":"Feature","id":"ARG-1300","properties":{"kind":"division","code":"ARG-1300","countryCode":"ARG","name":"Catamarca","localName":"Catamarca","labelEnglish":"Catamarca","labelLocal":"Catamarca","labelBoth":"Catamarca","type":"Province","iso":"AR-K","qid":"Q44756"},"geometry":{"type":"Polygon","coordinates":[[[-68.5542,-25.2912],[-68.606,-25.437],[-68.4199,-26.1793],[-68.5752,-26.3035],[-68.5702,-26.5506],[-68.3201,-26.8701],[-68.3305,-27.045],[-68.8011,-27.1128],[-69.1341,-27.7723],[-68.435,-27.7466],[-68.4473,-27.9794],[-67.9319,-28.1241],[-67.8241,-28.3824],[-67.2601,-28.3583],[-66.9762,-28.2674],[-66.5844,-28.4042],[-66.3344,-28.8745],[-65.7924,-29.2501],[-65.7295,-29.5022],[-65.4019,-30.1402],[-64.9434,-29.8783],[-64.8825,-29.5571],[-65.0354,-29.2927],[-65.1022,-28.6949],[-65.0791,-28.2746],[-65.1691,-27.9097],[-65.3334,-27.8636],[-65.558,-28.0544],[-65.9293,-27.6543],[-65.9819,-27.3938],[-66.1946,-27.3194],[-65.8723,-26.9164],[-65.8535,-26.7232],[-66.1555,-26.4972],[-66.0538,-26.2535],[-66.2248,-26.171],[-66.3584,-26.3661],[-66.5333,-26.26],[-66.8068,-25.725],[-66.5125,-25.6309],[-66.601,-25.2691],[-67.8069,-25.2832],[-68.4965,-25.16],[-68.5542,-25.2912]]]}},{"type":"Feature","id":"label-ARG-1300","properties":{"kind":"division-label","code":"ARG-1300","countryCode":"ARG","name":"Catamarca","localName":"Catamarca","labelEnglish":"Catamarca","labelLocal":"Catamarca","labelBoth":"Catamarca","type":"Province","iso":"AR-K","qid":"Q44756"},"geometry":{"type":"Point","coordinates":[-67.0086,-26.7709]}},{"type":"Feature","id":"ARG-1302","properties":{"kind":"division","code":"ARG-1302","countryCode":"ARG","name":"La Rioja","localName":"La Rioja","labelEnglish":"La Rioja","labelLocal":"La Rioja","labelBoth":"La Rioja","type":"Province","iso":"AR-F","qid":"Q44796"},"geometry":{"type":"Polygon","coordinates":[[[-69.1341,-27.7723],[-69.4203,-28.2126],[-69.654,-28.401],[-69.1618,-28.6214],[-68.9211,-28.9895],[-68.9777,-29.6362],[-68.328,-29.6925],[-67.6345,-30.2479],[-67.0807,-30.9055],[-67.1039,-31.3543],[-66.7305,-31.8766],[-66.2172,-31.9254],[-65.7596,-31.8855],[-65.7673,-31.0962],[-65.4019,-30.1402],[-65.7295,-29.5022],[-65.7924,-29.2501],[-66.3344,-28.8745],[-66.5844,-28.4042],[-66.9762,-28.2674],[-67.2601,-28.3583],[-67.8241,-28.3824],[-67.9319,-28.1241],[-68.4473,-27.9794],[-68.435,-27.7466],[-69.1341,-27.7723]]]}},{"type":"Feature","id":"label-ARG-1302","properties":{"kind":"division-label","code":"ARG-1302","countryCode":"ARG","name":"La Rioja","localName":"La Rioja","labelEnglish":"La Rioja","labelLocal":"La Rioja","labelBoth":"La Rioja","type":"Province","iso":"AR-F","qid":"Q44796"},"geometry":{"type":"Point","coordinates":[-67.5283,-29.3762]}},{"type":"Feature","id":"ARG-1273","properties":{"kind":"division","code":"ARG-1273","countryCode":"ARG","name":"San Juan","localName":"San Juan","labelEnglish":"San Juan","labelLocal":"San Juan","labelBoth":"San Juan","type":"Province","iso":"AR-J","qid":"Q44805"},"geometry":{"type":"Polygon","coordinates":[[[-69.9294,-29.7179],[-69.9028,-30.3127],[-70.1734,-30.3647],[-70.3195,-30.8008],[-70.2676,-31.0238],[-70.4798,-31.0967],[-70.5914,-31.5496],[-70.3308,-32.2096],[-70.2561,-32.3143],[-69.6317,-32.2335],[-69.6126,-32.1234],[-69.1451,-31.9619],[-68.9222,-32.0762],[-68.9022,-32.3257],[-68.6896,-32.3351],[-68.3937,-32.1501],[-68.0207,-32.069],[-67.8318,-32.2392],[-67.393,-32.2622],[-67.3444,-31.8468],[-66.7305,-31.8766],[-67.1039,-31.3543],[-67.0807,-30.9055],[-67.6345,-30.2479],[-68.328,-29.6925],[-68.9777,-29.6362],[-68.9211,-28.9895],[-69.1618,-28.6214],[-69.654,-28.401],[-69.8039,-29.0987],[-70.0426,-29.3631],[-69.9294,-29.7179]]]}},{"type":"Feature","id":"label-ARG-1273","properties":{"kind":"division-label","code":"ARG-1273","countryCode":"ARG","name":"San Juan","localName":"San Juan","labelEnglish":"San Juan","labelLocal":"San Juan","labelBoth":"San Juan","type":"Province","iso":"AR-J","qid":"Q44805"},"geometry":{"type":"Point","coordinates":[-68.6612,-30.97]}},{"type":"Feature","id":"ARG-1275","properties":{"kind":"division","code":"ARG-1275","countryCode":"ARG","name":"Mendoza","localName":"Mendoza","labelEnglish":"Mendoza","labelLocal":"Mendoza","labelBoth":"Mendoza","type":"Province","iso":"AR-M","qid":"Q44797"},"geometry":{"type":"Polygon","coordinates":[[[-70.1061,-33.0526],[-70.01,-33.2991],[-69.7877,-33.3794],[-69.8954,-33.6623],[-69.8328,-34.2432],[-70.0482,-34.2835],[-70.3724,-35.0274],[-70.5429,-35.2093],[-70.3573,-35.8152],[-70.4307,-36.1294],[-70.3473,-36.3742],[-69.7901,-36.8632],[-69.6235,-37.1526],[-69.2604,-37.1526],[-69.0201,-37.3443],[-68.2494,-37.557],[-68.2463,-35.9993],[-66.6172,-35.9999],[-66.5066,-35.1415],[-66.738,-34.6154],[-66.8214,-34.2293],[-66.7471,-34.0642],[-67.1426,-33.452],[-67.1921,-32.7611],[-67.393,-32.2622],[-67.8318,-32.2392],[-68.0207,-32.069],[-68.3937,-32.1501],[-68.6896,-32.3351],[-68.9022,-32.3257],[-68.9222,-32.0762],[-69.1451,-31.9619],[-69.6126,-32.1234],[-69.6317,-32.2335],[-70.2561,-32.3143],[-70.1061,-33.0526]]]}},{"type":"Feature","id":"label-ARG-1275","properties":{"kind":"division-label","code":"ARG-1275","countryCode":"ARG","name":"Mendoza","localName":"Mendoza","labelEnglish":"Mendoza","labelLocal":"Mendoza","labelBoth":"Mendoza","type":"Province","iso":"AR-M","qid":"Q44797"},"geometry":{"type":"Point","coordinates":[-68.5423,-34.8484]}},{"type":"Feature","id":"ARG-1276","properties":{"kind":"division","code":"ARG-1276","countryCode":"ARG","name":"Neuquén","localName":"Neuquén","labelEnglish":"Neuquén","labelLocal":"Neuquén","labelBoth":"Neuquén","type":"Province","iso":"AR-Q","qid":"Q44800"},"geometry":{"type":"Polygon","coordinates":[[[-70.4307,-36.1294],[-70.7186,-36.4146],[-71.0278,-36.4812],[-71.1952,-36.8391],[-71.0891,-37.1034],[-71.2056,-37.2927],[-71.185,-37.7061],[-71.0161,-38.1437],[-70.8738,-38.6914],[-71.4158,-38.9353],[-71.52,-39.615],[-71.6411,-39.6],[-71.6212,-39.8951],[-71.8238,-40.2101],[-71.6785,-40.3402],[-71.8606,-40.5594],[-71.8674,-41.0102],[-71.3593,-41.0897],[-71.0311,-40.9288],[-71.1302,-40.7795],[-70.5761,-40.5235],[-70.2142,-40.5382],[-69.9665,-39.9731],[-69.5402,-39.8259],[-68.9622,-39.4887],[-68.3209,-38.9618],[-68.0316,-38.9697],[-68.2521,-38.6593],[-68.2494,-37.557],[-69.0201,-37.3443],[-69.2604,-37.1526],[-69.6235,-37.1526],[-69.7901,-36.8632],[-70.3473,-36.3742],[-70.4307,-36.1294]]]}},{"type":"Feature","id":"label-ARG-1276","properties":{"kind":"division-label","code":"ARG-1276","countryCode":"ARG","name":"Neuquén","localName":"Neuquén","labelEnglish":"Neuquén","labelLocal":"Neuquén","labelBoth":"Neuquén","type":"Province","iso":"AR-Q","qid":"Q44800"},"geometry":{"type":"Point","coordinates":[-69.9833,-38.3579]}},{"type":"Feature","id":"ARG-1274","properties":{"kind":"division","code":"ARG-1274","countryCode":"ARG","name":"Chubut","localName":"Chubut","labelEnglish":"Chubut","labelLocal":"Chubut","labelBoth":"Chubut","type":"Province","iso":"AR-U","qid":"Q45007"},"geometry":{"type":"Polygon","coordinates":[[[-71.7693,-41.9996],[-72.1247,-42.2633],[-72.1485,-42.9987],[-71.743,-43.1901],[-71.9373,-43.4569],[-71.7238,-43.5948],[-71.7453,-44.045],[-71.822,-44.4032],[-71.2098,-44.4276],[-71.336,-44.8016],[-72.0478,-44.7548],[-72.0735,-44.9022],[-71.5887,-44.9781],[-71.3115,-45.2995],[-71.7651,-45.5724],[-71.6492,-45.9994],[-69.6333,-45.9996],[-67.5817,-46],[-67.3319,-45.6135],[-66.8689,-45.2356],[-66.2004,-44.9929],[-65.6026,-45.0277],[-65.6855,-44.7125],[-65.2169,-44.3664],[-65.3341,-43.6726],[-64.7652,-43.1474],[-64.4335,-42.9763],[-64.9971,-42.7848],[-64.946,-42.6542],[-64.4377,-42.5069],[-64.1079,-42.8837],[-63.6203,-42.7512],[-63.5905,-42.3412],[-63.81,-42.0702],[-64.2966,-42.2576],[-64.1276,-42.4327],[-64.6023,-42.4221],[-64.4906,-42.2486],[-64.8573,-42.1936],[-65.0546,-42.0107],[-66.8838,-41.9992],[-69.3997,-41.9996],[-71.7693,-41.9996]]]}},{"type":"Feature","id":"label-ARG-1274","properties":{"kind":"division-label","code":"ARG-1274","countryCode":"ARG","name":"Chubut","localName":"Chubut","labelEnglish":"Chubut","labelLocal":"Chubut","labelBoth":"Chubut","type":"Province","iso":"AR-U","qid":"Q45007"},"geometry":{"type":"Point","coordinates":[-67.8642,-43.9995]}},{"type":"Feature","id":"ARG-1297","properties":{"kind":"division","code":"ARG-1297","countryCode":"ARG","name":"Río Negro","localName":"Río Negro","labelEnglish":"Río Negro","labelLocal":"Río Negro","labelBoth":"Río Negro","type":"Province","iso":"AR-R","qid":"Q44802"},"geometry":{"type":"Polygon","coordinates":[[[-71.7693,-41.9996],[-69.3997,-41.9996],[-66.8838,-41.9992],[-65.0546,-42.0107],[-64.9933,-41.553],[-65.1751,-41.0102],[-64.8905,-40.706],[-64.7349,-40.8303],[-63.7794,-41.1588],[-63.0995,-41.1549],[-62.8016,-41.0417],[-63.1178,-40.7461],[-63.3874,-40.7091],[-63.3886,-39.3258],[-63.9945,-39.0098],[-64.4715,-38.8537],[-65.6896,-38.8179],[-66.562,-38.7016],[-66.6479,-38.5574],[-67.0698,-38.409],[-67.1766,-38.2226],[-67.5541,-38.2617],[-67.8449,-38.0569],[-67.7105,-37.78],[-67.8503,-37.6002],[-68.2494,-37.557],[-68.2521,-38.6593],[-68.0316,-38.9697],[-68.3209,-38.9618],[-68.9622,-39.4887],[-69.5402,-39.8259],[-69.9665,-39.9731],[-70.2142,-40.5382],[-70.5761,-40.5235],[-71.1302,-40.7795],[-71.0311,-40.9288],[-71.3593,-41.0897],[-71.8674,-41.0102],[-71.926,-41.6229],[-71.7693,-41.9996]]]}},{"type":"Feature","id":"label-ARG-1297","properties":{"kind":"division-label","code":"ARG-1297","countryCode":"ARG","name":"Río Negro","localName":"Río Negro","labelEnglish":"Río Negro","labelLocal":"Río Negro","labelBoth":"Río Negro","type":"Province","iso":"AR-R","qid":"Q44802"},"geometry":{"type":"Point","coordinates":[-67.3641,-40.1261]}},{"type":"Feature","id":"ARG-1271","properties":{"kind":"division","code":"ARG-1271","countryCode":"ARG","name":"Santa Cruz","localName":"Santa Cruz","labelEnglish":"Santa Cruz","labelLocal":"Santa Cruz","labelBoth":"Santa Cruz","type":"Province","iso":"AR-Z","qid":"Q44821"},"geometry":{"type":"Polygon","coordinates":[[[-71.6492,-45.9994],[-71.7633,-46.2445],[-71.6872,-46.6901],[-71.9341,-46.7995],[-71.8626,-47.1689],[-72.1706,-47.4075],[-72.5439,-47.9148],[-72.2951,-48.3333],[-72.5768,-48.4521],[-72.5923,-48.7911],[-73.0097,-48.9904],[-73.1704,-49.2509],[-73.0982,-49.2728],[-73.0597,-49.555],[-73.4651,-49.76],[-73.5306,-50.1408],[-73.3229,-50.2684],[-73.1777,-50.7495],[-72.7784,-50.6196],[-72.3028,-50.6489],[-72.2576,-51.2306],[-72.4501,-51.5527],[-71.9177,-51.9901],[-69.9528,-52.0074],[-68.4545,-52.2999],[-68.4486,-52.3466],[-68.3656,-52.3062],[-68.6851,-52.005],[-68.9359,-51.6455],[-69.1678,-50.9782],[-69.0765,-50.5602],[-68.8764,-50.3306],[-67.8332,-49.9545],[-67.5565,-49.0158],[-67.1143,-48.6737],[-66.3411,-48.3527],[-65.9684,-48.0472],[-65.7357,-47.5095],[-65.7449,-47.2042],[-65.9796,-47.0662],[-66.7864,-47.0066],[-67.4232,-46.5674],[-67.5817,-46],[-69.6333,-45.9996],[-71.6492,-45.9994]]]}},{"type":"Feature","id":"label-ARG-1271","properties":{"kind":"division-label","code":"ARG-1271","countryCode":"ARG","name":"Santa Cruz","localName":"Santa Cruz","labelEnglish":"Santa Cruz","labelLocal":"Santa Cruz","labelBoth":"Santa Cruz","type":"Province","iso":"AR-Z","qid":"Q44821"},"geometry":{"type":"Point","coordinates":[-69.6596,-49.0428]}},{"type":"Feature","id":"ARG-1272","properties":{"kind":"division","code":"ARG-1272","countryCode":"ARG","name":"Tierra del Fuego","localName":"Tierra del Fuego","labelEnglish":"Tierra del Fuego","labelLocal":"Tierra del Fuego","labelBoth":"Tierra del Fuego","type":"National Territory","iso":"AR-V","qid":"Q44832"},"geometry":{"type":"Polygon","coordinates":[[[-68.6419,-54.783],[-67.031,-54.9052],[-66.5405,-55.051],[-65.3323,-54.9138],[-65.1556,-54.6406],[-65.8442,-54.6474],[-66.4822,-54.4658],[-66.7666,-54.2498],[-67.2978,-54.0538],[-67.9836,-53.6013],[-68.1114,-53.3438],[-68.4514,-53.2977],[-68.2859,-52.9435],[-68.6276,-52.6396],[-68.6419,-54.783]]]}},{"type":"Feature","id":"label-ARG-1272","properties":{"kind":"division-label","code":"ARG-1272","countryCode":"ARG","name":"Tierra del Fuego","localName":"Tierra del Fuego","labelEnglish":"Tierra del Fuego","labelLocal":"Tierra del Fuego","labelBoth":"Tierra del Fuego","type":"National Territory","iso":"AR-V","qid":"Q44832"},"geometry":{"type":"Point","coordinates":[-67.5329,-54.3887]}},{"type":"Feature","id":"ARG-1295","properties":{"kind":"division","code":"ARG-1295","countryCode":"ARG","name":"Buenos Aires","localName":"Buenos Aires","labelEnglish":"Buenos Aires","labelLocal":"Buenos Aires","labelBoth":"Buenos Aires","type":"Federal District","iso":"AR-B","qid":"Q44754"},"geometry":{"type":"Polygon","coordinates":[[[-62.8016,-41.0417],[-62.3378,-40.8727],[-62.2292,-40.6586],[-62.4901,-40.3079],[-62.305,-39.8111],[-62.1144,-39.8215],[-62.0239,-39.3648],[-62.2572,-39.2555],[-62.3902,-38.8147],[-61.5181,-39.0115],[-60.8657,-38.9757],[-59.0632,-38.6938],[-58.1557,-38.4301],[-57.5936,-38.1528],[-57.5119,-37.8723],[-57.0559,-37.4127],[-56.6649,-36.851],[-56.6976,-36.3962],[-57.248,-36.1703],[-57.3526,-35.7275],[-57.1449,-35.4842],[-57.522,-35.0132],[-58.315,-34.6572],[-58.5416,-34.7103],[-58.4742,-34.5216],[-58.5704,-34.2882],[-58.3786,-34.1882],[-58.447,-34.0069],[-58.6798,-34.0312],[-59.2623,-33.7242],[-59.6028,-33.6778],[-60.2941,-33.2566],[-60.4668,-33.612],[-60.9105,-33.5637],[-60.9631,-33.6772],[-61.7105,-34.3768],[-62.8538,-34.3821],[-63.3736,-34.4136],[-63.3841,-35.0021],[-63.3888,-35.9846],[-63.3878,-37.7794],[-63.3886,-39.3258],[-63.3874,-40.7091],[-63.1178,-40.7461],[-62.8016,-41.0417]]]}},{"type":"Feature","id":"label-ARG-1295","properties":{"kind":"division-label","code":"ARG-1295","countryCode":"ARG","name":"Buenos Aires","localName":"Buenos Aires","labelEnglish":"Buenos Aires","labelLocal":"Buenos Aires","labelBoth":"Buenos Aires","type":"Federal District","iso":"AR-B","qid":"Q44754"},"geometry":{"type":"Point","coordinates":[-60.1133,-36.6734]}},{"type":"Feature","id":"ARG-5493","properties":{"kind":"division","code":"ARG-5493","countryCode":"ARG","name":"Buenos Aires","localName":"Buenos Aires","labelEnglish":"Buenos Aires","labelLocal":"Buenos Aires","labelBoth":"Buenos Aires","type":"Federal District","iso":"AR-C","qid":"Q1486"},"geometry":{"type":"Polygon","coordinates":[[[-58.4742,-34.5216],[-58.5416,-34.7103],[-58.315,-34.6572],[-58.4742,-34.5216]]]}},{"type":"Feature","id":"label-ARG-5493","properties":{"kind":"division-label","code":"ARG-5493","countryCode":"ARG","name":"Buenos Aires","localName":"Buenos Aires","labelEnglish":"Buenos Aires","labelLocal":"Buenos Aires","labelBoth":"Buenos Aires","type":"Federal District","iso":"AR-C","qid":"Q1486"},"geometry":{"type":"Point","coordinates":[-58.4527,-34.6202]}},{"type":"Feature","id":"ARG-1310","properties":{"kind":"division","code":"ARG-1310","countryCode":"ARG","name":"Santa Fe","localName":"Santa Fe","labelEnglish":"Santa Fe","labelLocal":"Santa Fe","labelBoth":"Santa Fe","type":"Province","iso":"AR-S","qid":"Q44823"},"geometry":{"type":"Polygon","coordinates":[[[-58.8647,-27.9993],[-60.0413,-28.0001],[-61.7099,-28.0004],[-62.0871,-30.1566],[-62.1253,-30.4577],[-61.8571,-30.7315],[-62.1216,-31.6086],[-62.2228,-31.7068],[-62.2186,-32.1385],[-61.9141,-32.4629],[-61.733,-32.8275],[-62.8538,-34.3821],[-61.7105,-34.3768],[-60.9631,-33.6772],[-60.9105,-33.5637],[-60.4668,-33.612],[-60.2941,-33.2566],[-60.4954,-33.1221],[-60.7657,-32.5411],[-60.6478,-31.716],[-60.4141,-31.6735],[-60.094,-31.3537],[-59.6606,-30.7361],[-59.6615,-30.3369],[-59.6648,-29.8783],[-59.5113,-29.2076],[-59.1974,-29.0221],[-59.0991,-28.6642],[-59.0814,-28.1576],[-58.8647,-27.9993]]]}},{"type":"Feature","id":"label-ARG-1310","properties":{"kind":"division-label","code":"ARG-1310","countryCode":"ARG","name":"Santa Fe","localName":"Santa Fe","labelEnglish":"Santa Fe","labelLocal":"Santa Fe","labelBoth":"Santa Fe","type":"Province","iso":"AR-S","qid":"Q44823"},"geometry":{"type":"Point","coordinates":[-60.8593,-30.7764]}},{"type":"Feature","id":"ARG-1305","properties":{"kind":"division","code":"ARG-1305","countryCode":"ARG","name":"Tucumán","localName":"Tucumán","labelEnglish":"Tucumán","labelLocal":"Tucumán","labelBoth":"Tucumán","type":"Province","iso":"AR-T","qid":"Q44829"},"geometry":{"type":"Polygon","coordinates":[[[-64.4863,-26.2202],[-64.9664,-26.2688],[-65.6653,-26.0748],[-65.7118,-26.2954],[-66.0538,-26.2535],[-66.1555,-26.4972],[-65.8535,-26.7232],[-65.8723,-26.9164],[-66.1946,-27.3194],[-65.9819,-27.3938],[-65.9293,-27.6543],[-65.558,-28.0544],[-65.3334,-27.8636],[-65.1691,-27.9097],[-64.9992,-27.7781],[-65.0636,-27.4724],[-64.8798,-27.3092],[-64.5885,-26.688],[-64.5055,-26.6835],[-64.4863,-26.2202]]]}},{"type":"Feature","id":"label-ARG-1305","properties":{"kind":"division-label","code":"ARG-1305","countryCode":"ARG","name":"Tucumán","localName":"Tucumán","labelEnglish":"Tucumán","labelLocal":"Tucumán","labelBoth":"Tucumán","type":"Province","iso":"AR-T","qid":"Q44829"},"geometry":{"type":"Point","coordinates":[-65.3387,-26.9711]}},{"type":"Feature","id":"ARG-1304","properties":{"kind":"division","code":"ARG-1304","countryCode":"ARG","name":"Santiago del Estero","localName":"Santiago del Estero","labelEnglish":"Santiago del Estero","labelLocal":"Santiago del Estero","labelBoth":"Santiago del Estero","type":"Province","iso":"AR-G","qid":"Q44827"},"geometry":{"type":"Polygon","coordinates":[[[-63.3986,-25.6594],[-64.2116,-25.6037],[-64.4863,-26.2202],[-64.5055,-26.6835],[-64.5885,-26.688],[-64.8798,-27.3092],[-65.0636,-27.4724],[-64.9992,-27.7781],[-65.1691,-27.9097],[-65.0791,-28.2746],[-65.1022,-28.6949],[-65.0354,-29.2927],[-64.8825,-29.5571],[-64.2941,-29.4251],[-63.8076,-29.6498],[-63.4627,-29.6552],[-63.3628,-29.7735],[-62.2882,-29.7767],[-62.0871,-30.1566],[-61.7099,-28.0004],[-61.7223,-25.7442],[-61.7539,-25.6614],[-63.3986,-25.6594]]]}},{"type":"Feature","id":"label-ARG-1304","properties":{"kind":"division-label","code":"ARG-1304","countryCode":"ARG","name":"Santiago del Estero","localName":"Santiago del Estero","labelEnglish":"Santiago del Estero","labelLocal":"Santiago del Estero","labelBoth":"Santiago del Estero","type":"Province","iso":"AR-G","qid":"Q44827"},"geometry":{"type":"Point","coordinates":[-63.445,-27.6882]}},{"type":"Feature","id":"ARG-1298","properties":{"kind":"division","code":"ARG-1298","countryCode":"ARG","name":"San Luis","localName":"San Luis","labelEnglish":"San Luis","labelLocal":"San Luis","labelBoth":"San Luis","type":"Province","iso":"AR-D","qid":"Q44818"},"geometry":{"type":"Polygon","coordinates":[[[-65.0866,-35.0018],[-65.0869,-33.9624],[-65.1317,-33.2055],[-65.0325,-33.1113],[-64.8753,-32.5441],[-64.9228,-32.2992],[-65.2,-32.3196],[-65.2555,-32.1116],[-65.7596,-31.8855],[-66.2172,-31.9254],[-66.7305,-31.8766],[-67.3444,-31.8468],[-67.393,-32.2622],[-67.1921,-32.7611],[-67.1426,-33.452],[-66.7471,-34.0642],[-66.8214,-34.2293],[-66.738,-34.6154],[-66.5066,-35.1415],[-66.6172,-35.9999],[-65.0878,-35.9988],[-65.0866,-35.0018]]]}},{"type":"Feature","id":"label-ARG-1298","properties":{"kind":"division-label","code":"ARG-1298","countryCode":"ARG","name":"San Luis","localName":"San Luis","labelEnglish":"San Luis","labelLocal":"San Luis","labelBoth":"San Luis","type":"Province","iso":"AR-D","qid":"Q44818"},"geometry":{"type":"Point","coordinates":[-66.135,-33.9469]}},{"type":"Feature","id":"ARG-1296","properties":{"kind":"division","code":"ARG-1296","countryCode":"ARG","name":"La Pampa","localName":"La Pampa","labelEnglish":"La Pampa","labelLocal":"La Pampa","labelBoth":"La Pampa","type":"Province","iso":"AR-L","qid":"Q44795"},"geometry":{"type":"Polygon","coordinates":[[[-65.0866,-35.0018],[-65.0878,-35.9988],[-66.6172,-35.9999],[-68.2463,-35.9993],[-68.2494,-37.557],[-67.8503,-37.6002],[-67.7105,-37.78],[-67.8449,-38.0569],[-67.5541,-38.2617],[-67.1766,-38.2226],[-67.0698,-38.409],[-66.6479,-38.5574],[-66.562,-38.7016],[-65.6896,-38.8179],[-64.4715,-38.8537],[-63.9945,-39.0098],[-63.3886,-39.3258],[-63.3878,-37.7794],[-63.3888,-35.9846],[-63.3841,-35.0021],[-65.0866,-35.0018]]]}},{"type":"Feature","id":"label-ARG-1296","properties":{"kind":"division-label","code":"ARG-1296","countryCode":"ARG","name":"La Pampa","localName":"La Pampa","labelEnglish":"La Pampa","labelLocal":"La Pampa","labelBoth":"La Pampa","type":"Province","iso":"AR-L","qid":"Q44795"},"geometry":{"type":"Point","coordinates":[-65.8386,-37.3861]}},{"type":"Feature","id":"ARG-1299","properties":{"kind":"division","code":"ARG-1299","countryCode":"ARG","name":"Córdoba","localName":"Córdoba","labelEnglish":"Córdoba","labelLocal":"Córdoba","labelBoth":"Córdoba","type":"Province","iso":"AR-X","qid":"Q44759"},"geometry":{"type":"Polygon","coordinates":[[[-62.0871,-30.1566],[-62.2882,-29.7767],[-63.3628,-29.7735],[-63.4627,-29.6552],[-63.8076,-29.6498],[-64.2941,-29.4251],[-64.8825,-29.5571],[-64.9434,-29.8783],[-65.4019,-30.1402],[-65.7673,-31.0962],[-65.7596,-31.8855],[-65.2555,-32.1116],[-65.2,-32.3196],[-64.9228,-32.2992],[-64.8753,-32.5441],[-65.0325,-33.1113],[-65.1317,-33.2055],[-65.0869,-33.9624],[-65.0866,-35.0018],[-63.3841,-35.0021],[-63.3736,-34.4136],[-62.8538,-34.3821],[-61.733,-32.8275],[-61.9141,-32.4629],[-62.2186,-32.1385],[-62.2228,-31.7068],[-62.1216,-31.6086],[-61.8571,-30.7315],[-62.1253,-30.4577],[-62.0871,-30.1566]]]}},{"type":"Feature","id":"label-ARG-1299","properties":{"kind":"division-label","code":"ARG-1299","countryCode":"ARG","name":"Córdoba","localName":"Córdoba","labelEnglish":"Córdoba","labelLocal":"Córdoba","labelBoth":"Córdoba","type":"Province","iso":"AR-X","qid":"Q44759"},"geometry":{"type":"Point","coordinates":[-63.7501,-32.3275]}}]}