{"type":"FeatureCollection","features":[{"type":"Feature","id":"ARM-1670","properties":{"kind":"division","code":"ARM-1670","countryCode":"ARM","name":"Tavush","localName":"Տավուշ|Тавуш","labelEnglish":"Tavush","labelLocal":"Տավուշ|Тавуш","labelBoth":"Tavush · Տավուշ|Тавуш","type":"Province","iso":"AM-TV","qid":"Q201140"},"geometry":{"type":"Polygon","coordinates":[[[45.0024,41.2905],[44.8538,41.2235],[44.936,41.063],[44.7725,40.6652],[44.7966,40.6501],[45.1743,40.7321],[45.3736,40.6513],[45.4783,40.7482],[45.4428,40.9484],[45.3819,41.0114],[45.0678,41.1109],[45.0024,41.2905]]]}},{"type":"Feature","id":"label-ARM-1670","properties":{"kind":"division-label","code":"ARM-1670","countryCode":"ARM","name":"Tavush","localName":"Տավուշ|Тавуш","labelEnglish":"Tavush","labelLocal":"Տավուշ|Тавуш","labelBoth":"Tavush · Տավուշ|Тавуш","type":"Province","iso":"AM-TV","qid":"Q201140"},"geometry":{"type":"Point","coordinates":[45.1763,40.8883]}},{"type":"Feature","id":"ARM-1674","properties":{"kind":"division","code":"ARM-1674","countryCode":"ARM","name":"Lori","localName":"Լոռի|Лори","labelEnglish":"Lori","labelLocal":"Լոռի|Лори","labelBoth":"Lori · Լոռի|Лори","type":"Province","iso":"AM-LO","qid":"Q200350"},"geometry":{"type":"Polygon","coordinates":[[[44.8538,41.2235],[43.9782,41.1646],[43.9778,41.1645],[44.1658,40.7405],[44.4184,40.6818],[44.7725,40.6652],[44.936,41.063],[44.8538,41.2235]]]}},{"type":"Feature","id":"label-ARM-1674","properties":{"kind":"division-label","code":"ARM-1674","countryCode":"ARM","name":"Lori","localName":"Լոռի|Лори","labelEnglish":"Lori","labelLocal":"Լոռի|Лори","labelBoth":"Lori · Լոռի|Лори","type":"Province","iso":"AM-LO","qid":"Q200350"},"geometry":{"type":"Point","coordinates":[44.4524,40.9347]}},{"type":"Feature","id":"ARM-1555","properties":{"kind":"division","code":"ARM-1555","countryCode":"ARM","name":"Shirak","localName":"Շիրակ|Ширак","labelEnglish":"Shirak","labelLocal":"Շիրակ|Ширак","labelBoth":"Shirak · Շիրակ|Ширак","type":"Province","iso":"AM-SH","qid":"Q201063"},"geometry":{"type":"Polygon","coordinates":[[[43.9778,41.1645],[43.4404,41.1066],[43.7294,40.6771],[43.6245,40.4111],[44.1996,40.5116],[44.1658,40.7405],[43.9778,41.1645]]]}},{"type":"Feature","id":"label-ARM-1555","properties":{"kind":"division-label","code":"ARM-1555","countryCode":"ARM","name":"Shirak","localName":"Շիրակ|Ширак","labelEnglish":"Shirak","labelLocal":"Շիրակ|Ширак","labelBoth":"Shirak · Շիրակ|Ширак","type":"Province","iso":"AM-SH","qid":"Q201063"},"geometry":{"type":"Point","coordinates":[43.8178,40.8194]}},{"type":"Feature","id":"ARM-1672","properties":{"kind":"division","code":"ARM-1672","countryCode":"ARM","name":"Gegharkunik","localName":"Գեղարքունիք|Гегаркуник","labelEnglish":"Gegharkunik","labelLocal":"Գեղարքունիք|Гегаркуник","labelBoth":"Gegharkunik · Գեղարքունիք|Гегаркуник","type":"Province","iso":"AM-GR","qid":"Q199905"},"geometry":{"type":"Polygon","coordinates":[[[45.3736,40.6513],[45.1743,40.7321],[44.7966,40.6501],[45.0298,40.1633],[45.1095,39.8658],[45.5776,39.984],[45.8738,40.0098],[45.8885,40.262],[45.8192,40.2971],[45.3736,40.6513]]]}},{"type":"Feature","id":"label-ARM-1672","properties":{"kind":"division-label","code":"ARM-1672","countryCode":"ARM","name":"Gegharkunik","localName":"Գեղարքունիք|Гегаркуник","labelEnglish":"Gegharkunik","labelLocal":"Գեղարքունիք|Гегаркуник","labelBoth":"Gegharkunik · Գեղարքունիք|Гегаркуник","type":"Province","iso":"AM-GR","qid":"Q199905"},"geometry":{"type":"Point","coordinates":[45.3848,40.278]}},{"type":"Feature","id":"ARM-1733","properties":{"kind":"division","code":"ARM-1733","countryCode":"ARM","name":"Vayots Dzor","localName":"Վայոց Ձոր|Вайоц Дзор","labelEnglish":"Vayots Dzor","labelLocal":"Վայոց Ձոր|Вайоц Дзор","labelBoth":"Vayots Dzor · Վայոց Ձոր|Вайоц Дзор","type":"Province","iso":"AM-VD","qid":"Q200124"},"geometry":{"type":"Polygon","coordinates":[[[45.5776,39.984],[45.1095,39.8658],[45.075,39.7498],[45.1679,39.5655],[45.2662,39.5929],[45.4239,39.4938],[45.7091,39.5684],[45.8091,39.8512],[45.5776,39.984]]]}},{"type":"Feature","id":"label-ARM-1733","properties":{"kind":"division-label","code":"ARM-1733","countryCode":"ARM","name":"Vayots Dzor","localName":"Վայոց Ձոր|Вайоц Дзор","labelEnglish":"Vayots Dzor","labelLocal":"Վայոց Ձոր|Вайоц Дзор","labelBoth":"Vayots Dzor · Վայոց Ձոր|Вайоц Дзор","type":"Province","iso":"AM-VD","qid":"Q200124"},"geometry":{"type":"Point","coordinates":[45.4421,39.7183]}},{"type":"Feature","id":"ARM-1732","properties":{"kind":"division","code":"ARM-1732","countryCode":"ARM","name":"Syunik","localName":"Սյունիք|Сюник","labelEnglish":"Syunik","labelLocal":"Սյունիք|Сюник","labelBoth":"Syunik · Սյունիք|Сюник","type":"Province","iso":"AM-SU","qid":"Q2523428"},"geometry":{"type":"Polygon","coordinates":[[[45.8091,39.8512],[45.7091,39.5684],[45.7644,39.3591],[45.9018,39.2941],[46.1359,38.8637],[46.514,38.8822],[46.4183,39.2119],[46.5991,39.2225],[46.479,39.4618],[45.8832,39.7961],[45.8091,39.8512]]]}},{"type":"Feature","id":"label-ARM-1732","properties":{"kind":"division-label","code":"ARM-1732","countryCode":"ARM","name":"Syunik","localName":"Սյունիք|Сюник","labelEnglish":"Syunik","labelLocal":"Սյունիք|Сюник","labelBoth":"Syunik · Սյունիք|Сюник","type":"Province","iso":"AM-SU","qid":"Q2523428"},"geometry":{"type":"Point","coordinates":[46.1518,39.2479]}},{"type":"Feature","id":"ARM-1671","properties":{"kind":"division","code":"ARM-1671","countryCode":"ARM","name":"Ararat","localName":"Արարատ|Арарат","labelEnglish":"Ararat","labelLocal":"Արարատ|Арарат","labelBoth":"Ararat · Արարատ|Арарат","type":"Province","iso":"AM-AR","qid":"Q199880"},"geometry":{"type":"Polygon","coordinates":[[[45.075,39.7498],[45.1095,39.8658],[45.0298,40.1633],[44.6476,40.1156],[44.4405,40.1534],[44.3809,40.0098],[44.7746,39.7028],[44.9532,39.736],[45.075,39.7498]]]}},{"type":"Feature","id":"label-ARM-1671","properties":{"kind":"division-label","code":"ARM-1671","countryCode":"ARM","name":"Ararat","localName":"Արարատ|Арарат","labelEnglish":"Ararat","labelLocal":"Արարատ|Арарат","labelBoth":"Ararat · Արարատ|Арарат","type":"Province","iso":"AM-AR","qid":"Q199880"},"geometry":{"type":"Point","coordinates":[44.7304,39.9204]}},{"type":"Feature","id":"ARM-1553","properties":{"kind":"division","code":"ARM-1553","countryCode":"ARM","name":"Aragatsotn","localName":"Արագածոտն|Арагацотн","labelEnglish":"Aragatsotn","labelLocal":"Արագածոտն|Арагацотн","labelBoth":"Aragatsotn · Արագածոտն|Арагацотн","type":"Province","iso":"AM-AG","qid":"Q17915"},"geometry":{"type":"Polygon","coordinates":[[[43.6903,40.2404],[44.4184,40.1893],[44.426,40.2008],[44.5533,40.5642],[44.4184,40.6818],[44.1658,40.7405],[44.1996,40.5116],[43.6245,40.4111],[43.6903,40.2404]]]}},{"type":"Feature","id":"label-ARM-1553","properties":{"kind":"division-label","code":"ARM-1553","countryCode":"ARM","name":"Aragatsotn","localName":"Արագածոտն|Арагацотн","labelEnglish":"Aragatsotn","labelLocal":"Արագածոտն|Арагацотн","labelBoth":"Aragatsotn · Արագածոտն|Арагацотн","type":"Province","iso":"AM-AG","qid":"Q17915"},"geometry":{"type":"Point","coordinates":[44.0736,40.3213]}},{"type":"Feature","id":"ARM-1554","properties":{"kind":"division","code":"ARM-1554","countryCode":"ARM","name":"Armavir","localName":"Արմավիր|Армавир","labelEnglish":"Armavir","labelLocal":"Արմավիր|Армавир","labelBoth":"Armavir · Արմավիր|Армавир","type":"Province","iso":"AM-AV","qid":"Q201147"},"geometry":{"type":"Polygon","coordinates":[[[43.6654,40.1102],[44.3809,40.0098],[44.4405,40.1534],[44.4184,40.1893],[43.6903,40.2404],[43.6654,40.1102]]]}},{"type":"Feature","id":"label-ARM-1554","properties":{"kind":"division-label","code":"ARM-1554","countryCode":"ARM","name":"Armavir","localName":"Արմավիր|Армавир","labelEnglish":"Armavir","labelLocal":"Արմավիր|Армавир","labelBoth":"Armavir · Արմավիր|Армавир","type":"Province","iso":"AM-AV","qid":"Q201147"},"geometry":{"type":"Point","coordinates":[44.0464,40.0992]}},{"type":"Feature","id":"ARM-1673","properties":{"kind":"division","code":"ARM-1673","countryCode":"ARM","name":"Kotayk","localName":"Կոտայք|Котайк","labelEnglish":"Kotayk","labelLocal":"Կոտայք|Котайк","labelBoth":"Kotayk · Կոտայք|Котайк","type":"Province","iso":"AM-KT","qid":"Q4511"},"geometry":{"type":"Polygon","coordinates":[[[44.7725,40.6652],[44.4184,40.6818],[44.5533,40.5642],[44.426,40.2008],[44.6476,40.1156],[45.0298,40.1633],[44.7966,40.6501],[44.7725,40.6652]]]}},{"type":"Feature","id":"label-ARM-1673","properties":{"kind":"division-label","code":"ARM-1673","countryCode":"ARM","name":"Kotayk","localName":"Կոտայք|Котайк","labelEnglish":"Kotayk","labelLocal":"Կոտայք|Котайк","labelBoth":"Kotayk · Կոտայք|Котайк","type":"Province","iso":"AM-KT","qid":"Q4511"},"geometry":{"type":"Point","coordinates":[44.7191,40.3747]}},{"type":"Feature","id":"ARM-1675","properties":{"kind":"division","code":"ARM-1675","countryCode":"ARM","name":"Yerevan","localName":"Երևան|Ереван","labelEnglish":"Yerevan","labelLocal":"Երևան|Ереван","labelBoth":"Yerevan · Երևան|Ереван","type":"City","iso":"AM-ER","qid":"Q1953"},"geometry":{"type":"Polygon","coordinates":[[[44.6476,40.1156],[44.426,40.2008],[44.4184,40.1893],[44.4405,40.1534],[44.6476,40.1156]]]}},{"type":"Feature","id":"label-ARM-1675","properties":{"kind":"division-label","code":"ARM-1675","countryCode":"ARM","name":"Yerevan","localName":"Երևան|Ереван","labelEnglish":"Yerevan","labelLocal":"Երևան|Ереван","labelBoth":"Yerevan · Երևան|Ереван","type":"City","iso":"AM-ER","qid":"Q1953"},"geometry":{"type":"Point","coordinates":[44.533,40.1474]}}]}