{"type":"FeatureCollection","features":[{"type":"Feature","id":"ASM-5002","properties":{"kind":"division","code":"ASM-5002","countryCode":"ASM","name":"Western District","localName":"Western District","labelEnglish":"Western District","labelLocal":"Western District","labelBoth":"Western District","type":null,"iso":"AS-X05~","qid":null},"geometry":{"type":"Polygon","coordinates":[[[-170.6926,-14.3148],[-170.7215,-14.2892],[-170.8312,-14.3194],[-170.7486,-14.3747],[-170.6926,-14.3148]]]}},{"type":"Feature","id":"label-ASM-5002","properties":{"kind":"division-label","code":"ASM-5002","countryCode":"ASM","name":"Western District","localName":"Western District","labelEnglish":"Western District","labelLocal":"Western District","labelBoth":"Western District","type":null,"iso":"AS-X05~","qid":null},"geometry":{"type":"Point","coordinates":[-170.768,-14.3241]}},{"type":"Feature","id":"ASM-4998","properties":{"kind":"division","code":"ASM-4998","countryCode":"ASM","name":"Eastern District","localName":"Eastern District","labelEnglish":"Eastern District","labelLocal":"Eastern District","labelBoth":"Eastern District","type":null,"iso":"AS-X01~","qid":null},"geometry":{"type":"Polygon","coordinates":[[[-170.7215,-14.2892],[-170.6926,-14.3148],[-170.5842,-14.2778],[-170.7215,-14.2892]]]}},{"type":"Feature","id":"label-ASM-4998","properties":{"kind":"division-label","code":"ASM-4998","countryCode":"ASM","name":"Eastern District","localName":"Eastern District","labelEnglish":"Eastern District","labelLocal":"Eastern District","labelBoth":"Eastern District","type":null,"iso":"AS-X01~","qid":null},"geometry":{"type":"Point","coordinates":[-170.639,-14.272]}},{"type":"Feature","id":"ASM-4999","properties":{"kind":"division","code":"ASM-4999","countryCode":"ASM","name":"Manu'a Islands","localName":"Manu'a Islands","labelEnglish":"Manu'a Islands","labelLocal":"Manu'a Islands","labelBoth":"Manu'a Islands","type":null,"iso":"AS-X02~","qid":null},"geometry":{"type":"Polygon","coordinates":[[[-169.4639,-14.2232],[-169.5427,-14.2367],[-169.5228,-14.2709],[-169.4639,-14.2232]]]}},{"type":"Feature","id":"label-ASM-4999","properties":{"kind":"division-label","code":"ASM-4999","countryCode":"ASM","name":"Manu'a Islands","localName":"Manu'a Islands","labelEnglish":"Manu'a Islands","labelLocal":"Manu'a Islands","labelBoth":"Manu'a Islands","type":null,"iso":"AS-X02~","qid":null},"geometry":{"type":"Point","coordinates":[-169.493,-14.2338]}},{"type":"Feature","id":"ASM-5000","properties":{"kind":"division","code":"ASM-5000","countryCode":"ASM","name":"Rose Atoll","localName":"Rose Atoll","labelEnglish":"Rose Atoll","labelLocal":"Rose Atoll","labelBoth":"Rose Atoll","type":null,"iso":"AS-X03~","qid":null},"geometry":{"type":"Polygon","coordinates":[[[-168.1616,-14.5329],[-168.1605,-14.5209],[-168.1731,-14.5237],[-168.1616,-14.5329]]]}},{"type":"Feature","id":"label-ASM-5000","properties":{"kind":"division-label","code":"ASM-5000","countryCode":"ASM","name":"Rose Atoll","localName":"Rose Atoll","labelEnglish":"Rose Atoll","labelLocal":"Rose Atoll","labelBoth":"Rose Atoll","type":null,"iso":"AS-X03~","qid":null},"geometry":{"type":"Point","coordinates":[-168.166,-14.525]}},{"type":"Feature","id":"ASM-5001","properties":{"kind":"division","code":"ASM-5001","countryCode":"ASM","name":"Swains Island","localName":"Swains Island","labelEnglish":"Swains Island","labelLocal":"Swains Island","labelBoth":"Swains Island","type":null,"iso":"AS-X04~","qid":null},"geometry":{"type":"Polygon","coordinates":[[[-171.0728,-11.0525],[-171.0856,-11.0514],[-171.0815,-11.0661],[-171.0728,-11.0525]]]}},{"type":"Feature","id":"label-ASM-5001","properties":{"kind":"division-label","code":"ASM-5001","countryCode":"ASM","name":"Swains Island","localName":"Swains Island","labelEnglish":"Swains Island","labelLocal":"Swains Island","labelBoth":"Swains Island","type":null,"iso":"AS-X04~","qid":null},"geometry":{"type":"Point","coordinates":[-171.08,-11.0577]}}]}