{"type":"FeatureCollection","features":[{"type":"Feature","id":"ATA+00?","properties":{"kind":"division","code":"ATA+00?","countryCode":"ATA","name":"Antarctica","localName":"Antarctica","labelEnglish":"Antarctica","labelLocal":"Antarctica","labelBoth":"Antarctica","type":null,"iso":"AQ-X01~","qid":null},"geometry":{"type":"MultiPolygon","coordinates":[[[[-51.7306,-82.0626],[-54.7615,-82.2997],[-57.6989,-82.9103],[-59.47,-83.4601],[-61.8515,-83.3676],[-61.6578,-83.0577],[-62.795,-82.5197],[-60.7087,-82.1607],[-65.0726,-82.406],[-66.0303,-82.3116],[-65.8031,-81.8884],[-63.4794,-81.78],[-65.6917,-81.7105],[-62.2073,-81.6926],[-62.4142,-81.5576],[-65.1743,-81.5123],[-68.3717,-81.1103],[-69.9758,-80.976],[-71.1258,-80.6026],[-72.7692,-80.9692],[-74.0469,-80.8041],[-75.7251,-80.8185],[-75.5784,-80.4035],[-76.2745,-80.0811],[-77.6661,-80.1817],[-79.6873,-79.9826],[-77.4191,-80.0138],[-76.0976,-79.7336],[-76.5326,-79.3129],[-80.4294,-79.2585],[-80.4923,-79.5779],[-81.7428,-79.0654],[-83.2535,-78.7727],[-83.8861,-78.4194],[-83.7676,-77.968],[-82.487,-78.4658],[-80.2952,-78.8468],[-77.754,-78.7358],[-77.4125,-78.4196],[-81.6162,-77.8621],[-80.2272,-77.7978],[-77.6854,-77.9299],[-74.892,-78.1681],[-73.6273,-78.025],[-72.7223,-77.5756],[-75.0804,-77.4371],[-75.5266,-77.5412],[-76.9999,-77.0364],[-77.5093,-76.5561],[-76.584,-76.5204],[-72.4062,-76.6894],[-71.7091,-76.7628],[-70.0943,-76.6751],[-69.4748,-76.341],[-68.1043,-76.1479],[-66.2186,-76.0108],[-63.1616,-75.4094],[-64.2723,-75.2411],[-63.0409,-75.1472],[-63.293,-74.7201],[-62.7355,-74.678],[-62.5911,-74.9511],[-61.7821,-74.7218],[-62.3639,-74.4035],[-61.5427,-74.544],[-60.682,-74.3248],[-61.8566,-74.3287],[-61.0554,-74.1031],[-60.7995,-73.5779],[-61.5393,-73.3922],[-62.0017,-73.1042],[-60.7031,-73.391],[-60.0936,-73.2992],[-59.9041,-72.9934],[-60.5522,-72.9806],[-60.5968,-72.65],[-61.1366,-72.7833],[-61.4647,-72.4073],[-60.8235,-72.4651],[-60.6938,-71.9978],[-61.167,-72.1699],[-62.4409,-71.9196],[-61.0918,-71.871],[-60.7779,-71.677],[-61.554,-71.4474],[-60.9242,-71.3386],[-61.5544,-70.8412],[-62.0038,-70.9213],[-61.4164,-70.5022],[-62.0898,-70.5476],[-62.3935,-70.2188],[-62.0093,-70.0759],[-62.5297,-69.8639],[-62.3973,-69.5152],[-62.9625,-69.379],[-63.8129,-68.7179],[-63.9059,-68.4889],[-64.3258,-68.6422],[-64.0849,-68.8295],[-65.2438,-68.6295],[-64.9757,-68.4078],[-65.4811,-68.3084],[-64.8008,-68.1638],[-65.7607,-68.1657],[-65.3804,-68.0117],[-65.7067,-67.8595],[-65.3375,-67.658],[-65.616,-67.3689],[-64.7912,-67.2621],[-64.7738,-66.8456],[-63.8313,-66.9179],[-64.1349,-66.6432],[-63.5832,-66.3943],[-63.8116,-66.1889],[-63.2346,-66.2394],[-62.5341,-66.7185],[-62.6683,-66.2275],[-61.4687,-66.1144],[-61.0902,-66.3522],[-60.5775,-65.9401],[-61.3328,-65.9197],[-61.3091,-66.0866],[-62.0228,-66.1115],[-62.3724,-65.9157],[-62.0799,-65.5964],[-61.7502,-65.5701],[-62.1983,-65.3045],[-61.6276,-65.2414],[-61.7287,-64.9687],[-61.0517,-65.0109],[-60.6363,-64.6965],[-59.9575,-64.3875],[-59.4639,-64.3106],[-58.762,-64.4587],[-58.7333,-64.0314],[-58.0771,-63.6629],[-57.2013,-63.4731],[-56.776,-63.5631],[-57.2866,-63.2148],[-58.8985,-63.5402],[-59.489,-63.8791],[-60.3065,-63.9155],[-61.0194,-64.0825],[-60.9687,-64.2957],[-61.4234,-64.3928],[-62.1418,-64.7848],[-62.5741,-64.6567],[-63.0836,-65.1661],[-63.8739,-65.046],[-64.09,-65.4133],[-63.6823,-65.5239],[-64.4787,-65.6314],[-64.4958,-65.9394],[-65.2598,-65.9575],[-65.0909,-66.1501],[-65.5958,-66.0984],[-65.8724,-66.2989],[-65.8004,-66.7158],[-66.5121,-66.6301],[-66.4203,-66.8819],[-66.9809,-67.2763],[-67.119,-66.9361],[-67.6608,-67.4828],[-66.9927,-67.4687],[-66.8738,-67.9181],[-67.2687,-67.9687],[-66.9459,-68.2228],[-67.0096,-69.2625],[-67.5275,-69.4337],[-68.3164,-69.2893],[-68.8249,-69.4313],[-68.3619,-69.6834],[-68.4838,-70.0527],[-67.9494,-70.3118],[-67.4111,-70.9929],[-67.6226,-71.4334],[-66.748,-72.0921],[-67.5111,-72.8341],[-68.6673,-73.0881],[-70.293,-73.2934],[-73.0731,-73.4444],[-73.9491,-73.7096],[-75.2681,-73.6212],[-76.2772,-73.8209],[-77.2424,-73.8124],[-76.6987,-73.5475],[-77.5312,-73.4675],[-78.8718,-73.5832],[-78.744,-73.3649],[-79.6475,-73.0387],[-80.3777,-72.95],[-80.651,-73.0844],[-80.3938,-73.4142],[-81.3112,-73.273],[-81.234,-73.7302],[-82.0648,-73.887],[-82.9337,-73.7104],[-83.7967,-73.7436],[-83.7517,-73.5602],[-84.4669,-73.5694],[-85.5429,-73.3718],[-85.7826,-73.1691],[-86.9465,-73.3836],[-87.3937,-73.2263],[-88.4438,-73.2636],[-88.714,-73.1198],[-88.2235,-72.7123],[-89.3485,-72.6345],[-89.2303,-73.1113],[-91.1149,-73.3007],[-91.9538,-73.1845],[-93.5716,-73.1752],[-96.475,-73.2995],[-97.7174,-73.0253],[-100.7659,-72.976],[-101.9603,-73.0556],[-102.7169,-72.9977],[-102.094,-72.7717],[-103.0414,-72.7076],[-103.4299,-72.8494],[-102.8736,-73.3082],[-99.7681,-73.3642],[-99.4973,-73.6186],[-99.8674,-73.7331],[-101.1639,-73.7707],[-101.3854,-73.6672],[-102.8898,-73.5855],[-102.9233,-73.8575],[-101.5892,-74.0002],[-101.3959,-74.5027],[-100.1307,-74.4734],[-100.1051,-74.9431],[-98.4022,-75.2364],[-101.1127,-75.4321],[-101.5642,-75.1467],[-103.296,-75.0854],[-105.1418,-75.1813],[-106.7145,-75.3336],[-109.6929,-75.1461],[-111.6187,-75.1974],[-110.2944,-74.7819],[-110.2482,-74.3722],[-111.2308,-74.1967],[-111.887,-74.2286],[-111.9168,-74.6184],[-111.5426,-74.8015],[-114.2697,-75.0038],[-113.2251,-74.4021],[-113.8013,-74.4518],[-113.422,-74.1749],[-113.9518,-73.9146],[-114.734,-73.9269],[-115.1249,-74.0949],[-114.8385,-74.4714],[-116.6935,-74.5579],[-117.844,-74.51],[-117.9469,-74.261],[-118.9755,-74.4042],[-118.8671,-74.6025],[-121.7725,-74.7861],[-124.3656,-74.707],[-126.9391,-74.6767],[-129.9751,-74.9133],[-131.0128,-74.8165],[-132.7912,-74.7686],[-133.8655,-74.9283],[-134.5186,-74.6432],[-135.3424,-74.5602],[-135.7018,-74.7473],[-136.7943,-74.7499],[-137.0099,-75.0099],[-136.346,-75.1778],[-137.9043,-75.1056],[-139.5666,-75.148],[-140.277,-75.4326],[-141.2305,-75.4924],[-140.913,-75.7624],[-141.5272,-75.7675],[-141.8614,-75.5212],[-144.3572,-75.624],[-144.1604,-75.804],[-146.2092,-75.9155],[-146.4996,-76.087],[-145.3546,-76.4345],[-148.1971,-76.0871],[-149.4833,-76.2932],[-149.6398,-76.4299],[-148.4528,-76.506],[-147.0817,-76.4328],[-145.3454,-77.0571],[-146.3192,-76.9905],[-145.275,-77.2211],[-145.9645,-77.2545],[-145.4066,-77.4793],[-146.3966,-77.4952],[-146.9762,-77.2359],[-147.5796,-77.3853],[-148.7697,-77.1047],[-149.0209,-77.3378],[-147.7582,-77.4617],[-149.975,-77.8162],[-151.5146,-77.4164],[-152.4855,-77.3191],[-152.5754,-77.502],[-153.8624,-77.4426],[-153.534,-77.2542],[-154.8944,-77.1037],[-156.3238,-77.0661],[-157.0831,-77.3513],[-157.9254,-77.0563],[-158.1181,-77.5558],[-158.6371,-77.8645],[-157.1996,-78.2527],[-154.3962,-78.1359],[-154.7303,-78.4547],[-156.0528,-78.4941],[-156.5283,-78.6637],[-154.9698,-79.0348],[-152.5644,-79.1751],[-150.4469,-79.5592],[-147.7731,-79.7795],[-147.1553,-79.9459],[-148.9997,-79.8608],[-148.8341,-80.1313],[-150.3697,-80.0746],[-150.8908,-80.398],[-149.0187,-80.5915],[-147.628,-80.9202],[-152.5292,-81.0471],[-156.4501,-81.1487],[-157.0567,-81.3513],[-154.9966,-81.4892],[-153.6924,-81.747],[-154.804,-81.966],[-152.5429,-82.5481],[-155.0588,-82.8019],[-155.5922,-83.0461],[-158.4972,-83.1179],[-156.9177,-83.2302],[-157.5553,-83.3902],[-162.1691,-83.5247],[-163.134,-83.3155],[-164.6173,-83.5069],[-165.0863,-83.2021],[-170.7195,-83.197],[-171.4083,-82.9538],[-174.0276,-82.9152],[-169.4331,-83.4094],[-168.2595,-83.7436],[-165.5144,-83.7457],[-163.7028,-84.0499],[-165.1544,-84.138],[-163.0011,-84.363],[-163.8629,-84.5499],[-155.6426,-84.8278],[-157.581,-84.883],[-155.504,-85.1261],[-162.8489,-84.8831],[-166.9112,-84.8202],[-168.2547,-84.6482],[-175.178,-84.4148],[-175.8813,-84.5475],[-178.2976,-84.3077],[-180,-84.3528],[-180,-84.5152],[-180,-85.0138],[-180,-85.5125],[-180,-86.0111],[-180,-86.5097],[-180,-87.0083],[-180,-87.5069],[-180,-88.0055],[-180,-88.5042],[-180,-89.0028],[-180,-89.5014],[-180,-90],[-179.5007,-90],[-179.0014,-90],[-178.5021,-90],[-178.0028,-90],[-177.5035,-90],[-177.0042,-90],[-176.5049,-90],[-176.0055,-90],[-175.5062,-90],[-175.0069,-90],[-174.5076,-90],[-174.0083,-90],[-173.509,-90],[-173.0097,-90],[-172.5104,-90],[-172.0111,-90],[-171.5118,-90],[-171.0125,-90],[-170.5132,-90],[-170.0139,-90],[-169.5146,-90],[-169.0153,-90],[-168.5159,-90],[-168.0166,-90],[-167.5173,-90],[-167.018,-90],[-166.5187,-90],[-166.0194,-90],[-165.5201,-90],[-165.0208,-90],[-164.5215,-90],[-164.0222,-90],[-163.5229,-90],[-163.0236,-90],[-162.5243,-90],[-162.025,-90],[-161.5257,-90],[-161.0264,-90],[-160.527,-90],[-160.0277,-90],[-159.5284,-90],[-159.0291,-90],[-158.5298,-90],[-158.0305,-90],[-157.5312,-90],[-157.0319,-90],[-156.5326,-90],[-156.0333,-90],[-155.534,-90],[-155.0347,-90],[-154.5354,-90],[-154.0361,-90],[-153.5368,-90],[-153.0374,-90],[-152.5381,-90],[-152.0388,-90],[-151.5395,-90],[-151.0402,-90],[-150.5409,-90],[-150.0416,-90],[-149.5423,-90],[-149.043,-90],[-148.5437,-90],[-148.0444,-90],[-147.5451,-90],[-147.0458,-90],[-146.5465,-90],[-146.0472,-90],[-145.5478,-90],[-145.0485,-90],[-144.5492,-90],[-144.0499,-90],[-143.5506,-90],[-143.0513,-90],[-142.552,-90],[-142.0527,-90],[-141.5534,-90],[-141.0541,-90],[-140.5548,-90],[-140.0555,-90],[-139.5562,-90],[-139.0569,-90],[-138.5576,-90],[-138.0583,-90],[-137.5589,-90],[-137.0596,-90],[-136.5603,-90],[-136.061,-90],[-135.5617,-90],[-135.0624,-90],[-134.5631,-90],[-134.0638,-90],[-133.5645,-90],[-133.0652,-90],[-132.5659,-90],[-132.0666,-90],[-131.5673,-90],[-131.068,-90],[-130.5687,-90],[-130.0693,-90],[-129.57,-90],[-129.0707,-90],[-128.5714,-90],[-128.0721,-90],[-127.5728,-90],[-127.0735,-90],[-126.5742,-90],[-126.0749,-90],[-125.5756,-90],[-125.0763,-90],[-124.577,-90],[-124.0777,-90],[-123.5784,-90],[-123.0791,-90],[-122.5797,-90],[-122.0804,-90],[-121.5811,-90],[-121.0818,-90],[-120.5825,-90],[-120.0832,-90],[-119.5839,-90],[-119.0846,-90],[-118.5853,-90],[-118.086,-90],[-117.5867,-90],[-117.0874,-90],[-116.5881,-90],[-116.0888,-90],[-115.5895,-90],[-115.0902,-90],[-114.5908,-90],[-114.0915,-90],[-113.5922,-90],[-113.0929,-90],[-112.5936,-90],[-112.0943,-90],[-111.595,-90],[-111.0957,-90],[-110.5964,-90],[-110.0971,-90],[-109.5978,-90],[-109.0985,-90],[-108.5992,-90],[-108.0999,-90],[-107.6006,-90],[-107.1012,-90],[-106.6019,-90],[-106.1026,-90],[-105.6033,-90],[-105.104,-90],[-104.6047,-90],[-104.1054,-90],[-103.6061,-90],[-103.1068,-90],[-102.6075,-90],[-102.1082,-90],[-101.6089,-90],[-101.1096,-90],[-100.6103,-90],[-100.111,-90],[-99.6116,-90],[-99.1123,-90],[-98.613,-90],[-98.1137,-90],[-97.6144,-90],[-97.1151,-90],[-96.6158,-90],[-96.1165,-90],[-95.6172,-90],[-95.1179,-90],[-94.6186,-90],[-94.1193,-90],[-93.62,-90],[-93.1207,-90],[-92.6214,-90],[-92.1221,-90],[-91.6227,-90],[-91.1234,-90],[-90.6241,-90],[-90.1248,-90],[-89.6255,-90],[-89.1262,-90],[-88.6269,-90],[-88.1276,-90],[-87.6283,-90],[-87.129,-90],[-86.6297,-90],[-86.1304,-90],[-85.6311,-90],[-85.1318,-90],[-84.6325,-90],[-84.1331,-90],[-83.6338,-90],[-83.1345,-90],[-82.6352,-90],[-82.1359,-90],[-81.6366,-90],[-81.1373,-90],[-80.638,-90],[-80.1387,-90],[-79.6394,-90],[-79.1401,-90],[-78.6408,-90],[-78.1415,-90],[-77.6422,-90],[-77.1429,-90],[-76.6436,-90],[-76.1442,-90],[-75.6449,-90],[-75.1456,-90],[-74.6463,-90],[-74.147,-90],[-73.6477,-90],[-73.1484,-90],[-72.6491,-90],[-72.1498,-90],[-71.6505,-90],[-71.1512,-90],[-70.6519,-90],[-70.1526,-90],[-69.6533,-90],[-69.154,-90],[-68.6546,-90],[-68.1553,-90],[-67.656,-90],[-67.1567,-90],[-66.6574,-90],[-66.1581,-90],[-65.6588,-90],[-65.1595,-90],[-64.6602,-90],[-64.1609,-90],[-63.6616,-90],[-63.1623,-90],[-62.663,-90],[-62.1637,-90],[-61.6644,-90],[-61.165,-90],[-60.6657,-90],[-60.1664,-90],[-59.6671,-90],[-59.1678,-90],[-58.6685,-90],[-58.1692,-90],[-57.6699,-90],[-57.1706,-90],[-56.6713,-90],[-56.172,-90],[-55.6727,-90],[-55.1734,-90],[-54.6741,-90],[-54.1748,-90],[-53.6755,-90],[-53.1761,-90],[-52.6768,-90],[-52.1775,-90],[-51.6782,-90],[-51.1789,-90],[-50.6796,-90],[-50.1803,-90],[-49.681,-90],[-49.1817,-90],[-48.6824,-90],[-48.1831,-90],[-47.6838,-90],[-47.1845,-90],[-46.6852,-90],[-46.1859,-90],[-45.6865,-90],[-45.1872,-90],[-44.6879,-90],[-44.1886,-90],[-43.6893,-90],[-43.19,-90],[-42.6907,-90],[-42.1914,-90],[-41.6921,-90],[-41.1928,-90],[-40.6935,-90],[-40.1942,-90],[-39.6949,-90],[-39.1956,-90],[-38.6963,-90],[-38.1969,-90],[-37.6976,-90],[-37.1983,-90],[-36.699,-90],[-36.1997,-90],[-35.7004,-90],[-35.2011,-90],[-34.7018,-90],[-34.2025,-90],[-33.7032,-90],[-33.2039,-90],[-32.7046,-90],[-32.2053,-90],[-31.706,-90],[-31.2067,-90],[-30.7074,-90],[-30.208,-90],[-29.7087,-90],[-29.2094,-90],[-28.7101,-90],[-28.2108,-90],[-27.7115,-90],[-27.2122,-90],[-26.7129,-90],[-26.2136,-90],[-25.7143,-90],[-25.215,-90],[-24.7157,-90],[-24.2164,-90],[-23.7171,-90],[-23.2178,-90],[-22.7184,-90],[-22.2191,-90],[-21.7198,-90],[-21.2205,-90],[-20.7212,-90],[-20.2219,-90],[-19.7226,-90],[-19.2233,-90],[-18.724,-90],[-18.2247,-90],[-17.7254,-90],[-17.2261,-90],[-16.7268,-90],[-16.2275,-90],[-15.7282,-90],[-15.2288,-90],[-14.7295,-90],[-14.2302,-90],[-13.7309,-90],[-13.2316,-90],[-12.7323,-90],[-12.233,-90],[-11.7337,-90],[-11.2344,-90],[-10.7351,-90],[-10.2358,-90],[-9.7365,-90],[-9.2372,-90],[-8.7379,-90],[-8.2386,-90],[-7.7393,-90],[-7.2399,-90],[-6.7406,-90],[-6.2413,-90],[-5.742,-90],[-5.2427,-90],[-4.7434,-90],[-4.2441,-90],[-3.7448,-90],[-3.2455,-90],[-2.7462,-90],[-2.2469,-90],[-1.7476,-90],[-1.2483,-90],[-0.749,-90],[-0.2497,-90],[0.2497,-90],[0.749,-90],[1.2483,-90],[1.7476,-90],[2.2469,-90],[2.7462,-90],[3.2455,-90],[3.7448,-90],[4.2441,-90],[4.7434,-90],[5.2427,-90],[5.742,-90],[6.2413,-90],[6.7406,-90],[7.2399,-90],[7.7393,-90],[8.2386,-90],[8.7379,-90],[9.2372,-90],[9.7365,-90],[10.2358,-90],[10.7351,-90],[11.2344,-90],[11.7337,-90],[12.233,-90],[12.7323,-90],[13.2316,-90],[13.7309,-90],[14.2302,-90],[14.7295,-90],[15.2288,-90],[15.7282,-90],[16.2275,-90],[16.7268,-90],[17.2261,-90],[17.7254,-90],[18.2247,-90],[18.724,-90],[19.2233,-90],[19.7226,-90],[20.2219,-90],[20.7212,-90],[21.2205,-90],[21.7198,-90],[22.2191,-90],[22.7184,-90],[23.2178,-90],[23.7171,-90],[24.2164,-90],[24.7157,-90],[25.215,-90],[25.7143,-90],[26.2136,-90],[26.7129,-90],[27.2122,-90],[27.7115,-90],[28.2108,-90],[28.7101,-90],[29.2094,-90],[29.7087,-90],[30.208,-90],[30.7074,-90],[31.2067,-90],[31.706,-90],[32.2053,-90],[32.7046,-90],[33.2039,-90],[33.7032,-90],[34.2025,-90],[34.7018,-90],[35.2011,-90],[35.7004,-90],[36.1997,-90],[36.699,-90],[37.1983,-90],[37.6976,-90],[38.1969,-90],[38.6963,-90],[39.1956,-90],[39.6949,-90],[40.1942,-90],[40.6935,-90],[41.1928,-90],[41.6921,-90],[42.1914,-90],[42.6907,-90],[43.19,-90],[43.6893,-90],[44.1886,-90],[44.6879,-90],[45.1872,-90],[45.6865,-90],[46.1859,-90],[46.6852,-90],[47.1845,-90],[47.6838,-90],[48.1831,-90],[48.6824,-90],[49.1817,-90],[49.681,-90],[50.1803,-90],[50.6796,-90],[51.1789,-90],[51.6782,-90],[52.1775,-90],[52.6768,-90],[53.1761,-90],[53.6755,-90],[54.1748,-90],[54.6741,-90],[55.1734,-90],[55.6727,-90],[56.172,-90],[56.6713,-90],[57.1706,-90],[57.6699,-90],[58.1692,-90],[58.6685,-90],[59.1678,-90],[59.6671,-90],[60.1664,-90],[60.6657,-90],[61.165,-90],[61.6644,-90],[62.1637,-90],[62.663,-90],[63.1623,-90],[63.6616,-90],[64.1609,-90],[64.6602,-90],[65.1595,-90],[65.6588,-90],[66.1581,-90],[66.6574,-90],[67.1567,-90],[67.656,-90],[68.1553,-90],[68.6546,-90],[69.154,-90],[69.6533,-90],[70.1526,-90],[70.6519,-90],[71.1512,-90],[71.6505,-90],[72.1498,-90],[72.6491,-90],[73.1484,-90],[73.6477,-90],[74.147,-90],[74.6463,-90],[75.1456,-90],[75.6449,-90],[76.1442,-90],[76.6436,-90],[77.1429,-90],[77.6422,-90],[78.1415,-90],[78.6408,-90],[79.1401,-90],[79.6394,-90],[80.1387,-90],[80.638,-90],[81.1373,-90],[81.6366,-90],[82.1359,-90],[82.6352,-90],[83.1345,-90],[83.6338,-90],[84.1331,-90],[84.6325,-90],[85.1318,-90],[85.6311,-90],[86.1304,-90],[86.6297,-90],[87.129,-90],[87.6283,-90],[88.1276,-90],[88.6269,-90],[89.1262,-90],[89.6255,-90],[90.1248,-90],[90.6241,-90],[91.1234,-90],[91.6227,-90],[92.1221,-90],[92.6214,-90],[93.1207,-90],[93.62,-90],[94.1193,-90],[94.6186,-90],[95.1179,-90],[95.6172,-90],[96.1165,-90],[96.6158,-90],[97.1151,-90],[97.6144,-90],[98.1137,-90],[98.613,-90],[99.1123,-90],[99.6117,-90],[100.111,-90],[100.6103,-90],[101.1096,-90],[101.6089,-90],[102.1082,-90],[102.6075,-90],[103.1068,-90],[103.6061,-90],[104.1054,-90],[104.6047,-90],[105.104,-90],[105.6033,-90],[106.1026,-90],[106.6019,-90],[107.1012,-90],[107.6006,-90],[108.0999,-90],[108.5992,-90],[109.0985,-90],[109.5978,-90],[110.0971,-90],[110.5964,-90],[111.0957,-90],[111.595,-90],[112.0943,-90],[112.5936,-90],[113.0929,-90],[113.5922,-90],[114.0915,-90],[114.5908,-90],[115.0902,-90],[115.5895,-90],[116.0888,-90],[116.5881,-90],[117.0874,-90],[117.5867,-90],[118.086,-90],[118.5853,-90],[119.0846,-90],[119.5839,-90],[120.0832,-90],[120.5825,-90],[121.0818,-90],[121.5811,-90],[122.0804,-90],[122.5798,-90],[123.0791,-90],[123.5784,-90],[124.0777,-90],[124.577,-90],[125.0763,-90],[125.5756,-90],[126.0749,-90],[126.5742,-90],[127.0735,-90],[127.5728,-90],[128.0721,-90],[128.5714,-90],[129.0707,-90],[129.57,-90],[130.0693,-90],[130.5687,-90],[131.068,-90],[131.5673,-90],[132.0666,-90],[132.5659,-90],[133.0652,-90],[133.5645,-90],[134.0638,-90],[134.5631,-90],[135.0624,-90],[135.5617,-90],[136.061,-90],[136.5603,-90],[137.0596,-90],[137.5589,-90],[138.0583,-90],[138.5576,-90],[139.0569,-90],[139.5562,-90],[140.0555,-90],[140.5548,-90],[141.0541,-90],[141.5534,-90],[142.0527,-90],[142.552,-90],[143.0513,-90],[143.5506,-90],[144.0499,-90],[144.5492,-90],[145.0485,-90],[145.5479,-90],[146.0472,-90],[146.5465,-90],[147.0458,-90],[147.5451,-90],[148.0444,-90],[148.5437,-90],[149.043,-90],[149.5423,-90],[150.0416,-90],[150.5409,-90],[151.0402,-90],[151.5395,-90],[152.0388,-90],[152.5381,-90],[153.0374,-90],[153.5368,-90],[154.0361,-90],[154.5354,-90],[155.0347,-90],[155.534,-90],[156.0333,-90],[156.5326,-90],[157.0319,-90],[157.5312,-90],[158.0305,-90],[158.5298,-90],[159.0291,-90],[159.5284,-90],[160.0277,-90],[160.527,-90],[161.0264,-90],[161.5257,-90],[162.025,-90],[162.5243,-90],[163.0236,-90],[163.5229,-90],[164.0222,-90],[164.5215,-90],[165.0208,-90],[165.5201,-90],[166.0194,-90],[166.5187,-90],[167.018,-90],[167.5173,-90],[168.0166,-90],[168.516,-90],[169.0153,-90],[169.5146,-90],[170.0139,-90],[170.5132,-90],[171.0125,-90],[171.5118,-90],[172.0111,-90],[172.5104,-90],[173.0097,-90],[173.509,-90],[174.0083,-90],[174.5076,-90],[175.0069,-90],[175.5062,-90],[176.0055,-90],[176.5049,-90],[177.0042,-90],[177.5035,-90],[178.0028,-90],[178.5021,-90],[179.0014,-90],[179.5007,-90],[180,-90],[180,-89.5014],[180,-89.0028],[180,-88.5042],[180,-88.0055],[180,-87.5069],[180,-87.0083],[180,-86.5097],[180,-86.0111],[180,-85.5125],[180,-85.0138],[180,-84.5152],[180,-84.3534],[180,-84.3528],[172.0979,-83.718],[171.5769,-83.5003],[168.6609,-83.3971],[168.5928,-82.999],[165.3733,-82.6061],[164.6732,-82.3388],[162.7686,-82.487],[160.6397,-82.4229],[163.8387,-82.2311],[162.4793,-81.6891],[161.0115,-81.5488],[160.132,-81.2037],[161.1424,-81.2444],[160.6016,-80.8691],[161.241,-80.803],[160.7517,-80.3801],[158.5879,-80.477],[158.7824,-80.259],[161.3833,-79.947],[159.4961,-79.8195],[160.6875,-79.4501],[160.6951,-79.0375],[162.0654,-79.0686],[161.3616,-78.5784],[162.4819,-78.779],[164.4097,-78.6039],[166.0896,-78.5668],[167.0682,-78.7067],[167.0015,-78.5011],[165.7869,-78.4207],[165.4162,-78.0253],[165.0972,-78.254],[163.8827,-78.221],[164.5007,-77.8539],[163.5571,-77.72],[163.7158,-77.3966],[163.0208,-77.0141],[162.3018,-76.9513],[162.9314,-76.7075],[162.9001,-75.8229],[162.0736,-75.5427],[162.1911,-75.3878],[160.6387,-75.3976],[161.7764,-75.1889],[162.5435,-75.2402],[162.452,-74.9212],[163.1213,-74.4094],[163.5354,-74.3408],[163.7873,-74.6244],[165.1769,-74.5263],[164.5915,-73.9267],[164.8291,-73.4378],[165.2606,-73.8933],[166.2942,-73.7258],[167.2219,-73.4181],[167.9294,-73.3587],[167.0952,-73.2521],[166.7668,-73.0649],[168.3042,-73.164],[169.6312,-73.0437],[169.9325,-72.7359],[168.8674,-72.5759],[168.7067,-72.3591],[170.2554,-72.603],[169.8853,-72.4299],[170.334,-71.8009],[170.5725,-72.0063],[170.9458,-71.8608],[170.2824,-71.2988],[170.2717,-71.6508],[167.8779,-71.0143],[167.7009,-70.7913],[166.4707,-70.7663],[165.3123,-70.5603],[164.2404,-70.4911],[164.0121,-70.7911],[163.4221,-70.6536],[162.7075,-70.2997],[162.0944,-70.3141],[161.9901,-70.9225],[161.3068,-70.8604],[161.4517,-70.686],[160.6365,-70.0488],[159.7612,-69.8852],[160.3345,-69.7961],[159.7536,-69.5019],[157.8731,-69.1721],[157.3735,-69.3547],[157.1398,-69.1613],[156.3501,-69.2019],[155.5934,-68.947],[154.9855,-68.8859],[154.7185,-68.5283],[153.8359,-68.2736],[153.845,-68.7604],[153.2507,-68.8782],[152.4031,-68.6987],[151.6145,-68.6984],[151.5669,-68.9168],[150.9707,-68.7172],[150.8529,-68.3508],[149.7849,-68.4869],[147.0304,-68.4156],[146.6194,-68.1832],[146.8728,-67.9376],[146.3854,-67.9152],[146.0481,-67.5866],[145.6443,-67.737],[145.4443,-67.5148],[143.8807,-67.9339],[144.0916,-67.4508],[144.6624,-67.1166],[144.5125,-67.0157],[143.7515,-67.1394],[143.8762,-66.9404],[143.4707,-66.8456],[142.4771,-67.026],[141.9817,-66.8],[141.2603,-66.857],[140.3763,-66.7846],[139.2517,-66.5672],[138.1843,-66.5383],[137.7206,-66.3681],[136.9446,-66.3282],[136.6365,-66.4565],[136.1595,-66.2454],[135.6473,-66.2781],[135.343,-66.1007],[135.1785,-66.3315],[134.1094,-66.5046],[134.4265,-66.3115],[133.7923,-66.1054],[133.1204,-66.0968],[131.7578,-66.2433],[130.73,-66.1471],[129.7217,-66.4382],[129.5847,-66.7292],[129.0646,-67.1744],[128.0746,-67.0224],[127.4324,-67.0704],[126.7039,-66.846],[126.8543,-66.4493],[126.3926,-66.5527],[125.8978,-66.3062],[125.4104,-66.4177],[124.7168,-66.7592],[124.0151,-66.5888],[123.5161,-66.7541],[122.2444,-66.845],[121.5153,-67.0929],[118.8905,-67.4197],[118.7322,-67.2789],[120.3413,-67.0124],[120.3517,-66.9348],[118.8812,-67.1839],[118.3679,-67.0465],[116.5,-67.1243],[115.3379,-67.2195],[115.2122,-67.3259],[113.6599,-67.4519],[114.0301,-67.1907],[115.1602,-67.054],[115.7808,-66.7883],[115.1135,-66.4781],[114.3224,-66.509],[114.4299,-66.226],[113.2036,-65.7654],[110.9271,-66.0546],[110.489,-66.3088],[110.7249,-66.4054],[110.4452,-66.6583],[109.3858,-66.9327],[108.7232,-66.9326],[108.1358,-66.6248],[107.7098,-66.8476],[107.7791,-66.5517],[106.7678,-66.4557],[103.9082,-65.9788],[102.7137,-65.8613],[102.3379,-65.9513],[101.3364,-65.944],[101.4762,-66.0584],[100.8215,-66.3845],[99.5762,-66.5485],[98.8262,-66.9099],[98.5276,-66.449],[97.672,-66.6772],[97.2352,-66.508],[96.1087,-66.5701],[95.4968,-66.7003],[94.9172,-66.4754],[93.7393,-66.7472],[93.6235,-66.5826],[92.7603,-66.6339],[91.9601,-66.4982],[91.1452,-66.5738],[90.3723,-66.8207],[87.9657,-66.7703],[86.6968,-67.0639],[86.0671,-67.0409],[85.4429,-67.1894],[84.9622,-67.0761],[83.4168,-67.4282],[83.2153,-67.579],[82.0594,-67.6718],[79.1314,-68.1477],[78.4644,-68.5016],[78.6699,-68.6985],[78.1429,-68.759],[77.8416,-69.1301],[77.0005,-69.2117],[76.8281,-69.352],[75.8205,-69.5251],[75.8833,-69.7789],[75.4168,-69.942],[74.0749,-69.7127],[73.473,-69.7809],[72.6275,-70.1946],[72.8696,-70.4334],[71.7268,-70.774],[71.2025,-71.3351],[71.5398,-71.6103],[70.4424,-71.8622],[70.53,-72.0479],[69.9465,-72.0807],[69.6318,-72.4308],[68.4943,-72.4749],[67.9186,-72.7112],[68.0223,-73.1467],[67.342,-73.3023],[66.3259,-73.1314],[66.9998,-72.9035],[67.4491,-71.8959],[68.0833,-71.3654],[68.8099,-71.0797],[69.1921,-70.7109],[69.1463,-70.3089],[68.5363,-70.4723],[67.2292,-70.3045],[67.6055,-70.0148],[68.2708,-69.8347],[68.6063,-70.027],[69.3552,-69.6171],[68.7334,-69.5509],[68.9207,-69.309],[69.7056,-69.3273],[69.3039,-69.0473],[69.8576,-68.8725],[69.2813,-68.8313],[69.6633,-68.5789],[70.1797,-68.4948],[69.8137,-68.2853],[69.5552,-67.7385],[68.3767,-67.8952],[64.721,-67.6531],[63.6509,-67.5034],[62.6174,-67.6601],[60.6189,-67.4006],[59.6786,-67.3941],[59.513,-67.6064],[58.4553,-67.1949],[57.5628,-66.9942],[56.5584,-67.1098],[56.1707,-67.4089],[56.1535,-67.1961],[56.7068,-66.8997],[56.0125,-66.6609],[57.2424,-66.7189],[56.8078,-66.4054],[56.3991,-66.4627],[55.6116,-66.0279],[55.1834,-65.9309],[53.7345,-65.8459],[52.2217,-65.9729],[51.3523,-66.2218],[50.322,-66.3938],[50.2395,-66.7431],[50.8298,-66.7747],[50.4277,-66.9626],[50.9782,-67.1681],[50.2017,-67.1207],[49.6657,-67.2784],[49.7933,-67.0281],[49.3115,-67.0462],[49.2165,-66.8189],[48.3611,-67.0164],[48.4487,-67.1817],[49.4053,-67.2233],[48.6294,-67.4519],[48.7183,-67.6819],[47.0591,-67.685],[46.9196,-67.5065],[47.4411,-67.4094],[46.8924,-67.2646],[46.2808,-67.3342],[46.306,-67.5593],[45.6598,-67.8175],[45.4038,-67.6951],[44.7171,-67.7836],[44.8286,-67.9659],[44.0022,-67.9685],[42.8594,-68.1038],[42.5361,-68.3796],[41.0148,-68.5964],[40.7522,-68.7507],[39.8579,-68.8295],[39.7787,-69.6114],[39.2088,-69.7066],[38.714,-70.1887],[37.7863,-69.6819],[37.0064,-69.8805],[36.3704,-69.6056],[35.244,-69.7356],[35.1999,-69.2941],[34.5873,-69.0668],[33.7713,-69.0535],[34.3713,-68.8063],[34.2142,-68.6779],[33.216,-68.6696],[32.5623,-68.8564],[32.4876,-69.0816],[32.9279,-69.3437],[32.7453,-70.0134],[31.2804,-70.2371],[29.8412,-70.3113],[28.4517,-70.694],[27.6284,-70.7413],[26.4456,-71.0324],[24.968,-70.9455],[24.2653,-70.6786],[24.4089,-70.5339],[23.7525,-70.4026],[23.323,-70.8097],[21.8528,-70.6384],[22.5793,-70.5402],[21.8016,-70.2359],[21.1585,-70.6646],[21.2012,-70.8122],[20.404,-70.9234],[19.2892,-70.9143],[18.9152,-70.634],[19.2966,-70.3681],[18.9417,-70.171],[18.2528,-70.3259],[18.0938,-70.5424],[16.5051,-70.4542],[16.6533,-70.186],[15.9626,-70.1896],[15.8269,-70.3776],[15.0369,-70.2909],[13.8488,-70.3478],[12.9692,-70.0462],[12.4446,-70.0702],[13.0183,-70.2418],[12.322,-70.3703],[11.8535,-70.7815],[9.9793,-70.4535],[9.4036,-70.1043],[9.1678,-70.308],[7.9304,-70.4723],[7.8353,-70.1637],[7.4235,-70.2044],[7.657,-70.4736],[5.5877,-70.6492],[5.0737,-70.6337],[3.5747,-70.8521],[2.5197,-70.9006],[0.2322,-71.3499],[-0.4693,-71.754],[-0.9521,-71.6236],[-1.1376,-71.2553],[-1.4892,-71.4588],[-2.8871,-71.268],[-3.4709,-71.5212],[-4.3873,-71.3229],[-6.1498,-71.3663],[-5.6753,-70.7327],[-6.3179,-70.7079],[-6.6183,-70.924],[-7.8558,-70.8259],[-7.5642,-71.1506],[-7.6514,-71.6579],[-8.4286,-71.7304],[-8.9879,-71.2765],[-9.4517,-71.0992],[-10.4252,-71.0192],[-10.1011,-71.1811],[-10.5956,-71.2973],[-10.84,-71.5849],[-11.6601,-71.2765],[-12.3807,-71.3954],[-12.1752,-71.624],[-10.8472,-71.7809],[-11.3566,-72.3964],[-12.456,-72.5597],[-13.5194,-72.8454],[-14.4183,-72.7238],[-13.8953,-72.9867],[-14.4579,-73.1589],[-15.5414,-73.0768],[-16.4385,-73.4133],[-16.6029,-73.6336],[-15.6863,-73.9485],[-14.3618,-73.8577],[-15.7531,-74.4304],[-16.5973,-74.3074],[-17.4563,-74.3372],[-17.8022,-74.7765],[-18.8735,-75.2494],[-18.2514,-75.4602],[-19.7676,-75.5495],[-20.3995,-75.4721],[-21.2696,-75.7143],[-22.3019,-75.6446],[-24.2137,-75.7564],[-25.9481,-75.933],[-26.9852,-76.1697],[-28.8591,-76.3533],[-30.6921,-76.8498],[-33.7211,-77.311],[-34.7115,-77.6295],[-34.4591,-77.822],[-35.3129,-77.8444],[-36.4412,-78.6113],[-36.2513,-78.8517],[-32.8202,-79.2439],[-30.2975,-79.0373],[-30.5247,-79.2864],[-29.5414,-79.28],[-30.6732,-79.5881],[-24.7298,-79.782],[-22.5325,-79.9171],[-24.2541,-80.0759],[-29.7608,-80.1756],[-31.3195,-80.3089],[-30.5058,-80.4782],[-32.0305,-80.4352],[-33.4762,-80.6154],[-35.3584,-80.6153],[-36.0332,-80.9207],[-37.2303,-81.0893],[-38.7911,-80.8596],[-41.1195,-81.2262],[-43.1903,-81.8997],[-44.0111,-82.3912],[-46.0536,-82.5549],[-46.2792,-81.9098],[-47.5846,-82.0204],[-48.3804,-81.8903],[-51.7306,-82.0626]]],[[[-59.2868,-80.2096],[-59.8979,-80.1158],[-59.8206,-79.7692],[-61.5227,-79.893],[-61.7504,-80.3683],[-66.7009,-80.4124],[-64.2848,-80.7512],[-63.1411,-80.5925],[-62.5221,-80.8649],[-60.6527,-80.9604],[-59.819,-80.7449],[-59.2868,-80.2096]]],[[[-66.1491,-79.6282],[-67.7073,-79.5256],[-66.2227,-80.0864],[-65.4634,-79.9527],[-66.1491,-79.6282]]],[[[-68.2331,-79.2859],[-67.4679,-79.506],[-67.0591,-79.2613],[-68.2331,-79.2859]]],[[[-33.9165,-79.3126],[-35.5034,-79.0901],[-36.7264,-79.2981],[-33.9165,-79.3126]]],[[[-66.7344,-78.4418],[-66.9929,-78.3067],[-70.5928,-78.8859],[-71.3954,-79.1017],[-71.8157,-79.4792],[-70.3418,-79.6969],[-68.9464,-79.0973],[-66.7344,-78.4418]]],[[[-52.5188,-80.2001],[-53.3426,-80.1072],[-54.3776,-80.5774],[-54.1616,-80.8771],[-49.798,-80.7909],[-49.7192,-80.6856],[-43.5316,-80.2],[-43.8565,-79.9975],[-43.0157,-79.8498],[-42.9715,-79.4299],[-43.739,-78.8006],[-45.219,-78.8189],[-45.1558,-78.6619],[-43.9631,-78.6033],[-43.8188,-78.2483],[-45.9341,-77.8171],[-47.2225,-77.7726],[-49.0723,-78.0422],[-50.3674,-78.6905],[-50.5613,-78.9596],[-50.2637,-79.5357],[-52.5188,-80.2001]]],[[[-20.3666,-74.4254],[-20.6929,-74.102],[-20.5331,-73.6396],[-21.336,-74.0037],[-20.8066,-74.4752],[-20.3666,-74.4254]]],[[[-74.8468,-72.8666],[-75.7757,-72.8936],[-75.3728,-73.0463],[-76.1261,-73.1588],[-75.8746,-73.3466],[-74.5931,-73.6145],[-74.2186,-72.9908],[-74.8468,-72.8666]]],[[[-90.9016,-72.8198],[-91.0442,-72.5431],[-91.6865,-72.61],[-91.3334,-72.8976],[-91.5246,-73.1926],[-90.9177,-73.1013],[-90.9016,-72.8198]]],[[[-95.4992,-72.3156],[-95.7372,-72.0563],[-96.7238,-72.2641],[-96.2003,-72.0237],[-96.3605,-71.8351],[-97.0482,-71.8764],[-98.3526,-72.1564],[-97.9824,-71.8596],[-98.8281,-71.7605],[-99.7495,-72.0403],[-100.4374,-71.8793],[-102.087,-71.9739],[-102.2922,-72.1267],[-99.1864,-72.3754],[-99.3966,-72.4982],[-98.5801,-72.5728],[-96.0548,-72.5837],[-95.4992,-72.3156]]],[[[-74.9127,-71.0234],[-73.6189,-70.775],[-73.8839,-70.5706],[-74.9039,-70.5838],[-75.1998,-70.7766],[-76.5426,-70.9656],[-76.1304,-71.1379],[-74.9127,-71.0234]]],[[[-3.4304,-70.5385],[-2.685,-70.4723],[-2.8338,-70.2814],[-3.4304,-70.5385]]],[[[-75.4835,-70.1337],[-74.8732,-70.1835],[-74.4071,-69.9377],[-74.9628,-69.7169],[-75.8317,-70.0164],[-75.4835,-70.1337]]],[[[-72.8455,-69.5856],[-71.9497,-69.6828],[-72.3985,-69.4653],[-72.8455,-69.5856]]],[[[-61.7555,-69.4543],[-62.192,-69.1862],[-62.5792,-69.1891],[-61.9599,-69.7084],[-61.7555,-69.4543]]],[[[-71.4601,-72.6292],[-70.6461,-72.6671],[-69.2182,-72.5429],[-68.4141,-72.2197],[-68.4831,-71.8969],[-68.1612,-71.6064],[-68.2992,-70.8691],[-68.7204,-70.3691],[-69.2848,-69.9231],[-69.3171,-69.6259],[-69.7672,-69.2873],[-70.0917,-69.2774],[-70.1056,-68.8907],[-70.4021,-68.7868],[-72.0127,-68.9555],[-72.1588,-69.2267],[-71.6159,-69.4548],[-71.9276,-69.9542],[-71.3169,-70.1773],[-70.2307,-70.1363],[-70.1175,-70.3298],[-70.9986,-70.4658],[-71.2665,-70.6801],[-70.7013,-70.8318],[-69.7763,-70.8581],[-69.838,-71.152],[-70.4112,-70.9454],[-71.3246,-70.9661],[-71.6901,-71.1589],[-72.3954,-71.0651],[-73.1246,-71.144],[-72.189,-71.3731],[-73.6693,-71.3679],[-73.5252,-71.6062],[-74.1222,-71.383],[-74.3902,-71.6681],[-74.8859,-71.5284],[-75.4037,-71.6708],[-75.356,-71.9236],[-74.0047,-72.1735],[-73.0351,-71.9264],[-72.3389,-71.6135],[-71.8367,-71.7979],[-70.8797,-71.8464],[-70.7698,-71.9897],[-72.0116,-72.1197],[-71.5526,-72.2784],[-70.4577,-72.1402],[-70.7097,-72.3964],[-73.0916,-72.3834],[-72.4083,-72.6745],[-71.4601,-72.6292]]],[[[-69.1093,-67.6262],[-68.5586,-67.7415],[-67.6768,-67.148],[-67.9764,-67.0665],[-67.8605,-66.6257],[-68.3778,-66.8207],[-69.1549,-67.4757],[-69.1093,-67.6262]]],[[[-62.9064,-64.5212],[-63.5749,-64.2652],[-64.2821,-64.7099],[-63.6821,-64.8532],[-62.9064,-64.5212]]],[[[-62.6566,-64.503],[-62.0089,-64.1417],[-62.4782,-64.0146],[-62.6566,-64.503]]],[[[-57.5133,-64.341],[-57.1554,-64.0851],[-57.5424,-63.9392],[-57.8644,-64.0666],[-57.7947,-63.7914],[-58.4604,-64.0857],[-57.5133,-64.341]]],[[[-55.1594,-63.2039],[-55.5757,-63.1291],[-56.3695,-63.2281],[-56.3362,-63.4368],[-55.9014,-63.2966],[-55.1727,-63.3576],[-55.1594,-63.2039]]],[[[-61.1604,-62.6633],[-59.9894,-62.6301],[-60.1295,-62.4601],[-60.4911,-62.5771],[-60.7966,-62.4689],[-61.1604,-62.6633]]],[[[-58.4669,-62.1604],[-57.5898,-62.0255],[-57.7055,-61.9157],[-58.4141,-61.9333],[-58.8252,-62.1694],[-58.4669,-62.1604]]],[[[-46.007,-60.6127],[-45.1907,-60.6329],[-45.9551,-60.5278],[-46.007,-60.6127]]],[[[-162.3398,-82.9238],[-163.7497,-82.8336],[-163.2613,-83.081],[-162.3398,-82.9238]]],[[[-160.5711,-81.5989],[-160.6757,-81.4628],[-162.9839,-81.2703],[-163.7285,-81.4816],[-160.5711,-81.5989]]],[[[-159.8422,-79.3486],[-162.3532,-78.7526],[-163.243,-78.7063],[-164.1481,-78.9921],[-163.9366,-79.4117],[-160.7129,-79.8546],[-159.0698,-79.8188],[-159.8422,-79.3486]]],[[[169.2734,-77.4545],[167.5681,-77.4133],[166.8272,-77.1609],[166.1655,-77.5348],[166.8753,-77.6703],[168.4009,-77.6962],[169.2734,-77.4545]]],[[[-127.1285,-74.4694],[-128.1892,-74.3161],[-127.5517,-74.6436],[-127.1285,-74.4694]]],[[[-119.821,-74.1208],[-119.0038,-73.9836],[-118.9744,-73.8049],[-119.9036,-73.825],[-119.821,-74.1208]]],[[[-120.2612,-73.9278],[-120.6864,-73.7673],[-123.0656,-73.6754],[-123.3493,-73.8484],[-122.3274,-73.9157],[-123.0282,-74.2483],[-122.2435,-74.4133],[-121.099,-74.3481],[-121.004,-74.1484],[-120.2612,-73.9278]]],[[[-127.4732,-73.5496],[-127.2689,-73.7179],[-126.5465,-73.6703],[-126.4755,-73.8422],[-124.7842,-74.226],[-124.0074,-74.2634],[-124.0275,-73.8552],[-125.9071,-73.7551],[-125.27,-73.6988],[-125.5993,-73.4294],[-126.5272,-73.2683],[-127.3032,-73.3181],[-127.4732,-73.5496]]],[[[26.7656,-70.2243],[26.5897,-70.0748],[25.9873,-70.195],[26.0573,-70.391],[26.8399,-70.412],[26.7656,-70.2243]]],[[[1.411,-70.0402],[1.0425,-70.046],[1.1638,-70.4171],[1.411,-70.0402]]],[[[100.5659,-65.403],[100.298,-65.6586],[100.9671,-65.6829],[101.2518,-65.4937],[100.5659,-65.403]]]]}},{"type":"Feature","id":"label-ATA+00?","properties":{"kind":"division-label","code":"ATA+00?","countryCode":"ATA","name":"Antarctica","localName":"Antarctica","labelEnglish":"Antarctica","labelLocal":"Antarctica","labelBoth":"Antarctica","type":null,"iso":"AQ-X01~","qid":null},"geometry":{"type":"Point","coordinates":[0.238256,-81.6905]}},{"type":"Feature","id":"ATA+99?","properties":{"kind":"division","code":"ATA+99?","countryCode":"ATA","name":"ATA+99?","localName":"ATA+99?","labelEnglish":"ATA+99?","labelLocal":"ATA+99?","labelBoth":"ATA+99?","type":null,"iso":"AQ-X02~","qid":null},"geometry":{"type":"MultiPolygon","coordinates":[[[[-89.8924,-72.8846],[-90.1325,-73.0944],[-89.3307,-72.928],[-89.8924,-72.8846]]],[[[-66.1902,-65.8237],[-65.6348,-65.5387],[-65.96,-65.5533],[-66.1902,-65.8237]]],[[[-169.0303,-83.1542],[-171.8205,-82.8246],[-169.8631,-83.1474],[-169.0303,-83.1542]]],[[[-149.7287,-77.1295],[-149.9626,-76.8707],[-150.7825,-76.9708],[-149.7287,-77.1295]]],[[[-146.1648,-76.9313],[-147.0721,-76.8239],[-146.9648,-77.0071],[-146.1648,-76.9313]]],[[[-130.9205,-74.4443],[-131.8063,-74.322],[-132.1813,-74.4238],[-131.2059,-74.6071],[-130.9205,-74.4443]]],[[[-116.1407,-73.9025],[-117.3711,-74.0798],[-116.7851,-74.1742],[-116.1407,-73.9025]]],[[[-2.7177,-70.8201],[-3.571,-70.6928],[-2.6673,-70.9937],[-2.0807,-70.8256],[-2.7177,-70.8201]]],[[[72.2004,-70.607],[71.8084,-70.2659],[71.8269,-70.6249],[72.2004,-70.607]]],[[[4.0488,-70.303],[4.4668,-70.5012],[4.5744,-70.2761],[4.0488,-70.303]]],[[[16.2468,-69.706],[15.5891,-69.9321],[16.1716,-70.0729],[16.2468,-69.706]]]]}},{"type":"Feature","id":"label-ATA+99?","properties":{"kind":"division-label","code":"ATA+99?","countryCode":"ATA","name":"ATA+99?","localName":"ATA+99?","labelEnglish":"ATA+99?","labelLocal":"ATA+99?","labelBoth":"ATA+99?","type":null,"iso":"AQ-X02~","qid":null},"geometry":{"type":"Point","coordinates":[-170.343,-83.0384]}}]}