{"type":"FeatureCollection","features":[{"type":"Feature","id":"ATC+00?","properties":{"kind":"division","code":"ATC+00?","countryCode":"ATC","name":"Ashmore and Cartier Islands","localName":"Ashmore and Cartier Islands","labelEnglish":"Ashmore and Cartier Islands","labelLocal":"Ashmore and Cartier Islands","labelBoth":"Ashmore and Cartier Islands","type":null,"iso":"AU-X04~","qid":null},"geometry":{"type":"Polygon","coordinates":[[[123.597,-12.4283],[123.5756,-12.4368],[123.5977,-12.4386],[123.597,-12.4283]]]}},{"type":"Feature","id":"label-ATC+00?","properties":{"kind":"division-label","code":"ATC+00?","countryCode":"ATC","name":"Ashmore and Cartier Islands","localName":"Ashmore and Cartier Islands","labelEnglish":"Ashmore and Cartier Islands","labelLocal":"Ashmore and Cartier Islands","labelBoth":"Ashmore and Cartier Islands","type":null,"iso":"AU-X04~","qid":null},"geometry":{"type":"Point","coordinates":[123.586,-12.4325]}}]}