{"type":"FeatureCollection","features":[{"type":"Feature","id":"ATF-5919","properties":{"kind":"division","code":"ATF-5919","countryCode":"ATF","name":"Scattered Islands in the Indian Ocean","localName":"Scattered Islands in the Indian Ocean","labelEnglish":"Scattered Islands in the Indian Ocean","labelLocal":"Scattered Islands in the Indian Ocean","labelBoth":"Scattered Islands in the Indian Ocean","type":null,"iso":"TF-X03~","qid":null},"geometry":{"type":"Polygon","coordinates":[[[40.3797,-22.3239],[40.3318,-22.3481],[40.3687,-22.3626],[40.3797,-22.3239]]]}},{"type":"Feature","id":"label-ATF-5919","properties":{"kind":"division-label","code":"ATF-5919","countryCode":"ATF","name":"Scattered Islands in the Indian Ocean","localName":"Scattered Islands in the Indian Ocean","labelEnglish":"Scattered Islands in the Indian Ocean","labelLocal":"Scattered Islands in the Indian Ocean","labelBoth":"Scattered Islands in the Indian Ocean","type":null,"iso":"TF-X03~","qid":null},"geometry":{"type":"Point","coordinates":[42.7449,-17.0638]}},{"type":"Feature","id":"ATF-5916","properties":{"kind":"division","code":"ATF-5916","countryCode":"ATF","name":"Kerguelen Islands","localName":"Kerguelen Islands","labelEnglish":"Kerguelen Islands","labelLocal":"Kerguelen Islands","labelBoth":"Kerguelen Islands","type":null,"iso":"TF-X01~","qid":null},"geometry":{"type":"Polygon","coordinates":[[[70.5488,-49.1832],[70.273,-49.0764],[69.7259,-49.2473],[69.2145,-49.1213],[69.0755,-48.6584],[68.7918,-48.8463],[68.9241,-49.2883],[68.791,-49.7101],[69.0855,-49.5403],[69.8556,-49.6791],[69.8223,-49.3498],[70.4639,-49.3566],[70.5488,-49.1832]]]}},{"type":"Feature","id":"label-ATF-5916","properties":{"kind":"division-label","code":"ATF-5916","countryCode":"ATF","name":"Kerguelen Islands","localName":"Kerguelen Islands","labelEnglish":"Kerguelen Islands","labelLocal":"Kerguelen Islands","labelBoth":"Kerguelen Islands","type":null,"iso":"TF-X01~","qid":null},"geometry":{"type":"Point","coordinates":[69.2725,-49.3179]}},{"type":"Feature","id":"ATF-5917","properties":{"kind":"division","code":"ATF-5917","countryCode":"ATF","name":"Crozet Islands","localName":"Crozet Islands","labelEnglish":"Crozet Islands","labelLocal":"Crozet Islands","labelBoth":"Crozet Islands","type":null,"iso":"TF-X02~","qid":null},"geometry":{"type":"Polygon","coordinates":[[[51.8342,-46.3766],[51.736,-46.3274],[51.7056,-46.4376],[51.8342,-46.3766]]]}},{"type":"Feature","id":"label-ATF-5917","properties":{"kind":"division-label","code":"ATF-5917","countryCode":"ATF","name":"Crozet Islands","localName":"Crozet Islands","labelEnglish":"Crozet Islands","labelLocal":"Crozet Islands","labelBoth":"Crozet Islands","type":null,"iso":"TF-X02~","qid":null},"geometry":{"type":"Point","coordinates":[51.7536,-46.3974]}},{"type":"Feature","id":"ATF-5918","properties":{"kind":"division","code":"ATF-5918","countryCode":"ATF","name":"Amsterdam and Saint-Paul Islands","localName":"Amsterdam and Saint-Paul Islands","labelEnglish":"Amsterdam and Saint-Paul Islands","labelLocal":"Amsterdam and Saint-Paul Islands","labelBoth":"Amsterdam and Saint-Paul Islands","type":null,"iso":"TF-X1~","qid":null},"geometry":{"type":"Polygon","coordinates":[[[77.5038,-37.8235],[77.5366,-37.9011],[77.5852,-37.8742],[77.5038,-37.8235]]]}},{"type":"Feature","id":"label-ATF-5918","properties":{"kind":"division-label","code":"ATF-5918","countryCode":"ATF","name":"Amsterdam and Saint-Paul Islands","localName":"Amsterdam and Saint-Paul Islands","labelEnglish":"Amsterdam and Saint-Paul Islands","labelLocal":"Amsterdam and Saint-Paul Islands","labelBoth":"Amsterdam and Saint-Paul Islands","type":null,"iso":"TF-X1~","qid":null},"geometry":{"type":"Point","coordinates":[77.5353,-37.861]}}]}