{"type":"FeatureCollection","features":[{"type":"Feature","id":"ATG-5096","properties":{"kind":"division","code":"ATG-5096","countryCode":"ATG","name":"Saint Paul","localName":"Saint Paul","labelEnglish":"Saint Paul","labelLocal":"Saint Paul","labelBoth":"Saint Paul","type":"Parish","iso":"AG-06","qid":"Q386093"},"geometry":{"type":"Polygon","coordinates":[[[-61.7262,17.0385],[-61.7334,17.0643],[-61.7742,17.0602],[-61.815,17.048],[-61.8041,17.0073],[-61.7262,17.0385]]]}},{"type":"Feature","id":"label-ATG-5096","properties":{"kind":"division-label","code":"ATG-5096","countryCode":"ATG","name":"Saint Paul","localName":"Saint Paul","labelEnglish":"Saint Paul","labelLocal":"Saint Paul","labelBoth":"Saint Paul","type":"Parish","iso":"AG-06","qid":"Q386093"},"geometry":{"type":"Point","coordinates":[-61.7671,17.0352]}},{"type":"Feature","id":"ATG-5095","properties":{"kind":"division","code":"ATG-5095","countryCode":"ATG","name":"Saint Philip","localName":"Saint Philip","labelEnglish":"Saint Philip","labelLocal":"Saint Philip","labelBoth":"Saint Philip","type":"Parish","iso":"AG-08","qid":"Q1996895"},"geometry":{"type":"Polygon","coordinates":[[[-61.7148,17.0931],[-61.7334,17.0643],[-61.7262,17.0385],[-61.7148,17.0931]]]}},{"type":"Feature","id":"label-ATG-5095","properties":{"kind":"division-label","code":"ATG-5095","countryCode":"ATG","name":"Saint Philip","localName":"Saint Philip","labelEnglish":"Saint Philip","labelLocal":"Saint Philip","labelBoth":"Saint Philip","type":"Parish","iso":"AG-08","qid":"Q1996895"},"geometry":{"type":"Point","coordinates":[-61.7021,17.0601]}},{"type":"Feature","id":"ATG-5094","properties":{"kind":"division","code":"ATG-5094","countryCode":"ATG","name":"Saint Peter","localName":"Saint Peter","labelEnglish":"Saint Peter","labelLocal":"Saint Peter","labelBoth":"Saint Peter","type":"Parish","iso":"AG-07","qid":"Q1952603"},"geometry":{"type":"Polygon","coordinates":[[[-61.7564,17.1142],[-61.7742,17.0714],[-61.7742,17.0602],[-61.7334,17.0643],[-61.7148,17.0931],[-61.7564,17.1142]]]}},{"type":"Feature","id":"label-ATG-5094","properties":{"kind":"division-label","code":"ATG-5094","countryCode":"ATG","name":"Saint Peter","localName":"Saint Peter","labelEnglish":"Saint Peter","labelLocal":"Saint Peter","labelBoth":"Saint Peter","type":"Parish","iso":"AG-07","qid":"Q1952603"},"geometry":{"type":"Point","coordinates":[-61.7404,17.0935]}},{"type":"Feature","id":"ATG-5093","properties":{"kind":"division","code":"ATG-5093","countryCode":"ATG","name":"Saint George","localName":"Saint George","labelEnglish":"Saint George","labelLocal":"Saint George","labelBoth":"Saint George","type":"Parish","iso":"AG-03","qid":"Q1770796"},"geometry":{"type":"Polygon","coordinates":[[[-61.7934,17.1649],[-61.7742,17.0714],[-61.7564,17.1142],[-61.7934,17.1649]]]}},{"type":"Feature","id":"label-ATG-5093","properties":{"kind":"division-label","code":"ATG-5093","countryCode":"ATG","name":"Saint George","localName":"Saint George","labelEnglish":"Saint George","labelLocal":"Saint George","labelBoth":"Saint George","type":"Parish","iso":"AG-03","qid":"Q1770796"},"geometry":{"type":"Point","coordinates":[-61.7804,17.1084]}},{"type":"Feature","id":"ATG-5098","properties":{"kind":"division","code":"ATG-5098","countryCode":"ATG","name":"Saint John","localName":"Saint John","labelEnglish":"Saint John","labelLocal":"Saint John","labelBoth":"Saint John","type":"Parish","iso":"AG-04","qid":"Q548816"},"geometry":{"type":"Polygon","coordinates":[[[-61.8662,17.0869],[-61.815,17.048],[-61.7742,17.0602],[-61.7742,17.0714],[-61.7934,17.1649],[-61.8662,17.0869]]]}},{"type":"Feature","id":"label-ATG-5098","properties":{"kind":"division-label","code":"ATG-5098","countryCode":"ATG","name":"Saint John","localName":"Saint John","labelEnglish":"Saint John","labelLocal":"Saint John","labelBoth":"Saint John","type":"Parish","iso":"AG-04","qid":"Q548816"},"geometry":{"type":"Point","coordinates":[-61.8237,17.1101]}},{"type":"Feature","id":"ATG-5097","properties":{"kind":"division","code":"ATG-5097","countryCode":"ATG","name":"Saint Mary","localName":"Saint Mary","labelEnglish":"Saint Mary","labelLocal":"Saint Mary","labelBoth":"Saint Mary","type":"Parish","iso":"AG-05","qid":"Q1999872"},"geometry":{"type":"Polygon","coordinates":[[[-61.8041,17.0073],[-61.815,17.048],[-61.8662,17.0869],[-61.8041,17.0073]]]}},{"type":"Feature","id":"label-ATG-5097","properties":{"kind":"division-label","code":"ATG-5097","countryCode":"ATG","name":"Saint Mary","localName":"Saint Mary","labelEnglish":"Saint Mary","labelLocal":"Saint Mary","labelBoth":"Saint Mary","type":"Parish","iso":"AG-05","qid":"Q1999872"},"geometry":{"type":"Point","coordinates":[-61.857,17.0368]}},{"type":"Feature","id":"ATG-5091","properties":{"kind":"division","code":"ATG-5091","countryCode":"ATG","name":"Barbuda","localName":"Barbuda","labelEnglish":"Barbuda","labelLocal":"Barbuda","labelBoth":"Barbuda","type":"Dependency","iso":"AG-10","qid":"Q238752"},"geometry":{"type":"Polygon","coordinates":[[[-61.8389,17.5933],[-61.7543,17.6688],[-61.873,17.7106],[-61.8389,17.5933]]]}},{"type":"Feature","id":"label-ATG-5091","properties":{"kind":"division-label","code":"ATG-5091","countryCode":"ATG","name":"Barbuda","localName":"Barbuda","labelEnglish":"Barbuda","labelLocal":"Barbuda","labelBoth":"Barbuda","type":"Dependency","iso":"AG-10","qid":"Q238752"},"geometry":{"type":"Point","coordinates":[-61.792,17.6155]}},{"type":"Feature","id":"ATG-5092","properties":{"kind":"division","code":"ATG-5092","countryCode":"ATG","name":"Redonda","localName":"Redonda","labelEnglish":"Redonda","labelLocal":"Redonda","labelBoth":"Redonda","type":"Dependency","iso":"AG-11","qid":"Q457261"},"geometry":{"type":"Polygon","coordinates":[[[-62.3456,16.9391],[-62.3483,16.9337],[-62.3445,16.9325],[-62.3456,16.9391]]]}},{"type":"Feature","id":"label-ATG-5092","properties":{"kind":"division-label","code":"ATG-5092","countryCode":"ATG","name":"Redonda","localName":"Redonda","labelEnglish":"Redonda","labelLocal":"Redonda","labelBoth":"Redonda","type":"Dependency","iso":"AG-11","qid":"Q457261"},"geometry":{"type":"Point","coordinates":[-62.3467,16.9335]}}]}