{"type":"FeatureCollection","features":[{"type":"Feature","id":"AUS-2651","properties":{"kind":"division","code":"AUS-2651","countryCode":"AUS","name":"Western Australia","localName":"Western Australia","labelEnglish":"Western Australia","labelLocal":"Western Australia","labelBoth":"Western Australia","type":"State","iso":"AU-WA","qid":"Q3206"},"geometry":{"type":"MultiPolygon","coordinates":[[[[129.0001,-31.6892],[129.0001,-29.9135],[129.0001,-28.4905],[129.0001,-25.9999],[129.0001,-24.9565],[129.0001,-23.2177],[129.0001,-21.4788],[129.0001,-20.0877],[129.0001,-18.6966],[129.0001,-16.9576],[129.0001,-14.8682],[128.5324,-14.7529],[128.1958,-15.0568],[128.2966,-15.3162],[128.0671,-15.1252],[128.1753,-14.6984],[127.8743,-14.4699],[127.666,-14.1784],[127.3442,-13.9045],[127.1297,-13.9677],[126.9529,-13.7236],[126.7474,-13.7918],[126.6035,-14.2301],[126.4321,-13.9699],[126.2266,-14.213],[126.1345,-14.0949],[126.0413,-14.5087],[125.9094,-14.6394],[125.8052,-14.4379],[125.3565,-14.5043],[125.1375,-14.7575],[125.4308,-15.0197],[125.3288,-15.1528],[125.0002,-14.9704],[124.863,-15.1144],[124.9289,-15.3381],[124.6637,-15.2504],[124.6296,-15.505],[124.3899,-15.5226],[124.4543,-16.0527],[124.4015,-16.3293],[124.2227,-16.3956],[123.9109,-16.2175],[123.7327,-16.259],[123.5099,-16.6539],[123.6931,-16.7299],[123.8609,-17.2104],[123.595,-16.9851],[123.554,-17.519],[123.1509,-16.8077],[122.9598,-16.5803],[123.0066,-16.3744],[122.7588,-16.6044],[122.821,-16.7797],[122.5706,-16.7885],[122.172,-17.2612],[122.1698,-17.9783],[122.324,-18.1506],[121.8237,-18.4518],[121.5194,-19.0696],[121.1935,-19.4724],[120.9544,-19.6337],[120.2383,-19.9068],[119.5667,-20.0688],[119.2124,-19.9612],[118.9746,-20.0504],[118.8318,-20.262],[118.1356,-20.3621],[117.7363,-20.6585],[117.3538,-20.7277],[117.1541,-20.5964],[116.8796,-20.7131],[116.8203,-20.5499],[116.4347,-20.8224],[116.2186,-20.8429],[115.4546,-21.5138],[114.6467,-21.8434],[114.367,-22.4783],[114.1797,-22.5217],[114.0775,-22.1755],[114.1592,-21.7919],[114.0115,-21.86],[113.6467,-22.5777],[113.8115,-23.0514],[113.7498,-23.5117],[113.5995,-23.634],[113.4146,-24.0494],[113.4395,-24.5328],[113.6043,-24.7283],[113.7131,-25.1249],[114.1553,-25.7897],[114.2586,-25.8419],[114.1038,-26.4479],[113.97,-26.3317],[113.9096,-25.9764],[113.7954,-26.2067],[113.7606,-25.9048],[113.5329,-25.6183],[113.4208,-25.7282],[113.6841,-26.2216],[113.8848,-26.3427],[113.8124,-26.5994],[113.5655,-26.5651],[113.3966,-26.1766],[113.2978,-26.3973],[113.5906,-26.6757],[114.0125,-27.3154],[114.1439,-27.6878],[114.166,-28.1067],[114.5311,-28.5224],[114.5775,-28.7851],[114.832,-29.0921],[114.9788,-29.4799],[114.9749,-30.214],[115.1809,-30.8272],[115.6803,-31.6486],[115.7437,-31.9278],[115.7487,-32.6373],[115.6009,-32.6617],[115.6668,-33.2877],[115.2827,-33.6506],[114.9885,-33.5211],[114.971,-34.0827],[115.1188,-34.3634],[115.3347,-34.3142],[115.6123,-34.4459],[115.9785,-34.8356],[116.6379,-35.0502],[117.6843,-35.0463],[118.3851,-34.9084],[118.4798,-34.7171],[118.8399,-34.4526],[119.2606,-34.5221],[119.572,-34.142],[120.0022,-33.926],[121.5329,-33.8195],[122.0156,-33.8254],[122.0736,-34.007],[122.3123,-33.9249],[123.085,-33.8784],[123.147,-34.0021],[123.5266,-33.9387],[123.9525,-33.5673],[124.1165,-33.1215],[124.3569,-32.9528],[124.7088,-32.9039],[126.1857,-32.2325],[126.6777,-32.3166],[127.2887,-32.2734],[128.0173,-32.0842],[129.0001,-31.6892]]],[[[113.2166,-26.068],[112.9194,-25.5236],[112.9645,-25.794],[113.2166,-26.068]]]]}},{"type":"Feature","id":"label-AUS-2651","properties":{"kind":"division-label","code":"AUS-2651","countryCode":"AUS","name":"Western Australia","localName":"Western Australia","labelEnglish":"Western Australia","labelLocal":"Western Australia","labelBoth":"Western Australia","type":"State","iso":"AU-WA","qid":"Q3206"},"geometry":{"type":"Point","coordinates":[121.646,-25.8483]}},{"type":"Feature","id":"AUS-2650","properties":{"kind":"division","code":"AUS-2650","countryCode":"AUS","name":"Northern Territory","localName":"Northern Territory","labelEnglish":"Northern Territory","labelLocal":"Northern Territory","labelBoth":"Northern Territory","type":"Territory","iso":"AU-NT","qid":"Q3235"},"geometry":{"type":"MultiPolygon","coordinates":[[[[129.0001,-14.8682],[129.0001,-16.9576],[129.0001,-18.6966],[129.0001,-20.0877],[129.0001,-21.4788],[129.0001,-23.2177],[129.0001,-24.9565],[129.0001,-25.9999],[130.6877,-25.9999],[131.8127,-25.9999],[133.5002,-25.9999],[136.0314,-25.9999],[138.0002,-25.9999],[138.0002,-24.5241],[138.0002,-22.7529],[138.0002,-20.982],[138.0002,-19.211],[138.0002,-18.0303],[138.0002,-16.5416],[137.7461,-16.2521],[137.3612,-16.1222],[136.9919,-15.8642],[136.7046,-15.9152],[136.5947,-15.7109],[136.2401,-15.4241],[135.4696,-14.948],[135.3783,-14.7123],[135.7591,-14.2654],[135.9094,-14.1952],[136.0535,-13.6882],[135.9014,-13.7389],[135.8547,-13.456],[135.9775,-13.232],[136.1586,-13.2629],[136.3716,-13.0654],[136.478,-13.2276],[136.6369,-12.9549],[136.4898,-12.8508],[136.9278,-12.349],[136.6906,-12.2828],[136.4507,-11.9423],[136.18,-12.1878],[136.3639,-12.2564],[136.2527,-12.4411],[136.0232,-12.4557],[136.0602,-12.2322],[135.8889,-12.1463],[135.7319,-12.3115],[135.6501,-12.1646],[135.8972,-11.9626],[135.6006,-11.9567],[135.0702,-12.2599],[134.7686,-11.9477],[134.429,-12.0576],[133.8025,-11.7149],[133.5899,-11.7981],[133.1851,-11.7171],[132.8729,-11.3279],[132.6742,-11.5084],[132.343,-11.122],[132.1883,-11.1327],[132.2039,-11.4103],[131.9816,-11.1301],[131.7676,-11.3108],[132.0847,-11.518],[132.3699,-11.435],[132.6956,-11.6535],[132.593,-11.7844],[132.679,-12.1368],[132.0457,-12.3074],[131.9046,-12.2198],[131.4929,-12.2978],[131.0002,-12.1713],[131.0518,-12.3538],[130.6204,-12.4369],[130.5591,-12.6248],[130.3543,-12.6721],[130.3186,-12.906],[130.1299,-12.9405],[130.2525,-13.2848],[130.134,-13.461],[129.8913,-13.4377],[129.7175,-14.0156],[129.5471,-14.0854],[129.3581,-14.4088],[129.8005,-14.86],[129.6455,-14.8406],[129.662,-15.1384],[129.4766,-14.9338],[129.2214,-14.8435],[129.263,-15.1076],[129.0001,-14.8682]]],[[[136.9515,-14.1816],[136.7046,-14.0729],[136.9243,-13.8054],[136.7185,-13.829],[136.7183,-13.6477],[136.4246,-13.8103],[136.4378,-14.1984],[136.9031,-14.2989],[136.9515,-14.1816]]],[[[130.5368,-11.705],[130.448,-11.7013],[130.345,-11.3171],[130.0535,-11.8228],[130.6282,-11.8046],[130.5368,-11.705]]],[[[131.5374,-11.4133],[131.23,-11.2081],[131.0098,-11.3549],[130.7236,-11.3847],[130.366,-11.2324],[130.4966,-11.6495],[130.98,-11.9264],[131.474,-11.6002],[131.5374,-11.4133]]]]}},{"type":"Feature","id":"label-AUS-2650","properties":{"kind":"division-label","code":"AUS-2650","countryCode":"AUS","name":"Northern Territory","localName":"Northern Territory","labelEnglish":"Northern Territory","labelLocal":"Northern Territory","labelBoth":"Northern Territory","type":"Territory","iso":"AU-NT","qid":"Q3235"},"geometry":{"type":"Point","coordinates":[133.78,-20.1026]}},{"type":"Feature","id":"AUS-2655","properties":{"kind":"division","code":"AUS-2655","countryCode":"AUS","name":"South Australia","localName":"South Australia","labelEnglish":"South Australia","labelLocal":"South Australia","labelBoth":"South Australia","type":"State","iso":"AU-SA","qid":"Q35715"},"geometry":{"type":"MultiPolygon","coordinates":[[[[129.0001,-31.6892],[130.1569,-31.5739],[130.8338,-31.6017],[131.1775,-31.4776],[131.5359,-31.6056],[132.2337,-32.033],[132.798,-31.9563],[133.1478,-32.1967],[133.6492,-32.1017],[134.2976,-32.6785],[134.0741,-32.714],[134.2788,-33.1627],[134.6624,-33.2255],[134.8408,-33.6313],[135.1898,-33.893],[135.4058,-34.6445],[135.604,-34.8801],[136.0125,-34.9797],[135.883,-34.7685],[135.9368,-34.5346],[136.6074,-33.9029],[137.2249,-33.6533],[137.4522,-33.1401],[137.7698,-32.9908],[137.8218,-32.5683],[138.0252,-33.1485],[137.8104,-33.26],[137.9375,-33.5278],[137.6021,-33.8766],[137.4539,-34.164],[137.5127,-34.6178],[137.4461,-34.9174],[137.0306,-34.8998],[136.8355,-35.2477],[137.4035,-35.1242],[137.6714,-35.1808],[138.0781,-34.1284],[138.5363,-34.7409],[138.4274,-35.3526],[138.1227,-35.5554],[138.2017,-35.6716],[138.9934,-35.5475],[138.9612,-35.4138],[139.2676,-35.3313],[139.3755,-35.464],[139.2439,-35.6945],[139.001,-35.5854],[139.5674,-36.0753],[139.8537,-36.6218],[139.672,-36.9534],[139.7415,-37.1808],[140.2406,-37.6659],[140.3599,-37.8821],[140.7136,-38.0706],[140.9682,-38.0594],[140.9676,-35.5655],[140.9671,-33.9865],[141.0001,-34.0185],[141.0001,-31.8269],[141.0001,-30.5705],[141.0001,-28.9999],[141.0001,-27.1249],[141.0001,-25.9999],[139.8748,-25.9999],[138.0002,-25.9999],[136.0314,-25.9999],[133.5002,-25.9999],[131.8127,-25.9999],[130.6877,-25.9999],[129.0001,-25.9999],[129.0001,-28.4905],[129.0001,-29.9135],[129.0001,-31.6892]]],[[[138.1296,-35.8163],[137.5808,-35.7268],[137.3522,-35.5856],[136.5816,-35.7685],[136.7156,-36.0628],[137.2117,-35.9802],[137.4592,-36.0827],[137.7567,-35.8715],[138.1296,-35.8163]]]]}},{"type":"Feature","id":"label-AUS-2655","properties":{"kind":"division-label","code":"AUS-2655","countryCode":"AUS","name":"South Australia","localName":"South Australia","labelEnglish":"South Australia","labelLocal":"South Australia","labelBoth":"South Australia","type":"State","iso":"AU-SA","qid":"Q35715"},"geometry":{"type":"Point","coordinates":[135.783,-29.6504]}},{"type":"Feature","id":"AUS-2657","properties":{"kind":"division","code":"AUS-2657","countryCode":"AUS","name":"Queensland","localName":"Queensland","labelEnglish":"Queensland","labelLocal":"Queensland","labelBoth":"Queensland","type":"State","iso":"AU-QLD","qid":"Q36074"},"geometry":{"type":"MultiPolygon","coordinates":[[[[138.0002,-16.5416],[138.0002,-18.0303],[138.0002,-19.211],[138.0002,-20.982],[138.0002,-22.7529],[138.0002,-24.5241],[138.0002,-25.9999],[139.8748,-25.9999],[141.0001,-25.9999],[141.0001,-27.1249],[141.0001,-28.9999],[141.9717,-28.9999],[143.9147,-28.9999],[145.8578,-28.9999],[147.3151,-28.9999],[148.9714,-28.9997],[149.4844,-28.5839],[150.0198,-28.6001],[150.2981,-28.5349],[150.4496,-28.6465],[150.7935,-28.635],[151.2874,-28.9208],[151.3509,-29.1655],[151.5543,-28.9552],[152.0256,-28.8757],[151.9676,-28.5364],[152.4922,-28.2612],[153.1169,-28.3502],[153.5065,-28.1493],[153.4456,-27.8105],[153.0383,-27.1935],[153.2062,-27.0461],[153.0775,-26.2809],[153.2056,-25.935],[152.9429,-25.7532],[152.9138,-25.2877],[152.6771,-25.2419],[152.4048,-24.7487],[152.1504,-24.6191],[151.7804,-24.0226],[151.4483,-24.009],[150.8142,-23.4113],[150.7644,-23.1589],[150.8264,-22.6979],[150.5676,-22.3232],[150.6091,-22.6105],[150.2156,-22.3948],[150.0536,-22.1415],[149.9235,-22.2983],[150.0467,-22.6453],[149.8128,-22.3781],[149.7313,-22.4693],[149.4354,-21.7897],[149.4783,-21.7184],[149.2312,-21.0898],[148.8539,-20.8322],[148.6553,-20.5554],[148.8083,-20.4334],[148.5601,-20.0527],[148.4021,-20.1739],[148.2786,-19.9658],[147.9495,-19.9078],[147.7508,-19.6915],[147.6843,-19.8281],[147.4448,-19.3416],[147.134,-19.4108],[146.4465,-19.0597],[146.2766,-18.8743],[146.3394,-18.527],[146.0238,-18.2631],[146.1477,-17.6326],[145.8823,-17.0397],[145.4004,-16.4433],[145.4624,-16.0605],[145.2738,-15.5357],[145.2473,-15.095],[145.3457,-14.9426],[144.6776,-14.5558],[144.4789,-14.1599],[143.9412,-14.5112],[143.7827,-14.4023],[143.6873,-14.0143],[143.5301,-13.7502],[143.5979,-13.5242],[143.4955,-12.9216],[143.3643,-12.8617],[143.4339,-12.6131],[143.0772,-12.3288],[143.2039,-11.9825],[142.8729,-11.8507],[142.8696,-11.3913],[142.615,-10.7454],[142.4486,-10.7145],[142.1746,-10.9301],[142.1318,-11.3381],[141.9196,-12.1061],[141.801,-12.0551],[141.5947,-12.5261],[141.8233,-12.6541],[141.5855,-12.9775],[141.6934,-13.2413],[141.527,-13.5714],[141.485,-13.9485],[141.584,-14.0761],[141.5217,-14.4838],[141.6657,-15.0114],[141.3788,-15.9379],[141.4312,-16.0618],[141.1995,-16.7031],[141.0835,-16.8002],[140.8333,-17.4508],[140.5075,-17.6363],[139.9995,-17.7061],[139.2742,-17.3483],[139.0373,-16.9156],[138.1843,-16.6972],[138.0002,-16.5416]]],[[[153.37,-24.989],[153.0383,-25.1835],[152.9483,-25.5522],[153.0553,-25.7971],[153.37,-24.989]]],[[[151.2699,-23.6663],[150.9796,-23.4874],[151.2139,-23.7781],[151.2699,-23.6663]]],[[[139.7341,-16.4433],[139.2879,-16.4706],[139.178,-16.6624],[139.4447,-16.6646],[139.7341,-16.4433]]]]}},{"type":"Feature","id":"label-AUS-2657","properties":{"kind":"division-label","code":"AUS-2657","countryCode":"AUS","name":"Queensland","localName":"Queensland","labelEnglish":"Queensland","labelLocal":"Queensland","labelBoth":"Queensland","type":"State","iso":"AU-QLD","qid":"Q36074"},"geometry":{"type":"Point","coordinates":[144.778,-23.1364]}},{"type":"Feature","id":"AUS-2654","properties":{"kind":"division","code":"AUS-2654","countryCode":"AUS","name":"New South Wales","localName":"New South Wales","labelEnglish":"New South Wales","labelLocal":"New South Wales","labelBoth":"New South Wales","type":"State","iso":"AU-NSW","qid":"Q3224"},"geometry":{"type":"Polygon","coordinates":[[[153.5065,-28.1493],[153.1169,-28.3502],[152.4922,-28.2612],[151.9676,-28.5364],[152.0256,-28.8757],[151.5543,-28.9552],[151.3509,-29.1655],[151.2874,-28.9208],[150.7935,-28.635],[150.4496,-28.6465],[150.2981,-28.5349],[150.0198,-28.6001],[149.4844,-28.5839],[148.9714,-28.9997],[147.3151,-28.9999],[145.8578,-28.9999],[143.9147,-28.9999],[141.9717,-28.9999],[141.0001,-28.9999],[141.0001,-30.5705],[141.0001,-31.8269],[141.0001,-34.0185],[141.5679,-34.2139],[141.7485,-34.1032],[142.2351,-34.1919],[142.5566,-34.7742],[142.7261,-34.6032],[143.3605,-34.8062],[143.407,-35.1788],[144.3243,-35.7542],[144.7407,-36.135],[144.9859,-36.081],[145.0084,-35.8676],[145.5726,-35.8436],[145.7446,-35.9649],[146.8469,-36.0974],[147.3403,-36.0764],[147.7138,-35.9394],[147.9969,-36.0592],[148.2168,-36.8017],[149.9721,-37.5103],[150.0536,-37.2761],[149.9038,-36.9284],[150.1423,-36.32],[150.1526,-35.8937],[150.613,-35.1873],[150.7038,-35.1204],[150.8516,-35.0149],[150.9249,-34.3304],[151.2814,-33.9523],[151.3408,-33.6175],[151.834,-32.865],[152.1094,-32.7941],[152.5399,-32.4421],[152.5101,-32.1619],[152.9345,-31.4828],[153.0863,-30.8947],[152.9878,-30.7346],[153.3216,-29.6975],[153.3403,-29.3227],[153.606,-28.8674],[153.5911,-28.2685],[153.5065,-28.1493]],[[149.3499,-35.3595],[149.1867,-35.3807],[149.1065,-35.8274],[148.7927,-35.7073],[148.826,-35.3133],[149.1029,-35.1459],[149.3499,-35.3595]]]}},{"type":"Feature","id":"label-AUS-2654","properties":{"kind":"division-label","code":"AUS-2654","countryCode":"AUS","name":"New South Wales","localName":"New South Wales","labelEnglish":"New South Wales","labelLocal":"New South Wales","labelBoth":"New South Wales","type":"State","iso":"AU-NSW","qid":"Q3224"},"geometry":{"type":"Point","coordinates":[146.781,-32.4751]}},{"type":"Feature","id":"AUS-1932","properties":{"kind":"division","code":"AUS-1932","countryCode":"AUS","name":"Jervis Bay Territory","localName":"Jervis Bay Territory","labelEnglish":"Jervis Bay Territory","labelLocal":"Jervis Bay Territory","labelBoth":"Jervis Bay Territory","type":"Territory","iso":"AU-X02~","qid":"Q15577"},"geometry":{"type":"Polygon","coordinates":[[[150.7038,-35.1204],[150.613,-35.1873],[150.7595,-35.1789],[150.7038,-35.1204]]]}},{"type":"Feature","id":"label-AUS-1932","properties":{"kind":"division-label","code":"AUS-1932","countryCode":"AUS","name":"Jervis Bay Territory","localName":"Jervis Bay Territory","labelEnglish":"Jervis Bay Territory","labelLocal":"Jervis Bay Territory","labelBoth":"Jervis Bay Territory","type":"Territory","iso":"AU-X02~","qid":"Q15577"},"geometry":{"type":"Point","coordinates":[150.692,-35.1532]}},{"type":"Feature","id":"AUS-2656","properties":{"kind":"division","code":"AUS-2656","countryCode":"AUS","name":"Victoria","localName":"Victoria","labelEnglish":"Victoria","labelLocal":"Victoria","labelBoth":"Victoria","type":"State","iso":"AU-VIC","qid":"Q36687"},"geometry":{"type":"Polygon","coordinates":[[[149.9721,-37.5103],[148.2168,-36.8017],[147.9969,-36.0592],[147.7138,-35.9394],[147.3403,-36.0764],[146.8469,-36.0974],[145.7446,-35.9649],[145.5726,-35.8436],[145.0084,-35.8676],[144.9859,-36.081],[144.7407,-36.135],[144.3243,-35.7542],[143.407,-35.1788],[143.3605,-34.8062],[142.7261,-34.6032],[142.5566,-34.7742],[142.2351,-34.1919],[141.7485,-34.1032],[141.5679,-34.2139],[141.0001,-34.0185],[140.9671,-33.9865],[140.9676,-35.5655],[140.9682,-38.0594],[141.654,-38.3998],[141.762,-38.2618],[142.3977,-38.3671],[143.537,-38.8583],[144.4019,-38.3012],[144.6528,-38.2858],[144.5281,-38.1049],[144.9827,-37.8993],[145.1193,-38.1594],[144.804,-38.3791],[144.9446,-38.5103],[145.2966,-38.2317],[145.5569,-38.3852],[145.3731,-38.5305],[145.8093,-38.6502],[145.9212,-38.9067],[146.0918,-38.8198],[146.4255,-39.1364],[146.4478,-38.7903],[146.1824,-38.756],[146.8786,-38.6443],[147.5894,-38.0807],[148.3064,-37.8234],[149.479,-37.7859],[149.9721,-37.5103]]]}},{"type":"Feature","id":"label-AUS-2656","properties":{"kind":"division-label","code":"AUS-2656","countryCode":"AUS","name":"Victoria","localName":"Victoria","labelEnglish":"Victoria","labelLocal":"Victoria","labelBoth":"Victoria","type":"State","iso":"AU-VIC","qid":"Q36687"},"geometry":{"type":"Point","coordinates":[144.75,-37.0082]}},{"type":"Feature","id":"AUS-2660","properties":{"kind":"division","code":"AUS-2660","countryCode":"AUS","name":"Tasmania","localName":"Tasmania","labelEnglish":"Tasmania","labelLocal":"Tasmania","labelBoth":"Tasmania","type":"State","iso":"AU-TAS","qid":"Q34366"},"geometry":{"type":"MultiPolygon","coordinates":[[[[147.9985,-43.2304],[147.8887,-42.5451],[148.1624,-42.0592],[148.3201,-42.1194],[148.261,-41.8004],[148.3314,-41.0022],[147.9842,-40.7365],[147.5974,-40.8469],[147.4448,-41.0084],[147.0176,-40.9767],[146.4237,-41.1662],[145.7116,-40.9304],[144.6892,-40.7045],[144.6058,-40.9965],[144.926,-41.7091],[145.2066,-41.9666],[145.4245,-42.3707],[145.1887,-42.1957],[145.2655,-42.6043],[146.0242,-43.5525],[146.5584,-43.5252],[146.8557,-43.6396],[147.2576,-43.2543],[147.3602,-42.9252],[147.8403,-42.902],[147.6206,-43.0231],[147.7925,-43.2441],[147.9985,-43.2304]]],[[[148.4299,-40.3733],[148.0025,-40.4265],[148.3406,-40.5037],[148.4299,-40.3733]]],[[[148.0149,-40.1506],[148.3074,-40.2377],[148.299,-39.9618],[147.9533,-39.7117],[148.0149,-40.1506]]],[[[144.1055,-39.893],[144.0842,-39.6262],[143.862,-39.7006],[143.9225,-40.1274],[144.1055,-39.893]]]]}},{"type":"Feature","id":"label-AUS-2660","properties":{"kind":"division-label","code":"AUS-2660","countryCode":"AUS","name":"Tasmania","localName":"Tasmania","labelEnglish":"Tasmania","labelLocal":"Tasmania","labelBoth":"Tasmania","type":"State","iso":"AU-TAS","qid":"Q34366"},"geometry":{"type":"Point","coordinates":[146.603,-42.1383]}},{"type":"Feature","id":"AUS+00?","properties":{"kind":"division","code":"AUS+00?","countryCode":"AUS","name":"Macquarie Island","localName":"Macquarie Island","labelEnglish":"Macquarie Island","labelLocal":"Macquarie Island","labelBoth":"Macquarie Island","type":null,"iso":"AU-X03~","qid":"Q46650"},"geometry":{"type":"Polygon","coordinates":[[[158.8934,-54.5108],[158.8805,-54.7457],[158.9624,-54.4693],[158.8934,-54.5108]]]}},{"type":"Feature","id":"label-AUS+00?","properties":{"kind":"division-label","code":"AUS+00?","countryCode":"AUS","name":"Macquarie Island","localName":"Macquarie Island","labelEnglish":"Macquarie Island","labelLocal":"Macquarie Island","labelBoth":"Macquarie Island","type":null,"iso":"AU-X03~","qid":"Q46650"},"geometry":{"type":"Point","coordinates":[158.898,-54.5929]}},{"type":"Feature","id":"AUS-2659","properties":{"kind":"division","code":"AUS-2659","countryCode":"AUS","name":"Lord Howe Island","localName":"Lord Howe Island","labelEnglish":"Lord Howe Island","labelLocal":"Lord Howe Island","labelBoth":"Lord Howe Island","type":"Territory","iso":"AU-NSW","qid":null},"geometry":{"type":"Polygon","coordinates":[[[159.0444,-31.5192],[159.0752,-31.5398],[159.0896,-31.589],[159.1065,-31.5676],[159.0689,-31.5209],[159.0444,-31.5192]]]}},{"type":"Feature","id":"label-AUS-2659","properties":{"kind":"division-label","code":"AUS-2659","countryCode":"AUS","name":"Lord Howe Island","localName":"Lord Howe Island","labelEnglish":"Lord Howe Island","labelLocal":"Lord Howe Island","labelBoth":"Lord Howe Island","type":"Territory","iso":"AU-NSW","qid":null},"geometry":{"type":"Point","coordinates":[159.076,-31.586]}},{"type":"Feature","id":"AUS-2653","properties":{"kind":"division","code":"AUS-2653","countryCode":"AUS","name":"Australian Capital Territory","localName":"Australian Capital Territory","labelEnglish":"Australian Capital Territory","labelLocal":"Australian Capital Territory","labelBoth":"Australian Capital Territory","type":"Territory","iso":"AU-ACT","qid":"Q3258"},"geometry":{"type":"Polygon","coordinates":[[[149.3499,-35.3595],[149.1029,-35.1459],[148.826,-35.3133],[148.7927,-35.7073],[149.1065,-35.8274],[149.1867,-35.3807],[149.3499,-35.3595]]]}},{"type":"Feature","id":"label-AUS-2653","properties":{"kind":"division-label","code":"AUS-2653","countryCode":"AUS","name":"Australian Capital Territory","localName":"Australian Capital Territory","labelEnglish":"Australian Capital Territory","labelLocal":"Australian Capital Territory","labelBoth":"Australian Capital Territory","type":"Territory","iso":"AU-ACT","qid":"Q3258"},"geometry":{"type":"Point","coordinates":[148.983,-35.4618]}}]}