{"type":"FeatureCollection","features":[{"type":"Feature","id":"AUT-2330","properties":{"kind":"division","code":"AUT-2330","countryCode":"AUT","name":"Lower Austria","localName":"Lower Austria","labelEnglish":"Lower Austria","labelLocal":"Lower Austria","labelBoth":"Lower Austria","type":"State","iso":"AT-3","qid":"Q42497"},"geometry":{"type":"Polygon","coordinates":[[[15.5442,48.9026],[14.9821,49.0079],[14.6911,48.5865],[14.9064,48.5271],[14.968,48.2252],[14.4849,48.2184],[14.4454,48.043],[14.6993,47.7689],[15.3391,47.8254],[16.1479,47.443],[16.3245,47.5013],[16.4393,47.9281],[17.0625,48.1127],[16.8445,48.3656],[16.9491,48.5448],[16.945,48.6042],[16.4357,48.7945],[16.0323,48.7581],[15.5442,48.9026]],[[16.4826,48.2885],[16.5714,48.1531],[16.2326,48.1492],[16.4826,48.2885]]]}},{"type":"Feature","id":"label-AUT-2330","properties":{"kind":"division-label","code":"AUT-2330","countryCode":"AUT","name":"Lower Austria","localName":"Lower Austria","labelEnglish":"Lower Austria","labelLocal":"Lower Austria","labelBoth":"Lower Austria","type":"State","iso":"AT-3","qid":"Q42497"},"geometry":{"type":"Point","coordinates":[15.7448,48.2477]}},{"type":"Feature","id":"AUT-2326","properties":{"kind":"division","code":"AUT-2326","countryCode":"AUT","name":"Upper Austria","localName":"Upper Austria","labelEnglish":"Upper Austria","labelLocal":"Upper Austria","labelBoth":"Upper Austria","type":"State","iso":"AT-4","qid":"Q41967"},"geometry":{"type":"Polygon","coordinates":[[[14.6911,48.5865],[14.0748,48.5917],[13.8157,48.7664],[13.7165,48.5217],[12.745,48.1206],[12.8482,47.9824],[13.3029,48.0099],[13.5818,47.4864],[13.8233,47.7205],[14.3473,47.6257],[14.6993,47.7689],[14.4454,48.043],[14.4849,48.2184],[14.968,48.2252],[14.9064,48.5271],[14.6911,48.5865]]]}},{"type":"Feature","id":"label-AUT-2326","properties":{"kind":"division-label","code":"AUT-2326","countryCode":"AUT","name":"Upper Austria","localName":"Upper Austria","labelEnglish":"Upper Austria","labelLocal":"Upper Austria","labelBoth":"Upper Austria","type":"State","iso":"AT-4","qid":"Q41967"},"geometry":{"type":"Point","coordinates":[13.856,48.2377]}},{"type":"Feature","id":"AUT-2322","properties":{"kind":"division","code":"AUT-2322","countryCode":"AUT","name":"Burgenland","localName":"Burgenland","labelEnglish":"Burgenland","labelLocal":"Burgenland","labelBoth":"Burgenland","type":"State","iso":"AT-1","qid":"Q43210"},"geometry":{"type":"Polygon","coordinates":[[[17.1483,48.0054],[17.0625,48.1127],[16.4393,47.9281],[16.3245,47.5013],[16.1479,47.443],[16.02,47.3724],[16.1363,47.0249],[16.0284,46.8369],[16.0529,46.8461],[16.094,46.8628],[16.4864,46.9986],[16.425,47.3511],[16.627,47.4455],[16.5578,47.6298],[16.4078,47.6613],[16.6098,47.7506],[16.7168,47.697],[17.0754,47.7085],[17.1483,48.0054]]]}},{"type":"Feature","id":"label-AUT-2322","properties":{"kind":"division-label","code":"AUT-2322","countryCode":"AUT","name":"Burgenland","localName":"Burgenland","labelEnglish":"Burgenland","labelLocal":"Burgenland","labelBoth":"Burgenland","type":"State","iso":"AT-1","qid":"Q43210"},"geometry":{"type":"Point","coordinates":[16.3584,47.4281]}},{"type":"Feature","id":"AUT-2320","properties":{"kind":"division","code":"AUT-2320","countryCode":"AUT","name":"Vorarlberg","localName":"Vorarlberg","labelEnglish":"Vorarlberg","labelLocal":"Vorarlberg","labelBoth":"Vorarlberg","type":"State","iso":"AT-8","qid":"Q38981"},"geometry":{"type":"Polygon","coordinates":[[[9.5812,47.0569],[10.1252,46.8468],[10.175,47.2724],[9.7527,47.5821],[9.5541,47.5327],[9.5475,47.5345],[9.5531,47.5169],[9.6495,47.4097],[9.5212,47.2628],[9.5342,47.2512],[9.5431,47.2348],[9.5543,47.2116],[9.5619,47.1906],[9.552,47.1756],[9.5521,47.1669],[9.5671,47.1608],[9.6095,47.1224],[9.6142,47.1107],[9.6051,47.0776],[9.5883,47.063],[9.5812,47.0569]]]}},{"type":"Feature","id":"label-AUT-2320","properties":{"kind":"division-label","code":"AUT-2320","countryCode":"AUT","name":"Vorarlberg","localName":"Vorarlberg","labelEnglish":"Vorarlberg","labelLocal":"Vorarlberg","labelBoth":"Vorarlberg","type":"State","iso":"AT-8","qid":"Q38981"},"geometry":{"type":"Point","coordinates":[9.87375,47.2617]}},{"type":"Feature","id":"AUT-2329","properties":{"kind":"division","code":"AUT-2329","countryCode":"AUT","name":"Tyrol","localName":"Tyrol","labelEnglish":"Tyrol","labelLocal":"Tyrol","labelBoth":"Tyrol","type":"State","iso":"AT-7","qid":"Q42880"},"geometry":{"type":"MultiPolygon","coordinates":[[[[10.1252,46.8468],[10.4538,46.8644],[10.9969,46.7691],[11.3138,46.9873],[11.7464,46.9725],[12.1331,47.0788],[12.096,47.2799],[12.6788,47.4989],[12.5634,47.6418],[11.6205,47.5897],[10.9795,47.3905],[10.4142,47.573],[10.175,47.2724],[10.1252,46.8468]]],[[[12.4696,46.6758],[12.6714,46.6525],[12.9453,46.7752],[12.6338,47.112],[12.2039,47.067],[12.1112,46.993],[12.4696,46.6758]]]]}},{"type":"Feature","id":"label-AUT-2329","properties":{"kind":"division-label","code":"AUT-2329","countryCode":"AUT","name":"Tyrol","localName":"Tyrol","labelEnglish":"Tyrol","labelLocal":"Tyrol","labelBoth":"Tyrol","type":"State","iso":"AT-7","qid":"Q42880"},"geometry":{"type":"Point","coordinates":[11.38,47.2082]}},{"type":"Feature","id":"AUT-2327","properties":{"kind":"division","code":"AUT-2327","countryCode":"AUT","name":"Salzburg","localName":"Salzburg","labelEnglish":"Salzburg","labelLocal":"Salzburg","labelBoth":"Salzburg","type":"State","iso":"AT-5","qid":"Q43325"},"geometry":{"type":"Polygon","coordinates":[[[12.2039,47.067],[12.6338,47.112],[13.3082,47.0872],[13.7823,46.9542],[13.9372,47.1506],[13.5818,47.4864],[13.3029,48.0099],[12.8482,47.9824],[13.0373,47.493],[12.5634,47.6418],[12.6788,47.4989],[12.096,47.2799],[12.1331,47.0788],[12.2039,47.067]]]}},{"type":"Feature","id":"label-AUT-2327","properties":{"kind":"division-label","code":"AUT-2327","countryCode":"AUT","name":"Salzburg","localName":"Salzburg","labelEnglish":"Salzburg","labelLocal":"Salzburg","labelBoth":"Salzburg","type":"State","iso":"AT-5","qid":"Q43325"},"geometry":{"type":"Point","coordinates":[13.0106,47.2534]}},{"type":"Feature","id":"AUT-2325","properties":{"kind":"division","code":"AUT-2325","countryCode":"AUT","name":"Carinthia","localName":"Carinthia","labelEnglish":"Carinthia","labelLocal":"Carinthia","labelBoth":"Carinthia","type":"State","iso":"AT-2","qid":"Q37985"},"geometry":{"type":"Polygon","coordinates":[[[12.6714,46.6525],[12.7485,46.641],[13.701,46.5197],[14.0149,46.4825],[14.1479,46.4404],[14.2423,46.4382],[14.4371,46.4189],[14.5621,46.3917],[14.6725,46.4598],[14.7967,46.5194],[14.8145,46.5513],[14.8941,46.6052],[14.9195,46.615],[15.0857,46.6478],[15.1056,46.6463],[14.8499,47.0413],[14.2006,47.0567],[13.7823,46.9542],[13.3082,47.0872],[12.6338,47.112],[12.9453,46.7752],[12.6714,46.6525]]]}},{"type":"Feature","id":"label-AUT-2325","properties":{"kind":"division-label","code":"AUT-2325","countryCode":"AUT","name":"Carinthia","localName":"Carinthia","labelEnglish":"Carinthia","labelLocal":"Carinthia","labelBoth":"Carinthia","type":"State","iso":"AT-2","qid":"Q37985"},"geometry":{"type":"Point","coordinates":[13.8695,46.7201]}},{"type":"Feature","id":"AUT-2323","properties":{"kind":"division","code":"AUT-2323","countryCode":"AUT","name":"Styria","localName":"Styria","labelEnglish":"Styria","labelLocal":"Styria","labelBoth":"Styria","type":"State","iso":"AT-6","qid":"Q41358"},"geometry":{"type":"Polygon","coordinates":[[[16.0284,46.8369],[16.1363,47.0249],[16.02,47.3724],[16.1479,47.443],[15.3391,47.8254],[14.6993,47.7689],[14.3473,47.6257],[13.8233,47.7205],[13.5818,47.4864],[13.9372,47.1506],[13.7823,46.9542],[14.2006,47.0567],[14.8499,47.0413],[15.1056,46.6463],[15.1726,46.6414],[15.3328,46.6436],[15.4354,46.6272],[15.5139,46.6325],[15.5203,46.6477],[15.6217,46.6782],[15.7846,46.7122],[15.9676,46.6946],[16.0167,46.6707],[15.971,46.7751],[16.0284,46.8369]]]}},{"type":"Feature","id":"label-AUT-2323","properties":{"kind":"division-label","code":"AUT-2323","countryCode":"AUT","name":"Styria","localName":"Styria","labelEnglish":"Styria","labelLocal":"Styria","labelBoth":"Styria","type":"State","iso":"AT-6","qid":"Q41358"},"geometry":{"type":"Point","coordinates":[14.8565,47.3901]}},{"type":"Feature","id":"AUT-2331","properties":{"kind":"division","code":"AUT-2331","countryCode":"AUT","name":"Vienna","localName":"Vienna","labelEnglish":"Vienna","labelLocal":"Vienna","labelBoth":"Vienna","type":"State","iso":"AT-9","qid":"Q1741"},"geometry":{"type":"Polygon","coordinates":[[[16.4826,48.2885],[16.2326,48.1492],[16.5714,48.1531],[16.4826,48.2885]]]}},{"type":"Feature","id":"label-AUT-2331","properties":{"kind":"division-label","code":"AUT-2331","countryCode":"AUT","name":"Vienna","localName":"Vienna","labelEnglish":"Vienna","labelLocal":"Vienna","labelBoth":"Vienna","type":"State","iso":"AT-9","qid":"Q1741"},"geometry":{"type":"Point","coordinates":[16.3798,48.2247]}}]}