{"type":"FeatureCollection","features":[{"type":"Feature","id":"AZE-1684","properties":{"kind":"division","code":"AZE-1684","countryCode":"AZE","name":"Qazax","localName":"Qazax","labelEnglish":"Qazax","labelLocal":"Qazax","labelBoth":"Qazax","type":"District","iso":"AZ-QAZ","qid":"Q389381"},"geometry":{"type":"Polygon","coordinates":[[[45.0024,41.2905],[45.0678,41.1109],[45.3819,41.0114],[45.3922,41.2456],[45.0978,41.3499],[45.0024,41.2905]]]}},{"type":"Feature","id":"label-AZE-1684","properties":{"kind":"division-label","code":"AZE-1684","countryCode":"AZE","name":"Qazax","localName":"Qazax","labelEnglish":"Qazax","labelLocal":"Qazax","labelBoth":"Qazax","type":"District","iso":"AZ-QAZ","qid":"Q389381"},"geometry":{"type":"Point","coordinates":[45.2004,41.0778]}},{"type":"Feature","id":"AZE-1676","properties":{"kind":"division","code":"AZE-1676","countryCode":"AZE","name":"Agstafa","localName":"Agstafa","labelEnglish":"Agstafa","labelLocal":"Agstafa","labelBoth":"Agstafa","type":"District","iso":"AZ-AGA","qid":"Q275744"},"geometry":{"type":"Polygon","coordinates":[[[45.4428,40.9484],[45.7703,41.2321],[45.3331,41.4444],[45.0978,41.3499],[45.3922,41.2456],[45.3819,41.0114],[45.4428,40.9484]]]}},{"type":"Feature","id":"label-AZE-1676","properties":{"kind":"division-label","code":"AZE-1676","countryCode":"AZE","name":"Agstafa","localName":"Agstafa","labelEnglish":"Agstafa","labelLocal":"Agstafa","labelBoth":"Agstafa","type":"District","iso":"AZ-AGA","qid":"Q275744"},"geometry":{"type":"Point","coordinates":[45.4341,41.1896]}},{"type":"Feature","id":"AZE-1687","properties":{"kind":"division","code":"AZE-1687","countryCode":"AZE","name":"Tovuz","localName":"Tovuz","labelEnglish":"Tovuz","labelLocal":"Tovuz","labelBoth":"Tovuz","type":"District","iso":"AZ-TOV","qid":"Q388980"},"geometry":{"type":"Polygon","coordinates":[[[45.4783,40.7482],[45.7018,40.6146],[45.7226,40.8232],[46.2047,41.1367],[46.0876,41.1837],[45.7703,41.2321],[45.4428,40.9484],[45.4783,40.7482]]]}},{"type":"Feature","id":"label-AZE-1687","properties":{"kind":"division-label","code":"AZE-1687","countryCode":"AZE","name":"Tovuz","localName":"Tovuz","labelEnglish":"Tovuz","labelLocal":"Tovuz","labelBoth":"Tovuz","type":"District","iso":"AZ-TOV","qid":"Q388980"},"geometry":{"type":"Point","coordinates":[45.8238,41.0669]}},{"type":"Feature","id":"AZE-1678","properties":{"kind":"division","code":"AZE-1678","countryCode":"AZE","name":"Gadabay","localName":"Gadabay","labelEnglish":"Gadabay","labelLocal":"Gadabay","labelBoth":"Gadabay","type":"District","iso":"AZ-GAD","qid":"Q330749"},"geometry":{"type":"Polygon","coordinates":[[[45.3736,40.6513],[45.8192,40.2971],[45.9117,40.5572],[45.7226,40.8232],[45.7018,40.6146],[45.4783,40.7482],[45.3736,40.6513]]]}},{"type":"Feature","id":"label-AZE-1678","properties":{"kind":"division-label","code":"AZE-1678","countryCode":"AZE","name":"Gadabay","localName":"Gadabay","labelEnglish":"Gadabay","labelLocal":"Gadabay","labelBoth":"Gadabay","type":"District","iso":"AZ-GAD","qid":"Q330749"},"geometry":{"type":"Point","coordinates":[45.6429,40.492]}},{"type":"Feature","id":"AZE-1677","properties":{"kind":"division","code":"AZE-1677","countryCode":"AZE","name":"Dashkasan","localName":"Dashkasan","labelEnglish":"Dashkasan","labelLocal":"Dashkasan","labelBoth":"Dashkasan","type":"District","iso":"AZ-DAS","qid":"Q457494"},"geometry":{"type":"Polygon","coordinates":[[[45.8192,40.2971],[45.8885,40.262],[46.1558,40.3075],[46.079,40.6472],[45.9117,40.5572],[45.8192,40.2971]]]}},{"type":"Feature","id":"label-AZE-1677","properties":{"kind":"division-label","code":"AZE-1677","countryCode":"AZE","name":"Dashkasan","localName":"Dashkasan","labelEnglish":"Dashkasan","labelLocal":"Dashkasan","labelBoth":"Dashkasan","type":"District","iso":"AZ-DAS","qid":"Q457494"},"geometry":{"type":"Point","coordinates":[46.0228,40.4837]}},{"type":"Feature","id":"AZE-1682","properties":{"kind":"division","code":"AZE-1682","countryCode":"AZE","name":"Kalbajar","localName":"Kalbajar","labelEnglish":"Kalbajar","labelLocal":"Kalbajar","labelBoth":"Kalbajar","type":"District","iso":"AZ-KAL","qid":"Q457513"},"geometry":{"type":"Polygon","coordinates":[[[45.8885,40.262],[45.8738,40.0098],[45.5776,39.984],[45.8091,39.8512],[45.8832,39.7961],[46.451,39.9581],[46.6979,40.0182],[46.7616,40.033],[46.5345,40.3131],[46.3178,40.2762],[46.1558,40.3075],[45.8885,40.262]]]}},{"type":"Feature","id":"label-AZE-1682","properties":{"kind":"division-label","code":"AZE-1682","countryCode":"AZE","name":"Kalbajar","localName":"Kalbajar","labelEnglish":"Kalbajar","labelLocal":"Kalbajar","labelBoth":"Kalbajar","type":"District","iso":"AZ-KAL","qid":"Q457513"},"geometry":{"type":"Point","coordinates":[46.1688,40.0966]}},{"type":"Feature","id":"AZE-1735","properties":{"kind":"division","code":"AZE-1735","countryCode":"AZE","name":"Lankaran","localName":"Lankaran","labelEnglish":"Lankaran","labelLocal":"Lankaran","labelBoth":"Lankaran","type":"District","iso":"AZ-LAN","qid":"Q228811"},"geometry":{"type":"Polygon","coordinates":[[[45.8832,39.7961],[46.479,39.4618],[46.6407,39.4835],[46.7356,39.5888],[46.5403,39.7577],[46.451,39.9581],[45.8832,39.7961]]]}},{"type":"Feature","id":"label-AZE-1735","properties":{"kind":"division-label","code":"AZE-1735","countryCode":"AZE","name":"Lankaran","localName":"Lankaran","labelEnglish":"Lankaran","labelLocal":"Lankaran","labelBoth":"Lankaran","type":"District","iso":"AZ-LAN","qid":"Q228811"},"geometry":{"type":"Point","coordinates":[46.3095,39.7717]}},{"type":"Feature","id":"AZE-1736","properties":{"kind":"division","code":"AZE-1736","countryCode":"AZE","name":"Qubadli","localName":"Qubadli","labelEnglish":"Qubadli","labelLocal":"Qubadli","labelBoth":"Qubadli","type":"District","iso":"AZ-QBI","qid":"Q644048"},"geometry":{"type":"Polygon","coordinates":[[[46.5991,39.2225],[46.8229,39.228],[46.7335,39.4163],[46.6407,39.4835],[46.479,39.4618],[46.5991,39.2225]]]}},{"type":"Feature","id":"label-AZE-1736","properties":{"kind":"division-label","code":"AZE-1736","countryCode":"AZE","name":"Qubadli","localName":"Qubadli","labelEnglish":"Qubadli","labelLocal":"Qubadli","labelBoth":"Qubadli","type":"District","iso":"AZ-QBI","qid":"Q644048"},"geometry":{"type":"Point","coordinates":[46.5917,39.3434]}},{"type":"Feature","id":"AZE-1740","properties":{"kind":"division","code":"AZE-1740","countryCode":"AZE","name":"Zangilan","localName":"Zangilan","labelEnglish":"Zangilan","labelLocal":"Zangilan","labelBoth":"Zangilan","type":"District","iso":"AZ-ZAN","qid":"Q249252"},"geometry":{"type":"Polygon","coordinates":[[[46.5991,39.2225],[46.4183,39.2119],[46.514,38.8822],[46.8664,39.1654],[46.8229,39.228],[46.5991,39.2225]]]}},{"type":"Feature","id":"label-AZE-1740","properties":{"kind":"division-label","code":"AZE-1740","countryCode":"AZE","name":"Zangilan","localName":"Zangilan","labelEnglish":"Zangilan","labelLocal":"Zangilan","labelBoth":"Zangilan","type":"District","iso":"AZ-ZAN","qid":"Q249252"},"geometry":{"type":"Point","coordinates":[46.6305,39.0904]}},{"type":"Feature","id":"AZE-2419","properties":{"kind":"division","code":"AZE-2419","countryCode":"AZE","name":"Sharur","localName":"Sharur","labelEnglish":"Sharur","labelLocal":"Sharur","labelBoth":"Sharur","type":"District","iso":"AZ-SAR","qid":"Q390820"},"geometry":{"type":"Polygon","coordinates":[[[45.075,39.7498],[44.9532,39.736],[44.824,39.6305],[45.0512,39.3871],[45.1679,39.5655],[45.075,39.7498]]]}},{"type":"Feature","id":"label-AZE-2419","properties":{"kind":"division-label","code":"AZE-2419","countryCode":"AZE","name":"Sharur","localName":"Sharur","labelEnglish":"Sharur","labelLocal":"Sharur","labelBoth":"Sharur","type":"District","iso":"AZ-SAR","qid":"Q390820"},"geometry":{"type":"Point","coordinates":[45.0172,39.5929]}},{"type":"Feature","id":"AZE-2415","properties":{"kind":"division","code":"AZE-2415","countryCode":"AZE","name":"Sadarak","localName":"Sadarak","labelEnglish":"Sadarak","labelLocal":"Sadarak","labelBoth":"Sadarak","type":"District","iso":"AZ-SAD","qid":"Q641468"},"geometry":{"type":"Polygon","coordinates":[[[44.9532,39.736],[44.7746,39.7028],[44.807,39.6399],[44.824,39.6305],[44.9532,39.736]]]}},{"type":"Feature","id":"label-AZE-2415","properties":{"kind":"division-label","code":"AZE-2415","countryCode":"AZE","name":"Sadarak","localName":"Sadarak","labelEnglish":"Sadarak","labelLocal":"Sadarak","labelBoth":"Sadarak","type":"District","iso":"AZ-SAD","qid":"Q641468"},"geometry":{"type":"Point","coordinates":[44.8638,39.699]}},{"type":"Feature","id":"AZE-5567","properties":{"kind":"division","code":"AZE-5567","countryCode":"AZE","name":"Kangarli","localName":"Kangarli","labelEnglish":"Kangarli","labelLocal":"Kangarli","labelBoth":"Kangarli","type":"District","iso":"AZ-KAN","qid":"Q734030"},"geometry":{"type":"Polygon","coordinates":[[[45.2662,39.5929],[45.1679,39.5655],[45.0512,39.3871],[45.1144,39.3094],[45.2662,39.5929]]]}},{"type":"Feature","id":"label-AZE-5567","properties":{"kind":"division-label","code":"AZE-5567","countryCode":"AZE","name":"Kangarli","localName":"Kangarli","labelEnglish":"Kangarli","labelLocal":"Kangarli","labelBoth":"Kangarli","type":"District","iso":"AZ-KAN","qid":"Q734030"},"geometry":{"type":"Point","coordinates":[45.1447,39.4039]}},{"type":"Feature","id":"AZE-2420","properties":{"kind":"division","code":"AZE-2420","countryCode":"AZE","name":"Babek","localName":"Babek","labelEnglish":"Babek","labelLocal":"Babek","labelBoth":"Babek","type":"District","iso":"AZ-BAB","qid":"Q643895"},"geometry":{"type":"Polygon","coordinates":[[[45.2662,39.5929],[45.1144,39.3094],[45.4945,38.9819],[45.5356,38.9685],[45.4676,39.1878],[45.3501,39.243],[45.5309,39.245],[45.5495,39.2882],[45.4239,39.4938],[45.2662,39.5929]]]}},{"type":"Feature","id":"label-AZE-2420","properties":{"kind":"division-label","code":"AZE-2420","countryCode":"AZE","name":"Babek","localName":"Babek","labelEnglish":"Babek","labelLocal":"Babek","labelBoth":"Babek","type":"District","iso":"AZ-BAB","qid":"Q643895"},"geometry":{"type":"Point","coordinates":[45.3373,39.1871]}},{"type":"Feature","id":"AZE-2423","properties":{"kind":"division","code":"AZE-2423","countryCode":"AZE","name":"Shahbuz","localName":"Shahbuz","labelEnglish":"Shahbuz","labelLocal":"Shahbuz","labelBoth":"Shahbuz","type":"District","iso":"AZ-SAH","qid":"Q388081"},"geometry":{"type":"Polygon","coordinates":[[[45.4239,39.4938],[45.5495,39.2882],[45.7644,39.3591],[45.7091,39.5684],[45.4239,39.4938]]]}},{"type":"Feature","id":"label-AZE-2423","properties":{"kind":"division-label","code":"AZE-2423","countryCode":"AZE","name":"Shahbuz","localName":"Shahbuz","labelEnglish":"Shahbuz","labelLocal":"Shahbuz","labelBoth":"Shahbuz","type":"District","iso":"AZ-SAH","qid":"Q388081"},"geometry":{"type":"Point","coordinates":[45.5799,39.4227]}},{"type":"Feature","id":"AZE-2421","properties":{"kind":"division","code":"AZE-2421","countryCode":"AZE","name":"Julfa","localName":"Julfa","labelEnglish":"Julfa","labelLocal":"Julfa","labelBoth":"Julfa","type":"District","iso":"AZ-CUL","qid":"Q644035"},"geometry":{"type":"Polygon","coordinates":[[[45.7644,39.3591],[45.5495,39.2882],[45.5309,39.245],[45.4676,39.1878],[45.5356,38.9685],[45.7681,38.9391],[45.9018,39.2941],[45.7644,39.3591]]]}},{"type":"Feature","id":"label-AZE-2421","properties":{"kind":"division-label","code":"AZE-2421","countryCode":"AZE","name":"Julfa","localName":"Julfa","labelEnglish":"Julfa","labelLocal":"Julfa","labelBoth":"Julfa","type":"District","iso":"AZ-CUL","qid":"Q644035"},"geometry":{"type":"Point","coordinates":[45.6847,39.136]}},{"type":"Feature","id":"AZE-2418","properties":{"kind":"division","code":"AZE-2418","countryCode":"AZE","name":"Ordubad","localName":"Ordubad","labelEnglish":"Ordubad","labelLocal":"Ordubad","labelBoth":"Ordubad","type":"District","iso":"AZ-ORD","qid":"Q512623"},"geometry":{"type":"Polygon","coordinates":[[[45.9018,39.2941],[45.7681,38.9391],[46.1359,38.8637],[45.9018,39.2941]]]}},{"type":"Feature","id":"label-AZE-2418","properties":{"kind":"division-label","code":"AZE-2418","countryCode":"AZE","name":"Ordubad","localName":"Ordubad","labelEnglish":"Ordubad","labelLocal":"Ordubad","labelBoth":"Ordubad","type":"District","iso":"AZ-ORD","qid":"Q512623"},"geometry":{"type":"Point","coordinates":[45.9272,39.0972]}},{"type":"Feature","id":"AZE-1723","properties":{"kind":"division","code":"AZE-1723","countryCode":"AZE","name":"Balakan","localName":"Balakan","labelEnglish":"Balakan","labelLocal":"Balakan","labelBoth":"Balakan","type":"District","iso":"AZ-BAL","qid":"Q330850"},"geometry":{"type":"Polygon","coordinates":[[[46.4309,41.8904],[46.2799,41.5712],[46.7096,41.8351],[46.4309,41.8904]]]}},{"type":"Feature","id":"label-AZE-1723","properties":{"kind":"division-label","code":"AZE-1723","countryCode":"AZE","name":"Balakan","localName":"Balakan","labelEnglish":"Balakan","labelLocal":"Balakan","labelBoth":"Balakan","type":"District","iso":"AZ-BAL","qid":"Q330850"},"geometry":{"type":"Point","coordinates":[46.4478,41.7393]}},{"type":"Feature","id":"AZE-1731","properties":{"kind":"division","code":"AZE-1731","countryCode":"AZE","name":"Zaqatala","localName":"Zaqatala","labelEnglish":"Zaqatala","labelLocal":"Zaqatala","labelBoth":"Zaqatala","type":"District","iso":"AZ-ZAQ","qid":"Q147553"},"geometry":{"type":"Polygon","coordinates":[[[47.0283,41.5571],[46.7096,41.8351],[46.2799,41.5712],[46.6298,41.3461],[47.0283,41.5571]]]}},{"type":"Feature","id":"label-AZE-1731","properties":{"kind":"division-label","code":"AZE-1731","countryCode":"AZE","name":"Zaqatala","localName":"Zaqatala","labelEnglish":"Zaqatala","labelLocal":"Zaqatala","labelBoth":"Zaqatala","type":"District","iso":"AZ-ZAQ","qid":"Q147553"},"geometry":{"type":"Point","coordinates":[46.654,41.5666]}},{"type":"Feature","id":"AZE-1730","properties":{"kind":"division","code":"AZE-1730","countryCode":"AZE","name":"Khachmaz","localName":"Khachmaz","labelEnglish":"Khachmaz","labelLocal":"Khachmaz","labelBoth":"Khachmaz","type":"District","iso":"AZ-XAC","qid":"Q6398826"},"geometry":{"type":"Polygon","coordinates":[[[48.4622,41.721],[48.5755,41.4835],[48.7441,41.3485],[49.0787,41.3574],[48.5789,41.8453],[48.4622,41.721]]]}},{"type":"Feature","id":"label-AZE-1730","properties":{"kind":"division-label","code":"AZE-1730","countryCode":"AZE","name":"Khachmaz","localName":"Khachmaz","labelEnglish":"Khachmaz","labelLocal":"Khachmaz","labelBoth":"Khachmaz","type":"District","iso":"AZ-XAC","qid":"Q6398826"},"geometry":{"type":"Point","coordinates":[48.7701,41.5198]}},{"type":"Feature","id":"AZE-1729","properties":{"kind":"division","code":"AZE-1729","countryCode":"AZE","name":"Qusar","localName":"Qusar","labelEnglish":"Qusar","labelLocal":"Qusar","labelBoth":"Qusar","type":"District","iso":"AZ-QUS","qid":"Q386506"},"geometry":{"type":"Polygon","coordinates":[[[48.4622,41.721],[47.8135,41.1974],[47.9265,41.1577],[48.5755,41.4835],[48.4622,41.721]]]}},{"type":"Feature","id":"label-AZE-1729","properties":{"kind":"division-label","code":"AZE-1729","countryCode":"AZE","name":"Qusar","localName":"Qusar","labelEnglish":"Qusar","labelLocal":"Qusar","labelBoth":"Qusar","type":"District","iso":"AZ-QUS","qid":"Q386506"},"geometry":{"type":"Point","coordinates":[48.1944,41.4005]}},{"type":"Feature","id":"AZE-1725","properties":{"kind":"division","code":"AZE-1725","countryCode":"AZE","name":"Oghuz","localName":"Oghuz","labelEnglish":"Oghuz","labelLocal":"Oghuz","labelBoth":"Oghuz","type":"District","iso":"AZ-OGU","qid":"Q643989"},"geometry":{"type":"Polygon","coordinates":[[[47.3673,41.2618],[47.2702,41.0204],[47.5698,40.7956],[47.6949,41.2071],[47.3673,41.2618]]]}},{"type":"Feature","id":"label-AZE-1725","properties":{"kind":"division-label","code":"AZE-1725","countryCode":"AZE","name":"Oghuz","localName":"Oghuz","labelEnglish":"Oghuz","labelLocal":"Oghuz","labelBoth":"Oghuz","type":"District","iso":"AZ-OGU","qid":"Q643989"},"geometry":{"type":"Point","coordinates":[47.4853,41.04]}},{"type":"Feature","id":"AZE-1727","properties":{"kind":"division","code":"AZE-1727","countryCode":"AZE","name":"Sheki","localName":"Sheki","labelEnglish":"Sheki","labelLocal":"Sheki","labelBoth":"Sheki","type":"District","iso":"AZ-SA","qid":null},"geometry":{"type":"Polygon","coordinates":[[[47.1792,41.4917],[46.8125,41.1275],[46.93,40.9109],[47.2628,40.7889],[47.5256,40.7615],[47.5698,40.7956],[47.2702,41.0204],[47.3673,41.2618],[47.1792,41.4917]],[[47.1889,41.1555],[47.148,41.164],[47.1729,41.235],[47.1889,41.1555]]]}},{"type":"Feature","id":"label-AZE-1727","properties":{"kind":"division-label","code":"AZE-1727","countryCode":"AZE","name":"Sheki","localName":"Sheki","labelEnglish":"Sheki","labelLocal":"Sheki","labelBoth":"Sheki","type":"District","iso":"AZ-SA","qid":null},"geometry":{"type":"Point","coordinates":[47.1565,41.0486]}},{"type":"Feature","id":"AZE-1726","properties":{"kind":"division","code":"AZE-1726","countryCode":"AZE","name":"Qakh","localName":"Qakh","labelEnglish":"Qakh","labelLocal":"Qakh","labelBoth":"Qakh","type":"District","iso":"AZ-QAX","qid":"Q330796"},"geometry":{"type":"Polygon","coordinates":[[[47.1792,41.4917],[47.0283,41.5571],[46.6298,41.3461],[46.6155,41.1087],[46.7597,40.966],[46.93,40.9109],[46.8125,41.1275],[47.1792,41.4917]]]}},{"type":"Feature","id":"label-AZE-1726","properties":{"kind":"division-label","code":"AZE-1726","countryCode":"AZE","name":"Qakh","localName":"Qakh","labelEnglish":"Qakh","labelLocal":"Qakh","labelBoth":"Qakh","type":"District","iso":"AZ-QAX","qid":"Q330796"},"geometry":{"type":"Point","coordinates":[46.7976,41.375]}},{"type":"Feature","id":"AZE-1724","properties":{"kind":"division","code":"AZE-1724","countryCode":"AZE","name":"Qabala","localName":"Qabala","labelEnglish":"Qabala","labelLocal":"Qabala","labelBoth":"Qabala","type":"District","iso":"AZ-QAB","qid":"Q593872"},"geometry":{"type":"Polygon","coordinates":[[[47.8135,41.1974],[47.6949,41.2071],[47.5698,40.7956],[47.5256,40.7615],[47.5886,40.6395],[47.7325,40.675],[48.0311,41.0631],[47.9265,41.1577],[47.8135,41.1974]]]}},{"type":"Feature","id":"label-AZE-1724","properties":{"kind":"division-label","code":"AZE-1724","countryCode":"AZE","name":"Qabala","localName":"Qabala","labelEnglish":"Qabala","labelLocal":"Qabala","labelBoth":"Qabala","type":"District","iso":"AZ-QAB","qid":"Q593872"},"geometry":{"type":"Point","coordinates":[47.7784,40.9578]}},{"type":"Feature","id":"AZE-1686","properties":{"kind":"division","code":"AZE-1686","countryCode":"AZE","name":"Samukh","localName":"Samukh","labelEnglish":"Samukh","labelLocal":"Samukh","labelBoth":"Samukh","type":"District","iso":"AZ-SMX","qid":"Q498437"},"geometry":{"type":"Polygon","coordinates":[[[46.6155,41.1087],[46.0876,41.1837],[46.2047,41.1367],[46.2773,40.8329],[46.3407,40.7246],[46.4118,40.6854],[46.4707,40.6818],[46.7597,40.966],[46.6155,41.1087]]]}},{"type":"Feature","id":"label-AZE-1686","properties":{"kind":"division-label","code":"AZE-1686","countryCode":"AZE","name":"Samukh","localName":"Samukh","labelEnglish":"Samukh","labelLocal":"Samukh","labelBoth":"Samukh","type":"District","iso":"AZ-SMX","qid":"Q498437"},"geometry":{"type":"Point","coordinates":[46.4234,40.8795]}},{"type":"Feature","id":"AZE-1704","properties":{"kind":"division","code":"AZE-1704","countryCode":"AZE","name":"Imishli","localName":"Imishli","labelEnglish":"Imishli","labelLocal":"Imishli","labelBoth":"Imishli","type":"District","iso":"AZ-IMI","qid":"Q343908"},"geometry":{"type":"Polygon","coordinates":[[[47.9577,39.7073],[48.3794,39.6217],[48.2496,39.9797],[48.3172,40.0398],[47.8512,40.1009],[47.791,40.114],[47.7882,39.6577],[47.9577,39.7073]]]}},{"type":"Feature","id":"label-AZE-1704","properties":{"kind":"division-label","code":"AZE-1704","countryCode":"AZE","name":"Imishli","localName":"Imishli","labelEnglish":"Imishli","labelLocal":"Imishli","labelBoth":"Imishli","type":"District","iso":"AZ-IMI","qid":"Q343908"},"geometry":{"type":"Point","coordinates":[48.0606,39.9121]}},{"type":"Feature","id":"AZE-1698","properties":{"kind":"division","code":"AZE-1698","countryCode":"AZE","name":"Bilasuvar","localName":"Bilasuvar","labelEnglish":"Bilasuvar","labelLocal":"Bilasuvar","labelBoth":"Bilasuvar","type":"District","iso":"AZ-BIL","qid":"Q330834"},"geometry":{"type":"Polygon","coordinates":[[[48.3284,39.3763],[48.7638,39.4088],[48.767,39.6057],[48.5821,39.6517],[48.3794,39.6217],[47.9577,39.7073],[48.3284,39.3763]]]}},{"type":"Feature","id":"label-AZE-1698","properties":{"kind":"division-label","code":"AZE-1698","countryCode":"AZE","name":"Bilasuvar","localName":"Bilasuvar","labelEnglish":"Bilasuvar","labelLocal":"Bilasuvar","labelBoth":"Bilasuvar","type":"District","iso":"AZ-BIL","qid":"Q330834"},"geometry":{"type":"Point","coordinates":[48.3681,39.4604]}},{"type":"Feature","id":"AZE-1700","properties":{"kind":"division","code":"AZE-1700","countryCode":"AZE","name":"Jalilabad","localName":"Jalilabad","labelEnglish":"Jalilabad","labelLocal":"Jalilabad","labelBoth":"Jalilabad","type":"District","iso":"AZ-CAL","qid":"Q372795"},"geometry":{"type":"Polygon","coordinates":[[[48.3016,39.0179],[48.4778,38.9857],[48.7405,39.1472],[48.7638,39.4088],[48.3284,39.3763],[48.1246,39.2976],[48.3016,39.0179]]]}},{"type":"Feature","id":"label-AZE-1700","properties":{"kind":"division-label","code":"AZE-1700","countryCode":"AZE","name":"Jalilabad","localName":"Jalilabad","labelEnglish":"Jalilabad","labelLocal":"Jalilabad","labelBoth":"Jalilabad","type":"District","iso":"AZ-CAL","qid":"Q372795"},"geometry":{"type":"Point","coordinates":[48.4338,39.1757]}},{"type":"Feature","id":"AZE-1720","properties":{"kind":"division","code":"AZE-1720","countryCode":"AZE","name":"Yardimli","localName":"Yardimli","labelEnglish":"Yardimli","labelLocal":"Yardimli","labelBoth":"Yardimli","type":"District","iso":"AZ-YAR","qid":"Q127255"},"geometry":{"type":"Polygon","coordinates":[[[48.2256,38.7132],[48.5476,38.9399],[48.4778,38.9857],[48.3016,39.0179],[48.013,38.8216],[48.2256,38.7132]]]}},{"type":"Feature","id":"label-AZE-1720","properties":{"kind":"division-label","code":"AZE-1720","countryCode":"AZE","name":"Yardimli","localName":"Yardimli","labelEnglish":"Yardimli","labelLocal":"Yardimli","labelBoth":"Yardimli","type":"District","iso":"AZ-YAR","qid":"Q127255"},"geometry":{"type":"Point","coordinates":[48.269,38.866]}},{"type":"Feature","id":"AZE-1709","properties":{"kind":"division","code":"AZE-1709","countryCode":"AZE","name":"Lerik","localName":"Lerik","labelEnglish":"Lerik","labelLocal":"Lerik","labelBoth":"Lerik","type":"District","iso":"AZ-LER","qid":"Q688626"},"geometry":{"type":"Polygon","coordinates":[[[48.2256,38.7132],[48.5356,38.4692],[48.6981,38.5817],[48.5934,38.8672],[48.5476,38.9399],[48.2256,38.7132]]]}},{"type":"Feature","id":"label-AZE-1709","properties":{"kind":"division-label","code":"AZE-1709","countryCode":"AZE","name":"Lerik","localName":"Lerik","labelEnglish":"Lerik","labelLocal":"Lerik","labelBoth":"Lerik","type":"District","iso":"AZ-LER","qid":"Q688626"},"geometry":{"type":"Point","coordinates":[48.4779,38.7139]}},{"type":"Feature","id":"AZE-1699","properties":{"kind":"division","code":"AZE-1699","countryCode":"AZE","name":"Jabrayil","localName":"Jabrayil","labelEnglish":"Jabrayil","labelLocal":"Jabrayil","labelBoth":"Jabrayil","type":"District","iso":"AZ-CAB","qid":"Q457491"},"geometry":{"type":"Polygon","coordinates":[[[47.0136,39.187],[47.2613,39.3664],[47.0534,39.466],[46.7335,39.4163],[46.8229,39.228],[46.8664,39.1654],[47.0136,39.187]]]}},{"type":"Feature","id":"label-AZE-1699","properties":{"kind":"division-label","code":"AZE-1699","countryCode":"AZE","name":"Jabrayil","localName":"Jabrayil","labelEnglish":"Jabrayil","labelLocal":"Jabrayil","labelBoth":"Jabrayil","type":"District","iso":"AZ-CAB","qid":"Q457491"},"geometry":{"type":"Point","coordinates":[46.9823,39.2768]}},{"type":"Feature","id":"AZE-1702","properties":{"kind":"division","code":"AZE-1702","countryCode":"AZE","name":"Fuzuli","localName":"Fuzuli","labelEnglish":"Fuzuli","labelLocal":"Fuzuli","labelBoth":"Fuzuli","type":"District","iso":"AZ-FUZ","qid":"Q331687"},"geometry":{"type":"Polygon","coordinates":[[[47.625,39.5714],[47.4659,39.7383],[47.3115,39.708],[47.0534,39.466],[47.2613,39.3664],[47.625,39.5714]]]}},{"type":"Feature","id":"label-AZE-1702","properties":{"kind":"division-label","code":"AZE-1702","countryCode":"AZE","name":"Fuzuli","localName":"Fuzuli","labelEnglish":"Fuzuli","labelLocal":"Fuzuli","labelBoth":"Fuzuli","type":"District","iso":"AZ-FUZ","qid":"Q331687"},"geometry":{"type":"Point","coordinates":[47.322,39.5574]}},{"type":"Feature","id":"AZE-1697","properties":{"kind":"division","code":"AZE-1697","countryCode":"AZE","name":"Beylagan","localName":"Beylagan","labelEnglish":"Beylagan","labelLocal":"Beylagan","labelBoth":"Beylagan","type":"District","iso":"AZ-BEY","qid":"Q330807"},"geometry":{"type":"Polygon","coordinates":[[[47.7882,39.6577],[47.791,40.114],[47.7566,40.1595],[47.4659,39.7383],[47.625,39.5714],[47.7882,39.6577]]]}},{"type":"Feature","id":"label-AZE-1697","properties":{"kind":"division-label","code":"AZE-1697","countryCode":"AZE","name":"Beylagan","localName":"Beylagan","labelEnglish":"Beylagan","labelLocal":"Beylagan","labelBoth":"Beylagan","type":"District","iso":"AZ-BEY","qid":"Q330807"},"geometry":{"type":"Point","coordinates":[47.6611,39.7591]}},{"type":"Feature","id":"AZE-1695","properties":{"kind":"division","code":"AZE-1695","countryCode":"AZE","name":"Astara","localName":"Astara","labelEnglish":"Astara","labelLocal":"Astara","labelBoth":"Astara","type":"District","iso":"AZ-AST","qid":"Q269680"},"geometry":{"type":"Polygon","coordinates":[[[48.613,38.3956],[48.8743,38.4341],[48.8685,38.6025],[48.6981,38.5817],[48.5356,38.4692],[48.613,38.3956]]]}},{"type":"Feature","id":"label-AZE-1695","properties":{"kind":"division-label","code":"AZE-1695","countryCode":"AZE","name":"Astara","localName":"Astara","labelEnglish":"Astara","labelLocal":"Astara","labelBoth":"Astara","type":"District","iso":"AZ-AST","qid":"Q269680"},"geometry":{"type":"Point","coordinates":[48.7049,38.4938]}},{"type":"Feature","id":"AZE-1701","properties":{"kind":"division","code":"AZE-1701","countryCode":"AZE","name":"Shabran","localName":"Shabran","labelEnglish":"Shabran","labelLocal":"Shabran","labelBoth":"Shabran","type":"District","iso":"AZ-SBN","qid":"Q387994"},"geometry":{"type":"Polygon","coordinates":[[[49.0787,41.3574],[48.7441,41.3485],[48.6801,40.8951],[48.7819,40.8551],[48.8446,40.8925],[48.9451,41.1687],[49.1716,41.1404],[49.0787,41.3574]]]}},{"type":"Feature","id":"label-AZE-1701","properties":{"kind":"division-label","code":"AZE-1701","countryCode":"AZE","name":"Shabran","localName":"Shabran","labelEnglish":"Shabran","labelLocal":"Shabran","labelBoth":"Shabran","type":"District","iso":"AZ-SBN","qid":"Q387994"},"geometry":{"type":"Point","coordinates":[48.9074,41.1969]}},{"type":"Feature","id":"AZE-1712","properties":{"kind":"division","code":"AZE-1712","countryCode":"AZE","name":"Siyazan","localName":"Siyazan","labelEnglish":"Siyazan","labelLocal":"Siyazan","labelBoth":"Siyazan","type":"District","iso":"AZ-SIY","qid":"Q820940"},"geometry":{"type":"Polygon","coordinates":[[[49.1716,41.1404],[48.9451,41.1687],[48.8446,40.8925],[49.3714,40.8847],[49.1716,41.1404]]]}},{"type":"Feature","id":"label-AZE-1712","properties":{"kind":"division-label","code":"AZE-1712","countryCode":"AZE","name":"Siyazan","localName":"Siyazan","labelEnglish":"Siyazan","labelLocal":"Siyazan","labelBoth":"Siyazan","type":"District","iso":"AZ-SIY","qid":"Q820940"},"geometry":{"type":"Point","coordinates":[49.0973,41.0414]}},{"type":"Feature","id":"AZE-1719","properties":{"kind":"division","code":"AZE-1719","countryCode":"AZE","name":"Khizi","localName":"Khizi","labelEnglish":"Khizi","labelLocal":"Khizi","labelBoth":"Khizi","type":"District","iso":"AZ-XIZ","qid":"Q476708"},"geometry":{"type":"Polygon","coordinates":[[[49.3714,40.8847],[48.8446,40.8925],[48.7819,40.8551],[48.8081,40.7617],[49.2631,40.5056],[49.4827,40.6368],[49.5319,40.6629],[49.3714,40.8847]]]}},{"type":"Feature","id":"label-AZE-1719","properties":{"kind":"division-label","code":"AZE-1719","countryCode":"AZE","name":"Khizi","localName":"Khizi","labelEnglish":"Khizi","labelLocal":"Khizi","labelBoth":"Khizi","type":"District","iso":"AZ-XIZ","qid":"Q476708"},"geometry":{"type":"Point","coordinates":[49.154,40.7249]}},{"type":"Feature","id":"AZE-1717","properties":{"kind":"division","code":"AZE-1717","countryCode":"AZE","name":"Sumqayit","localName":"Sumqayit","labelEnglish":"Sumqayit","labelLocal":"Sumqayit","labelBoth":"Sumqayit","type":"Municipality","iso":"AZ-SM","qid":"Q179833"},"geometry":{"type":"Polygon","coordinates":[[[49.5319,40.6629],[49.4827,40.6368],[49.6904,40.5534],[49.7097,40.586],[49.5319,40.6629]]]}},{"type":"Feature","id":"label-AZE-1717","properties":{"kind":"division-label","code":"AZE-1717","countryCode":"AZE","name":"Sumqayit","localName":"Sumqayit","labelEnglish":"Sumqayit","labelLocal":"Sumqayit","labelBoth":"Sumqayit","type":"Municipality","iso":"AZ-SM","qid":"Q179833"},"geometry":{"type":"Point","coordinates":[49.5962,40.5841]}},{"type":"Feature","id":"AZE-1689","properties":{"kind":"division","code":"AZE-1689","countryCode":"AZE","name":"Baku","localName":"Baku","labelEnglish":"Baku","labelLocal":"Baku","labelBoth":"Baku","type":"Municipality","iso":"AZ-BA","qid":"Q9248"},"geometry":{"type":"Polygon","coordinates":[[[49.7097,40.586],[49.6904,40.5534],[49.4193,40.3981],[49.2919,39.953],[49.3568,39.8121],[49.3587,39.6666],[49.4426,40.0784],[49.8934,40.369],[50.3605,40.3652],[50.052,40.5843],[49.7097,40.586]]]}},{"type":"Feature","id":"label-AZE-1689","properties":{"kind":"division-label","code":"AZE-1689","countryCode":"AZE","name":"Baku","localName":"Baku","labelEnglish":"Baku","labelLocal":"Baku","labelBoth":"Baku","type":"Municipality","iso":"AZ-BA","qid":"Q9248"},"geometry":{"type":"Point","coordinates":[50.0435,40.4447]}},{"type":"Feature","id":"AZE-1715","properties":{"kind":"division","code":"AZE-1715","countryCode":"AZE","name":"Salyan","localName":"Salyan","labelEnglish":"Salyan","labelLocal":"Salyan","labelBoth":"Salyan","type":"District","iso":"AZ-SAL","qid":"Q457485"},"geometry":{"type":"Polygon","coordinates":[[[49.3587,39.6666],[49.3568,39.8121],[48.9315,39.9139],[48.9096,39.9057],[48.9917,39.7289],[48.767,39.6057],[48.7638,39.4088],[49.2854,39.5083],[49.3587,39.6666]]]}},{"type":"Feature","id":"label-AZE-1715","properties":{"kind":"division-label","code":"AZE-1715","countryCode":"AZE","name":"Salyan","localName":"Salyan","labelEnglish":"Salyan","labelLocal":"Salyan","labelBoth":"Salyan","type":"District","iso":"AZ-SAL","qid":"Q457485"},"geometry":{"type":"Point","coordinates":[49.0495,39.7198]}},{"type":"Feature","id":"AZE-1710","properties":{"kind":"division","code":"AZE-1710","countryCode":"AZE","name":"Neftchala","localName":"Neftchala","labelEnglish":"Neftchala","labelLocal":"Neftchala","labelBoth":"Neftchala","type":"District","iso":"AZ-NEF","qid":"Q688633"},"geometry":{"type":"Polygon","coordinates":[[[49.2854,39.5083],[48.7638,39.4088],[48.7405,39.1472],[48.8544,39.1316],[49.0236,39.2701],[49.2343,39.1564],[49.4089,39.3864],[49.2854,39.5083]]]}},{"type":"Feature","id":"label-AZE-1710","properties":{"kind":"division-label","code":"AZE-1710","countryCode":"AZE","name":"Neftchala","localName":"Neftchala","labelEnglish":"Neftchala","labelLocal":"Neftchala","labelBoth":"Neftchala","type":"District","iso":"AZ-NEF","qid":"Q688633"},"geometry":{"type":"Point","coordinates":[49.0585,39.3924]}},{"type":"Feature","id":"AZE-1707","properties":{"kind":"division","code":"AZE-1707","countryCode":"AZE","name":"Lankaran","localName":"Lankaran","labelEnglish":"Lankaran","labelLocal":"Lankaran","labelBoth":"Lankaran","type":"District","iso":"AZ-LA","qid":null},"geometry":{"type":"MultiPolygon","coordinates":[[[[49.2343,39.1564],[49.0236,39.2701],[48.8544,39.1316],[48.9182,38.9289],[48.9676,39.1838],[49.2343,39.1564]]],[[[48.8963,38.8907],[48.5934,38.8672],[48.6981,38.5817],[48.8685,38.6025],[48.8634,38.7479],[48.834,38.7267],[48.8471,38.788],[48.8963,38.8907]]]]}},{"type":"Feature","id":"label-AZE-1707","properties":{"kind":"division-label","code":"AZE-1707","countryCode":"AZE","name":"Lankaran","localName":"Lankaran","labelEnglish":"Lankaran","labelLocal":"Lankaran","labelBoth":"Lankaran","type":"District","iso":"AZ-LA","qid":null},"geometry":{"type":"Point","coordinates":[48.7309,38.7168]}},{"type":"Feature","id":"AZE-1708","properties":{"kind":"division","code":"AZE-1708","countryCode":"AZE","name":"Masally","localName":"Masally","labelEnglish":"Masally","labelLocal":"Masally","labelBoth":"Masally","type":"District","iso":"AZ-MAS","qid":"Q476695"},"geometry":{"type":"Polygon","coordinates":[[[48.9182,38.9289],[48.8544,39.1316],[48.7405,39.1472],[48.4778,38.9857],[48.5476,38.9399],[48.5934,38.8672],[48.8963,38.8907],[48.9182,38.9289]]]}},{"type":"Feature","id":"label-AZE-1708","properties":{"kind":"division-label","code":"AZE-1708","countryCode":"AZE","name":"Masally","localName":"Masally","labelEnglish":"Masally","labelLocal":"Masally","labelBoth":"Masally","type":"District","iso":"AZ-MAS","qid":"Q476695"},"geometry":{"type":"Point","coordinates":[48.698,38.9858]}},{"type":"Feature","id":"AZE-5562","properties":{"kind":"division","code":"AZE-5562","countryCode":"AZE","name":"Lankaran","localName":"Lankaran","labelEnglish":"Lankaran","labelLocal":"Lankaran","labelBoth":"Lankaran","type":"Municipality","iso":"AZ-LA","qid":"Q228811"},"geometry":{"type":"Polygon","coordinates":[[[48.8471,38.788],[48.834,38.7267],[48.8634,38.7479],[48.8471,38.788]]]}},{"type":"Feature","id":"label-AZE-5562","properties":{"kind":"division-label","code":"AZE-5562","countryCode":"AZE","name":"Lankaran","localName":"Lankaran","labelEnglish":"Lankaran","labelLocal":"Lankaran","labelBoth":"Lankaran","type":"Municipality","iso":"AZ-LA","qid":"Q228811"},"geometry":{"type":"Point","coordinates":[48.8421,38.7585]}},{"type":"Feature","id":"AZE-2422","properties":{"kind":"division","code":"AZE-2422","countryCode":"AZE","name":"Nakhchivan","localName":"Nakhchivan","labelEnglish":"Nakhchivan","labelLocal":"Nakhchivan","labelBoth":"Nakhchivan","type":"Municipality","iso":"AZ-NX","qid":"Q230104"},"geometry":{"type":"Polygon","coordinates":[[[45.5309,39.245],[45.3501,39.243],[45.4676,39.1878],[45.5309,39.245]]]}},{"type":"Feature","id":"label-AZE-2422","properties":{"kind":"division-label","code":"AZE-2422","countryCode":"AZE","name":"Nakhchivan","localName":"Nakhchivan","labelEnglish":"Nakhchivan","labelLocal":"Nakhchivan","labelBoth":"Nakhchivan","type":"Municipality","iso":"AZ-NX","qid":"Q230104"},"geometry":{"type":"Point","coordinates":[45.4212,39.2127]}},{"type":"Feature","id":"AZE-1737","properties":{"kind":"division","code":"AZE-1737","countryCode":"AZE","name":"Susa","localName":"Susa","labelEnglish":"Susa","labelLocal":"Susa","labelBoth":"Susa","type":"District","iso":"AZ-SUS","qid":null},"geometry":{"type":"Polygon","coordinates":[[[46.741,39.7718],[46.5403,39.7577],[46.7356,39.5888],[46.7894,39.6555],[46.7769,39.7568],[46.7436,39.7451],[46.741,39.7718]]]}},{"type":"Feature","id":"label-AZE-1737","properties":{"kind":"division-label","code":"AZE-1737","countryCode":"AZE","name":"Susa","localName":"Susa","labelEnglish":"Susa","labelLocal":"Susa","labelBoth":"Susa","type":"District","iso":"AZ-SUS","qid":null},"geometry":{"type":"Point","coordinates":[46.658,39.7027]}},{"type":"Feature","id":"AZE-1739","properties":{"kind":"division","code":"AZE-1739","countryCode":"AZE","name":"Khojali","localName":"Khojali","labelEnglish":"Khojali","labelLocal":"Khojali","labelBoth":"Khojali","type":"District","iso":"AZ-XCI","qid":"Q330790"},"geometry":{"type":"Polygon","coordinates":[[[46.741,39.7718],[46.7769,39.7568],[46.7894,39.6555],[46.8527,39.7953],[46.6979,40.0182],[46.451,39.9581],[46.5403,39.7577],[46.741,39.7718]],[[46.7598,39.8001],[46.7411,39.8317],[46.805,39.8453],[46.7598,39.8001]]]}},{"type":"Feature","id":"label-AZE-1739","properties":{"kind":"division-label","code":"AZE-1739","countryCode":"AZE","name":"Khojali","localName":"Khojali","labelEnglish":"Khojali","labelLocal":"Khojali","labelBoth":"Khojali","type":"District","iso":"AZ-XCI","qid":"Q330790"},"geometry":{"type":"Point","coordinates":[46.6804,39.8925]}},{"type":"Feature","id":"AZE-5565","properties":{"kind":"division","code":"AZE-5565","countryCode":"AZE","name":"Shusha","localName":"Shusha","labelEnglish":"Shusha","labelLocal":"Shusha","labelBoth":"Shusha","type":"Municipality","iso":"AZ-X01~","qid":"Q388960"},"geometry":{"type":"Polygon","coordinates":[[[46.741,39.7718],[46.7436,39.7451],[46.7769,39.7568],[46.741,39.7718]]]}},{"type":"Feature","id":"label-AZE-5565","properties":{"kind":"division-label","code":"AZE-5565","countryCode":"AZE","name":"Shusha","localName":"Shusha","labelEnglish":"Shusha","labelLocal":"Shusha","labelBoth":"Shusha","type":"Municipality","iso":"AZ-X01~","qid":"Q388960"},"geometry":{"type":"Point","coordinates":[46.7523,39.7618]}},{"type":"Feature","id":"AZE-1691","properties":{"kind":"division","code":"AZE-1691","countryCode":"AZE","name":"Agdam","localName":"Agdam","labelEnglish":"Agdam","labelLocal":"Agdam","labelBoth":"Agdam","type":"District","iso":"AZ-AGM","qid":"Q201647"},"geometry":{"type":"Polygon","coordinates":[[[46.6979,40.0182],[46.8527,39.7953],[47.249,39.857],[47.0945,39.9256],[47.2289,40.1698],[47.0863,40.1669],[46.7616,40.033],[46.6979,40.0182]]]}},{"type":"Feature","id":"label-AZE-1691","properties":{"kind":"division-label","code":"AZE-1691","countryCode":"AZE","name":"Agdam","localName":"Agdam","labelEnglish":"Agdam","labelLocal":"Agdam","labelBoth":"Agdam","type":"District","iso":"AZ-AGM","qid":"Q201647"},"geometry":{"type":"Point","coordinates":[46.9918,40.0455]}},{"type":"Feature","id":"AZE-1738","properties":{"kind":"division","code":"AZE-1738","countryCode":"AZE","name":"Tartar","localName":"Tartar","labelEnglish":"Tartar","labelLocal":"Tartar","labelBoth":"Tartar","type":"District","iso":"AZ-TAR","qid":"Q477168"},"geometry":{"type":"Polygon","coordinates":[[[47.0863,40.1669],[46.9693,40.4157],[46.924,40.48],[46.5345,40.3131],[46.7616,40.033],[47.0863,40.1669]]]}},{"type":"Feature","id":"label-AZE-1738","properties":{"kind":"division-label","code":"AZE-1738","countryCode":"AZE","name":"Tartar","localName":"Tartar","labelEnglish":"Tartar","labelLocal":"Tartar","labelBoth":"Tartar","type":"District","iso":"AZ-TAR","qid":"Q477168"},"geometry":{"type":"Point","coordinates":[46.7929,40.2547]}},{"type":"Feature","id":"AZE-1681","properties":{"kind":"division","code":"AZE-1681","countryCode":"AZE","name":"Goranboy","localName":"Goranboy","labelEnglish":"Goranboy","labelLocal":"Goranboy","labelBoth":"Goranboy","type":"District","iso":"AZ-GOR","qid":"Q330843"},"geometry":{"type":"Polygon","coordinates":[[[46.5345,40.3131],[46.924,40.48],[46.7723,40.6511],[46.7597,40.966],[46.4707,40.6818],[46.3178,40.2762],[46.5345,40.3131]],[[46.8214,40.4956],[46.8272,40.5202],[46.8396,40.5011],[46.8214,40.4956]]]}},{"type":"Feature","id":"label-AZE-1681","properties":{"kind":"division-label","code":"AZE-1681","countryCode":"AZE","name":"Goranboy","localName":"Goranboy","labelEnglish":"Goranboy","labelLocal":"Goranboy","labelBoth":"Goranboy","type":"District","iso":"AZ-GOR","qid":"Q330843"},"geometry":{"type":"Point","coordinates":[46.645,40.5463]}},{"type":"Feature","id":"AZE-1734","properties":{"kind":"division","code":"AZE-1734","countryCode":"AZE","name":"Khojavend","localName":"Khojavend","labelEnglish":"Khojavend","labelLocal":"Khojavend","labelBoth":"Khojavend","type":"District","iso":"AZ-XVD","qid":"Q330813"},"geometry":{"type":"Polygon","coordinates":[[[46.8527,39.7953],[46.7894,39.6555],[46.7356,39.5888],[46.6407,39.4835],[46.7335,39.4163],[47.0534,39.466],[47.3115,39.708],[47.249,39.857],[46.8527,39.7953]]]}},{"type":"Feature","id":"label-AZE-1734","properties":{"kind":"division-label","code":"AZE-1734","countryCode":"AZE","name":"Khojavend","localName":"Khojavend","labelEnglish":"Khojavend","labelLocal":"Khojavend","labelBoth":"Khojavend","type":"District","iso":"AZ-XVD","qid":"Q330813"},"geometry":{"type":"Point","coordinates":[46.99,39.6307]}},{"type":"Feature","id":"AZE-1694","properties":{"kind":"division","code":"AZE-1694","countryCode":"AZE","name":"Hajigabul","localName":"Hajigabul","labelEnglish":"Hajigabul","labelLocal":"Hajigabul","labelBoth":"Hajigabul","type":"District","iso":"AZ-HAC","qid":"Q476690"},"geometry":{"type":"Polygon","coordinates":[[[48.8506,40.3285],[48.7469,40.3447],[48.4737,40.3313],[48.4401,40.2784],[48.4575,40.1378],[48.8734,39.9816],[48.9315,39.9139],[49.3568,39.8121],[49.2919,39.953],[48.8506,40.3285]]]}},{"type":"Feature","id":"label-AZE-1694","properties":{"kind":"division-label","code":"AZE-1694","countryCode":"AZE","name":"Hajigabul","localName":"Hajigabul","labelEnglish":"Hajigabul","labelLocal":"Hajigabul","labelBoth":"Hajigabul","type":"District","iso":"AZ-HAC","qid":"Q476690"},"geometry":{"type":"Point","coordinates":[48.8984,40.1106]}},{"type":"Feature","id":"AZE-1690","properties":{"kind":"division","code":"AZE-1690","countryCode":"AZE","name":"Absheron","localName":"Absheron","labelEnglish":"Absheron","labelLocal":"Absheron","labelBoth":"Absheron","type":"District","iso":"AZ-ABS","qid":"Q179538"},"geometry":{"type":"Polygon","coordinates":[[[48.8506,40.3285],[49.2919,39.953],[49.4193,40.3981],[49.6904,40.5534],[49.4827,40.6368],[49.2631,40.5056],[48.8506,40.3285]]]}},{"type":"Feature","id":"label-AZE-1690","properties":{"kind":"division-label","code":"AZE-1690","countryCode":"AZE","name":"Absheron","localName":"Absheron","labelEnglish":"Absheron","labelLocal":"Absheron","labelBoth":"Absheron","type":"District","iso":"AZ-ABS","qid":"Q179538"},"geometry":{"type":"Point","coordinates":[49.3694,40.3278]}},{"type":"Feature","id":"AZE-1680","properties":{"kind":"division","code":"AZE-1680","countryCode":"AZE","name":"Goygol","localName":"Goygol","labelEnglish":"Goygol","labelLocal":"Goygol","labelBoth":"Goygol","type":"District","iso":"AZ-GYG","qid":"Q388087"},"geometry":{"type":"Polygon","coordinates":[[[46.4707,40.6818],[46.4118,40.6854],[46.3459,40.6226],[46.3407,40.7246],[46.2773,40.8329],[46.079,40.6472],[46.1558,40.3075],[46.3178,40.2762],[46.4707,40.6818]]]}},{"type":"Feature","id":"label-AZE-1680","properties":{"kind":"division-label","code":"AZE-1680","countryCode":"AZE","name":"Goygol","localName":"Goygol","labelEnglish":"Goygol","labelLocal":"Goygol","labelBoth":"Goygol","type":"District","iso":"AZ-GYG","qid":"Q388087"},"geometry":{"type":"Point","coordinates":[46.295,40.4627]}},{"type":"Feature","id":"AZE-1706","properties":{"kind":"division","code":"AZE-1706","countryCode":"AZE","name":"Kurdamir","localName":"Kurdamir","labelEnglish":"Kurdamir","labelLocal":"Kurdamir","labelBoth":"Kurdamir","type":"District","iso":"AZ-KUR","qid":"Q688589"},"geometry":{"type":"Polygon","coordinates":[[[48.4401,40.2784],[48.1084,40.5323],[48.0272,40.5129],[47.9926,40.4417],[47.9343,40.3132],[47.8512,40.1009],[48.3172,40.0398],[48.4575,40.1378],[48.4401,40.2784]]]}},{"type":"Feature","id":"label-AZE-1706","properties":{"kind":"division-label","code":"AZE-1706","countryCode":"AZE","name":"Kurdamir","localName":"Kurdamir","labelEnglish":"Kurdamir","labelLocal":"Kurdamir","labelBoth":"Kurdamir","type":"District","iso":"AZ-KUR","qid":"Q688589"},"geometry":{"type":"Point","coordinates":[48.1586,40.2443]}},{"type":"Feature","id":"AZE-1721","properties":{"kind":"division","code":"AZE-1721","countryCode":"AZE","name":"Zardab","localName":"Zardab","labelEnglish":"Zardab","labelLocal":"Zardab","labelBoth":"Zardab","type":"District","iso":"AZ-ZAR","qid":"Q249293"},"geometry":{"type":"Polygon","coordinates":[[[47.9343,40.3132],[47.523,40.3907],[47.4428,40.2984],[47.4843,40.2537],[47.7566,40.1595],[47.791,40.114],[47.8512,40.1009],[47.9343,40.3132]]]}},{"type":"Feature","id":"label-AZE-1721","properties":{"kind":"division-label","code":"AZE-1721","countryCode":"AZE","name":"Zardab","localName":"Zardab","labelEnglish":"Zardab","labelLocal":"Zardab","labelBoth":"Zardab","type":"District","iso":"AZ-ZAR","qid":"Q249293"},"geometry":{"type":"Point","coordinates":[47.6936,40.2395]}},{"type":"Feature","id":"AZE-1714","properties":{"kind":"division","code":"AZE-1714","countryCode":"AZE","name":"Sabirabad","localName":"Sabirabad","labelEnglish":"Sabirabad","labelLocal":"Sabirabad","labelBoth":"Sabirabad","type":"District","iso":"AZ-SAB","qid":"Q382132"},"geometry":{"type":"Polygon","coordinates":[[[48.4575,40.1378],[48.3172,40.0398],[48.2496,39.9797],[48.6936,39.8549],[48.5821,39.6517],[48.767,39.6057],[48.9917,39.7289],[48.9096,39.9057],[48.8734,39.9816],[48.4575,40.1378]]]}},{"type":"Feature","id":"label-AZE-1714","properties":{"kind":"division-label","code":"AZE-1714","countryCode":"AZE","name":"Sabirabad","localName":"Sabirabad","labelEnglish":"Sabirabad","labelLocal":"Sabirabad","labelBoth":"Sabirabad","type":"District","iso":"AZ-SAB","qid":"Q382132"},"geometry":{"type":"Point","coordinates":[48.8122,39.8179]}},{"type":"Feature","id":"AZE-5563","properties":{"kind":"division","code":"AZE-5563","countryCode":"AZE","name":"Şirvan","localName":"Şirvan","labelEnglish":"Şirvan","labelLocal":"Şirvan","labelBoth":"Şirvan","type":"Municipality","iso":"AZ-SR","qid":"Q241116"},"geometry":{"type":"Polygon","coordinates":[[[48.9096,39.9057],[48.9315,39.9139],[48.8734,39.9816],[48.9096,39.9057]]]}},{"type":"Feature","id":"label-AZE-5563","properties":{"kind":"division-label","code":"AZE-5563","countryCode":"AZE","name":"Şirvan","localName":"Şirvan","labelEnglish":"Şirvan","labelLocal":"Şirvan","labelBoth":"Şirvan","type":"Municipality","iso":"AZ-SR","qid":"Q241116"},"geometry":{"type":"Point","coordinates":[48.9257,39.9474]}},{"type":"Feature","id":"AZE-1713","properties":{"kind":"division","code":"AZE-1713","countryCode":"AZE","name":"Saatly","localName":"Saatly","labelEnglish":"Saatly","labelLocal":"Saatly","labelBoth":"Saatly","type":"District","iso":"AZ-SAT","qid":"Q601105"},"geometry":{"type":"Polygon","coordinates":[[[48.5821,39.6517],[48.6936,39.8549],[48.2496,39.9797],[48.3794,39.6217],[48.5821,39.6517]]]}},{"type":"Feature","id":"label-AZE-1713","properties":{"kind":"division-label","code":"AZE-1713","countryCode":"AZE","name":"Saatly","localName":"Saatly","labelEnglish":"Saatly","labelLocal":"Saatly","labelBoth":"Saatly","type":"District","iso":"AZ-SAT","qid":"Q601105"},"geometry":{"type":"Point","coordinates":[48.4591,39.7892]}},{"type":"Feature","id":"AZE-1696","properties":{"kind":"division","code":"AZE-1696","countryCode":"AZE","name":"Barda","localName":"Barda","labelEnglish":"Barda","labelLocal":"Barda","labelBoth":"Barda","type":"District","iso":"AZ-BAR","qid":"Q330857"},"geometry":{"type":"Polygon","coordinates":[[[47.2289,40.1698],[47.4843,40.2537],[47.4428,40.2984],[47.2077,40.5626],[46.9693,40.4157],[47.0863,40.1669],[47.2289,40.1698]]]}},{"type":"Feature","id":"label-AZE-1696","properties":{"kind":"division-label","code":"AZE-1696","countryCode":"AZE","name":"Barda","localName":"Barda","labelEnglish":"Barda","labelLocal":"Barda","labelBoth":"Barda","type":"District","iso":"AZ-BAR","qid":"Q330857"},"geometry":{"type":"Point","coordinates":[47.2467,40.3534]}},{"type":"Feature","id":"AZE-1685","properties":{"kind":"division","code":"AZE-1685","countryCode":"AZE","name":"Shamkir","localName":"Shamkir","labelEnglish":"Shamkir","labelLocal":"Shamkir","labelBoth":"Shamkir","type":"District","iso":"AZ-SKR","qid":"Q467491"},"geometry":{"type":"Polygon","coordinates":[[[46.2773,40.8329],[46.2047,41.1367],[45.7226,40.8232],[45.9117,40.5572],[46.079,40.6472],[46.2773,40.8329]]]}},{"type":"Feature","id":"label-AZE-1685","properties":{"kind":"division-label","code":"AZE-1685","countryCode":"AZE","name":"Shamkir","localName":"Shamkir","labelEnglish":"Shamkir","labelLocal":"Shamkir","labelBoth":"Shamkir","type":"District","iso":"AZ-SKR","qid":"Q467491"},"geometry":{"type":"Point","coordinates":[46.0161,40.8317]}},{"type":"Feature","id":"AZE-1693","properties":{"kind":"division","code":"AZE-1693","countryCode":"AZE","name":"Agsu","localName":"Agsu","labelEnglish":"Agsu","labelLocal":"Agsu","labelBoth":"Agsu","type":"District","iso":"AZ-AGU","qid":"Q330800"},"geometry":{"type":"Polygon","coordinates":[[[48.4737,40.3313],[48.6521,40.4869],[48.4355,40.5671],[48.4612,40.7939],[48.1084,40.5323],[48.4401,40.2784],[48.4737,40.3313]]]}},{"type":"Feature","id":"label-AZE-1693","properties":{"kind":"division-label","code":"AZE-1693","countryCode":"AZE","name":"Agsu","localName":"Agsu","labelEnglish":"Agsu","labelLocal":"Agsu","labelBoth":"Agsu","type":"District","iso":"AZ-AGU","qid":"Q330800"},"geometry":{"type":"Point","coordinates":[48.3659,40.5091]}},{"type":"Feature","id":"AZE-1716","properties":{"kind":"division","code":"AZE-1716","countryCode":"AZE","name":"Shamakhi","localName":"Shamakhi","labelEnglish":"Shamakhi","labelLocal":"Shamakhi","labelBoth":"Shamakhi","type":"District","iso":"AZ-SMI","qid":"Q330839"},"geometry":{"type":"Polygon","coordinates":[[[48.7469,40.3447],[48.8081,40.7617],[48.7819,40.8551],[48.6801,40.8951],[48.3892,40.9485],[48.4612,40.7939],[48.4355,40.5671],[48.6521,40.4869],[48.4737,40.3313],[48.7469,40.3447]]]}},{"type":"Feature","id":"label-AZE-1716","properties":{"kind":"division-label","code":"AZE-1716","countryCode":"AZE","name":"Shamakhi","localName":"Shamakhi","labelEnglish":"Shamakhi","labelLocal":"Shamakhi","labelBoth":"Shamakhi","type":"District","iso":"AZ-SMI","qid":"Q330839"},"geometry":{"type":"Point","coordinates":[48.5986,40.3768]}},{"type":"Feature","id":"AZE-1728","properties":{"kind":"division","code":"AZE-1728","countryCode":"AZE","name":"Quba","localName":"Quba","labelEnglish":"Quba","labelLocal":"Quba","labelBoth":"Quba","type":"District","iso":"AZ-QBA","qid":"Q457499"},"geometry":{"type":"Polygon","coordinates":[[[48.6801,40.8951],[48.7441,41.3485],[48.5755,41.4835],[47.9265,41.1577],[48.0311,41.0631],[48.3892,40.9485],[48.6801,40.8951]]]}},{"type":"Feature","id":"label-AZE-1728","properties":{"kind":"division-label","code":"AZE-1728","countryCode":"AZE","name":"Quba","localName":"Quba","labelEnglish":"Quba","labelLocal":"Quba","labelBoth":"Quba","type":"District","iso":"AZ-QBA","qid":"Q457499"},"geometry":{"type":"Point","coordinates":[48.3368,41.1847]}},{"type":"Feature","id":"AZE-1718","properties":{"kind":"division","code":"AZE-1718","countryCode":"AZE","name":"Ujar","localName":"Ujar","labelEnglish":"Ujar","labelLocal":"Ujar","labelBoth":"Ujar","type":"District","iso":"AZ-UCA","qid":"Q476703"},"geometry":{"type":"Polygon","coordinates":[[[47.9926,40.4417],[47.5864,40.5254],[47.523,40.3907],[47.9343,40.3132],[47.9926,40.4417]]]}},{"type":"Feature","id":"label-AZE-1718","properties":{"kind":"division-label","code":"AZE-1718","countryCode":"AZE","name":"Ujar","localName":"Ujar","labelEnglish":"Ujar","labelLocal":"Ujar","labelBoth":"Ujar","type":"District","iso":"AZ-UCA","qid":"Q476703"},"geometry":{"type":"Point","coordinates":[47.729,40.3925]}},{"type":"Feature","id":"AZE-1711","properties":{"kind":"division","code":"AZE-1711","countryCode":"AZE","name":"Gobustan","localName":"Gobustan","labelEnglish":"Gobustan","labelLocal":"Gobustan","labelBoth":"Gobustan","type":"District","iso":"AZ-QOB","qid":"Q457508"},"geometry":{"type":"Polygon","coordinates":[[[48.7469,40.3447],[48.8506,40.3285],[49.2631,40.5056],[48.8081,40.7617],[48.7469,40.3447]]]}},{"type":"Feature","id":"label-AZE-1711","properties":{"kind":"division-label","code":"AZE-1711","countryCode":"AZE","name":"Gobustan","localName":"Gobustan","labelEnglish":"Gobustan","labelLocal":"Gobustan","labelBoth":"Gobustan","type":"District","iso":"AZ-QOB","qid":"Q457508"},"geometry":{"type":"Point","coordinates":[48.9623,40.4977]}},{"type":"Feature","id":"AZE-1705","properties":{"kind":"division","code":"AZE-1705","countryCode":"AZE","name":"Ismayilli","localName":"Ismayilli","labelEnglish":"Ismayilli","labelLocal":"Ismayilli","labelBoth":"Ismayilli","type":"District","iso":"AZ-ISM","qid":"Q344252"},"geometry":{"type":"Polygon","coordinates":[[[48.1084,40.5323],[48.4612,40.7939],[48.3892,40.9485],[48.0311,41.0631],[47.7325,40.675],[48.0272,40.5129],[48.1084,40.5323]]]}},{"type":"Feature","id":"label-AZE-1705","properties":{"kind":"division-label","code":"AZE-1705","countryCode":"AZE","name":"Ismayilli","localName":"Ismayilli","labelEnglish":"Ismayilli","labelLocal":"Ismayilli","labelBoth":"Ismayilli","type":"District","iso":"AZ-ISM","qid":"Q344252"},"geometry":{"type":"Point","coordinates":[48.1125,40.7896]}},{"type":"Feature","id":"AZE-1688","properties":{"kind":"division","code":"AZE-1688","countryCode":"AZE","name":"Yevlakh","localName":"Yevlakh","labelEnglish":"Yevlakh","labelLocal":"Yevlakh","labelBoth":"Yevlakh","type":"District","iso":"AZ-YEV","qid":"Q458524"},"geometry":{"type":"Polygon","coordinates":[[[46.9693,40.4157],[47.2077,40.5626],[47.2628,40.7889],[46.93,40.9109],[46.7597,40.966],[46.7723,40.6511],[46.924,40.48],[46.9693,40.4157]],[[46.9894,40.7698],[47.0487,40.7503],[46.9679,40.7253],[46.9894,40.7698]],[[47.1736,40.5698],[47.1108,40.6393],[47.1895,40.6392],[47.1736,40.5698]]]}},{"type":"Feature","id":"label-AZE-1688","properties":{"kind":"division-label","code":"AZE-1688","countryCode":"AZE","name":"Yevlakh","localName":"Yevlakh","labelEnglish":"Yevlakh","labelLocal":"Yevlakh","labelBoth":"Yevlakh","type":"District","iso":"AZ-YEV","qid":"Q458524"},"geometry":{"type":"Point","coordinates":[46.9101,40.6958]}},{"type":"Feature","id":"AZE-1679","properties":{"kind":"division","code":"AZE-1679","countryCode":"AZE","name":"Ganja","localName":"Ganja","labelEnglish":"Ganja","labelLocal":"Ganja","labelBoth":"Ganja","type":"Municipality","iso":"AZ-GA","qid":"Q131290"},"geometry":{"type":"Polygon","coordinates":[[[46.3407,40.7246],[46.3459,40.6226],[46.4118,40.6854],[46.3407,40.7246]]]}},{"type":"Feature","id":"label-AZE-1679","properties":{"kind":"division-label","code":"AZE-1679","countryCode":"AZE","name":"Ganja","localName":"Ganja","labelEnglish":"Ganja","labelLocal":"Ganja","labelBoth":"Ganja","type":"Municipality","iso":"AZ-GA","qid":"Q131290"},"geometry":{"type":"Point","coordinates":[46.3206,40.6864]}},{"type":"Feature","id":"AZE-1683","properties":{"kind":"division","code":"AZE-1683","countryCode":"AZE","name":"Mingachevir","localName":"Mingachevir","labelEnglish":"Mingachevir","labelLocal":"Mingachevir","labelBoth":"Mingachevir","type":"Municipality","iso":"AZ-MI","qid":"Q230932"},"geometry":{"type":"Polygon","coordinates":[[[46.9894,40.7698],[46.9679,40.7253],[47.0487,40.7503],[46.9894,40.7698]]]}},{"type":"Feature","id":"label-AZE-1683","properties":{"kind":"division-label","code":"AZE-1683","countryCode":"AZE","name":"Mingachevir","localName":"Mingachevir","labelEnglish":"Mingachevir","labelLocal":"Mingachevir","labelBoth":"Mingachevir","type":"Municipality","iso":"AZ-MI","qid":"Q230932"},"geometry":{"type":"Point","coordinates":[46.9846,40.7508]}},{"type":"Feature","id":"AZE-1703","properties":{"kind":"division","code":"AZE-1703","countryCode":"AZE","name":"Goychay","localName":"Goychay","labelEnglish":"Goychay","labelLocal":"Goychay","labelBoth":"Goychay","type":"District","iso":"AZ-GOY","qid":"Q477163"},"geometry":{"type":"Polygon","coordinates":[[[48.0272,40.5129],[47.7325,40.675],[47.5886,40.6395],[47.5864,40.5254],[47.9926,40.4417],[48.0272,40.5129]]]}},{"type":"Feature","id":"label-AZE-1703","properties":{"kind":"division-label","code":"AZE-1703","countryCode":"AZE","name":"Goychay","localName":"Goychay","labelEnglish":"Goychay","labelLocal":"Goychay","labelBoth":"Goychay","type":"District","iso":"AZ-GOY","qid":"Q477163"},"geometry":{"type":"Point","coordinates":[47.8172,40.569]}},{"type":"Feature","id":"AZE-1692","properties":{"kind":"division","code":"AZE-1692","countryCode":"AZE","name":"Agdash","localName":"Agdash","labelEnglish":"Agdash","labelLocal":"Agdash","labelBoth":"Agdash","type":"District","iso":"AZ-AGS","qid":"Q275784"},"geometry":{"type":"Polygon","coordinates":[[[47.523,40.3907],[47.5864,40.5254],[47.5886,40.6395],[47.5256,40.7615],[47.2628,40.7889],[47.2077,40.5626],[47.4428,40.2984],[47.523,40.3907]]]}},{"type":"Feature","id":"label-AZE-1692","properties":{"kind":"division-label","code":"AZE-1692","countryCode":"AZE","name":"Agdash","localName":"Agdash","labelEnglish":"Agdash","labelLocal":"Agdash","labelBoth":"Agdash","type":"District","iso":"AZ-AGS","qid":"Q275784"},"geometry":{"type":"Point","coordinates":[47.4132,40.568]}},{"type":"Feature","id":"AZE-1722","properties":{"kind":"division","code":"AZE-1722","countryCode":"AZE","name":"Aghjabadi","localName":"Aghjabadi","labelEnglish":"Aghjabadi","labelLocal":"Aghjabadi","labelBoth":"Aghjabadi","type":"District","iso":"AZ-AGC","qid":"Q330818"},"geometry":{"type":"Polygon","coordinates":[[[47.2289,40.1698],[47.0945,39.9256],[47.249,39.857],[47.3115,39.708],[47.4659,39.7383],[47.7566,40.1595],[47.4843,40.2537],[47.2289,40.1698]]]}},{"type":"Feature","id":"label-AZE-1722","properties":{"kind":"division-label","code":"AZE-1722","countryCode":"AZE","name":"Aghjabadi","localName":"Aghjabadi","labelEnglish":"Aghjabadi","labelLocal":"Aghjabadi","labelBoth":"Aghjabadi","type":"District","iso":"AZ-AGC","qid":"Q330818"},"geometry":{"type":"Point","coordinates":[47.4145,39.971]}},{"type":"Feature","id":"AZE-4838","properties":{"kind":"division","code":"AZE-4838","countryCode":"AZE","name":"Stepanakert","localName":"Stepanakert","labelEnglish":"Stepanakert","labelLocal":"Stepanakert","labelBoth":"Stepanakert","type":"District","iso":"AZ-XA","qid":"Q129352"},"geometry":{"type":"Polygon","coordinates":[[[46.7598,39.8001],[46.805,39.8453],[46.7411,39.8317],[46.7598,39.8001]]]}},{"type":"Feature","id":"label-AZE-4838","properties":{"kind":"division-label","code":"AZE-4838","countryCode":"AZE","name":"Stepanakert","localName":"Stepanakert","labelEnglish":"Stepanakert","labelLocal":"Stepanakert","labelBoth":"Stepanakert","type":"District","iso":"AZ-XA","qid":"Q129352"},"geometry":{"type":"Point","coordinates":[46.7662,39.8285]}},{"type":"Feature","id":"AZE-5566","properties":{"kind":"division","code":"AZE-5566","countryCode":"AZE","name":"Yevlakh","localName":"Yevlakh","labelEnglish":"Yevlakh","labelLocal":"Yevlakh","labelBoth":"Yevlakh","type":"Municipality","iso":"AZ-YEV","qid":"Q175459"},"geometry":{"type":"Polygon","coordinates":[[[47.1736,40.5698],[47.1895,40.6392],[47.1108,40.6393],[47.1736,40.5698]]]}},{"type":"Feature","id":"label-AZE-5566","properties":{"kind":"division-label","code":"AZE-5566","countryCode":"AZE","name":"Yevlakh","localName":"Yevlakh","labelEnglish":"Yevlakh","labelLocal":"Yevlakh","labelBoth":"Yevlakh","type":"Municipality","iso":"AZ-YEV","qid":"Q175459"},"geometry":{"type":"Point","coordinates":[47.1503,40.6019]}},{"type":"Feature","id":"AZE-5561","properties":{"kind":"division","code":"AZE-5561","countryCode":"AZE","name":"Naftalan","localName":"Naftalan","labelEnglish":"Naftalan","labelLocal":"Naftalan","labelBoth":"Naftalan","type":"Municipality","iso":"AZ-NA","qid":"Q21979624"},"geometry":{"type":"Polygon","coordinates":[[[46.8214,40.4956],[46.8396,40.5011],[46.8272,40.5202],[46.8214,40.4956]]]}},{"type":"Feature","id":"label-AZE-5561","properties":{"kind":"division-label","code":"AZE-5561","countryCode":"AZE","name":"Naftalan","localName":"Naftalan","labelEnglish":"Naftalan","labelLocal":"Naftalan","labelBoth":"Naftalan","type":"Municipality","iso":"AZ-NA","qid":"Q21979624"},"geometry":{"type":"Point","coordinates":[46.8275,40.5077]}},{"type":"Feature","id":"AZE-5564","properties":{"kind":"division","code":"AZE-5564","countryCode":"AZE","name":"Shaki","localName":"Shaki","labelEnglish":"Shaki","labelLocal":"Shaki","labelBoth":"Shaki","type":"Municipality","iso":"AZ-SA","qid":"Q234783"},"geometry":{"type":"Polygon","coordinates":[[[47.1889,41.1555],[47.1729,41.235],[47.148,41.164],[47.1889,41.1555]]]}},{"type":"Feature","id":"label-AZE-5564","properties":{"kind":"division-label","code":"AZE-5564","countryCode":"AZE","name":"Shaki","localName":"Shaki","labelEnglish":"Shaki","labelLocal":"Shaki","labelBoth":"Shaki","type":"Municipality","iso":"AZ-SA","qid":"Q234783"},"geometry":{"type":"Point","coordinates":[47.1885,41.1882]}}]}