{"type":"FeatureCollection","features":[{"type":"Feature","id":"BDI-2644","properties":{"kind":"division","code":"BDI-2644","countryCode":"BDI","name":"Muyinga","localName":"Muyinga","labelEnglish":"Muyinga","labelLocal":"Muyinga","labelBoth":"Muyinga","type":"Province","iso":"BI-MY","qid":"Q822571"},"geometry":{"type":"Polygon","coordinates":[[[30.5546,-2.4006],[30.3486,-2.3224],[30.4156,-2.5765],[30.0781,-2.781],[30.1868,-2.898],[30.3381,-3.1451],[30.4883,-2.9432],[30.4158,-2.8517],[30.5546,-2.4006]]]}},{"type":"Feature","id":"label-BDI-2644","properties":{"kind":"division-label","code":"BDI-2644","countryCode":"BDI","name":"Muyinga","localName":"Muyinga","labelEnglish":"Muyinga","labelLocal":"Muyinga","labelBoth":"Muyinga","type":"Province","iso":"BI-MY","qid":"Q822571"},"geometry":{"type":"Point","coordinates":[30.3161,-2.89215]}},{"type":"Feature","id":"BDI-2643","properties":{"kind":"division","code":"BDI-2643","countryCode":"BDI","name":"Kirundo","localName":"Kirundo","labelEnglish":"Kirundo","labelLocal":"Kirundo","labelBoth":"Kirundo","type":"Province","iso":"BI-KI","qid":"Q600840"},"geometry":{"type":"Polygon","coordinates":[[[30.3486,-2.3224],[30.1391,-2.4308],[29.9568,-2.327],[29.9037,-2.6379],[30.0781,-2.781],[30.4156,-2.5765],[30.3486,-2.3224]]]}},{"type":"Feature","id":"label-BDI-2643","properties":{"kind":"division-label","code":"BDI-2643","countryCode":"BDI","name":"Kirundo","localName":"Kirundo","labelEnglish":"Kirundo","labelLocal":"Kirundo","labelBoth":"Kirundo","type":"Province","iso":"BI-KI","qid":"Q600840"},"geometry":{"type":"Point","coordinates":[30.1647,-2.56414]}},{"type":"Feature","id":"BDI-2642","properties":{"kind":"division","code":"BDI-2642","countryCode":"BDI","name":"Ngozi","localName":"Ngozi","labelEnglish":"Ngozi","labelLocal":"Ngozi","labelBoth":"Ngozi","type":"Province","iso":"BI-NG","qid":"Q720852"},"geometry":{"type":"Polygon","coordinates":[[[29.9037,-2.6379],[29.6371,-2.7916],[29.878,-3.0585],[29.9076,-3.0869],[30.1868,-2.898],[30.0781,-2.781],[29.9037,-2.6379]]]}},{"type":"Feature","id":"label-BDI-2642","properties":{"kind":"division-label","code":"BDI-2642","countryCode":"BDI","name":"Ngozi","localName":"Ngozi","labelEnglish":"Ngozi","labelLocal":"Ngozi","labelBoth":"Ngozi","type":"Province","iso":"BI-NG","qid":"Q720852"},"geometry":{"type":"Point","coordinates":[29.896,-2.86902]}},{"type":"Feature","id":"BDI-2638","properties":{"kind":"division","code":"BDI-2638","countryCode":"BDI","name":"Cibitoke","localName":"Cibitoke","labelEnglish":"Cibitoke","labelLocal":"Cibitoke","labelBoth":"Cibitoke","type":"Province","iso":"BI-CI","qid":"Q505596"},"geometry":{"type":"Polygon","coordinates":[[[29.3095,-2.6901],[29.0154,-2.7207],[29.2415,-3.1042],[29.4949,-2.911],[29.4447,-2.807],[29.3095,-2.6901]]]}},{"type":"Feature","id":"label-BDI-2638","properties":{"kind":"division-label","code":"BDI-2638","countryCode":"BDI","name":"Cibitoke","localName":"Cibitoke","labelEnglish":"Cibitoke","labelLocal":"Cibitoke","labelBoth":"Cibitoke","type":"Province","iso":"BI-CI","qid":"Q505596"},"geometry":{"type":"Point","coordinates":[29.2407,-2.86742]}},{"type":"Feature","id":"BDI-2640","properties":{"kind":"division","code":"BDI-2640","countryCode":"BDI","name":"Kayanza","localName":"Kayanza","labelEnglish":"Kayanza","labelLocal":"Kayanza","labelBoth":"Kayanza","type":"Province","iso":"BI-KY","qid":"Q720848"},"geometry":{"type":"Polygon","coordinates":[[[29.6371,-2.7916],[29.4447,-2.807],[29.4949,-2.911],[29.5587,-3.0908],[29.8147,-3.1793],[29.878,-3.0585],[29.6371,-2.7916]]]}},{"type":"Feature","id":"label-BDI-2640","properties":{"kind":"division-label","code":"BDI-2640","countryCode":"BDI","name":"Kayanza","localName":"Kayanza","labelEnglish":"Kayanza","labelLocal":"Kayanza","labelBoth":"Kayanza","type":"Province","iso":"BI-KY","qid":"Q720848"},"geometry":{"type":"Point","coordinates":[29.6613,-3.02498]}},{"type":"Feature","id":"BDI-2632","properties":{"kind":"division","code":"BDI-2632","countryCode":"BDI","name":"Cankuzo","localName":"Cankuzo","labelEnglish":"Cankuzo","labelLocal":"Cankuzo","labelBoth":"Cankuzo","type":"Province","iso":"BI-CA","qid":"Q645033"},"geometry":{"type":"Polygon","coordinates":[[[30.4883,-2.9432],[30.3381,-3.1451],[30.2889,-3.1852],[30.6103,-3.3764],[30.7998,-3.2746],[30.8188,-2.9905],[30.4883,-2.9432]]]}},{"type":"Feature","id":"label-BDI-2632","properties":{"kind":"division-label","code":"BDI-2632","countryCode":"BDI","name":"Cankuzo","localName":"Cankuzo","labelEnglish":"Cankuzo","labelLocal":"Cankuzo","labelBoth":"Cankuzo","type":"Province","iso":"BI-CA","qid":"Q645033"},"geometry":{"type":"Point","coordinates":[30.5612,-3.11103]}},{"type":"Feature","id":"BDI-2635","properties":{"kind":"division","code":"BDI-2635","countryCode":"BDI","name":"Ruyigi","localName":"Ruyigi","labelEnglish":"Ruyigi","labelLocal":"Ruyigi","labelBoth":"Ruyigi","type":"Province","iso":"BI-RY","qid":"Q822578"},"geometry":{"type":"Polygon","coordinates":[[[30.6103,-3.3764],[30.2889,-3.1852],[30.0381,-3.3466],[30.1035,-3.6358],[30.3731,-3.7043],[30.6103,-3.3764]]]}},{"type":"Feature","id":"label-BDI-2635","properties":{"kind":"division-label","code":"BDI-2635","countryCode":"BDI","name":"Ruyigi","localName":"Ruyigi","labelEnglish":"Ruyigi","labelLocal":"Ruyigi","labelBoth":"Ruyigi","type":"Province","iso":"BI-RY","qid":"Q822578"},"geometry":{"type":"Point","coordinates":[30.3391,-3.44273]}},{"type":"Feature","id":"BDI-2634","properties":{"kind":"division","code":"BDI-2634","countryCode":"BDI","name":"Rutana","localName":"Rutana","labelEnglish":"Rutana","labelLocal":"Rutana","labelBoth":"Rutana","type":"Province","iso":"BI-RT","qid":"Q822566"},"geometry":{"type":"Polygon","coordinates":[[[30.3731,-3.7043],[30.1035,-3.6358],[29.9283,-3.8204],[29.8816,-4.0595],[30.1759,-4.04],[30.3731,-3.7043]]]}},{"type":"Feature","id":"label-BDI-2634","properties":{"kind":"division-label","code":"BDI-2634","countryCode":"BDI","name":"Rutana","localName":"Rutana","labelEnglish":"Rutana","labelLocal":"Rutana","labelBoth":"Rutana","type":"Province","iso":"BI-RT","qid":"Q822566"},"geometry":{"type":"Point","coordinates":[30.1331,-3.84824]}},{"type":"Feature","id":"BDI-2641","properties":{"kind":"division","code":"BDI-2641","countryCode":"BDI","name":"Makamba","localName":"Makamba","labelEnglish":"Makamba","labelLocal":"Makamba","labelBoth":"Makamba","type":"Province","iso":"BI-MA","qid":"Q823740"},"geometry":{"type":"Polygon","coordinates":[[[30.1759,-4.04],[29.8816,-4.0595],[29.3672,-4.189],[29.4042,-4.4498],[29.7328,-4.4633],[30.1759,-4.04]]]}},{"type":"Feature","id":"label-BDI-2641","properties":{"kind":"division-label","code":"BDI-2641","countryCode":"BDI","name":"Makamba","localName":"Makamba","labelEnglish":"Makamba","labelLocal":"Makamba","labelBoth":"Makamba","type":"Province","iso":"BI-MA","qid":"Q823740"},"geometry":{"type":"Point","coordinates":[29.771,-4.21622]}},{"type":"Feature","id":"BDI-2636","properties":{"kind":"division","code":"BDI-2636","countryCode":"BDI","name":"Bubanza","localName":"Bubanza","labelEnglish":"Bubanza","labelLocal":"Bubanza","labelBoth":"Bubanza","type":"Province","iso":"BI-BB","qid":"Q460538"},"geometry":{"type":"Polygon","coordinates":[[[29.2361,-3.2707],[29.5231,-3.28],[29.5587,-3.0908],[29.4949,-2.911],[29.2415,-3.1042],[29.2361,-3.2707]]]}},{"type":"Feature","id":"label-BDI-2636","properties":{"kind":"division-label","code":"BDI-2636","countryCode":"BDI","name":"Bubanza","localName":"Bubanza","labelEnglish":"Bubanza","labelLocal":"Bubanza","labelBoth":"Bubanza","type":"Province","iso":"BI-BB","qid":"Q460538"},"geometry":{"type":"Point","coordinates":[29.3862,-3.1045]}},{"type":"Feature","id":"BDI-4854","properties":{"kind":"division","code":"BDI-4854","countryCode":"BDI","name":"Bujumbura Rural","localName":"Bujumbura Rural","labelEnglish":"Bujumbura Rural","labelLocal":"Bujumbura Rural","labelBoth":"Bujumbura Rural","type":"Province","iso":"BI-BL","qid":"Q645043"},"geometry":{"type":"Polygon","coordinates":[[[29.2119,-3.4068],[29.4076,-3.3249],[29.2239,-3.5711],[29.2171,-3.7093],[29.4883,-3.717],[29.584,-3.5463],[29.5925,-3.3991],[29.5231,-3.28],[29.2361,-3.2707],[29.2119,-3.4068]]]}},{"type":"Feature","id":"label-BDI-4854","properties":{"kind":"division-label","code":"BDI-4854","countryCode":"BDI","name":"Bujumbura Rural","localName":"Bujumbura Rural","labelEnglish":"Bujumbura Rural","labelLocal":"Bujumbura Rural","labelBoth":"Bujumbura Rural","type":"Province","iso":"BI-BL","qid":"Q645043"},"geometry":{"type":"Point","coordinates":[29.4237,-3.61843]}},{"type":"Feature","id":"BDI-3364","properties":{"kind":"division","code":"BDI-3364","countryCode":"BDI","name":"Bujumbura Mairie","localName":"Bujumbura Mairie","labelEnglish":"Bujumbura Mairie","labelLocal":"Bujumbura Mairie","labelBoth":"Bujumbura Mairie","type":"Province","iso":"BI-BM","qid":"Q1816580"},"geometry":{"type":"Polygon","coordinates":[[[29.2239,-3.5711],[29.4076,-3.3249],[29.2119,-3.4068],[29.2239,-3.5711]]]}},{"type":"Feature","id":"label-BDI-3364","properties":{"kind":"division-label","code":"BDI-3364","countryCode":"BDI","name":"Bujumbura Mairie","localName":"Bujumbura Mairie","labelEnglish":"Bujumbura Mairie","labelLocal":"Bujumbura Mairie","labelBoth":"Bujumbura Mairie","type":"Province","iso":"BI-BM","qid":"Q1816580"},"geometry":{"type":"Point","coordinates":[29.3689,-3.39861]}},{"type":"Feature","id":"BDI-2637","properties":{"kind":"division","code":"BDI-2637","countryCode":"BDI","name":"Bururi","localName":"Bururi","labelEnglish":"Bururi","labelLocal":"Bururi","labelBoth":"Bururi","type":"Province","iso":"BI-BR","qid":"Q431385"},"geometry":{"type":"Polygon","coordinates":[[[29.3672,-4.189],[29.8816,-4.0595],[29.9283,-3.8204],[29.7261,-3.6403],[29.584,-3.5463],[29.4883,-3.717],[29.2171,-3.7093],[29.3672,-4.189]]]}},{"type":"Feature","id":"label-BDI-2637","properties":{"kind":"division-label","code":"BDI-2637","countryCode":"BDI","name":"Bururi","localName":"Bururi","labelEnglish":"Bururi","labelLocal":"Bururi","labelBoth":"Bururi","type":"Province","iso":"BI-BR","qid":"Q431385"},"geometry":{"type":"Point","coordinates":[29.5672,-3.85152]}},{"type":"Feature","id":"BDI-2639","properties":{"kind":"division","code":"BDI-2639","countryCode":"BDI","name":"Gitega","localName":"Gitega","labelEnglish":"Gitega","labelLocal":"Gitega","labelBoth":"Gitega","type":"Province","iso":"BI-GI","qid":"Q720843"},"geometry":{"type":"Polygon","coordinates":[[[29.878,-3.0585],[29.8147,-3.1793],[29.8434,-3.3561],[29.7261,-3.6403],[29.9283,-3.8204],[30.1035,-3.6358],[30.0381,-3.3466],[29.9076,-3.0869],[29.878,-3.0585]]]}},{"type":"Feature","id":"label-BDI-2639","properties":{"kind":"division-label","code":"BDI-2639","countryCode":"BDI","name":"Gitega","localName":"Gitega","labelEnglish":"Gitega","labelLocal":"Gitega","labelBoth":"Gitega","type":"Province","iso":"BI-GI","qid":"Q720843"},"geometry":{"type":"Point","coordinates":[29.9159,-3.48983]}},{"type":"Feature","id":"BDI-3365","properties":{"kind":"division","code":"BDI-3365","countryCode":"BDI","name":"Muramvya","localName":"Muramvya","labelEnglish":"Muramvya","labelLocal":"Muramvya","labelBoth":"Muramvya","type":"Province","iso":"BI-MU","qid":"Q671086"},"geometry":{"type":"Polygon","coordinates":[[[29.5587,-3.0908],[29.5231,-3.28],[29.5925,-3.3991],[29.8434,-3.3561],[29.8147,-3.1793],[29.5587,-3.0908]]]}},{"type":"Feature","id":"label-BDI-3365","properties":{"kind":"division-label","code":"BDI-3365","countryCode":"BDI","name":"Muramvya","localName":"Muramvya","labelEnglish":"Muramvya","labelLocal":"Muramvya","labelBoth":"Muramvya","type":"Province","iso":"BI-MU","qid":"Q671086"},"geometry":{"type":"Point","coordinates":[29.668,-3.2533]}},{"type":"Feature","id":"BDI-5588","properties":{"kind":"division","code":"BDI-5588","countryCode":"BDI","name":"Mwaro","localName":"Mwaro","labelEnglish":"Mwaro","labelLocal":"Mwaro","labelBoth":"Mwaro","type":"Province","iso":"BI-MW","qid":"Q847718"},"geometry":{"type":"Polygon","coordinates":[[[29.8434,-3.3561],[29.5925,-3.3991],[29.584,-3.5463],[29.7261,-3.6403],[29.8434,-3.3561]]]}},{"type":"Feature","id":"label-BDI-5588","properties":{"kind":"division-label","code":"BDI-5588","countryCode":"BDI","name":"Mwaro","localName":"Mwaro","labelEnglish":"Mwaro","labelLocal":"Mwaro","labelBoth":"Mwaro","type":"Province","iso":"BI-MW","qid":"Q847718"},"geometry":{"type":"Point","coordinates":[29.6943,-3.51787]}},{"type":"Feature","id":"BDI-2633","properties":{"kind":"division","code":"BDI-2633","countryCode":"BDI","name":"Karuzi","localName":"Karuzi","labelEnglish":"Karuzi","labelLocal":"Karuzi","labelBoth":"Karuzi","type":"Province","iso":"BI-KR","qid":"Q735463"},"geometry":{"type":"Polygon","coordinates":[[[29.9076,-3.0869],[30.0381,-3.3466],[30.2889,-3.1852],[30.3381,-3.1451],[30.1868,-2.898],[29.9076,-3.0869]]]}},{"type":"Feature","id":"label-BDI-2633","properties":{"kind":"division-label","code":"BDI-2633","countryCode":"BDI","name":"Karuzi","localName":"Karuzi","labelEnglish":"Karuzi","labelLocal":"Karuzi","labelBoth":"Karuzi","type":"Province","iso":"BI-KR","qid":"Q735463"},"geometry":{"type":"Point","coordinates":[30.1146,-3.14444]}}]}