{"type":"FeatureCollection","features":[{"type":"Feature","id":"BEL-3479","properties":{"kind":"division","code":"BEL-3479","countryCode":"BEL","name":"West Flanders","localName":"West Flanders","labelEnglish":"West Flanders","labelLocal":"West Flanders","labelBoth":"West Flanders","type":"Province","iso":"BE-VWV","qid":"Q1113"},"geometry":{"type":"Polygon","coordinates":[[[2.5218,51.0875],[2.59,50.842],[2.8667,50.7001],[3.0238,50.7683],[3.1628,50.7499],[3.4576,50.7685],[3.3988,51.2447],[3.3494,51.3752],[2.5218,51.0875]]]}},{"type":"Feature","id":"label-BEL-3479","properties":{"kind":"division-label","code":"BEL-3479","countryCode":"BEL","name":"West Flanders","localName":"West Flanders","labelEnglish":"West Flanders","labelLocal":"West Flanders","labelBoth":"West Flanders","type":"Province","iso":"BE-VWV","qid":"Q1113"},"geometry":{"type":"Point","coordinates":[3.02202,51.0312]}},{"type":"Feature","id":"BEL-2","properties":{"kind":"division","code":"BEL-2","countryCode":"BEL","name":"Hainaut","localName":"Hainaut","labelEnglish":"Hainaut","labelLocal":"Hainaut","labelBoth":"Hainaut","type":"Province","iso":"BE-WHT","qid":"Q1129"},"geometry":{"type":"Polygon","coordinates":[[[3.1628,50.7499],[3.271,50.5269],[3.6617,50.3193],[4.2037,50.252],[4.1317,49.975],[4.2159,49.9544],[4.4277,49.9336],[4.286,50.258],[4.5879,50.3225],[4.5768,50.5434],[4.0997,50.7071],[3.895,50.7342],[3.4576,50.7685],[3.1628,50.7499]]]}},{"type":"Feature","id":"label-BEL-2","properties":{"kind":"division-label","code":"BEL-2","countryCode":"BEL","name":"Hainaut","localName":"Hainaut","labelEnglish":"Hainaut","labelLocal":"Hainaut","labelBoth":"Hainaut","type":"Province","iso":"BE-WHT","qid":"Q1129"},"geometry":{"type":"Point","coordinates":[3.88925,50.521]}},{"type":"Feature","id":"BEL-3476","properties":{"kind":"division","code":"BEL-3476","countryCode":"BEL","name":"Namur","localName":"Namur","labelEnglish":"Namur","labelLocal":"Namur","labelBoth":"Namur","type":"Province","iso":"BE-WNA","qid":"Q1125"},"geometry":{"type":"Polygon","coordinates":[[[4.4277,49.9336],[4.8719,50.1398],[4.9684,49.797],[4.9911,50.0303],[5.2673,50.1203],[5.3924,50.3805],[4.9826,50.6434],[4.5768,50.5434],[4.5879,50.3225],[4.286,50.258],[4.4277,49.9336]]]}},{"type":"Feature","id":"label-BEL-3476","properties":{"kind":"division-label","code":"BEL-3476","countryCode":"BEL","name":"Namur","localName":"Namur","labelEnglish":"Namur","labelLocal":"Namur","labelBoth":"Namur","type":"Province","iso":"BE-WNA","qid":"Q1125"},"geometry":{"type":"Point","coordinates":[4.88712,50.3244]}},{"type":"Feature","id":"BEL-3477","properties":{"kind":"division","code":"BEL-3477","countryCode":"BEL","name":"Luxembourg","localName":"Luxembourg","labelEnglish":"Luxembourg","labelLocal":"Luxembourg","labelBoth":"Luxembourg","type":"Province","iso":"BE-WLX","qid":"Q2032"},"geometry":{"type":"Polygon","coordinates":[[[4.9684,49.797],[5.3912,49.6088],[5.4777,49.4952],[5.7907,49.5378],[5.8564,49.7058],[5.7149,49.8819],[6.023,50.1508],[5.5877,50.4006],[5.3924,50.3805],[5.2673,50.1203],[4.9911,50.0303],[4.9684,49.797]]]}},{"type":"Feature","id":"label-BEL-3477","properties":{"kind":"division-label","code":"BEL-3477","countryCode":"BEL","name":"Luxembourg","localName":"Luxembourg","labelEnglish":"Luxembourg","labelLocal":"Luxembourg","labelBoth":"Luxembourg","type":"Province","iso":"BE-WLX","qid":"Q2032"},"geometry":{"type":"Point","coordinates":[5.50117,49.9637]}},{"type":"Feature","id":"BEL-3481","properties":{"kind":"division","code":"BEL-3481","countryCode":"BEL","name":"Liège","localName":"Liège","labelEnglish":"Liège","labelLocal":"Liège","labelBoth":"Liège","type":"Province","iso":"BE-WLG","qid":"Q1127"},"geometry":{"type":"Polygon","coordinates":[[[6.023,50.1508],[6.1175,50.1205],[6.3734,50.3231],[5.9949,50.7499],[5.8913,50.7512],[5.7328,50.7589],[5.6574,50.8076],[5.1011,50.7098],[5.0191,50.7519],[4.9826,50.6434],[5.3924,50.3805],[5.5877,50.4006],[6.023,50.1508]]]}},{"type":"Feature","id":"label-BEL-3481","properties":{"kind":"division-label","code":"BEL-3481","countryCode":"BEL","name":"Liège","localName":"Liège","labelEnglish":"Liège","labelLocal":"Liège","labelBoth":"Liège","type":"Province","iso":"BE-WLG","qid":"Q1127"},"geometry":{"type":"Point","coordinates":[5.67651,50.5794]}},{"type":"Feature","id":"BEL-3478","properties":{"kind":"division","code":"BEL-3478","countryCode":"BEL","name":"East Flanders","localName":"East Flanders","labelEnglish":"East Flanders","labelLocal":"East Flanders","labelBoth":"East Flanders","type":"Province","iso":"BE-VOV","qid":"Q1114"},"geometry":{"type":"Polygon","coordinates":[[[3.3988,51.2447],[3.4576,50.7685],[3.895,50.7342],[4.2403,51.0381],[4.2987,51.2696],[4.2215,51.368],[3.8087,51.2053],[3.3988,51.2447]]]}},{"type":"Feature","id":"label-BEL-3478","properties":{"kind":"division-label","code":"BEL-3478","countryCode":"BEL","name":"East Flanders","localName":"East Flanders","labelEnglish":"East Flanders","labelLocal":"East Flanders","labelBoth":"East Flanders","type":"Province","iso":"BE-VOV","qid":"Q1114"},"geometry":{"type":"Point","coordinates":[3.83186,50.9749]}},{"type":"Feature","id":"BEL-3480","properties":{"kind":"division","code":"BEL-3480","countryCode":"BEL","name":"Antwerp","localName":"Antwerp","labelEnglish":"Antwerp","labelLocal":"Antwerp","labelBoth":"Antwerp","type":"Province","iso":"BE-VAN","qid":"Q1116"},"geometry":{"type":"Polygon","coordinates":[[[5.2395,51.2569],[5.0121,51.4743],[4.4831,51.4743],[4.2811,51.3689],[4.2611,51.3694],[4.2987,51.2696],[4.2403,51.0381],[4.9809,51.036],[5.2395,51.2569]]]}},{"type":"Feature","id":"label-BEL-3480","properties":{"kind":"division-label","code":"BEL-3480","countryCode":"BEL","name":"Antwerp","localName":"Antwerp","labelEnglish":"Antwerp","labelLocal":"Antwerp","labelBoth":"Antwerp","type":"Province","iso":"BE-VAN","qid":"Q1116"},"geometry":{"type":"Point","coordinates":[4.72122,51.2485]}},{"type":"Feature","id":"BEL-3","properties":{"kind":"division","code":"BEL-3","countryCode":"BEL","name":"Limburg","localName":"Limburg","labelEnglish":"Limburg","labelLocal":"Limburg","labelBoth":"Limburg","type":"Province","iso":"BE-VLI","qid":"Q1095"},"geometry":{"type":"Polygon","coordinates":[[[5.5514,51.2168],[5.2395,51.2569],[4.9809,51.036],[5.1011,50.7098],[5.6574,50.8076],[5.8291,51.1565],[5.5514,51.2168]]]}},{"type":"Feature","id":"label-BEL-3","properties":{"kind":"division-label","code":"BEL-3","countryCode":"BEL","name":"Limburg","localName":"Limburg","labelEnglish":"Limburg","labelLocal":"Limburg","labelBoth":"Limburg","type":"Province","iso":"BE-VLI","qid":"Q1095"},"geometry":{"type":"Point","coordinates":[5.41314,50.9954]}},{"type":"Feature","id":"BEL-3474","properties":{"kind":"division","code":"BEL-3474","countryCode":"BEL","name":"Brussels Capital","localName":"Brussels Capital","labelEnglish":"Brussels Capital","labelLocal":"Brussels Capital","labelBoth":"Brussels Capital","type":"Capital Region","iso":"BE-BRU","qid":"Q240"},"geometry":{"type":"Polygon","coordinates":[[[4.4797,50.7954],[4.4033,50.9148],[4.3276,50.779],[4.4797,50.7954]]]}},{"type":"Feature","id":"label-BEL-3474","properties":{"kind":"division-label","code":"BEL-3474","countryCode":"BEL","name":"Brussels Capital","localName":"Brussels Capital","labelEnglish":"Brussels Capital","labelLocal":"Brussels Capital","labelBoth":"Brussels Capital","type":"Capital Region","iso":"BE-BRU","qid":"Q240"},"geometry":{"type":"Point","coordinates":[4.36266,50.8332]}},{"type":"Feature","id":"BEL-3475","properties":{"kind":"division","code":"BEL-3475","countryCode":"BEL","name":"Flemish Brabant","localName":"Flemish Brabant","labelEnglish":"Flemish Brabant","labelLocal":"Flemish Brabant","labelBoth":"Flemish Brabant","type":"Province","iso":"BE-VBR","qid":"Q1118"},"geometry":{"type":"Polygon","coordinates":[[[4.0997,50.7071],[4.7496,50.8087],[5.0191,50.7519],[5.1011,50.7098],[4.9809,51.036],[4.2403,51.0381],[3.895,50.7342],[4.0997,50.7071]],[[4.4797,50.7954],[4.3276,50.779],[4.4033,50.9148],[4.4797,50.7954]]]}},{"type":"Feature","id":"label-BEL-3475","properties":{"kind":"division-label","code":"BEL-3475","countryCode":"BEL","name":"Flemish Brabant","localName":"Flemish Brabant","labelEnglish":"Flemish Brabant","labelLocal":"Flemish Brabant","labelBoth":"Flemish Brabant","type":"Province","iso":"BE-VBR","qid":"Q1118"},"geometry":{"type":"Point","coordinates":[4.53709,50.8709]}},{"type":"Feature","id":"BEL-3482","properties":{"kind":"division","code":"BEL-3482","countryCode":"BEL","name":"Walloon Brabant","localName":"Walloon Brabant","labelEnglish":"Walloon Brabant","labelLocal":"Walloon Brabant","labelBoth":"Walloon Brabant","type":"Province","iso":"BE-WBR","qid":"Q1122"},"geometry":{"type":"Polygon","coordinates":[[[4.0997,50.7071],[4.5768,50.5434],[4.9826,50.6434],[5.0191,50.7519],[4.7496,50.8087],[4.0997,50.7071]]]}},{"type":"Feature","id":"label-BEL-3482","properties":{"kind":"division-label","code":"BEL-3482","countryCode":"BEL","name":"Walloon Brabant","localName":"Walloon Brabant","labelEnglish":"Walloon Brabant","labelLocal":"Walloon Brabant","labelBoth":"Walloon Brabant","type":"Province","iso":"BE-WBR","qid":"Q1122"},"geometry":{"type":"Point","coordinates":[4.55466,50.6416]}}]}