{"type":"FeatureCollection","features":[{"type":"Feature","id":"BEN-2170","properties":{"kind":"division","code":"BEN-2170","countryCode":"BEN","name":"Alibori","localName":"Alibori","labelEnglish":"Alibori","labelLocal":"Alibori","labelBoth":"Alibori","type":"Department","iso":"BJ-AL","qid":"Q29165"},"geometry":{"type":"Polygon","coordinates":[[[3.5964,11.6958],[2.8443,12.3992],[2.3612,12.2189],[2.3902,11.8965],[2.2911,11.6748],[2.0154,11.4316],[2.264,11.0121],[2.255,10.5178],[2.9758,10.5209],[3.8372,10.6306],[3.7056,11.1207],[3.4833,11.3923],[3.5964,11.6958]]]}},{"type":"Feature","id":"label-BEN-2170","properties":{"kind":"division-label","code":"BEN-2170","countryCode":"BEN","name":"Alibori","localName":"Alibori","labelEnglish":"Alibori","labelLocal":"Alibori","labelBoth":"Alibori","type":"Department","iso":"BJ-AL","qid":"Q29165"},"geometry":{"type":"Point","coordinates":[2.92598,11.4305]}},{"type":"Feature","id":"BEN-2169","properties":{"kind":"division","code":"BEN-2169","countryCode":"BEN","name":"Borgou","localName":"Borgou","labelEnglish":"Borgou","labelLocal":"Borgou","labelBoth":"Borgou","type":"Department","iso":"BJ-BO","qid":"Q29136"},"geometry":{"type":"Polygon","coordinates":[[[3.8372,10.6306],[2.9758,10.5209],[2.255,10.5178],[2.2676,10.1349],[2.0919,10.0315],[2.1219,9.3997],[1.9755,9.3077],[2.051,8.8719],[2.1946,8.7767],[2.7229,8.7712],[2.7692,9.057],[3.0913,9.1264],[3.1286,9.4296],[3.5131,9.8466],[3.6648,10.1287],[3.5724,10.2857],[3.8372,10.6306]]]}},{"type":"Feature","id":"label-BEN-2169","properties":{"kind":"division-label","code":"BEN-2169","countryCode":"BEN","name":"Borgou","localName":"Borgou","labelEnglish":"Borgou","labelLocal":"Borgou","labelBoth":"Borgou","type":"Department","iso":"BJ-BO","qid":"Q29136"},"geometry":{"type":"Point","coordinates":[2.90363,9.80668]}},{"type":"Feature","id":"BEN-2179","properties":{"kind":"division","code":"BEN-2179","countryCode":"BEN","name":"Plateau","localName":"Plateau","labelEnglish":"Plateau","labelLocal":"Plateau","labelBoth":"Plateau","type":"Department","iso":"BJ-PL","qid":"Q32108"},"geometry":{"type":"Polygon","coordinates":[[[2.7176,7.6585],[2.4982,7.6591],[2.4275,7.426],[2.52,6.9932],[2.7188,6.5043],[2.7786,6.6988],[2.7176,7.6585]]]}},{"type":"Feature","id":"label-BEN-2179","properties":{"kind":"division-label","code":"BEN-2179","countryCode":"BEN","name":"Plateau","localName":"Plateau","labelEnglish":"Plateau","labelLocal":"Plateau","labelBoth":"Plateau","type":"Department","iso":"BJ-PL","qid":"Q32108"},"geometry":{"type":"Point","coordinates":[2.60483,7.15213]}},{"type":"Feature","id":"BEN-2171","properties":{"kind":"division","code":"BEN-2171","countryCode":"BEN","name":"Collines","localName":"Collines","labelEnglish":"Collines","labelLocal":"Collines","labelBoth":"Collines","type":"Department","iso":"BJ-CO","qid":"Q29141"},"geometry":{"type":"Polygon","coordinates":[[[2.6717,7.8934],[2.7424,8.5275],[2.7229,8.7712],[2.1946,8.7767],[2.2195,8.5151],[1.6072,8.5886],[1.6039,8.3675],[1.6229,7.6225],[1.8447,7.6324],[2.4275,7.426],[2.4982,7.6591],[2.7176,7.6585],[2.6717,7.8934]]]}},{"type":"Feature","id":"label-BEN-2171","properties":{"kind":"division-label","code":"BEN-2171","countryCode":"BEN","name":"Collines","localName":"Collines","labelEnglish":"Collines","labelLocal":"Collines","labelBoth":"Collines","type":"Department","iso":"BJ-CO","qid":"Q29141"},"geometry":{"type":"Point","coordinates":[2.17251,8.00513]}},{"type":"Feature","id":"BEN-2177","properties":{"kind":"division","code":"BEN-2177","countryCode":"BEN","name":"Ouémé","localName":"Ouémé","labelEnglish":"Ouémé","labelLocal":"Ouémé","labelBoth":"Ouémé","type":"Department","iso":"BJ-OU","qid":"Q29169"},"geometry":{"type":"Polygon","coordinates":[[[2.7119,6.474],[2.7188,6.5043],[2.52,6.9932],[2.3849,6.9206],[2.4676,6.3958],[2.484,6.3479],[2.7038,6.3684],[2.7119,6.474]]]}},{"type":"Feature","id":"label-BEN-2177","properties":{"kind":"division-label","code":"BEN-2177","countryCode":"BEN","name":"Ouémé","localName":"Ouémé","labelEnglish":"Ouémé","labelLocal":"Ouémé","labelBoth":"Ouémé","type":"Department","iso":"BJ-OU","qid":"Q29169"},"geometry":{"type":"Point","coordinates":[2.55171,6.59423]}},{"type":"Feature","id":"BEN-2181","properties":{"kind":"division","code":"BEN-2181","countryCode":"BEN","name":"Atakora","localName":"Atakora","labelEnglish":"Atakora","labelLocal":"Atakora","labelBoth":"Atakora","type":"Department","iso":"BJ-AK","qid":"Q29154"},"geometry":{"type":"Polygon","coordinates":[[[2.0154,11.4316],[1.4232,11.4537],[1.1186,11.0482],[0.9015,10.9927],[0.7813,10.693],[0.7688,10.3671],[0.9971,10.2165],[1.3439,9.9548],[2.0919,10.0315],[2.2676,10.1349],[2.255,10.5178],[2.264,11.0121],[2.0154,11.4316]]]}},{"type":"Feature","id":"label-BEN-2181","properties":{"kind":"division-label","code":"BEN-2181","countryCode":"BEN","name":"Atakora","localName":"Atakora","labelEnglish":"Atakora","labelLocal":"Atakora","labelBoth":"Atakora","type":"Department","iso":"BJ-AK","qid":"Q29154"},"geometry":{"type":"Point","coordinates":[1.55782,10.7035]}},{"type":"Feature","id":"BEN-2182","properties":{"kind":"division","code":"BEN-2182","countryCode":"BEN","name":"Donga","localName":"Donga","labelEnglish":"Donga","labelLocal":"Donga","labelBoth":"Donga","type":"Department","iso":"BJ-DO","qid":"Q29161"},"geometry":{"type":"Polygon","coordinates":[[[1.3439,9.9548],[1.4201,9.2923],[1.6012,9.0495],[1.6072,8.5886],[2.2195,8.5151],[2.1946,8.7767],[2.051,8.8719],[1.9755,9.3077],[2.1219,9.3997],[2.0919,10.0315],[1.3439,9.9548]]]}},{"type":"Feature","id":"label-BEN-2182","properties":{"kind":"division-label","code":"BEN-2182","countryCode":"BEN","name":"Donga","localName":"Donga","labelEnglish":"Donga","labelLocal":"Donga","labelBoth":"Donga","type":"Department","iso":"BJ-DO","qid":"Q29161"},"geometry":{"type":"Point","coordinates":[1.77142,9.31506]}},{"type":"Feature","id":"BEN-2178","properties":{"kind":"division","code":"BEN-2178","countryCode":"BEN","name":"Zou","localName":"Zou","labelEnglish":"Zou","labelLocal":"Zou","labelBoth":"Zou","type":"Department","iso":"BJ-ZO","qid":"Q29172"},"geometry":{"type":"Polygon","coordinates":[[[1.6233,7.5364],[1.8804,7.0927],[2.084,6.9193],[2.3849,6.9206],[2.52,6.9932],[2.4275,7.426],[1.8447,7.6324],[1.6229,7.6225],[1.6233,7.5364]]]}},{"type":"Feature","id":"label-BEN-2178","properties":{"kind":"division-label","code":"BEN-2178","countryCode":"BEN","name":"Zou","localName":"Zou","labelEnglish":"Zou","labelLocal":"Zou","labelBoth":"Zou","type":"Department","iso":"BJ-ZO","qid":"Q29172"},"geometry":{"type":"Point","coordinates":[2.09135,7.22681]}},{"type":"Feature","id":"BEN-2176","properties":{"kind":"division","code":"BEN-2176","countryCode":"BEN","name":"Kouffo","localName":"Kouffo","labelEnglish":"Kouffo","labelLocal":"Kouffo","labelBoth":"Kouffo","type":"Department","iso":"BJ-KO","qid":"Q29173"},"geometry":{"type":"Polygon","coordinates":[[[1.6233,7.5364],[1.5642,6.9031],[1.5892,6.7205],[2.0236,6.7065],[2.084,6.9193],[1.8804,7.0927],[1.6233,7.5364]]]}},{"type":"Feature","id":"label-BEN-2176","properties":{"kind":"division-label","code":"BEN-2176","countryCode":"BEN","name":"Kouffo","localName":"Kouffo","labelEnglish":"Kouffo","labelLocal":"Kouffo","labelBoth":"Kouffo","type":"Department","iso":"BJ-KO","qid":"Q29173"},"geometry":{"type":"Point","coordinates":[1.81235,6.98499]}},{"type":"Feature","id":"BEN-2180","properties":{"kind":"division","code":"BEN-2180","countryCode":"BEN","name":"Mono","localName":"Mono","labelEnglish":"Mono","labelLocal":"Mono","labelBoth":"Mono","type":"Department","iso":"BJ-MO","qid":"Q29135"},"geometry":{"type":"Polygon","coordinates":[[[1.5892,6.7205],[1.7824,6.2773],[1.6196,6.2139],[1.9877,6.2865],[2.0236,6.7065],[1.5892,6.7205]]]}},{"type":"Feature","id":"label-BEN-2180","properties":{"kind":"division-label","code":"BEN-2180","countryCode":"BEN","name":"Mono","localName":"Mono","labelEnglish":"Mono","labelLocal":"Mono","labelBoth":"Mono","type":"Department","iso":"BJ-MO","qid":"Q29135"},"geometry":{"type":"Point","coordinates":[1.79465,6.48568]}},{"type":"Feature","id":"BEN-2174","properties":{"kind":"division","code":"BEN-2174","countryCode":"BEN","name":"Atlantique","localName":"Atlantique","labelEnglish":"Atlantique","labelLocal":"Atlantique","labelBoth":"Atlantique","type":"Department","iso":"BJ-AQ","qid":"Q29147"},"geometry":{"type":"Polygon","coordinates":[[[2.3599,6.3364],[2.4676,6.3958],[2.3849,6.9206],[2.084,6.9193],[2.0236,6.7065],[1.9877,6.2865],[2.3599,6.3364]]]}},{"type":"Feature","id":"label-BEN-2174","properties":{"kind":"division-label","code":"BEN-2174","countryCode":"BEN","name":"Atlantique","localName":"Atlantique","labelEnglish":"Atlantique","labelLocal":"Atlantique","labelBoth":"Atlantique","type":"Department","iso":"BJ-AQ","qid":"Q29147"},"geometry":{"type":"Point","coordinates":[2.22263,6.61657]}},{"type":"Feature","id":"BEN-2175","properties":{"kind":"division","code":"BEN-2175","countryCode":"BEN","name":"Littoral","localName":"Littoral","labelEnglish":"Littoral","labelLocal":"Littoral","labelBoth":"Littoral","type":"Department","iso":"BJ-LI","qid":"Q29158"},"geometry":{"type":"Polygon","coordinates":[[[2.484,6.3479],[2.4676,6.3958],[2.3599,6.3364],[2.484,6.3479]]]}},{"type":"Feature","id":"label-BEN-2175","properties":{"kind":"division-label","code":"BEN-2175","countryCode":"BEN","name":"Littoral","localName":"Littoral","labelEnglish":"Littoral","labelLocal":"Littoral","labelBoth":"Littoral","type":"Department","iso":"BJ-LI","qid":"Q29158"},"geometry":{"type":"Point","coordinates":[2.42192,6.36623]}}]}