{"type":"FeatureCollection","features":[{"type":"Feature","id":"BFA-2878","properties":{"kind":"division","code":"BFA-2878","countryCode":"BFA","name":"Tapoa","localName":"Tapoa","labelEnglish":"Tapoa","labelLocal":"Tapoa","labelBoth":"Tapoa","type":"Province","iso":"BF-TAP","qid":"Q621983"},"geometry":{"type":"Polygon","coordinates":[[[2.3902,11.8965],[2.0709,12.3069],[2.245,12.4242],[2.109,12.7056],[1.8261,12.6042],[1.5359,12.6475],[1.3048,12.8385],[1.2688,12.7737],[1.2237,12.1782],[1.3311,12.1393],[1.2299,11.7165],[1.4232,11.4537],[2.0154,11.4316],[2.2911,11.6748],[2.3902,11.8965]]]}},{"type":"Feature","id":"label-BFA-2878","properties":{"kind":"division-label","code":"BFA-2878","countryCode":"BFA","name":"Tapoa","localName":"Tapoa","labelEnglish":"Tapoa","labelLocal":"Tapoa","labelBoth":"Tapoa","type":"Province","iso":"BF-TAP","qid":"Q621983"},"geometry":{"type":"Point","coordinates":[1.79465,12.0191]}},{"type":"Feature","id":"BFA-2183","properties":{"kind":"division","code":"BFA-2183","countryCode":"BFA","name":"Kompienga","localName":"Kompienga","labelEnglish":"Kompienga","labelLocal":"Kompienga","labelBoth":"Kompienga","type":"Province","iso":"BF-KMP","qid":"Q1142059"},"geometry":{"type":"Polygon","coordinates":[[[1.4232,11.4537],[1.2299,11.7165],[0.8638,11.9181],[0.5294,11.6597],[0.5762,11.3843],[0.3748,11.0258],[0.4876,10.9332],[0.9015,10.9927],[1.1186,11.0482],[1.4232,11.4537]]]}},{"type":"Feature","id":"label-BFA-2183","properties":{"kind":"division-label","code":"BFA-2183","countryCode":"BFA","name":"Kompienga","localName":"Kompienga","labelEnglish":"Kompienga","labelLocal":"Kompienga","labelBoth":"Kompienga","type":"Province","iso":"BF-KMP","qid":"Q1142059"},"geometry":{"type":"Point","coordinates":[0.898878,11.4519]}},{"type":"Feature","id":"BFA-2835","properties":{"kind":"division","code":"BFA-2835","countryCode":"BFA","name":"Léraba","localName":"Léraba","labelEnglish":"Léraba","labelLocal":"Léraba","labelBoth":"Léraba","type":"Province","iso":"BF-LER","qid":"Q977607"},"geometry":{"type":"Polygon","coordinates":[[[-5.5226,10.4255],[-5.1199,10.294],[-5.1244,10.579],[-4.985,10.5856],[-5.0619,10.8322],[-5.1867,10.8101],[-5.5056,11.048],[-5.4314,10.8447],[-5.5226,10.4255]]]}},{"type":"Feature","id":"label-BFA-2835","properties":{"kind":"division-label","code":"BFA-2835","countryCode":"BFA","name":"Léraba","localName":"Léraba","labelEnglish":"Léraba","labelLocal":"Léraba","labelBoth":"Léraba","type":"Province","iso":"BF-LER","qid":"Q977607"},"geometry":{"type":"Point","coordinates":[-5.2352,10.5879]}},{"type":"Feature","id":"BFA-2836","properties":{"kind":"division","code":"BFA-2836","countryCode":"BFA","name":"Comoé","localName":"Comoé","labelEnglish":"Comoé","labelLocal":"Comoé","labelBoth":"Comoé","type":"Province","iso":"BF-COM","qid":"Q1074496"},"geometry":{"type":"Polygon","coordinates":[[[-5.1199,10.294],[-4.9661,9.901],[-4.6811,9.6821],[-4.3225,9.609],[-4.2531,9.7501],[-3.8916,9.8939],[-3.6945,10.6441],[-3.7258,10.8271],[-3.9302,10.6869],[-4.2617,10.7005],[-4.5305,10.87],[-4.7938,10.8709],[-5.0619,10.8322],[-4.985,10.5856],[-5.1244,10.579],[-5.1199,10.294]]]}},{"type":"Feature","id":"label-BFA-2836","properties":{"kind":"division-label","code":"BFA-2836","countryCode":"BFA","name":"Comoé","localName":"Comoé","labelEnglish":"Comoé","labelLocal":"Comoé","labelBoth":"Comoé","type":"Province","iso":"BF-COM","qid":"Q1074496"},"geometry":{"type":"Point","coordinates":[-4.41757,10.2156]}},{"type":"Feature","id":"BFA-2837","properties":{"kind":"division","code":"BFA-2837","countryCode":"BFA","name":"Poni","localName":"Poni","labelEnglish":"Poni","labelLocal":"Poni","labelBoth":"Poni","type":"Province","iso":"BF-PON","qid":"Q953657"},"geometry":{"type":"Polygon","coordinates":[[[-3.8916,9.8939],[-3.2026,9.9082],[-3.184,10.0542],[-2.7885,10.0924],[-2.92,10.7111],[-3.0528,10.7406],[-3.3179,10.5926],[-3.6945,10.6441],[-3.8916,9.8939]]]}},{"type":"Feature","id":"label-BFA-2837","properties":{"kind":"division-label","code":"BFA-2837","countryCode":"BFA","name":"Poni","localName":"Poni","labelEnglish":"Poni","labelLocal":"Poni","labelBoth":"Poni","type":"Province","iso":"BF-PON","qid":"Q953657"},"geometry":{"type":"Point","coordinates":[-3.34011,10.251]}},{"type":"Feature","id":"BFA-5989","properties":{"kind":"division","code":"BFA-5989","countryCode":"BFA","name":"Noumbiel","localName":"Noumbiel","labelEnglish":"Noumbiel","labelLocal":"Noumbiel","labelBoth":"Noumbiel","type":"Province","iso":"BF-NOU","qid":"Q646647"},"geometry":{"type":"Polygon","coordinates":[[[-3.2026,9.9082],[-2.7637,9.3919],[-2.6892,9.4887],[-2.7434,9.6533],[-2.7885,10.0924],[-3.184,10.0542],[-3.2026,9.9082]]]}},{"type":"Feature","id":"label-BFA-5989","properties":{"kind":"division-label","code":"BFA-5989","countryCode":"BFA","name":"Noumbiel","localName":"Noumbiel","labelEnglish":"Noumbiel","labelLocal":"Noumbiel","labelBoth":"Noumbiel","type":"Province","iso":"BF-NOU","qid":"Q646647"},"geometry":{"type":"Point","coordinates":[-3.34011,10.251]}},{"type":"Feature","id":"BFA-2805","properties":{"kind":"division","code":"BFA-2805","countryCode":"BFA","name":"Oudalan","localName":"Oudalan","labelEnglish":"Oudalan","labelLocal":"Oudalan","labelBoth":"Oudalan","type":"Province","iso":"BF-OUD","qid":"Q514173"},"geometry":{"type":"Polygon","coordinates":[[[0.2185,14.911],[-0.5003,15.0797],[-0.7713,15.0566],[-1.0431,14.8181],[-0.6353,14.3253],[-0.5669,14.1426],[-0.001,14.1852],[0.2024,14.4355],[0.2185,14.911]]]}},{"type":"Feature","id":"label-BFA-2805","properties":{"kind":"division-label","code":"BFA-2805","countryCode":"BFA","name":"Oudalan","localName":"Oudalan","labelEnglish":"Oudalan","labelLocal":"Oudalan","labelBoth":"Oudalan","type":"Province","iso":"BF-OUD","qid":"Q514173"},"geometry":{"type":"Point","coordinates":[-0.411597,14.5769]}},{"type":"Feature","id":"BFA-2806","properties":{"kind":"division","code":"BFA-2806","countryCode":"BFA","name":"Soum","localName":"Soum","labelEnglish":"Soum","labelLocal":"Soum","labelBoth":"Soum","type":"Province","iso":"BF-SOM","qid":"Q385973"},"geometry":{"type":"Polygon","coordinates":[[[-1.0431,14.8181],[-1.6969,14.4961],[-1.967,14.4837],[-2.085,14.1597],[-1.8638,13.9941],[-1.747,13.7293],[-1.5348,13.9027],[-1.3331,13.739],[-0.642,13.9709],[-0.5669,14.1426],[-0.6353,14.3253],[-1.0431,14.8181]]]}},{"type":"Feature","id":"label-BFA-2806","properties":{"kind":"division-label","code":"BFA-2806","countryCode":"BFA","name":"Soum","localName":"Soum","labelEnglish":"Soum","labelLocal":"Soum","labelBoth":"Soum","type":"Province","iso":"BF-SOM","qid":"Q385973"},"geometry":{"type":"Point","coordinates":[-1.31801,14.2352]}},{"type":"Feature","id":"BFA-2822","properties":{"kind":"division","code":"BFA-2822","countryCode":"BFA","name":"Loroum","localName":"Loroum","labelEnglish":"Loroum","labelLocal":"Loroum","labelBoth":"Loroum","type":"Province","iso":"BF-LOR","qid":"Q1142054"},"geometry":{"type":"Polygon","coordinates":[[[-2.085,14.1597],[-2.4617,14.2809],[-2.6763,14.1417],[-2.5685,13.991],[-2.2709,13.9698],[-2.1156,13.528],[-1.878,13.5418],[-1.747,13.7293],[-1.8638,13.9941],[-2.085,14.1597]]]}},{"type":"Feature","id":"label-BFA-2822","properties":{"kind":"division-label","code":"BFA-2822","countryCode":"BFA","name":"Loroum","localName":"Loroum","labelEnglish":"Loroum","labelLocal":"Loroum","labelBoth":"Loroum","type":"Province","iso":"BF-LOR","qid":"Q1142054"},"geometry":{"type":"Point","coordinates":[-2.07087,13.8724]}},{"type":"Feature","id":"BFA-2823","properties":{"kind":"division","code":"BFA-2823","countryCode":"BFA","name":"Yatenga","localName":"Yatenga","labelEnglish":"Yatenga","labelLocal":"Yatenga","labelBoth":"Yatenga","type":"Province","iso":"BF-YAT","qid":"Q1074521"},"geometry":{"type":"Polygon","coordinates":[[[-2.6763,14.1417],[-2.8409,14.043],[-2.9305,13.6385],[-2.6319,13.448],[-2.5906,13.2931],[-2.4007,13.3884],[-2.0897,13.3361],[-2.129,13.0643],[-1.742,13.1224],[-1.878,13.5418],[-2.1156,13.528],[-2.2709,13.9698],[-2.5685,13.991],[-2.6763,14.1417]]]}},{"type":"Feature","id":"label-BFA-2823","properties":{"kind":"division-label","code":"BFA-2823","countryCode":"BFA","name":"Yatenga","localName":"Yatenga","labelEnglish":"Yatenga","labelLocal":"Yatenga","labelBoth":"Yatenga","type":"Province","iso":"BF-YAT","qid":"Q1074521"},"geometry":{"type":"Point","coordinates":[-2.32529,13.6813]}},{"type":"Feature","id":"BFA-2808","properties":{"kind":"division","code":"BFA-2808","countryCode":"BFA","name":"Sourou","localName":"Sourou","labelEnglish":"Sourou","labelLocal":"Sourou","labelBoth":"Sourou","type":"Province","iso":"BF-SOR","qid":"Q558703"},"geometry":{"type":"Polygon","coordinates":[[[-2.9305,13.6385],[-3.2671,13.717],[-3.2486,13.2928],[-3.4739,13.1676],[-3.4262,12.7865],[-3.2737,12.9828],[-2.6902,12.927],[-2.6859,12.9705],[-2.4426,13.2531],[-2.5906,13.2931],[-2.6319,13.448],[-2.9305,13.6385]]]}},{"type":"Feature","id":"label-BFA-2808","properties":{"kind":"division-label","code":"BFA-2808","countryCode":"BFA","name":"Sourou","localName":"Sourou","labelEnglish":"Sourou","labelLocal":"Sourou","labelBoth":"Sourou","type":"Province","iso":"BF-SOR","qid":"Q558703"},"geometry":{"type":"Point","coordinates":[-2.95968,13.2875]}},{"type":"Feature","id":"BFA-2802","properties":{"kind":"division","code":"BFA-2802","countryCode":"BFA","name":"Kossi","localName":"Kossi","labelEnglish":"Kossi","labelLocal":"Kossi","labelBoth":"Kossi","type":"Province","iso":"BF-KOS","qid":"Q1074485"},"geometry":{"type":"Polygon","coordinates":[[[-3.9655,13.4892],[-4.3511,13.1183],[-4.2455,12.7289],[-4.0646,12.3763],[-3.9423,12.5341],[-3.5637,12.4818],[-3.4293,12.7497],[-3.4262,12.7865],[-3.4739,13.1676],[-3.984,13.3965],[-3.9655,13.4892]]]}},{"type":"Feature","id":"label-BFA-2802","properties":{"kind":"division-label","code":"BFA-2802","countryCode":"BFA","name":"Kossi","localName":"Kossi","labelEnglish":"Kossi","labelLocal":"Kossi","labelBoth":"Kossi","type":"Province","iso":"BF-KOS","qid":"Q1074485"},"geometry":{"type":"Point","coordinates":[-3.88894,12.9587]}},{"type":"Feature","id":"BFA-2801","properties":{"kind":"division","code":"BFA-2801","countryCode":"BFA","name":"Banwa","localName":"Banwa","labelEnglish":"Banwa","labelLocal":"Banwa","labelBoth":"Banwa","type":"Province","iso":"BF-BAN","qid":"Q674664"},"geometry":{"type":"Polygon","coordinates":[[[-4.2455,12.7289],[-4.4644,12.7173],[-4.3869,12.5302],[-4.6527,12.0716],[-4.4655,12.0638],[-4.4908,11.7616],[-3.981,11.9327],[-3.7071,12.3925],[-3.5637,12.4818],[-3.9423,12.5341],[-4.0646,12.3763],[-4.2455,12.7289]]]}},{"type":"Feature","id":"label-BFA-2801","properties":{"kind":"division-label","code":"BFA-2801","countryCode":"BFA","name":"Banwa","localName":"Banwa","labelEnglish":"Banwa","labelLocal":"Banwa","labelBoth":"Banwa","type":"Province","iso":"BF-BAN","qid":"Q674664"},"geometry":{"type":"Point","coordinates":[-4.10849,12.1648]}},{"type":"Feature","id":"BFA-2799","properties":{"kind":"division","code":"BFA-2799","countryCode":"BFA","name":"Houet","localName":"Houet","labelEnglish":"Houet","labelLocal":"Houet","labelBoth":"Houet","type":"Province","iso":"BF-HOU","qid":"Q1074161"},"geometry":{"type":"Polygon","coordinates":[[[-4.6527,12.0716],[-4.7323,12.0373],[-4.6376,11.9829],[-4.5497,11.4923],[-4.7938,11.2477],[-4.6582,11.111],[-4.7938,10.8709],[-4.5305,10.87],[-4.2617,10.7005],[-3.9302,10.6869],[-3.7258,10.8271],[-3.5861,10.9721],[-3.8817,11.199],[-3.9907,11.6377],[-3.949,11.8511],[-3.981,11.9327],[-4.4908,11.7616],[-4.4655,12.0638],[-4.6527,12.0716]]]}},{"type":"Feature","id":"label-BFA-2799","properties":{"kind":"division-label","code":"BFA-2799","countryCode":"BFA","name":"Houet","localName":"Houet","labelEnglish":"Houet","labelLocal":"Houet","labelBoth":"Houet","type":"Province","iso":"BF-HOU","qid":"Q1074161"},"geometry":{"type":"Point","coordinates":[-4.18998,11.3355]}},{"type":"Feature","id":"BFA-2800","properties":{"kind":"division","code":"BFA-2800","countryCode":"BFA","name":"Kénédougou","localName":"Kénédougou","labelEnglish":"Kénédougou","labelLocal":"Kénédougou","labelBoth":"Kénédougou","type":"Province","iso":"BF-KEN","qid":"Q1150901"},"geometry":{"type":"Polygon","coordinates":[[[-4.7323,12.0373],[-5.1678,11.9437],[-5.2825,11.8364],[-5.2183,11.4222],[-5.3223,11.1355],[-5.5056,11.048],[-5.1867,10.8101],[-5.0619,10.8322],[-4.7938,10.8709],[-4.6582,11.111],[-4.7938,11.2477],[-4.5497,11.4923],[-4.6376,11.9829],[-4.7323,12.0373]]]}},{"type":"Feature","id":"label-BFA-2800","properties":{"kind":"division-label","code":"BFA-2800","countryCode":"BFA","name":"Kénédougou","localName":"Kénédougou","labelEnglish":"Kénédougou","labelLocal":"Kénédougou","labelBoth":"Kénédougou","type":"Province","iso":"BF-KEN","qid":"Q1150901"},"geometry":{"type":"Point","coordinates":[-5.02728,11.4128]}},{"type":"Feature","id":"BFA-2876","properties":{"kind":"division","code":"BFA-2876","countryCode":"BFA","name":"Séno","localName":"Séno","labelEnglish":"Séno","labelLocal":"Séno","labelBoth":"Séno","type":"Province","iso":"BF-SEN","qid":"Q1061214"},"geometry":{"type":"Polygon","coordinates":[[[0.2024,14.4355],[-0.001,14.1852],[-0.5669,14.1426],[-0.642,13.9709],[-0.6083,13.9226],[-0.2263,13.4966],[0.0615,13.5782],[0.4999,13.851],[0.2024,14.4355]]]}},{"type":"Feature","id":"label-BFA-2876","properties":{"kind":"division-label","code":"BFA-2876","countryCode":"BFA","name":"Séno","localName":"Séno","labelEnglish":"Séno","labelLocal":"Séno","labelBoth":"Séno","type":"Province","iso":"BF-SEN","qid":"Q1061214"},"geometry":{"type":"Point","coordinates":[-0.07114,13.8673]}},{"type":"Feature","id":"BFA-2877","properties":{"kind":"division","code":"BFA-2877","countryCode":"BFA","name":"Yagha","localName":"Yagha","labelEnglish":"Yagha","labelLocal":"Yagha","labelBoth":"Yagha","type":"Province","iso":"BF-YAG","qid":"Q1074466"},"geometry":{"type":"Polygon","coordinates":[[[0.4999,13.851],[0.0615,13.5782],[0.302,13.2084],[0.5744,12.954],[0.9717,13.0858],[0.9835,13.3684],[1.1676,13.3134],[0.951,13.5832],[0.6207,13.68],[0.4999,13.851]]]}},{"type":"Feature","id":"label-BFA-2877","properties":{"kind":"division-label","code":"BFA-2877","countryCode":"BFA","name":"Yagha","localName":"Yagha","labelEnglish":"Yagha","labelLocal":"Yagha","labelBoth":"Yagha","type":"Province","iso":"BF-YAG","qid":"Q1074466"},"geometry":{"type":"Point","coordinates":[0.664784,13.3228]}},{"type":"Feature","id":"BFA-2875","properties":{"kind":"division","code":"BFA-2875","countryCode":"BFA","name":"Komondjari","localName":"Komondjari","labelEnglish":"Komondjari","labelLocal":"Komondjari","labelBoth":"Komondjari","type":"Province","iso":"BF-KMD","qid":"Q1074479"},"geometry":{"type":"Polygon","coordinates":[[[0.9717,13.0858],[0.5744,12.954],[0.2879,12.9118],[0.349,12.4439],[0.4792,12.513],[0.7245,12.3392],[0.8714,12.5799],[1.2688,12.7737],[1.3048,12.8385],[0.9717,13.0858]]]}},{"type":"Feature","id":"label-BFA-2875","properties":{"kind":"division-label","code":"BFA-2875","countryCode":"BFA","name":"Komondjari","localName":"Komondjari","labelEnglish":"Komondjari","labelLocal":"Komondjari","labelBoth":"Komondjari","type":"Province","iso":"BF-KMD","qid":"Q1074479"},"geometry":{"type":"Point","coordinates":[0.775979,12.6971]}},{"type":"Feature","id":"BFA-2827","properties":{"kind":"division","code":"BFA-2827","countryCode":"BFA","name":"Koulpélogo","localName":"Koulpélogo","labelEnglish":"Koulpélogo","labelLocal":"Koulpélogo","labelBoth":"Koulpélogo","type":"Province","iso":"BF-KOP","qid":"Q934923"},"geometry":{"type":"Polygon","coordinates":[[[0.3748,11.0258],[0.5762,11.3843],[0.5294,11.6597],[0.0497,11.75],[-0.1677,11.37],[0.0047,11.3084],[-0.1151,11.1247],[0.3748,11.0258]]]}},{"type":"Feature","id":"label-BFA-2827","properties":{"kind":"division-label","code":"BFA-2827","countryCode":"BFA","name":"Koulpélogo","localName":"Koulpélogo","labelEnglish":"Koulpélogo","labelLocal":"Koulpélogo","labelBoth":"Koulpélogo","type":"Province","iso":"BF-KOP","qid":"Q934923"},"geometry":{"type":"Point","coordinates":[0.204257,11.4079]}},{"type":"Feature","id":"BFA-2826","properties":{"kind":"division","code":"BFA-2826","countryCode":"BFA","name":"Boulgou","localName":"Boulgou","labelEnglish":"Boulgou","labelLocal":"Boulgou","labelBoth":"Boulgou","type":"Province","iso":"BF-BLG","qid":"Q895097"},"geometry":{"type":"Polygon","coordinates":[[[-0.1151,11.1247],[0.0047,11.3084],[-0.1677,11.37],[0.0497,11.75],[-0.1103,11.9229],[-0.2529,11.7934],[-0.4645,11.9875],[-0.7985,11.8377],[-0.9239,11.6695],[-0.5621,11.4882],[-0.7769,11.1965],[-0.703,10.9942],[-0.6348,10.908],[-0.3017,11.1629],[-0.1661,11.135],[-0.1151,11.1247]]]}},{"type":"Feature","id":"label-BFA-2826","properties":{"kind":"division-label","code":"BFA-2826","countryCode":"BFA","name":"Boulgou","localName":"Boulgou","labelEnglish":"Boulgou","labelLocal":"Boulgou","labelBoth":"Boulgou","type":"Province","iso":"BF-BLG","qid":"Q895097"},"geometry":{"type":"Point","coordinates":[-0.43666,11.4767]}},{"type":"Feature","id":"BFA-2830","properties":{"kind":"division","code":"BFA-2830","countryCode":"BFA","name":"Nahouri","localName":"Nahouri","labelEnglish":"Nahouri","labelLocal":"Nahouri","labelBoth":"Nahouri","type":"Province","iso":"BF-NAO","qid":"Q1142003"},"geometry":{"type":"Polygon","coordinates":[[[-1.4136,11.014],[-0.703,10.9942],[-0.7769,11.1965],[-1.3138,11.5348],[-1.5881,11.3224],[-1.6386,11.1411],[-1.4136,11.014]]]}},{"type":"Feature","id":"label-BFA-2830","properties":{"kind":"division-label","code":"BFA-2830","countryCode":"BFA","name":"Nahouri","localName":"Nahouri","labelEnglish":"Nahouri","labelLocal":"Nahouri","labelBoth":"Nahouri","type":"Province","iso":"BF-NAO","qid":"Q1142003"},"geometry":{"type":"Point","coordinates":[-1.16782,11.2028]}},{"type":"Feature","id":"BFA-2820","properties":{"kind":"division","code":"BFA-2820","countryCode":"BFA","name":"Sissili","localName":"Sissili","labelEnglish":"Sissili","labelLocal":"Sissili","labelBoth":"Sissili","type":"Province","iso":"BF-SIS","qid":"Q964281"},"geometry":{"type":"Polygon","coordinates":[[[-1.4136,11.014],[-1.6386,11.1411],[-1.5881,11.3224],[-1.9849,11.2867],[-2.3356,11.5453],[-2.2396,11.9095],[-2.2533,11.9019],[-2.5364,11.7906],[-2.6801,11.6099],[-2.5249,11.389],[-2.8042,11.2334],[-2.7288,10.9861],[-1.4236,11.0179],[-1.4136,11.014]]]}},{"type":"Feature","id":"label-BFA-2820","properties":{"kind":"division-label","code":"BFA-2820","countryCode":"BFA","name":"Sissili","localName":"Sissili","labelEnglish":"Sissili","labelLocal":"Sissili","labelBoth":"Sissili","type":"Province","iso":"BF-SIS","qid":"Q964281"},"geometry":{"type":"Point","coordinates":[-2.10887,11.1806]}},{"type":"Feature","id":"BFA-2833","properties":{"kind":"division","code":"BFA-2833","countryCode":"BFA","name":"Ioba","localName":"Ioba","labelEnglish":"Ioba","labelLocal":"Ioba","labelBoth":"Ioba","type":"Province","iso":"BF-IOB","qid":"Q1074154"},"geometry":{"type":"Polygon","coordinates":[[[-2.7288,10.9861],[-2.8042,11.2334],[-2.8586,11.2877],[-3.2285,11.3151],[-3.3027,11.1712],[-3.1194,11.1787],[-3.1911,10.7836],[-3.0528,10.7406],[-2.92,10.7111],[-2.7288,10.9861]]]}},{"type":"Feature","id":"label-BFA-2833","properties":{"kind":"division-label","code":"BFA-2833","countryCode":"BFA","name":"Ioba","localName":"Ioba","labelEnglish":"Ioba","labelLocal":"Ioba","labelBoth":"Ioba","type":"Province","iso":"BF-IOB","qid":"Q1074154"},"geometry":{"type":"Point","coordinates":[-2.96967,11.0116]}},{"type":"Feature","id":"BFA-2803","properties":{"kind":"division","code":"BFA-2803","countryCode":"BFA","name":"Balé","localName":"Balé","labelEnglish":"Balé","labelLocal":"Balé","labelBoth":"Balé","type":"Province","iso":"BF-BAL","qid":"Q805913"},"geometry":{"type":"Polygon","coordinates":[[[-2.9194,12.053],[-3.2265,12.0812],[-3.0938,11.8898],[-3.4901,11.9768],[-3.5871,11.757],[-3.2771,11.4594],[-2.8293,11.519],[-2.8586,11.2877],[-2.8042,11.2334],[-2.5249,11.389],[-2.6801,11.6099],[-2.9194,12.053]]]}},{"type":"Feature","id":"label-BFA-2803","properties":{"kind":"division-label","code":"BFA-2803","countryCode":"BFA","name":"Balé","localName":"Balé","labelEnglish":"Balé","labelLocal":"Balé","labelBoth":"Balé","type":"Province","iso":"BF-BAL","qid":"Q805913"},"geometry":{"type":"Point","coordinates":[-3.06879,11.8279]}},{"type":"Feature","id":"BFA-2819","properties":{"kind":"division","code":"BFA-2819","countryCode":"BFA","name":"Sanguié","localName":"Sanguié","labelEnglish":"Sanguié","labelLocal":"Sanguié","labelBoth":"Sanguié","type":"Province","iso":"BF-SNG","qid":"Q1142014"},"geometry":{"type":"Polygon","coordinates":[[[-2.9194,12.053],[-2.6801,11.6099],[-2.5364,11.7906],[-2.2533,11.9019],[-2.4706,12.0038],[-2.4153,12.445],[-2.3103,12.6481],[-2.6371,12.7362],[-2.8406,12.3669],[-2.7925,12.1151],[-2.9194,12.053]]]}},{"type":"Feature","id":"label-BFA-2819","properties":{"kind":"division-label","code":"BFA-2819","countryCode":"BFA","name":"Sanguié","localName":"Sanguié","labelEnglish":"Sanguié","labelLocal":"Sanguié","labelBoth":"Sanguié","type":"Province","iso":"BF-SNG","qid":"Q1142014"},"geometry":{"type":"Point","coordinates":[-2.57298,12.2508]}},{"type":"Feature","id":"BFA-2834","properties":{"kind":"division","code":"BFA-2834","countryCode":"BFA","name":"Tuy","localName":"Tuy","labelEnglish":"Tuy","labelLocal":"Tuy","labelBoth":"Tuy","type":"Province","iso":"BF-TUI","qid":"Q627844"},"geometry":{"type":"Polygon","coordinates":[[[-3.5871,11.757],[-3.949,11.8511],[-3.9907,11.6377],[-3.8817,11.199],[-3.5861,10.9721],[-3.3027,11.1712],[-3.2285,11.3151],[-2.8586,11.2877],[-2.8293,11.519],[-3.2771,11.4594],[-3.5871,11.757]]]}},{"type":"Feature","id":"label-BFA-2834","properties":{"kind":"division-label","code":"BFA-2834","countryCode":"BFA","name":"Tuy","localName":"Tuy","labelEnglish":"Tuy","labelLocal":"Tuy","labelBoth":"Tuy","type":"Province","iso":"BF-TUI","qid":"Q627844"},"geometry":{"type":"Point","coordinates":[-3.40955,11.3659]}},{"type":"Feature","id":"BFA-2832","properties":{"kind":"division","code":"BFA-2832","countryCode":"BFA","name":"Bougouriba","localName":"Bougouriba","labelEnglish":"Bougouriba","labelLocal":"Bougouriba","labelBoth":"Bougouriba","type":"Province","iso":"BF-BGR","qid":"Q676641"},"geometry":{"type":"Polygon","coordinates":[[[-3.3027,11.1712],[-3.5861,10.9721],[-3.7258,10.8271],[-3.6945,10.6441],[-3.3179,10.5926],[-3.0528,10.7406],[-3.1911,10.7836],[-3.1194,11.1787],[-3.3027,11.1712]]]}},{"type":"Feature","id":"label-BFA-2832","properties":{"kind":"division-label","code":"BFA-2832","countryCode":"BFA","name":"Bougouriba","localName":"Bougouriba","labelEnglish":"Bougouriba","labelLocal":"Bougouriba","labelBoth":"Bougouriba","type":"Province","iso":"BF-BGR","qid":"Q676641"},"geometry":{"type":"Point","coordinates":[-3.42349,10.8979]}},{"type":"Feature","id":"BFA-2804","properties":{"kind":"division","code":"BFA-2804","countryCode":"BFA","name":"Mouhoun","localName":"Mouhoun","labelEnglish":"Mouhoun","labelLocal":"Mouhoun","labelBoth":"Mouhoun","type":"Province","iso":"BF-MOU","qid":"Q1142050"},"geometry":{"type":"Polygon","coordinates":[[[-2.8406,12.3669],[-3.2395,12.5248],[-3.4293,12.7497],[-3.5637,12.4818],[-3.7071,12.3925],[-3.981,11.9327],[-3.949,11.8511],[-3.5871,11.757],[-3.4901,11.9768],[-3.0938,11.8898],[-3.2265,12.0812],[-2.9194,12.053],[-2.7925,12.1151],[-2.8406,12.3669]]]}},{"type":"Feature","id":"label-BFA-2804","properties":{"kind":"division-label","code":"BFA-2804","countryCode":"BFA","name":"Mouhoun","localName":"Mouhoun","labelEnglish":"Mouhoun","labelLocal":"Mouhoun","labelBoth":"Mouhoun","type":"Province","iso":"BF-MOU","qid":"Q1142050"},"geometry":{"type":"Point","coordinates":[-3.38675,12.3486]}},{"type":"Feature","id":"BFA-2829","properties":{"kind":"division","code":"BFA-2829","countryCode":"BFA","name":"Kouritenga","localName":"Kouritenga","labelEnglish":"Kouritenga","labelLocal":"Kouritenga","labelBoth":"Kouritenga","type":"Province","iso":"BF-KOT","qid":"Q1141767"},"geometry":{"type":"Polygon","coordinates":[[[-0.4645,11.9875],[-0.2529,11.7934],[-0.1103,11.9229],[0.0306,12.0979],[-0.0846,12.2307],[-0.2074,12.5605],[-0.6137,12.5058],[-0.4229,12.1535],[-0.4645,11.9875]]]}},{"type":"Feature","id":"label-BFA-2829","properties":{"kind":"division-label","code":"BFA-2829","countryCode":"BFA","name":"Kouritenga","localName":"Kouritenga","labelEnglish":"Kouritenga","labelLocal":"Kouritenga","labelBoth":"Kouritenga","type":"Province","iso":"BF-KOT","qid":"Q1141767"},"geometry":{"type":"Point","coordinates":[-0.291527,12.1587]}},{"type":"Feature","id":"BFA-2828","properties":{"kind":"division","code":"BFA-2828","countryCode":"BFA","name":"Ganzourgou","localName":"Ganzourgou","labelEnglish":"Ganzourgou","labelLocal":"Ganzourgou","labelBoth":"Ganzourgou","type":"Province","iso":"BF-GAN","qid":"Q182889"},"geometry":{"type":"Polygon","coordinates":[[[-0.6137,12.5058],[-0.6726,12.6763],[-0.84,12.5242],[-1.0601,12.4477],[-1.0978,12.2598],[-1.0623,12.1837],[-0.888,11.8859],[-0.7985,11.8377],[-0.4645,11.9875],[-0.4229,12.1535],[-0.6137,12.5058]]]}},{"type":"Feature","id":"label-BFA-2828","properties":{"kind":"division-label","code":"BFA-2828","countryCode":"BFA","name":"Ganzourgou","localName":"Ganzourgou","labelEnglish":"Ganzourgou","labelLocal":"Ganzourgou","labelBoth":"Ganzourgou","type":"Province","iso":"BF-GAN","qid":"Q182889"},"geometry":{"type":"Point","coordinates":[-0.768604,12.2052]}},{"type":"Feature","id":"BFA-2831","properties":{"kind":"division","code":"BFA-2831","countryCode":"BFA","name":"Zoundwéogo","localName":"Zoundwéogo","labelEnglish":"Zoundwéogo","labelLocal":"Zoundwéogo","labelBoth":"Zoundwéogo","type":"Province","iso":"BF-ZOU","qid":"Q227059"},"geometry":{"type":"Polygon","coordinates":[[[-0.888,11.8859],[-1.2258,11.8322],[-1.3477,11.5841],[-1.3138,11.5348],[-0.7769,11.1965],[-0.5621,11.4882],[-0.9239,11.6695],[-0.7985,11.8377],[-0.888,11.8859]]]}},{"type":"Feature","id":"label-BFA-2831","properties":{"kind":"division-label","code":"BFA-2831","countryCode":"BFA","name":"Zoundwéogo","localName":"Zoundwéogo","labelEnglish":"Zoundwéogo","labelLocal":"Zoundwéogo","labelBoth":"Zoundwéogo","type":"Province","iso":"BF-ZOU","qid":"Q227059"},"geometry":{"type":"Point","coordinates":[-0.940234,11.5711]}},{"type":"Feature","id":"BFA-2821","properties":{"kind":"division","code":"BFA-2821","countryCode":"BFA","name":"Ziro","localName":"Ziro","labelEnglish":"Ziro","labelLocal":"Ziro","labelBoth":"Ziro","type":"Province","iso":"BF-ZIR","qid":"Q206019"},"geometry":{"type":"Polygon","coordinates":[[[-1.3477,11.5841],[-1.7889,11.9264],[-2.0418,11.9818],[-2.2396,11.9095],[-2.3356,11.5453],[-1.9849,11.2867],[-1.5881,11.3224],[-1.3138,11.5348],[-1.3477,11.5841]]]}},{"type":"Feature","id":"label-BFA-2821","properties":{"kind":"division-label","code":"BFA-2821","countryCode":"BFA","name":"Ziro","localName":"Ziro","labelEnglish":"Ziro","labelLocal":"Ziro","labelBoth":"Ziro","type":"Province","iso":"BF-ZIR","qid":"Q206019"},"geometry":{"type":"Point","coordinates":[-1.83187,11.6131]}},{"type":"Feature","id":"BFA-2812","properties":{"kind":"division","code":"BFA-2812","countryCode":"BFA","name":"Boulkiemdé","localName":"Boulkiemdé","labelEnglish":"Boulkiemdé","labelLocal":"Boulkiemdé","labelBoth":"Boulkiemdé","type":"Province","iso":"BF-BLK","qid":"Q895102"},"geometry":{"type":"Polygon","coordinates":[[[-2.3103,12.6481],[-2.4153,12.445],[-2.4706,12.0038],[-2.2533,11.9019],[-2.2396,11.9095],[-2.0418,11.9818],[-1.8703,12.1449],[-1.8207,12.3426],[-2.0264,12.268],[-2.0059,12.4454],[-1.7899,12.4731],[-1.9411,12.6773],[-2.3103,12.6481]]]}},{"type":"Feature","id":"label-BFA-2812","properties":{"kind":"division-label","code":"BFA-2812","countryCode":"BFA","name":"Boulkiemdé","localName":"Boulkiemdé","labelEnglish":"Boulkiemdé","labelLocal":"Boulkiemdé","labelBoth":"Boulkiemdé","type":"Province","iso":"BF-BLK","qid":"Q895102"},"geometry":{"type":"Point","coordinates":[-2.13572,12.3143]}},{"type":"Feature","id":"BFA-2815","properties":{"kind":"division","code":"BFA-2815","countryCode":"BFA","name":"Kadiogo","localName":"Kadiogo","labelEnglish":"Kadiogo","labelLocal":"Kadiogo","labelBoth":"Kadiogo","type":"Province","iso":"BF-KAD","qid":"Q1074530"},"geometry":{"type":"Polygon","coordinates":[[[-1.0978,12.2598],[-1.3257,12.5014],[-1.4722,12.4597],[-1.5957,12.6731],[-1.8207,12.3426],[-1.8703,12.1449],[-1.7146,12.0572],[-1.0623,12.1837],[-1.0978,12.2598]]]}},{"type":"Feature","id":"label-BFA-2815","properties":{"kind":"division-label","code":"BFA-2815","countryCode":"BFA","name":"Kadiogo","localName":"Kadiogo","labelEnglish":"Kadiogo","labelLocal":"Kadiogo","labelBoth":"Kadiogo","type":"Province","iso":"BF-KAD","qid":"Q1074530"},"geometry":{"type":"Point","coordinates":[-1.4662,12.3267]}},{"type":"Feature","id":"BFA-2816","properties":{"kind":"division","code":"BFA-2816","countryCode":"BFA","name":"Oubritenga","localName":"Oubritenga","labelEnglish":"Oubritenga","labelLocal":"Oubritenga","labelBoth":"Oubritenga","type":"Province","iso":"BF-OUB","qid":"Q1142026"},"geometry":{"type":"Polygon","coordinates":[[[-1.0978,12.2598],[-1.0601,12.4477],[-0.84,12.5242],[-1.3722,12.858],[-1.5526,12.9041],[-1.7315,12.9007],[-1.5957,12.6731],[-1.4722,12.4597],[-1.3257,12.5014],[-1.0978,12.2598]]]}},{"type":"Feature","id":"label-BFA-2816","properties":{"kind":"division-label","code":"BFA-2816","countryCode":"BFA","name":"Oubritenga","localName":"Oubritenga","labelEnglish":"Oubritenga","labelLocal":"Oubritenga","labelBoth":"Oubritenga","type":"Province","iso":"BF-OUB","qid":"Q1142026"},"geometry":{"type":"Point","coordinates":[-1.28565,12.6477]}},{"type":"Feature","id":"BFA-2184","properties":{"kind":"division","code":"BFA-2184","countryCode":"BFA","name":"Gourma","localName":"Gourma","labelEnglish":"Gourma","labelLocal":"Gourma","labelBoth":"Gourma","type":"Province","iso":"BF-GOU","qid":"Q432317"},"geometry":{"type":"Polygon","coordinates":[[[-0.1103,11.9229],[0.0497,11.75],[0.5294,11.6597],[0.8638,11.9181],[1.2299,11.7165],[1.3311,12.1393],[1.2237,12.1782],[1.2688,12.7737],[0.8714,12.5799],[0.7245,12.3392],[0.4792,12.513],[0.349,12.4439],[-0.0846,12.2307],[0.0306,12.0979],[-0.1103,11.9229]]]}},{"type":"Feature","id":"label-BFA-2184","properties":{"kind":"division-label","code":"BFA-2184","countryCode":"BFA","name":"Gourma","localName":"Gourma","labelEnglish":"Gourma","labelLocal":"Gourma","labelBoth":"Gourma","type":"Province","iso":"BF-GOU","qid":"Q432317"},"geometry":{"type":"Point","coordinates":[0.610382,12.0677]}},{"type":"Feature","id":"BFA-2874","properties":{"kind":"division","code":"BFA-2874","countryCode":"BFA","name":"Gnagna","localName":"Gnagna","labelEnglish":"Gnagna","labelLocal":"Gnagna","labelBoth":"Gnagna","type":"Province","iso":"BF-GNA","qid":"Q1074144"},"geometry":{"type":"Polygon","coordinates":[[[-0.0846,12.2307],[0.349,12.4439],[0.2879,12.9118],[0.5744,12.954],[0.302,13.2084],[0.0615,13.5782],[-0.2263,13.4966],[-0.366,12.9908],[-0.1989,12.7879],[-0.2074,12.5605],[-0.0846,12.2307]]]}},{"type":"Feature","id":"label-BFA-2874","properties":{"kind":"division-label","code":"BFA-2874","countryCode":"BFA","name":"Gnagna","localName":"Gnagna","labelEnglish":"Gnagna","labelLocal":"Gnagna","labelBoth":"Gnagna","type":"Province","iso":"BF-GNA","qid":"Q1074144"},"geometry":{"type":"Point","coordinates":[0.115257,12.9057]}},{"type":"Feature","id":"BFA-2814","properties":{"kind":"division","code":"BFA-2814","countryCode":"BFA","name":"Bazèga","localName":"Bazèga","labelEnglish":"Bazèga","labelLocal":"Bazèga","labelBoth":"Bazèga","type":"Province","iso":"BF-BAZ","qid":"Q619764"},"geometry":{"type":"Polygon","coordinates":[[[-1.0623,12.1837],[-1.7146,12.0572],[-1.8703,12.1449],[-2.0418,11.9818],[-1.7889,11.9264],[-1.3477,11.5841],[-1.2258,11.8322],[-0.888,11.8859],[-1.0623,12.1837]]]}},{"type":"Feature","id":"label-BFA-2814","properties":{"kind":"division-label","code":"BFA-2814","countryCode":"BFA","name":"Bazèga","localName":"Bazèga","labelEnglish":"Bazèga","labelLocal":"Bazèga","labelBoth":"Bazèga","type":"Province","iso":"BF-BAZ","qid":"Q619764"},"geometry":{"type":"Point","coordinates":[-1.46488,11.9332]}},{"type":"Feature","id":"BFA-2813","properties":{"kind":"division","code":"BFA-2813","countryCode":"BFA","name":"Kourwéogo","localName":"Kourwéogo","labelEnglish":"Kourwéogo","labelLocal":"Kourwéogo","labelBoth":"Kourwéogo","type":"Province","iso":"BF-KOW","qid":"Q661376"},"geometry":{"type":"Polygon","coordinates":[[[-1.9411,12.6773],[-1.7899,12.4731],[-2.0059,12.4454],[-2.0264,12.268],[-1.8207,12.3426],[-1.5957,12.6731],[-1.7315,12.9007],[-1.9411,12.6773]]]}},{"type":"Feature","id":"label-BFA-2813","properties":{"kind":"division-label","code":"BFA-2813","countryCode":"BFA","name":"Kourwéogo","localName":"Kourwéogo","labelEnglish":"Kourwéogo","labelLocal":"Kourwéogo","labelBoth":"Kourwéogo","type":"Province","iso":"BF-KOW","qid":"Q661376"},"geometry":{"type":"Point","coordinates":[-1.8367,12.3933]}},{"type":"Feature","id":"BFA-2807","properties":{"kind":"division","code":"BFA-2807","countryCode":"BFA","name":"Nayala","localName":"Nayala","labelEnglish":"Nayala","labelLocal":"Nayala","labelBoth":"Nayala","type":"Province","iso":"BF-NAY","qid":"Q1141776"},"geometry":{"type":"Polygon","coordinates":[[[-2.6371,12.7362],[-2.6902,12.927],[-3.2737,12.9828],[-3.4262,12.7865],[-3.4293,12.7497],[-3.2395,12.5248],[-2.8406,12.3669],[-2.6371,12.7362]]]}},{"type":"Feature","id":"label-BFA-2807","properties":{"kind":"division-label","code":"BFA-2807","countryCode":"BFA","name":"Nayala","localName":"Nayala","labelEnglish":"Nayala","labelLocal":"Nayala","labelBoth":"Nayala","type":"Province","iso":"BF-NAY","qid":"Q1141776"},"geometry":{"type":"Point","coordinates":[-3.03318,12.6594]}},{"type":"Feature","id":"BFA-2817","properties":{"kind":"division","code":"BFA-2817","countryCode":"BFA","name":"Passoré","localName":"Passoré","labelEnglish":"Passoré","labelLocal":"Passoré","labelBoth":"Passoré","type":"Province","iso":"BF-PAS","qid":"Q1142008"},"geometry":{"type":"Polygon","coordinates":[[[-2.6371,12.7362],[-2.3103,12.6481],[-1.9411,12.6773],[-1.7315,12.9007],[-1.5526,12.9041],[-1.5025,12.994],[-1.742,13.1224],[-2.129,13.0643],[-2.6859,12.9705],[-2.6902,12.927],[-2.6371,12.7362]]]}},{"type":"Feature","id":"label-BFA-2817","properties":{"kind":"division-label","code":"BFA-2817","countryCode":"BFA","name":"Passoré","localName":"Passoré","labelEnglish":"Passoré","labelLocal":"Passoré","labelBoth":"Passoré","type":"Province","iso":"BF-PAS","qid":"Q1142008"},"geometry":{"type":"Point","coordinates":[-2.10662,12.8734]}},{"type":"Feature","id":"BFA-2818","properties":{"kind":"division","code":"BFA-2818","countryCode":"BFA","name":"Zondoma","localName":"Zondoma","labelEnglish":"Zondoma","labelLocal":"Zondoma","labelBoth":"Zondoma","type":"Province","iso":"BF-ZON","qid":"Q219859"},"geometry":{"type":"Polygon","coordinates":[[[-2.129,13.0643],[-2.0897,13.3361],[-2.4007,13.3884],[-2.5906,13.2931],[-2.4426,13.2531],[-2.6859,12.9705],[-2.129,13.0643]]]}},{"type":"Feature","id":"label-BFA-2818","properties":{"kind":"division-label","code":"BFA-2818","countryCode":"BFA","name":"Zondoma","localName":"Zondoma","labelEnglish":"Zondoma","labelLocal":"Zondoma","labelBoth":"Zondoma","type":"Province","iso":"BF-ZON","qid":"Q219859"},"geometry":{"type":"Point","coordinates":[-2.38127,13.1939]}},{"type":"Feature","id":"BFA-2824","properties":{"kind":"division","code":"BFA-2824","countryCode":"BFA","name":"Namentenga","localName":"Namentenga","labelEnglish":"Namentenga","labelLocal":"Namentenga","labelBoth":"Namentenga","type":"Province","iso":"BF-NAM","qid":"Q1142044"},"geometry":{"type":"Polygon","coordinates":[[[-0.6137,12.5058],[-0.2074,12.5605],[-0.1989,12.7879],[-0.366,12.9908],[-0.2263,13.4966],[-0.6083,13.9226],[-0.7486,13.5846],[-0.65,13.2547],[-0.8114,12.9818],[-0.6726,12.6763],[-0.6137,12.5058]]]}},{"type":"Feature","id":"label-BFA-2824","properties":{"kind":"division-label","code":"BFA-2824","countryCode":"BFA","name":"Namentenga","localName":"Namentenga","labelEnglish":"Namentenga","labelLocal":"Namentenga","labelBoth":"Namentenga","type":"Province","iso":"BF-NAM","qid":"Q1142044"},"geometry":{"type":"Point","coordinates":[-0.504021,13.1697]}},{"type":"Feature","id":"BFA-2825","properties":{"kind":"division","code":"BFA-2825","countryCode":"BFA","name":"Sanmatenga","localName":"Sanmatenga","labelEnglish":"Sanmatenga","labelLocal":"Sanmatenga","labelBoth":"Sanmatenga","type":"Province","iso":"BF-SMT","qid":"Q1142039"},"geometry":{"type":"Polygon","coordinates":[[[-0.6726,12.6763],[-0.8114,12.9818],[-0.65,13.2547],[-0.7486,13.5846],[-0.6083,13.9226],[-0.642,13.9709],[-1.3331,13.739],[-1.2993,13.1354],[-1.5025,12.994],[-1.5526,12.9041],[-1.3722,12.858],[-0.84,12.5242],[-0.6726,12.6763]]]}},{"type":"Feature","id":"label-BFA-2825","properties":{"kind":"division-label","code":"BFA-2825","countryCode":"BFA","name":"Sanmatenga","localName":"Sanmatenga","labelEnglish":"Sanmatenga","labelLocal":"Sanmatenga","labelBoth":"Sanmatenga","type":"Province","iso":"BF-SMT","qid":"Q1142039"},"geometry":{"type":"Point","coordinates":[-1.08045,13.227]}},{"type":"Feature","id":"BFA-2811","properties":{"kind":"division","code":"BFA-2811","countryCode":"BFA","name":"Bam","localName":"Bam","labelEnglish":"Bam","labelLocal":"Bam","labelBoth":"Bam","type":"Province","iso":"BF-BAM","qid":"Q620710"},"geometry":{"type":"Polygon","coordinates":[[[-1.742,13.1224],[-1.5025,12.994],[-1.2993,13.1354],[-1.3331,13.739],[-1.5348,13.9027],[-1.747,13.7293],[-1.878,13.5418],[-1.742,13.1224]]]}},{"type":"Feature","id":"label-BFA-2811","properties":{"kind":"division-label","code":"BFA-2811","countryCode":"BFA","name":"Bam","localName":"Bam","labelEnglish":"Bam","labelLocal":"Bam","labelBoth":"Bam","type":"Province","iso":"BF-BAM","qid":"Q620710"},"geometry":{"type":"Point","coordinates":[-1.57778,13.4455]}}]}