{"type":"FeatureCollection","features":[{"type":"Feature","id":"BGD-2476","properties":{"kind":"division","code":"BGD-2476","countryCode":"BGD","name":"Chattogram","localName":"Chattogram","labelEnglish":"Chattogram","labelLocal":"Chattogram","labelBoth":"Chattogram","type":"Division","iso":"BD-B","qid":"Q158087"},"geometry":{"type":"Polygon","coordinates":[[[92.641,21.3086],[92.5759,21.9776],[92.4959,22.6956],[92.3522,22.9603],[92.2597,23.7026],[92.0035,23.6474],[91.7437,23.2723],[91.7956,23.0895],[91.5861,22.9445],[91.3721,23.2619],[91.3005,23.1423],[91.1408,23.6121],[91.3084,23.9925],[91.1534,24.2564],[90.8911,23.8595],[90.7562,23.8465],[90.7023,23.5548],[90.6272,23.0867],[90.9549,22.5758],[91.2416,22.5754],[91.1819,22.7265],[91.4563,22.7848],[91.676,22.5346],[91.99,21.7948],[91.9597,21.424],[92.301,20.7623],[92.2651,21.0611],[92.1837,21.3172],[92.3227,21.4619],[92.641,21.3086]]]}},{"type":"Feature","id":"label-BGD-2476","properties":{"kind":"division-label","code":"BGD-2476","countryCode":"BGD","name":"Chattogram","localName":"Chattogram","labelEnglish":"Chattogram","labelLocal":"Chattogram","labelBoth":"Chattogram","type":"Division","iso":"BD-B","qid":"Q158087"},"geometry":{"type":"Point","coordinates":[92.1333,22.4245]}},{"type":"Feature","id":"BGD-2488","properties":{"kind":"division","code":"BGD-2488","countryCode":"BGD","name":"Sylhet","localName":"Sylhet","labelEnglish":"Sylhet","labelLocal":"Sylhet","labelBoth":"Sylhet","type":"Division","iso":"BD-G","qid":"Q459732"},"geometry":{"type":"Polygon","coordinates":[[[92.15,24.5422],[92.3849,25.0048],[92.0018,25.183],[91.471,25.1339],[90.9348,25.1564],[90.9777,24.8806],[91.1253,24.8801],[91.2392,24.337],[91.1534,24.2564],[91.3084,23.9925],[91.9219,24.3445],[92.15,24.5422]]]}},{"type":"Feature","id":"label-BGD-2488","properties":{"kind":"division-label","code":"BGD-2488","countryCode":"BGD","name":"Sylhet","localName":"Sylhet","labelEnglish":"Sylhet","labelLocal":"Sylhet","labelBoth":"Sylhet","type":"Division","iso":"BD-G","qid":"Q459732"},"geometry":{"type":"Point","coordinates":[91.7033,24.6452]}},{"type":"Feature","id":"BGD-1806","properties":{"kind":"division","code":"BGD-1806","countryCode":"BGD","name":"Dhaka","localName":"Dhaka","labelEnglish":"Dhaka","labelLocal":"Dhaka","labelBoth":"Dhaka","type":"Division","iso":"BD-C","qid":"Q330158"},"geometry":{"type":"Polygon","coordinates":[[[89.7992,25.4029],[89.6815,25.1595],[89.7911,24.7379],[89.7557,24.2745],[89.8325,24.1662],[89.6981,23.8542],[89.3449,23.9207],[89.3085,23.7293],[89.5989,23.4732],[89.6278,23.2404],[89.9288,22.8702],[90.1435,23.0628],[90.4501,23.0493],[90.5991,23.1175],[90.5519,23.385],[90.7023,23.5548],[90.7562,23.8465],[90.8911,23.8595],[91.1534,24.2564],[91.2392,24.337],[91.1253,24.8801],[90.9777,24.8806],[90.9348,25.1564],[90.3646,25.15],[89.7992,25.4029]]]}},{"type":"Feature","id":"label-BGD-1806","properties":{"kind":"division-label","code":"BGD-1806","countryCode":"BGD","name":"Dhaka","localName":"Dhaka","labelEnglish":"Dhaka","labelLocal":"Dhaka","labelBoth":"Dhaka","type":"Division","iso":"BD-C","qid":"Q330158"},"geometry":{"type":"Point","coordinates":[90.4053,24.1653]}},{"type":"Feature","id":"BGD-5492","properties":{"kind":"division","code":"BGD-5492","countryCode":"BGD","name":"Rangpur","localName":"Rangpur","labelEnglish":"Rangpur","labelLocal":"Rangpur","labelBoth":"Rangpur","type":"Division","iso":"BD-F","qid":"Q2344570"},"geometry":{"type":"Polygon","coordinates":[[[89.8086,25.4395],[89.8344,25.9318],[89.6578,26.1872],[89.5491,25.9689],[89.3515,25.9969],[89.0397,26.2472],[88.808,26.2334],[88.4611,26.4539],[88.1638,26.1405],[88.0744,25.9081],[88.5303,25.5002],[88.7723,25.502],[88.9753,25.3026],[89.6815,25.1595],[89.7992,25.4029],[89.8086,25.4395]]]}},{"type":"Feature","id":"label-BGD-5492","properties":{"kind":"division-label","code":"BGD-5492","countryCode":"BGD","name":"Rangpur","localName":"Rangpur","labelEnglish":"Rangpur","labelLocal":"Rangpur","labelBoth":"Rangpur","type":"Division","iso":"BD-F","qid":"Q2344570"},"geometry":{"type":"Point","coordinates":[89.112,25.7571]}},{"type":"Feature","id":"BGD-3255","properties":{"kind":"division","code":"BGD-3255","countryCode":"BGD","name":"Rajshahi","localName":"Rajshahi","labelEnglish":"Rajshahi","labelLocal":"Rajshahi","labelBoth":"Rajshahi","type":"Division","iso":"BD-E","qid":"Q2344697"},"geometry":{"type":"Polygon","coordinates":[[[88.7315,24.1898],[89.3449,23.9207],[89.6981,23.8542],[89.8325,24.1662],[89.7557,24.2745],[89.7911,24.7379],[89.6815,25.1595],[88.9753,25.3026],[88.9242,25.1679],[88.4315,25.173],[88.3136,24.8683],[88.2025,24.9453],[88.0218,24.6456],[88.1388,24.4953],[88.7315,24.1898]]]}},{"type":"Feature","id":"label-BGD-3255","properties":{"kind":"division-label","code":"BGD-3255","countryCode":"BGD","name":"Rajshahi","localName":"Rajshahi","labelEnglish":"Rajshahi","labelLocal":"Rajshahi","labelBoth":"Rajshahi","type":"Division","iso":"BD-E","qid":"Q2344697"},"geometry":{"type":"Point","coordinates":[89.0438,24.6664]}},{"type":"Feature","id":"BGD-2432","properties":{"kind":"division","code":"BGD-2432","countryCode":"BGD","name":"Khulna","localName":"Khulna","labelEnglish":"Khulna","labelLocal":"Khulna","labelBoth":"Khulna","type":"Division","iso":"BD-D","qid":"Q2093344"},"geometry":{"type":"Polygon","coordinates":[[[89.0604,22.1299],[89.2293,21.6439],[89.8872,21.9001],[89.8387,22.2678],[89.9795,22.4701],[89.9288,22.8702],[89.6278,23.2404],[89.5989,23.4732],[89.3085,23.7293],[89.3449,23.9207],[88.7315,24.1898],[88.7142,23.9252],[88.5401,23.65],[88.7679,23.4673],[88.71,23.2412],[88.9547,23.1838],[88.8428,22.9646],[89.0604,22.1299]]]}},{"type":"Feature","id":"label-BGD-2432","properties":{"kind":"division-label","code":"BGD-2432","countryCode":"BGD","name":"Khulna","localName":"Khulna","labelEnglish":"Khulna","labelLocal":"Khulna","labelBoth":"Khulna","type":"Division","iso":"BD-D","qid":"Q2093344"},"geometry":{"type":"Point","coordinates":[89.3708,22.9179]}},{"type":"Feature","id":"BGD-2475","properties":{"kind":"division","code":"BGD-2475","countryCode":"BGD","name":"Barisal","localName":"Barisal","labelEnglish":"Barisal","labelLocal":"Barisal","labelBoth":"Barisal","type":"Division","iso":"BD-A","qid":"Q459723"},"geometry":{"type":"MultiPolygon","coordinates":[[[[90.4501,23.0493],[90.1435,23.0628],[89.9288,22.8702],[89.9795,22.4701],[89.8804,22.2882],[90.0244,21.8625],[90.2727,21.8574],[90.6135,22.3149],[90.4501,23.0493]]],[[[90.7906,22.4953],[90.6506,22.7874],[90.5588,22.6029],[90.688,22.3776],[90.6078,22.0723],[90.8362,22.1782],[90.7906,22.4953]]]]}},{"type":"Feature","id":"label-BGD-2475","properties":{"kind":"division-label","code":"BGD-2475","countryCode":"BGD","name":"Barisal","localName":"Barisal","labelEnglish":"Barisal","labelLocal":"Barisal","labelBoth":"Barisal","type":"Division","iso":"BD-A","qid":"Q459723"},"geometry":{"type":"Point","coordinates":[90.2369,22.4351]}}]}