{"type":"FeatureCollection","features":[{"type":"Feature","id":"BGR-2254","properties":{"kind":"division","code":"BGR-2254","countryCode":"BGR","name":"Burgas","localName":"Бургас","labelEnglish":"Burgas","labelLocal":"Бургас","labelBoth":"Burgas · Бургас","type":"Province","iso":"BG-02","qid":"Q369220"},"geometry":{"type":"Polygon","coordinates":[[[27.0479,42.0829],[27.5464,41.9012],[28.0168,41.9726],[27.6294,42.4586],[27.4534,42.4652],[27.884,42.8484],[27.1191,42.9537],[26.5724,42.9238],[26.6608,42.6958],[27.0895,42.3373],[27.0479,42.0829]]]}},{"type":"Feature","id":"label-BGR-2254","properties":{"kind":"division-label","code":"BGR-2254","countryCode":"BGR","name":"Burgas","localName":"Бургас","labelEnglish":"Burgas","labelLocal":"Бургас","labelBoth":"Burgas · Бургас","type":"Province","iso":"BG-02","qid":"Q369220"},"geometry":{"type":"Point","coordinates":[27.2597,42.5385]}},{"type":"Feature","id":"BGR-2255","properties":{"kind":"division","code":"BGR-2255","countryCode":"BGR","name":"Yambol","localName":"Ямбол","labelEnglish":"Yambol","labelLocal":"Ямбол","labelBoth":"Yambol · Ямбол","type":"Province","iso":"BG-28","qid":"Q220736"},"geometry":{"type":"Polygon","coordinates":[[[27.0479,42.0829],[27.0895,42.3373],[26.6608,42.6958],[26.3782,42.549],[26.1301,42.157],[26.1428,42.0457],[26.5529,41.8816],[26.8379,41.9752],[27.0479,42.0829]]]}},{"type":"Feature","id":"label-BGR-2255","properties":{"kind":"division-label","code":"BGR-2255","countryCode":"BGR","name":"Yambol","localName":"Ямбол","labelEnglish":"Yambol","labelLocal":"Ямбол","labelBoth":"Yambol · Ямбол","type":"Province","iso":"BG-28","qid":"Q220736"},"geometry":{"type":"Point","coordinates":[26.6096,42.2935]}},{"type":"Feature","id":"BGR-2232","properties":{"kind":"division","code":"BGR-2232","countryCode":"BGR","name":"Haskovo","localName":"Хасково","labelEnglish":"Haskovo","labelLocal":"Хасково","labelBoth":"Haskovo · Хасково","type":"Province","iso":"BG-26","qid":"Q182809"},"geometry":{"type":"Polygon","coordinates":[[[26.5529,41.8816],[26.1428,42.0457],[25.623,42.1802],[25.3295,42.1245],[25.2226,41.9037],[25.9169,41.5627],[26.0595,41.6438],[26.3334,41.713],[26.5529,41.8816]]]}},{"type":"Feature","id":"label-BGR-2232","properties":{"kind":"division-label","code":"BGR-2232","countryCode":"BGR","name":"Haskovo","localName":"Хасково","labelEnglish":"Haskovo","labelLocal":"Хасково","labelBoth":"Haskovo · Хасково","type":"Province","iso":"BG-26","qid":"Q182809"},"geometry":{"type":"Point","coordinates":[25.8816,41.8489]}},{"type":"Feature","id":"BGR-2253","properties":{"kind":"division","code":"BGR-2253","countryCode":"BGR","name":"Vidin","localName":"Видин","labelEnglish":"Vidin","labelLocal":"Видин","labelBoth":"Vidin · Видин","type":"Province","iso":"BG-05","qid":"Q2012772"},"geometry":{"type":"Polygon","coordinates":[[[22.6916,44.2284],[22.4659,44.0176],[22.3495,43.8079],[22.6589,43.4013],[22.7243,43.3861],[22.9687,43.5268],[23.0526,43.8428],[22.8505,43.897],[23.0083,44.1004],[22.6916,44.2284]]]}},{"type":"Feature","id":"label-BGR-2253","properties":{"kind":"division-label","code":"BGR-2253","countryCode":"BGR","name":"Vidin","localName":"Видин","labelEnglish":"Vidin","labelLocal":"Видин","labelBoth":"Vidin · Видин","type":"Province","iso":"BG-05","qid":"Q2012772"},"geometry":{"type":"Point","coordinates":[22.7008,43.8092]}},{"type":"Feature","id":"BGR-2245","properties":{"kind":"division","code":"BGR-2245","countryCode":"BGR","name":"Pernik","localName":"Перник","labelEnglish":"Pernik","labelLocal":"Перник","labelBoth":"Pernik · Перник","type":"Province","iso":"BG-14","qid":"Q2012234"},"geometry":{"type":"Polygon","coordinates":[[[22.7396,42.8989],[22.5448,42.8717],[22.4304,42.8171],[22.4413,42.6329],[22.8501,42.3602],[23.2157,42.3732],[23.2785,42.5323],[23.0595,42.7099],[22.7396,42.8989]]]}},{"type":"Feature","id":"label-BGR-2245","properties":{"kind":"division-label","code":"BGR-2245","countryCode":"BGR","name":"Pernik","localName":"Перник","labelEnglish":"Pernik","labelLocal":"Перник","labelBoth":"Pernik · Перник","type":"Province","iso":"BG-14","qid":"Q2012234"},"geometry":{"type":"Point","coordinates":[22.8519,42.6064]}},{"type":"Feature","id":"BGR-2244","properties":{"kind":"division","code":"BGR-2244","countryCode":"BGR","name":"Sofia","localName":"Sofija","labelEnglish":"Sofia","labelLocal":"Sofija","labelBoth":"Sofia · Sofija","type":"Province","iso":"BG-23","qid":"Q202904"},"geometry":{"type":"Polygon","coordinates":[[[22.7396,42.8989],[23.0595,42.7099],[23.2737,42.898],[23.6085,42.8611],[23.5028,42.6579],[23.6544,42.4359],[23.2785,42.5323],[23.2157,42.3732],[23.4936,42.0991],[23.7631,42.1776],[24.0384,42.408],[23.904,42.5695],[24.4082,42.5621],[24.3967,42.7549],[24.1586,42.7809],[23.9775,43.0599],[23.5526,43.0092],[23.3989,43.1629],[22.9829,43.1873],[22.7396,42.8989]]]}},{"type":"Feature","id":"label-BGR-2244","properties":{"kind":"division-label","code":"BGR-2244","countryCode":"BGR","name":"Sofia","localName":"Sofija","labelEnglish":"Sofia","labelLocal":"Sofija","labelBoth":"Sofia · Sofija","type":"Province","iso":"BG-23","qid":"Q202904"},"geometry":{"type":"Point","coordinates":[23.606,42.288]}},{"type":"Feature","id":"BGR-2250","properties":{"kind":"division","code":"BGR-2250","countryCode":"BGR","name":"Montana","localName":"Монтана","labelEnglish":"Montana","labelLocal":"Монтана","labelBoth":"Montana · Монтана","type":"Province","iso":"BG-12","qid":"Q2012057"},"geometry":{"type":"Polygon","coordinates":[[[22.9829,43.1873],[23.3989,43.1629],[23.3272,43.2757],[23.6209,43.834],[23.0526,43.8428],[22.9687,43.5268],[22.7243,43.3861],[22.9829,43.1873]]]}},{"type":"Feature","id":"label-BGR-2250","properties":{"kind":"division-label","code":"BGR-2250","countryCode":"BGR","name":"Montana","localName":"Монтана","labelEnglish":"Montana","labelLocal":"Монтана","labelBoth":"Montana · Монтана","type":"Province","iso":"BG-12","qid":"Q2012057"},"geometry":{"type":"Point","coordinates":[23.1788,43.487]}},{"type":"Feature","id":"BGR-2252","properties":{"kind":"division","code":"BGR-2252","countryCode":"BGR","name":"Kyustendil","localName":"Кюстендил","labelEnglish":"Kyustendil","labelLocal":"Кюстендил","labelBoth":"Kyustendil · Кюстендил","type":"Province","iso":"BG-10","qid":"Q1112985"},"geometry":{"type":"Polygon","coordinates":[[[22.345,42.3134],[22.5069,42.1489],[22.6272,42.0791],[22.8456,42.0074],[23.4936,42.0991],[23.2157,42.3732],[22.8501,42.3602],[22.4413,42.6329],[22.345,42.3134]]]}},{"type":"Feature","id":"label-BGR-2252","properties":{"kind":"division-label","code":"BGR-2252","countryCode":"BGR","name":"Kyustendil","localName":"Кюстендил","labelEnglish":"Kyustendil","labelLocal":"Кюстендил","labelBoth":"Kyustendil · Кюстендил","type":"Province","iso":"BG-10","qid":"Q1112985"},"geometry":{"type":"Point","coordinates":[22.9371,42.2381]}},{"type":"Feature","id":"BGR-3002","properties":{"kind":"division","code":"BGR-3002","countryCode":"BGR","name":"Blagoevgrad","localName":"Благоевград","labelEnglish":"Blagoevgrad","labelLocal":"Благоевград","labelBoth":"Blagoevgrad · Благоевград","type":"Province","iso":"BG-01","qid":"Q804311"},"geometry":{"type":"Polygon","coordinates":[[[22.917,41.3358],[23.6248,41.3771],[24.1977,41.5477],[24.0726,41.6863],[23.8217,41.8238],[23.7631,42.1776],[23.4936,42.0991],[22.8456,42.0074],[22.8821,41.8716],[22.9854,41.6772],[22.9436,41.5232],[22.917,41.3358]]]}},{"type":"Feature","id":"label-BGR-3002","properties":{"kind":"division-label","code":"BGR-3002","countryCode":"BGR","name":"Blagoevgrad","localName":"Благоевград","labelEnglish":"Blagoevgrad","labelLocal":"Благоевград","labelBoth":"Blagoevgrad · Благоевград","type":"Province","iso":"BG-01","qid":"Q804311"},"geometry":{"type":"Point","coordinates":[23.5213,41.743]}},{"type":"Feature","id":"BGR-2261","properties":{"kind":"division","code":"BGR-2261","countryCode":"BGR","name":"Silistra","localName":"Силистра","labelEnglish":"Silistra","labelLocal":"Силистра","labelBoth":"Silistra · Силистра","type":"Province","iso":"BG-19","qid":"Q2012423"},"geometry":{"type":"Polygon","coordinates":[[[27.2527,44.1215],[27.0275,44.177],[26.4158,44.0638],[26.3323,44.0549],[26.3963,43.9496],[27.0008,43.6996],[27.2001,43.6689],[27.6825,43.9873],[27.2527,44.1215]]]}},{"type":"Feature","id":"label-BGR-2261","properties":{"kind":"division-label","code":"BGR-2261","countryCode":"BGR","name":"Silistra","localName":"Силистра","labelEnglish":"Silistra","labelLocal":"Силистра","labelBoth":"Silistra · Силистра","type":"Province","iso":"BG-19","qid":"Q2012423"},"geometry":{"type":"Point","coordinates":[27.0072,43.9352]}},{"type":"Feature","id":"BGR-2262","properties":{"kind":"division","code":"BGR-2262","countryCode":"BGR","name":"Ruse","localName":"Русенска","labelEnglish":"Ruse","labelLocal":"Русенска","labelBoth":"Ruse · Русенска","type":"Province","iso":"BG-18","qid":"Q1251933"},"geometry":{"type":"Polygon","coordinates":[[[25.7329,43.7188],[25.4825,43.6697],[25.6628,43.3967],[26.0205,43.3189],[26.1842,43.5359],[26.3963,43.9496],[26.3323,44.0549],[25.7329,43.7188]]]}},{"type":"Feature","id":"label-BGR-2262","properties":{"kind":"division-label","code":"BGR-2262","countryCode":"BGR","name":"Ruse","localName":"Русенска","labelEnglish":"Ruse","labelLocal":"Русенска","labelBoth":"Ruse · Русенска","type":"Province","iso":"BG-18","qid":"Q1251933"},"geometry":{"type":"Point","coordinates":[25.9305,43.6211]}},{"type":"Feature","id":"BGR-2259","properties":{"kind":"division","code":"BGR-2259","countryCode":"BGR","name":"Dobrich","localName":"Добрич","labelEnglish":"Dobrich","labelLocal":"Добрич","labelBoth":"Dobrich · Добрич","type":"Province","iso":"BG-08","qid":"Q907395"},"geometry":{"type":"Polygon","coordinates":[[[27.6825,43.9873],[27.2001,43.6689],[27.4189,43.5712],[28.087,43.3552],[28.4732,43.3668],[28.5784,43.7413],[27.981,43.8493],[27.6825,43.9873]]]}},{"type":"Feature","id":"label-BGR-2259","properties":{"kind":"division-label","code":"BGR-2259","countryCode":"BGR","name":"Dobrich","localName":"Добрич","labelEnglish":"Dobrich","labelLocal":"Добрич","labelBoth":"Dobrich · Добрич","type":"Province","iso":"BG-08","qid":"Q907395"},"geometry":{"type":"Point","coordinates":[27.9018,43.6874]}},{"type":"Feature","id":"BGR-2251","properties":{"kind":"division","code":"BGR-2251","countryCode":"BGR","name":"Vratsa","localName":"Враца","labelEnglish":"Vratsa","labelLocal":"Враца","labelBoth":"Vratsa · Враца","type":"Province","iso":"BG-06","qid":"Q2012785"},"geometry":{"type":"Polygon","coordinates":[[[23.6209,43.834],[23.3272,43.2757],[23.3989,43.1629],[23.5526,43.0092],[23.9775,43.0599],[24.0268,43.2117],[24.2281,43.3431],[24.1202,43.589],[24.3367,43.7593],[24.1496,43.7547],[23.6209,43.834]]]}},{"type":"Feature","id":"label-BGR-2251","properties":{"kind":"division-label","code":"BGR-2251","countryCode":"BGR","name":"Vratsa","localName":"Враца","labelEnglish":"Vratsa","labelLocal":"Враца","labelBoth":"Vratsa · Враца","type":"Province","iso":"BG-06","qid":"Q2012785"},"geometry":{"type":"Point","coordinates":[23.832,43.4325]}},{"type":"Feature","id":"BGR-2248","properties":{"kind":"division","code":"BGR-2248","countryCode":"BGR","name":"Pleven","localName":"Плевенска","labelEnglish":"Pleven","labelLocal":"Плевенска","labelBoth":"Pleven · Плевенска","type":"Province","iso":"BG-15","qid":"Q2012242"},"geometry":{"type":"Polygon","coordinates":[[[24.6618,43.7557],[24.3367,43.7593],[24.1202,43.589],[24.2281,43.3431],[24.0268,43.2117],[24.7528,43.3087],[25.1116,43.2799],[25.2854,43.6904],[24.6618,43.7557]]]}},{"type":"Feature","id":"label-BGR-2248","properties":{"kind":"division-label","code":"BGR-2248","countryCode":"BGR","name":"Pleven","localName":"Плевенска","labelEnglish":"Pleven","labelLocal":"Плевенска","labelBoth":"Pleven · Плевенска","type":"Province","iso":"BG-15","qid":"Q2012242"},"geometry":{"type":"Point","coordinates":[24.6181,43.4953]}},{"type":"Feature","id":"BGR-2249","properties":{"kind":"division","code":"BGR-2249","countryCode":"BGR","name":"Veliko Tarnovo","localName":"Велико Търново","labelEnglish":"Veliko Tarnovo","labelLocal":"Велико Търново","labelBoth":"Veliko Tarnovo · Велико Търново","type":"Province","iso":"BG-04","qid":"Q2012621"},"geometry":{"type":"Polygon","coordinates":[[[25.2854,43.6904],[25.1116,43.2799],[25.0725,43.1811],[25.5594,43.0332],[25.6201,42.767],[25.8109,42.7828],[26.172,42.9491],[26.0205,43.3189],[25.6628,43.3967],[25.4825,43.6697],[25.2854,43.6904]]]}},{"type":"Feature","id":"label-BGR-2249","properties":{"kind":"division-label","code":"BGR-2249","countryCode":"BGR","name":"Veliko Tarnovo","localName":"Велико Търново","labelEnglish":"Veliko Tarnovo","labelLocal":"Велико Търново","labelBoth":"Veliko Tarnovo · Велико Търново","type":"Province","iso":"BG-04","qid":"Q2012621"},"geometry":{"type":"Point","coordinates":[25.6222,42.8079]}},{"type":"Feature","id":"BGR-2237","properties":{"kind":"division","code":"BGR-2237","countryCode":"BGR","name":"Kardzhali","localName":"Кърджалийска","labelEnglish":"Kardzhali","labelLocal":"Кърджалийска","labelBoth":"Kardzhali · Кърджалийска","type":"Province","iso":"BG-09","qid":"Q1104675"},"geometry":{"type":"Polygon","coordinates":[[[26.0595,41.6438],[25.9169,41.5627],[25.2226,41.9037],[25.0671,41.795],[25.1538,41.3075],[25.2857,41.2394],[25.882,41.304],[26.1743,41.446],[26.0595,41.6438]]]}},{"type":"Feature","id":"label-BGR-2237","properties":{"kind":"division-label","code":"BGR-2237","countryCode":"BGR","name":"Kardzhali","localName":"Кърджалийска","labelEnglish":"Kardzhali","labelLocal":"Кърджалийска","labelBoth":"Kardzhali · Кърджалийска","type":"Province","iso":"BG-09","qid":"Q1104675"},"geometry":{"type":"Point","coordinates":[25.5852,41.5377]}},{"type":"Feature","id":"BGR-2236","properties":{"kind":"division","code":"BGR-2236","countryCode":"BGR","name":"Smolyan","localName":"Смолян","labelEnglish":"Smolyan","labelLocal":"Смолян","labelBoth":"Smolyan · Смолян","type":"Province","iso":"BG-21","qid":"Q2012430"},"geometry":{"type":"Polygon","coordinates":[[[24.1977,41.5477],[24.5102,41.5617],[24.7744,41.3481],[25.1538,41.3075],[25.0671,41.795],[24.4511,41.9494],[24.0726,41.6863],[24.1977,41.5477]]]}},{"type":"Feature","id":"label-BGR-2236","properties":{"kind":"division-label","code":"BGR-2236","countryCode":"BGR","name":"Smolyan","localName":"Смолян","labelEnglish":"Smolyan","labelLocal":"Смолян","labelBoth":"Smolyan · Смолян","type":"Province","iso":"BG-21","qid":"Q2012430"},"geometry":{"type":"Point","coordinates":[24.6089,41.6644]}},{"type":"Feature","id":"BGR-2260","properties":{"kind":"division","code":"BGR-2260","countryCode":"BGR","name":"Varna","localName":"Варна","labelEnglish":"Varna","labelLocal":"Варна","labelBoth":"Varna · Варна","type":"Province","iso":"BG-03","qid":"Q183487"},"geometry":{"type":"Polygon","coordinates":[[[28.087,43.3552],[27.4189,43.5712],[27.1531,43.207],[27.1191,42.9537],[27.884,42.8484],[28.087,43.3552]]]}},{"type":"Feature","id":"label-BGR-2260","properties":{"kind":"division-label","code":"BGR-2260","countryCode":"BGR","name":"Varna","localName":"Варна","labelEnglish":"Varna","labelLocal":"Варна","labelBoth":"Varna · Варна","type":"Province","iso":"BG-03","qid":"Q183487"},"geometry":{"type":"Point","coordinates":[27.5827,43.2097]}},{"type":"Feature","id":"BGR-2235","properties":{"kind":"division","code":"BGR-2235","countryCode":"BGR","name":"Plovdiv","localName":"Пловдив","labelEnglish":"Plovdiv","labelLocal":"Пловдив","labelBoth":"Plovdiv · Пловдив","type":"Province","iso":"BG-16","qid":"Q187874"},"geometry":{"type":"Polygon","coordinates":[[[25.0115,42.7483],[25.0112,42.7585],[24.3967,42.7549],[24.4082,42.5621],[24.4511,41.9494],[25.0671,41.795],[25.2226,41.9037],[25.3295,42.1245],[25.088,42.188],[25.1595,42.5097],[25.0115,42.7483]]]}},{"type":"Feature","id":"label-BGR-2235","properties":{"kind":"division-label","code":"BGR-2235","countryCode":"BGR","name":"Plovdiv","localName":"Пловдив","labelEnglish":"Plovdiv","labelLocal":"Пловдив","labelBoth":"Plovdiv · Пловдив","type":"Province","iso":"BG-16","qid":"Q187874"},"geometry":{"type":"Point","coordinates":[24.8449,42.3061]}},{"type":"Feature","id":"BGR-2233","properties":{"kind":"division","code":"BGR-2233","countryCode":"BGR","name":"Stara Zagora","localName":"Стара Загора","labelEnglish":"Stara Zagora","labelLocal":"Стара Загора","labelBoth":"Stara Zagora · Стара Загора","type":"Province","iso":"BG-24","qid":"Q2012583"},"geometry":{"type":"Polygon","coordinates":[[[25.0115,42.7483],[25.1595,42.5097],[25.088,42.188],[25.3295,42.1245],[25.623,42.1802],[26.1428,42.0457],[26.1301,42.157],[26.0246,42.1527],[25.8109,42.7828],[25.6201,42.767],[25.0115,42.7483]]]}},{"type":"Feature","id":"label-BGR-2233","properties":{"kind":"division-label","code":"BGR-2233","countryCode":"BGR","name":"Stara Zagora","localName":"Стара Загора","labelEnglish":"Stara Zagora","labelLocal":"Стара Загора","labelBoth":"Stara Zagora · Стара Загора","type":"Province","iso":"BG-24","qid":"Q2012583"},"geometry":{"type":"Point","coordinates":[25.5689,42.4759]}},{"type":"Feature","id":"BGR-2231","properties":{"kind":"division","code":"BGR-2231","countryCode":"BGR","name":"Sliven","localName":"Сливен","labelEnglish":"Sliven","labelLocal":"Сливен","labelBoth":"Sliven · Сливен","type":"Province","iso":"BG-20","qid":"Q113120"},"geometry":{"type":"Polygon","coordinates":[[[25.8109,42.7828],[26.0246,42.1527],[26.1301,42.157],[26.3782,42.549],[26.6608,42.6958],[26.5724,42.9238],[26.5743,42.9866],[26.172,42.9491],[25.8109,42.7828]]]}},{"type":"Feature","id":"label-BGR-2231","properties":{"kind":"division-label","code":"BGR-2231","countryCode":"BGR","name":"Sliven","localName":"Сливен","labelEnglish":"Sliven","labelLocal":"Сливен","labelBoth":"Sliven · Сливен","type":"Province","iso":"BG-20","qid":"Q113120"},"geometry":{"type":"Point","coordinates":[26.2373,42.7164]}},{"type":"Feature","id":"BGR-2258","properties":{"kind":"division","code":"BGR-2258","countryCode":"BGR","name":"Shumen","localName":"Шумен","labelEnglish":"Shumen","labelLocal":"Шумен","labelBoth":"Shumen · Шумен","type":"Province","iso":"BG-27","qid":"Q184981"},"geometry":{"type":"Polygon","coordinates":[[[26.5724,42.9238],[27.1191,42.9537],[27.1531,43.207],[27.4189,43.5712],[27.2001,43.6689],[27.0008,43.6996],[26.7231,43.4109],[26.7643,43.2094],[26.5743,42.9866],[26.5724,42.9238]]]}},{"type":"Feature","id":"label-BGR-2258","properties":{"kind":"division-label","code":"BGR-2258","countryCode":"BGR","name":"Shumen","localName":"Шумен","labelEnglish":"Shumen","labelLocal":"Шумен","labelBoth":"Shumen · Шумен","type":"Province","iso":"BG-27","qid":"Q184981"},"geometry":{"type":"Point","coordinates":[26.9857,43.2942]}},{"type":"Feature","id":"BGR-2256","properties":{"kind":"division","code":"BGR-2256","countryCode":"BGR","name":"Razgrad","localName":"Разград","labelEnglish":"Razgrad","labelLocal":"Разград","labelBoth":"Razgrad · Разград","type":"Province","iso":"BG-17","qid":"Q2790675"},"geometry":{"type":"Polygon","coordinates":[[[27.0008,43.6996],[26.3963,43.9496],[26.1842,43.5359],[26.5984,43.3422],[26.7231,43.4109],[27.0008,43.6996]]]}},{"type":"Feature","id":"label-BGR-2256","properties":{"kind":"division-label","code":"BGR-2256","countryCode":"BGR","name":"Razgrad","localName":"Разград","labelEnglish":"Razgrad","labelLocal":"Разград","labelBoth":"Razgrad · Разград","type":"Province","iso":"BG-17","qid":"Q2790675"},"geometry":{"type":"Point","coordinates":[26.5873,43.6291]}},{"type":"Feature","id":"BGR-2257","properties":{"kind":"division","code":"BGR-2257","countryCode":"BGR","name":"Targovishte","localName":"Търговищка","labelEnglish":"Targovishte","labelLocal":"Търговищка","labelBoth":"Targovishte · Търговищка","type":"Province","iso":"BG-25","qid":"Q2012589"},"geometry":{"type":"Polygon","coordinates":[[[26.172,42.9491],[26.5743,42.9866],[26.7643,43.2094],[26.7231,43.4109],[26.5984,43.3422],[26.1842,43.5359],[26.0205,43.3189],[26.172,42.9491]]]}},{"type":"Feature","id":"label-BGR-2257","properties":{"kind":"division-label","code":"BGR-2257","countryCode":"BGR","name":"Targovishte","localName":"Търговищка","labelEnglish":"Targovishte","labelLocal":"Търговищка","labelBoth":"Targovishte · Търговищка","type":"Province","iso":"BG-25","qid":"Q2012589"},"geometry":{"type":"Point","coordinates":[26.3637,43.2251]}},{"type":"Feature","id":"BGR-2246","properties":{"kind":"division","code":"BGR-2246","countryCode":"BGR","name":"Gabrovo","localName":"Габрово","labelEnglish":"Gabrovo","labelLocal":"Габрово","labelBoth":"Gabrovo · Габрово","type":"Province","iso":"BG-07","qid":"Q1007272"},"geometry":{"type":"Polygon","coordinates":[[[25.0115,42.7483],[25.6201,42.767],[25.5594,43.0332],[25.0725,43.1811],[24.8675,42.9868],[25.0112,42.7585],[25.0115,42.7483]]]}},{"type":"Feature","id":"label-BGR-2246","properties":{"kind":"division-label","code":"BGR-2246","countryCode":"BGR","name":"Gabrovo","localName":"Габрово","labelEnglish":"Gabrovo","labelLocal":"Габрово","labelBoth":"Gabrovo · Габрово","type":"Province","iso":"BG-07","qid":"Q1007272"},"geometry":{"type":"Point","coordinates":[25.2475,42.9256]}},{"type":"Feature","id":"BGR-2234","properties":{"kind":"division","code":"BGR-2234","countryCode":"BGR","name":"Pazardzhik","localName":"Пазарджик","labelEnglish":"Pazardzhik","labelLocal":"Пазарджик","labelBoth":"Pazardzhik · Пазарджик","type":"Province","iso":"BG-13","qid":"Q2012227"},"geometry":{"type":"Polygon","coordinates":[[[24.4082,42.5621],[23.904,42.5695],[24.0384,42.408],[23.7631,42.1776],[23.8217,41.8238],[24.0726,41.6863],[24.4511,41.9494],[24.4082,42.5621]]]}},{"type":"Feature","id":"label-BGR-2234","properties":{"kind":"division-label","code":"BGR-2234","countryCode":"BGR","name":"Pazardzhik","localName":"Пазарджик","labelEnglish":"Pazardzhik","labelLocal":"Пазарджик","labelBoth":"Pazardzhik · Пазарджик","type":"Province","iso":"BG-13","qid":"Q2012227"},"geometry":{"type":"Point","coordinates":[24.1391,42.192]}},{"type":"Feature","id":"BGR-2247","properties":{"kind":"division","code":"BGR-2247","countryCode":"BGR","name":"Lovech","localName":"Ловеч","labelEnglish":"Lovech","labelLocal":"Ловеч","labelBoth":"Lovech · Ловеч","type":"Province","iso":"BG-11","qid":"Q6587068"},"geometry":{"type":"Polygon","coordinates":[[[24.3967,42.7549],[25.0112,42.7585],[24.8675,42.9868],[25.0725,43.1811],[25.1116,43.2799],[24.7528,43.3087],[24.0268,43.2117],[23.9775,43.0599],[24.1586,42.7809],[24.3967,42.7549]]]}},{"type":"Feature","id":"label-BGR-2247","properties":{"kind":"division-label","code":"BGR-2247","countryCode":"BGR","name":"Lovech","localName":"Ловеч","labelEnglish":"Lovech","labelLocal":"Ловеч","labelBoth":"Lovech · Ловеч","type":"Province","iso":"BG-11","qid":"Q6587068"},"geometry":{"type":"Point","coordinates":[24.5374,43.0037]}},{"type":"Feature","id":"BGR-2243","properties":{"kind":"division","code":"BGR-2243","countryCode":"BGR","name":"Sofia","localName":"София-град","labelEnglish":"Sofia","labelLocal":"София-град","labelBoth":"Sofia · София-град","type":"Province","iso":"BG-22","qid":"Q1585725"},"geometry":{"type":"Polygon","coordinates":[[[23.2785,42.5323],[23.6544,42.4359],[23.5028,42.6579],[23.6085,42.8611],[23.2737,42.898],[23.0595,42.7099],[23.2785,42.5323]]]}},{"type":"Feature","id":"label-BGR-2243","properties":{"kind":"division-label","code":"BGR-2243","countryCode":"BGR","name":"Sofia","localName":"София-град","labelEnglish":"Sofia","labelLocal":"София-град","labelBoth":"Sofia · София-град","type":"Province","iso":"BG-22","qid":"Q1585725"},"geometry":{"type":"Point","coordinates":[23.357,42.679]}}]}