{"type":"FeatureCollection","features":[{"type":"Feature","id":"BHR-4929","properties":{"kind":"division","code":"BHR-4929","countryCode":"BHR","name":"Capital","localName":"محافظة العاصمة","labelEnglish":"Capital","labelLocal":"محافظة العاصمة","labelBoth":"Capital · محافظة العاصمة","type":"Governorate","iso":"BH-13","qid":"Q528953"},"geometry":{"type":"Polygon","coordinates":[[[50.5039,26.242],[50.5516,26.1942],[50.5867,26.2425],[50.5039,26.242]]]}},{"type":"Feature","id":"label-BHR-4929","properties":{"kind":"division-label","code":"BHR-4929","countryCode":"BHR","name":"Capital","localName":"محافظة العاصمة","labelEnglish":"Capital","labelLocal":"محافظة العاصمة","labelBoth":"Capital · محافظة العاصمة","type":"Governorate","iso":"BH-13","qid":"Q528953"},"geometry":{"type":"Point","coordinates":[50.5777,26.2204]}},{"type":"Feature","id":"BHR-4927","properties":{"kind":"division","code":"BHR-4927","countryCode":"BHR","name":"Northern","localName":"لمحافظة الشمالية","labelEnglish":"Northern","labelLocal":"لمحافظة الشمالية","labelBoth":"Northern · لمحافظة الشمالية","type":"Governorate","iso":"BH-17","qid":"Q840445"},"geometry":{"type":"Polygon","coordinates":[[[50.4909,26.048],[50.5245,26.1289],[50.5516,26.1942],[50.5039,26.242],[50.4909,26.048]]]}},{"type":"Feature","id":"label-BHR-4927","properties":{"kind":"division-label","code":"BHR-4927","countryCode":"BHR","name":"Northern","localName":"لمحافظة الشمالية","labelEnglish":"Northern","labelLocal":"لمحافظة الشمالية","labelBoth":"Northern · لمحافظة الشمالية","type":"Governorate","iso":"BH-17","qid":"Q840445"},"geometry":{"type":"Point","coordinates":[50.4868,26.1624]}},{"type":"Feature","id":"BHR-4926","properties":{"kind":"division","code":"BHR-4926","countryCode":"BHR","name":"Southern","localName":"المحافظة الجنوبية","labelEnglish":"Southern","labelLocal":"المحافظة الجنوبية","labelBoth":"Southern · المحافظة الجنوبية","type":"Governorate","iso":"BH-14","qid":"Q838532"},"geometry":{"type":"Polygon","coordinates":[[[50.6163,26.0959],[50.5245,26.1289],[50.4909,26.048],[50.6163,26.0959]]]}},{"type":"Feature","id":"label-BHR-4926","properties":{"kind":"division-label","code":"BHR-4926","countryCode":"BHR","name":"Southern","localName":"المحافظة الجنوبية","labelEnglish":"Southern","labelLocal":"المحافظة الجنوبية","labelBoth":"Southern · المحافظة الجنوبية","type":"Governorate","iso":"BH-14","qid":"Q838532"},"geometry":{"type":"Point","coordinates":[50.5622,25.9688]}},{"type":"Feature","id":"BHR-4928","properties":{"kind":"division","code":"BHR-4928","countryCode":"BHR","name":"Central","localName":"لمحافظة الوسطى","labelEnglish":"Central","labelLocal":"لمحافظة الوسطى","labelBoth":"Central · لمحافظة الوسطى","type":"Governorate","iso":"BH-16","qid":"Q856539"},"geometry":{"type":"Polygon","coordinates":[[[50.5516,26.1942],[50.5245,26.1289],[50.6163,26.0959],[50.5516,26.1942]]]}},{"type":"Feature","id":"label-BHR-4928","properties":{"kind":"division-label","code":"BHR-4928","countryCode":"BHR","name":"Central","localName":"لمحافظة الوسطى","labelEnglish":"Central","labelLocal":"لمحافظة الوسطى","labelBoth":"Central · لمحافظة الوسطى","type":"Governorate","iso":"BH-16","qid":"Q856539"},"geometry":{"type":"Point","coordinates":[50.5738,26.1373]}},{"type":"Feature","id":"BHR-4930","properties":{"kind":"division","code":"BHR-4930","countryCode":"BHR","name":"Muharraq","localName":"محافظة المحرق‎","labelEnglish":"Muharraq","labelLocal":"محافظة المحرق‎","labelBoth":"Muharraq · محافظة المحرق‎","type":"Governorate","iso":"BH-15","qid":"Q375630"},"geometry":{"type":"Polygon","coordinates":[[[50.6017,26.2789],[50.6736,26.2026],[50.6553,26.2767],[50.6017,26.2789]]]}},{"type":"Feature","id":"label-BHR-4930","properties":{"kind":"division-label","code":"BHR-4930","countryCode":"BHR","name":"Muharraq","localName":"محافظة المحرق‎","labelEnglish":"Muharraq","labelLocal":"محافظة المحرق‎","labelBoth":"Muharraq · محافظة المحرق‎","type":"Governorate","iso":"BH-15","qid":"Q375630"},"geometry":{"type":"Point","coordinates":[50.6376,26.261]}}]}