{"type":"FeatureCollection","features":[{"type":"Feature","id":"BHS-5038","properties":{"kind":"division","code":"BHS-5038","countryCode":"BHS","name":"Inagua","localName":"Inagua","labelEnglish":"Inagua","labelLocal":"Inagua","labelBoth":"Inagua","type":"District","iso":"BS-IN","qid":"Q1353668"},"geometry":{"type":"Polygon","coordinates":[[[-73.6471,21.0616],[-73.6451,20.9124],[-73.1298,20.9937],[-73.053,21.3293],[-73.2552,21.1351],[-73.3899,21.2333],[-73.6471,21.0616]]]}},{"type":"Feature","id":"label-BHS-5038","properties":{"kind":"division-label","code":"BHS-5038","countryCode":"BHS","name":"Inagua","localName":"Inagua","labelEnglish":"Inagua","labelLocal":"Inagua","labelBoth":"Inagua","type":"District","iso":"BS-IN","qid":"Q1353668"},"geometry":{"type":"Point","coordinates":[-73.3607,21.06]}},{"type":"Feature","id":"BHS-5037","properties":{"kind":"division","code":"BHS-5037","countryCode":"BHS","name":"Mayaguana","localName":"Mayaguana","labelEnglish":"Mayaguana","labelLocal":"Mayaguana","labelBoth":"Mayaguana","type":"District","iso":"BS-MG","qid":"Q21712462"},"geometry":{"type":"Polygon","coordinates":[[[-73.1391,22.3633],[-72.755,22.3497],[-73.1317,22.4595],[-73.1391,22.3633]]]}},{"type":"Feature","id":"label-BHS-5037","properties":{"kind":"division-label","code":"BHS-5037","countryCode":"BHS","name":"Mayaguana","localName":"Mayaguana","labelEnglish":"Mayaguana","labelLocal":"Mayaguana","labelBoth":"Mayaguana","type":"District","iso":"BS-MG","qid":"Q21712462"},"geometry":{"type":"Point","coordinates":[-73.0295,22.3849]}},{"type":"Feature","id":"BHS-5036","properties":{"kind":"division","code":"BHS-5036","countryCode":"BHS","name":"Acklins","localName":"Acklins","labelEnglish":"Acklins","labelLocal":"Acklins","labelBoth":"Acklins","type":"District","iso":"BS-AK","qid":"Q341919"},"geometry":{"type":"Polygon","coordinates":[[[-73.9957,22.6575],[-73.8654,22.48],[-73.8517,22.7333],[-73.9957,22.6575]]]}},{"type":"Feature","id":"label-BHS-5036","properties":{"kind":"division-label","code":"BHS-5036","countryCode":"BHS","name":"Acklins","localName":"Acklins","labelEnglish":"Acklins","labelLocal":"Acklins","labelBoth":"Acklins","type":"District","iso":"BS-AK","qid":"Q341919"},"geometry":{"type":"Point","coordinates":[-74.0024,22.3745]}},{"type":"Feature","id":"BHS-5035","properties":{"kind":"division","code":"BHS-5035","countryCode":"BHS","name":"Crooked Island","localName":"Crooked Island","labelEnglish":"Crooked Island","labelLocal":"Crooked Island","labelBoth":"Crooked Island","type":"District","iso":"BS-CK","qid":"Q1140993"},"geometry":{"type":"Polygon","coordinates":[[[-74.2869,22.7333],[-74.0162,22.7202],[-74.352,22.8227],[-74.2869,22.7333]]]}},{"type":"Feature","id":"label-BHS-5035","properties":{"kind":"division-label","code":"BHS-5035","countryCode":"BHS","name":"Crooked Island","localName":"Crooked Island","labelEnglish":"Crooked Island","labelLocal":"Crooked Island","labelBoth":"Crooked Island","type":"District","iso":"BS-CK","qid":"Q1140993"},"geometry":{"type":"Point","coordinates":[-74.2405,22.7472]}},{"type":"Feature","id":"BHS-5024","properties":{"kind":"division","code":"BHS-5024","countryCode":"BHS","name":"Exuma","localName":"Exuma","labelEnglish":"Exuma","labelLocal":"Exuma","labelBoth":"Exuma","type":"District","iso":"BS-EX","qid":"Q1385577"},"geometry":{"type":"Polygon","coordinates":[[[-75.7982,23.5386],[-75.99,23.686],[-75.9877,23.6008],[-75.7982,23.5386]]]}},{"type":"Feature","id":"label-BHS-5024","properties":{"kind":"division-label","code":"BHS-5024","countryCode":"BHS","name":"Exuma","localName":"Exuma","labelEnglish":"Exuma","labelLocal":"Exuma","labelBoth":"Exuma","type":"District","iso":"BS-EX","qid":"Q1385577"},"geometry":{"type":"Point","coordinates":[-75.9069,23.5855]}},{"type":"Feature","id":"BHS-5033","properties":{"kind":"division","code":"BHS-5033","countryCode":"BHS","name":"Long Island","localName":"Long Island","labelEnglish":"Long Island","labelLocal":"Long Island","labelBoth":"Long Island","type":"District","iso":"BS-LI","qid":"Q890879"},"geometry":{"type":"Polygon","coordinates":[[[-74.8591,22.9803],[-74.9905,23.0786],[-74.84,22.8599],[-74.8591,22.9803]]]}},{"type":"Feature","id":"label-BHS-5033","properties":{"kind":"division-label","code":"BHS-5033","countryCode":"BHS","name":"Long Island","localName":"Long Island","labelEnglish":"Long Island","labelLocal":"Long Island","labelBoth":"Long Island","type":"District","iso":"BS-LI","qid":"Q890879"},"geometry":{"type":"Point","coordinates":[-74.9132,23.037]}},{"type":"Feature","id":"BHS-5032","properties":{"kind":"division","code":"BHS-5032","countryCode":"BHS","name":"Rum Cay","localName":"Rum Cay","labelEnglish":"Rum Cay","labelLocal":"Rum Cay","labelBoth":"Rum Cay","type":"District","iso":"BS-RC","qid":"Q1859950"},"geometry":{"type":"Polygon","coordinates":[[[-74.9001,23.7065],[-74.8187,23.6511],[-74.7772,23.6997],[-74.9001,23.7065]]]}},{"type":"Feature","id":"label-BHS-5032","properties":{"kind":"division-label","code":"BHS-5032","countryCode":"BHS","name":"Rum Cay","localName":"Rum Cay","labelEnglish":"Rum Cay","labelLocal":"Rum Cay","labelBoth":"Rum Cay","type":"District","iso":"BS-RC","qid":"Q1859950"},"geometry":{"type":"Point","coordinates":[-74.8408,23.6787]}},{"type":"Feature","id":"BHS-5023","properties":{"kind":"division","code":"BHS-5023","countryCode":"BHS","name":"Black Point","localName":"Black Point","labelEnglish":"Black Point","labelLocal":"Black Point","labelBoth":"Black Point","type":"District","iso":"BS-BP","qid":"Q2525298"},"geometry":{"type":"Polygon","coordinates":[[[-76.3252,23.974],[-76.3768,24.1014],[-76.4015,24.1029],[-76.3252,23.974]]]}},{"type":"Feature","id":"label-BHS-5023","properties":{"kind":"division-label","code":"BHS-5023","countryCode":"BHS","name":"Black Point","localName":"Black Point","labelEnglish":"Black Point","labelLocal":"Black Point","labelBoth":"Black Point","type":"District","iso":"BS-BP","qid":"Q2525298"},"geometry":{"type":"Point","coordinates":[-76.3623,24.072]}},{"type":"Feature","id":"BHS-5031","properties":{"kind":"division","code":"BHS-5031","countryCode":"BHS","name":"San Salvador Island","localName":"San Salvador Island","labelEnglish":"San Salvador Island","labelLocal":"San Salvador Island","labelBoth":"San Salvador Island","type":"District","iso":"BS-SS","qid":"Q845540"},"geometry":{"type":"Polygon","coordinates":[[[-74.4687,24.0218],[-74.5297,24.1004],[-74.5581,23.9536],[-74.4687,24.0218]]]}},{"type":"Feature","id":"label-BHS-5031","properties":{"kind":"division-label","code":"BHS-5031","countryCode":"BHS","name":"San Salvador Island","localName":"San Salvador Island","labelEnglish":"San Salvador Island","labelLocal":"San Salvador Island","labelBoth":"San Salvador Island","type":"District","iso":"BS-SS","qid":"Q845540"},"geometry":{"type":"Point","coordinates":[-74.4785,24.0513]}},{"type":"Feature","id":"BHS-5020","properties":{"kind":"division","code":"BHS-5020","countryCode":"BHS","name":"Central Andros","localName":"Central Andros","labelEnglish":"Central Andros","labelLocal":"Central Andros","labelBoth":"Central Andros","type":"District","iso":"BS-CS","qid":"Q2096558"},"geometry":{"type":"Polygon","coordinates":[[[-77.7418,24.6347],[-78.1344,24.5016],[-78.0519,24.2887],[-77.7279,24.4742],[-77.7418,24.6347]]]}},{"type":"Feature","id":"label-BHS-5020","properties":{"kind":"division-label","code":"BHS-5020","countryCode":"BHS","name":"Central Andros","localName":"Central Andros","labelEnglish":"Central Andros","labelLocal":"Central Andros","labelBoth":"Central Andros","type":"District","iso":"BS-CS","qid":"Q2096558"},"geometry":{"type":"Point","coordinates":[-77.9355,24.4757]}},{"type":"Feature","id":"BHS-5021","properties":{"kind":"division","code":"BHS-5021","countryCode":"BHS","name":"Mangrove Cay","localName":"Mangrove Cay","labelEnglish":"Mangrove Cay","labelLocal":"Mangrove Cay","labelBoth":"Mangrove Cay","type":"District","iso":"BS-MC","qid":"Q2702334"},"geometry":{"type":"Polygon","coordinates":[[[-77.8226,23.9802],[-77.744,24.0355],[-77.6752,24.303],[-77.942,24.0969],[-77.8226,23.9802]]]}},{"type":"Feature","id":"label-BHS-5021","properties":{"kind":"division-label","code":"BHS-5021","countryCode":"BHS","name":"Mangrove Cay","localName":"Mangrove Cay","labelEnglish":"Mangrove Cay","labelLocal":"Mangrove Cay","labelBoth":"Mangrove Cay","type":"District","iso":"BS-MC","qid":"Q2702334"},"geometry":{"type":"Point","coordinates":[-77.8018,24.0806]}},{"type":"Feature","id":"BHS-5022","properties":{"kind":"division","code":"BHS-5022","countryCode":"BHS","name":"South Andros","localName":"South Andros","labelEnglish":"South Andros","labelLocal":"South Andros","labelBoth":"South Andros","type":"District","iso":"BS-SA","qid":"Q2408672"},"geometry":{"type":"Polygon","coordinates":[[[-77.744,24.0355],[-77.8226,23.9802],[-77.5973,23.7306],[-77.5165,23.9189],[-77.6075,24.2182],[-77.744,24.0355]]]}},{"type":"Feature","id":"label-BHS-5022","properties":{"kind":"division-label","code":"BHS-5022","countryCode":"BHS","name":"South Andros","localName":"South Andros","labelEnglish":"South Andros","labelLocal":"South Andros","labelBoth":"South Andros","type":"District","iso":"BS-SA","qid":"Q2408672"},"geometry":{"type":"Point","coordinates":[-77.6043,23.7822]}},{"type":"Feature","id":"BHS-5030","properties":{"kind":"division","code":"BHS-5030","countryCode":"BHS","name":"Cat Island","localName":"Cat Island","labelEnglish":"Cat Island","labelLocal":"Cat Island","labelBoth":"Cat Island","type":"District","iso":"BS-CI","qid":"Q1050154"},"geometry":{"type":"Polygon","coordinates":[[[-75.3147,24.2174],[-75.5715,24.4888],[-75.4147,24.2131],[-75.3147,24.2174]]]}},{"type":"Feature","id":"label-BHS-5030","properties":{"kind":"division-label","code":"BHS-5030","countryCode":"BHS","name":"Cat Island","localName":"Cat Island","labelEnglish":"Cat Island","labelLocal":"Cat Island","labelBoth":"Cat Island","type":"District","iso":"BS-CI","qid":"Q1050154"},"geometry":{"type":"Point","coordinates":[-75.3894,24.2583]}},{"type":"Feature","id":"BHS-5009","properties":{"kind":"division","code":"BHS-5009","countryCode":"BHS","name":"New Providence","localName":"New Providence","labelEnglish":"New Providence","labelLocal":"New Providence","labelBoth":"New Providence","type":"Capital","iso":"BS-X01~","qid":"Q858513"},"geometry":{"type":"Polygon","coordinates":[[[-77.48,24.9914],[-77.2638,25.0581],[-77.456,25.077],[-77.48,24.9914]]]}},{"type":"Feature","id":"label-BHS-5009","properties":{"kind":"division-label","code":"BHS-5009","countryCode":"BHS","name":"New Providence","localName":"New Providence","labelEnglish":"New Providence","labelLocal":"New Providence","labelBoth":"New Providence","type":"Capital","iso":"BS-X01~","qid":"Q858513"},"geometry":{"type":"Point","coordinates":[-77.4356,25.0149]}},{"type":"Feature","id":"BHS-5019","properties":{"kind":"division","code":"BHS-5019","countryCode":"BHS","name":"North Andros","localName":"North Andros","labelEnglish":"North Andros","labelLocal":"North Andros","labelBoth":"North Andros","type":"District","iso":"BS-NS","qid":"Q2699411"},"geometry":{"type":"Polygon","coordinates":[[[-78.1344,24.5016],[-77.7418,24.6347],[-77.9866,25.0129],[-78.1577,25.0002],[-78.443,24.6245],[-78.1344,24.5016]]]}},{"type":"Feature","id":"label-BHS-5019","properties":{"kind":"division-label","code":"BHS-5019","countryCode":"BHS","name":"North Andros","localName":"North Andros","labelEnglish":"North Andros","labelLocal":"North Andros","labelBoth":"North Andros","type":"District","iso":"BS-NS","qid":"Q2699411"},"geometry":{"type":"Point","coordinates":[-77.9976,24.8276]}},{"type":"Feature","id":"BHS-5028","properties":{"kind":"division","code":"BHS-5028","countryCode":"BHS","name":"Central Eleuthera","localName":"Central Eleuthera","labelEnglish":"Central Eleuthera","labelLocal":"Central Eleuthera","labelBoth":"Central Eleuthera","type":"District","iso":"BS-CE","qid":"Q938518"},"geometry":{"type":"Polygon","coordinates":[[[-76.314,25.2996],[-76.3326,25.2853],[-76.1703,24.9889],[-76.1544,24.9814],[-76.314,25.2996]]]}},{"type":"Feature","id":"label-BHS-5028","properties":{"kind":"division-label","code":"BHS-5028","countryCode":"BHS","name":"Central Eleuthera","localName":"Central Eleuthera","labelEnglish":"Central Eleuthera","labelLocal":"Central Eleuthera","labelBoth":"Central Eleuthera","type":"District","iso":"BS-CE","qid":"Q938518"},"geometry":{"type":"Point","coordinates":[-76.176,25.1588]}},{"type":"Feature","id":"BHS-5027","properties":{"kind":"division","code":"BHS-5027","countryCode":"BHS","name":"North Eleuthera","localName":"North Eleuthera","labelEnglish":"North Eleuthera","labelLocal":"North Eleuthera","labelBoth":"North Eleuthera","type":"District","iso":"BS-NE","qid":"Q2705535"},"geometry":{"type":"Polygon","coordinates":[[[-76.3326,25.2853],[-76.314,25.2996],[-76.7298,25.5636],[-76.7694,25.4241],[-76.3326,25.2853]]]}},{"type":"Feature","id":"label-BHS-5027","properties":{"kind":"division-label","code":"BHS-5027","countryCode":"BHS","name":"North Eleuthera","localName":"North Eleuthera","labelEnglish":"North Eleuthera","labelLocal":"North Eleuthera","labelBoth":"North Eleuthera","type":"District","iso":"BS-NE","qid":"Q2705535"},"geometry":{"type":"Point","coordinates":[-76.59,25.4383]}},{"type":"Feature","id":"BHS-5029","properties":{"kind":"division","code":"BHS-5029","countryCode":"BHS","name":"South Eleuthera","localName":"South Eleuthera","labelEnglish":"South Eleuthera","labelLocal":"South Eleuthera","labelBoth":"South Eleuthera","type":"District","iso":"BS-SE","qid":"Q2699715"},"geometry":{"type":"Polygon","coordinates":[[[-76.1544,24.9814],[-76.1703,24.9889],[-76.2193,24.81],[-76.3175,24.8253],[-76.1945,24.6584],[-76.1544,24.9814]]]}},{"type":"Feature","id":"label-BHS-5029","properties":{"kind":"division-label","code":"BHS-5029","countryCode":"BHS","name":"South Eleuthera","localName":"South Eleuthera","labelEnglish":"South Eleuthera","labelLocal":"South Eleuthera","labelBoth":"South Eleuthera","type":"District","iso":"BS-SE","qid":"Q2699715"},"geometry":{"type":"Point","coordinates":[-76.1967,24.7344]}},{"type":"Feature","id":"BHS-5018","properties":{"kind":"division","code":"BHS-5018","countryCode":"BHS","name":"Berry Islands","localName":"Berry Islands","labelEnglish":"Berry Islands","labelLocal":"Berry Islands","labelBoth":"Berry Islands","type":"District","iso":"BS-BY","qid":"Q827173"},"geometry":{"type":"Polygon","coordinates":[[[-77.8192,25.7076],[-77.8583,25.7773],[-77.8873,25.7814],[-77.8192,25.7076]]]}},{"type":"Feature","id":"label-BHS-5018","properties":{"kind":"division-label","code":"BHS-5018","countryCode":"BHS","name":"Berry Islands","localName":"Berry Islands","labelEnglish":"Berry Islands","labelLocal":"Berry Islands","labelBoth":"Berry Islands","type":"District","iso":"BS-BY","qid":"Q827173"},"geometry":{"type":"Point","coordinates":[-77.8527,25.7591]}},{"type":"Feature","id":"BHS-5017","properties":{"kind":"division","code":"BHS-5017","countryCode":"BHS","name":"Moore's Island","localName":"Moore's Island","labelEnglish":"Moore's Island","labelLocal":"Moore's Island","labelBoth":"Moore's Island","type":"District","iso":"BS-MI","qid":"Q2702345"},"geometry":{"type":"Polygon","coordinates":[[[-77.538,26.3066],[-77.5796,26.3376],[-77.5727,26.2687],[-77.538,26.3066]]]}},{"type":"Feature","id":"label-BHS-5017","properties":{"kind":"division-label","code":"BHS-5017","countryCode":"BHS","name":"Moore's Island","localName":"Moore's Island","labelEnglish":"Moore's Island","labelLocal":"Moore's Island","labelBoth":"Moore's Island","type":"District","iso":"BS-MI","qid":"Q2702345"},"geometry":{"type":"Point","coordinates":[-77.5526,26.2973]}},{"type":"Feature","id":"BHS-5010","properties":{"kind":"division","code":"BHS-5010","countryCode":"BHS","name":"Freeport","localName":"Freeport","labelEnglish":"Freeport","labelLocal":"Freeport","labelBoth":"Freeport","type":"District","iso":"BS-FP","qid":"Q867573"},"geometry":{"type":"Polygon","coordinates":[[[-78.5981,26.5314],[-78.6359,26.5462],[-78.6464,26.5049],[-78.5981,26.5314]]]}},{"type":"Feature","id":"label-BHS-5010","properties":{"kind":"division-label","code":"BHS-5010","countryCode":"BHS","name":"Freeport","localName":"Freeport","labelEnglish":"Freeport","labelLocal":"Freeport","labelBoth":"Freeport","type":"District","iso":"BS-FP","qid":"Q867573"},"geometry":{"type":"Point","coordinates":[-78.6252,26.5339]}},{"type":"Feature","id":"BHS-5011","properties":{"kind":"division","code":"BHS-5011","countryCode":"BHS","name":"West Grand Bahama","localName":"West Grand Bahama","labelEnglish":"West Grand Bahama","labelLocal":"West Grand Bahama","labelBoth":"West Grand Bahama","type":"District","iso":"BS-WG","qid":"Q2702338"},"geometry":{"type":"Polygon","coordinates":[[[-78.4112,26.5942],[-78.4744,26.7128],[-78.7143,26.5705],[-78.6464,26.5049],[-78.6359,26.5462],[-78.5981,26.5314],[-78.4112,26.5942]]]}},{"type":"Feature","id":"label-BHS-5011","properties":{"kind":"division-label","code":"BHS-5011","countryCode":"BHS","name":"West Grand Bahama","localName":"West Grand Bahama","labelEnglish":"West Grand Bahama","labelLocal":"West Grand Bahama","labelBoth":"West Grand Bahama","type":"District","iso":"BS-WG","qid":"Q2702338"},"geometry":{"type":"Point","coordinates":[-78.9085,26.6389]}},{"type":"Feature","id":"BHS-5012","properties":{"kind":"division","code":"BHS-5012","countryCode":"BHS","name":"East Grand Bahama","localName":"East Grand Bahama","labelEnglish":"East Grand Bahama","labelLocal":"East Grand Bahama","labelBoth":"East Grand Bahama","type":"District","iso":"BS-EG","qid":"Q2630334"},"geometry":{"type":"Polygon","coordinates":[[[-78.4744,26.7128],[-78.4112,26.5942],[-77.9717,26.7296],[-78.4744,26.7128]]]}},{"type":"Feature","id":"label-BHS-5012","properties":{"kind":"division-label","code":"BHS-5012","countryCode":"BHS","name":"East Grand Bahama","localName":"East Grand Bahama","labelEnglish":"East Grand Bahama","labelLocal":"East Grand Bahama","labelBoth":"East Grand Bahama","type":"District","iso":"BS-EG","qid":"Q2630334"},"geometry":{"type":"Point","coordinates":[-78.215,26.6596]}},{"type":"Feature","id":"BHS-5015","properties":{"kind":"division","code":"BHS-5015","countryCode":"BHS","name":"Central Abaco","localName":"Central Abaco","labelEnglish":"Central Abaco","labelLocal":"Central Abaco","labelBoth":"Central Abaco","type":"District","iso":"BS-CO","qid":"Q2525371"},"geometry":{"type":"Polygon","coordinates":[[[-77.2306,26.2851],[-77.0316,26.3553],[-77.0588,26.5294],[-77.328,26.7091],[-77.3754,26.6995],[-77.1607,26.5642],[-77.2306,26.2851]]]}},{"type":"Feature","id":"label-BHS-5015","properties":{"kind":"division-label","code":"BHS-5015","countryCode":"BHS","name":"Central Abaco","localName":"Central Abaco","labelEnglish":"Central Abaco","labelLocal":"Central Abaco","labelBoth":"Central Abaco","type":"District","iso":"BS-CO","qid":"Q2525371"},"geometry":{"type":"Point","coordinates":[-77.1179,26.4215]}},{"type":"Feature","id":"BHS-5016","properties":{"kind":"division","code":"BHS-5016","countryCode":"BHS","name":"South Abaco","localName":"South Abaco","labelEnglish":"South Abaco","labelLocal":"South Abaco","labelBoth":"South Abaco","type":"District","iso":"BS-SO","qid":"Q2703192"},"geometry":{"type":"Polygon","coordinates":[[[-77.0316,26.3553],[-77.2306,26.2851],[-77.3882,26.0054],[-77.1907,25.9163],[-77.1744,26.2207],[-77.0316,26.3553]]]}},{"type":"Feature","id":"label-BHS-5016","properties":{"kind":"division-label","code":"BHS-5016","countryCode":"BHS","name":"South Abaco","localName":"South Abaco","labelEnglish":"South Abaco","labelLocal":"South Abaco","labelBoth":"South Abaco","type":"District","iso":"BS-SO","qid":"Q2703192"},"geometry":{"type":"Point","coordinates":[-77.2421,26.0179]}},{"type":"Feature","id":"BHS-5014","properties":{"kind":"division","code":"BHS-5014","countryCode":"BHS","name":"North Abaco","localName":"North Abaco","labelEnglish":"North Abaco","labelLocal":"North Abaco","labelBoth":"North Abaco","type":"District","iso":"BS-NO","qid":"Q623327"},"geometry":{"type":"Polygon","coordinates":[[[-77.3754,26.6995],[-77.328,26.7091],[-77.5113,26.8695],[-77.7745,26.9272],[-77.9134,26.921],[-77.5175,26.8522],[-77.3754,26.6995]]]}},{"type":"Feature","id":"label-BHS-5014","properties":{"kind":"division-label","code":"BHS-5014","countryCode":"BHS","name":"North Abaco","localName":"North Abaco","labelEnglish":"North Abaco","labelLocal":"North Abaco","labelBoth":"North Abaco","type":"District","iso":"BS-NO","qid":"Q623327"},"geometry":{"type":"Point","coordinates":[-77.6354,26.8873]}},{"type":"Feature","id":"BHS-5039","properties":{"kind":"division","code":"BHS-5039","countryCode":"BHS","name":"Bimini","localName":"Bimini","labelEnglish":"Bimini","labelLocal":"Bimini","labelBoth":"Bimini","type":"District","iso":"BS-BI","qid":"Q863476"},"geometry":{"type":"Polygon","coordinates":[[[-79.2501,25.7747],[-79.2803,25.7572],[-79.3043,25.7023],[-79.258,25.699],[-79.2939,25.7207],[-79.2501,25.7747]]]}},{"type":"Feature","id":"label-BHS-5039","properties":{"kind":"division-label","code":"BHS-5039","countryCode":"BHS","name":"Bimini","localName":"Bimini","labelEnglish":"Bimini","labelLocal":"Bimini","labelBoth":"Bimini","type":"District","iso":"BS-BI","qid":"Q863476"},"geometry":{"type":"Point","coordinates":[-79.2811,25.7074]}},{"type":"Feature","id":"BHS-5034","properties":{"kind":"division","code":"BHS-5034","countryCode":"BHS","name":"Ragged Island","localName":"Ragged Island","labelEnglish":"Ragged Island","labelLocal":"Ragged Island","labelBoth":"Ragged Island","type":"District","iso":"BS-RI","qid":"Q1532634"},"geometry":{"type":"Polygon","coordinates":[[[-75.7221,22.2026],[-75.7497,22.2045],[-75.7344,22.175],[-75.7221,22.2026]]]}},{"type":"Feature","id":"label-BHS-5034","properties":{"kind":"division-label","code":"BHS-5034","countryCode":"BHS","name":"Ragged Island","localName":"Ragged Island","labelEnglish":"Ragged Island","labelLocal":"Ragged Island","labelBoth":"Ragged Island","type":"District","iso":"BS-RI","qid":"Q1532634"},"geometry":{"type":"Point","coordinates":[-75.7413,22.2296]}},{"type":"Feature","id":"BHS-5026","properties":{"kind":"division","code":"BHS-5026","countryCode":"BHS","name":"Harbour Island","localName":"Harbour Island","labelEnglish":"Harbour Island","labelLocal":"Harbour Island","labelBoth":"Harbour Island","type":"District","iso":"BS-HI","qid":"Q2357510"},"geometry":{"type":"Polygon","coordinates":[[[-76.7702,25.5513],[-76.7874,25.5419],[-76.7498,25.5396],[-76.7702,25.5513]]]}},{"type":"Feature","id":"label-BHS-5026","properties":{"kind":"division-label","code":"BHS-5026","countryCode":"BHS","name":"Harbour Island","localName":"Harbour Island","labelEnglish":"Harbour Island","labelLocal":"Harbour Island","labelBoth":"Harbour Island","type":"District","iso":"BS-HI","qid":"Q2357510"},"geometry":{"type":"Point","coordinates":[-76.7641,25.5443]}},{"type":"Feature","id":"BHS-5025","properties":{"kind":"division","code":"BHS-5025","countryCode":"BHS","name":"Spanish Wells","localName":"Spanish Wells","labelEnglish":"Spanish Wells","labelLocal":"Spanish Wells","labelBoth":"Spanish Wells","type":"District","iso":"BS-SW","qid":"Q1771681"},"geometry":{"type":"Polygon","coordinates":[[[-76.829,25.5317],[-76.872,25.5066],[-76.829,25.5168],[-76.829,25.5317]]]}},{"type":"Feature","id":"label-BHS-5025","properties":{"kind":"division-label","code":"BHS-5025","countryCode":"BHS","name":"Spanish Wells","localName":"Spanish Wells","labelEnglish":"Spanish Wells","labelLocal":"Spanish Wells","labelBoth":"Spanish Wells","type":"District","iso":"BS-SW","qid":"Q1771681"},"geometry":{"type":"Point","coordinates":[-76.8334,25.5237]}}]}