{"type":"FeatureCollection","features":[{"type":"Feature","id":"BIH-2228","properties":{"kind":"division","code":"BIH-2228","countryCode":"BIH","name":"Herzegovina-Neretva Canton","localName":"Herzegovina-Neretva Canton","labelEnglish":"Herzegovina-Neretva Canton","labelLocal":"Herzegovina-Neretva Canton","labelBoth":"Herzegovina-Neretva Canton","type":"Canton","iso":"BA-BIH","qid":"Q18273"},"geometry":{"type":"Polygon","coordinates":[[[17.6533,42.8909],[18.3698,42.5744],[18.0399,42.8851],[18.0299,43.4451],[18.3561,43.4381],[18.3827,43.5883],[18.0069,43.7747],[17.4593,43.8604],[17.5305,43.6504],[17.7503,43.2841],[17.598,43.0729],[17.5807,42.9421],[17.6533,42.8909]]]}},{"type":"Feature","id":"label-BIH-2228","properties":{"kind":"division-label","code":"BIH-2228","countryCode":"BIH","name":"Herzegovina-Neretva Canton","localName":"Herzegovina-Neretva Canton","labelEnglish":"Herzegovina-Neretva Canton","labelLocal":"Herzegovina-Neretva Canton","labelBoth":"Herzegovina-Neretva Canton","type":"Canton","iso":"BA-BIH","qid":"Q18273"},"geometry":{"type":"Point","coordinates":[17.8878,43.3226]}},{"type":"Feature","id":"BIH-4808","properties":{"kind":"division","code":"BIH-4808","countryCode":"BIH","name":"Trebinje","localName":"Trebinje","labelEnglish":"Trebinje","labelLocal":"Trebinje","labelBoth":"Trebinje","type":"Region","iso":"BA-X07~","qid":null},"geometry":{"type":"Polygon","coordinates":[[[18.4374,42.5592],[18.5068,42.5985],[18.5428,42.6264],[18.4528,42.9934],[18.6211,43.1246],[18.6643,43.2332],[18.3561,43.4381],[18.0299,43.4451],[18.0399,42.8851],[18.3698,42.5744],[18.4374,42.5592]]]}},{"type":"Feature","id":"label-BIH-4808","properties":{"kind":"division-label","code":"BIH-4808","countryCode":"BIH","name":"Trebinje","localName":"Trebinje","labelEnglish":"Trebinje","labelLocal":"Trebinje","labelBoth":"Trebinje","type":"Region","iso":"BA-X07~","qid":null},"geometry":{"type":"Point","coordinates":[18.3391,43.1037]}},{"type":"Feature","id":"BIH-4807","properties":{"kind":"division","code":"BIH-4807","countryCode":"BIH","name":"Foča","localName":"Foča","labelEnglish":"Foča","labelLocal":"Foča","labelBoth":"Foča","type":"Region","iso":"BA-X06~","qid":null},"geometry":{"type":"Polygon","coordinates":[[[19.0225,43.2965],[18.9056,43.4906],[19.1953,43.5328],[19.4817,43.5608],[19.241,43.9524],[19.225,43.9215],[18.9497,43.742],[18.8854,43.5917],[18.583,43.6367],[18.3904,43.5939],[18.3827,43.5883],[18.3561,43.4381],[18.6643,43.2332],[18.9895,43.272],[19.0225,43.2965]]]}},{"type":"Feature","id":"label-BIH-4807","properties":{"kind":"division-label","code":"BIH-4807","countryCode":"BIH","name":"Foča","localName":"Foča","labelEnglish":"Foča","labelLocal":"Foča","labelBoth":"Foča","type":"Region","iso":"BA-X06~","qid":null},"geometry":{"type":"Point","coordinates":[18.7352,43.4443]}},{"type":"Feature","id":"BIH-4802","properties":{"kind":"division","code":"BIH-4802","countryCode":"BIH","name":"Banja Luka","localName":"Banja Luka","labelEnglish":"Banja Luka","labelLocal":"Banja Luka","labelBoth":"Banja Luka","type":"Region","iso":"BA-X02~","qid":null},"geometry":{"type":"Polygon","coordinates":[[[17.1246,45.1691],[16.9244,45.2845],[16.4819,45.1995],[16.346,45.02],[16.3332,44.89],[16.7037,44.8557],[16.8525,44.4594],[16.5257,44.4553],[17.249,44.0679],[17.1514,44.458],[17.7328,44.3753],[17.9169,44.4701],[17.8883,44.7198],[17.7233,44.816],[17.7657,45.111],[17.1246,45.1691]]]}},{"type":"Feature","id":"label-BIH-4802","properties":{"kind":"division-label","code":"BIH-4802","countryCode":"BIH","name":"Banja Luka","localName":"Banja Luka","labelEnglish":"Banja Luka","labelLocal":"Banja Luka","labelBoth":"Banja Luka","type":"Region","iso":"BA-X02~","qid":null},"geometry":{"type":"Point","coordinates":[17.2619,44.8146]}},{"type":"Feature","id":"BIH-2225","properties":{"kind":"division","code":"BIH-2225","countryCode":"BIH","name":"Una-Sana Canton","localName":"Una-Sana Canton","labelEnglish":"Una-Sana Canton","labelLocal":"Una-Sana Canton","labelBoth":"Una-Sana Canton","type":"Canton","iso":"BA-BIH","qid":"Q18248"},"geometry":{"type":"Polygon","coordinates":[[[16.346,45.02],[15.8026,45.1965],[15.7341,44.9344],[15.7173,44.7865],[16.2056,44.3505],[16.5257,44.4553],[16.8525,44.4594],[16.7037,44.8557],[16.3332,44.89],[16.346,45.02]]]}},{"type":"Feature","id":"label-BIH-2225","properties":{"kind":"division-label","code":"BIH-2225","countryCode":"BIH","name":"Una-Sana Canton","localName":"Una-Sana Canton","labelEnglish":"Una-Sana Canton","labelLocal":"Una-Sana Canton","labelBoth":"Una-Sana Canton","type":"Canton","iso":"BA-BIH","qid":"Q18248"},"geometry":{"type":"Point","coordinates":[16.299,44.6409]}},{"type":"Feature","id":"BIH-4801","properties":{"kind":"division","code":"BIH-4801","countryCode":"BIH","name":"Doboj","localName":"Doboj","labelEnglish":"Doboj","labelLocal":"Doboj","labelBoth":"Doboj","type":"Region","iso":"BA-X01~","qid":null},"geometry":{"type":"Polygon","coordinates":[[[17.7657,45.111],[17.7233,44.816],[17.8883,44.7198],[18.2872,44.5753],[18.0857,44.787],[18.3474,44.8986],[18.748,44.845],[18.7691,44.8922],[18.4817,45.0669],[18.4518,45.085],[18.1437,45.0977],[17.7657,45.111]]]}},{"type":"Feature","id":"label-BIH-4801","properties":{"kind":"division-label","code":"BIH-4801","countryCode":"BIH","name":"Doboj","localName":"Doboj","labelEnglish":"Doboj","labelLocal":"Doboj","labelBoth":"Doboj","type":"Region","iso":"BA-X01~","qid":null},"geometry":{"type":"Point","coordinates":[18.0675,44.9307]}},{"type":"Feature","id":"BIH-3153","properties":{"kind":"division","code":"BIH-3153","countryCode":"BIH","name":"Posavina Canton","localName":"Posavina Canton","labelEnglish":"Posavina Canton","labelLocal":"Posavina Canton","labelBoth":"Posavina Canton","type":"Canton","iso":"BA-SRP","qid":"Q18249"},"geometry":{"type":"Polygon","coordinates":[[[18.4817,45.0669],[18.7691,44.8922],[18.8421,44.8762],[18.5348,45.0884],[18.4817,45.0669]]]}},{"type":"Feature","id":"label-BIH-3153","properties":{"kind":"division-label","code":"BIH-3153","countryCode":"BIH","name":"Posavina Canton","localName":"Posavina Canton","labelEnglish":"Posavina Canton","labelLocal":"Posavina Canton","labelBoth":"Posavina Canton","type":"Canton","iso":"BA-SRP","qid":"Q18249"},"geometry":{"type":"Point","coordinates":[18.2977,45.06]}},{"type":"Feature","id":"BIH-4803","properties":{"kind":"division","code":"BIH-4803","countryCode":"BIH","name":"Brčko","localName":"Brčko","labelEnglish":"Brčko","labelLocal":"Brčko","labelBoth":"Brčko","type":"Condominium","iso":"BA-BRC","qid":"Q194483"},"geometry":{"type":"Polygon","coordinates":[[[18.8421,44.8762],[18.7691,44.8922],[18.748,44.845],[18.8038,44.7448],[18.9749,44.8628],[18.8421,44.8762]]]}},{"type":"Feature","id":"label-BIH-4803","properties":{"kind":"division-label","code":"BIH-4803","countryCode":"BIH","name":"Brčko","localName":"Brčko","labelEnglish":"Brčko","labelLocal":"Brčko","labelBoth":"Brčko","type":"Condominium","iso":"BA-BRC","qid":"Q194483"},"geometry":{"type":"Point","coordinates":[18.854,44.8305]}},{"type":"Feature","id":"BIH-4804","properties":{"kind":"division","code":"BIH-4804","countryCode":"BIH","name":"Bijeljina","localName":"Bijeljina","labelEnglish":"Bijeljina","labelLocal":"Bijeljina","labelBoth":"Bijeljina","type":"Region","iso":"BA-X03~","qid":null},"geometry":{"type":"Polygon","coordinates":[[[18.9749,44.8628],[18.8038,44.7448],[19.0311,44.5675],[19.1796,44.5383],[19.357,44.8959],[19.0158,44.8656],[18.9749,44.8628]]]}},{"type":"Feature","id":"label-BIH-4804","properties":{"kind":"division-label","code":"BIH-4804","countryCode":"BIH","name":"Bijeljina","localName":"Bijeljina","labelEnglish":"Bijeljina","labelLocal":"Bijeljina","labelBoth":"Bijeljina","type":"Region","iso":"BA-X03~","qid":null},"geometry":{"type":"Point","coordinates":[19.1471,44.7513]}},{"type":"Feature","id":"BIH-2224","properties":{"kind":"division","code":"BIH-2224","countryCode":"BIH","name":"Livno","localName":"Livno","labelEnglish":"Livno","labelLocal":"Livno","labelBoth":"Livno","type":"Canton","iso":"BA-BIH","qid":null},"geometry":{"type":"Polygon","coordinates":[[[16.2056,44.3505],[16.5274,43.9679],[17.0623,43.5277],[17.5305,43.6504],[17.4593,43.8604],[17.249,44.0679],[16.5257,44.4553],[16.2056,44.3505]]]}},{"type":"Feature","id":"label-BIH-2224","properties":{"kind":"division-label","code":"BIH-2224","countryCode":"BIH","name":"Livno","localName":"Livno","labelEnglish":"Livno","labelLocal":"Livno","labelBoth":"Livno","type":"Canton","iso":"BA-BIH","qid":null},"geometry":{"type":"Point","coordinates":[16.8584,43.9773]}},{"type":"Feature","id":"BIH-2227","properties":{"kind":"division","code":"BIH-2227","countryCode":"BIH","name":"West Herzegovina Canton","localName":"West Herzegovina Canton","labelEnglish":"West Herzegovina Canton","labelLocal":"West Herzegovina Canton","labelBoth":"West Herzegovina Canton","type":"Canton","iso":"BA-BIH","qid":"Q18275"},"geometry":{"type":"Polygon","coordinates":[[[17.4509,43.1482],[17.598,43.0729],[17.7503,43.2841],[17.5305,43.6504],[17.0623,43.5277],[17.2395,43.4784],[17.4509,43.1482]]]}},{"type":"Feature","id":"label-BIH-2227","properties":{"kind":"division-label","code":"BIH-2227","countryCode":"BIH","name":"West Herzegovina Canton","localName":"West Herzegovina Canton","labelEnglish":"West Herzegovina Canton","labelLocal":"West Herzegovina Canton","labelBoth":"West Herzegovina Canton","type":"Canton","iso":"BA-BIH","qid":"Q18275"},"geometry":{"type":"Point","coordinates":[17.4063,43.3908]}},{"type":"Feature","id":"BIH-4805","properties":{"kind":"division","code":"BIH-4805","countryCode":"BIH","name":"Vlasenica","localName":"Vlasenica","labelEnglish":"Vlasenica","labelLocal":"Vlasenica","labelBoth":"Vlasenica","type":"Region","iso":"BA-X04~","qid":null},"geometry":{"type":"Polygon","coordinates":[[[19.1796,44.5383],[19.0311,44.5675],[18.7538,44.3578],[18.7631,44.1488],[18.7366,44.1203],[19.225,43.9215],[19.241,43.9524],[19.5162,44.0912],[19.1072,44.3827],[19.1796,44.5383]]]}},{"type":"Feature","id":"label-BIH-4805","properties":{"kind":"division-label","code":"BIH-4805","countryCode":"BIH","name":"Vlasenica","localName":"Vlasenica","labelEnglish":"Vlasenica","labelLocal":"Vlasenica","labelBoth":"Vlasenica","type":"Region","iso":"BA-X04~","qid":null},"geometry":{"type":"Point","coordinates":[19.0758,44.1968]}},{"type":"Feature","id":"BIH-2226","properties":{"kind":"division","code":"BIH-2226","countryCode":"BIH","name":"Central Bosnia Canton","localName":"Central Bosnia Canton","labelEnglish":"Central Bosnia Canton","labelLocal":"Central Bosnia Canton","labelBoth":"Central Bosnia Canton","type":"Canton","iso":"BA-BIH","qid":"Q18262"},"geometry":{"type":"Polygon","coordinates":[[[17.249,44.0679],[17.4593,43.8604],[18.0069,43.7747],[18.1465,43.9066],[17.7937,44.1924],[17.7328,44.3753],[17.1514,44.458],[17.249,44.0679]]]}},{"type":"Feature","id":"label-BIH-2226","properties":{"kind":"division-label","code":"BIH-2226","countryCode":"BIH","name":"Central Bosnia Canton","localName":"Central Bosnia Canton","labelEnglish":"Central Bosnia Canton","labelLocal":"Central Bosnia Canton","labelBoth":"Central Bosnia Canton","type":"Canton","iso":"BA-BIH","qid":"Q18262"},"geometry":{"type":"Point","coordinates":[17.6547,44.1028]}},{"type":"Feature","id":"BIH-2889","properties":{"kind":"division","code":"BIH-2889","countryCode":"BIH","name":"Zenica-Doboj Canton","localName":"Zenica-Doboj Canton","labelEnglish":"Zenica-Doboj Canton","labelLocal":"Zenica-Doboj Canton","labelBoth":"Zenica-Doboj Canton","type":"Canton","iso":"BA-BIH","qid":"Q18253"},"geometry":{"type":"Polygon","coordinates":[[[17.7328,44.3753],[17.7937,44.1924],[18.1465,43.9066],[18.5868,44.0491],[18.7366,44.1203],[18.7631,44.1488],[18.5303,44.2057],[18.2872,44.5753],[17.8883,44.7198],[17.9169,44.4701],[17.7328,44.3753]]]}},{"type":"Feature","id":"label-BIH-2889","properties":{"kind":"division-label","code":"BIH-2889","countryCode":"BIH","name":"Zenica-Doboj Canton","localName":"Zenica-Doboj Canton","labelEnglish":"Zenica-Doboj Canton","labelLocal":"Zenica-Doboj Canton","labelBoth":"Zenica-Doboj Canton","type":"Canton","iso":"BA-BIH","qid":"Q18253"},"geometry":{"type":"Point","coordinates":[18.2479,44.2843]}},{"type":"Feature","id":"BIH-2887","properties":{"kind":"division","code":"BIH-2887","countryCode":"BIH","name":"Tuzla Canton","localName":"Tuzla Canton","labelEnglish":"Tuzla Canton","labelLocal":"Tuzla Canton","labelBoth":"Tuzla Canton","type":"Canton","iso":"BA-BIH","qid":"Q18250"},"geometry":{"type":"Polygon","coordinates":[[[18.2872,44.5753],[18.5303,44.2057],[18.7631,44.1488],[18.7538,44.3578],[19.0311,44.5675],[18.8038,44.7448],[18.748,44.845],[18.3474,44.8986],[18.0857,44.787],[18.2872,44.5753]]]}},{"type":"Feature","id":"label-BIH-2887","properties":{"kind":"division-label","code":"BIH-2887","countryCode":"BIH","name":"Tuzla Canton","localName":"Tuzla Canton","labelEnglish":"Tuzla Canton","labelLocal":"Tuzla Canton","labelBoth":"Tuzla Canton","type":"Canton","iso":"BA-BIH","qid":"Q18250"},"geometry":{"type":"Point","coordinates":[18.5549,44.5325]}},{"type":"Feature","id":"BIH-4806","properties":{"kind":"division","code":"BIH-4806","countryCode":"BIH","name":"Sarajevo-Romanija","localName":"Sarajevo-Romanija","labelEnglish":"Sarajevo-Romanija","labelLocal":"Sarajevo-Romanija","labelBoth":"Sarajevo-Romanija","type":"Region","iso":"BA-X05~","qid":null},"geometry":{"type":"Polygon","coordinates":[[[18.5868,44.0491],[18.4161,43.7377],[18.6088,43.6837],[18.9497,43.742],[19.225,43.9215],[18.7366,44.1203],[18.5868,44.0491]]]}},{"type":"Feature","id":"label-BIH-4806","properties":{"kind":"division-label","code":"BIH-4806","countryCode":"BIH","name":"Sarajevo-Romanija","localName":"Sarajevo-Romanija","labelEnglish":"Sarajevo-Romanija","labelLocal":"Sarajevo-Romanija","labelBoth":"Sarajevo-Romanija","type":"Region","iso":"BA-X05~","qid":null},"geometry":{"type":"Point","coordinates":[18.751,43.9275]}},{"type":"Feature","id":"BIH-2890","properties":{"kind":"division","code":"BIH-2890","countryCode":"BIH","name":"Sarajevo Canton","localName":"Sarajevo Canton","labelEnglish":"Sarajevo Canton","labelLocal":"Sarajevo Canton","labelBoth":"Sarajevo Canton","type":"Canton","iso":"BA-BIH","qid":"Q18276"},"geometry":{"type":"Polygon","coordinates":[[[18.5868,44.0491],[18.1465,43.9066],[18.0069,43.7747],[18.3827,43.5883],[18.3904,43.5939],[18.583,43.6367],[18.6088,43.6837],[18.4161,43.7377],[18.5868,44.0491]]]}},{"type":"Feature","id":"label-BIH-2890","properties":{"kind":"division-label","code":"BIH-2890","countryCode":"BIH","name":"Sarajevo Canton","localName":"Sarajevo Canton","labelEnglish":"Sarajevo Canton","labelLocal":"Sarajevo Canton","labelBoth":"Sarajevo Canton","type":"Canton","iso":"BA-BIH","qid":"Q18276"},"geometry":{"type":"Point","coordinates":[18.3077,43.7991]}},{"type":"Feature","id":"BIH-2891","properties":{"kind":"division","code":"BIH-2891","countryCode":"BIH","name":"Bosnian Podrinje Canton","localName":"Bosnian Podrinje Canton","labelEnglish":"Bosnian Podrinje Canton","labelLocal":"Bosnian Podrinje Canton","labelBoth":"Bosnian Podrinje Canton","type":"Canton","iso":"BA-BIH","qid":"Q18256"},"geometry":{"type":"Polygon","coordinates":[[[18.6088,43.6837],[18.583,43.6367],[18.8854,43.5917],[18.9497,43.742],[18.6088,43.6837]]]}},{"type":"Feature","id":"label-BIH-2891","properties":{"kind":"division-label","code":"BIH-2891","countryCode":"BIH","name":"Bosnian Podrinje Canton","localName":"Bosnian Podrinje Canton","labelEnglish":"Bosnian Podrinje Canton","labelLocal":"Bosnian Podrinje Canton","labelBoth":"Bosnian Podrinje Canton","type":"Canton","iso":"BA-BIH","qid":"Q18256"},"geometry":{"type":"Point","coordinates":[18.8198,43.6774]}}]}