{"type":"FeatureCollection","features":[{"type":"Feature","id":"BLM-5113","properties":{"kind":"division","code":"BLM-5113","countryCode":"BLM","name":"Saint Barthélemy","localName":"Saint Barthélemy","labelEnglish":"Saint Barthélemy","labelLocal":"Saint Barthélemy","labelBoth":"Saint Barthélemy","type":null,"iso":"BL-X00~","qid":"Q25362"},"geometry":{"type":"Polygon","coordinates":[[[-62.8389,17.882],[-62.7917,17.9155],[-62.8673,17.9204],[-62.8389,17.882]]]}},{"type":"Feature","id":"label-BLM-5113","properties":{"kind":"division-label","code":"BLM-5113","countryCode":"BLM","name":"Saint Barthélemy","localName":"Saint Barthélemy","labelEnglish":"Saint Barthélemy","labelLocal":"Saint Barthélemy","labelBoth":"Saint Barthélemy","type":null,"iso":"BL-X00~","qid":"Q25362"},"geometry":{"type":"Point","coordinates":[-62.8288,17.9017]}}]}