{"type":"FeatureCollection","features":[{"type":"Feature","id":"BLR-2339","properties":{"kind":"division","code":"BLR-2339","countryCode":"BLR","name":"Gomel","localName":"Homel'skaja voblasc'","labelEnglish":"Gomel","labelLocal":"Homel'skaja voblasc'","labelBoth":"Gomel · Homel'skaja voblasc'","type":"Region","iso":"BY-HO","qid":"Q188732"},"geometry":{"type":"Polygon","coordinates":[[[30.5547,51.2425],[30.5151,51.6037],[30.9593,52.0747],[31.7643,52.1006],[31.5674,52.3114],[31.5051,52.8489],[31.3616,53.12],[30.9908,53.3035],[30.1734,53.2392],[29.8016,53.3534],[29.6907,52.9425],[29.1702,52.9425],[28.823,52.7172],[28.4692,52.6801],[28.4045,52.5148],[27.7059,52.4378],[27.5336,52.5387],[27.2714,52.3607],[27.5991,52.0185],[27.5124,51.6231],[27.6661,51.4902],[27.8125,51.602],[28.6039,51.5535],[28.7288,51.4013],[29.1239,51.625],[29.3533,51.3771],[29.618,51.4856],[30.1486,51.4844],[30.5547,51.2425]]]}},{"type":"Feature","id":"label-BLR-2339","properties":{"kind":"division-label","code":"BLR-2339","countryCode":"BLR","name":"Gomel","localName":"Homel'skaja voblasc'","labelEnglish":"Gomel","labelLocal":"Homel'skaja voblasc'","labelBoth":"Gomel · Homel'skaja voblasc'","type":"Region","iso":"BY-HO","qid":"Q188732"},"geometry":{"type":"Point","coordinates":[29.5189,52.1969]}},{"type":"Feature","id":"BLR-2338","properties":{"kind":"division","code":"BLR-2338","countryCode":"BLR","name":"Brest","localName":"Brèsckaja voblasc'","labelEnglish":"Brest","labelLocal":"Brèsckaja voblasc'","labelBoth":"Brest · Brèsckaja voblasc'","type":"Region","iso":"BY-BR","qid":"Q173822"},"geometry":{"type":"Polygon","coordinates":[[[25.5474,51.9194],[26.0808,51.9007],[27.5124,51.6231],[27.5991,52.0185],[27.2714,52.3607],[27.1567,52.6697],[26.3725,52.9914],[26.3765,53.3645],[25.7202,53.3947],[25.5248,53.0245],[25.0528,52.8411],[24.6859,52.9598],[24.5526,52.7478],[23.9204,52.7726],[23.3923,52.5096],[23.1761,52.2851],[23.6375,52.0845],[23.6062,51.5174],[23.9813,51.586],[24.3908,51.88],[25.5474,51.9194]]]}},{"type":"Feature","id":"label-BLR-2338","properties":{"kind":"division-label","code":"BLR-2338","countryCode":"BLR","name":"Brest","localName":"Brèsckaja voblasc'","labelEnglish":"Brest","labelLocal":"Brèsckaja voblasc'","labelBoth":"Brest · Brèsckaja voblasc'","type":"Region","iso":"BY-BR","qid":"Q173822"},"geometry":{"type":"Point","coordinates":[25.3826,52.4289]}},{"type":"Feature","id":"BLR-2341","properties":{"kind":"division","code":"BLR-2341","countryCode":"BLR","name":"Vitebsk","localName":"Vicebskaja voblasc'","labelEnglish":"Vitebsk","labelLocal":"Vicebskaja voblasc'","labelBoth":"Vitebsk · Vicebskaja voblasc'","type":"Region","iso":"BY-VI","qid":"Q185700"},"geometry":{"type":"Polygon","coordinates":[[[26.5945,55.667],[26.4455,55.3375],[26.7399,55.2428],[26.1703,54.9933],[26.3481,54.9433],[27.0595,54.9509],[27.9087,54.6136],[28.4861,54.6465],[29.4392,54.5472],[29.4145,54.2313],[30.5088,54.2887],[31.179,54.4534],[31.1679,54.6216],[30.7706,54.786],[31.0056,55.023],[30.7943,55.2855],[30.9071,55.5778],[30.2178,55.8551],[29.461,55.6873],[29.3774,55.954],[28.809,55.9346],[28.1489,56.1424],[28.0511,56.1407],[27.7601,55.9754],[27.5927,55.7942],[26.9794,55.8263],[26.5945,55.667]]]}},{"type":"Feature","id":"label-BLR-2341","properties":{"kind":"division-label","code":"BLR-2341","countryCode":"BLR","name":"Vitebsk","localName":"Vicebskaja voblasc'","labelEnglish":"Vitebsk","labelLocal":"Vicebskaja voblasc'","labelBoth":"Vitebsk · Vicebskaja voblasc'","type":"Region","iso":"BY-VI","qid":"Q185700"},"geometry":{"type":"Point","coordinates":[28.6747,55.3073]}},{"type":"Feature","id":"BLR-2344","properties":{"kind":"division","code":"BLR-2344","countryCode":"BLR","name":"Grodno","localName":"Hrodzenskaja voblasc'","labelEnglish":"Grodno","labelLocal":"Hrodzenskaja voblasc'","labelBoth":"Grodno · Hrodzenskaja voblasc'","type":"Region","iso":"BY-HR","qid":"Q191061"},"geometry":{"type":"Polygon","coordinates":[[[26.1703,54.9933],[25.7827,54.8697],[25.7404,54.5685],[25.4721,54.2972],[24.851,54.145],[24.7887,53.9697],[23.4856,53.9393],[23.8937,53.152],[23.9204,52.7726],[24.5526,52.7478],[24.6859,52.9598],[25.0528,52.8411],[25.5248,53.0245],[25.7202,53.3947],[26.3765,53.3645],[26.5595,53.4012],[26.2184,53.866],[26.4192,53.9518],[26.1132,54.1993],[26.4063,54.2411],[26.6753,54.6339],[26.3481,54.9433],[26.1703,54.9933]]]}},{"type":"Feature","id":"label-BLR-2344","properties":{"kind":"division-label","code":"BLR-2344","countryCode":"BLR","name":"Grodno","localName":"Hrodzenskaja voblasc'","labelEnglish":"Grodno","labelLocal":"Hrodzenskaja voblasc'","labelBoth":"Grodno · Hrodzenskaja voblasc'","type":"Region","iso":"BY-HR","qid":"Q191061"},"geometry":{"type":"Point","coordinates":[25.0839,53.4855]}},{"type":"Feature","id":"BLR-2340","properties":{"kind":"division","code":"BLR-2340","countryCode":"BLR","name":"Mahilioŭ","localName":"Mahilëuskaja voblasc'","labelEnglish":"Mahilioŭ","labelLocal":"Mahilëuskaja voblasc'","labelBoth":"Mahilioŭ · Mahilëuskaja voblasc'","type":"Region","iso":"BY-MA","qid":"Q189822"},"geometry":{"type":"Polygon","coordinates":[[[31.179,54.4534],[30.5088,54.2887],[29.4145,54.2313],[29.3602,53.822],[29.0458,53.5842],[28.6307,53.6146],[28.4385,53.2904],[28.1176,53.2378],[28.5333,53.0147],[28.292,52.7657],[28.4692,52.6801],[28.823,52.7172],[29.1702,52.9425],[29.6907,52.9425],[29.8016,53.3534],[30.1734,53.2392],[30.9908,53.3035],[31.3616,53.12],[31.7386,53.1925],[32.0828,53.082],[32.7178,53.4311],[32.4616,53.7068],[31.7447,53.7949],[31.8139,54.0571],[31.3247,54.2292],[31.179,54.4534]]]}},{"type":"Feature","id":"label-BLR-2340","properties":{"kind":"division-label","code":"BLR-2340","countryCode":"BLR","name":"Mahilioŭ","localName":"Mahilëuskaja voblasc'","labelEnglish":"Mahilioŭ","labelLocal":"Mahilëuskaja voblasc'","labelBoth":"Mahilioŭ · Mahilëuskaja voblasc'","type":"Region","iso":"BY-MA","qid":"Q189822"},"geometry":{"type":"Point","coordinates":[30.4041,53.8241]}},{"type":"Feature","id":"BLR-2345","properties":{"kind":"division","code":"BLR-2345","countryCode":"BLR","name":"Minsk","localName":"Minskaja voblasc'","labelEnglish":"Minsk","labelLocal":"Minskaja voblasc'","labelBoth":"Minsk · Minskaja voblasc'","type":"Municipality","iso":"BY-MI","qid":"Q192959"},"geometry":{"type":"Polygon","coordinates":[[[29.4145,54.2313],[29.4392,54.5472],[28.4861,54.6465],[27.9087,54.6136],[27.0595,54.9509],[26.3481,54.9433],[26.6753,54.6339],[26.4063,54.2411],[26.1132,54.1993],[26.4192,53.9518],[26.2184,53.866],[26.5595,53.4012],[26.3765,53.3645],[26.3725,52.9914],[27.1567,52.6697],[27.2714,52.3607],[27.5336,52.5387],[27.7059,52.4378],[28.4045,52.5148],[28.4692,52.6801],[28.292,52.7657],[28.5333,53.0147],[28.1176,53.2378],[28.4385,53.2904],[28.6307,53.6146],[29.0458,53.5842],[29.3602,53.822],[29.4145,54.2313]],[[27.7608,53.8042],[27.3831,53.8368],[27.4081,53.9968],[27.8083,54.0218],[27.7608,53.8042]]]}},{"type":"Feature","id":"label-BLR-2345","properties":{"kind":"division-label","code":"BLR-2345","countryCode":"BLR","name":"Minsk","localName":"Minskaja voblasc'","labelEnglish":"Minsk","labelLocal":"Minskaja voblasc'","labelBoth":"Minsk · Minskaja voblasc'","type":"Municipality","iso":"BY-MI","qid":"Q192959"},"geometry":{"type":"Point","coordinates":[27.4703,53.1945]}},{"type":"Feature","id":"BLR-4825","properties":{"kind":"division","code":"BLR-4825","countryCode":"BLR","name":"Minsk","localName":"Horad Minsk","labelEnglish":"Minsk","labelLocal":"Horad Minsk","labelBoth":"Minsk · Horad Minsk","type":"Region","iso":"BY-HM","qid":"Q2280"},"geometry":{"type":"Polygon","coordinates":[[[27.7608,53.8042],[27.8083,54.0218],[27.4081,53.9968],[27.3831,53.8368],[27.7608,53.8042]]]}},{"type":"Feature","id":"label-BLR-4825","properties":{"kind":"division-label","code":"BLR-4825","countryCode":"BLR","name":"Minsk","localName":"Horad Minsk","labelEnglish":"Minsk","labelLocal":"Horad Minsk","labelBoth":"Minsk · Horad Minsk","type":"Region","iso":"BY-HM","qid":"Q2280"},"geometry":{"type":"Point","coordinates":[27.6424,53.9005]}}]}