{"type":"FeatureCollection","features":[{"type":"Feature","id":"BLZ-1324","properties":{"kind":"division","code":"BLZ-1324","countryCode":"BLZ","name":"Cayo","localName":"Cayo","labelEnglish":"Cayo","labelLocal":"Cayo","labelBoth":"Cayo","type":"District","iso":"BZ-CY","qid":"Q508773"},"geometry":{"type":"Polygon","coordinates":[[[-89.1931,16.3926],[-88.7742,16.681],[-88.6024,17.1045],[-88.6289,17.454],[-89.1507,17.321],[-89.1931,16.3926]]]}},{"type":"Feature","id":"label-BLZ-1324","properties":{"kind":"division-label","code":"BLZ-1324","countryCode":"BLZ","name":"Cayo","localName":"Cayo","labelEnglish":"Cayo","labelLocal":"Cayo","labelBoth":"Cayo","type":"District","iso":"BZ-CY","qid":"Q508773"},"geometry":{"type":"Point","coordinates":[-88.8833,16.9902]}},{"type":"Feature","id":"BLZ-1326","properties":{"kind":"division","code":"BLZ-1326","countryCode":"BLZ","name":"Orange Walk","localName":"Orange Walk","labelEnglish":"Orange Walk","labelLocal":"Orange Walk","labelBoth":"Orange Walk","type":"District","iso":"BZ-OW","qid":"Q506036"},"geometry":{"type":"Polygon","coordinates":[[[-89.1507,17.321],[-88.6289,17.454],[-88.5591,17.8887],[-88.2843,17.9723],[-88.6141,18.247],[-88.8803,17.8885],[-89.1463,17.9515],[-89.1605,17.8143],[-89.1507,17.321]]]}},{"type":"Feature","id":"label-BLZ-1326","properties":{"kind":"division-label","code":"BLZ-1326","countryCode":"BLZ","name":"Orange Walk","localName":"Orange Walk","labelEnglish":"Orange Walk","labelLocal":"Orange Walk","labelBoth":"Orange Walk","type":"District","iso":"BZ-OW","qid":"Q506036"},"geometry":{"type":"Point","coordinates":[-88.8552,17.7122]}},{"type":"Feature","id":"BLZ-1325","properties":{"kind":"division","code":"BLZ-1325","countryCode":"BLZ","name":"Corozal","localName":"Corozal","labelEnglish":"Corozal","labelLocal":"Corozal","labelBoth":"Corozal","type":"District","iso":"BZ-CZL","qid":"Q512273"},"geometry":{"type":"Polygon","coordinates":[[[-88.3038,18.4814],[-88.4892,18.4845],[-88.6141,18.247],[-88.2843,17.9723],[-88.1669,17.9599],[-88.0915,18.3717],[-88.3038,18.4814]]]}},{"type":"Feature","id":"label-BLZ-1325","properties":{"kind":"division-label","code":"BLZ-1325","countryCode":"BLZ","name":"Corozal","localName":"Corozal","labelEnglish":"Corozal","labelLocal":"Corozal","labelBoth":"Corozal","type":"District","iso":"BZ-CZL","qid":"Q512273"},"geometry":{"type":"Point","coordinates":[-88.3492,18.1667]}},{"type":"Feature","id":"BLZ-1356","properties":{"kind":"division","code":"BLZ-1356","countryCode":"BLZ","name":"Toledo","localName":"Toledo","labelEnglish":"Toledo","labelLocal":"Toledo","labelBoth":"Toledo","type":"District","iso":"BZ-TOL","qid":"Q506049"},"geometry":{"type":"Polygon","coordinates":[[[-89.236,15.9065],[-88.914,15.8939],[-88.9276,15.9839],[-88.3901,16.4977],[-88.7742,16.681],[-89.1931,16.3926],[-89.236,15.9065]]]}},{"type":"Feature","id":"label-BLZ-1356","properties":{"kind":"division-label","code":"BLZ-1356","countryCode":"BLZ","name":"Toledo","localName":"Toledo","labelEnglish":"Toledo","labelLocal":"Toledo","labelBoth":"Toledo","type":"District","iso":"BZ-TOL","qid":"Q506049"},"geometry":{"type":"Point","coordinates":[-88.8117,16.3761]}},{"type":"Feature","id":"BLZ-1355","properties":{"kind":"division","code":"BLZ-1355","countryCode":"BLZ","name":"Stann Creek","localName":"Stann Creek","labelEnglish":"Stann Creek","labelLocal":"Stann Creek","labelBoth":"Stann Creek","type":"District","iso":"BZ-SC","qid":"Q502652"},"geometry":{"type":"Polygon","coordinates":[[[-88.2894,17.1358],[-88.6024,17.1045],[-88.7742,16.681],[-88.3901,16.4977],[-88.2174,16.9555],[-88.2894,17.1358]]]}},{"type":"Feature","id":"label-BLZ-1355","properties":{"kind":"division-label","code":"BLZ-1355","countryCode":"BLZ","name":"Stann Creek","localName":"Stann Creek","labelEnglish":"Stann Creek","labelLocal":"Stann Creek","labelBoth":"Stann Creek","type":"District","iso":"BZ-SC","qid":"Q502652"},"geometry":{"type":"Point","coordinates":[-88.4963,16.809]}},{"type":"Feature","id":"BLZ-1323","properties":{"kind":"division","code":"BLZ-1323","countryCode":"BLZ","name":"Belize","localName":"Belize","labelEnglish":"Belize","labelLocal":"Belize","labelBoth":"Belize","type":"District","iso":"BZ-BZ","qid":"Q506056"},"geometry":{"type":"Polygon","coordinates":[[[-88.1669,17.9599],[-88.2843,17.9723],[-88.5591,17.8887],[-88.6289,17.454],[-88.6024,17.1045],[-88.2894,17.1358],[-88.2833,17.5803],[-88.1669,17.9599]]]}},{"type":"Feature","id":"label-BLZ-1323","properties":{"kind":"division-label","code":"BLZ-1323","countryCode":"BLZ","name":"Belize","localName":"Belize","labelEnglish":"Belize","labelLocal":"Belize","labelBoth":"Belize","type":"District","iso":"BZ-BZ","qid":"Q506056"},"geometry":{"type":"Point","coordinates":[-88.4189,17.5367]}}]}