{"type":"FeatureCollection","features":[{"type":"Feature","id":"BMU-5137","properties":{"kind":"division","code":"BMU-5137","countryCode":"BMU","name":"Hamilton","localName":"Hamilton","labelEnglish":"Hamilton","labelLocal":"Hamilton","labelBoth":"Hamilton","type":null,"iso":"BM-HAM","qid":null},"geometry":{"type":"MultiPolygon","coordinates":[[[[-64.7054,32.3361],[-64.6949,32.3399],[-64.7081,32.3516],[-64.722,32.3525],[-64.7054,32.3361]]],[[[-64.7139,32.3295],[-64.7073,32.3212],[-64.6984,32.3264],[-64.7054,32.3361],[-64.7139,32.3295]]]]}},{"type":"Feature","id":"label-BMU-5137","properties":{"kind":"division-label","code":"BMU-5137","countryCode":"BMU","name":"Hamilton","localName":"Hamilton","labelEnglish":"Hamilton","labelLocal":"Hamilton","labelBoth":"Hamilton","type":null,"iso":"BM-HAM","qid":null},"geometry":{"type":"Point","coordinates":[-64.7197,32.3454]}},{"type":"Feature","id":"BMU-5142","properties":{"kind":"division","code":"BMU-5142","countryCode":"BMU","name":"Smith's Parish","localName":"Smith's Parish","labelEnglish":"Smith's Parish","labelLocal":"Smith's Parish","labelBoth":"Smith's Parish","type":null,"iso":"BM-SMI","qid":null},"geometry":{"type":"Polygon","coordinates":[[[-64.7312,32.3231],[-64.7427,32.3218],[-64.7482,32.3165],[-64.7379,32.3021],[-64.7073,32.3212],[-64.7139,32.3295],[-64.7312,32.3231]]]}},{"type":"Feature","id":"label-BMU-5142","properties":{"kind":"division-label","code":"BMU-5142","countryCode":"BMU","name":"Smith's Parish","localName":"Smith's Parish","labelEnglish":"Smith's Parish","labelLocal":"Smith's Parish","labelBoth":"Smith's Parish","type":null,"iso":"BM-SMI","qid":null},"geometry":{"type":"Point","coordinates":[-64.7319,32.3141]}},{"type":"Feature","id":"BMU-5136","properties":{"kind":"division","code":"BMU-5136","countryCode":"BMU","name":"Devonshire","localName":"Devonshire","labelEnglish":"Devonshire","labelLocal":"Devonshire","labelBoth":"Devonshire","type":null,"iso":"BM-DEV","qid":null},"geometry":{"type":"Polygon","coordinates":[[[-64.7801,32.3034],[-64.779,32.2911],[-64.7608,32.2862],[-64.7379,32.3021],[-64.7482,32.3165],[-64.7801,32.3034]]]}},{"type":"Feature","id":"label-BMU-5136","properties":{"kind":"division-label","code":"BMU-5136","countryCode":"BMU","name":"Devonshire","localName":"Devonshire","labelEnglish":"Devonshire","labelLocal":"Devonshire","labelBoth":"Devonshire","type":null,"iso":"BM-DEV","qid":null},"geometry":{"type":"Point","coordinates":[-64.7566,32.3033]}},{"type":"Feature","id":"BMU-5139","properties":{"kind":"division","code":"BMU-5139","countryCode":"BMU","name":"Pembroke Parish","localName":"Pembroke Parish","labelEnglish":"Pembroke Parish","labelLocal":"Pembroke Parish","labelBoth":"Pembroke Parish","type":null,"iso":"BM-PEM","qid":null},"geometry":{"type":"Polygon","coordinates":[[[-64.7945,32.2895],[-64.7844,32.2973],[-64.7844,32.2906],[-64.779,32.2911],[-64.7801,32.3034],[-64.7945,32.2895]]]}},{"type":"Feature","id":"label-BMU-5139","properties":{"kind":"division-label","code":"BMU-5139","countryCode":"BMU","name":"Pembroke Parish","localName":"Pembroke Parish","labelEnglish":"Pembroke Parish","labelLocal":"Pembroke Parish","labelBoth":"Pembroke Parish","type":null,"iso":"BM-PEM","qid":null},"geometry":{"type":"Point","coordinates":[-64.7997,32.2995]}},{"type":"Feature","id":"BMU-5134","properties":{"kind":"division","code":"BMU-5134","countryCode":"BMU","name":"Hamilton","localName":"Hamilton","labelEnglish":"Hamilton","labelLocal":"Hamilton","labelBoth":"Hamilton","type":null,"iso":"BM-HA","qid":null},"geometry":{"type":"Polygon","coordinates":[[[-64.7844,32.2906],[-64.7844,32.2973],[-64.7945,32.2895],[-64.7844,32.2906]]]}},{"type":"Feature","id":"label-BMU-5134","properties":{"kind":"division-label","code":"BMU-5134","countryCode":"BMU","name":"Hamilton","localName":"Hamilton","labelEnglish":"Hamilton","labelLocal":"Hamilton","labelBoth":"Hamilton","type":null,"iso":"BM-HA","qid":null},"geometry":{"type":"Point","coordinates":[-64.7884,32.2938]}},{"type":"Feature","id":"BMU-5138","properties":{"kind":"division","code":"BMU-5138","countryCode":"BMU","name":"Paget Parish","localName":"Paget Parish","labelEnglish":"Paget Parish","labelLocal":"Paget Parish","labelBoth":"Paget Parish","type":null,"iso":"BM-PAG","qid":null},"geometry":{"type":"Polygon","coordinates":[[[-64.7971,32.2791],[-64.7883,32.2653],[-64.7608,32.2862],[-64.779,32.2911],[-64.7971,32.2791]]]}},{"type":"Feature","id":"label-BMU-5138","properties":{"kind":"division-label","code":"BMU-5138","countryCode":"BMU","name":"Paget Parish","localName":"Paget Parish","labelEnglish":"Paget Parish","labelLocal":"Paget Parish","labelBoth":"Paget Parish","type":null,"iso":"BM-PAG","qid":null},"geometry":{"type":"Point","coordinates":[-64.7811,32.2784]}},{"type":"Feature","id":"BMU-5144","properties":{"kind":"division","code":"BMU-5144","countryCode":"BMU","name":"Warwick","localName":"Warwick","labelEnglish":"Warwick","labelLocal":"Warwick","labelBoth":"Warwick","type":null,"iso":"BM-WAR","qid":null},"geometry":{"type":"Polygon","coordinates":[[[-64.8329,32.2597],[-64.8152,32.2543],[-64.7883,32.2653],[-64.7971,32.2791],[-64.8329,32.2597]]]}},{"type":"Feature","id":"label-BMU-5144","properties":{"kind":"division-label","code":"BMU-5144","countryCode":"BMU","name":"Warwick","localName":"Warwick","labelEnglish":"Warwick","labelLocal":"Warwick","labelBoth":"Warwick","type":null,"iso":"BM-WAR","qid":null},"geometry":{"type":"Point","coordinates":[-64.8042,32.2658]}},{"type":"Feature","id":"BMU-5143","properties":{"kind":"division","code":"BMU-5143","countryCode":"BMU","name":"Southampton","localName":"Southampton","labelEnglish":"Southampton","labelLocal":"Southampton","labelBoth":"Southampton","type":null,"iso":"BM-SOU","qid":null},"geometry":{"type":"Polygon","coordinates":[[[-64.8631,32.269],[-64.8802,32.2659],[-64.8152,32.2543],[-64.8329,32.2597],[-64.8631,32.269]]]}},{"type":"Feature","id":"label-BMU-5143","properties":{"kind":"division-label","code":"BMU-5143","countryCode":"BMU","name":"Southampton","localName":"Southampton","labelEnglish":"Southampton","labelLocal":"Southampton","labelBoth":"Southampton","type":null,"iso":"BM-SOU","qid":null},"geometry":{"type":"Point","coordinates":[-64.8375,32.2524]}},{"type":"Feature","id":"BMU-5141","properties":{"kind":"division","code":"BMU-5141","countryCode":"BMU","name":"Sandys Parish","localName":"Sandys Parish","labelEnglish":"Sandys Parish","labelLocal":"Sandys Parish","labelBoth":"Sandys Parish","type":null,"iso":"BM-SAN","qid":null},"geometry":{"type":"Polygon","coordinates":[[[-64.8802,32.2659],[-64.8631,32.269],[-64.8798,32.3054],[-64.8802,32.2659]]]}},{"type":"Feature","id":"label-BMU-5141","properties":{"kind":"division-label","code":"BMU-5141","countryCode":"BMU","name":"Sandys Parish","localName":"Sandys Parish","labelEnglish":"Sandys Parish","labelLocal":"Sandys Parish","labelBoth":"Sandys Parish","type":null,"iso":"BM-SAN","qid":null},"geometry":{"type":"Point","coordinates":[-64.8687,32.2985]}},{"type":"Feature","id":"BMU-5140","properties":{"kind":"division","code":"BMU-5140","countryCode":"BMU","name":"Saint George","localName":"Saint George","labelEnglish":"Saint George","labelLocal":"Saint George","labelBoth":"Saint George","type":null,"iso":"BM-SGE","qid":null},"geometry":{"type":"MultiPolygon","coordinates":[[[[-64.6949,32.3399],[-64.7054,32.3361],[-64.6984,32.3264],[-64.6949,32.3399]]],[[[-64.722,32.3525],[-64.7081,32.3516],[-64.6558,32.3504],[-64.6761,32.3887],[-64.722,32.3525]],[[-64.677,32.3698],[-64.681,32.376],[-64.6721,32.381],[-64.677,32.3698]]]]}},{"type":"Feature","id":"label-BMU-5140","properties":{"kind":"division-label","code":"BMU-5140","countryCode":"BMU","name":"Saint George","localName":"Saint George","labelEnglish":"Saint George","labelLocal":"Saint George","labelBoth":"Saint George","type":null,"iso":"BM-SGE","qid":null},"geometry":{"type":"Point","coordinates":[-64.6998,32.3645]}},{"type":"Feature","id":"BMU-5135","properties":{"kind":"division","code":"BMU-5135","countryCode":"BMU","name":"St. George","localName":"St. George","labelEnglish":"St. George","labelLocal":"St. George","labelBoth":"St. George","type":null,"iso":"BM-SG","qid":null},"geometry":{"type":"Polygon","coordinates":[[[-64.677,32.3698],[-64.6721,32.381],[-64.681,32.376],[-64.677,32.3698]]]}},{"type":"Feature","id":"label-BMU-5135","properties":{"kind":"division-label","code":"BMU-5135","countryCode":"BMU","name":"St. George","localName":"St. George","labelEnglish":"St. George","labelLocal":"St. George","labelBoth":"St. George","type":null,"iso":"BM-SG","qid":null},"geometry":{"type":"Point","coordinates":[-64.6742,32.3747]}}]}