{"type":"FeatureCollection","features":[{"type":"Feature","id":"BOL-1936","properties":{"kind":"division","code":"BOL-1936","countryCode":"BOL","name":"La Paz","localName":"La Paz","labelEnglish":"La Paz","labelLocal":"La Paz","labelBoth":"La Paz","type":"Department","iso":"BO-L","qid":"Q272784"},"geometry":{"type":"Polygon","coordinates":[[[-69.5101,-17.5066],[-69.3024,-17.9762],[-69.0823,-18.0391],[-68.8677,-17.9668],[-68.5423,-17.6884],[-68.1704,-17.65],[-67.8093,-17.8604],[-67.7559,-17.7387],[-67.1508,-17.401],[-66.9899,-17.5513],[-66.8419,-17.4681],[-67.0152,-17.0469],[-66.7614,-16.7578],[-66.7996,-16.2833],[-66.9456,-16.0753],[-66.7844,-15.6993],[-67.1186,-15.3785],[-67.2927,-15.0154],[-67.4176,-14.9685],[-67.536,-14.5986],[-67.536,-13.9984],[-67.3696,-13.5909],[-67.3956,-13.4025],[-67.0523,-13.0159],[-66.9278,-12.3822],[-67.9555,-11.9093],[-68.1845,-12.0056],[-68.4769,-12.4167],[-68.6895,-12.4934],[-68.981,-12.8679],[-68.9739,-13.0318],[-69.016,-13.7531],[-68.8837,-14.2115],[-69.2475,-14.5937],[-69.3907,-14.9644],[-69.1481,-15.2333],[-69.4243,-15.6563],[-69.2196,-16.1528],[-68.8558,-16.3632],[-69.0368,-16.4715],[-69.4274,-17.0869],[-69.6644,-17.2886],[-69.5101,-17.5066]]]}},{"type":"Feature","id":"label-BOL-1936","properties":{"kind":"division-label","code":"BOL-1936","countryCode":"BOL","name":"La Paz","localName":"La Paz","labelEnglish":"La Paz","labelLocal":"La Paz","labelBoth":"La Paz","type":"Department","iso":"BO-L","qid":"Q272784"},"geometry":{"type":"Point","coordinates":[-68.2128,-14.8335]}},{"type":"Feature","id":"BOL-1937","properties":{"kind":"division","code":"BOL-1937","countryCode":"BOL","name":"Oruro","localName":"Oruro","labelEnglish":"Oruro","labelLocal":"Oruro","labelBoth":"Oruro","type":"Department","iso":"BO-O","qid":"Q1061368"},"geometry":{"type":"Polygon","coordinates":[[[-68.9896,-18.9465],[-68.4476,-19.4346],[-68.5767,-19.5646],[-67.8319,-19.8079],[-67.5519,-19.7824],[-66.7281,-19.4415],[-66.4301,-19.2329],[-66.0586,-19.1408],[-66.2994,-18.7545],[-66.6906,-18.4943],[-66.5216,-18.2526],[-66.7362,-18.2082],[-66.6249,-17.9913],[-66.9899,-17.5513],[-67.1508,-17.401],[-67.7559,-17.7387],[-67.8093,-17.8604],[-68.1704,-17.65],[-68.5423,-17.6884],[-68.8677,-17.9668],[-69.0823,-18.0391],[-69.1554,-18.1402],[-68.9546,-18.857],[-68.9896,-18.9465]]]}},{"type":"Feature","id":"label-BOL-1937","properties":{"kind":"division-label","code":"BOL-1937","countryCode":"BOL","name":"Oruro","localName":"Oruro","labelEnglish":"Oruro","labelLocal":"Oruro","labelBoth":"Oruro","type":"Department","iso":"BO-O","qid":"Q1061368"},"geometry":{"type":"Point","coordinates":[-67.5984,-18.7151]}},{"type":"Feature","id":"BOL-1939","properties":{"kind":"division","code":"BOL-1939","countryCode":"BOL","name":"Potosí","localName":"Potosí","labelEnglish":"Potosí","labelLocal":"Potosí","labelBoth":"Potosí","type":"Department","iso":"BO-P","qid":"Q238079"},"geometry":{"type":"Polygon","coordinates":[[[-68.5767,-19.5646],[-68.6984,-19.7463],[-68.5883,-20.0556],[-68.7755,-20.0897],[-68.6855,-20.5168],[-68.481,-20.6247],[-68.5316,-20.9277],[-68.2075,-21.2843],[-68.0962,-21.954],[-67.9902,-22.0576],[-67.8587,-22.5668],[-67.8763,-22.8336],[-67.5471,-22.8925],[-67.1939,-22.8222],[-67.0327,-22.5246],[-66.7851,-22.4276],[-66.7359,-22.2251],[-66.3775,-22.1271],[-66.24,-21.7924],[-65.7446,-22.114],[-65.1905,-22.0985],[-65.3285,-21.8029],[-65.2349,-21.5354],[-65.4585,-21.3351],[-65.4227,-20.8368],[-65.296,-20.5338],[-65.3166,-20.0484],[-64.8677,-19.8684],[-64.7469,-19.7324],[-64.9637,-19.3504],[-65.3728,-19.2542],[-65.5405,-19.0187],[-65.4574,-18.683],[-65.6297,-18.7515],[-65.6944,-18.3642],[-65.3439,-18.4226],[-66.0185,-17.8622],[-66.6249,-17.9913],[-66.7362,-18.2082],[-66.5216,-18.2526],[-66.6906,-18.4943],[-66.2994,-18.7545],[-66.0586,-19.1408],[-66.4301,-19.2329],[-66.7281,-19.4415],[-67.5519,-19.7824],[-67.8319,-19.8079],[-68.5767,-19.5646]]]}},{"type":"Feature","id":"label-BOL-1939","properties":{"kind":"division-label","code":"BOL-1939","countryCode":"BOL","name":"Potosí","localName":"Potosí","labelEnglish":"Potosí","labelLocal":"Potosí","labelBoth":"Potosí","type":"Department","iso":"BO-P","qid":"Q238079"},"geometry":{"type":"Point","coordinates":[-66.7701,-20.9033]}},{"type":"Feature","id":"BOL-1941","properties":{"kind":"division","code":"BOL-1941","countryCode":"BOL","name":"Tarija","localName":"Tarija","labelEnglish":"Tarija","labelLocal":"Tarija","labelBoth":"Tarija","type":"Department","iso":"BO-T","qid":"Q233933"},"geometry":{"type":"Polygon","coordinates":[[[-62.6504,-22.2345],[-62.2719,-21.0004],[-63.983,-20.9967],[-64.1752,-20.8914],[-64.2032,-21.1205],[-64.531,-21.09],[-64.7174,-20.9359],[-64.7824,-21.0797],[-65.1624,-20.9485],[-65.2349,-21.5354],[-65.3285,-21.8029],[-65.1905,-22.0985],[-64.5869,-22.2128],[-64.3439,-22.8637],[-64.2508,-22.5407],[-63.9476,-22.0076],[-62.8044,-22.0041],[-62.6504,-22.2345]]]}},{"type":"Feature","id":"label-BOL-1941","properties":{"kind":"division-label","code":"BOL-1941","countryCode":"BOL","name":"Tarija","localName":"Tarija","labelEnglish":"Tarija","labelLocal":"Tarija","labelBoth":"Tarija","type":"Department","iso":"BO-T","qid":"Q233933"},"geometry":{"type":"Point","coordinates":[-63.8005,-21.5039]}},{"type":"Feature","id":"BOL-1940","properties":{"kind":"division","code":"BOL-1940","countryCode":"BOL","name":"Santa Cruz","localName":"Santa Cruz","labelEnglish":"Santa Cruz","labelLocal":"Santa Cruz","labelBoth":"Santa Cruz","type":"Department","iso":"BO-S","qid":"Q235106"},"geometry":{"type":"Polygon","coordinates":[[[-58.1588,-20.1651],[-57.8597,-19.9801],[-58.1246,-19.7299],[-57.789,-19.0592],[-57.5511,-18.1836],[-57.7245,-17.7366],[-57.7908,-17.5558],[-58.3812,-17.2672],[-58.4803,-16.6837],[-58.3396,-16.2893],[-58.4647,-16.3312],[-60.1298,-16.2731],[-60.238,-15.5027],[-60.5822,-15.0989],[-60.275,-15.0951],[-60.2917,-14.6301],[-60.4643,-14.2784],[-60.388,-13.9894],[-60.4726,-13.7979],[-60.7256,-13.6628],[-61.0472,-13.4646],[-61.5931,-13.5068],[-63.5704,-14.6185],[-63.963,-14.7374],[-63.9498,-15.0856],[-63.6238,-15.6274],[-63.3409,-15.9176],[-64.6575,-15.8505],[-64.6842,-16.3884],[-64.8071,-16.7174],[-64.6474,-16.996],[-64.2337,-17.3186],[-64.7042,-17.8832],[-64.3402,-18.6569],[-64.0163,-19.1606],[-63.7413,-19.0444],[-63.7253,-19.963],[-63.6519,-20.4501],[-63.3685,-20.3574],[-63.2859,-20.4751],[-62.2106,-20.4713],[-61.9247,-20.0651],[-61.7612,-19.6578],[-60.0064,-19.2981],[-59.0895,-19.2867],[-58.1753,-19.8214],[-58.1588,-20.1651]]]}},{"type":"Feature","id":"label-BOL-1940","properties":{"kind":"division-label","code":"BOL-1940","countryCode":"BOL","name":"Santa Cruz","localName":"Santa Cruz","labelEnglish":"Santa Cruz","labelLocal":"Santa Cruz","labelBoth":"Santa Cruz","type":"Department","iso":"BO-S","qid":"Q235106"},"geometry":{"type":"Point","coordinates":[-61.137,-16.5168]}},{"type":"Feature","id":"BOL-1292","properties":{"kind":"division","code":"BOL-1292","countryCode":"BOL","name":"Chuquisaca","localName":"Chuquisaca","labelEnglish":"Chuquisaca","labelLocal":"Chuquisaca","labelBoth":"Chuquisaca","type":"Department","iso":"BO-H","qid":"Q235110"},"geometry":{"type":"Polygon","coordinates":[[[-62.2106,-20.4713],[-63.2859,-20.4751],[-63.3685,-20.3574],[-63.6519,-20.4501],[-63.7253,-19.963],[-63.7413,-19.0444],[-64.0163,-19.1606],[-64.3402,-18.6569],[-64.5838,-18.6612],[-64.8387,-18.4869],[-65.0549,-18.6441],[-65.3439,-18.4226],[-65.6944,-18.3642],[-65.6297,-18.7515],[-65.4574,-18.683],[-65.5405,-19.0187],[-65.3728,-19.2542],[-64.9637,-19.3504],[-64.7469,-19.7324],[-64.8677,-19.8684],[-65.3166,-20.0484],[-65.296,-20.5338],[-65.4227,-20.8368],[-65.4585,-21.3351],[-65.2349,-21.5354],[-65.1624,-20.9485],[-64.7824,-21.0797],[-64.7174,-20.9359],[-64.531,-21.09],[-64.2032,-21.1205],[-64.1752,-20.8914],[-63.983,-20.9967],[-62.2719,-21.0004],[-62.2106,-20.4713]]]}},{"type":"Feature","id":"label-BOL-1292","properties":{"kind":"division-label","code":"BOL-1292","countryCode":"BOL","name":"Chuquisaca","localName":"Chuquisaca","labelEnglish":"Chuquisaca","labelLocal":"Chuquisaca","labelBoth":"Chuquisaca","type":"Department","iso":"BO-H","qid":"Q235110"},"geometry":{"type":"Point","coordinates":[-63.9529,-20.0848]}},{"type":"Feature","id":"BOL-1938","properties":{"kind":"division","code":"BOL-1938","countryCode":"BOL","name":"Pando","localName":"Pando","labelEnglish":"Pando","labelLocal":"Pando","labelBoth":"Pando","type":"Department","iso":"BO-N","qid":"Q235362"},"geometry":{"type":"Polygon","coordinates":[[[-65.3946,-10.3921],[-65.2881,-10.2162],[-65.3044,-9.8257],[-65.4518,-9.6814],[-66.6489,-9.9159],[-67.0643,-10.2569],[-67.3378,-10.3261],[-67.7217,-10.7055],[-68.0979,-10.6977],[-68.2933,-10.979],[-68.787,-11.126],[-68.7576,-11.0119],[-69.5776,-10.9523],[-68.6895,-12.4934],[-68.4769,-12.4167],[-68.1845,-12.0056],[-67.9555,-11.9093],[-66.9278,-12.3822],[-66.8774,-12.065],[-66.9706,-11.849],[-66.7153,-11.6556],[-66.6561,-11.4402],[-66.3169,-11.3859],[-66.0117,-10.7894],[-65.3946,-10.3921]]]}},{"type":"Feature","id":"label-BOL-1938","properties":{"kind":"division-label","code":"BOL-1938","countryCode":"BOL","name":"Pando","localName":"Pando","labelEnglish":"Pando","labelLocal":"Pando","labelBoth":"Pando","type":"Department","iso":"BO-N","qid":"Q235362"},"geometry":{"type":"Point","coordinates":[-67.4319,-11.273]}},{"type":"Feature","id":"BOL-1293","properties":{"kind":"division","code":"BOL-1293","countryCode":"BOL","name":"Beni","localName":"Beni","labelEnglish":"Beni","labelLocal":"Beni","labelBoth":"Beni","type":"Department","iso":"BO-B","qid":"Q233169"},"geometry":{"type":"Polygon","coordinates":[[[-65.3946,-10.3921],[-66.0117,-10.7894],[-66.3169,-11.3859],[-66.6561,-11.4402],[-66.7153,-11.6556],[-66.9706,-11.849],[-66.8774,-12.065],[-66.9278,-12.3822],[-67.0523,-13.0159],[-67.3956,-13.4025],[-67.3696,-13.5909],[-67.536,-13.9984],[-67.536,-14.5986],[-67.4176,-14.9685],[-67.2927,-15.0154],[-67.1186,-15.3785],[-66.7844,-15.6993],[-66.2392,-16.3169],[-65.8044,-16.4657],[-65.3309,-16.2791],[-65.1639,-15.9071],[-64.6575,-15.8505],[-63.3409,-15.9176],[-63.6238,-15.6274],[-63.9498,-15.0856],[-63.963,-14.7374],[-63.5704,-14.6185],[-61.5931,-13.5068],[-61.848,-13.5308],[-62.1725,-13.1179],[-62.4275,-13.1246],[-62.8074,-12.9889],[-63.075,-12.6527],[-63.3933,-12.6645],[-63.8014,-12.4549],[-63.9212,-12.5443],[-64.3957,-12.4573],[-64.4691,-12.2611],[-64.7925,-12.0325],[-64.9974,-11.9963],[-65.1962,-11.7418],[-65.3947,-11.1534],[-65.3946,-10.3921]]]}},{"type":"Feature","id":"label-BOL-1293","properties":{"kind":"division-label","code":"BOL-1293","countryCode":"BOL","name":"Beni","localName":"Beni","labelEnglish":"Beni","labelLocal":"Beni","labelBoth":"Beni","type":"Department","iso":"BO-B","qid":"Q233169"},"geometry":{"type":"Point","coordinates":[-64.5806,-14.0358]}},{"type":"Feature","id":"BOL-1291","properties":{"kind":"division","code":"BOL-1291","countryCode":"BOL","name":"Cochabamba","localName":"Cochabamba","labelEnglish":"Cochabamba","labelLocal":"Cochabamba","labelBoth":"Cochabamba","type":"Department","iso":"BO-C","qid":"Q233917"},"geometry":{"type":"Polygon","coordinates":[[[-66.9899,-17.5513],[-66.6249,-17.9913],[-66.0185,-17.8622],[-65.3439,-18.4226],[-65.0549,-18.6441],[-64.8387,-18.4869],[-64.5838,-18.6612],[-64.3402,-18.6569],[-64.7042,-17.8832],[-64.2337,-17.3186],[-64.6474,-16.996],[-64.8071,-16.7174],[-64.6842,-16.3884],[-64.6575,-15.8505],[-65.1639,-15.9071],[-65.3309,-16.2791],[-65.8044,-16.4657],[-66.2392,-16.3169],[-66.7844,-15.6993],[-66.9456,-16.0753],[-66.7996,-16.2833],[-66.7614,-16.7578],[-67.0152,-17.0469],[-66.8419,-17.4681],[-66.9899,-17.5513]]]}},{"type":"Feature","id":"label-BOL-1291","properties":{"kind":"division-label","code":"BOL-1291","countryCode":"BOL","name":"Cochabamba","localName":"Cochabamba","labelEnglish":"Cochabamba","labelLocal":"Cochabamba","labelBoth":"Cochabamba","type":"Department","iso":"BO-C","qid":"Q233917"},"geometry":{"type":"Point","coordinates":[-65.6137,-17.2884]}}]}