{"type":"FeatureCollection","features":[{"type":"Feature","id":"BRA-612","properties":{"kind":"division","code":"BRA-612","countryCode":"BRA","name":"Rio Grande do Sul","localName":"Rio Grande do Sul","labelEnglish":"Rio Grande do Sul","labelLocal":"Rio Grande do Sul","labelBoth":"Rio Grande do Sul","type":"State","iso":"BR-RS","qid":"Q40030"},"geometry":{"type":"Polygon","coordinates":[[[-57.6028,-30.1905],[-57.2126,-30.2873],[-57.0771,-30.1061],[-56.8313,-30.102],[-56.0114,-30.7982],[-56.017,-31.0743],[-56.0099,-31.0819],[-55.5919,-30.8483],[-55.26,-31.2287],[-54.5915,-31.471],[-54.4672,-31.6642],[-54.1351,-31.909],[-53.7718,-32.0471],[-53.6487,-32.3386],[-53.1108,-32.7224],[-53.1828,-32.7999],[-53.5207,-33.125],[-53.5396,-33.6493],[-53.3791,-33.7407],[-52.6217,-33.102],[-52.2534,-32.2825],[-52.2037,-31.7273],[-51.9228,-31.3069],[-51.6375,-31.2565],[-51.443,-31.081],[-51.3833,-30.6589],[-51.1877,-30.3601],[-51.2356,-30.1782],[-50.6899,-30.3532],[-50.7311,-30.7924],[-51.1534,-31.0672],[-51.1796,-31.359],[-51.8635,-31.9317],[-51.1518,-31.4815],[-50.7214,-31.0445],[-50.3157,-30.4615],[-50.0453,-29.8145],[-49.7135,-29.3245],[-50.0056,-29.1031],[-49.9541,-28.7947],[-49.6997,-28.5953],[-49.7571,-28.4704],[-50.1618,-28.484],[-50.6211,-28.3742],[-51.0805,-27.8211],[-51.6638,-27.4791],[-51.9025,-27.4978],[-52.0183,-27.3304],[-52.4479,-27.2161],[-52.6992,-27.2739],[-53.0536,-27.0993],[-53.3142,-27.1955],[-53.842,-27.1635],[-54.8983,-27.6236],[-55.0258,-27.8402],[-55.3141,-27.915],[-55.623,-28.1443],[-56.4158,-29.0514],[-57.3252,-29.981],[-57.6117,-30.183],[-57.6028,-30.1905]]]}},{"type":"Feature","id":"label-BRA-612","properties":{"kind":"division-label","code":"BRA-612","countryCode":"BRA","name":"Rio Grande do Sul","localName":"Rio Grande do Sul","labelEnglish":"Rio Grande do Sul","labelLocal":"Rio Grande do Sul","labelBoth":"Rio Grande do Sul","type":"State","iso":"BR-RS","qid":"Q40030"},"geometry":{"type":"Point","coordinates":[-53.656,-29.7277]}},{"type":"Feature","id":"BRA-670","properties":{"kind":"division","code":"BRA-670","countryCode":"BRA","name":"Roraima","localName":"Roraima","labelEnglish":"Roraima","labelLocal":"Roraima","labelBoth":"Roraima","type":"State","iso":"BR-RR","qid":"Q42508"},"geometry":{"type":"Polygon","coordinates":[[[-60.0887,5.1554],[-60.2134,5.2672],[-60.7399,5.2021],[-60.6126,4.9006],[-61.012,4.5183],[-61.2973,4.5237],[-61.5673,4.2485],[-62.1927,4.0947],[-62.3842,4.1735],[-62.7662,4.0207],[-62.7496,3.6604],[-62.931,3.5638],[-63.4254,3.9684],[-64.0638,3.9116],[-64.1251,4.0885],[-64.648,4.2079],[-64.6629,3.997],[-64.203,3.5947],[-64.2229,3.124],[-63.9979,2.706],[-64.048,2.4713],[-63.3848,2.4206],[-63.3865,2.2359],[-63.0039,2.0208],[-62.7071,1.9472],[-62.7868,1.6033],[-62.6229,1.4159],[-62.4463,0.8046],[-62.5781,0.0168],[-62.3721,-0.3416],[-62.3116,-0.6409],[-62.5057,-0.7729],[-62.0276,-1.1443],[-61.8794,-1.3693],[-61.6016,-1.4183],[-61.5322,-0.7285],[-61.1072,-0.4928],[-60.9312,-0.5549],[-60.7367,-0.8495],[-60.3398,-0.7041],[-60.3107,-0.2353],[-60.0245,0.2237],[-58.8705,0.2254],[-58.972,1.3123],[-59.2421,1.3778],[-59.7497,1.8513],[-59.7417,2.2638],[-59.9031,2.3596],[-60.0001,2.694],[-59.9594,3.0665],[-59.821,3.3635],[-59.8377,3.6093],[-59.5292,3.9319],[-59.7267,4.1765],[-59.6871,4.3715],[-60.1488,4.513],[-59.9831,5.0859],[-60.0887,5.1554]]]}},{"type":"Feature","id":"label-BRA-670","properties":{"kind":"division-label","code":"BRA-670","countryCode":"BRA","name":"Roraima","localName":"Roraima","labelEnglish":"Roraima","labelLocal":"Roraima","labelBoth":"Roraima","type":"State","iso":"BR-RR","qid":"Q42508"},"geometry":{"type":"Point","coordinates":[-61.3325,1.93803]}},{"type":"Feature","id":"BRA-594","properties":{"kind":"division","code":"BRA-594","countryCode":"BRA","name":"Pará","localName":"Pará","labelEnglish":"Pará","labelLocal":"Pará","labelBoth":"Pará","type":"State","iso":"BR-PA","qid":"Q39517"},"geometry":{"type":"MultiPolygon","coordinates":[[[[-56.4818,1.9416],[-56.8065,1.8736],[-57.1045,2.0215],[-57.3415,1.9688],[-57.5612,1.709],[-57.985,1.6577],[-58.0272,1.5169],[-58.3319,1.5934],[-58.5018,1.4538],[-58.5189,1.2673],[-58.7719,1.2013],[-58.972,1.3123],[-58.8705,0.2254],[-58.8537,-0.352],[-58.7498,-0.6218],[-58.441,-0.8619],[-58.3895,-1.049],[-57.6559,-1.59],[-57.0879,-1.8118],[-56.4986,-2.1617],[-56.3897,-2.3906],[-56.7567,-3.1861],[-58.2944,-6.4969],[-58.4664,-6.7016],[-58.3918,-6.9559],[-58.1355,-7.3391],[-57.8937,-7.6926],[-57.6403,-8.2294],[-57.5796,-8.7563],[-57.1031,-9.0513],[-57.0455,-9.2304],[-56.4616,-9.4669],[-55.0927,-9.5651],[-51.2977,-9.7894],[-50.2357,-9.844],[-50.0537,-9.3191],[-49.7551,-8.923],[-49.5655,-8.8112],[-49.3105,-8.3822],[-49.1634,-7.8036],[-49.3906,-7.5976],[-49.185,-7.2253],[-49.1985,-6.9026],[-48.6834,-6.6627],[-48.6063,-6.435],[-48.3899,-6.3624],[-48.4288,-6.1713],[-48.2227,-5.9143],[-48.1424,-5.6461],[-48.3667,-5.4027],[-48.723,-5.3553],[-47.8007,-4.5958],[-47.6544,-4.6056],[-47.0658,-3.8417],[-46.9446,-3.3982],[-46.6667,-3.0942],[-46.6667,-2.7385],[-46.4269,-2.5105],[-46.3,-2.1772],[-46.2012,-1.4841],[-46.0846,-1.2104],[-46.1718,-0.921],[-46.4801,-1.0222],[-46.8192,-0.7117],[-47.0766,-0.8366],[-47.0731,-0.6752],[-47.4619,-0.5929],[-47.3794,-0.7709],[-47.7252,-0.6441],[-47.9621,-0.7818],[-48.0379,-0.6617],[-48.3397,-1.316],[-48.4828,-1.2813],[-48.4215,-1.6451],[-48.6421,-1.3857],[-48.9687,-1.7859],[-48.9656,-1.5997],[-49.232,-1.9482],[-49.5274,-2.6284],[-49.3792,-1.8964],[-49.4852,-1.7639],[-49.6542,-1.9202],[-49.9769,-1.8261],[-50.443,-1.936],[-50.66,-1.803],[-50.9564,-1.1285],[-50.8217,-0.9353],[-51.9146,-1.571],[-52.2488,-1.7031],[-52.2791,-1.5182],[-52.7081,-1.6],[-52.1954,-1.345],[-51.9215,-1.3258],[-51.9083,-1.158],[-52.0561,-1.2128],[-52.3582,-1.0698],[-52.5174,-0.8758],[-52.6269,-0.3972],[-52.9154,-0.192],[-53.1284,0.387],[-53.1122,0.7201],[-53.4162,0.9418],[-53.5555,1.3658],[-53.8897,1.4059],[-54.3665,1.7622],[-54.7355,1.772],[-54.7755,2.4573],[-54.9786,2.5431],[-55.7243,2.3969],[-55.9892,2.5208],[-56.1168,2.3331],[-55.9151,2.0377],[-56.0197,1.8335],[-56.4818,1.9416]]],[[[-50.8192,-0.6202],[-51.0663,-0.676],[-51.0941,-0.8263],[-50.8192,-0.6202]]],[[[-51.186,-0.6139],[-51.5051,-0.6071],[-51.6758,-0.8468],[-51.6684,-1.0575],[-51.9541,-1.4225],[-51.7856,-1.45],[-51.286,-1.0317],[-51.186,-0.6139]]],[[[-48.4625,-0.5761],[-48.4272,-0.2599],[-49.2154,-0.1412],[-49.6535,-0.2411],[-50.3682,-0.1056],[-50.6547,-0.2638],[-50.7799,-0.6606],[-50.8042,-1.425],[-50.6067,-1.7648],[-50.155,-1.779],[-50.0259,-1.6607],[-49.8236,-1.8166],[-49.504,-1.5866],[-49.1877,-1.6076],[-48.8392,-1.4426],[-48.842,-1.2133],[-48.6428,-1.0836],[-48.4625,-0.5761]]],[[[-50.9737,-0.2912],[-50.6274,-0.0857],[-50.9473,-0.012],[-50.9737,-0.2912]]],[[[-49.8323,-0.1031],[-49.4387,-0.1205],[-49.4966,0.0856],[-49.8323,-0.1031]]],[[[-50.0369,0.2997],[-50.3668,0.2145],[-50.3451,0.0474],[-49.8297,0.0113],[-49.5289,0.3008],[-49.6502,0.3864],[-50.0369,0.2997]]],[[[-50.378,0.245],[-50.3667,0.6199],[-50.5168,0.2086],[-50.378,0.245]]],[[[-50.3121,0.414],[-50.0427,0.5103],[-50.2421,0.593],[-50.3121,0.414]]]]}},{"type":"Feature","id":"label-BRA-594","properties":{"kind":"division-label","code":"BRA-594","countryCode":"BRA","name":"Pará","localName":"Pará","labelEnglish":"Pará","labelLocal":"Pará","labelBoth":"Pará","type":"State","iso":"BR-PA","qid":"Q39517"},"geometry":{"type":"Point","coordinates":[-52.6491,-4.44313]}},{"type":"Feature","id":"BRA-576","properties":{"kind":"division","code":"BRA-576","countryCode":"BRA","name":"Acre","localName":"Acre","labelEnglish":"Acre","labelLocal":"Acre","labelBoth":"Acre","type":"State","iso":"BR-AC","qid":"Q40780"},"geometry":{"type":"Polygon","coordinates":[[[-69.5776,-10.9523],[-68.7576,-11.0119],[-68.787,-11.126],[-68.2933,-10.979],[-68.0979,-10.6977],[-67.7217,-10.7055],[-67.3378,-10.3261],[-67.0643,-10.2569],[-66.6489,-9.9159],[-66.8305,-9.838],[-69.8068,-8.4545],[-70.3715,-8.1573],[-72.6637,-7.5916],[-73.8068,-7.1179],[-73.7131,-7.3047],[-73.9845,-7.5294],[-73.7122,-7.7882],[-73.5265,-8.3724],[-73.1746,-8.7207],[-72.9594,-9.0856],[-73.215,-9.409],[-72.8133,-9.4109],[-72.3068,-9.5409],[-72.1957,-10.0056],[-71.3914,-10.0068],[-70.8755,-9.6605],[-70.6244,-9.5658],[-70.6387,-9.9559],[-70.6413,-11.0108],[-70.2894,-11.0647],[-69.9561,-10.9193],[-69.5776,-10.9523]]]}},{"type":"Feature","id":"label-BRA-576","properties":{"kind":"division-label","code":"BRA-576","countryCode":"BRA","name":"Acre","localName":"Acre","labelEnglish":"Acre","labelLocal":"Acre","labelBoth":"Acre","type":"State","iso":"BR-AC","qid":"Q40780"},"geometry":{"type":"Point","coordinates":[-70.2976,-8.9285]}},{"type":"Feature","id":"BRA-681","properties":{"kind":"division","code":"BRA-681","countryCode":"BRA","name":"Amapá","localName":"Amapá","labelEnglish":"Amapá","labelLocal":"Amapá","labelBoth":"Amapá","type":"State","iso":"BR-AP","qid":"Q40130"},"geometry":{"type":"Polygon","coordinates":[[[-54.6153,2.3263],[-54.7755,2.4573],[-54.7355,1.772],[-54.3665,1.7622],[-53.8897,1.4059],[-53.5555,1.3658],[-53.4162,0.9418],[-53.1122,0.7201],[-53.1284,0.387],[-52.9154,-0.192],[-52.6269,-0.3972],[-52.5174,-0.8758],[-52.3582,-1.0698],[-52.0561,-1.2128],[-51.9083,-1.158],[-51.7242,-1.0392],[-51.6975,-0.7472],[-51.2512,-0.1274],[-50.9289,0.1554],[-50.7906,0.1695],[-50.3125,0.8172],[-49.89,1.1652],[-49.9102,1.6643],[-50.1832,1.8189],[-50.4665,1.8154],[-50.6793,2.1717],[-51.0927,3.3763],[-51.0799,3.8823],[-51.1761,3.6483],[-51.2244,4.165],[-51.5165,4.4411],[-51.4982,4.1054],[-51.6832,4.0394],[-51.9884,3.7046],[-52.7077,2.3589],[-52.9597,2.1752],[-53.3441,2.3496],[-53.5318,2.247],[-53.8309,2.3101],[-54.1349,2.1107],[-54.6153,2.3263]]]}},{"type":"Feature","id":"label-BRA-681","properties":{"kind":"division-label","code":"BRA-681","countryCode":"BRA","name":"Amapá","localName":"Amapá","labelEnglish":"Amapá","labelLocal":"Amapá","labelBoth":"Amapá","type":"State","iso":"BR-AP","qid":"Q40130"},"geometry":{"type":"Point","coordinates":[-51.6842,1.41157]}},{"type":"Feature","id":"BRA-600","properties":{"kind":"division","code":"BRA-600","countryCode":"BRA","name":"Mato Grosso do Sul","localName":"Mato Grosso do Sul","labelEnglish":"Mato Grosso do Sul","labelLocal":"Mato Grosso do Sul","labelBoth":"Mato Grosso do Sul","type":"State","iso":"BR-MS","qid":"Q43319"},"geometry":{"type":"Polygon","coordinates":[[[-57.7245,-17.7366],[-57.5511,-18.1836],[-57.789,-19.0592],[-58.1246,-19.7299],[-57.8597,-19.9801],[-58.1588,-20.1651],[-57.9894,-20.4331],[-57.9806,-20.6927],[-57.8176,-20.9536],[-57.9731,-22.081],[-57.2138,-22.1882],[-56.8429,-22.289],[-56.4218,-22.0745],[-56.1968,-22.2793],[-55.8744,-22.3173],[-55.6312,-22.6268],[-55.6378,-23.0007],[-55.5338,-23.5304],[-55.398,-23.9768],[-54.9436,-23.9692],[-54.6392,-23.8044],[-54.2457,-24.0504],[-54.0772,-23.9492],[-53.9477,-23.4245],[-53.7251,-23.2964],[-53.5968,-22.9202],[-53.168,-22.7017],[-52.967,-22.4589],[-52.3693,-22.0989],[-52.0436,-21.6661],[-52.1063,-21.5503],[-51.8674,-21.343],[-51.8749,-21.1717],[-51.632,-20.877],[-51.6202,-20.6998],[-50.994,-20.1017],[-50.9612,-19.4735],[-51.1382,-19.2844],[-51.6431,-19.1288],[-52.4964,-18.7051],[-52.8696,-18.6805],[-52.7834,-18.3916],[-53.0567,-18.2931],[-53.0538,-18.0166],[-53.7282,-18.008],[-53.9888,-17.9022],[-53.7506,-17.6428],[-53.6816,-17.2566],[-54.1436,-17.6273],[-54.3931,-17.6722],[-54.5261,-17.5136],[-55.1805,-17.6858],[-55.6086,-17.3933],[-56.1026,-17.1874],[-56.7563,-17.3182],[-57.1313,-17.7866],[-57.4928,-17.869],[-57.7245,-17.7366]]]}},{"type":"Feature","id":"label-BRA-600","properties":{"kind":"division-label","code":"BRA-600","countryCode":"BRA","name":"Mato Grosso do Sul","localName":"Mato Grosso do Sul","labelEnglish":"Mato Grosso do Sul","labelLocal":"Mato Grosso do Sul","labelBoth":"Mato Grosso do Sul","type":"State","iso":"BR-MS","qid":"Q43319"},"geometry":{"type":"Point","coordinates":[-54.5502,-20.6756]}},{"type":"Feature","id":"BRA-613","properties":{"kind":"division","code":"BRA-613","countryCode":"BRA","name":"Paraná","localName":"Paraná","labelEnglish":"Paraná","labelLocal":"Paraná","labelBoth":"Paraná","type":"State","iso":"BR-PR","qid":"Q15499"},"geometry":{"type":"Polygon","coordinates":[[[-54.3584,-24.7314],[-54.6002,-25.5749],[-54.4606,-25.6421],[-54.1072,-25.5006],[-53.91,-25.6292],[-53.6616,-26.2598],[-53.3552,-26.2416],[-53.1216,-26.3674],[-52.8158,-26.3366],[-52.1997,-26.4516],[-52.0065,-26.5816],[-51.2386,-26.6073],[-51.2885,-26.4245],[-51.0723,-26.2351],[-50.733,-26.2323],[-50.6465,-26.0702],[-49.951,-26.0137],[-49.5943,-26.2237],[-49.1103,-25.9925],[-48.5827,-25.9809],[-48.4327,-25.6225],[-48.4557,-25.2485],[-48.2091,-25.4576],[-48.0821,-25.3073],[-48.2302,-25.0136],[-48.5662,-25.0577],[-48.6132,-24.6804],[-49.2955,-24.666],[-49.2278,-24.3385],[-49.6018,-23.8644],[-49.6381,-23.2593],[-49.97,-22.9121],[-50.7855,-22.9436],[-50.8801,-22.8221],[-51.3551,-22.6501],[-51.547,-22.6853],[-52.0667,-22.5217],[-52.2171,-22.6438],[-52.9472,-22.5708],[-53.168,-22.7017],[-53.5968,-22.9202],[-53.7251,-23.2964],[-53.9477,-23.4245],[-54.0772,-23.9492],[-54.2457,-24.0504],[-54.3584,-24.7314]]]}},{"type":"Feature","id":"label-BRA-613","properties":{"kind":"division-label","code":"BRA-613","countryCode":"BRA","name":"Paraná","localName":"Paraná","labelEnglish":"Paraná","labelLocal":"Paraná","labelBoth":"Paraná","type":"State","iso":"BR-PR","qid":"Q15499"},"geometry":{"type":"Point","coordinates":[-51.3228,-24.6618]}},{"type":"Feature","id":"BRA-614","properties":{"kind":"division","code":"BRA-614","countryCode":"BRA","name":"Santa Catarina","localName":"Santa Catarina","labelEnglish":"Santa Catarina","labelLocal":"Santa Catarina","labelBoth":"Santa Catarina","type":"State","iso":"BR-SC","qid":"Q41115"},"geometry":{"type":"Polygon","coordinates":[[[-53.6616,-26.2598],[-53.7107,-26.8738],[-53.842,-27.1635],[-53.3142,-27.1955],[-53.0536,-27.0993],[-52.6992,-27.2739],[-52.4479,-27.2161],[-52.0183,-27.3304],[-51.9025,-27.4978],[-51.6638,-27.4791],[-51.0805,-27.8211],[-50.6211,-28.3742],[-50.1618,-28.484],[-49.7571,-28.4704],[-49.6997,-28.5953],[-49.9541,-28.7947],[-50.0056,-29.1031],[-49.7135,-29.3245],[-49.3428,-28.9235],[-48.8153,-28.6104],[-48.5655,-27.8603],[-48.6474,-27.4796],[-48.6079,-26.4367],[-48.7573,-26.2912],[-48.5827,-25.9809],[-49.1103,-25.9925],[-49.5943,-26.2237],[-49.951,-26.0137],[-50.6465,-26.0702],[-50.733,-26.2323],[-51.0723,-26.2351],[-51.2885,-26.4245],[-51.2386,-26.6073],[-52.0065,-26.5816],[-52.1997,-26.4516],[-52.8158,-26.3366],[-53.1216,-26.3674],[-53.3552,-26.2416],[-53.6616,-26.2598]]]}},{"type":"Feature","id":"label-BRA-614","properties":{"kind":"division-label","code":"BRA-614","countryCode":"BRA","name":"Santa Catarina","localName":"Santa Catarina","labelEnglish":"Santa Catarina","labelLocal":"Santa Catarina","labelBoth":"Santa Catarina","type":"State","iso":"BR-SC","qid":"Q41115"},"geometry":{"type":"Point","coordinates":[-51.1586,-27.0392]}},{"type":"Feature","id":"BRA-592","properties":{"kind":"division","code":"BRA-592","countryCode":"BRA","name":"Amazonas","localName":"Amazonas","labelEnglish":"Amazonas","labelLocal":"Amazonas","labelBoth":"Amazonas","type":"State","iso":"BR-AM","qid":"Q40040"},"geometry":{"type":"Polygon","coordinates":[[[-66.8751,1.2225],[-67.0652,1.1727],[-67.1172,1.7098],[-67.3406,2.0901],[-67.5929,2.0548],[-67.7905,1.8126],[-67.9982,1.75],[-68.2008,2.0078],[-68.1633,1.7213],[-69.8412,1.7076],[-69.8522,1.0594],[-69.3709,1.063],[-69.1524,0.8678],[-69.1375,0.6501],[-69.5037,0.7296],[-70.0542,0.5881],[-70.0738,-0.1249],[-69.6321,-0.5069],[-69.6284,-0.7334],[-69.45,-0.9968],[-69.4211,-1.2393],[-69.7712,-3.2342],[-69.9649,-4.2365],[-70.2056,-4.3429],[-70.3111,-4.1709],[-70.8322,-4.1794],[-70.9687,-4.3853],[-71.7743,-4.4815],[-72.0711,-4.6051],[-72.6273,-5.0224],[-72.9179,-5.1321],[-73.0014,-5.7088],[-73.2348,-6.0776],[-73.1318,-6.4353],[-73.7655,-6.9042],[-73.8068,-7.1179],[-72.6637,-7.5916],[-70.3715,-8.1573],[-69.8068,-8.4545],[-66.8305,-9.838],[-66.5042,-9.6349],[-66.3967,-9.4053],[-65.9306,-9.4142],[-65.7679,-9.5664],[-65.2234,-9.2565],[-65.09,-9.435],[-64.7785,-8.9867],[-64.117,-8.938],[-63.9179,-8.3343],[-63.5929,-8.1655],[-63.5383,-8.0005],[-62.7237,-8.0631],[-62.5402,-8.3627],[-62.3734,-8.3835],[-62.1335,-8.7685],[-61.8755,-8.8569],[-61.6113,-8.7686],[-58.5452,-8.7483],[-58.3079,-8.1161],[-58.3786,-7.8181],[-58.1355,-7.3391],[-58.3918,-6.9559],[-58.4664,-6.7016],[-58.2944,-6.4969],[-56.7567,-3.1861],[-56.3897,-2.3906],[-56.4986,-2.1617],[-57.0879,-1.8118],[-57.6559,-1.59],[-58.3895,-1.049],[-58.441,-0.8619],[-58.7498,-0.6218],[-58.8537,-0.352],[-58.8705,0.2254],[-60.0245,0.2237],[-60.3107,-0.2353],[-60.3398,-0.7041],[-60.7367,-0.8495],[-60.9312,-0.5549],[-61.1072,-0.4928],[-61.5322,-0.7285],[-61.6016,-1.4183],[-61.8794,-1.3693],[-62.0276,-1.1443],[-62.5057,-0.7729],[-62.3116,-0.6409],[-62.3721,-0.3416],[-62.5781,0.0168],[-62.4463,0.8046],[-62.6229,1.4159],[-62.7868,1.6033],[-62.7071,1.9472],[-63.0039,2.0208],[-63.3865,2.2359],[-63.7626,1.9857],[-63.995,1.958],[-64.0809,1.6474],[-64.3948,1.3922],[-64.409,1.5075],[-64.7309,1.2476],[-65.1368,1.1269],[-65.5605,0.656],[-65.5829,0.9777],[-65.7454,0.9742],[-66.1563,0.733],[-66.4071,0.8021],[-66.8751,1.2225]]]}},{"type":"Feature","id":"label-BRA-592","properties":{"kind":"division-label","code":"BRA-592","countryCode":"BRA","name":"Amazonas","localName":"Amazonas","labelEnglish":"Amazonas","labelLocal":"Amazonas","labelBoth":"Amazonas","type":"State","iso":"BR-AM","qid":"Q40040"},"geometry":{"type":"Point","coordinates":[-63.7853,-4.21774]}},{"type":"Feature","id":"BRA-595","properties":{"kind":"division","code":"BRA-595","countryCode":"BRA","name":"Rondônia","localName":"Rondônia","labelEnglish":"Rondônia","labelLocal":"Rondônia","labelBoth":"Rondônia","type":"State","iso":"BR-RO","qid":"Q43235"},"geometry":{"type":"Polygon","coordinates":[[[-65.3946,-10.3921],[-65.3947,-11.1534],[-65.1962,-11.7418],[-64.9974,-11.9963],[-64.7925,-12.0325],[-64.4691,-12.2611],[-64.3957,-12.4573],[-63.9212,-12.5443],[-63.8014,-12.4549],[-63.3933,-12.6645],[-63.075,-12.6527],[-62.8074,-12.9889],[-62.4275,-13.1246],[-62.1725,-13.1179],[-61.848,-13.5308],[-61.5931,-13.5068],[-61.0472,-13.4646],[-60.7256,-13.6628],[-60.3838,-13.4203],[-60.2706,-13.0688],[-60.0834,-12.9285],[-59.8241,-12.3866],[-60.1014,-11.5998],[-59.9112,-11.3841],[-60.0016,-11.1443],[-60.4412,-11.0035],[-61.4703,-10.9968],[-61.471,-10.4348],[-61.5632,-10.2616],[-61.4814,-9.6381],[-61.6113,-9.3201],[-61.486,-8.9143],[-61.6113,-8.7686],[-61.8755,-8.8569],[-62.1335,-8.7685],[-62.3734,-8.3835],[-62.5402,-8.3627],[-62.7237,-8.0631],[-63.5383,-8.0005],[-63.5929,-8.1655],[-63.9179,-8.3343],[-64.117,-8.938],[-64.7785,-8.9867],[-65.09,-9.435],[-65.2234,-9.2565],[-65.7679,-9.5664],[-65.9306,-9.4142],[-66.3967,-9.4053],[-66.5042,-9.6349],[-66.8305,-9.838],[-66.6489,-9.9159],[-65.4518,-9.6814],[-65.3044,-9.8257],[-65.2881,-10.2162],[-65.3946,-10.3921]]]}},{"type":"Feature","id":"label-BRA-595","properties":{"kind":"division-label","code":"BRA-595","countryCode":"BRA","name":"Rondônia","localName":"Rondônia","labelEnglish":"Rondônia","labelLocal":"Rondônia","labelBoth":"Rondônia","type":"State","iso":"BR-RO","qid":"Q43235"},"geometry":{"type":"Point","coordinates":[-63.1439,-10.9712]}},{"type":"Feature","id":"BRA-602","properties":{"kind":"division","code":"BRA-602","countryCode":"BRA","name":"Mato Grosso","localName":"Mato Grosso","labelEnglish":"Mato Grosso","labelLocal":"Mato Grosso","labelBoth":"Mato Grosso","type":"State","iso":"BR-MT","qid":"Q42824"},"geometry":{"type":"Polygon","coordinates":[[[-60.7256,-13.6628],[-60.4726,-13.7979],[-60.388,-13.9894],[-60.4643,-14.2784],[-60.2917,-14.6301],[-60.275,-15.0951],[-60.5822,-15.0989],[-60.238,-15.5027],[-60.1298,-16.2731],[-58.4647,-16.3312],[-58.3396,-16.2893],[-58.4803,-16.6837],[-58.3812,-17.2672],[-57.7908,-17.5558],[-57.7245,-17.7366],[-57.4928,-17.869],[-57.1313,-17.7866],[-56.7563,-17.3182],[-56.1026,-17.1874],[-55.6086,-17.3933],[-55.1805,-17.6858],[-54.5261,-17.5136],[-54.3931,-17.6722],[-54.1436,-17.6273],[-53.6816,-17.2566],[-53.7506,-17.6428],[-53.9888,-17.9022],[-53.7282,-18.008],[-53.0538,-18.0166],[-53.2433,-17.5633],[-53.0194,-16.8679],[-52.6324,-16.5289],[-52.6695,-16.2913],[-52.2501,-15.9133],[-51.8827,-15.8048],[-51.6574,-15.2097],[-51.1003,-14.8879],[-50.8562,-14.1035],[-50.8633,-13.7119],[-50.569,-13.2284],[-50.484,-12.8448],[-50.6657,-12.6312],[-50.6499,-11.6082],[-50.7427,-11.5016],[-50.6129,-11.0312],[-50.5988,-10.6566],[-50.2357,-9.844],[-51.2977,-9.7894],[-55.0927,-9.5651],[-56.4616,-9.4669],[-57.0455,-9.2304],[-57.1031,-9.0513],[-57.5796,-8.7563],[-57.6403,-8.2294],[-57.8937,-7.6926],[-58.1355,-7.3391],[-58.3786,-7.8181],[-58.3079,-8.1161],[-58.5452,-8.7483],[-61.6113,-8.7686],[-61.486,-8.9143],[-61.6113,-9.3201],[-61.4814,-9.6381],[-61.5632,-10.2616],[-61.471,-10.4348],[-61.4703,-10.9968],[-60.4412,-11.0035],[-60.0016,-11.1443],[-59.9112,-11.3841],[-60.1014,-11.5998],[-59.8241,-12.3866],[-60.0834,-12.9285],[-60.2706,-13.0688],[-60.3838,-13.4203],[-60.7256,-13.6628]]]}},{"type":"Feature","id":"label-BRA-602","properties":{"kind":"division-label","code":"BRA-602","countryCode":"BRA","name":"Mato Grosso","localName":"Mato Grosso","labelEnglish":"Mato Grosso","labelLocal":"Mato Grosso","labelBoth":"Mato Grosso","type":"State","iso":"BR-MT","qid":"Q42824"},"geometry":{"type":"Point","coordinates":[-55.9235,-13.3926]}},{"type":"Feature","id":"BRA-593","properties":{"kind":"division","code":"BRA-593","countryCode":"BRA","name":"Maranhão","localName":"Maranhão","labelEnglish":"Maranhão","labelLocal":"Maranhão","labelBoth":"Maranhão","type":"State","iso":"BR-MA","qid":"Q42362"},"geometry":{"type":"Polygon","coordinates":[[[-46.0846,-1.2104],[-46.2012,-1.4841],[-46.3,-2.1772],[-46.4269,-2.5105],[-46.6667,-2.7385],[-46.6667,-3.0942],[-46.9446,-3.3982],[-47.0658,-3.8417],[-47.6544,-4.6056],[-47.8007,-4.5958],[-48.723,-5.3553],[-48.4981,-5.1865],[-47.8649,-5.2809],[-47.5369,-5.4788],[-47.373,-6.2336],[-47.5138,-7.0088],[-47.7411,-7.1934],[-47.5127,-7.2805],[-47.4988,-7.4504],[-47.0149,-8.0428],[-46.5739,-7.9069],[-46.4663,-8.0688],[-46.5012,-8.3973],[-46.7911,-8.4363],[-46.905,-8.831],[-47.0809,-9.0348],[-46.8457,-9.1678],[-46.7527,-9.4108],[-46.5361,-9.5552],[-46.6694,-9.7465],[-46.3476,-10.1696],[-45.9461,-10.3177],[-45.8371,-9.5334],[-45.9814,-8.9296],[-45.5774,-8.1515],[-45.4724,-7.6742],[-45.2984,-7.5578],[-44.714,-7.398],[-44.3062,-7.11],[-44.0381,-6.7675],[-43.6748,-6.701],[-43.4613,-6.8416],[-42.9794,-6.7457],[-42.85,-6.2541],[-43.076,-6.0548],[-43.1019,-5.6233],[-42.8323,-5.3135],[-42.9525,-4.7766],[-42.863,-4.4987],[-42.9906,-4.2401],[-42.7334,-3.9234],[-42.5006,-3.4511],[-42.2166,-3.4338],[-41.8427,-3.034],[-41.8428,-2.7653],[-42.2394,-2.8342],[-42.7099,-2.5603],[-43.3118,-2.3465],[-44.0141,-2.6347],[-44.0629,-2.777],[-44.3385,-2.7849],[-44.0494,-2.5529],[-44.073,-2.3995],[-44.3681,-2.5496],[-44.433,-2.9503],[-44.7816,-3.197],[-44.6316,-2.697],[-44.3954,-2.4021],[-44.5217,-1.8473],[-44.8029,-1.7039],[-44.9538,-1.5017],[-45.2042,-1.5252],[-45.3236,-1.7448],[-45.3693,-1.4728],[-45.5439,-1.2703],[-45.6755,-1.3663],[-45.9059,-1.1725],[-46.0846,-1.2104]]]}},{"type":"Feature","id":"label-BRA-593","properties":{"kind":"division-label","code":"BRA-593","countryCode":"BRA","name":"Maranhão","localName":"Maranhão","labelEnglish":"Maranhão","labelLocal":"Maranhão","labelBoth":"Maranhão","type":"State","iso":"BR-MA","qid":"Q42362"},"geometry":{"type":"Point","coordinates":[-45.389,-5.01897]}},{"type":"Feature","id":"BRA-622","properties":{"kind":"division","code":"BRA-622","countryCode":"BRA","name":"Piauí","localName":"Piauí","labelEnglish":"Piauí","labelLocal":"Piauí","labelBoth":"Piauí","type":"State","iso":"BR-PI","qid":"Q42722"},"geometry":{"type":"Polygon","coordinates":[[[-41.8428,-2.7653],[-41.8427,-3.034],[-42.2166,-3.4338],[-42.5006,-3.4511],[-42.7334,-3.9234],[-42.9906,-4.2401],[-42.863,-4.4987],[-42.9525,-4.7766],[-42.8323,-5.3135],[-43.1019,-5.6233],[-43.076,-6.0548],[-42.85,-6.2541],[-42.9794,-6.7457],[-43.4613,-6.8416],[-43.6748,-6.701],[-44.0381,-6.7675],[-44.3062,-7.11],[-44.714,-7.398],[-45.2984,-7.5578],[-45.4724,-7.6742],[-45.5774,-8.1515],[-45.9814,-8.9296],[-45.8371,-9.5334],[-45.9461,-10.3177],[-45.7577,-10.3308],[-45.6034,-10.3316],[-45.3153,-10.7816],[-45.044,-10.8962],[-44.4193,-10.5903],[-44.2173,-10.6296],[-43.9146,-10.4305],[-43.7018,-10.0367],[-43.6828,-9.8021],[-43.813,-9.4291],[-43.45,-9.304],[-43.1286,-9.3733],[-42.8505,-9.5489],[-42.617,-9.5641],[-42.3098,-9.3084],[-41.8501,-9.2526],[-41.7349,-8.9816],[-41.5,-8.9355],[-41.3708,-8.7119],[-40.9232,-8.4342],[-40.5905,-8.1242],[-40.5453,-7.8323],[-40.6605,-7.7602],[-40.6899,-7.4296],[-40.5377,-7.3902],[-40.5811,-7.1953],[-40.4163,-6.8107],[-40.71,-6.6612],[-40.8911,-6.0112],[-40.9485,-5.4166],[-41.1855,-4.9154],[-41.2357,-4.5384],[-41.0736,-4.3263],[-41.4494,-3.4368],[-41.2481,-3.0121],[-41.8428,-2.7653]]]}},{"type":"Feature","id":"label-BRA-622","properties":{"kind":"division-label","code":"BRA-622","countryCode":"BRA","name":"Piauí","localName":"Piauí","labelEnglish":"Piauí","labelLocal":"Piauí","labelBoth":"Piauí","type":"State","iso":"BR-PI","qid":"Q42722"},"geometry":{"type":"Point","coordinates":[-43.1974,-8.08698]}},{"type":"Feature","id":"BRA-621","properties":{"kind":"division","code":"BRA-621","countryCode":"BRA","name":"Ceará","localName":"Ceará","labelEnglish":"Ceará","labelLocal":"Ceará","labelBoth":"Ceará","type":"State","iso":"BR-CE","qid":"Q40123"},"geometry":{"type":"Polygon","coordinates":[[[-41.2481,-3.0121],[-41.4494,-3.4368],[-41.0736,-4.3263],[-41.2357,-4.5384],[-41.1855,-4.9154],[-40.9485,-5.4166],[-40.8911,-6.0112],[-40.71,-6.6612],[-40.4163,-6.8107],[-40.5811,-7.1953],[-40.5377,-7.3902],[-39.6542,-7.3733],[-38.968,-7.8479],[-38.6971,-7.6202],[-38.5318,-7.2944],[-38.7275,-6.8903],[-38.5258,-6.3816],[-38.5802,-6.2617],[-38.1279,-5.879],[-37.7213,-5.0629],[-37.2364,-4.8299],[-37.6072,-4.6081],[-38.1067,-4.1579],[-38.4774,-3.6974],[-38.6597,-3.6764],[-39.3583,-3.1835],[-39.9857,-2.8484],[-40.4996,-2.7863],[-41.2734,-2.8788],[-41.2481,-3.0121]]]}},{"type":"Feature","id":"label-BRA-621","properties":{"kind":"division-label","code":"BRA-621","countryCode":"BRA","name":"Ceará","localName":"Ceará","labelEnglish":"Ceará","labelLocal":"Ceará","labelBoth":"Ceará","type":"State","iso":"BR-CE","qid":"Q40123"},"geometry":{"type":"Point","coordinates":[-39.3429,-5.37602]}},{"type":"Feature","id":"BRA-628","properties":{"kind":"division","code":"BRA-628","countryCode":"BRA","name":"Rio Grande do Norte","localName":"Rio Grande do Norte","labelEnglish":"Rio Grande do Norte","labelLocal":"Rio Grande do Norte","labelBoth":"Rio Grande do Norte","type":"State","iso":"BR-RN","qid":"Q43255"},"geometry":{"type":"Polygon","coordinates":[[[-37.2364,-4.8299],[-37.7213,-5.0629],[-38.1279,-5.879],[-38.5802,-6.2617],[-38.5258,-6.3816],[-38.1303,-6.5198],[-37.7585,-6.1758],[-37.2607,-6.0248],[-37.1754,-6.1168],[-37.507,-6.5537],[-37.5154,-6.6805],[-37.219,-6.824],[-36.9881,-6.7086],[-36.5752,-6.9267],[-36.4428,-6.6228],[-36.4923,-6.377],[-35.9251,-6.4658],[-35.67,-6.4259],[-35.306,-6.5284],[-34.9633,-6.5033],[-35.0928,-6.1858],[-35.2623,-5.4833],[-35.5106,-5.1437],[-35.9972,-5.0475],[-36.5611,-5.1232],[-37.2364,-4.8299]]]}},{"type":"Feature","id":"label-BRA-628","properties":{"kind":"division-label","code":"BRA-628","countryCode":"BRA","name":"Rio Grande do Norte","localName":"Rio Grande do Norte","labelEnglish":"Rio Grande do Norte","labelLocal":"Rio Grande do Norte","labelBoth":"Rio Grande do Norte","type":"State","iso":"BR-RN","qid":"Q43255"},"geometry":{"type":"Point","coordinates":[-36.5472,-5.66157]}},{"type":"Feature","id":"BRA-626","properties":{"kind":"division","code":"BRA-626","countryCode":"BRA","name":"Paraíba","localName":"Paraíba","labelEnglish":"Paraíba","labelLocal":"Paraíba","labelBoth":"Paraíba","type":"State","iso":"BR-PB","qid":"Q38088"},"geometry":{"type":"Polygon","coordinates":[[[-34.9633,-6.5033],[-35.306,-6.5284],[-35.67,-6.4259],[-35.9251,-6.4658],[-36.4923,-6.377],[-36.4428,-6.6228],[-36.5752,-6.9267],[-36.9881,-6.7086],[-37.219,-6.824],[-37.5154,-6.6805],[-37.507,-6.5537],[-37.1754,-6.1168],[-37.2607,-6.0248],[-37.7585,-6.1758],[-38.1303,-6.5198],[-38.5258,-6.3816],[-38.7275,-6.8903],[-38.5318,-7.2944],[-38.6971,-7.6202],[-38.2553,-7.8496],[-37.9779,-7.773],[-37.4362,-7.3465],[-37.2544,-7.2698],[-37.0173,-7.4026],[-37.197,-7.5731],[-37.1664,-7.7632],[-37.341,-7.9999],[-37.1502,-7.978],[-36.9627,-8.2835],[-36.6288,-8.083],[-36.4243,-7.8261],[-35.8686,-7.807],[-35.556,-7.6539],[-35.4984,-7.4562],[-35.0641,-7.4084],[-34.8934,-7.5429],[-34.7974,-7.1585],[-34.9633,-6.5033]]]}},{"type":"Feature","id":"label-BRA-626","properties":{"kind":"division-label","code":"BRA-626","countryCode":"BRA","name":"Paraíba","localName":"Paraíba","labelEnglish":"Paraíba","labelLocal":"Paraíba","labelBoth":"Paraíba","type":"State","iso":"BR-PB","qid":"Q38088"},"geometry":{"type":"Point","coordinates":[-36.2726,-7.34234]}},{"type":"Feature","id":"BRA-1313","properties":{"kind":"division","code":"BRA-1313","countryCode":"BRA","name":"Pernambuco","localName":"Pernambuco","labelEnglish":"Pernambuco","labelLocal":"Pernambuco","labelBoth":"Pernambuco","type":"State","iso":"BR-PE","qid":"Q40942"},"geometry":{"type":"Polygon","coordinates":[[[-34.8934,-7.5429],[-35.0641,-7.4084],[-35.4984,-7.4562],[-35.556,-7.6539],[-35.8686,-7.807],[-36.4243,-7.8261],[-36.6288,-8.083],[-36.9627,-8.2835],[-37.1502,-7.978],[-37.341,-7.9999],[-37.1664,-7.7632],[-37.197,-7.5731],[-37.0173,-7.4026],[-37.2544,-7.2698],[-37.4362,-7.3465],[-37.9779,-7.773],[-38.2553,-7.8496],[-38.6971,-7.6202],[-38.968,-7.8479],[-39.6542,-7.3733],[-40.5377,-7.3902],[-40.6899,-7.4296],[-40.6605,-7.7602],[-40.5453,-7.8323],[-40.5905,-8.1242],[-40.9232,-8.4342],[-41.3708,-8.7119],[-40.8891,-8.8569],[-40.8531,-9.1518],[-40.705,-9.217],[-40.7583,-9.4531],[-40.3282,-9.3513],[-40.273,-9.104],[-39.8962,-8.9746],[-39.8962,-8.8306],[-39.4032,-8.5341],[-38.9677,-8.7894],[-38.5278,-8.8192],[-38.3205,-8.9877],[-38.2352,-9.3304],[-37.7487,-8.8621],[-37.5191,-8.9437],[-36.9385,-9.3558],[-36.3458,-9.201],[-36.0142,-8.8945],[-35.4725,-8.8341],[-35.1483,-8.9136],[-34.8116,-7.9059],[-34.8934,-7.5429]]]}},{"type":"Feature","id":"label-BRA-1313","properties":{"kind":"division-label","code":"BRA-1313","countryCode":"BRA","name":"Pernambuco","localName":"Pernambuco","labelEnglish":"Pernambuco","labelLocal":"Pernambuco","labelBoth":"Pernambuco","type":"State","iso":"BR-PE","qid":"Q40942"},"geometry":{"type":"Point","coordinates":[-37.2958,-8.47283]}},{"type":"Feature","id":"BRA-623","properties":{"kind":"division","code":"BRA-623","countryCode":"BRA","name":"Alagoas","localName":"Alagoas","labelEnglish":"Alagoas","labelLocal":"Alagoas","labelBoth":"Alagoas","type":"State","iso":"BR-AL","qid":"Q40885"},"geometry":{"type":"Polygon","coordinates":[[[-35.1483,-8.9136],[-35.4725,-8.8341],[-36.0142,-8.8945],[-36.3458,-9.201],[-36.9385,-9.3558],[-37.5191,-8.9437],[-37.7487,-8.8621],[-38.2352,-9.3304],[-37.9971,-9.5268],[-37.297,-9.8047],[-36.9423,-10.0148],[-36.8239,-10.2138],[-36.6204,-10.2536],[-36.4081,-10.5021],[-35.3051,-9.193],[-35.1483,-8.9136]]]}},{"type":"Feature","id":"label-BRA-623","properties":{"kind":"division-label","code":"BRA-623","countryCode":"BRA","name":"Alagoas","localName":"Alagoas","labelEnglish":"Alagoas","labelLocal":"Alagoas","labelBoth":"Alagoas","type":"State","iso":"BR-AL","qid":"Q40885"},"geometry":{"type":"Point","coordinates":[-36.6917,-9.77391]}},{"type":"Feature","id":"BRA-629","properties":{"kind":"division","code":"BRA-629","countryCode":"BRA","name":"Sergipe","localName":"Sergipe","labelEnglish":"Sergipe","labelLocal":"Sergipe","labelBoth":"Sergipe","type":"State","iso":"BR-SE","qid":"Q43783"},"geometry":{"type":"Polygon","coordinates":[[[-36.4081,-10.5021],[-36.6204,-10.2536],[-36.8239,-10.2138],[-36.9423,-10.0148],[-37.297,-9.8047],[-37.9971,-9.5268],[-37.9639,-9.8736],[-37.7808,-10.0808],[-37.7824,-10.6276],[-38.1912,-10.7159],[-38.2331,-10.8975],[-37.7959,-11.5237],[-37.4828,-11.5183],[-37.316,-11.4064],[-36.9031,-10.7729],[-36.4081,-10.5021]]]}},{"type":"Feature","id":"label-BRA-629","properties":{"kind":"division-label","code":"BRA-629","countryCode":"BRA","name":"Sergipe","localName":"Sergipe","labelEnglish":"Sergipe","labelLocal":"Sergipe","labelBoth":"Sergipe","type":"State","iso":"BR-SE","qid":"Q43783"},"geometry":{"type":"Point","coordinates":[-37.3836,-10.5918]}},{"type":"Feature","id":"BRA-624","properties":{"kind":"division","code":"BRA-624","countryCode":"BRA","name":"Bahia","localName":"Bahia","labelEnglish":"Bahia","labelLocal":"Bahia","labelBoth":"Bahia","type":"State","iso":"BR-BA","qid":"Q40430"},"geometry":{"type":"Polygon","coordinates":[[[-37.4828,-11.5183],[-37.7959,-11.5237],[-38.2331,-10.8975],[-38.1912,-10.7159],[-37.7824,-10.6276],[-37.7808,-10.0808],[-37.9639,-9.8736],[-37.9971,-9.5268],[-38.2352,-9.3304],[-38.3205,-8.9877],[-38.5278,-8.8192],[-38.9677,-8.7894],[-39.4032,-8.5341],[-39.8962,-8.8306],[-39.8962,-8.9746],[-40.273,-9.104],[-40.3282,-9.3513],[-40.7583,-9.4531],[-40.705,-9.217],[-40.8531,-9.1518],[-40.8891,-8.8569],[-41.3708,-8.7119],[-41.5,-8.9355],[-41.7349,-8.9816],[-41.8501,-9.2526],[-42.3098,-9.3084],[-42.617,-9.5641],[-42.8505,-9.5489],[-43.1286,-9.3733],[-43.45,-9.304],[-43.813,-9.4291],[-43.6828,-9.8021],[-43.7018,-10.0367],[-43.9146,-10.4305],[-44.2173,-10.6296],[-44.4193,-10.5903],[-45.044,-10.8962],[-45.3153,-10.7816],[-45.6034,-10.3316],[-45.7577,-10.3308],[-46.3024,-10.7583],[-46.5707,-11.3161],[-46.4274,-11.4999],[-46.0852,-11.601],[-46.25,-11.8437],[-46.0768,-11.9281],[-46.3391,-12.1302],[-46.3171,-12.4236],[-46.1596,-12.503],[-46.2335,-12.7966],[-46.0872,-12.9163],[-46.0832,-13.2516],[-46.2724,-13.6569],[-46.1285,-14.1839],[-45.9205,-14.3508],[-45.9125,-14.6914],[-46.023,-14.8688],[-46.0734,-15.2472],[-45.7146,-15.1247],[-45.21,-14.733],[-44.8817,-14.5983],[-44.3208,-14.2457],[-43.7916,-14.3444],[-43.8665,-14.6596],[-43.4924,-14.7886],[-43.2283,-14.6372],[-42.953,-14.6795],[-42.0873,-15.1818],[-41.8014,-15.1096],[-41.3606,-15.4952],[-41.331,-15.7168],[-40.9449,-15.6735],[-40.2369,-15.8182],[-39.8656,-16.111],[-39.9406,-16.3132],[-40.2526,-16.5654],[-40.2954,-16.8792],[-40.5252,-16.9305],[-40.6096,-17.3917],[-40.207,-17.7658],[-40.2068,-17.9785],[-39.6726,-18.3232],[-39.4991,-18.0056],[-39.1371,-17.6796],[-39.2086,-17.1622],[-39.0541,-16.4365],[-38.8644,-15.8434],[-38.9239,-15.7156],[-39.0671,-14.675],[-38.9237,-14.0041],[-39.0637,-13.9358],[-38.9678,-13.674],[-39.0398,-13.3666],[-38.807,-13.1438],[-38.8893,-13.0698],[-38.7221,-12.6225],[-38.5089,-12.7229],[-38.5097,-13.0214],[-38.0509,-12.641],[-37.6547,-12.0497],[-37.4828,-11.5183]]]}},{"type":"Feature","id":"label-BRA-624","properties":{"kind":"division-label","code":"BRA-624","countryCode":"BRA","name":"Bahia","localName":"Bahia","labelEnglish":"Bahia","labelLocal":"Bahia","labelBoth":"Bahia","type":"State","iso":"BR-BA","qid":"Q40430"},"geometry":{"type":"Point","coordinates":[-41.8027,-12.3651]}},{"type":"Feature","id":"BRA-625","properties":{"kind":"division","code":"BRA-625","countryCode":"BRA","name":"Espírito Santo","localName":"Espírito Santo","labelEnglish":"Espírito Santo","labelLocal":"Espírito Santo","labelBoth":"Espírito Santo","type":"State","iso":"BR-ES","qid":"Q43233"},"geometry":{"type":"Polygon","coordinates":[[[-39.6726,-18.3232],[-40.2068,-17.9785],[-40.4272,-17.8939],[-40.9111,-17.9718],[-40.7772,-18.0936],[-41.143,-18.2969],[-41.0024,-18.4527],[-40.9319,-18.8074],[-41.1046,-18.8888],[-40.9431,-19.1457],[-40.9597,-19.4713],[-41.1568,-19.6605],[-41.4055,-20.2129],[-41.7159,-20.2077],[-41.8644,-20.7769],[-41.7114,-21.1112],[-40.9651,-21.274],[-40.7317,-20.8438],[-40.3487,-20.5001],[-40.0268,-19.7644],[-39.7098,-19.4161],[-39.7449,-18.6817],[-39.6726,-18.3232]]]}},{"type":"Feature","id":"label-BRA-625","properties":{"kind":"division-label","code":"BRA-625","countryCode":"BRA","name":"Espírito Santo","localName":"Espírito Santo","labelEnglish":"Espírito Santo","labelLocal":"Espírito Santo","labelBoth":"Espírito Santo","type":"State","iso":"BR-ES","qid":"Q43233"},"geometry":{"type":"Point","coordinates":[-40.5436,-19.6916]}},{"type":"Feature","id":"BRA-627","properties":{"kind":"division","code":"BRA-627","countryCode":"BRA","name":"Rio de Janeiro","localName":"Rio de Janeiro","labelEnglish":"Rio de Janeiro","labelLocal":"Rio de Janeiro","labelBoth":"Rio de Janeiro","type":"State","iso":"BR-RJ","qid":"Q41428"},"geometry":{"type":"Polygon","coordinates":[[[-40.9651,-21.274],[-41.7114,-21.1112],[-41.8644,-20.7769],[-42.0961,-20.9225],[-42.3692,-21.6338],[-42.2803,-21.7136],[-43.0375,-22.0255],[-43.8138,-22.0641],[-44.2173,-22.2498],[-44.8313,-22.4061],[-44.6371,-22.5994],[-44.2155,-22.5906],[-44.2736,-22.8203],[-44.7953,-22.9881],[-44.8622,-23.2052],[-44.7276,-23.3521],[-44.5106,-23.2734],[-44.7005,-23.1077],[-44.4357,-22.9968],[-44.1151,-23.0224],[-43.8644,-22.9059],[-43.6037,-23.0077],[-43.2201,-22.9953],[-43.2702,-22.747],[-43.0756,-22.6657],[-43.0314,-22.9743],[-42.0582,-22.9538],[-41.8906,-22.7824],[-41.9663,-22.5354],[-41.6665,-22.2818],[-41.2437,-22.1452],[-40.9673,-21.9475],[-41.0719,-21.5233],[-40.9651,-21.274]]]}},{"type":"Feature","id":"label-BRA-627","properties":{"kind":"division-label","code":"BRA-627","countryCode":"BRA","name":"Rio de Janeiro","localName":"Rio de Janeiro","labelEnglish":"Rio de Janeiro","labelLocal":"Rio de Janeiro","labelBoth":"Rio de Janeiro","type":"State","iso":"BR-RJ","qid":"Q41428"},"geometry":{"type":"Point","coordinates":[-43.1152,-22.4049]}},{"type":"Feature","id":"BRA-1311","properties":{"kind":"division","code":"BRA-1311","countryCode":"BRA","name":"São Paulo","localName":"São Paulo","labelEnglish":"São Paulo","labelLocal":"São Paulo","labelBoth":"São Paulo","type":"State","iso":"BR-SP","qid":"Q175"},"geometry":{"type":"MultiPolygon","coordinates":[[[[-44.7276,-23.3521],[-44.8622,-23.2052],[-44.7953,-22.9881],[-44.2736,-22.8203],[-44.2155,-22.5906],[-44.6371,-22.5994],[-44.8313,-22.4061],[-45.411,-22.6477],[-45.6485,-22.5879],[-45.7448,-22.7966],[-46.1447,-22.8906],[-46.4703,-22.6828],[-46.3857,-22.5316],[-46.698,-22.3225],[-46.6007,-22.1326],[-46.6685,-21.8125],[-46.5076,-21.4589],[-47.0006,-21.4006],[-47.2105,-20.8078],[-47.1101,-20.6322],[-47.2933,-20.4243],[-47.2346,-20.2059],[-47.4686,-19.9589],[-48.2199,-20.1136],[-48.8439,-20.164],[-48.9694,-20.4005],[-49.0417,-20.1434],[-49.1493,-20.2952],[-49.273,-19.9684],[-49.8822,-19.9311],[-50.5575,-19.8079],[-50.994,-20.1017],[-51.6202,-20.6998],[-51.632,-20.877],[-51.8749,-21.1717],[-51.8674,-21.343],[-52.1063,-21.5503],[-52.0436,-21.6661],[-52.3693,-22.0989],[-52.967,-22.4589],[-53.168,-22.7017],[-52.9472,-22.5708],[-52.2171,-22.6438],[-52.0667,-22.5217],[-51.547,-22.6853],[-51.3551,-22.6501],[-50.8801,-22.8221],[-50.7855,-22.9436],[-49.97,-22.9121],[-49.6381,-23.2593],[-49.6018,-23.8644],[-49.2278,-24.3385],[-49.2955,-24.666],[-48.6132,-24.6804],[-48.5662,-25.0577],[-48.2302,-25.0136],[-48.0821,-25.3073],[-47.8256,-24.8941],[-46.9995,-24.4098],[-46.9665,-24.2991],[-46.1461,-23.8444],[-45.8644,-23.7564],[-45.4066,-23.8204],[-45.4335,-23.6647],[-44.892,-23.341],[-44.7276,-23.3521]]],[[[-45.2137,-23.9065],[-45.3247,-23.7253],[-45.4474,-23.8772],[-45.2137,-23.9065]]]]}},{"type":"Feature","id":"label-BRA-1311","properties":{"kind":"division-label","code":"BRA-1311","countryCode":"BRA","name":"São Paulo","localName":"São Paulo","labelEnglish":"São Paulo","labelLocal":"São Paulo","labelBoth":"São Paulo","type":"State","iso":"BR-SP","qid":"Q175"},"geometry":{"type":"Point","coordinates":[-48.5206,-22.2267]}},{"type":"Feature","id":"BRA-1294","properties":{"kind":"division","code":"BRA-1294","countryCode":"BRA","name":"Goiás","localName":"Goiás","labelEnglish":"Goiás","labelLocal":"Goiás","labelBoth":"Goiás","type":"State","iso":"BR-GO","qid":"Q41587"},"geometry":{"type":"Polygon","coordinates":[[[-46.2335,-12.7966],[-47.0922,-13.0955],[-47.6813,-13.3542],[-48.1686,-13.18],[-48.6566,-13.1776],[-48.7732,-13.352],[-48.824,-12.8736],[-49.1378,-12.7349],[-49.3835,-13.2481],[-50.2395,-12.9332],[-50.1503,-12.3999],[-50.3512,-12.5424],[-50.484,-12.8448],[-50.569,-13.2284],[-50.8633,-13.7119],[-50.8562,-14.1035],[-51.1003,-14.8879],[-51.6574,-15.2097],[-51.8827,-15.8048],[-52.2501,-15.9133],[-52.6695,-16.2913],[-52.6324,-16.5289],[-53.0194,-16.8679],[-53.2433,-17.5633],[-53.0538,-18.0166],[-53.0567,-18.2931],[-52.7834,-18.3916],[-52.8696,-18.6805],[-52.4964,-18.7051],[-51.6431,-19.1288],[-51.1382,-19.2844],[-50.9612,-19.4735],[-50.3235,-18.7146],[-49.7978,-18.6228],[-49.4888,-18.4996],[-49.3615,-18.6244],[-48.9523,-18.3263],[-48.2162,-18.3598],[-47.8991,-18.4491],[-47.2777,-18.0599],[-47.2882,-17.5481],[-47.5305,-17.4549],[-47.1512,-16.9775],[-47.2665,-16.6618],[-47.4531,-16.4926],[-47.3025,-16.0401],[-48.1824,-16.0395],[-48.2779,-15.8394],[-48.1794,-15.4899],[-47.423,-15.4983],[-47.3071,-15.5902],[-47.3025,-16.0401],[-46.8319,-15.8439],[-46.9366,-15.4318],[-46.8909,-15.0495],[-46.5477,-15.0392],[-46.5168,-14.7133],[-46.2965,-14.9094],[-46.023,-14.8688],[-45.9125,-14.6914],[-45.9205,-14.3508],[-46.1285,-14.1839],[-46.2724,-13.6569],[-46.0832,-13.2516],[-46.0872,-12.9163],[-46.2335,-12.7966]]]}},{"type":"Feature","id":"label-BRA-1294","properties":{"kind":"division-label","code":"BRA-1294","countryCode":"BRA","name":"Goiás","localName":"Goiás","labelEnglish":"Goiás","labelLocal":"Goiás","labelBoth":"Goiás","type":"State","iso":"BR-GO","qid":"Q41587"},"geometry":{"type":"Point","coordinates":[-49.5786,-15.863]}},{"type":"Feature","id":"BRA-599","properties":{"kind":"division","code":"BRA-599","countryCode":"BRA","name":"Federal","localName":"Federal","labelEnglish":"Federal","labelLocal":"Federal","labelBoth":"Federal","type":"Federal District","iso":"BR-DF","qid":"Q119158"},"geometry":{"type":"Polygon","coordinates":[[[-47.3025,-16.0401],[-47.3071,-15.5902],[-47.423,-15.4983],[-48.1794,-15.4899],[-48.2779,-15.8394],[-48.1824,-16.0395],[-47.3025,-16.0401]]]}},{"type":"Feature","id":"label-BRA-599","properties":{"kind":"division-label","code":"BRA-599","countryCode":"BRA","name":"Federal","localName":"Federal","labelEnglish":"Federal","labelLocal":"Federal","labelBoth":"Federal","type":"Federal District","iso":"BR-DF","qid":"Q119158"},"geometry":{"type":"Point","coordinates":[-47.7902,-15.7665]}},{"type":"Feature","id":"BRA-601","properties":{"kind":"division","code":"BRA-601","countryCode":"BRA","name":"Minas Gerais","localName":"Minas Gerais","labelEnglish":"Minas Gerais","labelLocal":"Minas Gerais","labelBoth":"Minas Gerais","type":"State","iso":"BR-MG","qid":"Q39109"},"geometry":{"type":"Polygon","coordinates":[[[-46.023,-14.8688],[-46.2965,-14.9094],[-46.5168,-14.7133],[-46.5477,-15.0392],[-46.8909,-15.0495],[-46.9366,-15.4318],[-46.8319,-15.8439],[-47.3025,-16.0401],[-47.4531,-16.4926],[-47.2665,-16.6618],[-47.1512,-16.9775],[-47.5305,-17.4549],[-47.2882,-17.5481],[-47.2777,-18.0599],[-47.8991,-18.4491],[-48.2162,-18.3598],[-48.9523,-18.3263],[-49.3615,-18.6244],[-49.4888,-18.4996],[-49.7978,-18.6228],[-50.3235,-18.7146],[-50.9612,-19.4735],[-50.994,-20.1017],[-50.5575,-19.8079],[-49.8822,-19.9311],[-49.273,-19.9684],[-49.1493,-20.2952],[-49.0417,-20.1434],[-48.9694,-20.4005],[-48.8439,-20.164],[-48.2199,-20.1136],[-47.4686,-19.9589],[-47.2346,-20.2059],[-47.2933,-20.4243],[-47.1101,-20.6322],[-47.2105,-20.8078],[-47.0006,-21.4006],[-46.5076,-21.4589],[-46.6685,-21.8125],[-46.6007,-22.1326],[-46.698,-22.3225],[-46.3857,-22.5316],[-46.4703,-22.6828],[-46.1447,-22.8906],[-45.7448,-22.7966],[-45.6485,-22.5879],[-45.411,-22.6477],[-44.8313,-22.4061],[-44.2173,-22.2498],[-43.8138,-22.0641],[-43.0375,-22.0255],[-42.2803,-21.7136],[-42.3692,-21.6338],[-42.0961,-20.9225],[-41.8644,-20.7769],[-41.7159,-20.2077],[-41.4055,-20.2129],[-41.1568,-19.6605],[-40.9597,-19.4713],[-40.9431,-19.1457],[-41.1046,-18.8888],[-40.9319,-18.8074],[-41.0024,-18.4527],[-41.143,-18.2969],[-40.7772,-18.0936],[-40.9111,-17.9718],[-40.4272,-17.8939],[-40.2068,-17.9785],[-40.207,-17.7658],[-40.6096,-17.3917],[-40.5252,-16.9305],[-40.2954,-16.8792],[-40.2526,-16.5654],[-39.9406,-16.3132],[-39.8656,-16.111],[-40.2369,-15.8182],[-40.9449,-15.6735],[-41.331,-15.7168],[-41.3606,-15.4952],[-41.8014,-15.1096],[-42.0873,-15.1818],[-42.953,-14.6795],[-43.2283,-14.6372],[-43.4924,-14.7886],[-43.8665,-14.6596],[-43.7916,-14.3444],[-44.3208,-14.2457],[-44.8817,-14.5983],[-45.21,-14.733],[-45.7146,-15.1247],[-46.0734,-15.2472],[-46.023,-14.8688]]]}},{"type":"Feature","id":"label-BRA-601","properties":{"kind":"division-label","code":"BRA-601","countryCode":"BRA","name":"Minas Gerais","localName":"Minas Gerais","labelEnglish":"Minas Gerais","labelLocal":"Minas Gerais","labelBoth":"Minas Gerais","type":"State","iso":"BR-MG","qid":"Q39109"},"geometry":{"type":"Point","coordinates":[-44.4808,-18.5895]}},{"type":"Feature","id":"BRA-596","properties":{"kind":"division","code":"BRA-596","countryCode":"BRA","name":"Tocantins","localName":"Tocantins","labelEnglish":"Tocantins","labelLocal":"Tocantins","labelBoth":"Tocantins","type":"State","iso":"BR-TO","qid":"Q43695"},"geometry":{"type":"Polygon","coordinates":[[[-45.7577,-10.3308],[-45.9461,-10.3177],[-46.3476,-10.1696],[-46.6694,-9.7465],[-46.5361,-9.5552],[-46.7527,-9.4108],[-46.8457,-9.1678],[-47.0809,-9.0348],[-46.905,-8.831],[-46.7911,-8.4363],[-46.5012,-8.3973],[-46.4663,-8.0688],[-46.5739,-7.9069],[-47.0149,-8.0428],[-47.4988,-7.4504],[-47.5127,-7.2805],[-47.7411,-7.1934],[-47.5138,-7.0088],[-47.373,-6.2336],[-47.5369,-5.4788],[-47.8649,-5.2809],[-48.4981,-5.1865],[-48.723,-5.3553],[-48.3667,-5.4027],[-48.1424,-5.6461],[-48.2227,-5.9143],[-48.4288,-6.1713],[-48.3899,-6.3624],[-48.6063,-6.435],[-48.6834,-6.6627],[-49.1985,-6.9026],[-49.185,-7.2253],[-49.3906,-7.5976],[-49.1634,-7.8036],[-49.3105,-8.3822],[-49.5655,-8.8112],[-49.7551,-8.923],[-50.0537,-9.3191],[-50.2357,-9.844],[-50.5988,-10.6566],[-50.6129,-11.0312],[-50.7427,-11.5016],[-50.6499,-11.6082],[-50.6657,-12.6312],[-50.484,-12.8448],[-50.3512,-12.5424],[-50.1503,-12.3999],[-50.2395,-12.9332],[-49.3835,-13.2481],[-49.1378,-12.7349],[-48.824,-12.8736],[-48.7732,-13.352],[-48.6566,-13.1776],[-48.1686,-13.18],[-47.6813,-13.3542],[-47.0922,-13.0955],[-46.2335,-12.7966],[-46.1596,-12.503],[-46.3171,-12.4236],[-46.3391,-12.1302],[-46.0768,-11.9281],[-46.25,-11.8437],[-46.0852,-11.601],[-46.4274,-11.4999],[-46.5707,-11.3161],[-46.3024,-10.7583],[-45.7577,-10.3308]]]}},{"type":"Feature","id":"label-BRA-596","properties":{"kind":"division-label","code":"BRA-596","countryCode":"BRA","name":"Tocantins","localName":"Tocantins","labelEnglish":"Tocantins","labelLocal":"Tocantins","labelBoth":"Tocantins","type":"State","iso":"BR-TO","qid":"Q43695"},"geometry":{"type":"Point","coordinates":[-48.2502,-10.223]}}]}