{"type":"FeatureCollection","features":[{"type":"Feature","id":"BRB-1994","properties":{"kind":"division","code":"BRB-1994","countryCode":"BRB","name":"Saint Joseph","localName":"Saint Joseph","labelEnglish":"Saint Joseph","labelLocal":"Saint Joseph","labelBoth":"Saint Joseph","type":"Parish","iso":"BB-06","qid":"Q550249"},"geometry":{"type":"Polygon","coordinates":[[[-59.5458,13.2438],[-59.581,13.2098],[-59.5543,13.1801],[-59.5402,13.1825],[-59.5181,13.2175],[-59.5458,13.2438]]]}},{"type":"Feature","id":"label-BRB-1994","properties":{"kind":"division-label","code":"BRB-1994","countryCode":"BRB","name":"Saint Joseph","localName":"Saint Joseph","labelEnglish":"Saint Joseph","labelLocal":"Saint Joseph","labelBoth":"Saint Joseph","type":"Parish","iso":"BB-06","qid":"Q550249"},"geometry":{"type":"Point","coordinates":[-59.5495,13.2118]}},{"type":"Feature","id":"BRB-1990","properties":{"kind":"division","code":"BRB-1990","countryCode":"BRB","name":"Saint Andrew","localName":"Saint Andrew","labelEnglish":"Saint Andrew","labelLocal":"Saint Andrew","labelBoth":"Saint Andrew","type":"Parish","iso":"BB-02","qid":"Q1647439"},"geometry":{"type":"Polygon","coordinates":[[[-59.569,13.2897],[-59.606,13.2421],[-59.601,13.2164],[-59.581,13.2098],[-59.5458,13.2438],[-59.569,13.2897]]]}},{"type":"Feature","id":"label-BRB-1990","properties":{"kind":"division-label","code":"BRB-1990","countryCode":"BRB","name":"Saint Andrew","localName":"Saint Andrew","labelEnglish":"Saint Andrew","labelLocal":"Saint Andrew","labelBoth":"Saint Andrew","type":"Parish","iso":"BB-02","qid":"Q1647439"},"geometry":{"type":"Point","coordinates":[-59.5759,13.2551]}},{"type":"Feature","id":"BRB-1997","properties":{"kind":"division","code":"BRB-1997","countryCode":"BRB","name":"Saint Peter","localName":"Saint Peter","labelEnglish":"Saint Peter","labelLocal":"Saint Peter","labelBoth":"Saint Peter","type":"Parish","iso":"BB-09","qid":"Q932723"},"geometry":{"type":"Polygon","coordinates":[[[-59.5759,13.3044],[-59.6529,13.2739],[-59.6508,13.2388],[-59.606,13.2421],[-59.569,13.2897],[-59.5759,13.3044]]]}},{"type":"Feature","id":"label-BRB-1997","properties":{"kind":"division-label","code":"BRB-1997","countryCode":"BRB","name":"Saint Peter","localName":"Saint Peter","labelEnglish":"Saint Peter","labelLocal":"Saint Peter","labelBoth":"Saint Peter","type":"Parish","iso":"BB-09","qid":"Q932723"},"geometry":{"type":"Point","coordinates":[-59.6109,13.2679]}},{"type":"Feature","id":"BRB-1995","properties":{"kind":"division","code":"BRB-1995","countryCode":"BRB","name":"Saint Lucy","localName":"Saint Lucy","labelEnglish":"Saint Lucy","labelLocal":"Saint Lucy","labelBoth":"Saint Lucy","type":"Parish","iso":"BB-07","qid":"Q1647447"},"geometry":{"type":"Polygon","coordinates":[[[-59.6529,13.2739],[-59.5759,13.3044],[-59.6309,13.338],[-59.6529,13.2739]]]}},{"type":"Feature","id":"label-BRB-1995","properties":{"kind":"division-label","code":"BRB-1995","countryCode":"BRB","name":"Saint Lucy","localName":"Saint Lucy","labelEnglish":"Saint Lucy","labelLocal":"Saint Lucy","labelBoth":"Saint Lucy","type":"Parish","iso":"BB-07","qid":"Q1647447"},"geometry":{"type":"Point","coordinates":[-59.615,13.3177]}},{"type":"Feature","id":"BRB-1992","properties":{"kind":"division","code":"BRB-1992","countryCode":"BRB","name":"Saint James","localName":"Saint James","labelEnglish":"Saint James","labelLocal":"Saint James","labelBoth":"Saint James","type":"Parish","iso":"BB-04","qid":"Q592141"},"geometry":{"type":"Polygon","coordinates":[[[-59.6406,13.1416],[-59.6111,13.1503],[-59.601,13.2164],[-59.606,13.2421],[-59.6508,13.2388],[-59.6406,13.1416]]]}},{"type":"Feature","id":"label-BRB-1992","properties":{"kind":"division-label","code":"BRB-1992","countryCode":"BRB","name":"Saint James","localName":"Saint James","labelEnglish":"Saint James","labelLocal":"Saint James","labelBoth":"Saint James","type":"Parish","iso":"BB-04","qid":"Q592141"},"geometry":{"type":"Point","coordinates":[-59.6259,13.192]}},{"type":"Feature","id":"BRB-1996","properties":{"kind":"division","code":"BRB-1996","countryCode":"BRB","name":"Saint Michael","localName":"Saint Michael","labelEnglish":"Saint Michael","labelLocal":"Saint Michael","labelBoth":"Saint Michael","type":"Parish","iso":"BB-08","qid":"Q819170"},"geometry":{"type":"Polygon","coordinates":[[[-59.6003,13.0841],[-59.5705,13.1082],[-59.5871,13.1613],[-59.6111,13.1503],[-59.6406,13.1416],[-59.6003,13.0841]]]}},{"type":"Feature","id":"label-BRB-1996","properties":{"kind":"division-label","code":"BRB-1996","countryCode":"BRB","name":"Saint Michael","localName":"Saint Michael","labelEnglish":"Saint Michael","labelLocal":"Saint Michael","labelBoth":"Saint Michael","type":"Parish","iso":"BB-08","qid":"Q819170"},"geometry":{"type":"Point","coordinates":[-59.6047,13.118]}},{"type":"Feature","id":"BRB-1989","properties":{"kind":"division","code":"BRB-1989","countryCode":"BRB","name":"Christ Church","localName":"Christ Church","labelEnglish":"Christ Church","labelLocal":"Christ Church","labelBoth":"Christ Church","type":"Parish","iso":"BB-01","qid":"Q1626524"},"geometry":{"type":"Polygon","coordinates":[[[-59.4758,13.0865],[-59.5131,13.1294],[-59.5705,13.1082],[-59.6003,13.0841],[-59.4758,13.0865]]]}},{"type":"Feature","id":"label-BRB-1989","properties":{"kind":"division-label","code":"BRB-1989","countryCode":"BRB","name":"Christ Church","localName":"Christ Church","labelEnglish":"Christ Church","labelLocal":"Christ Church","labelBoth":"Christ Church","type":"Parish","iso":"BB-01","qid":"Q1626524"},"geometry":{"type":"Point","coordinates":[-59.538,13.0873]}},{"type":"Feature","id":"BRB-1998","properties":{"kind":"division","code":"BRB-1998","countryCode":"BRB","name":"Saint Philip","localName":"Saint Philip","labelEnglish":"Saint Philip","labelLocal":"Saint Philip","labelBoth":"Saint Philip","type":"Parish","iso":"BB-10","qid":"Q1647436"},"geometry":{"type":"Polygon","coordinates":[[[-59.4677,13.1865],[-59.5087,13.1458],[-59.5131,13.1294],[-59.4758,13.0865],[-59.4677,13.1865]]]}},{"type":"Feature","id":"label-BRB-1998","properties":{"kind":"division-label","code":"BRB-1998","countryCode":"BRB","name":"Saint Philip","localName":"Saint Philip","labelEnglish":"Saint Philip","labelLocal":"Saint Philip","labelBoth":"Saint Philip","type":"Parish","iso":"BB-10","qid":"Q1647436"},"geometry":{"type":"Point","coordinates":[-59.47,13.1368]}},{"type":"Feature","id":"BRB-1993","properties":{"kind":"division","code":"BRB-1993","countryCode":"BRB","name":"Saint John","localName":"Saint John","labelEnglish":"Saint John","labelLocal":"Saint John","labelBoth":"Saint John","type":"Parish","iso":"BB-05","qid":"Q1626540"},"geometry":{"type":"Polygon","coordinates":[[[-59.5181,13.2175],[-59.5402,13.1825],[-59.5087,13.1458],[-59.4677,13.1865],[-59.5181,13.2175]]]}},{"type":"Feature","id":"label-BRB-1993","properties":{"kind":"division-label","code":"BRB-1993","countryCode":"BRB","name":"Saint John","localName":"Saint John","labelEnglish":"Saint John","labelLocal":"Saint John","labelBoth":"Saint John","type":"Parish","iso":"BB-05","qid":"Q1626540"},"geometry":{"type":"Point","coordinates":[-59.5039,13.1795]}},{"type":"Feature","id":"BRB-1991","properties":{"kind":"division","code":"BRB-1991","countryCode":"BRB","name":"Saint George","localName":"Saint George","labelEnglish":"Saint George","labelLocal":"Saint George","labelBoth":"Saint George","type":"Parish","iso":"BB-03","qid":"Q1647443"},"geometry":{"type":"Polygon","coordinates":[[[-59.5402,13.1825],[-59.5543,13.1801],[-59.5871,13.1613],[-59.5705,13.1082],[-59.5131,13.1294],[-59.5087,13.1458],[-59.5402,13.1825]]]}},{"type":"Feature","id":"label-BRB-1991","properties":{"kind":"division-label","code":"BRB-1991","countryCode":"BRB","name":"Saint George","localName":"Saint George","labelEnglish":"Saint George","labelLocal":"Saint George","labelBoth":"Saint George","type":"Parish","iso":"BB-03","qid":"Q1647443"},"geometry":{"type":"Point","coordinates":[-59.5479,13.1489]}},{"type":"Feature","id":"BRB-1999","properties":{"kind":"division","code":"BRB-1999","countryCode":"BRB","name":"Saint Thomas","localName":"Saint Thomas","labelEnglish":"Saint Thomas","labelLocal":"Saint Thomas","labelBoth":"Saint Thomas","type":"Parish","iso":"BB-11","qid":"Q1647432"},"geometry":{"type":"Polygon","coordinates":[[[-59.581,13.2098],[-59.601,13.2164],[-59.6111,13.1503],[-59.5871,13.1613],[-59.5543,13.1801],[-59.581,13.2098]]]}},{"type":"Feature","id":"label-BRB-1999","properties":{"kind":"division-label","code":"BRB-1999","countryCode":"BRB","name":"Saint Thomas","localName":"Saint Thomas","labelEnglish":"Saint Thomas","labelLocal":"Saint Thomas","labelBoth":"Saint Thomas","type":"Parish","iso":"BB-11","qid":"Q1647432"},"geometry":{"type":"Point","coordinates":[-59.5898,13.1877]}}]}