{"type":"FeatureCollection","features":[{"type":"Feature","id":"BRN-1183","properties":{"kind":"division","code":"BRN-1183","countryCode":"BRN","name":"Temburong","localName":"Temburong","labelEnglish":"Temburong","labelLocal":"Temburong","labelBoth":"Temburong","type":"District","iso":"BN-TE","qid":"Q263285"},"geometry":{"type":"Polygon","coordinates":[[[115.1462,4.9085],[115.0298,4.8206],[115.113,4.3824],[115.3607,4.3296],[115.1462,4.9085]]]}},{"type":"Feature","id":"label-BRN-1183","properties":{"kind":"division-label","code":"BRN-1183","countryCode":"BRN","name":"Temburong","localName":"Temburong","labelEnglish":"Temburong","labelLocal":"Temburong","labelBoth":"Temburong","type":"District","iso":"BN-TE","qid":"Q263285"},"geometry":{"type":"Point","coordinates":[115.191,4.60249]}},{"type":"Feature","id":"BRN-1182","properties":{"kind":"division","code":"BRN-1182","countryCode":"BRN","name":"Brunei-Muara","localName":"Brunei-Muara","labelEnglish":"Brunei-Muara","labelLocal":"Brunei-Muara","labelBoth":"Brunei-Muara","type":"District","iso":"BN-BM","qid":"Q153009"},"geometry":{"type":"Polygon","coordinates":[[[114.9817,4.8891],[115.0578,5.0541],[114.7602,4.8987],[114.7432,4.7306],[114.9817,4.8891]]]}},{"type":"Feature","id":"label-BRN-1182","properties":{"kind":"division-label","code":"BRN-1182","countryCode":"BRN","name":"Brunei-Muara","localName":"Brunei-Muara","labelEnglish":"Brunei-Muara","labelLocal":"Brunei-Muara","labelBoth":"Brunei-Muara","type":"District","iso":"BN-BM","qid":"Q153009"},"geometry":{"type":"Point","coordinates":[114.92,4.90214]}},{"type":"Feature","id":"BRN-1184","properties":{"kind":"division","code":"BRN-1184","countryCode":"BRN","name":"Tutong","localName":"Tutong","labelEnglish":"Tutong","labelLocal":"Tutong","labelBoth":"Tutong","type":"District","iso":"BN-TU","qid":"Q40398"},"geometry":{"type":"Polygon","coordinates":[[[114.7432,4.7306],[114.7602,4.8987],[114.4944,4.6813],[114.7942,4.3002],[114.7432,4.7306]]]}},{"type":"Feature","id":"label-BRN-1184","properties":{"kind":"division-label","code":"BRN-1184","countryCode":"BRN","name":"Tutong","localName":"Tutong","labelEnglish":"Tutong","labelLocal":"Tutong","labelBoth":"Tutong","type":"District","iso":"BN-TU","qid":"Q40398"},"geometry":{"type":"Point","coordinates":[114.671,4.64496]}},{"type":"Feature","id":"BRN-1181","properties":{"kind":"division","code":"BRN-1181","countryCode":"BRN","name":"Belait","localName":"Belait","labelEnglish":"Belait","labelLocal":"Belait","labelBoth":"Belait","type":"District","iso":"BN-BE","qid":"Q40395"},"geometry":{"type":"Polygon","coordinates":[[[113.9988,4.6011],[114.2456,4.4814],[114.5866,4.0214],[114.7942,4.3002],[114.4944,4.6813],[113.9988,4.6011]]]}},{"type":"Feature","id":"label-BRN-1181","properties":{"kind":"division-label","code":"BRN-1181","countryCode":"BRN","name":"Belait","localName":"Belait","labelEnglish":"Belait","labelLocal":"Belait","labelBoth":"Belait","type":"District","iso":"BN-BE","qid":"Q40395"},"geometry":{"type":"Point","coordinates":[114.408,4.45555]}}]}