{"type":"FeatureCollection","features":[{"type":"Feature","id":"BTN-2484","properties":{"kind":"division","code":"BTN-2484","countryCode":"BTN","name":"Trashiyangtse","localName":"Trashiyangtse","labelEnglish":"Trashiyangtse","labelLocal":"Trashiyangtse","labelBoth":"Trashiyangtse","type":"District","iso":"BT-TY","qid":"Q600200"},"geometry":{"type":"Polygon","coordinates":[[[91.4365,27.9894],[91.3096,27.5813],[91.3926,27.4018],[91.7271,27.4599],[91.5951,27.5464],[91.6283,27.8527],[91.4365,27.9894]]]}},{"type":"Feature","id":"label-BTN-2484","properties":{"kind":"division-label","code":"BTN-2484","countryCode":"BTN","name":"Trashiyangtse","localName":"Trashiyangtse","labelEnglish":"Trashiyangtse","labelLocal":"Trashiyangtse","labelBoth":"Trashiyangtse","type":"District","iso":"BT-TY","qid":"Q600200"},"geometry":{"type":"Point","coordinates":[91.5121,27.676]}},{"type":"Feature","id":"BTN-2483","properties":{"kind":"division","code":"BTN-2483","countryCode":"BTN","name":"Lhuntse","localName":"Lhuntse","labelEnglish":"Lhuntse","labelLocal":"Lhuntse","labelBoth":"Lhuntse","type":"District","iso":"BT-44","qid":"Q598793"},"geometry":{"type":"Polygon","coordinates":[[[90.7553,28.0552],[90.9454,27.6856],[90.9698,27.39],[91.2449,27.4287],[91.3096,27.5813],[91.4365,27.9894],[90.7553,28.0552]]]}},{"type":"Feature","id":"label-BTN-2483","properties":{"kind":"division-label","code":"BTN-2483","countryCode":"BTN","name":"Lhuntse","localName":"Lhuntse","labelEnglish":"Lhuntse","labelLocal":"Lhuntse","labelBoth":"Lhuntse","type":"District","iso":"BT-44","qid":"Q598793"},"geometry":{"type":"Point","coordinates":[91.0822,27.6977]}},{"type":"Feature","id":"BTN-2480","properties":{"kind":"division","code":"BTN-2480","countryCode":"BTN","name":"Bumthang","localName":"Bumthang","labelEnglish":"Bumthang","labelLocal":"Bumthang","labelBoth":"Bumthang","type":"District","iso":"BT-33","qid":"Q463242"},"geometry":{"type":"Polygon","coordinates":[[[90.4752,28.0723],[90.465,27.7762],[90.5676,27.4499],[90.7242,27.349],[90.9316,27.3691],[90.9698,27.39],[90.9454,27.6856],[90.7553,28.0552],[90.4752,28.0723]]]}},{"type":"Feature","id":"label-BTN-2480","properties":{"kind":"division-label","code":"BTN-2480","countryCode":"BTN","name":"Bumthang","localName":"Bumthang","labelEnglish":"Bumthang","labelLocal":"Bumthang","labelBoth":"Bumthang","type":"District","iso":"BT-33","qid":"Q463242"},"geometry":{"type":"Point","coordinates":[90.7042,27.7219]}},{"type":"Feature","id":"BTN-2435","properties":{"kind":"division","code":"BTN-2435","countryCode":"BTN","name":"Haa","localName":"Haa","labelEnglish":"Haa","labelLocal":"Haa","labelBoth":"Haa","type":"District","iso":"BT-13","qid":"Q754448"},"geometry":{"type":"Polygon","coordinates":[[[88.8761,27.2805],[89.3293,27.1191],[89.3299,27.2107],[89.1247,27.6149],[88.8923,27.3155],[88.8761,27.2805]]]}},{"type":"Feature","id":"label-BTN-2435","properties":{"kind":"division-label","code":"BTN-2435","countryCode":"BTN","name":"Haa","localName":"Haa","labelEnglish":"Haa","labelLocal":"Haa","labelBoth":"Haa","type":"District","iso":"BT-13","qid":"Q754448"},"geometry":{"type":"Point","coordinates":[89.1233,27.3711]}},{"type":"Feature","id":"BTN-2438","properties":{"kind":"division","code":"BTN-2438","countryCode":"BTN","name":"Samtse","localName":"Samtse","labelEnglish":"Samtse","labelLocal":"Samtse","labelBoth":"Samtse","type":"District","iso":"BT-14","qid":"Q728917"},"geometry":{"type":"Polygon","coordinates":[[[88.7331,27.149],[89.0965,26.8214],[89.3689,26.8374],[89.3293,27.1191],[88.8761,27.2805],[88.7331,27.149]]]}},{"type":"Feature","id":"label-BTN-2438","properties":{"kind":"division-label","code":"BTN-2438","countryCode":"BTN","name":"Samtse","localName":"Samtse","labelEnglish":"Samtse","labelLocal":"Samtse","labelBoth":"Samtse","type":"District","iso":"BT-14","qid":"Q728917"},"geometry":{"type":"Point","coordinates":[89.0493,27.0219]}},{"type":"Feature","id":"BTN-2433","properties":{"kind":"division","code":"BTN-2433","countryCode":"BTN","name":"Chukha","localName":"Chukha","labelEnglish":"Chukha","labelLocal":"Chukha","labelBoth":"Chukha","type":"District","iso":"BT-12","qid":"Q652754"},"geometry":{"type":"Polygon","coordinates":[[[89.7547,26.701],[89.7619,26.8001],[89.6235,27.1411],[89.5315,27.307],[89.3299,27.2107],[89.3293,27.1191],[89.3689,26.8374],[89.7547,26.701]]]}},{"type":"Feature","id":"label-BTN-2433","properties":{"kind":"division-label","code":"BTN-2433","countryCode":"BTN","name":"Chukha","localName":"Chukha","labelEnglish":"Chukha","labelLocal":"Chukha","labelBoth":"Chukha","type":"District","iso":"BT-12","qid":"Q652754"},"geometry":{"type":"Point","coordinates":[89.5247,27.0361]}},{"type":"Feature","id":"BTN-2482","properties":{"kind":"division","code":"BTN-2482","countryCode":"BTN","name":"Geylegphug","localName":"Geylegphug","labelEnglish":"Geylegphug","labelLocal":"Geylegphug","labelBoth":"Geylegphug","type":"District","iso":"BT-31","qid":null},"geometry":{"type":"Polygon","coordinates":[[[89.8587,26.7221],[90.3826,26.8918],[90.5878,26.7801],[90.9445,26.7789],[90.5168,27.1257],[90.3367,27.2093],[90.3128,27.1705],[90.0045,26.8552],[89.7619,26.8001],[89.7547,26.701],[89.8587,26.7221]]]}},{"type":"Feature","id":"label-BTN-2482","properties":{"kind":"division-label","code":"BTN-2482","countryCode":"BTN","name":"Geylegphug","localName":"Geylegphug","labelEnglish":"Geylegphug","labelLocal":"Geylegphug","labelBoth":"Geylegphug","type":"District","iso":"BT-31","qid":null},"geometry":{"type":"Point","coordinates":[90.3468,27.0503]}},{"type":"Feature","id":"BTN-2485","properties":{"kind":"division","code":"BTN-2485","countryCode":"BTN","name":"Zhemgang","localName":"Zhemgang","labelEnglish":"Zhemgang","labelLocal":"Zhemgang","labelBoth":"Zhemgang","type":"District","iso":"BT-34","qid":"Q197564"},"geometry":{"type":"Polygon","coordinates":[[[91.0128,26.7843],[91.1842,26.9422],[90.9906,27.1134],[90.9316,27.3691],[90.7242,27.349],[90.5168,27.1257],[90.9445,26.7789],[91.0128,26.7843]]]}},{"type":"Feature","id":"label-BTN-2485","properties":{"kind":"division-label","code":"BTN-2485","countryCode":"BTN","name":"Zhemgang","localName":"Zhemgang","labelEnglish":"Zhemgang","labelLocal":"Zhemgang","labelBoth":"Zhemgang","type":"District","iso":"BT-34","qid":"Q197564"},"geometry":{"type":"Point","coordinates":[90.8505,27.0763]}},{"type":"Feature","id":"BTN-2492","properties":{"kind":"division","code":"BTN-2492","countryCode":"BTN","name":"Samdrup Jongkhar","localName":"Samdrup Jongkhar","labelEnglish":"Samdrup Jongkhar","labelLocal":"Samdrup Jongkhar","labelBoth":"Samdrup Jongkhar","type":"District","iso":"BT-45","qid":"Q728929"},"geometry":{"type":"Polygon","coordinates":[[[92.0804,26.9216],[92.0058,27.1761],[91.491,27.0176],[91.3526,26.8398],[91.1842,26.9422],[91.0128,26.7843],[91.276,26.7741],[91.4063,26.8695],[91.7021,26.8035],[92.0804,26.9216]]]}},{"type":"Feature","id":"label-BTN-2492","properties":{"kind":"division-label","code":"BTN-2492","countryCode":"BTN","name":"Samdrup Jongkhar","localName":"Samdrup Jongkhar","labelEnglish":"Samdrup Jongkhar","labelLocal":"Samdrup Jongkhar","labelBoth":"Samdrup Jongkhar","type":"District","iso":"BT-45","qid":"Q728929"},"geometry":{"type":"Point","coordinates":[91.7328,26.9509]}},{"type":"Feature","id":"BTN-2493","properties":{"kind":"division","code":"BTN-2493","countryCode":"BTN","name":"Trashigang","localName":"Trashigang","labelEnglish":"Trashigang","labelLocal":"Trashigang","labelBoth":"Trashigang","type":"District","iso":"BT-41","qid":"Q652773"},"geometry":{"type":"Polygon","coordinates":[[[91.7271,27.4599],[91.3926,27.4018],[91.3795,27.1629],[91.491,27.0176],[92.0058,27.1761],[91.9751,27.4724],[91.7271,27.4599]]]}},{"type":"Feature","id":"label-BTN-2493","properties":{"kind":"division-label","code":"BTN-2493","countryCode":"BTN","name":"Trashigang","localName":"Trashigang","labelEnglish":"Trashigang","labelLocal":"Trashigang","labelBoth":"Trashigang","type":"District","iso":"BT-41","qid":"Q652773"},"geometry":{"type":"Point","coordinates":[91.734,27.2629]}},{"type":"Feature","id":"BTN-2439","properties":{"kind":"division","code":"BTN-2439","countryCode":"BTN","name":"Thimphu","localName":"Thimphu","labelEnglish":"Thimphu","labelLocal":"Thimphu","labelBoth":"Thimphu","type":"District","iso":"BT-15","qid":"Q254889"},"geometry":{"type":"Polygon","coordinates":[[[89.2058,27.7474],[89.3853,27.7482],[89.5315,27.307],[89.6235,27.1411],[89.7096,27.2609],[89.8145,27.5222],[89.6083,27.7153],[89.4174,27.9887],[89.2058,27.7474]]]}},{"type":"Feature","id":"label-BTN-2439","properties":{"kind":"division-label","code":"BTN-2439","countryCode":"BTN","name":"Thimphu","localName":"Thimphu","labelEnglish":"Thimphu","labelLocal":"Thimphu","labelBoth":"Thimphu","type":"District","iso":"BT-15","qid":"Q254889"},"geometry":{"type":"Point","coordinates":[89.602,27.4828]}},{"type":"Feature","id":"BTN-2436","properties":{"kind":"division","code":"BTN-2436","countryCode":"BTN","name":"Paro","localName":"Paro","labelEnglish":"Paro","labelLocal":"Paro","labelBoth":"Paro","type":"District","iso":"BT-11","qid":"Q652784"},"geometry":{"type":"Polygon","coordinates":[[[89.1247,27.6149],[89.3299,27.2107],[89.5315,27.307],[89.3853,27.7482],[89.2058,27.7474],[89.1247,27.6149]]]}},{"type":"Feature","id":"label-BTN-2436","properties":{"kind":"division-label","code":"BTN-2436","countryCode":"BTN","name":"Paro","localName":"Paro","labelEnglish":"Paro","labelLocal":"Paro","labelBoth":"Paro","type":"District","iso":"BT-11","qid":"Q652784"},"geometry":{"type":"Point","coordinates":[89.3837,27.4896]}},{"type":"Feature","id":"BTN-2437","properties":{"kind":"division","code":"BTN-2437","countryCode":"BTN","name":"Gasa","localName":"Gasa","labelEnglish":"Gasa","labelLocal":"Gasa","labelBoth":"Gasa","type":"District","iso":"BT-GA","qid":"Q578294"},"geometry":{"type":"Polygon","coordinates":[[[89.4174,27.9887],[89.6083,27.7153],[90.0024,27.8012],[90.4752,28.0723],[90.5877,28.2333],[90.2256,28.3584],[89.8629,28.2958],[89.4174,27.9887]]]}},{"type":"Feature","id":"label-BTN-2437","properties":{"kind":"division-label","code":"BTN-2437","countryCode":"BTN","name":"Gasa","localName":"Gasa","labelEnglish":"Gasa","labelLocal":"Gasa","labelBoth":"Gasa","type":"District","iso":"BT-GA","qid":"Q578294"},"geometry":{"type":"Point","coordinates":[89.9133,28.0641]}},{"type":"Feature","id":"BTN-2481","properties":{"kind":"division","code":"BTN-2481","countryCode":"BTN","name":"Tsirang","localName":"Tsirang","labelEnglish":"Tsirang","labelLocal":"Tsirang","labelBoth":"Tsirang","type":"District","iso":"BT-21","qid":"Q728922"},"geometry":{"type":"Polygon","coordinates":[[[90.3128,27.1705],[90.0583,27.1032],[90.0045,26.8552],[90.3128,27.1705]]]}},{"type":"Feature","id":"label-BTN-2481","properties":{"kind":"division-label","code":"BTN-2481","countryCode":"BTN","name":"Tsirang","localName":"Tsirang","labelEnglish":"Tsirang","labelLocal":"Tsirang","labelBoth":"Tsirang","type":"District","iso":"BT-21","qid":"Q728922"},"geometry":{"type":"Point","coordinates":[90.1671,27.0316]}},{"type":"Feature","id":"BTN-2487","properties":{"kind":"division","code":"BTN-2487","countryCode":"BTN","name":"Wangdue Phodrang","localName":"Wangdue Phodrang","labelEnglish":"Wangdue Phodrang","labelLocal":"Wangdue Phodrang","labelBoth":"Wangdue Phodrang","type":"District","iso":"BT-24","qid":"Q728933"},"geometry":{"type":"Polygon","coordinates":[[[90.0583,27.1032],[90.3128,27.1705],[90.3367,27.2093],[90.2381,27.4683],[90.465,27.7762],[90.4752,28.0723],[90.0024,27.8012],[89.8145,27.5222],[89.7096,27.2609],[90.0583,27.1032]]]}},{"type":"Feature","id":"label-BTN-2487","properties":{"kind":"division-label","code":"BTN-2487","countryCode":"BTN","name":"Wangdue Phodrang","localName":"Wangdue Phodrang","labelEnglish":"Wangdue Phodrang","labelLocal":"Wangdue Phodrang","labelBoth":"Wangdue Phodrang","type":"District","iso":"BT-24","qid":"Q728933"},"geometry":{"type":"Point","coordinates":[90.0915,27.5206]}},{"type":"Feature","id":"BTN-2434","properties":{"kind":"division","code":"BTN-2434","countryCode":"BTN","name":"Dagana","localName":"Dagana","labelEnglish":"Dagana","labelLocal":"Dagana","labelBoth":"Dagana","type":"District","iso":"BT-22","qid":"Q735146"},"geometry":{"type":"Polygon","coordinates":[[[90.0583,27.1032],[89.7096,27.2609],[89.6235,27.1411],[89.7619,26.8001],[90.0045,26.8552],[90.0583,27.1032]]]}},{"type":"Feature","id":"label-BTN-2434","properties":{"kind":"division-label","code":"BTN-2434","countryCode":"BTN","name":"Dagana","localName":"Dagana","labelEnglish":"Dagana","labelLocal":"Dagana","labelBoth":"Dagana","type":"District","iso":"BT-22","qid":"Q735146"},"geometry":{"type":"Point","coordinates":[89.8444,27.0316]}},{"type":"Feature","id":"BTN-2440","properties":{"kind":"division","code":"BTN-2440","countryCode":"BTN","name":"Punakha","localName":"Punakha","labelEnglish":"Punakha","labelLocal":"Punakha","labelBoth":"Punakha","type":"District","iso":"BT-23","qid":"Q587062"},"geometry":{"type":"Polygon","coordinates":[[[90.0024,27.8012],[89.6083,27.7153],[89.8145,27.5222],[90.0024,27.8012]]]}},{"type":"Feature","id":"label-BTN-2440","properties":{"kind":"division-label","code":"BTN-2440","countryCode":"BTN","name":"Punakha","localName":"Punakha","labelEnglish":"Punakha","labelLocal":"Punakha","labelBoth":"Punakha","type":"District","iso":"BT-23","qid":"Q587062"},"geometry":{"type":"Point","coordinates":[89.8223,27.6756]}},{"type":"Feature","id":"BTN-2490","properties":{"kind":"division","code":"BTN-2490","countryCode":"BTN","name":"Mongar","localName":"Mongar","labelEnglish":"Mongar","labelLocal":"Mongar","labelBoth":"Mongar","type":"District","iso":"BT-42","qid":"Q389734"},"geometry":{"type":"Polygon","coordinates":[[[91.3096,27.5813],[91.2449,27.4287],[90.9698,27.39],[90.9316,27.3691],[90.9906,27.1134],[91.1842,26.9422],[91.3795,27.1629],[91.3926,27.4018],[91.3096,27.5813]]]}},{"type":"Feature","id":"label-BTN-2490","properties":{"kind":"division-label","code":"BTN-2490","countryCode":"BTN","name":"Mongar","localName":"Mongar","labelEnglish":"Mongar","labelLocal":"Mongar","labelBoth":"Mongar","type":"District","iso":"BT-42","qid":"Q389734"},"geometry":{"type":"Point","coordinates":[91.2014,27.1956]}},{"type":"Feature","id":"BTN-2486","properties":{"kind":"division","code":"BTN-2486","countryCode":"BTN","name":"Trongsa","localName":"Trongsa","labelEnglish":"Trongsa","labelLocal":"Trongsa","labelBoth":"Trongsa","type":"District","iso":"BT-32","qid":"Q728938"},"geometry":{"type":"Polygon","coordinates":[[[90.465,27.7762],[90.2381,27.4683],[90.3367,27.2093],[90.5168,27.1257],[90.7242,27.349],[90.5676,27.4499],[90.465,27.7762]]]}},{"type":"Feature","id":"label-BTN-2486","properties":{"kind":"division-label","code":"BTN-2486","countryCode":"BTN","name":"Trongsa","localName":"Trongsa","labelEnglish":"Trongsa","labelLocal":"Trongsa","labelBoth":"Trongsa","type":"District","iso":"BT-32","qid":"Q728938"},"geometry":{"type":"Point","coordinates":[90.4811,27.4491]}},{"type":"Feature","id":"BTN-2491","properties":{"kind":"division","code":"BTN-2491","countryCode":"BTN","name":"Pemagatshel","localName":"Pemagatshel","labelEnglish":"Pemagatshel","labelLocal":"Pemagatshel","labelBoth":"Pemagatshel","type":"District","iso":"BT-43","qid":"Q167279"},"geometry":{"type":"Polygon","coordinates":[[[91.3795,27.1629],[91.1842,26.9422],[91.3526,26.8398],[91.491,27.0176],[91.3795,27.1629]]]}},{"type":"Feature","id":"label-BTN-2491","properties":{"kind":"division-label","code":"BTN-2491","countryCode":"BTN","name":"Pemagatshel","localName":"Pemagatshel","labelEnglish":"Pemagatshel","labelLocal":"Pemagatshel","labelBoth":"Pemagatshel","type":"District","iso":"BT-43","qid":"Q167279"},"geometry":{"type":"Point","coordinates":[91.3405,26.9641]}}]}