{"type":"FeatureCollection","features":[{"type":"Feature","id":"BWA-2629","properties":{"kind":"division","code":"BWA-2629","countryCode":"BWA","name":"North-West","localName":"North-West","labelEnglish":"North-West","labelLocal":"North-West","labelBoth":"North-West","type":"District","iso":"BW-NW","qid":"Q57617"},"geometry":{"type":"Polygon","coordinates":[[[25.2598,-17.7941],[24.9533,-17.7884],[24.5056,-18.0603],[24.1831,-18.0294],[23.5922,-18.4782],[23.3115,-18.0098],[22.9814,-18.02],[21.4757,-18.2995],[20.9934,-18.3186],[20.9756,-19.1721],[20.9794,-20.351],[20.9815,-21],[23.8814,-21],[23.879,-20.3165],[24.1571,-20.1988],[24.4021,-20.4028],[25.1451,-20.3423],[25.1622,-20.067],[24.9921,-19.9955],[24.9907,-18.9999],[25.9674,-18.9999],[25.7619,-18.6303],[25.5085,-18.3991],[25.2261,-17.9319],[25.2598,-17.7941]]]}},{"type":"Feature","id":"label-BWA-2629","properties":{"kind":"division-label","code":"BWA-2629","countryCode":"BWA","name":"North-West","localName":"North-West","labelEnglish":"North-West","labelLocal":"North-West","labelBoth":"North-West","type":"District","iso":"BW-NW","qid":"Q57617"},"geometry":{"type":"Point","coordinates":[23.4709,-19.6141]}},{"type":"Feature","id":"BWA-2630","properties":{"kind":"division","code":"BWA-2630","countryCode":"BWA","name":"Central","localName":"Central","labelEnglish":"Central","labelLocal":"Central","labelBoth":"Central","type":"District","iso":"BW-CE","qid":"Q57525"},"geometry":{"type":"Polygon","coordinates":[[[25.9674,-18.9999],[24.9907,-18.9999],[24.9921,-19.9955],[25.1622,-20.067],[25.1451,-20.3423],[24.4021,-20.4028],[24.1571,-20.1988],[23.879,-20.3165],[23.8814,-21],[25.4393,-22.9519],[26.0204,-23.5663],[26.7175,-23.9479],[26.9645,-23.7471],[27.1274,-23.525],[27.7536,-23.2208],[28.3386,-22.5846],[28.9125,-22.4537],[29.0478,-22.2203],[29.3501,-22.1867],[29.0708,-22.051],[29.0387,-21.7979],[28.6297,-21.6513],[27.9904,-21.5519],[27.4912,-21.468],[27.2294,-20.9445],[27.2684,-20.4957],[27.2149,-20.1105],[26.6772,-19.8868],[26.1303,-19.5011],[25.9674,-18.9999]],[[27.8435,-21.996],[27.8079,-21.9654],[27.866,-21.9207],[27.8435,-21.996]],[[26.1948,-20.5585],[26.2522,-20.5986],[26.1204,-20.5678],[26.1948,-20.5585]]]}},{"type":"Feature","id":"label-BWA-2630","properties":{"kind":"division-label","code":"BWA-2630","countryCode":"BWA","name":"Central","localName":"Central","labelEnglish":"Central","labelLocal":"Central","labelBoth":"Central","type":"District","iso":"BW-CE","qid":"Q57525"},"geometry":{"type":"Point","coordinates":[26.6144,-21.8775]}},{"type":"Feature","id":"BWA-4853","properties":{"kind":"division","code":"BWA-4853","countryCode":"BWA","name":"North-East","localName":"North-East","labelEnglish":"North-East","labelLocal":"North-East","labelBoth":"North-East","type":"District","iso":"BW-NE","qid":"Q57636"},"geometry":{"type":"Polygon","coordinates":[[[27.9904,-21.5519],[27.6748,-21.0901],[27.6981,-20.5091],[27.2684,-20.4957],[27.2294,-20.9445],[27.4912,-21.468],[27.9904,-21.5519]],[[27.5387,-21.2158],[27.4466,-21.2061],[27.5376,-21.1069],[27.5387,-21.2158]]]}},{"type":"Feature","id":"label-BWA-4853","properties":{"kind":"division-label","code":"BWA-4853","countryCode":"BWA","name":"North-East","localName":"North-East","labelEnglish":"North-East","labelLocal":"North-East","labelBoth":"North-East","type":"District","iso":"BW-NE","qid":"Q57636"},"geometry":{"type":"Point","coordinates":[27.4487,-20.9374]}},{"type":"Feature","id":"BWA-2646","properties":{"kind":"division","code":"BWA-2646","countryCode":"BWA","name":"Kgatleng","localName":"Kgatleng","labelEnglish":"Kgatleng","labelLocal":"Kgatleng","labelBoth":"Kgatleng","type":"District","iso":"BW-KL","qid":"Q57593"},"geometry":{"type":"Polygon","coordinates":[[[26.9645,-23.7471],[26.7175,-23.9479],[26.0204,-23.5663],[25.9512,-24.5074],[26.0334,-24.5589],[26.1659,-24.6608],[26.404,-24.6328],[26.8497,-24.2481],[26.9645,-23.7471]]]}},{"type":"Feature","id":"label-BWA-2646","properties":{"kind":"division-label","code":"BWA-2646","countryCode":"BWA","name":"Kgatleng","localName":"Kgatleng","labelEnglish":"Kgatleng","labelLocal":"Kgatleng","labelBoth":"Kgatleng","type":"District","iso":"BW-KL","qid":"Q57593"},"geometry":{"type":"Point","coordinates":[26.4263,-24.2001]}},{"type":"Feature","id":"BWA-2648","properties":{"kind":"division","code":"BWA-2648","countryCode":"BWA","name":"South-East","localName":"South-East","labelEnglish":"South-East","labelLocal":"South-East","labelBoth":"South-East","type":"District","iso":"BW-SE","qid":"Q57695"},"geometry":{"type":"Polygon","coordinates":[[[26.1659,-24.6608],[26.0334,-24.5589],[25.8349,-24.6227],[25.6872,-24.7691],[25.5423,-25.402],[25.6528,-25.4633],[25.8684,-24.7482],[26.1659,-24.6608]],[[25.6874,-25.1831],[25.6991,-25.2338],[25.6593,-25.2386],[25.6874,-25.1831]]]}},{"type":"Feature","id":"label-BWA-2648","properties":{"kind":"division-label","code":"BWA-2648","countryCode":"BWA","name":"South-East","localName":"South-East","labelEnglish":"South-East","labelLocal":"South-East","labelBoth":"South-East","type":"District","iso":"BW-SE","qid":"Q57695"},"geometry":{"type":"Point","coordinates":[25.7446,-24.9869]}},{"type":"Feature","id":"BWA-2649","properties":{"kind":"division","code":"BWA-2649","countryCode":"BWA","name":"Southern","localName":"Southern","labelEnglish":"Southern","labelLocal":"Southern","labelBoth":"Southern","type":"District","iso":"BW-SO","qid":"Q57609"},"geometry":{"type":"Polygon","coordinates":[[[25.6528,-25.4633],[25.5423,-25.402],[25.6872,-24.7691],[24.8136,-24.5119],[24.6376,-24.6603],[24.6397,-24.4612],[23.0534,-23.9991],[23.0493,-24.8232],[24.0441,-24.8453],[24.2344,-25.0258],[24.2503,-25.5014],[24.5009,-25.7578],[24.7986,-25.8292],[25.3865,-25.7435],[25.6528,-25.4633]]]}},{"type":"Feature","id":"label-BWA-2649","properties":{"kind":"division-label","code":"BWA-2649","countryCode":"BWA","name":"Southern","localName":"Southern","labelEnglish":"Southern","labelLocal":"Southern","labelBoth":"Southern","type":"District","iso":"BW-SO","qid":"Q57609"},"geometry":{"type":"Point","coordinates":[24.3683,-25.0004]}},{"type":"Feature","id":"BWA-2625","properties":{"kind":"division","code":"BWA-2625","countryCode":"BWA","name":"Kgalagadi","localName":"Kgalagadi","labelEnglish":"Kgalagadi","labelLocal":"Kgalagadi","labelBoth":"Kgalagadi","type":"District","iso":"BW-KG","qid":"Q57581"},"geometry":{"type":"Polygon","coordinates":[[[19.9814,-24.7525],[20.3649,-25.0332],[20.612,-25.431],[20.8414,-26.1313],[20.6225,-26.4275],[20.6908,-26.8918],[21.6872,-26.8552],[21.7806,-26.6782],[22.0577,-26.6176],[22.2573,-26.3409],[22.6209,-26.1115],[22.8446,-25.4811],[23.007,-25.3108],[23.4593,-25.2822],[23.9248,-25.6292],[24.5009,-25.7578],[24.2503,-25.5014],[24.2344,-25.0258],[24.0441,-24.8453],[23.0493,-24.8232],[23.0534,-23.9991],[22.959,-23.4249],[23.0575,-23.3113],[19.9799,-23.3086],[19.9805,-23.8645],[19.9814,-24.7525]]]}},{"type":"Feature","id":"label-BWA-2625","properties":{"kind":"division-label","code":"BWA-2625","countryCode":"BWA","name":"Kgalagadi","localName":"Kgalagadi","labelEnglish":"Kgalagadi","labelLocal":"Kgalagadi","labelBoth":"Kgalagadi","type":"District","iso":"BW-KG","qid":"Q57581"},"geometry":{"type":"Point","coordinates":[22.2402,-24.8361]}},{"type":"Feature","id":"BWA-1191","properties":{"kind":"division","code":"BWA-1191","countryCode":"BWA","name":"Ghanzi","localName":"Ghanzi","labelEnglish":"Ghanzi","labelLocal":"Ghanzi","labelBoth":"Ghanzi","type":"District","iso":"BW-GH","qid":"Q57571"},"geometry":{"type":"Polygon","coordinates":[[[19.9799,-23.3086],[23.0575,-23.3113],[25.2417,-23.3185],[25.4393,-22.9519],[23.8814,-21],[20.9815,-21],[20.972,-22.0007],[19.9783,-22.0007],[19.9799,-23.3086]]]}},{"type":"Feature","id":"label-BWA-1191","properties":{"kind":"division-label","code":"BWA-1191","countryCode":"BWA","name":"Ghanzi","localName":"Ghanzi","labelEnglish":"Ghanzi","labelLocal":"Ghanzi","labelBoth":"Ghanzi","type":"District","iso":"BW-GH","qid":"Q57571"},"geometry":{"type":"Point","coordinates":[22.7086,-22.1555]}},{"type":"Feature","id":"BWA-2647","properties":{"kind":"division","code":"BWA-2647","countryCode":"BWA","name":"Kweneng","localName":"Kweneng","labelEnglish":"Kweneng","labelLocal":"Kweneng","labelBoth":"Kweneng","type":"District","iso":"BW-KW","qid":"Q57599"},"geometry":{"type":"Polygon","coordinates":[[[25.4393,-22.9519],[25.2417,-23.3185],[23.0575,-23.3113],[22.959,-23.4249],[23.0534,-23.9991],[24.6397,-24.4612],[24.8136,-24.5119],[25.6872,-24.7691],[25.8349,-24.6227],[25.9512,-24.5074],[26.0204,-23.5663],[25.4393,-22.9519]]]}},{"type":"Feature","id":"label-BWA-2647","properties":{"kind":"division-label","code":"BWA-2647","countryCode":"BWA","name":"Kweneng","localName":"Kweneng","labelEnglish":"Kweneng","labelLocal":"Kweneng","labelBoth":"Kweneng","type":"District","iso":"BW-KW","qid":"Q57599"},"geometry":{"type":"Point","coordinates":[24.4879,-23.8665]}},{"type":"Feature","id":"BWA-5501","properties":{"kind":"division","code":"BWA-5501","countryCode":"BWA","name":"Gaborone","localName":"Gaborone","labelEnglish":"Gaborone","labelLocal":"Gaborone","labelBoth":"Gaborone","type":"City","iso":"BW-GA","qid":"Q3919"},"geometry":{"type":"Polygon","coordinates":[[[25.8349,-24.6227],[26.0334,-24.5589],[25.9512,-24.5074],[25.8349,-24.6227]]]}},{"type":"Feature","id":"label-BWA-5501","properties":{"kind":"division-label","code":"BWA-5501","countryCode":"BWA","name":"Gaborone","localName":"Gaborone","labelEnglish":"Gaborone","labelLocal":"Gaborone","labelBoth":"Gaborone","type":"City","iso":"BW-GA","qid":"Q3919"},"geometry":{"type":"Point","coordinates":[25.9171,-24.6239]}},{"type":"Feature","id":"BWA-5506","properties":{"kind":"division","code":"BWA-5506","countryCode":"BWA","name":"Jwaneng","localName":"Jwaneng","labelEnglish":"Jwaneng","labelLocal":"Jwaneng","labelBoth":"Jwaneng","type":"Town","iso":"BW-JW","qid":"Q165954"},"geometry":{"type":"Polygon","coordinates":[[[24.6397,-24.4612],[24.6376,-24.6603],[24.8136,-24.5119],[24.6397,-24.4612]]]}},{"type":"Feature","id":"label-BWA-5506","properties":{"kind":"division-label","code":"BWA-5506","countryCode":"BWA","name":"Jwaneng","localName":"Jwaneng","labelEnglish":"Jwaneng","labelLocal":"Jwaneng","labelBoth":"Jwaneng","type":"Town","iso":"BW-JW","qid":"Q165954"},"geometry":{"type":"Point","coordinates":[24.7253,-24.5774]}},{"type":"Feature","id":"BWA-5502","properties":{"kind":"division","code":"BWA-5502","countryCode":"BWA","name":"Francistown","localName":"Francistown","labelEnglish":"Francistown","labelLocal":"Francistown","labelBoth":"Francistown","type":"City","iso":"BW-FR","qid":"Q165422"},"geometry":{"type":"Polygon","coordinates":[[[27.5387,-21.2158],[27.5376,-21.1069],[27.4466,-21.2061],[27.5387,-21.2158]]]}},{"type":"Feature","id":"label-BWA-5502","properties":{"kind":"division-label","code":"BWA-5502","countryCode":"BWA","name":"Francistown","localName":"Francistown","labelEnglish":"Francistown","labelLocal":"Francistown","labelBoth":"Francistown","type":"City","iso":"BW-FR","qid":"Q165422"},"geometry":{"type":"Point","coordinates":[27.5038,-21.1678]}},{"type":"Feature","id":"BWA-5503","properties":{"kind":"division","code":"BWA-5503","countryCode":"BWA","name":"Lobatse","localName":"Lobatse","labelEnglish":"Lobatse","labelLocal":"Lobatse","labelBoth":"Lobatse","type":"Town","iso":"BW-LO","qid":"Q165768"},"geometry":{"type":"Polygon","coordinates":[[[25.6874,-25.1831],[25.6593,-25.2386],[25.6991,-25.2338],[25.6874,-25.1831]]]}},{"type":"Feature","id":"label-BWA-5503","properties":{"kind":"division-label","code":"BWA-5503","countryCode":"BWA","name":"Lobatse","localName":"Lobatse","labelEnglish":"Lobatse","labelLocal":"Lobatse","labelBoth":"Lobatse","type":"Town","iso":"BW-LO","qid":"Q165768"},"geometry":{"type":"Point","coordinates":[25.6842,-25.2144]}},{"type":"Feature","id":"BWA-5504","properties":{"kind":"division","code":"BWA-5504","countryCode":"BWA","name":"Selebi-Phikwe","localName":"Selebi-Phikwe","labelEnglish":"Selebi-Phikwe","labelLocal":"Selebi-Phikwe","labelBoth":"Selebi-Phikwe","type":"Town","iso":"BW-SP","qid":"Q141263"},"geometry":{"type":"Polygon","coordinates":[[[27.8435,-21.996],[27.866,-21.9207],[27.8079,-21.9654],[27.8435,-21.996]]]}},{"type":"Feature","id":"label-BWA-5504","properties":{"kind":"division-label","code":"BWA-5504","countryCode":"BWA","name":"Selebi-Phikwe","localName":"Selebi-Phikwe","labelEnglish":"Selebi-Phikwe","labelLocal":"Selebi-Phikwe","labelBoth":"Selebi-Phikwe","type":"Town","iso":"BW-SP","qid":"Q141263"},"geometry":{"type":"Point","coordinates":[27.8625,-21.9728]}},{"type":"Feature","id":"BWA-5505","properties":{"kind":"division","code":"BWA-5505","countryCode":"BWA","name":"Sowa","localName":"Sowa","labelEnglish":"Sowa","labelLocal":"Sowa","labelBoth":"Sowa","type":"Township","iso":"BW-ST","qid":"Q141310"},"geometry":{"type":"Polygon","coordinates":[[[26.1948,-20.5585],[26.1204,-20.5678],[26.2522,-20.5986],[26.1948,-20.5585]]]}},{"type":"Feature","id":"label-BWA-5505","properties":{"kind":"division-label","code":"BWA-5505","countryCode":"BWA","name":"Sowa","localName":"Sowa","labelEnglish":"Sowa","labelLocal":"Sowa","labelBoth":"Sowa","type":"Township","iso":"BW-ST","qid":"Q141310"},"geometry":{"type":"Point","coordinates":[26.1919,-20.5752]}}]}