{"type":"FeatureCollection","features":[{"type":"Feature","id":"CAF-812","properties":{"kind":"division","code":"CAF-812","countryCode":"CAF","name":"Vakaga Prefecture","localName":"Vakaga Prefecture","labelEnglish":"Vakaga Prefecture","labelLocal":"Vakaga Prefecture","labelBoth":"Vakaga Prefecture","type":"Prefecture","iso":"CF-VK","qid":"Q848585"},"geometry":{"type":"Polygon","coordinates":[[[22.8611,10.9192],[22.3647,10.9542],[21.7226,10.6367],[21.7511,10.4118],[21.3395,9.9599],[21.0174,9.7436],[20.8139,9.4188],[20.8966,9.3829],[21.4948,9.7647],[21.769,9.4106],[22.1139,8.8024],[22.3912,8.5917],[23.0729,8.7856],[23.4628,9.1537],[23.6322,9.2776],[23.624,9.9078],[23.2912,10.4397],[23.0056,10.6868],[22.8611,10.9192]]]}},{"type":"Feature","id":"label-CAF-812","properties":{"kind":"division-label","code":"CAF-812","countryCode":"CAF","name":"Vakaga Prefecture","localName":"Vakaga Prefecture","labelEnglish":"Vakaga Prefecture","labelLocal":"Vakaga Prefecture","labelBoth":"Vakaga Prefecture","type":"Prefecture","iso":"CF-VK","qid":"Q848585"},"geometry":{"type":"Point","coordinates":[22.2437,9.8017]}},{"type":"Feature","id":"CAF-866","properties":{"kind":"division","code":"CAF-866","countryCode":"CAF","name":"Haute-Kotto Prefecture","localName":"Haute-Kotto Prefecture","labelEnglish":"Haute-Kotto Prefecture","labelLocal":"Haute-Kotto Prefecture","labelBoth":"Haute-Kotto Prefecture","type":"Prefecture","iso":"CF-HK","qid":"Q848596"},"geometry":{"type":"Polygon","coordinates":[[[23.4628,9.1537],[23.0729,8.7856],[22.3912,8.5917],[22.0049,8.605],[21.9898,8.233],[21.7733,8.3264],[21.3926,8.1634],[21.4194,8.0178],[21.1533,7.9853],[21.1309,7.7034],[21.3856,7.5442],[21.582,7.2727],[21.7439,6.2149],[21.9398,5.9106],[21.9022,5.6819],[21.6628,5.5492],[21.901,5.4745],[22.0859,5.6427],[22.1074,5.9796],[22.4005,6.0471],[22.5601,6.2447],[22.8093,6.2718],[23.2417,6.0952],[23.4521,6.3016],[24.2609,6.7531],[24.3219,6.9326],[24.5401,7.0074],[24.4731,8.0737],[24.2632,8.2685],[24.1216,8.3723],[24.1703,8.6893],[23.4823,8.7834],[23.4628,9.1537]]]}},{"type":"Feature","id":"label-CAF-866","properties":{"kind":"division-label","code":"CAF-866","countryCode":"CAF","name":"Haute-Kotto Prefecture","localName":"Haute-Kotto Prefecture","labelEnglish":"Haute-Kotto Prefecture","labelLocal":"Haute-Kotto Prefecture","labelBoth":"Haute-Kotto Prefecture","type":"Prefecture","iso":"CF-HK","qid":"Q848596"},"geometry":{"type":"Point","coordinates":[22.8492,7.48168]}},{"type":"Feature","id":"CAF-867","properties":{"kind":"division","code":"CAF-867","countryCode":"CAF","name":"Haut-Mbomou Prefecture","localName":"Haut-Mbomou Prefecture","labelEnglish":"Haut-Mbomou Prefecture","labelLocal":"Haut-Mbomou Prefecture","labelBoth":"Haut-Mbomou Prefecture","type":"Prefecture","iso":"CF-HM","qid":"Q848578"},"geometry":{"type":"Polygon","coordinates":[[[24.2632,8.2685],[24.4731,8.0737],[24.5401,7.0074],[24.3219,6.9326],[24.2609,6.7531],[24.6116,6.3909],[24.8999,6.4844],[25.0709,6.3485],[24.863,6.201],[25.1812,5.8962],[24.9733,5.4541],[24.4808,5.1023],[24.7894,4.9199],[25.3076,5.0323],[25.3637,5.3106],[25.5813,5.3749],[25.8261,5.1947],[26.13,5.2589],[26.4627,5.0596],[26.8671,5.0375],[27.1164,5.2003],[27.4413,5.0707],[27.3013,5.2052],[27.2607,5.5503],[27.1238,5.7687],[26.4811,6.105],[26.2896,6.3872],[26.3792,6.6314],[26.081,6.8423],[26.0261,6.9967],[25.36,7.3356],[25.1652,7.5799],[25.2794,7.6595],[24.8321,8.1657],[24.2632,8.2685]]]}},{"type":"Feature","id":"label-CAF-867","properties":{"kind":"division-label","code":"CAF-867","countryCode":"CAF","name":"Haut-Mbomou Prefecture","localName":"Haut-Mbomou Prefecture","labelEnglish":"Haut-Mbomou Prefecture","labelLocal":"Haut-Mbomou Prefecture","labelBoth":"Haut-Mbomou Prefecture","type":"Prefecture","iso":"CF-HM","qid":"Q848578"},"geometry":{"type":"Point","coordinates":[25.851,6.15735]}},{"type":"Feature","id":"CAF-808","properties":{"kind":"division","code":"CAF-808","countryCode":"CAF","name":"Kémo Prefecture","localName":"Kémo Prefecture","labelEnglish":"Kémo Prefecture","labelLocal":"Kémo Prefecture","labelBoth":"Kémo Prefecture","type":"Prefecture","iso":"CF-KG","qid":"Q848572"},"geometry":{"type":"Polygon","coordinates":[[[19.8582,5.0603],[20.0151,5.4655],[19.5218,5.49],[19.6512,5.6576],[19.5965,5.9044],[19.839,6.12],[19.7431,6.4762],[19.1516,6.4404],[18.752,6.5143],[18.9087,6.2072],[18.6269,6.001],[18.6345,5.7306],[18.8538,5.6356],[19.0246,5.3336],[19.1067,4.9315],[19.409,5.1304],[19.8582,5.0603]]]}},{"type":"Feature","id":"label-CAF-808","properties":{"kind":"division-label","code":"CAF-808","countryCode":"CAF","name":"Kémo Prefecture","localName":"Kémo Prefecture","labelEnglish":"Kémo Prefecture","labelLocal":"Kémo Prefecture","labelBoth":"Kémo Prefecture","type":"Prefecture","iso":"CF-KG","qid":"Q848572"},"geometry":{"type":"Point","coordinates":[19.3143,5.75536]}},{"type":"Feature","id":"CAF-809","properties":{"kind":"division","code":"CAF-809","countryCode":"CAF","name":"Ouaka Prefecture","localName":"Ouaka Prefecture","labelEnglish":"Ouaka Prefecture","labelLocal":"Ouaka Prefecture","labelBoth":"Ouaka Prefecture","type":"Prefecture","iso":"CF-UK","qid":"Q848560"},"geometry":{"type":"Polygon","coordinates":[[[20.4567,4.5248],[20.9036,4.832],[21.037,5.7154],[21.391,5.7269],[21.5183,5.5099],[21.6628,5.5492],[21.9022,5.6819],[21.9398,5.9106],[21.7439,6.2149],[21.582,7.2727],[21.3856,7.5442],[21.1309,7.7034],[20.8763,7.2711],[20.4628,7.0268],[20.1556,7.0972],[20.1135,6.9006],[19.7431,6.4762],[19.839,6.12],[19.5965,5.9044],[19.6512,5.6576],[19.5218,5.49],[20.0151,5.4655],[19.8582,5.0603],[20.3389,4.7719],[20.4567,4.5248]]]}},{"type":"Feature","id":"label-CAF-809","properties":{"kind":"division-label","code":"CAF-809","countryCode":"CAF","name":"Ouaka Prefecture","localName":"Ouaka Prefecture","labelEnglish":"Ouaka Prefecture","labelLocal":"Ouaka Prefecture","labelBoth":"Ouaka Prefecture","type":"Prefecture","iso":"CF-UK","qid":"Q848560"},"geometry":{"type":"Point","coordinates":[20.7064,5.99454]}},{"type":"Feature","id":"CAF-794","properties":{"kind":"division","code":"CAF-794","countryCode":"CAF","name":"Basse-Kotto Prefecture","localName":"Basse-Kotto Prefecture","labelEnglish":"Basse-Kotto Prefecture","labelLocal":"Basse-Kotto Prefecture","labelBoth":"Basse-Kotto Prefecture","type":"Prefecture","iso":"CF-BK","qid":"Q810484"},"geometry":{"type":"Polygon","coordinates":[[[20.4567,4.5248],[20.6031,4.4097],[20.8715,4.4534],[21.2109,4.2916],[21.7229,4.2951],[22.0366,4.2294],[22.1317,4.5343],[21.7426,4.698],[21.901,5.4745],[21.6628,5.5492],[21.5183,5.5099],[21.391,5.7269],[21.037,5.7154],[20.9036,4.832],[20.4567,4.5248]]]}},{"type":"Feature","id":"label-CAF-794","properties":{"kind":"division-label","code":"CAF-794","countryCode":"CAF","name":"Basse-Kotto Prefecture","localName":"Basse-Kotto Prefecture","labelEnglish":"Basse-Kotto Prefecture","labelLocal":"Basse-Kotto Prefecture","labelBoth":"Basse-Kotto Prefecture","type":"Prefecture","iso":"CF-BK","qid":"Q810484"},"geometry":{"type":"Point","coordinates":[21.3019,5.00365]}},{"type":"Feature","id":"CAF-868","properties":{"kind":"division","code":"CAF-868","countryCode":"CAF","name":"Mbomou Prefecture","localName":"Mbomou Prefecture","labelEnglish":"Mbomou Prefecture","labelLocal":"Mbomou Prefecture","labelBoth":"Mbomou Prefecture","type":"Prefecture","iso":"CF-MB","qid":"Q848582"},"geometry":{"type":"Polygon","coordinates":[[[22.4515,4.1467],[22.8984,4.8236],[23.3884,4.5873],[23.5666,4.7244],[24.1629,4.9078],[24.4808,5.1023],[24.9733,5.4541],[25.1812,5.8962],[24.863,6.201],[25.0709,6.3485],[24.8999,6.4844],[24.6116,6.3909],[24.2609,6.7531],[23.4521,6.3016],[23.2417,6.0952],[22.8093,6.2718],[22.5601,6.2447],[22.4005,6.0471],[22.1074,5.9796],[22.0859,5.6427],[21.901,5.4745],[21.7426,4.698],[22.1317,4.5343],[22.0366,4.2294],[22.4515,4.1467]]]}},{"type":"Feature","id":"label-CAF-868","properties":{"kind":"division-label","code":"CAF-868","countryCode":"CAF","name":"Mbomou Prefecture","localName":"Mbomou Prefecture","labelEnglish":"Mbomou Prefecture","labelLocal":"Mbomou Prefecture","labelBoth":"Mbomou Prefecture","type":"Prefecture","iso":"CF-MB","qid":"Q848582"},"geometry":{"type":"Point","coordinates":[23.4601,5.48563]}},{"type":"Feature","id":"CAF-4856","properties":{"kind":"division","code":"CAF-4856","countryCode":"CAF","name":"Ombella-M'Poko Prefecture","localName":"Ombella-M'Poko Prefecture","labelEnglish":"Ombella-M'Poko Prefecture","labelLocal":"Ombella-M'Poko Prefecture","labelBoth":"Ombella-M'Poko Prefecture","type":"Prefecture","iso":"CF-MP","qid":"Q378970"},"geometry":{"type":"Polygon","coordinates":[[[19.1067,4.9315],[19.0246,5.3336],[18.8538,5.6356],[18.6345,5.7306],[18.4227,5.5651],[18.3971,5.7382],[17.8956,5.8976],[17.5831,5.7209],[17.0209,5.7259],[16.979,5.8588],[16.515,5.5681],[16.5257,5.2749],[16.9188,5.3686],[17.1185,5.1652],[17.0375,5.0242],[17.4648,4.794],[17.6532,4.5111],[18.1317,4.4482],[18.3377,4.0999],[18.612,3.8666],[18.5371,4.3061],[18.4926,4.3881],[18.5958,4.3713],[18.7211,4.3774],[19.1067,4.9315]]]}},{"type":"Feature","id":"label-CAF-4856","properties":{"kind":"division-label","code":"CAF-4856","countryCode":"CAF","name":"Ombella-M'Poko Prefecture","localName":"Ombella-M'Poko Prefecture","labelEnglish":"Ombella-M'Poko Prefecture","labelLocal":"Ombella-M'Poko Prefecture","labelBoth":"Ombella-M'Poko Prefecture","type":"Prefecture","iso":"CF-MP","qid":"Q378970"},"geometry":{"type":"Point","coordinates":[17.802,5.17659]}},{"type":"Feature","id":"CAF-1460","properties":{"kind":"division","code":"CAF-1460","countryCode":"CAF","name":"Bangui","localName":"Bangui","labelEnglish":"Bangui","labelLocal":"Bangui","labelBoth":"Bangui","type":"Autonomous Commune","iso":"CF-BGF","qid":"Q3832"},"geometry":{"type":"Polygon","coordinates":[[[18.5958,4.3713],[18.4926,4.3881],[18.5371,4.3061],[18.5958,4.3713]]]}},{"type":"Feature","id":"label-CAF-1460","properties":{"kind":"division-label","code":"CAF-1460","countryCode":"CAF","name":"Bangui","localName":"Bangui","labelEnglish":"Bangui","labelLocal":"Bangui","labelBoth":"Bangui","type":"Autonomous Commune","iso":"CF-BGF","qid":"Q3832"},"geometry":{"type":"Point","coordinates":[18.5457,4.38332]}},{"type":"Feature","id":"CAF-795","properties":{"kind":"division","code":"CAF-795","countryCode":"CAF","name":"Lobaye Prefecture","localName":"Lobaye Prefecture","labelEnglish":"Lobaye Prefecture","labelLocal":"Lobaye Prefecture","labelBoth":"Lobaye Prefecture","type":"Prefecture","iso":"CF-LB","qid":"Q821037"},"geometry":{"type":"Polygon","coordinates":[[[18.612,3.8666],[18.3377,4.0999],[18.1317,4.4482],[17.6532,4.5111],[17.4648,4.794],[17.0375,5.0242],[16.8305,4.8679],[16.9343,4.5141],[16.7377,4.2447],[16.9341,3.9766],[17.4145,3.6834],[17.8421,3.5401],[18.4721,3.6321],[18.6264,3.4769],[18.612,3.8666]]]}},{"type":"Feature","id":"label-CAF-795","properties":{"kind":"division-label","code":"CAF-795","countryCode":"CAF","name":"Lobaye Prefecture","localName":"Lobaye Prefecture","labelEnglish":"Lobaye Prefecture","labelLocal":"Lobaye Prefecture","labelBoth":"Lobaye Prefecture","type":"Prefecture","iso":"CF-LB","qid":"Q821037"},"geometry":{"type":"Point","coordinates":[17.6819,4.07603]}},{"type":"Feature","id":"CAF-806","properties":{"kind":"division","code":"CAF-806","countryCode":"CAF","name":"Bamingui-Bangoran Prefecture","localName":"Bamingui-Bangoran Prefecture","labelEnglish":"Bamingui-Bangoran Prefecture","labelLocal":"Bamingui-Bangoran Prefecture","labelBoth":"Bamingui-Bangoran Prefecture","type":"Prefecture","iso":"CF-BB","qid":"Q741025"},"geometry":{"type":"Polygon","coordinates":[[[20.8139,9.4188],[20.5418,9.3216],[20.4352,9.1381],[19.9321,9.0633],[19.1006,9.0153],[18.8697,8.8641],[19.0723,8.6319],[19.0643,8.5829],[19.3592,8.1304],[19.357,7.7561],[19.7291,7.5476],[19.9209,7.2465],[20.1556,7.0972],[20.4628,7.0268],[20.8763,7.2711],[21.1309,7.7034],[21.1533,7.9853],[21.4194,8.0178],[21.3926,8.1634],[21.7733,8.3264],[21.9898,8.233],[22.0049,8.605],[22.3912,8.5917],[22.1139,8.8024],[21.769,9.4106],[21.4948,9.7647],[20.8966,9.3829],[20.8139,9.4188]]]}},{"type":"Feature","id":"label-CAF-806","properties":{"kind":"division-label","code":"CAF-806","countryCode":"CAF","name":"Bamingui-Bangoran Prefecture","localName":"Bamingui-Bangoran Prefecture","labelEnglish":"Bamingui-Bangoran Prefecture","labelLocal":"Bamingui-Bangoran Prefecture","labelBoth":"Bamingui-Bangoran Prefecture","type":"Prefecture","iso":"CF-BB","qid":"Q741025"},"geometry":{"type":"Point","coordinates":[20.6318,8.21272]}},{"type":"Feature","id":"CAF-810","properties":{"kind":"division","code":"CAF-810","countryCode":"CAF","name":"Ouham Prefecture","localName":"Ouham Prefecture","labelEnglish":"Ouham Prefecture","labelLocal":"Ouham Prefecture","labelBoth":"Ouham Prefecture","type":"Prefecture","iso":"CF-AC","qid":"Q726620"},"geometry":{"type":"Polygon","coordinates":[[[18.1754,8.022],[17.6798,7.9852],[17.2338,7.8108],[16.8151,7.5495],[16.6793,6.986],[16.7636,6.6144],[17.0979,6.4114],[16.9079,6.1065],[16.979,5.8588],[17.0209,5.7259],[17.5831,5.7209],[17.8956,5.8976],[18.3971,5.7382],[18.4227,5.5651],[18.6345,5.7306],[18.6269,6.001],[18.9087,6.2072],[18.752,6.5143],[18.8555,6.6907],[18.6552,6.953],[18.8392,7.2639],[18.7324,7.5705],[19.0031,7.7523],[19.0643,8.5829],[19.0723,8.6319],[18.5893,8.0479],[18.1754,8.022]]]}},{"type":"Feature","id":"label-CAF-810","properties":{"kind":"division-label","code":"CAF-810","countryCode":"CAF","name":"Ouham Prefecture","localName":"Ouham Prefecture","labelEnglish":"Ouham Prefecture","labelLocal":"Ouham Prefecture","labelBoth":"Ouham Prefecture","type":"Prefecture","iso":"CF-AC","qid":"Q726620"},"geometry":{"type":"Point","coordinates":[17.8774,6.92835]}},{"type":"Feature","id":"CAF-805","properties":{"kind":"division","code":"CAF-805","countryCode":"CAF","name":"Ouham-Pendé Prefecture","localName":"Ouham-Pendé Prefecture","labelEnglish":"Ouham-Pendé Prefecture","labelLocal":"Ouham-Pendé Prefecture","labelBoth":"Ouham-Pendé Prefecture","type":"Prefecture","iso":"CF-OP","qid":"Q848591"},"geometry":{"type":"Polygon","coordinates":[[[16.8151,7.5495],[16.5487,7.87],[16.3708,7.6725],[15.7939,7.458],[15.481,7.5233],[15.2466,7.2667],[15.0422,6.7908],[14.9219,6.6864],[15.1754,6.7553],[15.424,6.3018],[15.7506,6.4194],[15.8245,5.9245],[16.0012,5.7992],[16.1952,5.9062],[16.515,5.5681],[16.979,5.8588],[16.9079,6.1065],[17.0979,6.4114],[16.7636,6.6144],[16.6793,6.986],[16.8151,7.5495]]]}},{"type":"Feature","id":"label-CAF-805","properties":{"kind":"division-label","code":"CAF-805","countryCode":"CAF","name":"Ouham-Pendé Prefecture","localName":"Ouham-Pendé Prefecture","labelEnglish":"Ouham-Pendé Prefecture","labelLocal":"Ouham-Pendé Prefecture","labelBoth":"Ouham-Pendé Prefecture","type":"Prefecture","iso":"CF-OP","qid":"Q848591"},"geometry":{"type":"Point","coordinates":[16.0108,6.67901]}},{"type":"Feature","id":"CAF-802","properties":{"kind":"division","code":"CAF-802","countryCode":"CAF","name":"Sangha-Mbaéré","localName":"Sangha-Mbaéré","labelEnglish":"Sangha-Mbaéré","labelLocal":"Sangha-Mbaéré","labelBoth":"Sangha-Mbaéré","type":"Economic Prefecture","iso":"CF-SE","qid":"Q856237"},"geometry":{"type":"Polygon","coordinates":[[[17.4145,3.6834],[16.9341,3.9766],[16.7377,4.2447],[16.4318,3.8358],[16.0852,3.9908],[15.8873,3.9692],[15.2623,3.6626],[15.7856,3.108],[16.0924,2.8633],[16.0903,2.5105],[16.1967,2.2365],[16.4275,2.7265],[16.5677,3.4644],[17.4145,3.6834]]]}},{"type":"Feature","id":"label-CAF-802","properties":{"kind":"division-label","code":"CAF-802","countryCode":"CAF","name":"Sangha-Mbaéré","localName":"Sangha-Mbaéré","labelEnglish":"Sangha-Mbaéré","labelLocal":"Sangha-Mbaéré","labelBoth":"Sangha-Mbaéré","type":"Economic Prefecture","iso":"CF-SE","qid":"Q856237"},"geometry":{"type":"Point","coordinates":[16.3383,3.21418]}},{"type":"Feature","id":"CAF-804","properties":{"kind":"division","code":"CAF-804","countryCode":"CAF","name":"Nana-Mambéré Prefecture","localName":"Nana-Mambéré Prefecture","labelEnglish":"Nana-Mambéré Prefecture","labelLocal":"Nana-Mambéré Prefecture","labelBoth":"Nana-Mambéré Prefecture","type":"Prefecture","iso":"CF-NM","qid":"Q742455"},"geometry":{"type":"Polygon","coordinates":[[[14.9219,6.6864],[14.719,6.2579],[14.4327,6.0791],[14.6311,5.738],[14.6601,5.0114],[15.6918,5.0201],[16.059,5.0819],[16.5257,5.2749],[16.515,5.5681],[16.1952,5.9062],[16.0012,5.7992],[15.8245,5.9245],[15.7506,6.4194],[15.424,6.3018],[15.1754,6.7553],[14.9219,6.6864]]]}},{"type":"Feature","id":"label-CAF-804","properties":{"kind":"division-label","code":"CAF-804","countryCode":"CAF","name":"Nana-Mambéré Prefecture","localName":"Nana-Mambéré Prefecture","labelEnglish":"Nana-Mambéré Prefecture","labelLocal":"Nana-Mambéré Prefecture","labelBoth":"Nana-Mambéré Prefecture","type":"Prefecture","iso":"CF-NM","qid":"Q742455"},"geometry":{"type":"Point","coordinates":[15.4564,5.67426]}},{"type":"Feature","id":"CAF-801","properties":{"kind":"division","code":"CAF-801","countryCode":"CAF","name":"Mambéré-Kadéï","localName":"Mambéré-Kadéï","labelEnglish":"Mambéré-Kadéï","labelLocal":"Mambéré-Kadéï","labelBoth":"Mambéré-Kadéï","type":"Prefecture","iso":"CF-HS","qid":"Q848567"},"geometry":{"type":"Polygon","coordinates":[[[14.6601,5.0114],[14.7173,4.622],[15.0006,4.4032],[15.026,4.0261],[15.2623,3.6626],[15.8873,3.9692],[16.0852,3.9908],[16.4318,3.8358],[16.7377,4.2447],[16.9343,4.5141],[16.8305,4.8679],[17.0375,5.0242],[17.1185,5.1652],[16.9188,5.3686],[16.5257,5.2749],[16.059,5.0819],[15.6918,5.0201],[14.6601,5.0114]]]}},{"type":"Feature","id":"label-CAF-801","properties":{"kind":"division-label","code":"CAF-801","countryCode":"CAF","name":"Mambéré-Kadéï","localName":"Mambéré-Kadéï","labelEnglish":"Mambéré-Kadéï","labelLocal":"Mambéré-Kadéï","labelBoth":"Mambéré-Kadéï","type":"Prefecture","iso":"CF-HS","qid":"Q848567"},"geometry":{"type":"Point","coordinates":[15.8888,4.5324]}},{"type":"Feature","id":"CAF-807","properties":{"kind":"division","code":"CAF-807","countryCode":"CAF","name":"Nana-Grébizi Economic Prefecture","localName":"Nana-Grébizi Economic Prefecture","labelEnglish":"Nana-Grébizi Economic Prefecture","labelLocal":"Nana-Grébizi Economic Prefecture","labelBoth":"Nana-Grébizi Economic Prefecture","type":"Economic Prefecture","iso":"CF-KB","qid":"Q856227"},"geometry":{"type":"Polygon","coordinates":[[[19.0643,8.5829],[19.0031,7.7523],[18.7324,7.5705],[18.8392,7.2639],[18.6552,6.953],[18.8555,6.6907],[18.752,6.5143],[19.1516,6.4404],[19.7431,6.4762],[20.1135,6.9006],[20.1556,7.0972],[19.9209,7.2465],[19.7291,7.5476],[19.357,7.7561],[19.3592,8.1304],[19.0643,8.5829]]]}},{"type":"Feature","id":"label-CAF-807","properties":{"kind":"division-label","code":"CAF-807","countryCode":"CAF","name":"Nana-Grébizi Economic Prefecture","localName":"Nana-Grébizi Economic Prefecture","labelEnglish":"Nana-Grébizi Economic Prefecture","labelLocal":"Nana-Grébizi Economic Prefecture","labelBoth":"Nana-Grébizi Economic Prefecture","type":"Economic Prefecture","iso":"CF-KB","qid":"Q856227"},"geometry":{"type":"Point","coordinates":[19.4051,7.11882]}}]}