{"type":"FeatureCollection","features":[{"type":"Feature","id":"CAN-633","properties":{"kind":"division","code":"CAN-633","countryCode":"CAN","name":"British Columbia","localName":"British Columbia","labelEnglish":"British Columbia","labelLocal":"British Columbia","labelBoth":"British Columbia","type":"Province","iso":"CA-BC","qid":"Q1974"},"geometry":{"type":"MultiPolygon","coordinates":[[[[-117.0382,48.9925],[-116.0482,48.9925],[-114.0638,48.9925],[-114.7383,49.5809],[-114.6248,49.7802],[-114.7751,50.3541],[-115.6467,50.852],[-116.0181,51.1424],[-116.685,51.8094],[-116.9377,51.7199],[-117.3063,52.1671],[-117.5908,52.1304],[-118.0119,52.4851],[-118.2113,52.3667],[-118.3062,52.6775],[-118.757,53.1215],[-119.2778,53.2082],[-119.7567,53.4146],[-120.001,53.8228],[-120,55.7117],[-120,56.8742],[-120,58.5231],[-120,60.0001],[-123.8191,60.0001],[-126.1992,60.0001],[-128.5793,60.0001],[-132.3874,60.0001],[-135.2434,60.0001],[-139.0602,60.0001],[-137.6114,59.2393],[-137.4231,58.9077],[-136.8408,59.1482],[-136.6135,59.1542],[-136.3503,59.5924],[-135.4828,59.7925],[-135.0162,59.5434],[-135.0958,59.4189],[-134.398,59.052],[-133.3922,58.4039],[-132.5524,57.4991],[-132.0319,57.0284],[-132.1074,56.8588],[-131.5859,56.595],[-130.1168,56.1056],[-130.0196,55.908],[-130.0998,55.5872],[-129.9579,55.2735],[-130.4582,54.3486],[-130.0501,54.1562],[-130.1047,53.9471],[-129.3349,53.3969],[-129.2283,53.6327],[-128.6219,54.0321],[-128.8755,53.3062],[-128.5467,53.136],[-128.4975,52.8947],[-128.1383,52.9267],[-128.2346,52.3264],[-128.0924,52.5133],[-127.8607,52.216],[-127.2855,52.4591],[-127.0431,52.3098],[-127.8496,51.9201],[-127.7281,51.4599],[-127.7895,51.2334],[-127.5308,51.0037],[-127.0218,50.8219],[-126.4835,50.9647],[-126.1838,50.8679],[-126.2423,50.501],[-125.6439,50.4484],[-125.3567,50.5431],[-124.6052,50.2329],[-124.7322,49.9543],[-124.4037,49.7673],[-123.8818,49.8474],[-124.0611,49.6308],[-123.5546,49.39],[-123.2486,49.5978],[-123.27,49.3354],[-123.0905,48.9925],[-123.0353,48.9925],[-122.753,48.9925],[-119.7957,48.9925],[-117.0382,48.9925]]],[[[-127.2408,52.4264],[-127.751,52.2502],[-127.8883,51.9534],[-127.2067,52.3507],[-127.2408,52.4264]]],[[[-128.9301,52.6144],[-129.257,52.8281],[-128.9813,52.4537],[-128.9301,52.6144]]],[[[-131.1127,52.1719],[-131.8805,52.8407],[-131.6189,52.9202],[-131.7941,53.2521],[-132.0655,53.1613],[-132.5658,53.1457],[-131.2629,52.1247],[-131.1127,52.1719]]],[[[-128.8038,52.7007],[-128.6056,52.6112],[-128.6347,53.1632],[-129.0781,53.3028],[-129.1898,53.0233],[-129.057,52.741],[-128.8038,52.7007]]],[[[-129.7429,53.2353],[-129.8826,53.3982],[-130.5305,53.5598],[-129.9394,53.1689],[-129.7429,53.2353]]],[[[-129.1662,53.3854],[-128.8422,53.716],[-129.16,53.627],[-129.1662,53.3854]]],[[[-130.2528,53.8925],[-130.0496,53.5878],[-129.4986,53.2156],[-129.3365,53.3606],[-129.831,53.7354],[-130.2528,53.8925]]],[[[-132.5794,53.2072],[-132.2275,53.1568],[-131.9078,53.3581],[-131.8705,53.7829],[-131.6683,54.1531],[-132.1304,54.0109],[-132.0785,53.8925],[-132.2023,53.6555],[-132.5251,53.7038],[-132.1142,53.8813],[-132.2967,54.1123],[-133.0405,54.1645],[-133.1444,53.8969],[-132.9289,53.5225],[-132.5179,53.4127],[-132.5794,53.2072]]],[[[-124.6644,49.7469],[-124.1232,49.4998],[-124.3479,49.7042],[-124.6644,49.7469]]],[[[-126.6587,49.7878],[-126.987,49.8151],[-126.8068,49.6274],[-126.6587,49.7878]]],[[[-126.6177,50.6723],[-126.2881,50.6546],[-126.2723,50.83],[-126.6177,50.6723]]],[[[-123.3212,48.4958],[-123.3992,48.6815],[-123.8351,49.0002],[-123.9549,49.2292],[-124.838,49.5173],[-125.4362,50.3136],[-127.1986,50.6213],[-127.5052,50.7733],[-128.077,50.8703],[-128.4172,50.7719],[-128.3198,50.6098],[-127.1219,49.8577],[-126.7829,49.9425],[-126.2881,49.3627],[-126.0551,49.4453],[-125.8717,49.0902],[-125.4606,48.9207],[-124.847,49.0205],[-125.1852,48.801],[-124.6654,48.5732],[-123.5506,48.3131],[-123.3212,48.4958]]]]}},{"type":"Feature","id":"label-CAN-633","properties":{"kind":"division-label","code":"CAN-633","countryCode":"CAN","name":"British Columbia","localName":"British Columbia","labelEnglish":"British Columbia","labelLocal":"British Columbia","labelBoth":"British Columbia","type":"Province","iso":"CA-BC","qid":"Q1974"},"geometry":{"type":"Point","coordinates":[-124.662,54.6943]}},{"type":"Feature","id":"CAN-632","properties":{"kind":"division","code":"CAN-632","countryCode":"CAN","name":"Alberta","localName":"Alberta","labelEnglish":"Alberta","labelLocal":"Alberta","labelBoth":"Alberta","type":"Province","iso":"CA-AB","qid":"Q1951"},"geometry":{"type":"Polygon","coordinates":[[[-109.9993,48.9926],[-110,51.4063],[-110,53.1251],[-110,55.1876],[-110,56.9063],[-110,57.9376],[-110,60.0001],[-113.1249,60.0001],[-116.25,60.0001],[-120,60.0001],[-120,58.5231],[-120,56.8742],[-120,55.7117],[-120.001,53.8228],[-119.7567,53.4146],[-119.2778,53.2082],[-118.757,53.1215],[-118.3062,52.6775],[-118.2113,52.3667],[-118.0119,52.4851],[-117.5908,52.1304],[-117.3063,52.1671],[-116.9377,51.7199],[-116.685,51.8094],[-116.0181,51.1424],[-115.6467,50.852],[-114.7751,50.3541],[-114.6248,49.7802],[-114.7383,49.5809],[-114.0638,48.9925],[-111.4429,48.9926],[-109.9993,48.9926]]]}},{"type":"Feature","id":"label-CAN-632","properties":{"kind":"division-label","code":"CAN-632","countryCode":"CAN","name":"Alberta","localName":"Alberta","labelEnglish":"Alberta","labelLocal":"Alberta","labelBoth":"Alberta","type":"Province","iso":"CA-AB","qid":"Q1951"},"geometry":{"type":"Point","coordinates":[-115,55.2816]}},{"type":"Feature","id":"CAN-631","properties":{"kind":"division","code":"CAN-631","countryCode":"CAN","name":"Saskatchewan","localName":"Saskatchewan","labelEnglish":"Saskatchewan","labelLocal":"Saskatchewan","labelBoth":"Saskatchewan","type":"Province","iso":"CA-SK","qid":"Q1989"},"geometry":{"type":"Polygon","coordinates":[[[-104.0476,48.9926],[-101.3643,48.9927],[-101.5013,50.4598],[-101.6812,52.3882],[-101.8811,54.5309],[-102.0011,55.8165],[-102.0013,57.2747],[-102.0014,58.4102],[-102.0016,60.0001],[-104.5011,60.0001],[-106.5007,60.0001],[-110,60.0001],[-110,57.9376],[-110,56.9063],[-110,55.1876],[-110,53.1251],[-110,51.4063],[-109.9993,48.9926],[-108.1458,48.9926],[-106.6072,48.9926],[-104.0476,48.9926]]]}},{"type":"Feature","id":"label-CAN-631","properties":{"kind":"division-label","code":"CAN-631","countryCode":"CAN","name":"Saskatchewan","localName":"Saskatchewan","labelEnglish":"Saskatchewan","labelLocal":"Saskatchewan","labelBoth":"Saskatchewan","type":"Province","iso":"CA-SK","qid":"Q1989"},"geometry":{"type":"Point","coordinates":[-105.682,54.4965]}},{"type":"Feature","id":"CAN-630","properties":{"kind":"division","code":"CAN-630","countryCode":"CAN","name":"Manitoba","localName":"Manitoba","labelEnglish":"Manitoba","labelLocal":"Manitoba","labelBoth":"Manitoba","type":"Province","iso":"CA-MB","qid":"Q1948"},"geometry":{"type":"Polygon","coordinates":[[[-97.2261,48.9927],[-95.1771,48.9927],[-95.1606,49.3695],[-95.1539,51.5863],[-95.1538,52.8214],[-93.6202,53.7469],[-91.6863,55.1106],[-88.947,56.8532],[-89.827,56.976],[-90.5855,57.2299],[-91.0311,57.2646],[-92.7049,56.9554],[-92.4236,57.3544],[-93.1285,58.5284],[-93.1558,58.7444],[-93.7174,58.7922],[-94.4369,58.7238],[-94.8074,59.0181],[-94.7228,59.3423],[-94.8031,60.0001],[-97.9512,60.0001],[-100.2014,60.0001],[-102.0016,60.0001],[-102.0014,58.4102],[-102.0013,57.2747],[-102.0011,55.8165],[-101.8811,54.5309],[-101.6812,52.3882],[-101.5013,50.4598],[-101.3643,48.9927],[-99.7931,48.9927],[-97.2261,48.9927]]]}},{"type":"Feature","id":"label-CAN-630","properties":{"kind":"division-label","code":"CAN-630","countryCode":"CAN","name":"Manitoba","localName":"Manitoba","labelEnglish":"Manitoba","labelLocal":"Manitoba","labelBoth":"Manitoba","type":"Province","iso":"CA-MB","qid":"Q1948"},"geometry":{"type":"Point","coordinates":[-97.3828,54.85]}},{"type":"Feature","id":"CAN-682","properties":{"kind":"division","code":"CAN-682","countryCode":"CAN","name":"Ontario","localName":"Ontario","labelEnglish":"Ontario","labelLocal":"Ontario","labelBoth":"Ontario","type":"Province","iso":"CA-ON","qid":"Q1904"},"geometry":{"type":"MultiPolygon","coordinates":[[[[-89.499,47.9951],[-89.3404,47.9842],[-88.3473,48.2987],[-86.6371,47.6241],[-84.8787,46.8979],[-84.5894,46.4751],[-84.1104,46.5265],[-83.9646,46.0632],[-83.6139,46.1156],[-83.484,45.7719],[-82.5321,45.2935],[-82.1536,43.5496],[-82.4111,43.0513],[-82.5113,42.6467],[-83.1285,42.24],[-83.1309,41.938],[-82.7111,41.6802],[-82.4249,41.6768],[-81.2767,42.2087],[-80.5202,42.3238],[-79.763,42.5377],[-79.0194,42.8027],[-79.0538,43.2604],[-79.1743,43.4645],[-78.6881,43.6318],[-76.8415,43.6255],[-76.4546,44.0842],[-75.2702,44.8638],[-74.713,44.9993],[-74.3462,45.2206],[-74.3935,45.5727],[-74.6437,45.6561],[-75.2836,45.5767],[-75.882,45.3995],[-76.6475,45.5808],[-76.7973,45.8755],[-76.9637,45.7884],[-77.6584,46.1839],[-78.694,46.3365],[-78.9641,46.533],[-79.4313,47.087],[-79.5165,47.5657],[-79.5208,49.337],[-79.5208,50.9429],[-80.1083,51.2961],[-80.4298,51.3572],[-80.5949,51.7114],[-80.9791,52.0018],[-81.3906,52.1278],[-81.5638,52.4562],[-82.3012,52.9676],[-82.1185,53.2773],[-82.126,53.8122],[-82.4309,54.2282],[-82.2014,54.8339],[-82.2523,55.1179],[-83.658,55.2486],[-83.9291,55.3265],[-84.6131,55.2452],[-85.4392,55.4284],[-85.6964,55.6038],[-87.579,56.0462],[-87.9796,56.4429],[-88.947,56.8532],[-91.6863,55.1106],[-93.6202,53.7469],[-95.1538,52.8214],[-95.1539,51.5863],[-95.1606,49.3695],[-94.8273,49.2929],[-94.7109,48.8075],[-93.7568,48.5165],[-93.2577,48.6303],[-92.6486,48.5363],[-92.3846,48.2324],[-92.0434,48.3346],[-91.4279,48.0364],[-90.9232,48.2271],[-90.7865,48.1005],[-90.1786,48.1164],[-89.499,47.9951]]],[[[-79.5208,50.9655],[-79.5208,51.4667],[-79.7471,51.1955],[-79.5208,50.9655]]]]}},{"type":"Feature","id":"label-CAN-682","properties":{"kind":"division-label","code":"CAN-682","countryCode":"CAN","name":"Ontario","localName":"Ontario","labelEnglish":"Ontario","labelLocal":"Ontario","labelBoth":"Ontario","type":"Province","iso":"CA-ON","qid":"Q1904"},"geometry":{"type":"Point","coordinates":[-84.7943,50.5244]}},{"type":"Feature","id":"CAN-683","properties":{"kind":"division","code":"CAN-683","countryCode":"CAN","name":"Quebec","localName":"Quebec","labelEnglish":"Quebec","labelLocal":"Quebec","labelBoth":"Quebec","type":"Province","iso":"CA-QC","qid":"Q176"},"geometry":{"type":"MultiPolygon","coordinates":[[[[-73.3513,45.0046],[-71.5058,45.0137],[-71.3343,45.2887],[-71.085,45.3043],[-70.9069,45.2462],[-70.6868,45.5727],[-70.4074,45.7315],[-70.0078,46.7041],[-69.2676,47.4398],[-69.0636,47.2908],[-68.3868,47.5583],[-68.3779,47.9283],[-67.6128,47.9975],[-67.4071,47.8771],[-66.843,47.9968],[-66.5154,48.1081],[-66.0956,48.0972],[-65.8957,48.2255],[-65.4322,48.0033],[-64.7794,48.204],[-64.3596,48.413],[-64.1688,48.7618],[-64.5526,49.0974],[-64.9635,49.2193],[-65.5658,49.2665],[-66.6221,49.1226],[-68.2056,48.6419],[-69.0544,48.2324],[-70.0311,47.4696],[-70.5349,47.0106],[-71.1579,46.8408],[-71.3025,46.7452],[-71.7142,46.6322],[-71.8457,46.6683],[-72.731,46.1766],[-73.1398,46.0583],[-73.5573,45.4143],[-74.713,44.9993],[-73.3513,45.0046]]],[[[-79.5208,50.9429],[-79.5208,49.337],[-79.5165,47.5657],[-79.4313,47.087],[-78.9641,46.533],[-78.694,46.3365],[-77.6584,46.1839],[-76.9637,45.7884],[-76.7973,45.8755],[-76.6475,45.5808],[-75.882,45.3995],[-75.2836,45.5767],[-74.6437,45.6561],[-74.3935,45.5727],[-74.3462,45.2206],[-73.9615,45.3542],[-74.0434,45.484],[-73.4954,45.7279],[-72.9945,46.2108],[-72.6025,46.3013],[-71.8805,46.6907],[-71.354,46.739],[-70.9569,47.0207],[-70.715,47.1176],[-70.4869,47.4448],[-70.2369,47.4956],[-69.932,47.7731],[-69.736,48.1225],[-69.4466,48.2962],[-69.0696,48.7562],[-68.5951,49.0548],[-68.1811,49.1245],[-68.0546,49.2944],[-67.3763,49.3392],[-67.1315,49.8313],[-66.4131,50.2642],[-66.0875,50.1925],[-65.2583,50.3223],[-64.8883,50.2745],[-63.7222,50.3043],[-61.8632,50.2302],[-61.7179,50.1],[-60.8356,50.2563],[-60.1349,50.213],[-59.8273,50.3281],[-59.098,50.812],[-58.9639,51.0081],[-58.4537,51.3166],[-57.9777,51.3297],[-57.6859,51.4804],[-57.1003,51.419],[-57.101,52.0001],[-59.2993,51.9999],[-61.678,51.9999],[-63.7387,51.9998],[-63.7734,52.3351],[-64.0812,52.4734],[-63.3842,52.6732],[-63.6052,52.7855],[-64.1073,52.7202],[-64.2793,51.74],[-64.5304,51.5921],[-64.7711,51.764],[-65.1838,51.7744],[-65.5003,52.0977],[-65.9921,52.0598],[-66.3016,52.2868],[-66.4254,53.0366],[-66.8657,52.6617],[-67.3025,52.8681],[-67.385,53.1054],[-66.9964,53.0813],[-66.8898,53.4149],[-67.3231,53.5663],[-67.8081,54.034],[-67.7496,54.4261],[-67.4985,54.5946],[-67.2681,54.4846],[-67.0858,54.7322],[-67.4351,55.0635],[-66.7013,54.7402],[-66.7009,55.2206],[-65.8487,54.897],[-65.698,54.7228],[-65.1028,54.9568],[-64.1135,54.6308],[-63.6053,54.9022],[-63.3375,55.4123],[-63.7383,55.4396],[-63.8403,55.9133],[-63.4506,56.0122],[-64.0103,56.0698],[-64.1454,56.4361],[-63.8746,56.4516],[-64.1241,56.6895],[-63.8716,56.8906],[-63.6959,57.659],[-64.0539,57.7679],[-64.3896,58.1877],[-63.8182,58.486],[-64.0286,58.6823],[-63.5336,58.7235],[-63.7263,58.8785],[-64.1263,58.7525],[-64.5383,59.2856],[-64.4141,59.5291],[-64.8934,59.5647],[-64.5314,60.3039],[-64.8488,60.3657],[-65.0665,59.9776],[-65.5463,59.7313],[-65.3718,59.2801],[-65.7427,59.2679],[-65.6425,59.0733],[-66.1086,58.7791],[-66.3824,58.8536],[-66.6354,58.4909],[-66.9466,58.4984],[-67.6624,58.116],[-67.6754,58.4234],[-68.191,58.5464],[-68.3616,58.7835],[-68.7869,58.9225],[-69.2563,58.8992],[-69.7957,58.5985],[-69.9212,58.7791],[-69.4516,58.8952],[-69.6271,59.3067],[-69.5615,59.8647],[-69.7698,59.9711],[-69.6024,60.2247],[-69.829,60.5257],[-69.3813,60.7999],[-69.5366,61.0797],[-69.9387,60.8402],[-70.1102,61.0601],[-70.4575,61.0296],[-71.3714,61.1495],[-71.8916,61.437],[-71.652,61.6498],[-71.9952,61.6771],[-72.6052,61.9437],[-72.6291,62.1169],[-73.0622,62.1876],[-73.6707,62.4821],[-74.7703,62.1575],[-75.5922,62.2668],[-77.4908,62.5883],[-78.1549,62.2973],[-78.0848,61.888],[-77.5455,61.4853],[-77.7853,61.4547],[-77.8124,61.0881],[-78.1655,60.8684],[-77.5469,60.5474],[-77.7423,60.4258],[-77.2363,60.005],[-77.2916,59.7995],[-77.7987,59.6828],[-77.8192,59.293],[-78.5454,58.902],[-78.5733,58.6755],[-77.6007,58.2713],[-77.0793,57.9615],[-76.5893,57.2713],[-76.5037,56.7838],[-76.6587,56.073],[-77.1129,55.6754],[-77.7816,55.2735],[-78.3922,55.0275],[-79.7656,54.6528],[-79.3821,54.1941],[-78.9796,54.0192],[-79.1146,53.5089],[-78.9432,53.3819],[-78.9842,53.0284],[-78.4996,52.3558],[-78.5913,52.1061],[-79.0388,51.7685],[-78.7924,51.6108],[-78.9198,51.233],[-79.3232,51.667],[-79.5208,51.4667],[-79.5208,50.9655],[-79.5208,50.9429]]],[[[-73.4993,45.7099],[-73.9736,45.4446],[-73.5414,45.4826],[-73.4993,45.7099]]],[[[-64.3192,49.7912],[-63.9252,49.6749],[-63.5868,49.39],[-63.0933,49.2329],[-62.2482,49.0679],[-61.707,49.0976],[-61.8826,49.3545],[-62.5342,49.6047],[-63.3747,49.8294],[-64.1328,49.9501],[-64.3192,49.7912]]]]}},{"type":"Feature","id":"label-CAN-683","properties":{"kind":"division-label","code":"CAN-683","countryCode":"CAN","name":"Quebec","localName":"Quebec","labelEnglish":"Quebec","labelLocal":"Quebec","labelBoth":"Quebec","type":"Province","iso":"CA-QC","qid":"Q176"},"geometry":{"type":"Point","coordinates":[-73.7168,52.2593]}},{"type":"Feature","id":"CAN-684","properties":{"kind":"division","code":"CAN-684","countryCode":"CAN","name":"New Brunswick","localName":"New Brunswick","labelEnglish":"New Brunswick","labelLocal":"New Brunswick","labelBoth":"New Brunswick","type":"Province","iso":"CA-NB","qid":"Q1965"},"geometry":{"type":"Polygon","coordinates":[[[-67.176,45.1787],[-66.8889,45.0607],[-65.9094,45.2103],[-64.7563,45.6278],[-64.5724,45.8607],[-64.2734,45.8357],[-64.0427,45.992],[-63.7711,46.1152],[-64.514,46.2394],[-64.9058,46.8869],[-64.8254,47.0891],[-65.3675,47.0878],[-64.8678,47.4857],[-64.8263,47.8155],[-65.2093,47.8197],[-65.6288,47.6706],[-65.8179,47.9074],[-66.3859,48.0751],[-66.843,47.9968],[-67.4071,47.8771],[-67.6128,47.9975],[-68.3779,47.9283],[-68.3868,47.5583],[-69.0636,47.2908],[-68.9062,47.1902],[-68.197,47.3414],[-67.8052,47.0356],[-67.8001,45.6998],[-67.45,45.6108],[-67.475,45.2824],[-67.176,45.1787]]]}},{"type":"Feature","id":"label-CAN-684","properties":{"kind":"division-label","code":"CAN-684","countryCode":"CAN","name":"New Brunswick","localName":"New Brunswick","labelEnglish":"New Brunswick","labelLocal":"New Brunswick","labelBoth":"New Brunswick","type":"Province","iso":"CA-NB","qid":"Q1965"},"geometry":{"type":"Point","coordinates":[-66.4558,46.5822]}},{"type":"Feature","id":"CAN-636","properties":{"kind":"division","code":"CAN-636","countryCode":"CAN","name":"Yukon","localName":"Yukon","labelEnglish":"Yukon","labelLocal":"Yukon","labelBoth":"Yukon","type":"Territory","iso":"CA-YT","qid":"Q2009"},"geometry":{"type":"Polygon","coordinates":[[[-141.0056,69.6509],[-141.0047,67.7558],[-141.0042,66.5896],[-141.0031,64.5487],[-141.0026,63.3825],[-141.0018,61.6331],[-141.0012,60.3211],[-140.0158,60.1874],[-139.6283,60.3341],[-139.1016,60.3466],[-139.0602,60.0001],[-135.2434,60.0001],[-132.3874,60.0001],[-128.5793,60.0001],[-126.1992,60.0001],[-123.8191,60.0001],[-124.6197,60.6821],[-124.5986,60.9645],[-125.3218,60.7879],[-126.8845,60.7819],[-127.1457,61.4652],[-127.9728,61.6887],[-128.5466,62.1218],[-129.13,62.1161],[-129.1716,62.4791],[-129.7645,62.8516],[-129.6138,63.0722],[-130.1294,63.3165],[-129.8228,63.4779],[-130.098,63.7823],[-130.7399,63.9734],[-131.1456,64.4241],[-131.8186,64.3775],[-131.6817,64.5212],[-132.5691,64.775],[-132.3344,65.0315],[-132.6467,65.2743],[-132.1822,65.5835],[-132.5615,66.0293],[-133.4246,65.9443],[-133.8191,66.3102],[-133.6006,66.5593],[-134.0301,66.9866],[-136.1622,67.0037],[-136.1161,67.3773],[-136.4448,67.7256],[-136.4449,68.9099],[-137.1912,68.9479],[-138.0955,69.1401],[-139.1438,69.5137],[-141.0056,69.6509]]]}},{"type":"Feature","id":"label-CAN-636","properties":{"kind":"division-label","code":"CAN-636","countryCode":"CAN","name":"Yukon","localName":"Yukon","labelEnglish":"Yukon","labelLocal":"Yukon","labelBoth":"Yukon","type":"Territory","iso":"CA-YT","qid":"Q2009"},"geometry":{"type":"Point","coordinates":[-135.7,63.6088]}},{"type":"Feature","id":"CAN-634","properties":{"kind":"division","code":"CAN-634","countryCode":"CAN","name":"Nunavut","localName":"Nunavut","labelEnglish":"Nunavut","labelLocal":"Nunavut","labelBoth":"Nunavut","type":"Territory","iso":"CA-NU","qid":"Q2023"},"geometry":{"type":"MultiPolygon","coordinates":[[[[-94.8031,60.0001],[-94.3516,60.8581],[-93.8336,61.3283],[-93.985,61.458],[-93.2462,61.7838],[-93.3367,61.8966],[-92.7092,62.2764],[-92.7183,62.4647],[-91.9835,62.5316],[-92.4539,62.7939],[-92.1348,62.8769],[-91.442,62.7869],[-90.6436,63.0689],[-90.7847,63.3977],[-92.1,63.6993],[-93.7659,63.9935],[-93.4789,64.0339],[-92.3738,63.7791],[-90.9745,63.5787],[-90.2594,63.6079],[-89.8127,63.9602],[-89.7864,64.2502],[-88.7346,63.9724],[-87.9817,64.1915],[-86.9382,65.142],[-87.0469,65.238],[-89.0399,65.3282],[-89.9581,65.7943],[-91.0705,65.9285],[-89.688,65.9468],[-87.9275,65.3334],[-87.3808,65.3297],[-86.4747,65.734],[-85.8567,66.1628],[-86.791,66.4289],[-86.3265,66.5528],[-85.4161,66.567],[-85.2678,66.2869],[-84.3817,66.1901],[-84.6367,66.3439],[-83.6908,66.1992],[-84.4115,66.8859],[-83.3694,66.3503],[-82.6335,66.5633],[-81.9549,66.9768],[-81.5274,66.996],[-81.2379,67.4605],[-82.0882,67.8995],[-82.47,68.4848],[-82.0166,68.4339],[-81.2665,68.6387],[-81.8146,68.9138],[-81.3447,69.1949],[-82.1435,69.2979],[-82.6164,69.6467],[-83.7541,69.7117],[-84.3398,69.8597],[-85.3202,69.847],[-85.5441,69.6535],[-85.3468,69.2009],[-84.5282,69.0236],[-85.6681,68.727],[-85.9017,68.0544],[-86.5293,67.6872],[-86.5019,67.3794],[-87.3728,67.2416],[-88.2486,67.776],[-88.4068,68.2769],[-87.7922,68.3312],[-88.0226,68.8087],[-88.942,69.2336],[-89.6722,69.0445],[-89.7159,68.6462],[-90.2708,68.2421],[-90.6035,68.4408],[-90.4412,68.8701],[-91.2542,69.2987],[-90.4369,69.4932],[-91.11,69.5133],[-91.426,69.6684],[-91.7983,69.4897],[-92.8684,69.702],[-91.9429,70.0241],[-92.5311,70.0776],[-91.9586,70.2578],[-92.4159,70.6678],[-92.9459,70.8174],[-92.9906,71.3571],[-94.2108,71.7923],[-94.4031,71.6649],[-94.5487,72.0021],[-95.2252,71.9495],[-95.302,71.7205],[-95.9445,71.5522],[-95.4647,71.484],[-96.4471,71.2989],[-96.6164,70.8258],[-96.1903,70.6247],[-96.5615,70.3153],[-96.2058,69.8658],[-94.3222,69.453],[-94.1495,69.0646],[-94.6361,68.756],[-94.1099,68.7591],[-93.9093,68.9957],[-93.5462,68.5643],[-94.203,68.3738],[-94.861,68.0309],[-95.4503,68.0718],[-95.6957,67.7115],[-95.1754,67.2896],[-95.2952,66.904],[-95.735,67.3765],[-96.4596,67.4748],[-95.8967,68.2967],[-97.0806,68.2657],[-97.2604,68.4687],[-97.9796,68.5471],[-97.7476,68.3687],[-98.7181,68.3676],[-98.0589,67.9169],[-97.6932,68.0227],[-97.1201,67.7794],[-97.5579,67.5954],[-98.361,67.8113],[-100.717,67.847],[-101.5294,67.6804],[-102.3059,67.7233],[-103.5438,68.0714],[-104.4839,68.0339],[-104.602,68.2353],[-105.527,68.4103],[-105.4696,68.722],[-106.2721,68.9069],[-107.7531,68.646],[-108.2808,68.6216],[-108.8151,68.2742],[-107.6413,68.1662],[-106.522,68.5267],[-105.6483,68.6387],[-105.7476,68.421],[-106.4457,68.3513],[-106.7582,68.105],[-107.8795,68.093],[-107.6873,67.9112],[-107.9896,67.6933],[-107.5858,67.5012],[-107.7587,67.0089],[-107.5635,66.5946],[-107.2415,66.3485],[-108.5267,67.0415],[-107.8854,67.0482],[-107.9925,67.2825],[-108.8241,67.3572],[-109.0746,67.722],[-110.3426,67.9684],[-110.8218,67.817],[-112.421,67.6824],[-113.8588,67.6962],[-115.5338,67.9344],[-115.112,68.0162],[-114.9686,68.2831],[-114.0152,68.2527],[-113.9054,68.3998],[-115.035,68.8751],[-115.9412,69.0031],[-115.9712,68.8093],[-118.0409,69.0246],[-118.6664,69.2255],[-120.2786,69.4078],[-120.6808,69.5567],[-120.6808,68.0156],[-119.7591,67.723],[-116.5936,66.7536],[-114.4137,66.086],[-112.5039,65.5013],[-110.7058,65.5009],[-109.5798,64.9327],[-108.9729,64.7782],[-105.1905,64.4849],[-101.9991,64.2274],[-102.0049,63.1807],[-102.0029,61.2201],[-102.0016,60.0001],[-100.2014,60.0001],[-97.9512,60.0001],[-94.8031,60.0001]]],[[[-101.694,68.7703],[-102.3519,68.6872],[-101.8662,68.5725],[-101.694,68.7703]]],[[[-100.2068,68.8039],[-100.4041,69.0297],[-100.6313,68.7971],[-100.2068,68.8039]]],[[[-95.2149,68.8622],[-95.8455,68.8906],[-96.0677,69.2353],[-97.9252,69.8959],[-98.6079,69.4427],[-98.3932,69.3181],[-99.5908,69.0148],[-97.4645,68.5352],[-96.5205,68.4476],[-95.2149,68.8622]]],[[[-110.0037,72.7104],[-110.0037,72.6273],[-110.0037,72.5238],[-110.0037,72.4966],[-110.0037,72.4581],[-110,70.0001],[-112.8988,70.0001],[-117.1237,70.0012],[-116.8558,69.6476],[-115.9748,69.3002],[-114.3973,69.2882],[-113.6931,69.1949],[-113.6555,68.8005],[-113.3505,68.5915],[-112.5833,68.5097],[-110.9801,68.5484],[-108.9516,68.7424],[-108.5395,68.947],[-107.3348,69.0256],[-106.5839,69.5036],[-106.4121,69.1881],[-104.9171,69.0479],[-103.4473,68.7895],[-101.9645,68.9696],[-101.7716,69.1938],[-102.0548,69.4844],[-102.8368,69.3869],[-103.5101,69.6195],[-102.7838,69.5369],[-102.1794,69.9018],[-101.6735,69.6467],[-100.8722,69.8078],[-101.0607,70.1961],[-101.5294,70.1129],[-102.8511,70.5163],[-103.9701,70.751],[-104.6478,71.1197],[-104.2824,71.364],[-105.0389,72.114],[-105.3672,72.7924],[-106.8734,73.3156],[-107.1724,73.195],[-108.0876,73.3542],[-107.9852,72.5181],[-107.7792,72.1413],[-107.2722,71.909],[-107.7245,71.6348],[-108.6631,72.361],[-108.6334,72.5656],[-110.0037,72.9851],[-110.0037,72.7554],[-110.0037,72.7104]]],[[[-72.949,66.7346],[-74.4722,66.1486],[-73.6532,65.7203],[-73.4744,65.4596],[-74.0511,65.5367],[-75.2154,65.2541],[-75.9491,65.3225],[-75.4523,65.0786],[-76.6769,65.4111],[-77.4357,65.4596],[-77.3128,65.2001],[-78.144,64.9573],[-78.1966,64.6514],[-77.854,64.3703],[-77.3508,64.2411],[-76.1881,64.3014],[-75.793,64.617],[-74.681,64.3778],[-74.0498,64.7259],[-73.9332,64.6033],[-73.1804,64.5758],[-73.4819,64.4051],[-72.9056,64.1656],[-72.6662,63.8564],[-72.2418,63.9594],[-72.023,63.6761],[-71.5498,63.7123],[-71.2772,63.5661],[-71.6862,63.4244],[-71.7135,63.1779],[-70.2403,62.7541],[-69.3908,62.7521],[-69.5868,62.6577],[-68.5537,62.2497],[-67.3378,62.14],[-66.2745,61.8581],[-65.93,62.1978],[-67.5369,63.045],[-68.1469,63.1606],[-68.9902,63.7404],[-68.7308,63.7772],[-67.8195,63.5924],[-66.7728,63.0991],[-65.2447,62.7801],[-65.2853,62.9841],[-64.6278,62.9111],[-65.0993,63.5495],[-64.9503,63.6386],[-64.5368,63.2552],[-64.5048,63.6441],[-64.9295,63.7777],[-64.6467,63.9755],[-65.5259,64.3293],[-65.0942,64.4197],[-65.6911,64.488],[-65.5828,64.7568],[-66.6822,65.0442],[-66.684,64.8096],[-67.2731,65.6452],[-67.869,65.6452],[-68.2054,65.796],[-68.5238,66.2069],[-67.9726,66.0834],[-67.9228,65.9032],[-67.1701,65.9326],[-67.8766,66.4638],[-67.1291,66.3168],[-67.3786,66.5492],[-66.8616,66.5427],[-65.9591,66.1147],[-65.3931,65.9822],[-65.4538,65.6793],[-64.5571,65.0932],[-63.8021,65.1645],[-63.5241,64.903],[-63.3238,65.2215],[-63.6551,65.467],[-63.1962,65.6337],[-62.7471,65.59],[-62.7925,65.867],[-61.9542,66.0198],[-62.5385,66.2274],[-61.4622,66.3714],[-61.3011,66.6777],[-62.0041,67.0368],[-63.3491,66.8907],[-63.1636,67.3376],[-64.0214,67.213],[-63.9971,67.4538],[-64.3787,67.7724],[-65.1069,67.8449],[-64.7196,67.9852],[-65.4468,67.9939],[-66.6932,68.1455],[-67.3565,68.3574],[-66.8937,68.4224],[-68.3785,68.601],[-68.0477,68.6872],[-69.1507,68.8312],[-67.7734,68.784],[-67.7355,69.0401],[-69.0135,69.3594],[-67.678,69.1772],[-66.6688,69.1846],[-67.2276,69.4643],[-68.0051,69.462],[-68.7261,69.6467],[-68.0131,69.7761],[-67.1155,69.7287],[-67.2495,69.9634],[-68.0546,70.3251],[-68.1911,70.1266],[-69.4803,69.8187],[-68.6436,70.147],[-69.6832,70.1396],[-68.4874,70.3692],[-68.3623,70.5843],[-69.5903,70.7734],[-70.0409,70.5966],[-69.915,70.8799],[-70.9853,70.6337],[-70.5164,70.9371],[-70.7872,71.1146],[-71.3228,70.8872],[-72.3373,70.7578],[-72.0451,71.0848],[-71.445,71.0735],[-71.1171,71.2705],[-71.5819,71.5151],[-72.4726,71.6473],[-73.0499,71.2705],[-73.5964,71.7639],[-74.6346,71.6551],[-74.2368,72.0761],[-75.2818,72.1241],[-74.9417,72.2574],[-75.1984,72.4976],[-77.601,72.7558],[-78.4431,72.587],[-78.8751,72.2307],[-78.7189,71.9233],[-79.2307,71.9763],[-78.9505,72.2758],[-79.8188,72.5064],[-80.4829,72.1807],[-80.2455,72.7378],[-80.6428,73.1698],[-81.1335,73.2471],[-81.5284,73.7162],[-82.8311,73.7367],[-85.193,73.2313],[-85.7025,72.6347],[-85.0358,72.2547],[-85.9875,72.0314],[-85.2579,71.6684],[-84.7132,71.682],[-84.5283,71.4731],[-84.8568,71.1597],[-85.9747,71.175],[-84.8581,71.2761],[-86.1276,71.7943],[-86.4604,72.2034],[-86.2534,72.3946],[-86.6986,72.8161],[-86.0303,73.3024],[-84.952,73.6677],[-85.1057,73.812],[-86.7142,73.8474],[-87.7645,73.7167],[-88.6875,73.423],[-89.3119,73.0463],[-89.963,72.2574],[-89.5782,72.1624],[-90.1047,71.9163],[-89.7979,71.7646],[-89.8134,71.329],[-88.067,71.2128],[-87.2824,71.0093],[-88.3249,70.9584],[-89.5577,71.093],[-88.6941,70.465],[-87.8794,70.3183],[-86.8582,70.3251],[-85.7829,69.9952],[-85.8004,70.0998],[-83.6728,69.9464],[-83.0516,70.0105],[-82.1435,69.8249],[-81.6,69.9774],[-80.9293,69.7148],[-81.1932,70.0008],[-81.7624,70.1229],[-79.9061,69.9831],[-79.6809,69.8486],[-78.6651,70.0138],[-78.9707,70.3251],[-79.5651,70.3902],[-79.0799,70.5381],[-78.3891,70.2164],[-77.6826,70.1837],[-77.6827,69.8249],[-76.8891,69.8017],[-77.2029,69.6467],[-75.6874,69.2871],[-75.621,69.088],[-76.6381,69.0159],[-76.625,68.6824],[-75.6065,68.8858],[-75.4864,69.022],[-74.6848,68.8798],[-74.5232,68.6108],[-73.8852,68.5549],[-73.9474,68.4135],[-72.9946,68.2359],[-72.944,67.9323],[-72.6189,67.7955],[-72.3509,67.1195],[-72.8035,67.043],[-72.949,66.7346]]],[[[-67.8808,60.4968],[-68.2413,60.5856],[-68.439,60.2593],[-67.9728,60.2903],[-67.8808,60.4968]]],[[[-64.8406,61.3515],[-64.717,61.6635],[-65.4858,61.5993],[-64.8406,61.3515]]],[[[-79.2825,62.2699],[-79.8308,62.4108],[-80.215,62.1377],[-80.1804,61.7743],[-79.7502,61.5859],[-79.326,61.9884],[-79.2825,62.2699]]],[[[-70.2406,62.6156],[-70.4925,62.767],[-71.2082,62.8887],[-70.7405,62.5576],[-70.2406,62.6156]]],[[[-82.1913,62.9862],[-83.1189,62.8472],[-83.2965,62.9309],[-83.907,62.4914],[-83.673,62.1451],[-83.1346,62.1766],[-81.9569,62.6977],[-81.8624,62.9248],[-82.1913,62.9862]]],[[[-77.538,63.2878],[-78.1863,63.4932],[-78.5317,63.3902],[-77.9408,63.0871],[-77.538,63.2878]]],[[[-76.6889,63.4858],[-77.1203,63.685],[-77.4183,63.5906],[-76.9821,63.4073],[-76.6889,63.4858]]],[[[-80.1833,63.7676],[-80.5219,63.9697],[-81.6272,64.1236],[-81.7713,64.512],[-82.366,64.768],[-83.2084,64.9477],[-83.3977,65.1366],[-84.0985,65.2095],[-84.5774,65.4894],[-84.848,65.2135],[-85.3165,65.5415],[-85.0524,65.6142],[-85.4865,65.9241],[-85.9389,65.7632],[-86.1739,65.2865],[-86.1593,64.9394],[-86.4194,64.5969],[-86.1929,64.1034],[-86.8959,63.9302],[-87.1754,63.585],[-85.617,63.6749],[-85.6352,63.2431],[-85.2739,63.1234],[-84.5902,63.3151],[-84.2842,63.6268],[-83.6492,63.7651],[-83.6853,64.0141],[-83.0137,64.1916],[-83.0592,63.9543],[-82.5339,63.973],[-82.4818,63.6852],[-82.0746,63.6918],[-81.0189,63.4503],[-80.1833,63.7676]]],[[[-85.0011,66.0076],[-85.1127,65.7621],[-84.5741,65.6356],[-85.0011,66.0076]]],[[[-84.4735,66.0902],[-84.1427,65.7668],[-83.6927,65.9257],[-84.4735,66.0902]]],[[[-73.3583,67.8381],[-73.5218,68.0096],[-74.756,68.0634],[-74.4023,67.7789],[-73.3583,67.8381]]],[[[-86.5771,68.2906],[-86.9857,68.0674],[-86.8366,67.7918],[-86.4127,67.8449],[-86.5771,68.2906]]],[[[-75.0335,68.1733],[-75.9112,68.3446],[-76.6889,68.2626],[-77.3227,67.708],[-76.9816,67.2433],[-75.8893,67.258],[-75.0651,67.5524],[-75.0335,68.1733]]],[[[-74.838,68.4202],[-75.2389,68.7248],[-75.4115,68.5228],[-74.838,68.4202]]],[[[-79.0798,68.879],[-78.4567,69.2291],[-78.6074,69.373],[-79.423,68.9274],[-79.0798,68.879]]],[[[-76.6923,69.4109],[-77.3268,69.4171],[-76.9217,69.1267],[-76.6923,69.4109]]],[[[-79.9711,69.6331],[-79.6724,69.8204],[-80.7184,69.756],[-80.3342,69.5581],[-79.9711,69.6331]]],[[[-71.508,71.0173],[-72.0116,71.0522],[-72.1182,70.8254],[-71.508,71.0173]]],[[[-104.6809,73.6298],[-105.1671,73.7567],[-106.5996,73.7106],[-107.0393,73.4844],[-106.5088,73.4141],[-105.2983,72.8532],[-104.5727,73.3322],[-104.6809,73.6298]]],[[[-80.9034,73.6074],[-80.7713,73.2791],[-80.1638,73.2334],[-79.9486,72.8475],[-79.1754,72.7546],[-78.1709,72.8986],[-76.319,72.8167],[-76.2433,73.0935],[-77.2135,73.5108],[-78.1385,73.6689],[-79.4503,73.6353],[-80.4462,73.7735],[-80.9034,73.6074]]],[[[-96.3213,72.4669],[-96.6161,72.752],[-97.0686,72.6142],[-97.256,72.9621],[-98.3486,73.0436],[-97.1505,73.3951],[-97.2604,73.8612],[-99.2184,73.7394],[-99.8027,73.937],[-100.0293,73.7656],[-100.8858,73.8321],[-100.9186,73.603],[-101.6256,73.4914],[-100.0497,72.9637],[-100.4483,72.7381],[-101.2962,72.7186],[-102.0462,73.0803],[-102.4848,73.0412],[-102.6142,72.6613],[-101.8401,72.3265],[-101.229,72.3354],[-99.8644,71.8594],[-99.2351,71.3496],[-98.7179,71.2717],[-98.0418,71.5312],[-96.5597,71.8398],[-96.3213,72.4669]]],[[[-99.2474,73.855],[-98.1434,73.8784],[-97.7252,74.1216],[-98.7525,74.0336],[-99.2474,73.855]]],[[[-90.291,73.9233],[-91.5724,74.0331],[-92.2713,73.9922],[-93.6676,74.1728],[-95.2486,74.0099],[-95.7254,73.6415],[-95.6689,72.8022],[-95.1981,72.5229],[-95.1453,71.9659],[-94.7495,72.0153],[-94.129,72.0246],[-93.4642,72.4634],[-94.1557,72.7713],[-92.3849,72.7099],[-91.8577,72.848],[-90.3732,73.7924],[-90.291,73.9233]]],[[[-103.6384,75.1995],[-104.4032,75.4326],[-104.9065,75.1241],[-104.2295,75.0189],[-103.6384,75.1995]]],[[[-93.4369,74.9443],[-93.4994,75.268],[-94.3939,75.6042],[-95.7915,75.501],[-96.4693,75.1944],[-95.8976,74.8259],[-94.7242,74.6318],[-93.6077,74.6542],[-93.4369,74.9443]]],[[[-102.8733,75.7661],[-101.9813,75.9517],[-103.0449,75.9062],[-102.8733,75.7661]]],[[[-103.8114,76.0336],[-102.5306,76.1572],[-102.7266,76.3156],[-104.312,76.2124],[-103.8114,76.0336]]],[[[-104.398,76.4687],[-104.3777,76.3249],[-103.0701,76.4646],[-104.0246,76.6705],[-104.398,76.4687]]],[[[-97.4249,75.5197],[-97.6651,76.4862],[-99.6409,76.6374],[-100.9882,76.5066],[-100.0218,76.308],[-100.4787,76.2338],[-99.8656,75.9079],[-101.8113,76.4588],[-102.1028,76.2208],[-101.833,75.9058],[-102.6877,75.678],[-102.6334,75.4981],[-99.8232,75.6562],[-100.7213,75.4377],[-100.3302,75.0141],[-98.035,75.0263],[-97.5688,75.1498],[-98.1647,75.3342],[-97.4249,75.5197]]],[[[-89.675,76.7326],[-90.568,76.7156],[-90.0648,76.4862],[-89.675,76.7326]]],[[[-110.0037,75.9114],[-110.0037,75.8787],[-109.102,75.7501],[-108.8964,75.4924],[-110.0037,75.5447],[-110.0037,74.8526],[-108.8242,75.0715],[-108.4166,74.9171],[-106.0089,75.0566],[-105.3905,75.6597],[-105.7599,75.9902],[-106.6068,76.0616],[-107.0461,75.889],[-108.4992,76.0405],[-108.0809,76.2869],[-109.1844,76.8219],[-110.0037,76.4862],[-110.0037,76.2264],[-109.308,76.1025],[-110.0037,75.9114]]],[[[-79.5602,74.9915],[-80.4434,75.0399],[-79.6285,75.1802],[-79.6498,75.4698],[-81.1131,75.7791],[-83.7362,75.8266],[-86.3951,75.4313],[-87.3656,75.6159],[-88.2125,75.4738],[-88.5799,75.6585],[-88.9174,75.4304],[-89.1977,75.7963],[-90.1882,76.0678],[-91.2436,76.164],[-89.3801,76.1845],[-89.2976,76.3005],[-90.9901,76.4514],[-90.5717,76.564],[-91.4411,76.6937],[-92.693,76.596],[-93.9188,76.939],[-95.7707,77.0767],[-96.8024,76.987],[-95.8233,76.3991],[-94.0676,76.2594],[-93.1283,76.3702],[-92.1846,75.8949],[-92.0044,75.6016],[-92.4721,75.2153],[-92.0185,74.7775],[-89.9486,74.5328],[-88.8693,74.6632],[-88.5283,74.8989],[-88.5178,74.5012],[-87.6436,74.4583],[-84.2583,74.5065],[-83.4935,74.5778],[-83.1283,74.8321],[-82.92,74.5515],[-81.7887,74.4584],[-80.1617,74.6238],[-79.5602,74.9915]]],[[[-89.6613,77.3564],[-90.3041,77.6294],[-91.1687,77.6175],[-91.1996,77.4079],[-90.0939,77.2041],[-89.6613,77.3564]]],[[[-104.3945,77.1925],[-105.503,77.7211],[-106.0772,77.7386],[-105.5363,77.3044],[-104.3945,77.1925]]],[[[-93.252,77.6444],[-93.608,77.7815],[-95.4442,77.8113],[-96.2355,77.7055],[-95.9876,77.4791],[-93.5015,77.4641],[-93.252,77.6444]]],[[[-102.4487,77.7399],[-100.9607,77.7285],[-101.6452,77.8903],[-102.4487,77.7399]]],[[[-110.0037,78.6869],[-110.0037,78.329],[-109.2595,78.4593],[-110.0037,78.6869]]],[[[-96.9103,77.7952],[-95.0607,77.9726],[-95.3699,78.2468],[-94.8279,78.3637],[-97.451,78.7971],[-98.1491,78.8187],[-98.4111,78.4941],[-97.8296,78.2265],[-96.8693,78.1372],[-97.7743,78.0416],[-96.9103,77.7952]]],[[[-105.6068,79.1036],[-104.0776,78.9863],[-103.4972,78.5065],[-104.641,78.5834],[-104.8196,78.3616],[-103.9465,78.2428],[-101.092,78.2056],[-100.61,77.864],[-99.0172,77.8938],[-99.8717,78.4389],[-99.5579,78.5987],[-101.6484,79.081],[-102.4208,79.0142],[-103.7216,79.3633],[-105.1568,79.2999],[-105.6068,79.1036]]],[[[-100.1522,79.998],[-98.8028,79.6758],[-98.706,79.967],[-99.7794,80.1508],[-100.1522,79.998]]],[[[-96.6231,80.0443],[-95.8537,79.6524],[-94.2934,79.7587],[-95.7554,79.4062],[-93.9298,79.2592],[-92.6063,79.4506],[-92.2903,79.1531],[-93.2291,79.1712],[-94.2716,78.9682],[-92.0044,78.2129],[-89.4552,78.1645],[-90.0062,78.6138],[-89.05,78.1817],[-88.2285,78.4636],[-88.2165,78.9529],[-87.5367,78.6716],[-86.5039,79.0687],[-84.9186,79.296],[-85.5638,79.5798],[-87.1593,79.5766],[-86.962,79.9088],[-87.7006,80.4126],[-89.04,80.1938],[-89.3249,80.5368],[-90.7098,80.7033],[-92.2369,81.2563],[-93.2577,81.3734],[-94.3959,81.2617],[-93.1558,81.0978],[-94.8631,81.0646],[-95.4997,80.808],[-94.5211,80.6049],[-96.027,80.5839],[-96.5683,80.2761],[-94.8457,80.0454],[-96.6231,80.0443]]],[[[-61.0855,82.3312],[-62.8411,82.5182],[-64.6967,82.9098],[-67.442,82.6584],[-66.4029,82.9432],[-69.617,82.9899],[-69.6875,83.1165],[-74.2,83.0021],[-76.1355,83.0537],[-77.1387,82.8669],[-81.5762,82.7912],[-82.7116,82.3815],[-80.0213,81.9676],[-82.9699,82.2984],[-85.7619,82.4675],[-85.3506,82.2903],[-87.9991,82.1053],[-89.3699,81.8196],[-91.0139,81.8423],[-91.9492,81.6323],[-89.5856,81.6323],[-90.4923,81.3708],[-88.4036,81.5865],[-90.3528,81.1737],[-89.8262,81.013],[-86.5219,81.1252],[-86.6992,81.0054],[-89.3864,80.8789],[-87.276,80.6318],[-86.1116,80.9929],[-86.7491,80.6045],[-84.397,80.51],[-81.2171,80.6277],[-79.6145,80.8276],[-78.1917,81.3052],[-76.8539,81.4553],[-78.8858,81.0118],[-78.8478,80.8577],[-76.5892,80.9024],[-79.9643,80.6113],[-78.0179,80.597],[-83.2056,80.3171],[-81.6617,79.9076],[-82.1709,79.8689],[-83.7879,80.2509],[-86.4377,80.32],[-86.4899,79.7698],[-85.021,79.6175],[-84.2793,78.9553],[-81.7717,78.8659],[-83.7456,78.8389],[-85.2461,78.9169],[-86.6099,78.8093],[-87.4825,78.452],[-87.4879,78.1272],[-85.4878,78.1167],[-85.6606,77.9501],[-84.761,77.5203],[-83.4225,77.6073],[-82.5135,77.9597],[-83.4662,77.3489],[-85.7818,77.5044],[-86.2156,77.7933],[-87.192,77.9045],[-88.181,77.8015],[-87.6812,77.3534],[-86.9129,77.267],[-88.2936,77.1363],[-89.5372,76.8568],[-89.6812,76.5749],[-88.9106,76.4105],[-88.5388,76.8165],[-88.4036,76.3937],[-87.401,76.4557],[-84.4102,76.3093],[-84.1973,76.6181],[-83.6946,76.4315],[-82.282,76.4005],[-80.9685,76.4802],[-80.6672,76.164],[-79.3477,76.2969],[-78.7742,76.5773],[-77.7708,76.6643],[-77.9154,76.9659],[-79.3756,76.9256],[-79.0065,77.1047],[-80.7799,77.3359],[-79.1332,77.2913],[-77.7368,77.6008],[-78.1829,77.9659],[-76.8807,77.905],[-75.5819,78.113],[-75.1077,78.3755],[-76.5005,78.5475],[-74.8023,78.5886],[-74.7738,78.8348],[-76.4412,78.8713],[-75.7808,78.982],[-77.9151,79.0559],[-76.1335,79.1241],[-74.4923,79.0367],[-74.4687,79.2272],[-77.3258,79.2674],[-77.4015,79.4531],[-75.9141,79.347],[-73.1739,79.5388],[-73.3833,79.7756],[-72.2317,79.6626],[-71.1424,79.7895],[-70.6482,80.1429],[-68.2794,80.7599],[-64.6921,81.3908],[-64.5461,81.5504],[-70.071,81.1621],[-66.6541,81.4999],[-65.375,81.7627],[-64.3726,81.725],[-62.2576,82.0235],[-61.0855,82.3312]]],[[[-80.7593,52.9192],[-81.1228,53.2022],[-81.8828,53.1799],[-82.0627,53.0228],[-80.6995,52.7001],[-80.7593,52.9192]]],[[[-79.5459,56.0438],[-79.4693,55.8794],[-79.0576,56.437],[-79.235,56.5515],[-80.0257,55.9003],[-79.5459,56.0438]]]]}},{"type":"Feature","id":"label-CAN-634","properties":{"kind":"division-label","code":"CAN-634","countryCode":"CAN","name":"Nunavut","localName":"Nunavut","labelEnglish":"Nunavut","labelLocal":"Nunavut","labelBoth":"Nunavut","type":"Territory","iso":"CA-NU","qid":"Q2023"},"geometry":{"type":"Point","coordinates":[-97.1443,64.3853]}},{"type":"Feature","id":"CAN-686","properties":{"kind":"division","code":"CAN-686","countryCode":"CAN","name":"Newfoundland and Labrador","localName":"Newfoundland and Labrador","labelEnglish":"Newfoundland and Labrador","labelLocal":"Newfoundland and Labrador","labelBoth":"Newfoundland and Labrador","type":"Province","iso":"CA-NL","qid":"Q2003"},"geometry":{"type":"MultiPolygon","coordinates":[[[[-64.5314,60.3039],[-64.8934,59.5647],[-64.4141,59.5291],[-64.5383,59.2856],[-64.1263,58.7525],[-63.7263,58.8785],[-63.5336,58.7235],[-64.0286,58.6823],[-63.8182,58.486],[-64.3896,58.1877],[-64.0539,57.7679],[-63.6959,57.659],[-63.8716,56.8906],[-64.1241,56.6895],[-63.8746,56.4516],[-64.1454,56.4361],[-64.0103,56.0698],[-63.4506,56.0122],[-63.8403,55.9133],[-63.7383,55.4396],[-63.3375,55.4123],[-63.6053,54.9022],[-64.1135,54.6308],[-65.1028,54.9568],[-65.698,54.7228],[-65.8487,54.897],[-66.7009,55.2206],[-66.7013,54.7402],[-67.4351,55.0635],[-67.0858,54.7322],[-67.2681,54.4846],[-67.4985,54.5946],[-67.7496,54.4261],[-67.8081,54.034],[-67.3231,53.5663],[-66.8898,53.4149],[-66.9964,53.0813],[-67.385,53.1054],[-67.3025,52.8681],[-66.8657,52.6617],[-66.4254,53.0366],[-66.3016,52.2868],[-65.9921,52.0598],[-65.5003,52.0977],[-65.1838,51.7744],[-64.7711,51.764],[-64.5304,51.5921],[-64.2793,51.74],[-64.1073,52.7202],[-63.6052,52.7855],[-63.3842,52.6732],[-64.0812,52.4734],[-63.7734,52.3351],[-63.7387,51.9998],[-61.678,51.9999],[-59.2993,51.9999],[-57.101,52.0001],[-57.1003,51.419],[-55.9342,51.9252],[-55.6848,52.1117],[-55.6476,52.4432],[-56.2182,52.5403],[-55.8021,52.5977],[-56.1625,52.818],[-55.8116,52.8304],[-55.9557,53.0222],[-55.8121,53.3301],[-56.6062,53.6787],[-56.9835,53.7275],[-57.3774,53.4337],[-57.5177,53.6258],[-57.1241,53.7416],[-57.4662,54.2003],[-58.3749,54.1997],[-58.1281,54.0979],[-58.8531,53.942],[-59.0222,53.7143],[-59.8731,53.4877],[-60.3021,53.2718],[-60.083,53.7644],[-59.4745,53.8281],[-58.6035,54.0559],[-58.1861,54.3586],[-57.6783,54.3774],[-57.3532,54.5668],[-57.847,54.7387],[-58.9198,54.8555],[-59.0274,55.162],[-59.8,55.1127],[-59.7764,55.3319],[-60.1395,55.284],[-60.6703,55.0098],[-60.2016,55.4212],[-60.4935,55.6601],[-60.3313,55.7601],[-61.4027,55.9599],[-61.3448,56.2225],[-62.081,56.4296],[-61.6676,56.5033],[-61.8689,56.6373],[-61.3819,57.1211],[-62.0239,57.2571],[-61.817,57.3774],[-62.2437,57.545],[-61.8899,57.625],[-62.0657,57.8989],[-62.6614,58.1758],[-62.5786,58.5042],[-63.264,58.47],[-62.8465,58.6693],[-63.3866,59.102],[-63.8641,59.6113],[-64.1479,59.6828],[-64.1479,59.9845],[-64.5314,60.3039]]],[[[-52.6288,47.5267],[-52.7042,47.756],[-53.1219,47.4372],[-53.2518,47.6254],[-52.9029,48.0952],[-53.2765,48.0164],[-53.5539,47.5393],[-53.8468,47.7068],[-53.6086,48.0543],[-53.9052,48.0851],[-53.1874,48.3553],[-52.9829,48.6042],[-53.5471,48.4924],[-53.9034,48.5682],[-53.8964,48.9805],[-53.4537,49.2422],[-54.0411,49.4809],[-54.5447,49.5291],[-54.817,49.2756],[-55.2726,49.2099],[-55.2363,49.39],[-55.7742,49.5135],[-56.1307,49.4291],[-55.8356,49.6916],[-56.069,49.6984],[-55.4952,49.9191],[-56.1488,50.1557],[-56.8378,49.5563],[-56.7388,50.0268],[-55.7433,51.0701],[-56.0349,51.3842],[-55.6174,51.3044],[-55.4085,51.5794],[-55.8226,51.6238],[-56.7202,51.3193],[-57.069,50.8021],[-57.3293,50.7133],[-57.6102,50.1657],[-57.9398,49.7053],[-57.8714,49.5272],[-58.1859,49.4427],[-58.0686,48.9792],[-58.3984,49.1367],[-58.6854,48.6018],[-58.9472,48.6514],[-59.2624,48.4726],[-58.7032,48.5545],[-58.4061,48.4973],[-59.3988,47.8803],[-59.1116,47.5608],[-58.042,47.6986],[-56.8512,47.5317],[-56.1584,47.6427],[-55.86,47.7912],[-55.9167,47.4573],[-55.1312,47.5836],[-55.4872,47.1403],[-55.8699,47.0751],[-55.9503,46.9044],[-55.2509,46.9189],[-54.8379,47.4193],[-54.5061,47.4025],[-54.179,47.879],[-54.0133,47.8072],[-53.8929,47.3929],[-54.1976,46.8858],[-54.0504,46.8081],[-53.5726,47.1621],[-53.5547,46.6184],[-52.9413,46.7913],[-52.8141,47.2734],[-52.6288,47.5267]]]]}},{"type":"Feature","id":"label-CAN-686","properties":{"kind":"division-label","code":"CAN-686","countryCode":"CAN","name":"Newfoundland and Labrador","localName":"Newfoundland and Labrador","labelEnglish":"Newfoundland and Labrador","labelLocal":"Newfoundland and Labrador","labelBoth":"Newfoundland and Labrador","type":"Province","iso":"CA-NL","qid":"Q2003"},"geometry":{"type":"Point","coordinates":[-56.2169,48.6598]}},{"type":"Feature","id":"CAN-685","properties":{"kind":"division","code":"CAN-685","countryCode":"CAN","name":"Nova Scotia","localName":"Nova Scotia","labelEnglish":"Nova Scotia","labelLocal":"Nova Scotia","labelBoth":"Nova Scotia","type":"Province","iso":"CA-NS","qid":"Q1952"},"geometry":{"type":"MultiPolygon","coordinates":[[[[-64.0427,45.992],[-64.2734,45.8357],[-64.902,45.43],[-63.593,45.3952],[-64.3675,45.1078],[-64.3487,45.3194],[-64.8632,45.1396],[-65.9988,44.5797],[-66.2104,44.0856],[-66.0281,43.7023],[-65.9094,43.8192],[-65.7193,43.5089],[-65.4748,43.4709],[-65.3272,43.6964],[-64.839,43.8297],[-64.3335,44.2991],[-64.3055,44.566],[-63.5486,44.4732],[-63.5876,44.6642],[-63.0586,44.6752],[-62.4757,44.9011],[-62.0575,44.9755],[-61.7024,45.1693],[-61.1197,45.2134],[-60.9986,45.3332],[-61.4508,45.3494],[-61.2673,45.4434],[-61.4705,45.6831],[-61.8942,45.7037],[-61.9243,45.8891],[-62.4704,45.6145],[-63.1007,45.8113],[-64.0427,45.992]]],[[[-60.0809,45.7924],[-59.8105,46.1699],[-60.2835,46.3275],[-60.7816,45.9543],[-60.3995,45.998],[-60.7301,45.691],[-60.9141,45.8545],[-60.3505,46.6159],[-60.3834,47.0168],[-60.6033,47.0336],[-61.0948,46.4539],[-61.5411,46.0405],[-61.3349,45.5662],[-60.7269,45.5656],[-60.0809,45.7924]]]]}},{"type":"Feature","id":"label-CAN-685","properties":{"kind":"division-label","code":"CAN-685","countryCode":"CAN","name":"Nova Scotia","localName":"Nova Scotia","labelEnglish":"Nova Scotia","labelLocal":"Nova Scotia","labelBoth":"Nova Scotia","type":"Province","iso":"CA-NS","qid":"Q1952"},"geometry":{"type":"Point","coordinates":[-62.8113,45.2293]}},{"type":"Feature","id":"CAN-635","properties":{"kind":"division","code":"CAN-635","countryCode":"CAN","name":"Northwest Territories","localName":"Northwest Territories","labelEnglish":"Northwest Territories","labelLocal":"Northwest Territories","labelBoth":"Northwest Territories","type":"Territory","iso":"CA-NT","qid":"Q2007"},"geometry":{"type":"MultiPolygon","coordinates":[[[[-136.4449,68.9099],[-136.4448,67.7256],[-136.1161,67.3773],[-136.1622,67.0037],[-134.0301,66.9866],[-133.6006,66.5593],[-133.8191,66.3102],[-133.4246,65.9443],[-132.5615,66.0293],[-132.1822,65.5835],[-132.6467,65.2743],[-132.3344,65.0315],[-132.5691,64.775],[-131.6817,64.5212],[-131.8186,64.3775],[-131.1456,64.4241],[-130.7399,63.9734],[-130.098,63.7823],[-129.8228,63.4779],[-130.1294,63.3165],[-129.6138,63.0722],[-129.7645,62.8516],[-129.1716,62.4791],[-129.13,62.1161],[-128.5466,62.1218],[-127.9728,61.6887],[-127.1457,61.4652],[-126.8845,60.7819],[-125.3218,60.7879],[-124.5986,60.9645],[-124.6197,60.6821],[-123.8191,60.0001],[-120,60.0001],[-116.25,60.0001],[-113.1249,60.0001],[-110,60.0001],[-106.5007,60.0001],[-104.5011,60.0001],[-102.0016,60.0001],[-102.0029,61.2201],[-102.0049,63.1807],[-101.9991,64.2274],[-105.1905,64.4849],[-108.9729,64.7782],[-109.5798,64.9327],[-110.7058,65.5009],[-112.5039,65.5013],[-114.4137,66.086],[-116.5936,66.7536],[-119.7591,67.723],[-120.6808,68.0156],[-120.6808,69.5567],[-121.4278,69.7668],[-122.951,69.8386],[-123.1776,69.4959],[-123.6769,69.3612],[-124.4385,69.3696],[-124.0748,69.7287],[-124.4803,69.7209],[-124.4081,70.1554],[-125.0061,70.02],[-125.0323,69.7473],[-125.9386,69.414],[-126.7018,69.7674],[-127.1365,70.2529],[-127.9915,70.5929],[-128.1782,70.3799],[-127.582,70.2509],[-128.3702,70.0974],[-128.9941,69.6794],[-129.1229,69.8561],[-130.3382,69.7023],[-130.9551,69.2631],[-131.6487,69.473],[-131.8804,69.2847],[-132.8736,69.0578],[-132.7257,68.7907],[-133.3882,68.8454],[-131.9836,69.5369],[-131.048,69.6437],[-129.5998,69.9912],[-130.6471,70.1418],[-131.1885,69.8249],[-131.4083,69.9615],[-131.8395,69.7703],[-132.8873,69.6611],[-133.2157,69.4016],[-134.2633,69.2409],[-133.7884,69.4914],[-134.3199,69.7236],[-134.4763,69.4438],[-134.8065,69.5028],[-135.8379,69.3091],[-135.9542,69.0484],[-135.3788,68.674],[-136.4449,68.9099]]],[[[-110.0037,72.7554],[-110.0037,72.9851],[-110.7037,73.0091],[-110.0037,72.7554]]],[[[-116.8558,69.6476],[-117.1237,70.0012],[-112.8988,70.0001],[-110,70.0001],[-110.0037,72.4581],[-110.7291,72.5713],[-111.6647,72.2921],[-111.8546,72.3814],[-111.2196,72.7241],[-113.015,73.016],[-113.734,72.6142],[-114.6042,72.6075],[-114.0231,72.7978],[-113.962,73.1229],[-114.5843,73.3846],[-117.3693,72.9178],[-118.5934,72.4287],[-118.1278,72.2272],[-119.0543,71.9353],[-119.0509,71.6268],[-118.0763,71.665],[-118.3083,71.4699],[-117.5513,71.3742],[-115.8236,71.5482],[-116.1034,71.3767],[-118.3865,71.0222],[-117.5854,70.6064],[-115.5809,70.5801],[-113.4907,70.6818],[-112.144,70.4939],[-111.5487,70.2699],[-112.5863,70.2],[-114.1847,70.3157],[-116.9651,70.1291],[-117.442,69.9894],[-116.8558,69.6476]]],[[[-115.3236,73.5087],[-116.867,74.0876],[-118.066,74.2807],[-119.1444,74.2091],[-120.1566,74.279],[-121.5808,74.5559],[-124.7557,74.3486],[-124.1453,73.8511],[-123.7738,73.7656],[-125.0682,72.8842],[-124.9524,72.5696],[-125.651,72.2574],[-125.7904,71.9492],[-125.2534,71.9557],[-124.0646,71.7004],[-123.0999,71.0846],[-120.6352,71.4914],[-120.3834,71.7015],[-120.2612,72.2418],[-119.3402,72.3467],[-119.1639,72.6298],[-115.7538,73.3575],[-115.3236,73.5087]]],[[[-117.7847,75.8965],[-117.6597,76.1259],[-119.409,75.6016],[-118.6139,75.5037],[-117.7847,75.8965]]],[[[-110.0037,74.8526],[-110.0037,75.5447],[-111.2508,75.5219],[-111.4591,75.8419],[-112.9942,76.2733],[-113.963,76.1906],[-114.2059,76.471],[-115.5123,76.4562],[-115.7794,76.2373],[-116.7059,76.0578],[-116.7081,75.8996],[-114.875,75.8674],[-116.8854,75.789],[-117.5101,75.2011],[-115.7154,74.9704],[-115.2333,75.1736],[-114.9585,74.9705],[-114.0465,75.3664],[-113.9576,75.0744],[-112.3461,75.1215],[-110.9508,75.2516],[-111.5555,75.0126],[-112.7978,74.9851],[-114.4398,74.6837],[-113.0238,74.3959],[-111.6575,74.5012],[-110.0037,74.8526]]],[[[-114.837,76.7598],[-113.6732,76.7043],[-113.8461,76.8989],[-114.837,76.7598]]],[[[-119.3175,76.1999],[-118.569,76.3452],[-118.9764,76.4923],[-117.7362,76.7803],[-118.007,76.4025],[-117.3524,76.2596],[-117.0748,76.5261],[-115.8928,76.6984],[-115.7537,76.9648],[-116.3787,77.1282],[-115.3926,77.3079],[-116.4067,77.5624],[-118.8205,77.361],[-120.0911,77.0056],[-121.5536,76.437],[-122.8317,76.2373],[-122.4259,75.9328],[-121.2997,75.9108],[-120.88,76.1986],[-120.489,75.8471],[-119.8629,75.8591],[-119.3175,76.1999]]],[[[-113.6863,77.8666],[-114.3273,78.0808],[-115.1182,77.9597],[-114.3007,77.7133],[-113.6863,77.8666]]],[[[-110.0037,77.9314],[-110.0037,78.0993],[-113.2413,77.905],[-113.1996,77.5277],[-112.1092,77.3258],[-110.2354,77.5042],[-110.0037,77.9314]]],[[[-110.0037,78.329],[-110.0037,78.6869],[-110.4269,78.7663],[-113.2142,78.4066],[-110.0037,78.329]]]]}},{"type":"Feature","id":"label-CAN-635","properties":{"kind":"division-label","code":"CAN-635","countryCode":"CAN","name":"Northwest Territories","localName":"Northwest Territories","labelEnglish":"Northwest Territories","labelLocal":"Northwest Territories","labelBoth":"Northwest Territories","type":"Territory","iso":"CA-NT","qid":"Q2007"},"geometry":{"type":"Point","coordinates":[-119.942,64.0831]}},{"type":"Feature","id":"CAN-687","properties":{"kind":"division","code":"CAN-687","countryCode":"CAN","name":"Prince Edward Island","localName":"Prince Edward Island","labelEnglish":"Prince Edward Island","labelLocal":"Prince Edward Island","labelBoth":"Prince Edward Island","type":"Province","iso":"CA-PE","qid":"Q1979"},"geometry":{"type":"Polygon","coordinates":[[[-62.004,46.4641],[-63.2381,46.4074],[-63.6389,46.567],[-63.6966,46.4572],[-64.0933,46.78],[-63.9971,47.0673],[-64.4168,46.6828],[-64.131,46.5991],[-64.1245,46.4097],[-63.7369,46.3964],[-63.6278,46.2238],[-62.8661,46.1357],[-62.5452,45.9718],[-62.3597,46.361],[-62.004,46.4641]]]}},{"type":"Feature","id":"label-CAN-687","properties":{"kind":"division-label","code":"CAN-687","countryCode":"CAN","name":"Prince Edward Island","localName":"Prince Edward Island","labelEnglish":"Prince Edward Island","labelLocal":"Prince Edward Island","labelBoth":"Prince Edward Island","type":"Province","iso":"CA-PE","qid":"Q1979"},"geometry":{"type":"Point","coordinates":[-63.3862,46.3417]}}]}