{"type":"FeatureCollection","features":[{"type":"Feature","id":"CHE-165","properties":{"kind":"division","code":"CHE-165","countryCode":"CHE","name":"Valais","localName":"Valais","labelEnglish":"Valais","labelLocal":"Valais","labelBoth":"Valais","type":"Canton","iso":"CH-VS","qid":"Q834"},"geometry":{"type":"Polygon","coordinates":[[[7.8496,45.9397],[8.0731,46.2536],[8.3859,46.4502],[8.4769,46.5318],[8.4094,46.6557],[7.7231,46.4202],[7.2278,46.3314],[7.0449,46.1899],[6.7881,46.405],[7.0221,45.9253],[7.8496,45.9397]]]}},{"type":"Feature","id":"label-CHE-165","properties":{"kind":"division-label","code":"CHE-165","countryCode":"CHE","name":"Valais","localName":"Valais","labelEnglish":"Valais","labelLocal":"Valais","labelBoth":"Valais","type":"Canton","iso":"CH-VS","qid":"Q834"},"geometry":{"type":"Point","coordinates":[7.61347,46.2023]}},{"type":"Feature","id":"CHE-168","properties":{"kind":"division","code":"CHE-168","countryCode":"CHE","name":"Ticino","localName":"Ticino","labelEnglish":"Ticino","labelLocal":"Ticino","labelBoth":"Ticino","type":"Canton","iso":"CH-TI","qid":"Q12724"},"geometry":{"type":"Polygon","coordinates":[[[8.729,46.1082],[8.9089,45.8283],[9.1638,46.173],[8.956,46.6306],[8.6779,46.5836],[8.4769,46.5318],[8.3859,46.4502],[8.4272,46.2514],[8.729,46.1082]]]}},{"type":"Feature","id":"label-CHE-168","properties":{"kind":"division-label","code":"CHE-168","countryCode":"CHE","name":"Ticino","localName":"Ticino","labelEnglish":"Ticino","labelLocal":"Ticino","labelBoth":"Ticino","type":"Canton","iso":"CH-TI","qid":"Q12724"},"geometry":{"type":"Point","coordinates":[8.79019,46.3604]}},{"type":"Feature","id":"CHE-170","properties":{"kind":"division","code":"CHE-170","countryCode":"CHE","name":"Grisons","localName":"Grisons","labelEnglish":"Grisons","labelLocal":"Grisons","labelBoth":"Grisons","type":"Canton","iso":"CH-GR","qid":"Q11925"},"geometry":{"type":"Polygon","coordinates":[[[9.2248,46.2312],[9.2632,46.4851],[9.5597,46.2927],[9.964,46.3561],[10.0878,46.6044],[10.4518,46.5467],[10.4538,46.8644],[10.1252,46.8468],[9.5812,47.0569],[9.5331,47.0555],[9.477,47.0639],[9.2409,46.9203],[8.8717,46.8154],[8.6779,46.5836],[8.956,46.6306],[9.1638,46.173],[9.2248,46.2312]]]}},{"type":"Feature","id":"label-CHE-170","properties":{"kind":"division-label","code":"CHE-170","countryCode":"CHE","name":"Grisons","localName":"Grisons","labelEnglish":"Grisons","labelLocal":"Grisons","labelBoth":"Grisons","type":"Canton","iso":"CH-GR","qid":"Q11925"},"geometry":{"type":"Point","coordinates":[9.55953,46.6729]}},{"type":"Feature","id":"CHE-171","properties":{"kind":"division","code":"CHE-171","countryCode":"CHE","name":"Schaffhausen","localName":"Schaffhausen","labelEnglish":"Schaffhausen","labelLocal":"Schaffhausen","labelBoth":"Schaffhausen","type":"Canton","iso":"CH-SH","qid":"Q12697"},"geometry":{"type":"Polygon","coordinates":[[[8.8519,47.6713],[8.5936,47.6582],[8.7885,47.6626],[8.8519,47.6713]]]}},{"type":"Feature","id":"label-CHE-171","properties":{"kind":"division-label","code":"CHE-171","countryCode":"CHE","name":"Schaffhausen","localName":"Schaffhausen","labelEnglish":"Schaffhausen","labelLocal":"Schaffhausen","labelBoth":"Schaffhausen","type":"Canton","iso":"CH-SH","qid":"Q12697"},"geometry":{"type":"Point","coordinates":[8.6232,47.7205]}},{"type":"Feature","id":"CHE-174","properties":{"kind":"division","code":"CHE-174","countryCode":"CHE","name":"Thurgau","localName":"Thurgau","labelEnglish":"Thurgau","labelLocal":"Thurgau","labelBoth":"Thurgau","type":"Canton","iso":"CH-TG","qid":"Q12713"},"geometry":{"type":"Polygon","coordinates":[[[8.8519,47.6713],[8.7885,47.6626],[8.9324,47.38],[9.0312,47.4964],[9.5531,47.5169],[9.5475,47.5345],[8.8519,47.6713]]]}},{"type":"Feature","id":"label-CHE-174","properties":{"kind":"division-label","code":"CHE-174","countryCode":"CHE","name":"Thurgau","localName":"Thurgau","labelEnglish":"Thurgau","labelLocal":"Thurgau","labelBoth":"Thurgau","type":"Canton","iso":"CH-TG","qid":"Q12713"},"geometry":{"type":"Point","coordinates":[9.14593,47.5858]}},{"type":"Feature","id":"CHE-176","properties":{"kind":"division","code":"CHE-176","countryCode":"CHE","name":"Zürich","localName":"Zürich","labelEnglish":"Zürich","labelLocal":"Zürich","labelBoth":"Zürich","type":"Canton","iso":"CH-ZH","qid":"Q11943"},"geometry":{"type":"Polygon","coordinates":[[[8.5936,47.6582],[8.5763,47.595],[8.5517,47.5969],[8.4211,47.5811],[8.4074,47.2455],[8.6835,47.1654],[8.7754,47.2206],[8.9324,47.38],[8.7885,47.6626],[8.5936,47.6582]]]}},{"type":"Feature","id":"label-CHE-176","properties":{"kind":"division-label","code":"CHE-176","countryCode":"CHE","name":"Zürich","localName":"Zürich","labelEnglish":"Zürich","labelLocal":"Zürich","labelBoth":"Zürich","type":"Canton","iso":"CH-ZH","qid":"Q11943"},"geometry":{"type":"Point","coordinates":[8.6609,47.4297]}},{"type":"Feature","id":"CHE-162","properties":{"kind":"division","code":"CHE-162","countryCode":"CHE","name":"Aargau","localName":"Aargau","labelEnglish":"Aargau","labelLocal":"Aargau","labelBoth":"Aargau","type":"Canton","iso":"CH-AG","qid":"Q11972"},"geometry":{"type":"Polygon","coordinates":[[[8.4211,47.5811],[7.7273,47.5504],[7.9549,47.4577],[7.8229,47.269],[7.8393,47.2318],[8.2886,47.2681],[8.4056,47.1423],[8.4074,47.2455],[8.4211,47.5811]]]}},{"type":"Feature","id":"label-CHE-162","properties":{"kind":"division-label","code":"CHE-162","countryCode":"CHE","name":"Aargau","localName":"Aargau","labelEnglish":"Aargau","labelLocal":"Aargau","labelBoth":"Aargau","type":"Canton","iso":"CH-AG","qid":"Q11972"},"geometry":{"type":"Point","coordinates":[8.19995,47.4176]}},{"type":"Feature","id":"CHE-3425","properties":{"kind":"division","code":"CHE-3425","countryCode":"CHE","name":"Basel-Stadt","localName":"Basel-Stadt","labelEnglish":"Basel-Stadt","labelLocal":"Basel-Stadt","labelBoth":"Basel-Stadt","type":"Canton","iso":"CH-BS","qid":"Q12172"},"geometry":{"type":"Polygon","coordinates":[[[7.6469,47.5514],[7.586,47.5846],[7.5209,47.5634],[7.6469,47.5514]]]}},{"type":"Feature","id":"label-CHE-3425","properties":{"kind":"division-label","code":"CHE-3425","countryCode":"CHE","name":"Basel-Stadt","localName":"Basel-Stadt","labelEnglish":"Basel-Stadt","labelLocal":"Basel-Stadt","labelBoth":"Basel-Stadt","type":"Canton","iso":"CH-BS","qid":"Q12172"},"geometry":{"type":"Point","coordinates":[7.5898,47.5605]}},{"type":"Feature","id":"CHE-3423","properties":{"kind":"division","code":"CHE-3423","countryCode":"CHE","name":"Basel-Landschaft","localName":"Basel-Landschaft","labelEnglish":"Basel-Landschaft","labelLocal":"Basel-Landschaft","labelBoth":"Basel-Landschaft","type":"Canton","iso":"CH-BL","qid":"Q12146"},"geometry":{"type":"MultiPolygon","coordinates":[[[[7.7273,47.5504],[7.6469,47.5514],[7.5209,47.5634],[7.4858,47.4988],[7.446,47.4869],[7.4206,47.4509],[7.3842,47.4131],[7.4371,47.3793],[7.9549,47.4577],[7.7273,47.5504]]],[[[7.3882,47.4333],[7.3369,47.4319],[7.3842,47.4131],[7.3882,47.4333]]]]}},{"type":"Feature","id":"label-CHE-3423","properties":{"kind":"division-label","code":"CHE-3423","countryCode":"CHE","name":"Basel-Landschaft","localName":"Basel-Landschaft","labelEnglish":"Basel-Landschaft","labelLocal":"Basel-Landschaft","labelBoth":"Basel-Landschaft","type":"Canton","iso":"CH-BL","qid":"Q12146"},"geometry":{"type":"Point","coordinates":[7.72662,47.5056]}},{"type":"Feature","id":"CHE-167","properties":{"kind":"division","code":"CHE-167","countryCode":"CHE","name":"St. Gallen","localName":"St. Gallen","labelEnglish":"St. Gallen","labelLocal":"St. Gallen","labelBoth":"St. Gallen","type":"Canton","iso":"CH-SG","qid":"Q12746"},"geometry":{"type":"Polygon","coordinates":[[[9.5531,47.5169],[9.0312,47.4964],[8.9324,47.38],[8.7754,47.2206],[8.9851,47.1689],[9.2409,46.9203],[9.477,47.0639],[9.5029,47.0947],[9.5119,47.1294],[9.4955,47.156],[9.4864,47.1969],[9.497,47.2289],[9.5212,47.2628],[9.6495,47.4097],[9.5531,47.5169]],[[9.4882,47.3534],[9.3315,47.2531],[9.226,47.4003],[9.6084,47.4498],[9.5815,47.4244],[9.5405,47.3972],[9.4866,47.3936],[9.4882,47.3534]]]}},{"type":"Feature","id":"label-CHE-167","properties":{"kind":"division-label","code":"CHE-167","countryCode":"CHE","name":"St. Gallen","localName":"St. Gallen","labelEnglish":"St. Gallen","labelLocal":"St. Gallen","labelBoth":"St. Gallen","type":"Canton","iso":"CH-SG","qid":"Q12746"},"geometry":{"type":"Point","coordinates":[9.21267,47.1524]}},{"type":"Feature","id":"CHE-3426","properties":{"kind":"division","code":"CHE-3426","countryCode":"CHE","name":"Solothurn","localName":"Solothurn","labelEnglish":"Solothurn","labelLocal":"Solothurn","labelBoth":"Solothurn","type":"Canton","iso":"CH-SO","qid":"Q11929"},"geometry":{"type":"MultiPolygon","coordinates":[[[[7.3882,47.4333],[7.3842,47.4131],[7.4206,47.4509],[7.3882,47.4333]]],[[[7.559,47.3207],[7.5563,47.3182],[7.8229,47.269],[7.9549,47.4577],[7.4371,47.3793],[7.5545,47.344],[7.559,47.3207]]]]}},{"type":"Feature","id":"label-CHE-3426","properties":{"kind":"division-label","code":"CHE-3426","countryCode":"CHE","name":"Solothurn","localName":"Solothurn","labelEnglish":"Solothurn","labelLocal":"Solothurn","labelBoth":"Solothurn","type":"Canton","iso":"CH-SO","qid":"Q11929"},"geometry":{"type":"Point","coordinates":[7.41999,47.4325]}},{"type":"Feature","id":"CHE-160","properties":{"kind":"division","code":"CHE-160","countryCode":"CHE","name":"Jura","localName":"Jura","labelEnglish":"Jura","labelLocal":"Jura","labelBoth":"Jura","type":"Canton","iso":"CH-JU","qid":"Q12755"},"geometry":{"type":"Polygon","coordinates":[[[7.1422,47.4877],[6.9392,47.4268],[6.8381,47.1681],[6.8498,47.1651],[7.5563,47.3182],[7.559,47.3207],[7.5545,47.344],[7.4371,47.3793],[7.3842,47.4131],[7.3369,47.4319],[7.1422,47.4877]]]}},{"type":"Feature","id":"label-CHE-160","properties":{"kind":"division-label","code":"CHE-160","countryCode":"CHE","name":"Jura","localName":"Jura","labelEnglish":"Jura","labelLocal":"Jura","labelBoth":"Jura","type":"Canton","iso":"CH-JU","qid":"Q12755"},"geometry":{"type":"Point","coordinates":[7.19817,47.3636]}},{"type":"Feature","id":"CHE-159","properties":{"kind":"division","code":"CHE-159","countryCode":"CHE","name":"Geneva","localName":"Geneva","labelEnglish":"Geneva","labelLocal":"Geneva","labelBoth":"Geneva","type":"Canton","iso":"CH-GE","qid":"Q11917"},"geometry":{"type":"Polygon","coordinates":[[[6.1186,46.3318],[5.9588,46.1305],[6.2166,46.3095],[6.1186,46.3318]]]}},{"type":"Feature","id":"label-CHE-159","properties":{"kind":"division-label","code":"CHE-159","countryCode":"CHE","name":"Geneva","localName":"Geneva","labelEnglish":"Geneva","labelLocal":"Geneva","labelBoth":"Geneva","type":"Canton","iso":"CH-GE","qid":"Q11917"},"geometry":{"type":"Point","coordinates":[6.11764,46.237]}},{"type":"Feature","id":"CHE-3422","properties":{"kind":"division","code":"CHE-3422","countryCode":"CHE","name":"Vaud","localName":"Vaud","labelEnglish":"Vaud","labelLocal":"Vaud","labelBoth":"Vaud","type":"Canton","iso":"CH-VD","qid":"Q12771"},"geometry":{"type":"MultiPolygon","coordinates":[[[[6.1186,46.3318],[6.2166,46.3095],[6.7881,46.405],[7.0449,46.1899],[7.2278,46.3314],[7.2425,46.5561],[7.0003,46.4445],[6.807,46.5807],[6.9074,46.9255],[6.8751,46.9072],[6.766,46.8453],[6.4431,46.8515],[6.138,46.5576],[6.059,46.4174],[6.1186,46.3318]]],[[[7.0211,46.9897],[6.9459,46.9472],[7.0624,46.9782],[7.0211,46.9897]]]]}},{"type":"Feature","id":"label-CHE-3422","properties":{"kind":"division-label","code":"CHE-3422","countryCode":"CHE","name":"Vaud","localName":"Vaud","labelEnglish":"Vaud","labelLocal":"Vaud","labelBoth":"Vaud","type":"Canton","iso":"CH-VD","qid":"Q12771"},"geometry":{"type":"Point","coordinates":[6.5118,46.6204]}},{"type":"Feature","id":"CHE-161","properties":{"kind":"division","code":"CHE-161","countryCode":"CHE","name":"Neuchâtel","localName":"Neuchâtel","labelEnglish":"Neuchâtel","labelLocal":"Neuchâtel","labelBoth":"Neuchâtel","type":"Canton","iso":"CH-NE","qid":"Q12738"},"geometry":{"type":"Polygon","coordinates":[[[6.4431,46.8515],[6.766,46.8453],[6.8751,46.9072],[6.9074,46.9255],[6.9459,46.9472],[7.0211,46.9897],[6.8498,47.1651],[6.8381,47.1681],[6.4431,46.8515]]]}},{"type":"Feature","id":"label-CHE-161","properties":{"kind":"division-label","code":"CHE-161","countryCode":"CHE","name":"Neuchâtel","localName":"Neuchâtel","labelEnglish":"Neuchâtel","labelLocal":"Neuchâtel","labelBoth":"Neuchâtel","type":"Canton","iso":"CH-NE","qid":"Q12738"},"geometry":{"type":"Point","coordinates":[6.76076,46.9893]}},{"type":"Feature","id":"CHE-3424","properties":{"kind":"division","code":"CHE-3424","countryCode":"CHE","name":"Bern","localName":"Bern","labelEnglish":"Bern","labelLocal":"Bern","labelBoth":"Bern","type":"Canton","iso":"CH-BE","qid":"Q11911"},"geometry":{"type":"Polygon","coordinates":[[[8.4462,46.7692],[8.3916,46.7751],[8.3682,46.7895],[8.0437,46.7883],[7.8393,47.2318],[7.8229,47.269],[7.5563,47.3182],[6.8498,47.1651],[7.0211,46.9897],[7.0624,46.9782],[7.3557,46.8912],[7.2425,46.5561],[7.2278,46.3314],[7.7231,46.4202],[8.4094,46.6557],[8.4462,46.7692]]]}},{"type":"Feature","id":"label-CHE-3424","properties":{"kind":"division-label","code":"CHE-3424","countryCode":"CHE","name":"Bern","localName":"Bern","labelEnglish":"Bern","labelLocal":"Bern","labelBoth":"Bern","type":"Canton","iso":"CH-BE","qid":"Q11911"},"geometry":{"type":"Point","coordinates":[7.65026,46.7988]}},{"type":"Feature","id":"CHE-163","properties":{"kind":"division","code":"CHE-163","countryCode":"CHE","name":"Lucerne","localName":"Lucerne","labelEnglish":"Lucerne","labelLocal":"Lucerne","labelBoth":"Lucerne","type":"Canton","iso":"CH-LU","qid":"Q12121"},"geometry":{"type":"Polygon","coordinates":[[[8.4056,47.1423],[8.2886,47.2681],[7.8393,47.2318],[8.0437,46.7883],[8.2271,46.9716],[8.4651,46.9933],[8.4424,47.1133],[8.4056,47.1423]]]}},{"type":"Feature","id":"label-CHE-163","properties":{"kind":"division-label","code":"CHE-163","countryCode":"CHE","name":"Lucerne","localName":"Lucerne","labelEnglish":"Lucerne","labelLocal":"Lucerne","labelBoth":"Lucerne","type":"Canton","iso":"CH-LU","qid":"Q12121"},"geometry":{"type":"Point","coordinates":[8.17219,47.096]}},{"type":"Feature","id":"CHE-177","properties":{"kind":"division","code":"CHE-177","countryCode":"CHE","name":"Zug","localName":"Zug","labelEnglish":"Zug","labelLocal":"Zug","labelBoth":"Zug","type":"Canton","iso":"CH-ZG","qid":"Q11933"},"geometry":{"type":"Polygon","coordinates":[[[8.4424,47.1133],[8.6835,47.1654],[8.4074,47.2455],[8.4056,47.1423],[8.4424,47.1133]]]}},{"type":"Feature","id":"label-CHE-177","properties":{"kind":"division-label","code":"CHE-177","countryCode":"CHE","name":"Zug","localName":"Zug","labelEnglish":"Zug","labelLocal":"Zug","labelBoth":"Zug","type":"Canton","iso":"CH-ZG","qid":"Q11933"},"geometry":{"type":"Point","coordinates":[8.54747,47.1578]}},{"type":"Feature","id":"CHE-175","properties":{"kind":"division","code":"CHE-175","countryCode":"CHE","name":"Uri","localName":"Uri","labelEnglish":"Uri","labelLocal":"Uri","labelBoth":"Uri","type":"Canton","iso":"CH-UR","qid":"Q12404"},"geometry":{"type":"Polygon","coordinates":[[[8.9303,46.9222],[8.5617,46.9881],[8.4726,46.8557],[8.4462,46.7692],[8.4094,46.6557],[8.4769,46.5318],[8.6779,46.5836],[8.8717,46.8154],[8.9303,46.9222]]]}},{"type":"Feature","id":"label-CHE-175","properties":{"kind":"division-label","code":"CHE-175","countryCode":"CHE","name":"Uri","localName":"Uri","labelEnglish":"Uri","labelLocal":"Uri","labelBoth":"Uri","type":"Canton","iso":"CH-UR","qid":"Q12404"},"geometry":{"type":"Point","coordinates":[8.63301,46.809]}},{"type":"Feature","id":"CHE-173","properties":{"kind":"division","code":"CHE-173","countryCode":"CHE","name":"Schwyz","localName":"Schwyz","labelEnglish":"Schwyz","labelLocal":"Schwyz","labelBoth":"Schwyz","type":"Canton","iso":"CH-SZ","qid":"Q12433"},"geometry":{"type":"Polygon","coordinates":[[[8.5617,46.9881],[8.9303,46.9222],[8.9851,47.1689],[8.7754,47.2206],[8.6835,47.1654],[8.4424,47.1133],[8.4651,46.9933],[8.5617,46.9881]]]}},{"type":"Feature","id":"label-CHE-173","properties":{"kind":"division-label","code":"CHE-173","countryCode":"CHE","name":"Schwyz","localName":"Schwyz","labelEnglish":"Schwyz","labelLocal":"Schwyz","labelBoth":"Schwyz","type":"Canton","iso":"CH-SZ","qid":"Q12433"},"geometry":{"type":"Point","coordinates":[8.68573,47.0455]}},{"type":"Feature","id":"CHE-169","properties":{"kind":"division","code":"CHE-169","countryCode":"CHE","name":"Glarus","localName":"Glarus","labelEnglish":"Glarus","labelLocal":"Glarus","labelBoth":"Glarus","type":"Canton","iso":"CH-GL","qid":"Q11922"},"geometry":{"type":"Polygon","coordinates":[[[8.9303,46.9222],[8.8717,46.8154],[9.2409,46.9203],[8.9851,47.1689],[8.9303,46.9222]]]}},{"type":"Feature","id":"label-CHE-169","properties":{"kind":"division-label","code":"CHE-169","countryCode":"CHE","name":"Glarus","localName":"Glarus","labelEnglish":"Glarus","labelLocal":"Glarus","labelBoth":"Glarus","type":"Canton","iso":"CH-GL","qid":"Q11922"},"geometry":{"type":"Point","coordinates":[9.05651,47.0096]}},{"type":"Feature","id":"CHE-164","properties":{"kind":"division","code":"CHE-164","countryCode":"CHE","name":"Nidwalden","localName":"Nidwalden","labelEnglish":"Nidwalden","labelLocal":"Nidwalden","labelBoth":"Nidwalden","type":"Canton","iso":"CH-NW","qid":"Q12592"},"geometry":{"type":"Polygon","coordinates":[[[8.4651,46.9933],[8.2271,46.9716],[8.3682,46.7895],[8.3916,46.7751],[8.4726,46.8557],[8.5617,46.9881],[8.4651,46.9933]]]}},{"type":"Feature","id":"label-CHE-164","properties":{"kind":"division-label","code":"CHE-164","countryCode":"CHE","name":"Nidwalden","localName":"Nidwalden","labelEnglish":"Nidwalden","labelLocal":"Nidwalden","labelBoth":"Nidwalden","type":"Canton","iso":"CH-NW","qid":"Q12592"},"geometry":{"type":"Point","coordinates":[8.40344,46.934]}},{"type":"Feature","id":"CHE-3421","properties":{"kind":"division","code":"CHE-3421","countryCode":"CHE","name":"Fribourg","localName":"Fribourg","labelEnglish":"Fribourg","labelLocal":"Fribourg","labelBoth":"Fribourg","type":"Canton","iso":"CH-FR","qid":"Q12640"},"geometry":{"type":"Polygon","coordinates":[[[7.2425,46.5561],[7.3557,46.8912],[7.0624,46.9782],[6.9459,46.9472],[6.9074,46.9255],[6.807,46.5807],[7.0003,46.4445],[7.2425,46.5561]]]}},{"type":"Feature","id":"label-CHE-3421","properties":{"kind":"division-label","code":"CHE-3421","countryCode":"CHE","name":"Fribourg","localName":"Fribourg","labelEnglish":"Fribourg","labelLocal":"Fribourg","labelBoth":"Fribourg","type":"Canton","iso":"CH-FR","qid":"Q12640"},"geometry":{"type":"Point","coordinates":[6.85219,46.8411]}},{"type":"Feature","id":"CHE-3427","properties":{"kind":"division","code":"CHE-3427","countryCode":"CHE","name":"Obwalden","localName":"Obwalden","labelEnglish":"Obwalden","labelLocal":"Obwalden","labelBoth":"Obwalden","type":"Canton","iso":"CH-OW","qid":"Q12573"},"geometry":{"type":"MultiPolygon","coordinates":[[[[8.3682,46.7895],[8.2271,46.9716],[8.0437,46.7883],[8.3682,46.7895]]],[[[8.3916,46.7751],[8.4462,46.7692],[8.4726,46.8557],[8.3916,46.7751]]]]}},{"type":"Feature","id":"label-CHE-3427","properties":{"kind":"division-label","code":"CHE-3427","countryCode":"CHE","name":"Obwalden","localName":"Obwalden","labelEnglish":"Obwalden","labelLocal":"Obwalden","labelBoth":"Obwalden","type":"Canton","iso":"CH-OW","qid":"Q12573"},"geometry":{"type":"Point","coordinates":[8.20594,46.8686]}},{"type":"Feature","id":"CHE-166","properties":{"kind":"division","code":"CHE-166","countryCode":"CHE","name":"Appenzell Ausserrhoden","localName":"Appenzell Ausserrhoden","labelEnglish":"Appenzell Ausserrhoden","labelLocal":"Appenzell Ausserrhoden","labelBoth":"Appenzell Ausserrhoden","type":"Canton","iso":"CH-AR","qid":"Q12079"},"geometry":{"type":"Polygon","coordinates":[[[9.4866,47.3936],[9.5405,47.3972],[9.5815,47.4244],[9.6084,47.4498],[9.226,47.4003],[9.3315,47.2531],[9.3498,47.388],[9.4882,47.3534],[9.4866,47.3936]]]}},{"type":"Feature","id":"label-CHE-166","properties":{"kind":"division-label","code":"CHE-166","countryCode":"CHE","name":"Appenzell Ausserrhoden","localName":"Appenzell Ausserrhoden","labelEnglish":"Appenzell Ausserrhoden","labelLocal":"Appenzell Ausserrhoden","labelBoth":"Appenzell Ausserrhoden","type":"Canton","iso":"CH-AR","qid":"Q12079"},"geometry":{"type":"Point","coordinates":[9.39726,47.3911]}},{"type":"Feature","id":"CHE-3473","properties":{"kind":"division","code":"CHE-3473","countryCode":"CHE","name":"Appenzell Innerrhoden","localName":"Appenzell Innerrhoden","labelEnglish":"Appenzell Innerrhoden","labelLocal":"Appenzell Innerrhoden","labelBoth":"Appenzell Innerrhoden","type":"Canton","iso":"CH-AI","qid":"Q12094"},"geometry":{"type":"Polygon","coordinates":[[[9.4882,47.3534],[9.3498,47.388],[9.3315,47.2531],[9.4882,47.3534]]]}},{"type":"Feature","id":"label-CHE-3473","properties":{"kind":"division-label","code":"CHE-3473","countryCode":"CHE","name":"Appenzell Innerrhoden","localName":"Appenzell Innerrhoden","labelEnglish":"Appenzell Innerrhoden","labelLocal":"Appenzell Innerrhoden","labelBoth":"Appenzell Innerrhoden","type":"Canton","iso":"CH-AI","qid":"Q12094"},"geometry":{"type":"Point","coordinates":[9.39548,47.3092]}}]}