{"type":"FeatureCollection","features":[{"type":"Feature","id":"CHL-2694","properties":{"kind":"division","code":"CHL-2694","countryCode":"CHL","name":"Arica y Parinacota","localName":"Arica y Parinacota","labelEnglish":"Arica y Parinacota","labelLocal":"Arica y Parinacota","labelBoth":"Arica y Parinacota","type":"Region","iso":"CL-AP","qid":"Q2109"},"geometry":{"type":"Polygon","coordinates":[[[-69.5101,-17.5066],[-69.8576,-17.7342],[-69.7831,-17.9816],[-69.9703,-18.2506],[-70.3947,-18.3377],[-70.2703,-19.1715],[-69.6604,-18.9882],[-69.193,-19.1029],[-68.9896,-18.9465],[-68.9546,-18.857],[-69.1554,-18.1402],[-69.0823,-18.0391],[-69.3024,-17.9762],[-69.5101,-17.5066]]]}},{"type":"Feature","id":"label-CHL-2694","properties":{"kind":"division-label","code":"CHL-2694","countryCode":"CHL","name":"Arica y Parinacota","localName":"Arica y Parinacota","labelEnglish":"Arica y Parinacota","labelLocal":"Arica y Parinacota","labelBoth":"Arica y Parinacota","type":"Region","iso":"CL-AP","qid":"Q2109"},"geometry":{"type":"Point","coordinates":[-69.6804,-18.3207]}},{"type":"Feature","id":"CHL-2693","properties":{"kind":"division","code":"CHL-2693","countryCode":"CHL","name":"Tarapacá","localName":"Tarapacá","labelEnglish":"Tarapacá","labelLocal":"Tarapacá","labelBoth":"Tarapacá","type":"Region","iso":"CL-TA","qid":"Q2114"},"geometry":{"type":"Polygon","coordinates":[[[-68.9896,-18.9465],[-69.193,-19.1029],[-69.6604,-18.9882],[-70.2703,-19.1715],[-70.1233,-20.0722],[-70.1942,-20.8158],[-70.0614,-21.4483],[-69.5059,-21.4446],[-68.7943,-21.2409],[-68.5316,-20.9277],[-68.481,-20.6247],[-68.6855,-20.5168],[-68.7755,-20.0897],[-68.5883,-20.0556],[-68.6984,-19.7463],[-68.5767,-19.5646],[-68.4476,-19.4346],[-68.9896,-18.9465]]]}},{"type":"Feature","id":"label-CHL-2693","properties":{"kind":"division-label","code":"CHL-2693","countryCode":"CHL","name":"Tarapacá","localName":"Tarapacá","labelEnglish":"Tarapacá","labelLocal":"Tarapacá","labelBoth":"Tarapacá","type":"Region","iso":"CL-TA","qid":"Q2114"},"geometry":{"type":"Point","coordinates":[-69.3683,-20.2427]}},{"type":"Feature","id":"CHL-2695","properties":{"kind":"division","code":"CHL-2695","countryCode":"CHL","name":"Antofagasta","localName":"Antofagasta","labelEnglish":"Antofagasta","labelLocal":"Antofagasta","labelBoth":"Antofagasta","type":"Region","iso":"CL-AN","qid":"Q2118"},"geometry":{"type":"Polygon","coordinates":[[[-68.5316,-20.9277],[-68.7943,-21.2409],[-69.5059,-21.4446],[-70.0614,-21.4483],[-70.152,-21.6648],[-70.297,-22.9177],[-70.5807,-23.1083],[-70.6316,-23.517],[-70.4131,-23.5113],[-70.4985,-23.7846],[-70.5828,-24.5248],[-70.4448,-25.3449],[-70.6514,-25.5408],[-70.74,-25.8293],[-70.6346,-26.0286],[-70.3987,-25.8231],[-69.7114,-25.6608],[-69.0795,-25.6495],[-69.0002,-25.3827],[-68.5542,-25.2912],[-68.4965,-25.16],[-68.3792,-25.1368],[-68.5724,-24.7699],[-68.2445,-24.3854],[-67.3624,-24.0304],[-67.2513,-23.7331],[-67.014,-23.0007],[-67.1939,-22.8222],[-67.5471,-22.8925],[-67.8763,-22.8336],[-67.8587,-22.5668],[-67.9902,-22.0576],[-68.0962,-21.954],[-68.2075,-21.2843],[-68.5316,-20.9277]]]}},{"type":"Feature","id":"label-CHL-2695","properties":{"kind":"division-label","code":"CHL-2695","countryCode":"CHL","name":"Antofagasta","localName":"Antofagasta","labelEnglish":"Antofagasta","labelLocal":"Antofagasta","labelBoth":"Antofagasta","type":"Region","iso":"CL-AN","qid":"Q2118"},"geometry":{"type":"Point","coordinates":[-68.8739,-23.3178]}},{"type":"Feature","id":"CHL-2696","properties":{"kind":"division","code":"CHL-2696","countryCode":"CHL","name":"Atacama","localName":"Atacama","labelEnglish":"Atacama","labelLocal":"Atacama","labelBoth":"Atacama","type":"Region","iso":"CL-AT","qid":"Q2120"},"geometry":{"type":"Polygon","coordinates":[[[-68.5542,-25.2912],[-69.0002,-25.3827],[-69.0795,-25.6495],[-69.7114,-25.6608],[-70.3987,-25.8231],[-70.6346,-26.0286],[-70.7886,-26.9963],[-70.96,-27.1614],[-70.9124,-27.6218],[-71.1381,-27.946],[-71.1739,-28.3606],[-71.522,-28.9401],[-71.4871,-29.2113],[-71.0221,-29.3614],[-70.9747,-29.2066],[-70.5738,-29.1171],[-70.4703,-29.4749],[-70.2743,-29.691],[-69.9294,-29.7179],[-70.0426,-29.3631],[-69.8039,-29.0987],[-69.654,-28.401],[-69.4203,-28.2126],[-69.1341,-27.7723],[-68.8011,-27.1128],[-68.3305,-27.045],[-68.3201,-26.8701],[-68.5702,-26.5506],[-68.5752,-26.3035],[-68.4199,-26.1793],[-68.606,-25.437],[-68.5542,-25.2912]]]}},{"type":"Feature","id":"label-CHL-2696","properties":{"kind":"division-label","code":"CHL-2696","countryCode":"CHL","name":"Atacama","localName":"Atacama","labelEnglish":"Atacama","labelLocal":"Atacama","labelBoth":"Atacama","type":"Region","iso":"CL-AT","qid":"Q2120"},"geometry":{"type":"Point","coordinates":[-69.9123,-27.4469]}},{"type":"Feature","id":"CHL-2697","properties":{"kind":"division","code":"CHL-2697","countryCode":"CHL","name":"Coquimbo","localName":"Coquimbo","labelEnglish":"Coquimbo","labelLocal":"Coquimbo","labelBoth":"Coquimbo","type":"Region","iso":"CL-CO","qid":"Q2121"},"geometry":{"type":"Polygon","coordinates":[[[-69.9294,-29.7179],[-70.2743,-29.691],[-70.4703,-29.4749],[-70.5738,-29.1171],[-70.9747,-29.2066],[-71.0221,-29.3614],[-71.4871,-29.2113],[-71.3761,-29.2824],[-71.2866,-29.9103],[-71.3826,-30.1477],[-71.6346,-30.2382],[-71.7134,-30.6149],[-71.6678,-31.1505],[-71.5011,-31.8898],[-71.5438,-32.193],[-70.9599,-31.9739],[-70.3308,-32.2096],[-70.5914,-31.5496],[-70.4798,-31.0967],[-70.2676,-31.0238],[-70.3195,-30.8008],[-70.1734,-30.3647],[-69.9028,-30.3127],[-69.9294,-29.7179]]]}},{"type":"Feature","id":"label-CHL-2697","properties":{"kind":"division-label","code":"CHL-2697","countryCode":"CHL","name":"Coquimbo","localName":"Coquimbo","labelEnglish":"Coquimbo","labelLocal":"Coquimbo","labelBoth":"Coquimbo","type":"Region","iso":"CL-CO","qid":"Q2121"},"geometry":{"type":"Point","coordinates":[-70.7749,-30.5838]}},{"type":"Feature","id":"CHL-2698","properties":{"kind":"division","code":"CHL-2698","countryCode":"CHL","name":"Santiago","localName":"Santiago","labelEnglish":"Santiago","labelLocal":"Santiago","labelBoth":"Santiago","type":"Region","iso":"CL-RM","qid":"Q2131"},"geometry":{"type":"Polygon","coordinates":[[[-70.1061,-33.0526],[-70.302,-33.1714],[-70.6162,-32.9736],[-70.9183,-32.9849],[-71.4443,-33.3369],[-71.4007,-33.7971],[-71.7179,-33.9712],[-70.9876,-34.1733],[-70.8116,-33.9576],[-70.456,-33.8988],[-70.0482,-34.2835],[-69.8328,-34.2432],[-69.8954,-33.6623],[-69.7877,-33.3794],[-70.01,-33.2991],[-70.1061,-33.0526]]]}},{"type":"Feature","id":"label-CHL-2698","properties":{"kind":"division-label","code":"CHL-2698","countryCode":"CHL","name":"Santiago","localName":"Santiago","labelEnglish":"Santiago","labelLocal":"Santiago","labelBoth":"Santiago","type":"Region","iso":"CL-RM","qid":"Q2131"},"geometry":{"type":"Point","coordinates":[-70.7527,-33.4568]}},{"type":"Feature","id":"CHL-2699","properties":{"kind":"division","code":"CHL-2699","countryCode":"CHL","name":"Valparaíso","localName":"Valparaíso","labelEnglish":"Valparaíso","labelLocal":"Valparaíso","labelBoth":"Valparaíso","type":"Region","iso":"CL-VS","qid":"Q219458"},"geometry":{"type":"Polygon","coordinates":[[[-70.2561,-32.3143],[-70.3308,-32.2096],[-70.9599,-31.9739],[-71.5438,-32.193],[-71.4125,-32.3696],[-71.5682,-33.0019],[-71.7619,-33.102],[-71.6247,-33.5414],[-71.8713,-33.9328],[-71.7179,-33.9712],[-71.4007,-33.7971],[-71.4443,-33.3369],[-70.9183,-32.9849],[-70.6162,-32.9736],[-70.302,-33.1714],[-70.1061,-33.0526],[-70.2561,-32.3143]]]}},{"type":"Feature","id":"label-CHL-2699","properties":{"kind":"division-label","code":"CHL-2699","countryCode":"CHL","name":"Valparaíso","localName":"Valparaíso","labelEnglish":"Valparaíso","labelLocal":"Valparaíso","labelBoth":"Valparaíso","type":"Region","iso":"CL-VS","qid":"Q219458"},"geometry":{"type":"Point","coordinates":[-70.936,-32.4884]}},{"type":"Feature","id":"CHL-2705","properties":{"kind":"division","code":"CHL-2705","countryCode":"CHL","name":"Maule","localName":"Maule","labelEnglish":"Maule","labelLocal":"Maule","labelBoth":"Maule","type":"Region","iso":"CL-ML","qid":"Q2166"},"geometry":{"type":"Polygon","coordinates":[[[-70.3724,-35.0274],[-71.1886,-34.8199],[-71.7368,-34.951],[-72.103,-34.7609],[-72.2306,-35.1161],[-72.6466,-35.5666],[-72.598,-35.8102],[-72.7991,-36.0531],[-72.383,-36.1874],[-72.0506,-36.124],[-71.4147,-36.4261],[-71.0278,-36.4812],[-70.7186,-36.4146],[-70.4307,-36.1294],[-70.3573,-35.8152],[-70.5429,-35.2093],[-70.3724,-35.0274]]]}},{"type":"Feature","id":"label-CHL-2705","properties":{"kind":"division-label","code":"CHL-2705","countryCode":"CHL","name":"Maule","localName":"Maule","labelEnglish":"Maule","labelLocal":"Maule","labelBoth":"Maule","type":"Region","iso":"CL-ML","qid":"Q2166"},"geometry":{"type":"Point","coordinates":[-71.5811,-35.6067]}},{"type":"Feature","id":"CHL-2703","properties":{"kind":"division","code":"CHL-2703","countryCode":"CHL","name":"O'Higgins","localName":"O'Higgins","labelEnglish":"O'Higgins","labelLocal":"O'Higgins","labelBoth":"O'Higgins","type":"Region","iso":"CL-LI","qid":"Q2133"},"geometry":{"type":"Polygon","coordinates":[[[-70.0482,-34.2835],[-70.456,-33.8988],[-70.8116,-33.9576],[-70.9876,-34.1733],[-71.7179,-33.9712],[-71.8713,-33.9328],[-72.0268,-34.1627],[-72.103,-34.7609],[-71.7368,-34.951],[-71.1886,-34.8199],[-70.3724,-35.0274],[-70.0482,-34.2835]]]}},{"type":"Feature","id":"label-CHL-2703","properties":{"kind":"division-label","code":"CHL-2703","countryCode":"CHL","name":"O'Higgins","localName":"O'Higgins","labelEnglish":"O'Higgins","labelLocal":"O'Higgins","labelBoth":"O'Higgins","type":"Region","iso":"CL-LI","qid":"Q2133"},"geometry":{"type":"Point","coordinates":[-71.0756,-34.5255]}},{"type":"Feature","id":"CHL-20010","properties":{"kind":"division","code":"CHL-20010","countryCode":"CHL","name":"Ñuble","localName":"Ñuble","labelEnglish":"Ñuble","labelLocal":"Ñuble","labelBoth":"Ñuble","type":"Region","iso":"CL-NB","qid":"Q24076693"},"geometry":{"type":"Polygon","coordinates":[[[-71.0278,-36.4812],[-71.4147,-36.4261],[-72.0506,-36.124],[-72.383,-36.1874],[-72.7991,-36.0531],[-72.8959,-36.4381],[-72.5609,-36.8867],[-72.1919,-37.0332],[-72.1555,-37.1958],[-71.3971,-37.0389],[-71.0891,-37.1034],[-71.1952,-36.8391],[-71.0278,-36.4812]]]}},{"type":"Feature","id":"label-CHL-20010","properties":{"kind":"division-label","code":"CHL-20010","countryCode":"CHL","name":"Ñuble","localName":"Ñuble","labelEnglish":"Ñuble","labelLocal":"Ñuble","labelBoth":"Ñuble","type":"Region","iso":"CL-NB","qid":"Q24076693"},"geometry":{"type":"Point","coordinates":[-72.068431307,-36.619326948]}},{"type":"Feature","id":"CHL-2700","properties":{"kind":"division","code":"CHL-2700","countryCode":"CHL","name":"Araucanía","localName":"Araucanía","labelEnglish":"Araucanía","labelLocal":"Araucanía","labelBoth":"Araucanía","type":"Region","iso":"CL-AR","qid":"Q2176"},"geometry":{"type":"Polygon","coordinates":[[[-71.0161,-38.1437],[-71.3897,-38.0892],[-71.6551,-38.2461],[-71.7558,-38.0394],[-72.0892,-38.0165],[-72.5056,-37.6795],[-73.0611,-37.6472],[-73.0914,-38.1378],[-73.5251,-38.4757],[-73.2834,-39.0753],[-73.2467,-39.3859],[-72.9426,-39.4075],[-72.9662,-39.5892],[-72.3738,-39.733],[-71.9369,-39.69],[-71.7985,-39.4663],[-71.6411,-39.6],[-71.52,-39.615],[-71.4158,-38.9353],[-70.8738,-38.6914],[-71.0161,-38.1437]]]}},{"type":"Feature","id":"label-CHL-2700","properties":{"kind":"division-label","code":"CHL-2700","countryCode":"CHL","name":"Araucanía","localName":"Araucanía","labelEnglish":"Araucanía","labelLocal":"Araucanía","labelBoth":"Araucanía","type":"Region","iso":"CL-AR","qid":"Q2176"},"geometry":{"type":"Point","coordinates":[-72.3806,-38.738]}},{"type":"Feature","id":"CHL-2702","properties":{"kind":"division","code":"CHL-2702","countryCode":"CHL","name":"Biobío","localName":"Biobío","labelEnglish":"Biobío","labelLocal":"Biobío","labelBoth":"Biobío","type":"Region","iso":"CL-BI","qid":"Q2170"},"geometry":{"type":"Polygon","coordinates":[[[-71.0891,-37.1034],[-71.3971,-37.0389],[-72.1555,-37.1958],[-72.1919,-37.0332],[-72.5609,-36.8867],[-72.8959,-36.4381],[-73.2074,-36.7753],[-73.2091,-37.1603],[-73.6076,-37.1554],[-73.6681,-37.7194],[-73.4628,-38.0917],[-73.5251,-38.4757],[-73.0914,-38.1378],[-73.0611,-37.6472],[-72.5056,-37.6795],[-72.0892,-38.0165],[-71.7558,-38.0394],[-71.6551,-38.2461],[-71.3897,-38.0892],[-71.0161,-38.1437],[-71.185,-37.7061],[-71.2056,-37.2927],[-71.0891,-37.1034]]]}},{"type":"Feature","id":"label-CHL-2702","properties":{"kind":"division-label","code":"CHL-2702","countryCode":"CHL","name":"Biobío","localName":"Biobío","labelEnglish":"Biobío","labelLocal":"Biobío","labelBoth":"Biobío","type":"Region","iso":"CL-BI","qid":"Q2170"},"geometry":{"type":"Point","coordinates":[-72.3475,-36.9791]}},{"type":"Feature","id":"CHL-2701","properties":{"kind":"division","code":"CHL-2701","countryCode":"CHL","name":"Los Ríos","localName":"Los Ríos","labelEnglish":"Los Ríos","labelLocal":"Los Ríos","labelBoth":"Los Ríos","type":"Region","iso":"CL-LR","qid":"Q2177"},"geometry":{"type":"Polygon","coordinates":[[[-71.6411,-39.6],[-71.7985,-39.4663],[-71.9369,-39.69],[-72.3738,-39.733],[-72.9662,-39.5892],[-72.9426,-39.4075],[-73.2467,-39.3859],[-73.4584,-39.8338],[-73.7142,-39.9784],[-73.7486,-40.273],[-72.9929,-40.353],[-72.5267,-40.6726],[-71.8606,-40.5594],[-71.6785,-40.3402],[-71.8238,-40.2101],[-71.6212,-39.8951],[-71.6411,-39.6]]]}},{"type":"Feature","id":"label-CHL-2701","properties":{"kind":"division-label","code":"CHL-2701","countryCode":"CHL","name":"Los Ríos","localName":"Los Ríos","labelEnglish":"Los Ríos","labelLocal":"Los Ríos","labelBoth":"Los Ríos","type":"Region","iso":"CL-LR","qid":"Q2177"},"geometry":{"type":"Point","coordinates":[-72.6829,-40.1186]}},{"type":"Feature","id":"CHL-2704","properties":{"kind":"division","code":"CHL-2704","countryCode":"CHL","name":"Los Lagos","localName":"Los Lagos","labelEnglish":"Los Lagos","labelLocal":"Los Lagos","labelBoth":"Los Lagos","type":"Region","iso":"CL-LL","qid":"Q2178"},"geometry":{"type":"MultiPolygon","coordinates":[[[[-71.7693,-41.9996],[-71.926,-41.6229],[-71.8674,-41.0102],[-71.8606,-40.5594],[-72.5267,-40.6726],[-72.9929,-40.353],[-73.7486,-40.273],[-73.7285,-40.5442],[-73.9469,-40.9728],[-73.7599,-41.7488],[-73.2014,-41.7848],[-72.9573,-41.4836],[-72.6094,-41.7067],[-72.8886,-41.9108],[-72.5172,-41.9509],[-72.5579,-42.2111],[-72.8097,-42.2433],[-72.7611,-43.009],[-73.1113,-43.461],[-73.0423,-43.7296],[-72.3482,-43.733],[-72.1416,-43.9398],[-71.7453,-44.045],[-71.7238,-43.5948],[-71.9373,-43.4569],[-71.743,-43.1901],[-72.1485,-42.9987],[-72.1247,-42.2633],[-71.7693,-41.9996]]],[[[-74.3346,-43.2817],[-73.7311,-43.3926],[-73.7214,-43.1417],[-73.4901,-43.1],[-73.5167,-42.7892],[-73.8092,-42.6087],[-73.6815,-42.37],[-73.3961,-42.309],[-73.578,-41.7985],[-74.064,-41.8059],[-74.0533,-42.1303],[-74.1896,-42.4319],[-74.1284,-42.6411],[-74.3346,-43.2817]]]]}},{"type":"Feature","id":"label-CHL-2704","properties":{"kind":"division-label","code":"CHL-2704","countryCode":"CHL","name":"Los Lagos","localName":"Los Lagos","labelEnglish":"Los Lagos","labelLocal":"Los Lagos","labelBoth":"Los Lagos","type":"Region","iso":"CL-LL","qid":"Q2178"},"geometry":{"type":"Point","coordinates":[-72.9043,-41.0592]}},{"type":"Feature","id":"CHL-2691","properties":{"kind":"division","code":"CHL-2691","countryCode":"CHL","name":"Aysén","localName":"Aysén","labelEnglish":"Aysén","labelLocal":"Aysén","labelBoth":"Aysén","type":"Region","iso":"CL-AI","qid":"Q2181"},"geometry":{"type":"MultiPolygon","coordinates":[[[[-71.7453,-44.045],[-72.1416,-43.9398],[-72.3482,-43.733],[-73.0423,-43.7296],[-73.2836,-44.1741],[-72.6868,-44.4885],[-72.7277,-44.7586],[-73.3483,-44.9578],[-73.4607,-45.2663],[-73.2086,-45.3022],[-73.5173,-45.4604],[-73.6879,-46.322],[-74.0213,-46.1482],[-74.1565,-45.7973],[-74.6909,-45.8416],[-74.9605,-46.2678],[-75.0907,-46.2161],[-75.7047,-46.6393],[-75.5517,-46.9483],[-75.4225,-46.714],[-75.0834,-46.6409],[-74.681,-46.8839],[-74.2668,-46.7817],[-73.9576,-47.0603],[-74.5289,-47.4223],[-74.6284,-47.7678],[-73.5501,-47.808],[-73.6586,-47.9118],[-73.3514,-48.2195],[-74.0606,-48.0004],[-74.6254,-48.0042],[-74.0198,-48.4384],[-74.3922,-48.5991],[-74.0667,-48.742],[-73.1704,-49.2509],[-73.0097,-48.9904],[-72.5923,-48.7911],[-72.5768,-48.4521],[-72.2951,-48.3333],[-72.5439,-47.9148],[-72.1706,-47.4075],[-71.8626,-47.1689],[-71.9341,-46.7995],[-71.6872,-46.6901],[-71.7633,-46.2445],[-71.6492,-45.9994],[-71.7651,-45.5724],[-71.3115,-45.2995],[-71.5887,-44.9781],[-72.0735,-44.9022],[-72.0478,-44.7548],[-71.336,-44.8016],[-71.2098,-44.4276],[-71.822,-44.4032],[-71.7453,-44.045]]],[[[-75.3284,-48.5522],[-75.6064,-48.4392],[-75.6261,-48.632],[-75.3284,-48.5522]]],[[[-74.4991,-48.5832],[-74.7643,-48.1526],[-74.9471,-48.6196],[-74.4991,-48.5832]]],[[[-75.1608,-48.2984],[-75.0311,-48.4438],[-74.8278,-48.1455],[-75.2563,-48.0686],[-75.1608,-48.2984]]],[[[-75.1499,-48.6584],[-75.0714,-48.5963],[-75.351,-48.0045],[-75.5853,-48.0857],[-75.4602,-48.4166],[-75.3179,-48.3489],[-75.1499,-48.6584]]],[[[-75.2706,-48.0278],[-74.7274,-48.1059],[-74.7883,-47.8123],[-75.2706,-48.0278]]],[[[-74.4137,-47.9382],[-73.9249,-47.9159],[-74.2452,-47.8064],[-74.4137,-47.9382]]],[[[-74.7529,-45.8075],[-75.0544,-45.8635],[-74.9197,-46.1042],[-74.7529,-45.8075]]],[[[-74.5028,-45.7324],[-74.208,-45.6355],[-74.4213,-45.4543],[-74.5028,-45.7324]]],[[[-73.7319,-45.2148],[-73.9147,-44.9953],[-74.2069,-45.0427],[-73.9625,-45.2491],[-73.7319,-45.2148]]],[[[-73.9268,-44.6288],[-74.4005,-44.6261],[-74.2797,-44.8038],[-73.9268,-44.6288]]],[[[-73.3825,-44.5878],[-73.2914,-44.9324],[-72.8376,-44.7101],[-72.7212,-44.528],[-73.002,-44.3613],[-73.3825,-44.5878]]]]}},{"type":"Feature","id":"label-CHL-2691","properties":{"kind":"division-label","code":"CHL-2691","countryCode":"CHL","name":"Aysén","localName":"Aysén","labelEnglish":"Aysén","labelLocal":"Aysén","labelBoth":"Aysén","type":"Region","iso":"CL-AI","qid":"Q2181"},"geometry":{"type":"Point","coordinates":[-73.3899,-46.8716]}},{"type":"Feature","id":"CHL-2692","properties":{"kind":"division","code":"CHL-2692","countryCode":"CHL","name":"Magellan and the Chilean Antarctic","localName":"Magellan and the Chilean Antarctic","labelEnglish":"Magellan and the Chilean Antarctic","labelLocal":"Magellan and the Chilean Antarctic","labelBoth":"Magellan and the Chilean Antarctic","type":"Region","iso":"CL-MA","qid":"Q2189"},"geometry":{"type":"MultiPolygon","coordinates":[[[[-73.1704,-49.2509],[-74.0667,-48.742],[-74.3719,-48.7192],[-74.4241,-49.3712],[-74.0777,-49.5012],[-74.3483,-49.7921],[-74.3476,-50.0861],[-74.683,-50.2094],[-74.2526,-50.4405],[-74.1261,-50.7625],[-73.8108,-50.742],[-73.7594,-50.5157],[-73.4871,-50.6601],[-74.105,-50.8712],[-74.1295,-51.1877],[-73.6941,-51.1393],[-73.6879,-51.4949],[-73.9042,-51.6117],[-73.5228,-51.8034],[-73.2928,-52.1657],[-73.0701,-51.7245],[-72.4533,-51.9133],[-72.8536,-51.9483],[-73.3339,-52.2187],[-73.699,-52.0263],[-73.5309,-52.457],[-73.6164,-52.7491],[-73.1163,-53.0969],[-73.0156,-52.8417],[-72.3278,-52.5252],[-71.5716,-52.5613],[-71.4781,-52.6461],[-72.1609,-52.6521],[-72.7148,-52.8694],[-72.9765,-52.8388],[-72.9337,-53.1047],[-73.1991,-53.2408],[-72.3646,-53.5369],[-72.5222,-53.3663],[-72.4521,-53.1896],[-71.1693,-52.8128],[-71.3829,-53.1264],[-72.2823,-53.2428],[-72.4533,-53.4073],[-72.2841,-53.5812],[-71.336,-53.8796],[-71.0342,-53.8097],[-70.9927,-53.383],[-70.7164,-52.7371],[-69.8466,-52.4865],[-69.6724,-52.5309],[-69.442,-52.2521],[-69.1301,-52.2081],[-68.4486,-52.3466],[-68.4545,-52.2999],[-69.9528,-52.0074],[-71.9177,-51.9901],[-72.4501,-51.5527],[-72.2576,-51.2306],[-72.3028,-50.6489],[-72.7784,-50.6196],[-73.1777,-50.7495],[-73.3229,-50.2684],[-73.5306,-50.1408],[-73.4651,-49.76],[-73.5866,-49.53],[-73.4579,-49.3077],[-73.0982,-49.2728],[-73.1704,-49.2509]]],[[[-68.642,-54.7992],[-68.6419,-54.783],[-68.6276,-52.6396],[-69.1402,-52.6838],[-69.4176,-52.4515],[-69.7344,-52.7745],[-70.419,-53.0117],[-70.4735,-53.3093],[-70.2567,-53.461],[-69.3527,-53.3557],[-69.3608,-53.5217],[-70.1853,-53.8113],[-70.0568,-54.087],[-68.989,-54.4314],[-70.073,-54.2488],[-70.246,-54.3572],[-70.9327,-54.1135],[-70.6105,-54.3388],[-70.9724,-54.469],[-71.725,-54.4054],[-71.9619,-54.6471],[-71.3471,-54.5172],[-70.7588,-54.8406],[-69.6483,-54.8225],[-69.067,-54.9488],[-68.6541,-54.8862],[-68.642,-54.7992]]],[[[-67.9993,-55.6275],[-68.2392,-55.2922],[-68.6161,-55.1523],[-68.4412,-54.9397],[-69.886,-55.0636],[-70.0315,-55.1533],[-69.3862,-55.4049],[-69.4796,-55.237],[-68.8011,-55.1887],[-68.9674,-55.4299],[-67.9993,-55.6275]]],[[[-67.8832,-55.2438],[-67.5029,-55.1721],[-67.2706,-55.3069],[-67.0619,-55.072],[-67.3018,-54.9289],[-68.3453,-54.9211],[-67.8832,-55.2438]]],[[[-70.2952,-55.0825],[-70.6514,-55.0309],[-70.3157,-54.908],[-70.9872,-54.9484],[-70.941,-55.072],[-70.2952,-55.0825]]],[[[-69.9042,-54.9968],[-69.1643,-54.9558],[-69.8363,-54.8722],[-69.9042,-54.9968]]],[[[-71.6309,-54.0788],[-71.1483,-54.3798],[-71.0125,-54.1008],[-71.3015,-53.9915],[-71.6309,-54.0788]]],[[[-72.0151,-54.2023],[-71.8461,-54.338],[-71.6529,-53.9264],[-72.2591,-53.9299],[-72.0151,-54.2023]]],[[[-70.455,-53.6116],[-70.8815,-53.8423],[-70.8227,-54.1135],[-70.4393,-54.0604],[-70.455,-53.6116]]],[[[-72.5297,-54.0754],[-72.1527,-53.7962],[-72.9132,-53.427],[-73.4128,-53.4933],[-73.6161,-53.6516],[-73.2749,-53.7009],[-73.3378,-53.9553],[-72.8163,-53.821],[-72.5297,-54.0754]]],[[[-73.2074,-53.3178],[-73.4818,-53.1329],[-74.271,-52.9576],[-74.6744,-52.7213],[-74.2937,-53.0993],[-74.0348,-53.0562],[-73.2074,-53.3178]]],[[[-73.8374,-52.7009],[-73.7252,-52.4047],[-74.1844,-52.5868],[-73.8374,-52.7009]]],[[[-74.8898,-52.002],[-74.9034,-51.621],[-75.0653,-51.9946],[-74.8898,-52.002]]],[[[-75.0236,-51.331],[-75.2198,-51.3054],[-75.3129,-51.6292],[-75.0236,-51.331]]],[[[-74.3856,-50.9811],[-74.4873,-50.7822],[-74.8787,-50.8863],[-74.7396,-51.1015],[-74.3856,-50.9811]]],[[[-75.126,-50.4943],[-75.4686,-50.4943],[-75.2789,-50.7701],[-75.126,-50.4943]]],[[[-74.3104,-50.8342],[-74.3831,-50.456],[-74.5812,-50.6336],[-74.3104,-50.8342]]],[[[-75.0406,-50.2895],[-74.815,-50.1189],[-75.3975,-50.1716],[-75.4609,-50.35],[-75.0406,-50.2895]]],[[[-75.4481,-49.775],[-75.1779,-49.8842],[-75.3553,-49.6102],[-75.4481,-49.775]]],[[[-74.9032,-49.0768],[-75.2356,-49.145],[-74.9205,-49.2726],[-74.9032,-49.0768]]],[[[-75.2154,-49.0146],[-75.5407,-48.8337],[-75.6474,-48.9669],[-75.2154,-49.0146]]],[[[-75.1983,-49.7712],[-75.0095,-49.5186],[-74.8448,-49.6936],[-74.8677,-50.0162],[-74.5364,-49.9947],[-74.4237,-49.7449],[-74.5255,-48.7228],[-74.8303,-48.6895],[-75.0611,-48.837],[-74.8591,-49.1108],[-74.8932,-49.364],[-75.0372,-49.2604],[-75.4673,-49.3327],[-75.1983,-49.7712]]]]}},{"type":"Feature","id":"label-CHL-2692","properties":{"kind":"division-label","code":"CHL-2692","countryCode":"CHL","name":"Magellan and the Chilean Antarctic","localName":"Magellan and the Chilean Antarctic","labelEnglish":"Magellan and the Chilean Antarctic","labelLocal":"Magellan and the Chilean Antarctic","labelBoth":"Magellan and the Chilean Antarctic","type":"Region","iso":"CL-MA","qid":"Q2189"},"geometry":{"type":"Point","coordinates":[-71.3975,-53.4723]}}]}