{"type":"FeatureCollection","features":[{"type":"Feature","id":"CHN-1756","properties":{"kind":"division","code":"CHN-1756","countryCode":"CHN","name":"Xinjiang","localName":"新疆維吾爾自治區|新疆维吾尔自治区","labelEnglish":"Xinjiang","labelLocal":"新疆維吾爾自治區|新疆维吾尔自治区","labelBoth":"Xinjiang · 新疆維吾爾自治區|新疆维吾尔自治区","type":"Autonomous Region","iso":"CN-XJ","qid":"Q34800"},"geometry":{"type":"Polygon","coordinates":[[[77.8003,35.4954],[78.0556,35.4529],[78.0012,35.2689],[78.2732,34.6589],[78.9569,34.34],[79.2045,34.4394],[79.794,34.431],[79.9563,34.6848],[79.8838,34.9196],[80.3192,35.5093],[80.9789,35.2934],[81.0609,35.3886],[81.7114,35.2457],[82.0022,35.3194],[82.4282,35.6898],[82.9359,35.6741],[83.0987,35.4128],[83.5648,35.3607],[84.2147,35.389],[85.1498,35.7498],[85.5619,35.6574],[85.9299,35.7617],[86.2123,36.1159],[86.4594,36.2194],[88.4592,36.4489],[89.2236,36.2636],[89.6778,36.082],[90.6227,36.1111],[90.875,36.0036],[91.1358,36.1406],[91.0067,36.5035],[90.6881,36.6985],[90.8078,36.9106],[91.2876,37.0135],[91.0737,37.4879],[90.4365,37.7786],[90.4393,37.9961],[90.1509,38.4328],[90.6535,38.6741],[91.2944,38.7451],[92.936,39.1529],[92.948,39.4525],[92.7724,39.8105],[92.9195,40.1181],[92.9415,40.4726],[93.5775,40.588],[94.011,41.104],[94.5809,41.5852],[95.0583,41.7886],[95.7719,41.8297],[96.0358,41.9953],[96.0438,42.4999],[96.3663,42.7229],[96.2943,42.9333],[95.9085,43.2145],[95.5103,43.9791],[95.3275,44.0067],[95.3794,44.2871],[95.0368,44.255],[93.9274,44.6729],[93.5253,44.9513],[93.0759,45.0052],[91.663,45.0595],[90.8732,45.1862],[90.6511,45.4931],[90.7108,45.7522],[91.0024,46.0218],[90.8962,46.302],[91.0143,46.6898],[90.4687,47.3089],[90.3448,47.6586],[90.0446,47.8798],[89.7513,47.8243],[89.5418,48.031],[89.0456,47.993],[88.5808,48.212],[88.5651,48.343],[87.9428,48.5995],[87.8059,48.8006],[87.8163,49.1658],[87.3238,49.0853],[86.8873,49.1068],[86.5651,48.5273],[85.7837,48.4076],[85.5154,47.9203],[85.6704,47.3843],[85.4986,47.0518],[85.2051,47.0337],[84.7671,46.8181],[84.6635,46.9839],[83.9053,46.974],[83.0135,47.1946],[82.4889,45.9017],[82.2971,45.5545],[82.6157,45.4354],[82.5852,45.1768],[81.9501,45.1445],[81.7393,45.3381],[80.8539,45.1265],[80.0617,45.019],[79.9917,44.7936],[80.3558,44.6529],[80.3451,44.1031],[80.7127,43.4589],[80.7879,43.128],[80.3681,43.0285],[80.5545,42.8989],[80.14,42.623],[80.2103,42.1895],[80.1819,42.021],[79.3041,41.7876],[78.3599,41.3775],[78.2313,41.1729],[78.075,41.0395],[77.4749,40.982],[77.0077,41.0442],[76.7668,40.9447],[76.6242,40.6275],[76.3135,40.3433],[76.2442,40.4412],[75.6818,40.2917],[75.5877,40.6119],[75.1939,40.4413],[74.8323,40.5081],[74.3699,40.1058],[74.004,40.0608],[73.823,39.8057],[73.9268,39.5929],[73.6326,39.4483],[73.6023,39.2358],[73.816,38.9938],[73.6837,38.8549],[73.7974,38.6028],[74.0289,38.5272],[74.3342,38.667],[74.7763,38.5107],[74.7907,38.0814],[74.9652,37.7675],[74.8919,37.5992],[75.1641,37.4006],[74.8923,37.2311],[74.7215,37.2978],[74.3826,37.1266],[74.5424,37.0217],[75.3513,36.9158],[75.4105,36.7473],[75.7905,36.6878],[75.9766,36.4626],[75.8943,36.0974],[76.166,35.8062],[76.5372,35.9025],[76.7774,35.6461],[77.4128,35.4694],[77.8003,35.4954]]]}},{"type":"Feature","id":"label-CHN-1756","properties":{"kind":"division-label","code":"CHN-1756","countryCode":"CHN","name":"Xinjiang","localName":"新疆維吾爾自治區|新疆维吾尔自治区","labelEnglish":"Xinjiang","labelLocal":"新疆維吾爾自治區|新疆维吾尔自治区","labelBoth":"Xinjiang · 新疆維吾爾自治區|新疆维吾尔自治区","type":"Autonomous Region","iso":"CN-XJ","qid":"Q34800"},"geometry":{"type":"Point","coordinates":[85.4253,41.122]}},{"type":"Feature","id":"CHN-1662","properties":{"kind":"division","code":"CHN-1662","countryCode":"CHN","name":"Tibet","localName":"西藏自治區|西藏自治区","labelEnglish":"Tibet","labelLocal":"西藏自治區|西藏自治区","labelBoth":"Tibet · 西藏自治區|西藏自治区","type":"Autonomous Region","iso":"CN-XZ","qid":"Q17269"},"geometry":{"type":"Polygon","coordinates":[[[78.9569,34.34],[78.7301,34.0793],[78.8243,33.4611],[79.098,33.2877],[79.4201,33.2752],[79.4141,32.9721],[79.6207,32.7287],[78.9113,32.3547],[78.7133,32.6375],[78.381,32.528],[78.458,32.2297],[78.7446,31.9642],[78.6709,31.7705],[78.8189,31.6074],[78.7385,31.335],[78.8926,31.2818],[79.0702,31.4614],[79.4016,31.0236],[79.8335,30.9615],[80.2314,30.7249],[80.1798,30.5595],[80.7231,30.392],[80.996,30.197],[81.0845,30.0279],[81.2679,30.0721],[81.3875,30.3739],[82.0888,30.3301],[82.1445,30.0694],[82.5418,29.9232],[82.8366,29.6598],[83.1621,29.6252],[83.5171,29.1917],[83.655,29.1604],[84.0991,29.247],[84.2253,28.9141],[84.6778,28.6044],[85.168,28.5832],[85.0819,28.3317],[85.6118,28.2511],[85.6929,28.3352],[86.0546,27.888],[86.203,28.0026],[86.5168,27.9714],[86.5442,28.093],[86.9821,27.9507],[87.1558,27.8258],[87.6785,27.8134],[88.1182,27.8609],[88.6105,28.1058],[88.8539,27.8437],[88.741,27.5457],[88.8923,27.3155],[89.1247,27.6149],[89.2058,27.7474],[89.4174,27.9887],[89.8629,28.2958],[90.2256,28.3584],[90.5877,28.2333],[90.4752,28.0723],[90.7553,28.0552],[91.4365,27.9894],[91.6283,27.8527],[91.8649,27.73],[92.2396,27.8653],[92.575,27.8478],[92.6548,28.1058],[93.2078,28.3405],[93.4462,28.6719],[93.9278,28.6828],[94.2502,28.9331],[94.2708,29.0979],[94.6304,29.3195],[94.7766,29.1667],[95.3674,29.0365],[95.7448,29.3404],[96.142,29.3685],[96.3164,29.1719],[96.1953,28.9411],[96.4576,28.9946],[96.598,28.7099],[96.3019,28.4207],[97.1156,28.3666],[97.3235,28.2175],[97.5462,28.5385],[98.115,28.1439],[98.2998,28.3548],[98.4899,28.2481],[98.6404,28.4241],[98.6513,28.9701],[98.8507,28.8201],[99.1088,29.2238],[98.9868,29.6509],[99.0563,29.9153],[98.9054,30.6638],[98.9543,30.7479],[98.6038,31.1698],[98.885,31.3541],[98.4257,31.8134],[98.453,31.9841],[98.2058,32.3556],[97.7157,32.5442],[97.3609,32.5002],[97.2549,32.0758],[96.733,31.9603],[96.7954,31.7155],[96.4832,31.7535],[96.2782,31.9091],[96.0942,31.7005],[95.4971,31.7417],[95.4253,32.0948],[95.0618,32.2612],[94.5822,32.6722],[94.1108,32.4782],[93.7342,32.5725],[93.5104,32.5161],[93.0059,32.7346],[92.2214,32.745],[91.5427,33.0803],[91.3616,33.337],[90.8041,33.1405],[90.2057,33.4015],[89.6367,34.0934],[89.8456,34.37],[89.7239,34.7396],[89.7877,34.9264],[89.5627,34.9564],[89.4843,35.3422],[89.7301,35.4437],[89.7888,35.8269],[89.4351,35.9878],[89.6778,36.082],[89.2236,36.2636],[88.4592,36.4489],[86.4594,36.2194],[86.2123,36.1159],[85.9299,35.7617],[85.5619,35.6574],[85.1498,35.7498],[84.2147,35.389],[83.5648,35.3607],[83.0987,35.4128],[82.9359,35.6741],[82.4282,35.6898],[82.0022,35.3194],[81.7114,35.2457],[81.0609,35.3886],[80.9789,35.2934],[80.3192,35.5093],[79.8838,34.9196],[79.9563,34.6848],[79.794,34.431],[79.2045,34.4394],[78.9569,34.34]]]}},{"type":"Feature","id":"label-CHN-1662","properties":{"kind":"division-label","code":"CHN-1662","countryCode":"CHN","name":"Tibet","localName":"西藏自治區|西藏自治区","labelEnglish":"Tibet","labelLocal":"西藏自治區|西藏自治区","labelBoth":"Tibet · 西藏自治區|西藏自治区","type":"Autonomous Region","iso":"CN-XZ","qid":"Q17269"},"geometry":{"type":"Point","coordinates":[88.4137,31.4515]}},{"type":"Feature","id":"CHN-1838","properties":{"kind":"division","code":"CHN-1838","countryCode":"CHN","name":"Inner Mongolia","localName":"內蒙古自治區|内蒙古自治区","labelEnglish":"Inner Mongolia","labelLocal":"內蒙古自治區|内蒙古自治区","labelBoth":"Inner Mongolia · 內蒙古自治區|内蒙古自治区","type":"Autonomous Region","iso":"CN-NM","qid":"Q41079"},"geometry":{"type":"Polygon","coordinates":[[[116.6843,49.8233],[115.8004,48.5304],[115.8093,48.274],[115.5145,48.1221],[115.8527,47.7056],[116.2439,47.8629],[116.8533,47.8721],[117.3608,47.6509],[117.7417,47.9776],[118.5423,47.9662],[119.0835,47.6616],[119.2819,47.4149],[119.7,47.1595],[119.9042,46.7089],[119.6801,46.5916],[118.8162,46.7582],[118.2383,46.7154],[117.6962,46.5123],[117.3938,46.5714],[117.3017,46.3501],[116.582,46.298],[116.2132,45.9082],[116.1699,45.7091],[115.6378,45.4444],[114.5337,45.3855],[114.0553,44.9406],[113.6351,44.7463],[112.6142,44.9088],[112.4413,45.0524],[111.9846,45.0872],[111.7385,44.9663],[111.3964,44.3466],[111.8388,43.9388],[111.9334,43.6966],[110.9337,43.2878],[110.4067,42.7686],[109.4851,42.4493],[108.7969,42.3984],[108.0497,42.4391],[106.7678,42.2866],[105.8686,41.9935],[105.0148,41.5961],[104.498,41.6658],[104.5008,41.8706],[103.721,41.7556],[103.0735,42.0045],[102.0342,42.1846],[101.6376,42.5154],[101.2187,42.5298],[100.017,42.6765],[99.6219,42.5974],[99.4745,42.5642],[97.85,42.723],[97.1907,42.7871],[97.8469,41.6193],[97.6476,41.4555],[97.9505,41.1198],[98.3265,40.8557],[98.2348,40.5417],[98.6458,40.5676],[99.1574,40.8363],[100.0112,40.8963],[100.2038,40.617],[99.8994,40.2048],[99.4309,39.8788],[100.1889,39.6949],[100.5435,39.4089],[100.8332,39.3801],[100.852,39.1675],[101.18,39.0206],[101.3104,38.7688],[101.8311,38.6898],[102.0312,38.8792],[101.8255,39.0644],[102.3931,39.2372],[102.9654,39.1194],[103.7493,39.4249],[104.0606,39.4274],[104.2248,39.0907],[103.7943,38.5908],[103.4712,38.4359],[103.4382,37.8424],[103.6787,37.775],[104.1085,37.4618],[104.3585,37.4012],[104.4252,37.4986],[104.9443,37.5457],[105.3544,37.7526],[105.7881,37.8051],[105.8412,38.5713],[106.1132,39.1208],[106.3021,39.2895],[106.7891,39.361],[106.9778,39.0356],[106.4701,38.2907],[107.1626,38.1386],[107.6576,37.8529],[108.0387,37.6325],[108.7643,37.6819],[108.9543,37.9255],[108.9864,38.3352],[109.6743,39.0112],[110.4942,39.3743],[110.6379,39.2451],[111.1206,39.5808],[111.11,39.3852],[111.4899,39.6522],[111.9215,39.6888],[112.3992,40.2883],[112.7014,40.1748],[113.2299,40.4167],[113.3341,40.3187],[114.0438,40.488],[114.1541,40.7426],[113.8228,41.0942],[113.928,41.4184],[114.1971,41.5936],[114.2557,41.8601],[114.4813,42.0753],[114.8049,42.1784],[114.889,41.61],[115.313,41.6994],[115.8588,41.9275],[116.0379,41.8006],[116.3775,42.0097],[116.8581,42.0195],[116.8871,42.3954],[117.4124,42.4581],[117.7875,42.6096],[118.0242,42.3826],[118.1339,42.0219],[118.3222,41.8635],[118.1594,41.7191],[118.3498,41.3362],[119.231,41.2734],[119.3897,41.4726],[119.2453,42.1919],[119.5628,42.3718],[120.0303,41.8606],[120.0362,41.7074],[120.6279,42.1604],[121.0342,42.2601],[121.3689,42.5],[121.6461,42.4536],[122.045,42.7209],[122.2994,42.6365],[122.4764,42.8496],[122.7279,42.741],[123.612,43.0814],[123.6963,43.3535],[123.3781,43.4532],[123.5222,43.697],[123.0988,44.5315],[122.3766,44.22],[122.046,44.6949],[122.0108,45.1183],[122.234,45.2871],[121.9344,45.69],[121.6495,45.741],[121.996,45.9803],[122.2398,45.8135],[122.3986,45.9492],[122.7084,45.715],[122.7987,46.0893],[123.1617,46.2201],[123.004,46.5859],[123.3973,46.5978],[123.6133,46.8411],[123.1868,46.7616],[122.574,47.1311],[122.4052,47.3317],[122.5654,47.5312],[123.2068,47.8138],[124.2341,48.5308],[124.4824,48.1116],[124.5381,48.5717],[124.8639,49.1754],[125.1581,49.1511],[125.2674,49.4385],[125.2952,50.0145],[125.542,50.4066],[125.8094,50.5622],[125.754,50.7543],[126.0563,50.9803],[125.4866,51.5074],[125.1275,51.6157],[124.8206,51.3659],[124.3508,51.2786],[123.8663,51.3134],[123.5696,51.2039],[122.9562,51.3861],[122.7145,51.7017],[122.6377,52.095],[122.7751,52.2],[122.1737,52.4796],[122.0179,52.2831],[121.1739,52.595],[121.8002,53.0236],[121.4133,53.3173],[120.8743,53.2802],[120.033,52.7607],[120.0564,52.6005],[120.724,52.5422],[120.7792,52.1176],[120.1082,51.6652],[119.4967,50.7371],[119.1412,50.3766],[119.3529,50.3455],[119.3162,50.0927],[118.6444,49.9546],[117.7588,49.5127],[116.6843,49.8233]]]}},{"type":"Feature","id":"label-CHN-1838","properties":{"kind":"division-label","code":"CHN-1838","countryCode":"CHN","name":"Inner Mongolia","localName":"內蒙古自治區|内蒙古自治区","labelEnglish":"Inner Mongolia","labelLocal":"內蒙古自治區|内蒙古自治区","labelBoth":"Inner Mongolia · 內蒙古自治區|内蒙古自治区","type":"Autonomous Region","iso":"CN-NM","qid":"Q41079"},"geometry":{"type":"Point","coordinates":[111.623,41.5938]}},{"type":"Feature","id":"CHN-1150","properties":{"kind":"division","code":"CHN-1150","countryCode":"CHN","name":"Gansu","localName":"甘肅|甘肃","labelEnglish":"Gansu","labelLocal":"甘肅|甘肃","labelBoth":"Gansu · 甘肅|甘肃","type":"Province","iso":"CN-GS","qid":"Q42392"},"geometry":{"type":"Polygon","coordinates":[[[96.3663,42.7229],[96.0438,42.4999],[96.0358,41.9953],[95.7719,41.8297],[95.0583,41.7886],[94.5809,41.5852],[94.011,41.104],[93.5775,40.588],[92.9415,40.4726],[92.9195,40.1181],[92.7724,39.8105],[92.948,39.4525],[92.936,39.1529],[93.7221,39.3067],[94.4793,39.3178],[95.0572,39.1475],[95.3053,39.1828],[96.0548,38.6788],[96.9455,38.3582],[97.0265,39.1962],[97.3626,39.1504],[98.0686,38.8018],[98.3243,39.0233],[98.6022,38.9476],[98.7819,39.0677],[99.7999,38.3657],[100.1585,38.2074],[100.1408,38.4858],[100.6357,38.1054],[101.0498,37.9637],[101.7854,37.5205],[101.9371,37.7307],[102.0327,37.4789],[102.5506,37.1638],[102.4601,36.9557],[102.8186,36.3261],[103.0404,36.2165],[102.976,35.8333],[102.7003,35.8395],[102.6874,35.5146],[102.2893,35.4069],[102.3756,35.2037],[101.7551,34.7037],[102.1503,34.4951],[102.2123,34.3515],[101.7804,34.0675],[101.6117,34.1912],[100.9353,34.3863],[100.7917,34.1549],[101.1295,33.8506],[101.1603,33.6641],[101.4956,33.7046],[101.7775,33.53],[101.9232,33.4064],[101.8528,33.1221],[102.4818,33.465],[102.1712,33.9418],[102.372,33.976],[102.7818,34.2742],[103.1201,34.1686],[103.1842,33.8221],[103.5228,33.7141],[104.093,33.6685],[104.3829,33.3265],[104.2889,32.8479],[104.8983,32.6118],[105.27,32.6417],[105.4986,32.9074],[105.8865,32.978],[105.9127,33.2337],[105.718,33.3887],[106.0735,33.6175],[106.5595,33.5986],[106.4243,33.8988],[106.6736,34.3847],[106.3177,34.5833],[106.5497,34.8626],[106.5646,35.0796],[106.9148,35.089],[107.2109,34.8918],[107.8303,34.9767],[107.6705,35.228],[108.4926,35.2725],[108.6172,35.3928],[108.4931,35.8812],[108.6771,36.0052],[108.7037,36.359],[108.0417,36.5977],[107.8865,36.7554],[107.282,36.9149],[107.2855,37.0685],[106.6441,37.1817],[106.5024,36.7065],[106.4966,36.2684],[106.9448,36.0769],[106.9134,35.7888],[106.4293,35.6994],[106.4649,35.3324],[105.9079,35.4044],[105.687,35.6813],[105.3181,35.9332],[105.4459,36.2546],[105.2205,36.693],[105.3217,36.7807],[104.6895,37.4119],[104.3585,37.4012],[104.1085,37.4618],[103.6787,37.775],[103.4382,37.8424],[103.4712,38.4359],[103.7943,38.5908],[104.2248,39.0907],[104.0606,39.4274],[103.7493,39.4249],[102.9654,39.1194],[102.3931,39.2372],[101.8255,39.0644],[102.0312,38.8792],[101.8311,38.6898],[101.3104,38.7688],[101.18,39.0206],[100.852,39.1675],[100.8332,39.3801],[100.5435,39.4089],[100.1889,39.6949],[99.4309,39.8788],[99.8994,40.2048],[100.2038,40.617],[100.0112,40.8963],[99.1574,40.8363],[98.6458,40.5676],[98.2348,40.5417],[98.3265,40.8557],[97.9505,41.1198],[97.6476,41.4555],[97.8469,41.6193],[97.1907,42.7871],[96.3663,42.7229]]]}},{"type":"Feature","id":"label-CHN-1150","properties":{"kind":"division-label","code":"CHN-1150","countryCode":"CHN","name":"Gansu","localName":"甘肅|甘肃","labelEnglish":"Gansu","labelLocal":"甘肅|甘肃","labelBoth":"Gansu · 甘肅|甘肃","type":"Province","iso":"CN-GS","qid":"Q42392"},"geometry":{"type":"Point","coordinates":[100.735,38.7393]}},{"type":"Feature","id":"CHN-1810","properties":{"kind":"division","code":"CHN-1810","countryCode":"CHN","name":"Yunnan","localName":"雲南|云南","labelEnglish":"Yunnan","labelLocal":"雲南|云南","labelBoth":"Yunnan · 雲南|云南","type":"Province","iso":"CN-YN","qid":"Q43194"},"geometry":{"type":"Polygon","coordinates":[[[101.8215,21.2211],[101.7225,21.3042],[101.8038,21.6259],[101.5182,22.2282],[101.6545,22.4461],[102.1187,22.3975],[102.3246,22.5651],[102.4427,22.7652],[102.9891,22.4376],[103.3096,22.7879],[103.5499,22.6487],[103.6469,22.799],[103.9854,22.5272],[104.2133,22.825],[104.3619,22.6925],[104.8236,22.9241],[104.8701,23.1635],[105.3122,23.3658],[105.5213,23.1631],[105.848,23.5194],[106.1281,23.5407],[106.1938,23.8694],[106.0211,24.1109],[105.4472,24.0376],[105.1699,24.1674],[105.113,24.4098],[104.5992,24.4025],[104.5399,24.7418],[104.7782,25.2617],[104.3062,25.6648],[104.6755,26.3793],[104.4299,26.7125],[104.0204,26.5142],[103.7866,26.5771],[103.7783,26.9559],[103.5964,27.0761],[103.9113,27.3904],[104.1743,27.2715],[104.4437,27.3472],[104.8709,27.3098],[105.1974,27.3986],[105.297,27.7217],[105.2824,28.0007],[105.0557,28.0881],[104.8974,27.9011],[104.6048,27.8458],[104.3754,27.9617],[104.4446,28.0999],[104.2501,28.5308],[104.4142,28.6401],[103.7952,28.5312],[103.8803,28.3257],[103.459,28.1348],[103.5085,27.8645],[103.1208,27.4123],[102.8895,27.2915],[102.9013,26.9247],[103.0578,26.5363],[102.9514,26.3451],[102.6678,26.2259],[102.5681,26.3786],[102.1126,26.0844],[101.8495,26.0348],[101.5949,26.2087],[101.6436,26.3495],[101.4124,26.5697],[101.4947,26.7056],[101.1415,27.0449],[100.6609,27.8751],[100.3492,27.7467],[100.0588,28.0661],[100.1431,28.3416],[99.7189,28.8423],[99.3931,28.5428],[99.3815,28.1845],[99.1626,28.4382],[99.1088,29.2238],[98.8507,28.8201],[98.6513,28.9701],[98.6404,28.4241],[98.4899,28.2481],[98.2998,28.3548],[98.115,28.1439],[98.2947,27.5366],[98.4103,27.6843],[98.6793,27.5773],[98.7556,26.625],[98.5455,26.1056],[98.6924,25.879],[98.5095,25.8381],[98.3326,25.567],[98.1401,25.6115],[98.1084,25.3889],[97.8236,25.2616],[97.5361,24.745],[97.5196,24.4308],[97.6399,24.4393],[97.7077,24.1253],[97.5165,23.9428],[97.6473,23.8685],[98.1815,24.1187],[98.5852,24.0757],[98.8574,23.6043],[98.859,23.1794],[99.4931,23.0574],[99.308,22.7452],[99.3578,22.4955],[99.1445,22.1535],[99.9424,22.0455],[99.9503,21.7212],[100.1463,21.6492],[100.1871,21.4279],[100.704,21.5164],[101.1189,21.7598],[101.159,21.5527],[101.2753,21.1741],[101.4951,21.2428],[101.7685,21.1605],[101.8215,21.2211]]]}},{"type":"Feature","id":"label-CHN-1810","properties":{"kind":"division-label","code":"CHN-1810","countryCode":"CHN","name":"Yunnan","localName":"雲南|云南","labelEnglish":"Yunnan","labelLocal":"雲南|云南","labelBoth":"Yunnan · 雲南|云南","type":"Province","iso":"CN-YN","qid":"Q43194"},"geometry":{"type":"Point","coordinates":[101.661,24.4603]}},{"type":"Feature","id":"CHN-1839","properties":{"kind":"division","code":"CHN-1839","countryCode":"CHN","name":"Heilongjiang","localName":"黑龙江省|黑龍江省","labelEnglish":"Heilongjiang","labelLocal":"黑龙江省|黑龍江省","labelBoth":"Heilongjiang · 黑龙江省|黑龍江省","type":"Province","iso":"CN-HL","qid":"Q19206"},"geometry":{"type":"Polygon","coordinates":[[[130.6253,48.8744],[130.2493,48.8645],[129.9134,49.0395],[129.5024,49.4108],[129.0879,49.3521],[128.7969,49.5725],[128.0925,49.5416],[127.5081,49.8223],[127.5784,50.2206],[127.3307,50.3282],[127.2874,50.751],[126.9318,51.0638],[126.9019,51.401],[126.4461,51.9825],[126.5312,52.1527],[125.7335,52.9817],[125.1274,53.2065],[124.4082,53.2357],[124.2327,53.3817],[123.6143,53.5633],[122.0251,53.4298],[121.4133,53.3173],[121.8002,53.0236],[121.1739,52.595],[122.0179,52.2831],[122.1737,52.4796],[122.7751,52.2],[122.6377,52.095],[122.7145,51.7017],[122.9562,51.3861],[123.5696,51.2039],[123.8663,51.3134],[124.3508,51.2786],[124.8206,51.3659],[125.1275,51.6157],[125.4866,51.5074],[126.0563,50.9803],[125.754,50.7543],[125.8094,50.5622],[125.542,50.4066],[125.2952,50.0145],[125.2674,49.4385],[125.1581,49.1511],[124.8639,49.1754],[124.5381,48.5717],[124.4824,48.1116],[124.2341,48.5308],[123.2068,47.8138],[122.5654,47.5312],[122.4052,47.3317],[122.574,47.1311],[123.1868,46.7616],[123.6133,46.8411],[123.3973,46.5978],[123.004,46.5859],[123.1617,46.2201],[123.9566,46.2908],[124.0219,45.7626],[124.3767,45.4574],[125.3748,45.3985],[125.6993,45.512],[125.8407,45.2348],[126.1505,45.1412],[126.5593,45.2467],[126.9527,45.1342],[127.045,44.5982],[127.5593,44.5738],[127.4928,44.4109],[127.8496,44.0559],[128.043,44.3407],[128.3587,44.5017],[128.4459,44.1539],[128.8829,43.5562],[129.2289,43.6084],[129.2492,43.7862],[129.7524,43.8742],[129.9129,44.0216],[130.1036,43.8454],[130.2802,43.9644],[130.4141,43.6692],[130.8372,43.4492],[131.2528,43.4692],[131.1703,43.7811],[131.2645,44.0542],[131.0658,44.682],[130.9334,44.8417],[131.4195,44.959],[131.818,45.3328],[131.9697,45.2338],[132.9534,45.0244],[133.1402,45.4354],[133.4252,45.5804],[133.6874,46.1418],[133.9025,46.259],[133.9985,46.6377],[134.1541,47.2579],[134.7726,47.7107],[134.5672,48.0404],[134.7009,48.2615],[134.3864,48.3813],[133.7213,48.2448],[133.4637,48.0895],[133.092,48.1068],[132.6746,47.9506],[132.5247,47.7075],[131.0234,47.6823],[130.6824,48.0504],[130.8221,48.3338],[130.5333,48.6358],[130.6253,48.8744]]]}},{"type":"Feature","id":"label-CHN-1839","properties":{"kind":"division-label","code":"CHN-1839","countryCode":"CHN","name":"Heilongjiang","localName":"黑龙江省|黑龍江省","labelEnglish":"Heilongjiang","labelLocal":"黑龙江省|黑龍江省","labelBoth":"Heilongjiang · 黑龙江省|黑龍江省","type":"Province","iso":"CN-HL","qid":"Q19206"},"geometry":{"type":"Point","coordinates":[127.97,46.8451]}},{"type":"Feature","id":"CHN-1828","properties":{"kind":"division","code":"CHN-1828","countryCode":"CHN","name":"Jilin","localName":"吉林","labelEnglish":"Jilin","labelLocal":"吉林","labelBoth":"Jilin · 吉林","type":"Province","iso":"CN-JL","qid":"Q45208"},"geometry":{"type":"Polygon","coordinates":[[[131.2528,43.4692],[130.8372,43.4492],[130.4141,43.6692],[130.2802,43.9644],[130.1036,43.8454],[129.9129,44.0216],[129.7524,43.8742],[129.2492,43.7862],[129.2289,43.6084],[128.8829,43.5562],[128.4459,44.1539],[128.3587,44.5017],[128.043,44.3407],[127.8496,44.0559],[127.4928,44.4109],[127.5593,44.5738],[127.045,44.5982],[126.9527,45.1342],[126.5593,45.2467],[126.1505,45.1412],[125.8407,45.2348],[125.6993,45.512],[125.3748,45.3985],[124.3767,45.4574],[124.0219,45.7626],[123.9566,46.2908],[123.1617,46.2201],[122.7987,46.0893],[122.7084,45.715],[122.3986,45.9492],[122.2398,45.8135],[121.996,45.9803],[121.6495,45.741],[121.9344,45.69],[122.234,45.2871],[122.0108,45.1183],[122.046,44.6949],[122.3766,44.22],[123.0988,44.5315],[123.5222,43.697],[123.3781,43.4532],[123.6963,43.3535],[123.7487,43.4723],[124.2819,43.226],[124.4805,42.8513],[124.7657,43.1056],[125.3324,42.1647],[125.3063,41.6804],[125.7664,41.1395],[125.7041,40.8592],[126.0153,40.9091],[126.5013,41.4344],[126.6179,41.6659],[126.9996,41.752],[127.2691,41.505],[128.1461,41.3763],[128.303,41.5834],[128.0346,41.9937],[128.8832,42.0304],[129.2112,42.22],[129.3401,42.4455],[129.7033,42.4424],[129.8517,42.9619],[130.1215,42.9818],[130.4522,42.5496],[130.5308,42.5305],[130.4072,42.7354],[130.9924,42.8487],[131.2528,43.4692]]]}},{"type":"Feature","id":"label-CHN-1828","properties":{"kind":"division-label","code":"CHN-1828","countryCode":"CHN","name":"Jilin","localName":"吉林","labelEnglish":"Jilin","labelLocal":"吉林","labelBoth":"Jilin · 吉林","type":"Province","iso":"CN-JL","qid":"Q45208"},"geometry":{"type":"Point","coordinates":[126.466,43.2978]}},{"type":"Feature","id":"CHN-1813","properties":{"kind":"division","code":"CHN-1813","countryCode":"CHN","name":"Liaoning","localName":"遼寧|辽宁","labelEnglish":"Liaoning","labelLocal":"遼寧|辽宁","labelBoth":"Liaoning · 遼寧|辽宁","type":"Province","iso":"CN-LN","qid":"Q43934"},"geometry":{"type":"Polygon","coordinates":[[[125.7041,40.8592],[125.7664,41.1395],[125.3063,41.6804],[125.3324,42.1647],[124.7657,43.1056],[124.4805,42.8513],[124.2819,43.226],[123.7487,43.4723],[123.6963,43.3535],[123.612,43.0814],[122.7279,42.741],[122.4764,42.8496],[122.2994,42.6365],[122.045,42.7209],[121.6461,42.4536],[121.3689,42.5],[121.0342,42.2601],[120.6279,42.1604],[120.0362,41.7074],[120.0303,41.8606],[119.5628,42.3718],[119.2453,42.1919],[119.3897,41.4726],[119.231,41.2734],[118.8547,40.8206],[119.2936,40.5307],[119.5637,40.5401],[119.6347,40.2091],[119.8502,39.9863],[120.436,40.1945],[120.5457,40.4024],[121.1758,40.9223],[121.8511,40.8323],[122.3019,40.5023],[121.8738,39.9914],[121.5359,39.8618],[121.5474,39.6732],[121.2234,39.5286],[121.7798,39.3715],[121.6741,39.088],[121.1179,38.9434],[121.1531,38.7276],[121.8599,38.9446],[122.3963,39.411],[123.3867,39.7896],[124.1182,39.8332],[124.37,40.0983],[124.8955,40.4836],[125.4152,40.6527],[125.7041,40.8592]]]}},{"type":"Feature","id":"label-CHN-1813","properties":{"kind":"division-label","code":"CHN-1813","countryCode":"CHN","name":"Liaoning","localName":"遼寧|辽宁","labelEnglish":"Liaoning","labelLocal":"遼寧|辽宁","labelBoth":"Liaoning · 遼寧|辽宁","type":"Province","iso":"CN-LN","qid":"Q43934"},"geometry":{"type":"Point","coordinates":[123.07,41.386]}},{"type":"Feature","id":"CHN-1152","properties":{"kind":"division","code":"CHN-1152","countryCode":"CHN","name":"Guangxi","localName":"廣西壯族自治區|广西壮族自治区","labelEnglish":"Guangxi","labelLocal":"廣西壯族自治區|广西壮族自治区","labelBoth":"Guangxi · 廣西壯族自治區|广西壮族自治区","type":"Autonomous Region","iso":"CN-GX","qid":"Q15176"},"geometry":{"type":"Polygon","coordinates":[[[105.5352,23.099],[105.8539,22.9047],[105.9992,22.9754],[106.3157,22.8538],[106.4878,22.9254],[106.7466,22.7443],[106.533,22.4034],[106.6482,21.9955],[107.3336,21.6125],[107.8324,21.6394],[107.9912,21.4857],[108.3215,21.7097],[108.5188,21.5955],[108.4487,21.8658],[108.7516,21.6501],[109.1358,21.603],[109.1387,21.4016],[109.5308,21.4916],[109.4927,21.6986],[109.7481,21.5749],[109.9672,21.8667],[110.3559,21.889],[110.3336,22.1905],[110.7746,22.2837],[110.6823,22.4836],[111.0238,22.6387],[111.3512,22.9082],[111.3912,23.4313],[111.6575,23.8417],[111.9019,24.0016],[111.8693,24.2318],[112.0473,24.3815],[111.9966,24.7357],[111.6671,24.7797],[111.5169,24.6427],[111.4269,25.1062],[111.2744,25.1477],[111.0306,24.918],[110.9932,25.1508],[111.3158,25.5032],[111.4466,25.9267],[111.1943,25.9575],[111.2519,26.2797],[110.9473,26.3899],[110.8789,26.2752],[110.5541,26.3412],[110.247,25.9782],[109.9273,26.1971],[109.772,25.9082],[109.4567,26.0389],[109.3004,25.7431],[108.9533,25.7757],[109.0414,25.5434],[108.6946,25.602],[108.5679,25.4159],[108.2934,25.5387],[108.1292,25.2688],[107.8619,25.146],[107.6474,25.3064],[107.4989,25.2141],[107.2442,25.5586],[106.9746,25.4404],[106.9955,25.2554],[106.1557,24.9604],[106.0207,24.6419],[105.5086,24.8175],[105.1887,25.0088],[104.7293,24.6314],[104.5399,24.7418],[104.5992,24.4025],[105.113,24.4098],[105.1699,24.1674],[105.4472,24.0376],[106.0211,24.1109],[106.1938,23.8694],[106.1281,23.5407],[105.848,23.5194],[105.5213,23.1631],[105.5352,23.099]]]}},{"type":"Feature","id":"label-CHN-1152","properties":{"kind":"division-label","code":"CHN-1152","countryCode":"CHN","name":"Guangxi","localName":"廣西壯族自治區|广西壮族自治区","labelEnglish":"Guangxi","labelLocal":"廣西壯族自治區|广西壮族自治区","labelBoth":"Guangxi · 廣西壯族自治區|广西壮族自治区","type":"Autonomous Region","iso":"CN-GX","qid":"Q15176"},"geometry":{"type":"Point","coordinates":[108.756,23.7451]}},{"type":"Feature","id":"CHN-1180","properties":{"kind":"division","code":"CHN-1180","countryCode":"CHN","name":"Guangdong","localName":"廣東|广东","labelEnglish":"Guangdong","labelLocal":"廣東|广东","labelBoth":"Guangdong · 廣東|广东","type":"Province","iso":"CN-GD","qid":"Q15175"},"geometry":{"type":"Polygon","coordinates":[[[114.0824,22.5294],[114.2298,22.5558],[114.5158,22.4526],[114.5633,22.7327],[114.7848,22.8159],[114.8802,22.5591],[115.0655,22.796],[115.5239,22.7418],[115.6825,22.8882],[115.826,22.7466],[116.2985,22.9632],[116.4947,22.9394],[116.6115,23.2387],[116.5217,23.4112],[116.7732,23.3494],[116.9089,23.6546],[117.1746,23.6163],[117.0365,23.7383],[116.9677,24.1851],[116.7486,24.5515],[116.5296,24.6154],[116.3721,24.8413],[115.8875,24.9168],[115.7058,24.5457],[115.4206,24.7846],[114.8627,24.5878],[114.4249,24.4996],[114.1691,24.6696],[114.4135,24.9797],[114.7307,25.1294],[114.5693,25.4069],[114.026,25.2677],[113.9275,25.4481],[113.5825,25.3259],[113.2175,25.5056],[112.9081,25.3201],[112.9889,24.9639],[112.6633,25.1131],[112.1827,25.1526],[112.1448,24.7936],[111.9966,24.7357],[112.0473,24.3815],[111.8693,24.2318],[111.9019,24.0016],[111.6575,23.8417],[111.3912,23.4313],[111.3512,22.9082],[111.0238,22.6387],[110.6823,22.4836],[110.7746,22.2837],[110.3336,22.1905],[110.3559,21.889],[109.9672,21.8667],[109.7481,21.5749],[109.9444,21.4931],[109.7657,21.3559],[109.6612,20.9276],[109.7732,20.8215],[109.9146,20.2485],[110.4,20.3008],[110.5342,20.4783],[110.3008,20.6571],[110.369,20.8489],[110.1567,20.8489],[110.2046,21.0822],[110.6365,21.2302],[110.7048,21.3485],[111.0884,21.4726],[111.6305,21.5299],[112.1727,21.8144],[112.608,21.7751],[112.826,21.9661],[113.0286,21.9611],[113.5877,22.2379],[113.5992,22.5752],[113.3504,22.8897],[113.6307,23.0349],[113.8903,22.4527],[114.0824,22.5294]]]}},{"type":"Feature","id":"label-CHN-1180","properties":{"kind":"division-label","code":"CHN-1180","countryCode":"CHN","name":"Guangdong","localName":"廣東|广东","labelEnglish":"Guangdong","labelLocal":"廣東|广东","labelBoth":"Guangdong · 廣東|广东","type":"Province","iso":"CN-GD","qid":"Q15175"},"geometry":{"type":"Point","coordinates":[113.72,23.7924]}},{"type":"Feature","id":"CHN-1775","properties":{"kind":"division","code":"CHN-1775","countryCode":"CHN","name":"Hainan","localName":"海南","labelEnglish":"Hainan","labelLocal":"海南","labelBoth":"Hainan · 海南","type":"Province","iso":"CN-HI","qid":"Q42200"},"geometry":{"type":"Polygon","coordinates":[[[111.0105,19.6838],[110.9346,19.9951],[110.6779,20.1636],[110.5641,19.9845],[110.157,20.0674],[109.9901,19.906],[109.719,20.0106],[109.465,19.8341],[109.3037,19.9217],[109.2049,19.7186],[108.627,19.275],[108.695,18.5048],[109.5612,18.1693],[109.7461,18.3959],[109.9925,18.4431],[110.4268,18.6809],[110.6697,19.3817],[111.0105,19.6838]]]}},{"type":"Feature","id":"label-CHN-1775","properties":{"kind":"division-label","code":"CHN-1775","countryCode":"CHN","name":"Hainan","localName":"海南","labelEnglish":"Hainan","labelLocal":"海南","labelBoth":"Hainan · 海南","type":"Province","iso":"CN-HI","qid":"Q42200"},"geometry":{"type":"Point","coordinates":[109.825,19.1865]}},{"type":"Feature","id":"CHN-1178","properties":{"kind":"division","code":"CHN-1178","countryCode":"CHN","name":"Fujian","localName":"福建","labelEnglish":"Fujian","labelLocal":"福建","labelBoth":"Fujian · 福建","type":"Province","iso":"CN-FJ","qid":"Q41705"},"geometry":{"type":"Polygon","coordinates":[[[120.4192,27.2064],[120.344,27.3796],[119.7701,27.3159],[119.5514,27.6746],[119.2656,27.4241],[118.9191,27.4768],[118.7481,27.9732],[118.7352,28.326],[118.4464,28.2887],[118.3678,28.0997],[117.8234,27.9373],[117.7456,27.8133],[117.5089,27.9708],[117.2842,27.857],[117.1123,27.5676],[117.1538,27.2764],[116.9234,27.021],[116.6697,26.9869],[116.505,26.6893],[116.6195,26.4921],[116.399,26.2875],[116.3232,25.9551],[116.1352,25.8663],[115.9787,25.3508],[115.8428,25.1947],[115.8875,24.9168],[116.3721,24.8413],[116.5296,24.6154],[116.7486,24.5515],[116.9677,24.1851],[117.0365,23.7383],[117.1746,23.6163],[117.2926,23.7895],[117.8936,24.028],[118.1265,24.262],[117.9961,24.447],[118.1605,24.6934],[118.219,24.5414],[118.6466,24.5684],[118.7161,24.8436],[118.9973,24.9534],[118.8577,25.098],[118.9837,25.283],[119.2888,25.1891],[119.1026,25.4203],[119.3563,25.6],[119.5763,25.4628],[119.7024,25.9851],[119.4585,25.9825],[119.6736,26.2805],[119.8775,26.3134],[119.6961,26.7082],[120.2374,26.9272],[120.4192,27.2064]]]}},{"type":"Feature","id":"label-CHN-1178","properties":{"kind":"division-label","code":"CHN-1178","countryCode":"CHN","name":"Fujian","localName":"福建","labelEnglish":"Fujian","labelLocal":"福建","labelBoth":"Fujian · 福建","type":"Province","iso":"CN-FJ","qid":"Q41705"},"geometry":{"type":"Point","coordinates":[118.178,26.408]}},{"type":"Feature","id":"CHN-1820","properties":{"kind":"division","code":"CHN-1820","countryCode":"CHN","name":"Zhejiang","localName":"浙江","labelEnglish":"Zhejiang","labelLocal":"浙江","labelBoth":"Zhejiang · 浙江","type":"Province","iso":"CN-ZJ","qid":"Q16967"},"geometry":{"type":"MultiPolygon","coordinates":[[[[121.2748,30.6912],[120.981,30.832],[120.9093,31.0117],[120.491,30.7637],[120.3617,30.9388],[120.1286,30.9432],[119.9319,31.15],[119.6298,31.1329],[119.4431,30.6392],[119.2415,30.5508],[119.3924,30.3684],[118.8811,30.3244],[118.894,29.9826],[118.7237,29.7302],[118.3732,29.4528],[118.1747,29.4079],[118.0008,29.1439],[118.4255,28.6952],[118.4464,28.2887],[118.7352,28.326],[118.7481,27.9732],[118.9191,27.4768],[119.2656,27.4241],[119.5514,27.6746],[119.7701,27.3159],[120.344,27.3796],[120.4192,27.2064],[120.5966,27.5703],[120.9652,27.9871],[121.1841,28.3821],[121.6563,28.3393],[121.5101,28.6571],[121.6699,28.8253],[121.6525,29.183],[121.943,29.1959],[121.9158,29.6409],[121.5696,29.4746],[121.983,29.8232],[121.6778,30.0006],[121.3774,30.3251],[120.8928,30.1698],[120.7344,30.2322],[120.9778,30.5433],[121.2748,30.6912]]],[[[122.3275,30.0245],[121.9746,30.148],[122.0105,30.0003],[122.3275,30.0245]]]]}},{"type":"Feature","id":"label-CHN-1820","properties":{"kind":"division-label","code":"CHN-1820","countryCode":"CHN","name":"Zhejiang","localName":"浙江","labelEnglish":"Zhejiang","labelLocal":"浙江","labelBoth":"Zhejiang · 浙江","type":"Province","iso":"CN-ZJ","qid":"Q16967"},"geometry":{"type":"Point","coordinates":[119.97,29.1084]}},{"type":"Feature","id":"CHN-1819","properties":{"kind":"division","code":"CHN-1819","countryCode":"CHN","name":"Shanghai","localName":"上海|上海","labelEnglish":"Shanghai","labelLocal":"上海|上海","labelBoth":"Shanghai · 上海|上海","type":"Municipality","iso":"CN-SH","qid":"Q8686"},"geometry":{"type":"MultiPolygon","coordinates":[[[[121.3409,31.491],[121.1868,31.4575],[120.9093,31.0117],[120.981,30.832],[121.2748,30.6912],[121.9774,30.9149],[121.7252,31.2816],[121.3409,31.491]]],[[[121.8441,31.6079],[121.2641,31.8411],[121.3145,31.6556],[121.8514,31.4392],[121.8441,31.6079]]]]}},{"type":"Feature","id":"label-CHN-1819","properties":{"kind":"division-label","code":"CHN-1819","countryCode":"CHN","name":"Shanghai","localName":"上海|上海","labelEnglish":"Shanghai","labelLocal":"上海|上海","labelBoth":"Shanghai · 上海|上海","type":"Municipality","iso":"CN-SH","qid":"Q8686"},"geometry":{"type":"Point","coordinates":[121.409,31.0909]}},{"type":"Feature","id":"CHN-1818","properties":{"kind":"division","code":"CHN-1818","countryCode":"CHN","name":"Jiangsu","localName":"江蘇|江苏","labelEnglish":"Jiangsu","labelLocal":"江蘇|江苏","labelBoth":"Jiangsu · 江蘇|江苏","type":"Province","iso":"CN-JS","qid":"Q16963"},"geometry":{"type":"Polygon","coordinates":[[[119.2803,35.0766],[118.8668,35.0363],[118.7594,34.7486],[118.4772,34.6892],[118.391,34.4437],[118.1654,34.3992],[118.0504,34.6515],[117.1818,34.4501],[116.8276,34.9583],[116.47,34.8983],[116.3772,34.6395],[116.9495,34.3893],[117.0339,34.1555],[117.6239,34.0083],[117.7269,33.7279],[118.1767,33.6926],[117.9319,33.2351],[118.218,33.1799],[118.3991,32.7309],[118.7202,32.7321],[118.8574,32.9723],[119.1565,32.8183],[119.0805,32.4461],[118.8913,32.5957],[118.5518,32.5744],[118.6504,32.2379],[118.352,31.9467],[118.8605,31.6274],[118.8161,31.2263],[119.3489,31.2858],[119.6298,31.1329],[119.9319,31.15],[120.1286,30.9432],[120.3617,30.9388],[120.491,30.7637],[120.9093,31.0117],[121.1868,31.4575],[121.3409,31.491],[121.1444,31.6847],[120.7484,31.8022],[120.7504,31.9783],[120.4554,32.0214],[120.23,31.9089],[120.0064,31.9503],[119.7849,32.1143],[119.8184,32.3137],[119.992,32.0159],[120.2671,31.9487],[120.4908,32.0825],[120.8108,32.0226],[120.9778,31.8144],[121.2864,31.8906],[121.8173,31.6909],[121.8219,31.9525],[121.4434,32.1143],[121.3894,32.3849],[120.8639,32.6711],[120.8958,33.0136],[120.4837,33.65],[120.2571,34.3118],[119.641,34.5505],[119.3467,34.7808],[119.1922,34.7182],[119.2803,35.0766]]]}},{"type":"Feature","id":"label-CHN-1818","properties":{"kind":"division-label","code":"CHN-1818","countryCode":"CHN","name":"Jiangsu","localName":"江蘇|江苏","labelEnglish":"Jiangsu","labelLocal":"江蘇|江苏","labelBoth":"Jiangsu · 江蘇|江苏","type":"Province","iso":"CN-JS","qid":"Q16963"},"geometry":{"type":"Point","coordinates":[119.942,32.9844]}},{"type":"Feature","id":"CHN-1814","properties":{"kind":"division","code":"CHN-1814","countryCode":"CHN","name":"Shandong","localName":"山東|山东","labelEnglish":"Shandong","labelLocal":"山東|山东","labelBoth":"Shandong · 山東|山东","type":"Province","iso":"CN-SD","qid":"Q43407"},"geometry":{"type":"Polygon","coordinates":[[[117.8372,38.2709],[117.4206,37.8467],[116.7439,37.7993],[116.4207,37.4788],[115.975,37.3217],[115.6264,36.7936],[115.2757,36.4742],[115.4603,36.1579],[115.3339,35.9311],[115.9269,36.022],[115.2265,35.4162],[114.8516,35.1782],[114.8342,35.0162],[115.1745,34.9442],[115.5417,34.5775],[116.1513,34.5667],[116.3772,34.6395],[116.47,34.8983],[116.8276,34.9583],[117.1818,34.4501],[118.0504,34.6515],[118.1654,34.3992],[118.391,34.4437],[118.4772,34.6892],[118.7594,34.7486],[118.8668,35.0363],[119.2803,35.0766],[119.648,35.5839],[119.9046,35.6246],[120.189,35.9453],[120.1173,36.2097],[120.3535,36.0408],[120.6968,36.144],[120.7506,36.4592],[122.0396,36.9846],[122.3198,36.8229],[122.6289,37.1928],[122.6882,37.4098],[122.1832,37.4182],[122.1218,37.5627],[121.5916,37.4245],[121.3745,37.6105],[120.738,37.834],[119.8589,37.3602],[119.7706,37.1518],[119.4412,37.1206],[118.9724,37.2807],[119.0371,37.7221],[119.2557,37.6719],[118.8401,38.1526],[118.543,38.0683],[118.0848,38.1387],[117.8372,38.2709]]]}},{"type":"Feature","id":"label-CHN-1814","properties":{"kind":"division-label","code":"CHN-1814","countryCode":"CHN","name":"Shandong","localName":"山東|山东","labelEnglish":"Shandong","labelLocal":"山東|山东","labelBoth":"Shandong · 山東|山东","type":"Province","iso":"CN-SD","qid":"Q43407"},"geometry":{"type":"Point","coordinates":[118.114,36.3271]}},{"type":"Feature","id":"CHN-1811","properties":{"kind":"division","code":"CHN-1811","countryCode":"CHN","name":"Hebei","localName":"河北","labelEnglish":"Hebei","labelLocal":"河北","labelBoth":"Hebei · 河北","type":"Province","iso":"CN-HE","qid":"Q21208"},"geometry":{"type":"MultiPolygon","coordinates":[[[[117.5435,38.6213],[117.2713,38.5592],[116.7108,38.8205],[116.8918,39.1025],[116.7934,39.6023],[116.3866,39.4421],[116.2104,39.5719],[115.7559,39.509],[115.4634,39.6432],[115.4271,39.9626],[115.9452,40.2937],[115.7282,40.5396],[116.6758,40.9401],[117.058,40.6772],[117.4859,40.6619],[117.1841,40.4973],[117.3568,40.257],[117.7497,40.0635],[117.5013,39.9887],[117.6189,39.5889],[117.8928,39.5646],[118.0096,39.2186],[118.3443,39.0307],[119.0156,39.1898],[119.3051,39.433],[119.3396,39.7156],[119.8502,39.9863],[119.6347,40.2091],[119.5637,40.5401],[119.2936,40.5307],[118.8547,40.8206],[119.231,41.2734],[118.3498,41.3362],[118.1594,41.7191],[118.3222,41.8635],[118.1339,42.0219],[118.0242,42.3826],[117.7875,42.6096],[117.4124,42.4581],[116.8871,42.3954],[116.8581,42.0195],[116.3775,42.0097],[116.0379,41.8006],[115.8588,41.9275],[115.313,41.6994],[114.889,41.61],[114.8049,42.1784],[114.4813,42.0753],[114.2557,41.8601],[114.1971,41.5936],[113.928,41.4184],[113.8228,41.0942],[114.1541,40.7426],[114.2858,40.3786],[114.5107,40.325],[114.0854,40.185],[113.9359,40.0157],[114.3828,39.8611],[114.5409,39.5312],[114.394,39.1693],[113.8533,39.0723],[113.8251,38.8103],[113.5345,38.5373],[113.5579,38.2434],[113.7907,38.1529],[114.0264,37.7508],[114.0531,37.5006],[113.7543,37.1149],[113.776,36.8906],[113.4539,36.7366],[113.721,36.3559],[113.9893,36.359],[114.5484,36.139],[115.4603,36.1579],[115.2757,36.4742],[115.6264,36.7936],[115.975,37.3217],[116.4207,37.4788],[116.7439,37.7993],[117.4206,37.8467],[117.8372,38.2709],[117.5435,38.6213]]],[[[117.2391,40.0926],[116.7594,40.0126],[116.8756,39.6865],[117.1528,39.6184],[117.2391,40.0926]]]]}},{"type":"Feature","id":"label-CHN-1811","properties":{"kind":"division-label","code":"CHN-1811","countryCode":"CHN","name":"Hebei","localName":"河北","labelEnglish":"Hebei","labelLocal":"河北","labelBoth":"Hebei · 河北","type":"Province","iso":"CN-HE","qid":"Q21208"},"geometry":{"type":"Point","coordinates":[115.314,38.5205]}},{"type":"Feature","id":"CHN-1816","properties":{"kind":"division","code":"CHN-1816","countryCode":"CHN","name":"Tianjin","localName":"天津|天津","labelEnglish":"Tianjin","labelLocal":"天津|天津","labelBoth":"Tianjin · 天津|天津","type":"Municipality","iso":"CN-TJ","qid":"Q11736"},"geometry":{"type":"Polygon","coordinates":[[[118.0096,39.2186],[117.8928,39.5646],[117.6189,39.5889],[117.5013,39.9887],[117.7497,40.0635],[117.3568,40.257],[117.2391,40.0926],[117.1528,39.6184],[116.8756,39.6865],[116.7934,39.6023],[116.8918,39.1025],[116.7108,38.8205],[117.2713,38.5592],[117.5435,38.6213],[117.7573,39.1144],[118.0096,39.2186]]]}},{"type":"Feature","id":"label-CHN-1816","properties":{"kind":"division-label","code":"CHN-1816","countryCode":"CHN","name":"Tianjin","localName":"天津|天津","labelEnglish":"Tianjin","labelLocal":"天津|天津","labelBoth":"Tianjin · 天津|天津","type":"Municipality","iso":"CN-TJ","qid":"Q11736"},"geometry":{"type":"Point","coordinates":[117.347,39.3708]}},{"type":"Feature","id":"PFA+00?","properties":{"kind":"division","code":"PFA+00?","countryCode":"CHN","name":"Paracel Islands","localName":"Paracel Islands","labelEnglish":"Paracel Islands","labelLocal":"Paracel Islands","labelBoth":"Paracel Islands","type":null,"iso":"CN-X01~","qid":null},"geometry":{"type":"Polygon","coordinates":[[[111.1965,15.7754],[111.2075,15.7822],[111.1994,15.7892],[111.1965,15.7754]]]}},{"type":"Feature","id":"label-PFA+00?","properties":{"kind":"division-label","code":"PFA+00?","countryCode":"CHN","name":"Paracel Islands","localName":"Paracel Islands","labelEnglish":"Paracel Islands","labelLocal":"Paracel Islands","labelBoth":"Paracel Islands","type":null,"iso":"CN-X01~","qid":null},"geometry":{"type":"Point","coordinates":[111.201,15.7833]}},{"type":"Feature","id":"CHN-1155","properties":{"kind":"division","code":"CHN-1155","countryCode":"CHN","name":"Beijing","localName":"北京|北京","labelEnglish":"Beijing","labelLocal":"北京|北京","labelBoth":"Beijing · 北京|北京","type":"Municipality","iso":"CN-BJ","qid":"Q956"},"geometry":{"type":"Polygon","coordinates":[[[117.3568,40.257],[117.1841,40.4973],[117.4859,40.6619],[117.058,40.6772],[116.6758,40.9401],[115.7282,40.5396],[115.9452,40.2937],[115.4271,39.9626],[115.4634,39.6432],[115.7559,39.509],[116.2104,39.5719],[116.3866,39.4421],[116.7934,39.6023],[116.8756,39.6865],[116.7594,40.0126],[117.2391,40.0926],[117.3568,40.257]]]}},{"type":"Feature","id":"label-CHN-1155","properties":{"kind":"division-label","code":"CHN-1155","countryCode":"CHN","name":"Beijing","localName":"北京|北京","labelEnglish":"Beijing","labelLocal":"北京|北京","labelBoth":"Beijing · 北京|北京","type":"Municipality","iso":"CN-BJ","qid":"Q956"},"geometry":{"type":"Point","coordinates":[116.389,39.9488]}},{"type":"Feature","id":"CHN-1809","properties":{"kind":"division","code":"CHN-1809","countryCode":"CHN","name":"Sichuan","localName":"四川","labelEnglish":"Sichuan","labelLocal":"四川","labelBoth":"Sichuan · 四川","type":"Province","iso":"CN-SC","qid":"Q19770"},"geometry":{"type":"Polygon","coordinates":[[[108.5184,32.1976],[108.0031,32.1499],[107.4483,32.5222],[107.2022,32.4528],[107.0653,32.7083],[106.7126,32.7378],[106.2289,32.592],[106.1025,32.8598],[105.5683,32.7305],[105.4986,32.9074],[105.27,32.6417],[104.8983,32.6118],[104.2889,32.8479],[104.3829,33.3265],[104.093,33.6685],[103.5228,33.7141],[103.1842,33.8221],[103.1201,34.1686],[102.7818,34.2742],[102.372,33.976],[102.1712,33.9418],[102.4818,33.465],[101.8528,33.1221],[101.9232,33.4064],[101.7775,33.53],[101.6436,33.1278],[101.4452,33.2359],[101.1641,33.1281],[101.1708,32.6883],[100.6747,32.6831],[100.603,32.4512],[100.3994,32.7584],[100.1586,32.7823],[99.8602,33.0276],[99.6985,32.7446],[99.2894,32.8871],[98.8521,33.1749],[98.6458,33.6762],[98.4579,33.8401],[98.0349,33.9598],[97.7451,33.8649],[97.6957,34.0052],[97.3835,33.8699],[97.3905,33.6114],[97.7243,33.4061],[97.361,32.897],[97.4307,32.7003],[97.7157,32.5442],[98.2058,32.3556],[98.453,31.9841],[98.4257,31.8134],[98.885,31.3541],[98.6038,31.1698],[98.9543,30.7479],[98.9054,30.6638],[99.0563,29.9153],[98.9868,29.6509],[99.1088,29.2238],[99.1626,28.4382],[99.3815,28.1845],[99.3931,28.5428],[99.7189,28.8423],[100.1431,28.3416],[100.0588,28.0661],[100.3492,27.7467],[100.6609,27.8751],[101.1415,27.0449],[101.4947,26.7056],[101.4124,26.5697],[101.6436,26.3495],[101.5949,26.2087],[101.8495,26.0348],[102.1126,26.0844],[102.5681,26.3786],[102.6678,26.2259],[102.9514,26.3451],[103.0578,26.5363],[102.9013,26.9247],[102.8895,27.2915],[103.1208,27.4123],[103.5085,27.8645],[103.459,28.1348],[103.8803,28.3257],[103.7952,28.5312],[104.4142,28.6401],[104.2501,28.5308],[104.4446,28.0999],[104.3754,27.9617],[104.6048,27.8458],[104.8974,27.9011],[105.0557,28.0881],[105.2824,28.0007],[105.297,27.7217],[105.6311,27.6822],[106.3454,27.8349],[106.1094,28.1747],[105.8918,28.1539],[105.6505,28.34],[105.6832,28.5834],[105.9844,28.7535],[106.3387,28.4801],[106.3824,28.5725],[106.2603,28.8693],[105.7453,28.9948],[105.7006,29.2237],[105.4125,29.3439],[105.2911,29.5848],[105.71,29.8675],[105.5572,30.1476],[105.7917,30.4234],[106.239,30.2202],[106.5385,30.3411],[106.7173,30.0593],[107.0329,30.0579],[107.4776,30.6095],[107.5076,30.822],[107.9295,30.8727],[108.0331,31.2222],[108.4068,31.566],[108.5007,31.7908],[108.2678,31.9729],[108.5184,32.1976]]]}},{"type":"Feature","id":"label-CHN-1809","properties":{"kind":"division-label","code":"CHN-1809","countryCode":"CHN","name":"Sichuan","localName":"四川","labelEnglish":"Sichuan","labelLocal":"四川","labelBoth":"Sichuan · 四川","type":"Province","iso":"CN-SC","qid":"Q19770"},"geometry":{"type":"Point","coordinates":[102.384,30.5431]}},{"type":"Feature","id":"CHN-1154","properties":{"kind":"division","code":"CHN-1154","countryCode":"CHN","name":"Chongqing","localName":"重慶|重庆","labelEnglish":"Chongqing","labelLocal":"重慶|重庆","labelBoth":"Chongqing · 重慶|重庆","type":"Municipality","iso":"CN-CQ","qid":"Q11725"},"geometry":{"type":"Polygon","coordinates":[[[108.5184,32.1976],[108.2678,31.9729],[108.5007,31.7908],[108.4068,31.566],[108.0331,31.2222],[107.9295,30.8727],[107.5076,30.822],[107.4776,30.6095],[107.0329,30.0579],[106.7173,30.0593],[106.5385,30.3411],[106.239,30.2202],[105.7917,30.4234],[105.5572,30.1476],[105.71,29.8675],[105.2911,29.5848],[105.4125,29.3439],[105.7006,29.2237],[105.7453,28.9948],[106.2603,28.8693],[106.3824,28.5725],[106.4611,28.8194],[106.694,28.4828],[107.0307,28.8876],[107.4368,28.8773],[107.4961,29.2461],[107.8754,28.9841],[108.2862,29.0772],[108.3303,28.6892],[108.7837,28.4261],[108.7285,28.2422],[109.095,28.2052],[109.2584,28.5059],[109.2066,29.1042],[108.9206,29.349],[108.872,29.639],[108.613,29.858],[108.521,29.7272],[108.532,30.3155],[108.3806,30.3997],[108.67,30.5738],[109.3942,30.5837],[109.8707,30.8886],[110.0662,30.8285],[110.1749,31.1887],[110.1082,31.398],[109.7326,31.5611],[109.594,31.7376],[109.336,31.7052],[109.0559,31.9406],[108.5184,32.1976]]]}},{"type":"Feature","id":"label-CHN-1154","properties":{"kind":"division-label","code":"CHN-1154","countryCode":"CHN","name":"Chongqing","localName":"重慶|重庆","labelEnglish":"Chongqing","labelLocal":"重慶|重庆","labelBoth":"Chongqing · 重慶|重庆","type":"Municipality","iso":"CN-CQ","qid":"Q11725"},"geometry":{"type":"Point","coordinates":[107.73,30.0173]}},{"type":"Feature","id":"CHN-1153","properties":{"kind":"division","code":"CHN-1153","countryCode":"CHN","name":"Guizhou","localName":"貴州|贵州","labelEnglish":"Guizhou","labelLocal":"貴州|贵州","labelBoth":"Guizhou · 貴州|贵州","type":"Province","iso":"CN-GZ","qid":"Q47097"},"geometry":{"type":"Polygon","coordinates":[[[109.2584,28.5059],[109.095,28.2052],[108.7285,28.2422],[108.7837,28.4261],[108.3303,28.6892],[108.2862,29.0772],[107.8754,28.9841],[107.4961,29.2461],[107.4368,28.8773],[107.0307,28.8876],[106.694,28.4828],[106.4611,28.8194],[106.3824,28.5725],[106.3387,28.4801],[105.9844,28.7535],[105.6832,28.5834],[105.6505,28.34],[105.8918,28.1539],[106.1094,28.1747],[106.3454,27.8349],[105.6311,27.6822],[105.297,27.7217],[105.1974,27.3986],[104.8709,27.3098],[104.4437,27.3472],[104.1743,27.2715],[103.9113,27.3904],[103.5964,27.0761],[103.7783,26.9559],[103.7866,26.5771],[104.0204,26.5142],[104.4299,26.7125],[104.6755,26.3793],[104.3062,25.6648],[104.7782,25.2617],[104.5399,24.7418],[104.7293,24.6314],[105.1887,25.0088],[105.5086,24.8175],[106.0207,24.6419],[106.1557,24.9604],[106.9955,25.2554],[106.9746,25.4404],[107.2442,25.5586],[107.4989,25.2141],[107.6474,25.3064],[107.8619,25.146],[108.1292,25.2688],[108.2934,25.5387],[108.5679,25.4159],[108.6946,25.602],[109.0414,25.5434],[108.9533,25.7757],[109.3004,25.7431],[109.4567,26.0389],[109.2966,26.3125],[109.4026,26.5373],[109.294,26.7273],[109.5199,26.8584],[109.4382,27.131],[108.7913,27.0831],[109.4473,27.65],[109.3001,28.0515],[109.2584,28.5059]]]}},{"type":"Feature","id":"label-CHN-1153","properties":{"kind":"division-label","code":"CHN-1153","countryCode":"CHN","name":"Guizhou","localName":"貴州|贵州","labelEnglish":"Guizhou","labelLocal":"貴州|贵州","labelBoth":"Guizhou · 貴州|贵州","type":"Province","iso":"CN-GZ","qid":"Q47097"},"geometry":{"type":"Point","coordinates":[106.559,26.8033]}},{"type":"Feature","id":"CHN-1808","properties":{"kind":"division","code":"CHN-1808","countryCode":"CHN","name":"Hunan","localName":"湖南","labelEnglish":"Hunan","labelLocal":"湖南","labelBoth":"Hunan · 湖南","type":"Province","iso":"CN-HN","qid":"Q45761"},"geometry":{"type":"Polygon","coordinates":[[[109.2584,28.5059],[109.3001,28.0515],[109.4473,27.65],[108.7913,27.0831],[109.4382,27.131],[109.5199,26.8584],[109.294,26.7273],[109.4026,26.5373],[109.2966,26.3125],[109.4567,26.0389],[109.772,25.9082],[109.9273,26.1971],[110.247,25.9782],[110.5541,26.3412],[110.8789,26.2752],[110.9473,26.3899],[111.2519,26.2797],[111.1943,25.9575],[111.4466,25.9267],[111.3158,25.5032],[110.9932,25.1508],[111.0306,24.918],[111.2744,25.1477],[111.4269,25.1062],[111.5169,24.6427],[111.6671,24.7797],[111.9966,24.7357],[112.1448,24.7936],[112.1827,25.1526],[112.6633,25.1131],[112.9889,24.9639],[112.9081,25.3201],[113.2175,25.5056],[113.5825,25.3259],[113.9275,25.4481],[113.9072,25.7498],[114.1622,26.2214],[113.9254,26.1704],[114.0851,26.5775],[113.8647,26.6559],[113.8924,26.9453],[113.754,27.1419],[113.851,27.3459],[113.6001,27.3682],[113.5621,27.5906],[113.7368,27.9816],[113.9165,28.0212],[114.2269,28.409],[114.0569,28.5643],[114.1427,28.7885],[113.9024,29.0663],[113.6549,29.124],[113.7294,29.4371],[113.5903,29.88],[113.1279,29.4629],[112.9278,29.4952],[112.8862,29.7918],[112.6481,29.6269],[112.2819,29.5369],[112.2177,29.6691],[111.7686,29.9196],[110.7419,30.0962],[110.4632,30.014],[110.5912,29.7714],[110.3617,29.6501],[110.1039,29.7854],[109.7832,29.7349],[109.4323,29.5339],[109.2066,29.1042],[109.2584,28.5059]]]}},{"type":"Feature","id":"label-CHN-1808","properties":{"kind":"division-label","code":"CHN-1808","countryCode":"CHN","name":"Hunan","localName":"湖南","labelEnglish":"Hunan","labelLocal":"湖南","labelBoth":"Hunan · 湖南","type":"Province","iso":"CN-HN","qid":"Q45761"},"geometry":{"type":"Point","coordinates":[111.712,27.6667]}},{"type":"Feature","id":"CHN-1803","properties":{"kind":"division","code":"CHN-1803","countryCode":"CHN","name":"Ningxia","localName":"寧夏回族自治區|宁夏回族自治区","labelEnglish":"Ningxia","labelLocal":"寧夏回族自治區|宁夏回族自治区","labelBoth":"Ningxia · 寧夏回族自治區|宁夏回族自治区","type":"Autonomous Region","iso":"CN-NX","qid":"Q57448"},"geometry":{"type":"Polygon","coordinates":[[[107.6576,37.8529],[107.1626,38.1386],[106.4701,38.2907],[106.9778,39.0356],[106.7891,39.361],[106.3021,39.2895],[106.1132,39.1208],[105.8412,38.5713],[105.7881,37.8051],[105.3544,37.7526],[104.9443,37.5457],[104.4252,37.4986],[104.3585,37.4012],[104.6895,37.4119],[105.3217,36.7807],[105.2205,36.693],[105.4459,36.2546],[105.3181,35.9332],[105.687,35.6813],[105.9079,35.4044],[106.4649,35.3324],[106.4293,35.6994],[106.9134,35.7888],[106.9448,36.0769],[106.4966,36.2684],[106.5024,36.7065],[106.6441,37.1817],[107.2855,37.0685],[107.3172,37.5902],[107.6576,37.8529]]]}},{"type":"Feature","id":"label-CHN-1803","properties":{"kind":"division-label","code":"CHN-1803","countryCode":"CHN","name":"Ningxia","localName":"寧夏回族自治區|宁夏回族自治区","labelEnglish":"Ningxia","labelLocal":"寧夏回族自治區|宁夏回族自治区","labelBoth":"Ningxia · 寧夏回族自治區|宁夏回族自治区","type":"Autonomous Region","iso":"CN-NX","qid":"Q57448"},"geometry":{"type":"Point","coordinates":[106.038,37.1762]}},{"type":"Feature","id":"CHN-1804","properties":{"kind":"division","code":"CHN-1804","countryCode":"CHN","name":"Shaanxi","localName":"陝西|陕西","labelEnglish":"Shaanxi","labelLocal":"陝西|陕西","labelBoth":"Shaanxi · 陝西|陕西","type":"Province","iso":"CN-SN","qid":"Q47974"},"geometry":{"type":"Polygon","coordinates":[[[108.5184,32.1976],[109.0559,31.9406],[109.336,31.7052],[109.594,31.7376],[109.6663,32.043],[109.487,32.3546],[109.6348,32.5906],[110.1683,32.6224],[110.0958,32.8413],[109.7396,32.93],[109.7573,33.0801],[109.4531,33.1482],[109.6597,33.2641],[110.2344,33.1563],[110.5474,33.2453],[110.7529,33.098],[110.9746,33.2665],[110.9682,33.5988],[110.5938,33.8797],[110.6183,34.1625],[110.3277,34.4798],[110.336,34.6158],[110.2374,34.8014],[110.3354,35.198],[110.6198,35.5973],[110.4472,36.1419],[110.4832,36.593],[110.3696,36.8912],[110.7888,37.5614],[110.515,37.955],[110.5112,38.2022],[110.8528,38.4572],[110.995,39.0038],[111.2249,39.3105],[111.11,39.3852],[111.1206,39.5808],[110.6379,39.2451],[110.4942,39.3743],[109.6743,39.0112],[108.9864,38.3352],[108.9543,37.9255],[108.7643,37.6819],[108.0387,37.6325],[107.6576,37.8529],[107.3172,37.5902],[107.2855,37.0685],[107.282,36.9149],[107.8865,36.7554],[108.0417,36.5977],[108.7037,36.359],[108.6771,36.0052],[108.4931,35.8812],[108.6172,35.3928],[108.4926,35.2725],[107.6705,35.228],[107.8303,34.9767],[107.2109,34.8918],[106.9148,35.089],[106.5646,35.0796],[106.5497,34.8626],[106.3177,34.5833],[106.6736,34.3847],[106.4243,33.8988],[106.5595,33.5986],[106.0735,33.6175],[105.718,33.3887],[105.9127,33.2337],[105.8865,32.978],[105.4986,32.9074],[105.5683,32.7305],[106.1025,32.8598],[106.2289,32.592],[106.7126,32.7378],[107.0653,32.7083],[107.2022,32.4528],[107.4483,32.5222],[108.0031,32.1499],[108.5184,32.1976]]]}},{"type":"Feature","id":"label-CHN-1804","properties":{"kind":"division-label","code":"CHN-1804","countryCode":"CHN","name":"Shaanxi","localName":"陝西|陕西","labelEnglish":"Shaanxi","labelLocal":"陝西|陕西","labelBoth":"Shaanxi · 陝西|陕西","type":"Province","iso":"CN-SN","qid":"Q47974"},"geometry":{"type":"Point","coordinates":[108.363,33.7713]}},{"type":"Feature","id":"CHN-1151","properties":{"kind":"division","code":"CHN-1151","countryCode":"CHN","name":"Qinghai","localName":"Qinghai","labelEnglish":"Qinghai","labelLocal":"Qinghai","labelBoth":"Qinghai","type":"Province","iso":"CN-QH","qid":"Q45833"},"geometry":{"type":"Polygon","coordinates":[[[92.936,39.1529],[91.2944,38.7451],[90.6535,38.6741],[90.1509,38.4328],[90.4393,37.9961],[90.4365,37.7786],[91.0737,37.4879],[91.2876,37.0135],[90.8078,36.9106],[90.6881,36.6985],[91.0067,36.5035],[91.1358,36.1406],[90.875,36.0036],[90.6227,36.1111],[89.6778,36.082],[89.4351,35.9878],[89.7888,35.8269],[89.7301,35.4437],[89.4843,35.3422],[89.5627,34.9564],[89.7877,34.9264],[89.7239,34.7396],[89.8456,34.37],[89.6367,34.0934],[90.2057,33.4015],[90.8041,33.1405],[91.3616,33.337],[91.5427,33.0803],[92.2214,32.745],[93.0059,32.7346],[93.5104,32.5161],[93.7342,32.5725],[94.1108,32.4782],[94.5822,32.6722],[95.0618,32.2612],[95.4253,32.0948],[95.4971,31.7417],[96.0942,31.7005],[96.2782,31.9091],[96.4832,31.7535],[96.7954,31.7155],[96.733,31.9603],[97.2549,32.0758],[97.3609,32.5002],[97.7157,32.5442],[97.4307,32.7003],[97.361,32.897],[97.7243,33.4061],[97.3905,33.6114],[97.3835,33.8699],[97.6957,34.0052],[97.7451,33.8649],[98.0349,33.9598],[98.4579,33.8401],[98.6458,33.6762],[98.8521,33.1749],[99.2894,32.8871],[99.6985,32.7446],[99.8602,33.0276],[100.1586,32.7823],[100.3994,32.7584],[100.603,32.4512],[100.6747,32.6831],[101.1708,32.6883],[101.1641,33.1281],[101.4452,33.2359],[101.6436,33.1278],[101.7775,33.53],[101.4956,33.7046],[101.1603,33.6641],[101.1295,33.8506],[100.7917,34.1549],[100.9353,34.3863],[101.6117,34.1912],[101.7804,34.0675],[102.2123,34.3515],[102.1503,34.4951],[101.7551,34.7037],[102.3756,35.2037],[102.2893,35.4069],[102.6874,35.5146],[102.7003,35.8395],[102.976,35.8333],[103.0404,36.2165],[102.8186,36.3261],[102.4601,36.9557],[102.5506,37.1638],[102.0327,37.4789],[101.9371,37.7307],[101.7854,37.5205],[101.0498,37.9637],[100.6357,38.1054],[100.1408,38.4858],[100.1585,38.2074],[99.7999,38.3657],[98.7819,39.0677],[98.6022,38.9476],[98.3243,39.0233],[98.0686,38.8018],[97.3626,39.1504],[97.0265,39.1962],[96.9455,38.3582],[96.0548,38.6788],[95.3053,39.1828],[95.0572,39.1475],[94.4793,39.3178],[93.7221,39.3067],[92.936,39.1529]]]}},{"type":"Feature","id":"label-CHN-1151","properties":{"kind":"division-label","code":"CHN-1151","countryCode":"CHN","name":"Qinghai","localName":"Qinghai","labelEnglish":"Qinghai","labelLocal":"Qinghai","labelBoth":"Qinghai","type":"Province","iso":"CN-QH","qid":"Q45833"},"geometry":{"type":"Point","coordinates":[96.2377,35.2652]}},{"type":"Feature","id":"CHN-1805","properties":{"kind":"division","code":"CHN-1805","countryCode":"CHN","name":"Shanxi","localName":"山西","labelEnglish":"Shanxi","labelLocal":"山西","labelBoth":"Shanxi · 山西","type":"Province","iso":"CN-SX","qid":"Q46913"},"geometry":{"type":"Polygon","coordinates":[[[114.1541,40.7426],[114.0438,40.488],[113.3341,40.3187],[113.2299,40.4167],[112.7014,40.1748],[112.3992,40.2883],[111.9215,39.6888],[111.4899,39.6522],[111.11,39.3852],[111.2249,39.3105],[110.995,39.0038],[110.8528,38.4572],[110.5112,38.2022],[110.515,37.955],[110.7888,37.5614],[110.3696,36.8912],[110.4832,36.593],[110.4472,36.1419],[110.6198,35.5973],[110.3354,35.198],[110.2374,34.8014],[110.336,34.6158],[110.5305,34.5837],[111.5577,34.8634],[112.0585,35.2345],[112.9028,35.2406],[113.6099,35.6461],[113.721,36.3559],[113.4539,36.7366],[113.776,36.8906],[113.7543,37.1149],[114.0531,37.5006],[114.0264,37.7508],[113.7907,38.1529],[113.5579,38.2434],[113.5345,38.5373],[113.8251,38.8103],[113.8533,39.0723],[114.394,39.1693],[114.5409,39.5312],[114.3828,39.8611],[113.9359,40.0157],[114.0854,40.185],[114.5107,40.325],[114.2858,40.3786],[114.1541,40.7426]]]}},{"type":"Feature","id":"label-CHN-1805","properties":{"kind":"division-label","code":"CHN-1805","countryCode":"CHN","name":"Shanxi","localName":"山西","labelEnglish":"Shanxi","labelLocal":"山西","labelBoth":"Shanxi · 山西","type":"Province","iso":"CN-SX","qid":"Q46913"},"geometry":{"type":"Point","coordinates":[112.389,37.7586]}},{"type":"Feature","id":"CHN-1817","properties":{"kind":"division","code":"CHN-1817","countryCode":"CHN","name":"Jiangxi","localName":"江西","labelEnglish":"Jiangxi","labelLocal":"江西","labelBoth":"Jiangxi · 江西","type":"Province","iso":"CN-JX","qid":"Q57052"},"geometry":{"type":"Polygon","coordinates":[[[113.9275,25.4481],[114.026,25.2677],[114.5693,25.4069],[114.7307,25.1294],[114.4135,24.9797],[114.1691,24.6696],[114.4249,24.4996],[114.8627,24.5878],[115.4206,24.7846],[115.7058,24.5457],[115.8875,24.9168],[115.8428,25.1947],[115.9787,25.3508],[116.1352,25.8663],[116.3232,25.9551],[116.399,26.2875],[116.6195,26.4921],[116.505,26.6893],[116.6697,26.9869],[116.9234,27.021],[117.1538,27.2764],[117.1123,27.5676],[117.2842,27.857],[117.5089,27.9708],[117.7456,27.8133],[117.8234,27.9373],[118.3678,28.0997],[118.4464,28.2887],[118.4255,28.6952],[118.0008,29.1439],[118.1747,29.4079],[117.9859,29.572],[117.5274,29.6224],[117.4063,29.8312],[117.0671,29.8406],[117.0791,29.7102],[116.7247,29.5528],[116.675,29.708],[116.8868,29.9204],[116.6505,30.0507],[116.4925,29.8847],[116.1473,29.7888],[115.8559,29.7386],[115.4862,29.8643],[115.2721,29.6147],[114.886,29.5245],[114.8182,29.3939],[114.2465,29.2489],[113.9024,29.0663],[114.1427,28.7885],[114.0569,28.5643],[114.2269,28.409],[113.9165,28.0212],[113.7368,27.9816],[113.5621,27.5906],[113.6001,27.3682],[113.851,27.3459],[113.754,27.1419],[113.8924,26.9453],[113.8647,26.6559],[114.0851,26.5775],[113.9254,26.1704],[114.1622,26.2214],[113.9072,25.7498],[113.9275,25.4481]]]}},{"type":"Feature","id":"label-CHN-1817","properties":{"kind":"division-label","code":"CHN-1817","countryCode":"CHN","name":"Jiangxi","localName":"江西","labelEnglish":"Jiangxi","labelLocal":"江西","labelBoth":"Jiangxi · 江西","type":"Province","iso":"CN-JX","qid":"Q57052"},"geometry":{"type":"Point","coordinates":[116.017,27.6397]}},{"type":"Feature","id":"CHN-1812","properties":{"kind":"division","code":"CHN-1812","countryCode":"CHN","name":"Henan","localName":"河南","labelEnglish":"Henan","labelLocal":"河南","labelBoth":"Henan · 河南","type":"Province","iso":"CN-HA","qid":"Q43684"},"geometry":{"type":"Polygon","coordinates":[[[115.4603,36.1579],[114.5484,36.139],[113.9893,36.359],[113.721,36.3559],[113.6099,35.6461],[112.9028,35.2406],[112.0585,35.2345],[111.5577,34.8634],[110.5305,34.5837],[110.336,34.6158],[110.3277,34.4798],[110.6183,34.1625],[110.5938,33.8797],[110.9682,33.5988],[110.9746,33.2665],[111.2101,32.9302],[111.7793,32.5204],[112.2858,32.3506],[113.0458,32.4252],[113.5277,32.2967],[113.7292,32.4193],[113.7944,31.9725],[113.972,31.7466],[114.144,31.8475],[114.5557,31.7377],[114.5479,31.5729],[114.9989,31.4776],[115.1286,31.5945],[115.374,31.4175],[115.5315,31.7364],[115.9013,31.7945],[115.8709,32.5324],[115.5648,32.4024],[115.1993,32.5915],[115.1847,32.8591],[114.8866,33.0834],[115.1428,33.0843],[115.3453,33.2506],[115.3421,33.5007],[115.6347,33.5918],[115.6536,34.0484],[115.9614,34.0001],[116.182,33.7183],[116.6412,33.9532],[116.5521,34.2868],[116.401,34.275],[116.1513,34.5667],[115.5417,34.5775],[115.1745,34.9442],[114.8342,35.0162],[114.8516,35.1782],[115.2265,35.4162],[115.9269,36.022],[115.3339,35.9311],[115.4603,36.1579]]]}},{"type":"Feature","id":"label-CHN-1812","properties":{"kind":"division-label","code":"CHN-1812","countryCode":"CHN","name":"Henan","localName":"河南","labelEnglish":"Henan","labelLocal":"河南","labelBoth":"Henan · 河南","type":"Province","iso":"CN-HA","qid":"Q43684"},"geometry":{"type":"Point","coordinates":[113.484,33.9055]}},{"type":"Feature","id":"CHN-1807","properties":{"kind":"division","code":"CHN-1807","countryCode":"CHN","name":"Hubei","localName":"湖北","labelEnglish":"Hubei","labelLocal":"湖北","labelBoth":"Hubei · 湖北","type":"Province","iso":"CN-HB","qid":"Q46862"},"geometry":{"type":"Polygon","coordinates":[[[109.594,31.7376],[109.7326,31.5611],[110.1082,31.398],[110.1749,31.1887],[110.0662,30.8285],[109.8707,30.8886],[109.3942,30.5837],[108.67,30.5738],[108.3806,30.3997],[108.532,30.3155],[108.521,29.7272],[108.613,29.858],[108.872,29.639],[108.9206,29.349],[109.2066,29.1042],[109.4323,29.5339],[109.7832,29.7349],[110.1039,29.7854],[110.3617,29.6501],[110.5912,29.7714],[110.4632,30.014],[110.7419,30.0962],[111.7686,29.9196],[112.2177,29.6691],[112.2819,29.5369],[112.6481,29.6269],[112.8862,29.7918],[112.9278,29.4952],[113.1279,29.4629],[113.5903,29.88],[113.7294,29.4371],[113.6549,29.124],[113.9024,29.0663],[114.2465,29.2489],[114.8182,29.3939],[114.886,29.5245],[115.2721,29.6147],[115.4862,29.8643],[115.8559,29.7386],[116.1473,29.7888],[115.946,30.4459],[115.7678,30.6882],[116.036,30.9889],[115.374,31.4175],[115.1286,31.5945],[114.9989,31.4776],[114.5479,31.5729],[114.5557,31.7377],[114.144,31.8475],[113.972,31.7466],[113.7944,31.9725],[113.7292,32.4193],[113.5277,32.2967],[113.0458,32.4252],[112.2858,32.3506],[111.7793,32.5204],[111.2101,32.9302],[110.9746,33.2665],[110.7529,33.098],[110.5474,33.2453],[110.2344,33.1563],[109.6597,33.2641],[109.4531,33.1482],[109.7573,33.0801],[109.7396,32.93],[110.0958,32.8413],[110.1683,32.6224],[109.6348,32.5906],[109.487,32.3546],[109.6663,32.043],[109.594,31.7376]]]}},{"type":"Feature","id":"label-CHN-1807","properties":{"kind":"division-label","code":"CHN-1807","countryCode":"CHN","name":"Hubei","localName":"湖北","labelEnglish":"Hubei","labelLocal":"湖北","labelBoth":"Hubei · 湖北","type":"Province","iso":"CN-HB","qid":"Q46862"},"geometry":{"type":"Point","coordinates":[112.264,30.9857]}},{"type":"Feature","id":"CHN-1179","properties":{"kind":"division","code":"CHN-1179","countryCode":"CHN","name":"Anhui","localName":"安徽|安徽","labelEnglish":"Anhui","labelLocal":"安徽|安徽","labelBoth":"Anhui · 安徽|安徽","type":"Province","iso":"CN-AH","qid":"Q40956"},"geometry":{"type":"Polygon","coordinates":[[[119.6298,31.1329],[119.3489,31.2858],[118.8161,31.2263],[118.8605,31.6274],[118.352,31.9467],[118.6504,32.2379],[118.5518,32.5744],[118.8913,32.5957],[119.0805,32.4461],[119.1565,32.8183],[118.8574,32.9723],[118.7202,32.7321],[118.3991,32.7309],[118.218,33.1799],[117.9319,33.2351],[118.1767,33.6926],[117.7269,33.7279],[117.6239,34.0083],[117.0339,34.1555],[116.9495,34.3893],[116.3772,34.6395],[116.1513,34.5667],[116.401,34.275],[116.5521,34.2868],[116.6412,33.9532],[116.182,33.7183],[115.9614,34.0001],[115.6536,34.0484],[115.6347,33.5918],[115.3421,33.5007],[115.3453,33.2506],[115.1428,33.0843],[114.8866,33.0834],[115.1847,32.8591],[115.1993,32.5915],[115.5648,32.4024],[115.8709,32.5324],[115.9013,31.7945],[115.5315,31.7364],[115.374,31.4175],[116.036,30.9889],[115.7678,30.6882],[115.946,30.4459],[116.1473,29.7888],[116.4925,29.8847],[116.6505,30.0507],[116.8868,29.9204],[116.675,29.708],[116.7247,29.5528],[117.0791,29.7102],[117.0671,29.8406],[117.4063,29.8312],[117.5274,29.6224],[117.9859,29.572],[118.1747,29.4079],[118.3732,29.4528],[118.7237,29.7302],[118.894,29.9826],[118.8811,30.3244],[119.3924,30.3684],[119.2415,30.5508],[119.4431,30.6392],[119.6298,31.1329]]]}},{"type":"Feature","id":"label-CHN-1179","properties":{"kind":"division-label","code":"CHN-1179","countryCode":"CHN","name":"Anhui","localName":"安徽|安徽","labelEnglish":"Anhui","labelLocal":"安徽|安徽","labelBoth":"Anhui · 安徽|安徽","type":"Province","iso":"CN-AH","qid":"Q40956"},"geometry":{"type":"Point","coordinates":[117.253,31.9537]}}]}