{"type":"FeatureCollection","features":[{"type":"Feature","id":"CIV-3437","properties":{"kind":"division","code":"CIV-3437","countryCode":"CIV","name":"Denguélé","localName":"Denguélé","labelEnglish":"Denguélé","labelLocal":"Denguélé","labelBoth":"Denguélé","type":"Region","iso":"CI-10","qid":"Q729010"},"geometry":{"type":"Polygon","coordinates":[[[-8.1524,9.95],[-8.1616,9.5756],[-8.0704,9.3975],[-7.8654,9.4099],[-7.9296,9.1839],[-7.7482,9.0754],[-7.1865,8.5236],[-7.23,8.8702],[-7.1345,9.0051],[-6.9074,8.9427],[-6.7466,9.1178],[-6.7977,9.5653],[-6.7336,9.8443],[-6.9471,9.9555],[-6.8553,10.1309],[-6.5835,10.1672],[-6.6683,10.3658],[-6.9731,10.3323],[-6.9594,10.1855],[-7.347,10.2479],[-7.4662,10.4295],[-7.6644,10.4371],[-7.9897,10.162],[-8.1524,9.95]]]}},{"type":"Feature","id":"label-CIV-3437","properties":{"kind":"division-label","code":"CIV-3437","countryCode":"CIV","name":"Denguélé","localName":"Denguélé","labelEnglish":"Denguélé","labelLocal":"Denguélé","labelBoth":"Denguélé","type":"Region","iso":"CI-10","qid":"Q729010"},"geometry":{"type":"Point","coordinates":[-7.37781,9.52894]}},{"type":"Feature","id":"CIV-3440","properties":{"kind":"division","code":"CIV-3440","countryCode":"CIV","name":"Bafing","localName":"Bafing","labelEnglish":"Bafing","labelLocal":"Bafing","labelBoth":"Bafing","type":"Region","iso":"CI-17","qid":"Q799800"},"geometry":{"type":"Polygon","coordinates":[[[-7.7482,9.0754],[-7.9167,9.0123],[-7.9589,8.782],[-7.6916,8.6061],[-7.8238,8.4779],[-8.2489,8.4536],[-8.266,8.246],[-8.0024,8.1743],[-7.9656,8.0269],[-7.6685,7.8428],[-7.4969,7.935],[-7.4497,8.1668],[-7.0838,7.9893],[-7.1865,8.5236],[-7.7482,9.0754]]]}},{"type":"Feature","id":"label-CIV-3440","properties":{"kind":"division-label","code":"CIV-3440","countryCode":"CIV","name":"Bafing","localName":"Bafing","labelEnglish":"Bafing","labelLocal":"Bafing","labelBoth":"Bafing","type":"Region","iso":"CI-17","qid":"Q799800"},"geometry":{"type":"Point","coordinates":[-7.67511,8.11221]}},{"type":"Feature","id":"CIV-3441","properties":{"kind":"division","code":"CIV-3441","countryCode":"CIV","name":"Dix-Huit Montagnes","localName":"Dix-Huit Montagnes","labelEnglish":"Dix-Huit Montagnes","labelLocal":"Dix-Huit Montagnes","labelBoth":"Dix-Huit Montagnes","type":"Department","iso":"CI-06","qid":"Q820486"},"geometry":{"type":"Polygon","coordinates":[[[-7.9656,8.0269],[-8.0672,8.0208],[-8.229,7.5443],[-8.4854,7.558],[-8.2841,7.0179],[-8.4416,6.6553],[-8.3203,6.586],[-7.9897,6.9684],[-7.8335,6.8462],[-7.3013,6.9643],[-7.0627,6.9295],[-7.0716,7.7195],[-7.0838,7.9893],[-7.4497,8.1668],[-7.4969,7.935],[-7.6685,7.8428],[-7.9656,8.0269]]]}},{"type":"Feature","id":"label-CIV-3441","properties":{"kind":"division-label","code":"CIV-3441","countryCode":"CIV","name":"Dix-Huit Montagnes","localName":"Dix-Huit Montagnes","labelEnglish":"Dix-Huit Montagnes","labelLocal":"Dix-Huit Montagnes","labelBoth":"Dix-Huit Montagnes","type":"Department","iso":"CI-06","qid":"Q820486"},"geometry":{"type":"Point","coordinates":[-7.73423,7.36283]}},{"type":"Feature","id":"CIV-3449","properties":{"kind":"division","code":"CIV-3449","countryCode":"CIV","name":"Zanzan","localName":"Zanzan","labelEnglish":"Zanzan","labelLocal":"Zanzan","labelBoth":"Zanzan","type":"Region","iso":"CI-08","qid":"Q147081"},"geometry":{"type":"Polygon","coordinates":[[[-2.6892,9.4887],[-2.7637,9.3919],[-3.2026,9.9082],[-3.8916,9.8939],[-4.2531,9.7501],[-4.3225,9.609],[-4.1737,9.2333],[-3.8936,9.1655],[-3.7935,8.8116],[-3.9317,8.6139],[-4.0101,8.0283],[-3.5414,7.4956],[-3.535,7.3379],[-3.2351,7.2247],[-3.0966,7.0545],[-2.84,7.8202],[-2.5063,8.2093],[-2.6031,8.7852],[-2.7748,9.055],[-2.6892,9.4887]]]}},{"type":"Feature","id":"label-CIV-3449","properties":{"kind":"division-label","code":"CIV-3449","countryCode":"CIV","name":"Zanzan","localName":"Zanzan","labelEnglish":"Zanzan","labelLocal":"Zanzan","labelBoth":"Zanzan","type":"Region","iso":"CI-08","qid":"Q147081"},"geometry":{"type":"Point","coordinates":[-3.41485,8.60755]}},{"type":"Feature","id":"CIV-3460","properties":{"kind":"division","code":"CIV-3460","countryCode":"CIV","name":"Comoé","localName":"Comoé","labelEnglish":"Comoé","labelLocal":"Comoé","labelBoth":"Comoé","type":"Department","iso":"CI-05","qid":"Q1074496"},"geometry":{"type":"Polygon","coordinates":[[[-3.0966,7.0545],[-3.2351,7.2247],[-3.535,7.3379],[-3.7516,7.0001],[-3.7749,6.6271],[-3.4203,6.2053],[-3.4677,5.8376],[-3.4341,5.7803],[-3.1717,6.2496],[-3.2625,6.6171],[-3.0973,7.0541],[-3.0966,7.0545]]]}},{"type":"Feature","id":"label-CIV-3460","properties":{"kind":"division-label","code":"CIV-3460","countryCode":"CIV","name":"Comoé","localName":"Comoé","labelEnglish":"Comoé","labelLocal":"Comoé","labelBoth":"Comoé","type":"Department","iso":"CI-05","qid":"Q1074496"},"geometry":{"type":"Point","coordinates":[-3.47724,6.76303]}},{"type":"Feature","id":"CIV-3462","properties":{"kind":"division","code":"CIV-3462","countryCode":"CIV","name":"Sud-Comoé","localName":"Sud-Comoé","labelEnglish":"Sud-Comoé","labelLocal":"Sud-Comoé","labelBoth":"Sud-Comoé","type":"Region","iso":"CI-13","qid":"Q842495"},"geometry":{"type":"Polygon","coordinates":[[[-3.1717,6.2496],[-3.4341,5.7803],[-3.437,5.2832],[-3.5388,5.1573],[-3.3122,5.1199],[-3.1278,5.3596],[-3.1391,5.1423],[-2.8437,5.1491],[-2.757,5.1799],[-2.7818,5.5789],[-2.9695,5.6214],[-3.1717,6.2496]]]}},{"type":"Feature","id":"label-CIV-3462","properties":{"kind":"division-label","code":"CIV-3462","countryCode":"CIV","name":"Sud-Comoé","localName":"Sud-Comoé","labelEnglish":"Sud-Comoé","labelLocal":"Sud-Comoé","labelBoth":"Sud-Comoé","type":"Region","iso":"CI-13","qid":"Q842495"},"geometry":{"type":"Point","coordinates":[-3.12754,5.52003]}},{"type":"Feature","id":"CIV-3431","properties":{"kind":"division","code":"CIV-3431","countryCode":"CIV","name":"Savanes","localName":"Savanes","labelEnglish":"Savanes","labelLocal":"Savanes","labelBoth":"Savanes","type":"Department","iso":"CI-03","qid":"Q853460"},"geometry":{"type":"Polygon","coordinates":[[[-5.5226,10.4255],[-5.8063,10.4135],[-6.0159,10.1899],[-6.2433,10.289],[-6.2458,10.7207],[-6.4215,10.5566],[-6.6692,10.6542],[-6.6683,10.3658],[-6.5835,10.1672],[-6.8553,10.1309],[-6.9471,9.9555],[-6.7336,9.8443],[-6.7977,9.5653],[-6.7466,9.1178],[-6.2153,9.134],[-5.9563,8.6406],[-5.6104,8.5292],[-5.6916,8.8411],[-5.461,8.8907],[-5.4972,9.0633],[-5.3381,9.3848],[-5.0191,9.2933],[-4.8828,9.0921],[-4.936,8.909],[-4.4045,8.8466],[-4.2107,8.6392],[-3.9317,8.6139],[-3.7935,8.8116],[-3.8936,9.1655],[-4.1737,9.2333],[-4.3225,9.609],[-4.6811,9.6821],[-4.9661,9.901],[-5.1199,10.294],[-5.5226,10.4255]]]}},{"type":"Feature","id":"label-CIV-3431","properties":{"kind":"division-label","code":"CIV-3431","countryCode":"CIV","name":"Savanes","localName":"Savanes","labelEnglish":"Savanes","labelLocal":"Savanes","labelBoth":"Savanes","type":"Department","iso":"CI-03","qid":"Q853460"},"geometry":{"type":"Point","coordinates":[-5.36817,9.82238]}},{"type":"Feature","id":"CIV-3459","properties":{"kind":"division","code":"CIV-3459","countryCode":"CIV","name":"Moyen-Cavally","localName":"Moyen-Cavally","labelEnglish":"Moyen-Cavally","labelLocal":"Moyen-Cavally","labelBoth":"Moyen-Cavally","type":"Department","iso":"CI-19","qid":"Q842499"},"geometry":{"type":"Polygon","coordinates":[[[-8.4416,6.6553],[-8.6187,6.4928],[-8.1706,6.274],[-7.9144,6.2717],[-7.7996,5.9745],[-7.4465,5.8459],[-7.418,5.6278],[-7.0941,5.6906],[-7.1103,6.491],[-6.9974,6.5579],[-7.0627,6.9295],[-7.3013,6.9643],[-7.8335,6.8462],[-7.9897,6.9684],[-8.3203,6.586],[-8.4416,6.6553]]]}},{"type":"Feature","id":"label-CIV-3459","properties":{"kind":"division-label","code":"CIV-3459","countryCode":"CIV","name":"Moyen-Cavally","localName":"Moyen-Cavally","labelEnglish":"Moyen-Cavally","labelLocal":"Moyen-Cavally","labelBoth":"Moyen-Cavally","type":"Department","iso":"CI-19","qid":"Q842499"},"geometry":{"type":"Point","coordinates":[-7.79453,5.99237]}},{"type":"Feature","id":"CIV-3448","properties":{"kind":"division","code":"CIV-3448","countryCode":"CIV","name":"Bas-Sassandra","localName":"Bas-Sassandra","labelEnglish":"Bas-Sassandra","labelLocal":"Bas-Sassandra","labelBoth":"Bas-Sassandra","type":"Department","iso":"CI-09","qid":"Q809733"},"geometry":{"type":"Polygon","coordinates":[[[-7.418,5.6278],[-7.4099,5.5134],[-7.606,4.8174],[-7.5407,4.3528],[-6.9142,4.6557],[-5.8587,5.0277],[-5.744,5.2759],[-5.8288,5.5595],[-6.0516,5.6782],[-6.2186,5.7781],[-6.3999,6.3048],[-6.8542,6.2595],[-6.9974,6.5579],[-7.1103,6.491],[-7.0941,5.6906],[-7.418,5.6278]]]}},{"type":"Feature","id":"label-CIV-3448","properties":{"kind":"division-label","code":"CIV-3448","countryCode":"CIV","name":"Bas-Sassandra","localName":"Bas-Sassandra","labelEnglish":"Bas-Sassandra","labelLocal":"Bas-Sassandra","labelBoth":"Bas-Sassandra","type":"Department","iso":"CI-09","qid":"Q809733"},"geometry":{"type":"Point","coordinates":[-6.67522,5.47996]}},{"type":"Feature","id":"CIV-3447","properties":{"kind":"division","code":"CIV-3447","countryCode":"CIV","name":"Sud-Bandama","localName":"Sud-Bandama","labelEnglish":"Sud-Bandama","labelLocal":"Sud-Bandama","labelBoth":"Sud-Bandama","type":"Department","iso":"CI-15","qid":"Q845713"},"geometry":{"type":"Polygon","coordinates":[[[-5.4283,5.0989],[-5.3245,5.1908],[-5.2341,5.2231],[-5.0881,5.2315],[-4.9377,5.7957],[-5.0078,6.1108],[-5.2444,6.2181],[-5.7288,6.1962],[-5.7814,5.9636],[-6.0516,5.6782],[-5.8288,5.5595],[-5.744,5.2759],[-5.8587,5.0277],[-5.4283,5.0989]]]}},{"type":"Feature","id":"label-CIV-3447","properties":{"kind":"division-label","code":"CIV-3447","countryCode":"CIV","name":"Sud-Bandama","localName":"Sud-Bandama","labelEnglish":"Sud-Bandama","labelLocal":"Sud-Bandama","labelBoth":"Sud-Bandama","type":"Department","iso":"CI-15","qid":"Q845713"},"geometry":{"type":"Point","coordinates":[-5.49467,5.63293]}},{"type":"Feature","id":"CIV-3458","properties":{"kind":"division","code":"CIV-3458","countryCode":"CIV","name":"Lagunes","localName":"Lagunes","labelEnglish":"Lagunes","labelLocal":"Lagunes","labelBoth":"Lagunes","type":"Department","iso":"CI-01","qid":"Q639491"},"geometry":{"type":"MultiPolygon","coordinates":[[[[-5.3245,5.1908],[-5.4283,5.0989],[-5.0024,5.1286],[-5.3245,5.1908]]],[[[-3.5388,5.1573],[-3.437,5.2832],[-3.4341,5.7803],[-3.4677,5.8376],[-3.7184,5.9062],[-3.9313,5.6216],[-4.3075,5.6012],[-4.6591,5.8581],[-4.463,6.224],[-4.7015,6.282],[-5.025,6.2519],[-5.2153,6.3668],[-5.2444,6.2181],[-5.0078,6.1108],[-4.9377,5.7957],[-5.0881,5.2315],[-5.2341,5.2231],[-4.9691,5.1374],[-3.9958,5.2317],[-4.0605,5.2834],[-4.8038,5.2044],[-4.3214,5.311],[-4.0609,5.2995],[-3.5388,5.1573]]]]}},{"type":"Feature","id":"label-CIV-3458","properties":{"kind":"division-label","code":"CIV-3458","countryCode":"CIV","name":"Lagunes","localName":"Lagunes","labelEnglish":"Lagunes","labelLocal":"Lagunes","labelBoth":"Lagunes","type":"Department","iso":"CI-01","qid":"Q639491"},"geometry":{"type":"Point","coordinates":[-4.42852,5.4607]}},{"type":"Feature","id":"CIV-3446","properties":{"kind":"division","code":"CIV-3446","countryCode":"CIV","name":"Haut-Sassandra","localName":"Haut-Sassandra","labelEnglish":"Haut-Sassandra","labelLocal":"Haut-Sassandra","labelBoth":"Haut-Sassandra","type":"Department","iso":"CI-02","qid":"Q845709"},"geometry":{"type":"Polygon","coordinates":[[[-7.0716,7.7195],[-7.0627,6.9295],[-6.9974,6.5579],[-6.8542,6.2595],[-6.3999,6.3048],[-6.0986,6.3737],[-6.0408,6.5198],[-6.1984,7.0138],[-5.9319,7.1654],[-6.2205,7.2851],[-6.4458,7.2548],[-6.3008,7.5112],[-6.1057,7.6184],[-6.2488,7.7767],[-7.0716,7.7195]]]}},{"type":"Feature","id":"label-CIV-3446","properties":{"kind":"division-label","code":"CIV-3446","countryCode":"CIV","name":"Haut-Sassandra","localName":"Haut-Sassandra","labelEnglish":"Haut-Sassandra","labelLocal":"Haut-Sassandra","labelBoth":"Haut-Sassandra","type":"Department","iso":"CI-02","qid":"Q845709"},"geometry":{"type":"Point","coordinates":[-6.50859,7.01394]}},{"type":"Feature","id":"CIV-3451","properties":{"kind":"division","code":"CIV-3451","countryCode":"CIV","name":"Agnéby","localName":"Agnéby","labelEnglish":"Agnéby","labelLocal":"Agnéby","labelBoth":"Agnéby","type":"Department","iso":"CI-16","qid":"Q395166"},"geometry":{"type":"Polygon","coordinates":[[[-3.7749,6.6271],[-4.0887,6.4835],[-4.1466,6.2342],[-4.463,6.224],[-4.6591,5.8581],[-4.3075,5.6012],[-3.9313,5.6216],[-3.7184,5.9062],[-3.4677,5.8376],[-3.4203,6.2053],[-3.7749,6.6271]]]}},{"type":"Feature","id":"label-CIV-3451","properties":{"kind":"division-label","code":"CIV-3451","countryCode":"CIV","name":"Agnéby","localName":"Agnéby","labelEnglish":"Agnéby","labelLocal":"Agnéby","labelBoth":"Agnéby","type":"Department","iso":"CI-16","qid":"Q395166"},"geometry":{"type":"Point","coordinates":[-4.02187,6.06215]}},{"type":"Feature","id":"CIV-3452","properties":{"kind":"division","code":"CIV-3452","countryCode":"CIV","name":"N'zi-Comoé","localName":"N'zi-Comoé","labelEnglish":"N'zi-Comoé","labelLocal":"N'zi-Comoé","labelBoth":"N'zi-Comoé","type":"Department","iso":"CI-11","qid":"Q842491"},"geometry":{"type":"Polygon","coordinates":[[[-3.7749,6.6271],[-3.7516,7.0001],[-3.535,7.3379],[-3.5414,7.4956],[-4.0101,8.0283],[-4.5272,7.7998],[-4.661,7.5162],[-4.8175,6.9992],[-4.954,6.8214],[-4.7015,6.282],[-4.463,6.224],[-4.1466,6.2342],[-4.0887,6.4835],[-3.7749,6.6271]]]}},{"type":"Feature","id":"label-CIV-3452","properties":{"kind":"division-label","code":"CIV-3452","countryCode":"CIV","name":"N'zi-Comoé","localName":"N'zi-Comoé","labelEnglish":"N'zi-Comoé","labelLocal":"N'zi-Comoé","labelBoth":"N'zi-Comoé","type":"Department","iso":"CI-11","qid":"Q842491"},"geometry":{"type":"Point","coordinates":[-4.23718,7.05528]}},{"type":"Feature","id":"CIV-3444","properties":{"kind":"division","code":"CIV-3444","countryCode":"CIV","name":"Marahoué","localName":"Marahoué","labelEnglish":"Marahoué","labelLocal":"Marahoué","labelBoth":"Marahoué","type":"Department","iso":"CI-12","qid":"Q839083"},"geometry":{"type":"Polygon","coordinates":[[[-5.4134,6.6401],[-5.5355,6.9149],[-5.4611,7.0372],[-5.6622,7.257],[-5.7957,7.7439],[-6.1057,7.6184],[-6.3008,7.5112],[-6.4458,7.2548],[-6.2205,7.2851],[-5.9319,7.1654],[-6.1984,7.0138],[-6.0408,6.5198],[-5.7399,6.4886],[-5.4134,6.6401]]]}},{"type":"Feature","id":"label-CIV-3444","properties":{"kind":"division-label","code":"CIV-3444","countryCode":"CIV","name":"Marahoué","localName":"Marahoué","labelEnglish":"Marahoué","labelLocal":"Marahoué","labelBoth":"Marahoué","type":"Department","iso":"CI-12","qid":"Q839083"},"geometry":{"type":"Point","coordinates":[-5.83201,6.94728]}},{"type":"Feature","id":"CIV-3445","properties":{"kind":"division","code":"CIV-3445","countryCode":"CIV","name":"Fromager","localName":"Fromager","labelEnglish":"Fromager","labelLocal":"Fromager","labelBoth":"Fromager","type":"Region","iso":"CI-18","qid":"Q818774"},"geometry":{"type":"Polygon","coordinates":[[[-5.4134,6.6401],[-5.7399,6.4886],[-6.0408,6.5198],[-6.0986,6.3737],[-6.3999,6.3048],[-6.2186,5.7781],[-6.0516,5.6782],[-5.7814,5.9636],[-5.7288,6.1962],[-5.2444,6.2181],[-5.2153,6.3668],[-5.4134,6.6401]]]}},{"type":"Feature","id":"label-CIV-3445","properties":{"kind":"division-label","code":"CIV-3445","countryCode":"CIV","name":"Fromager","localName":"Fromager","labelEnglish":"Fromager","labelLocal":"Fromager","labelBoth":"Fromager","type":"Region","iso":"CI-18","qid":"Q818774"},"geometry":{"type":"Point","coordinates":[-5.80631,6.2178]}},{"type":"Feature","id":"CIV-3450","properties":{"kind":"division","code":"CIV-3450","countryCode":"CIV","name":"Vallée du Bandama","localName":"Vallée du Bandama","labelEnglish":"Vallée du Bandama","labelLocal":"Vallée du Bandama","labelBoth":"Vallée du Bandama","type":"Region","iso":"CI-04","qid":"Q845721"},"geometry":{"type":"Polygon","coordinates":[[[-4.0101,8.0283],[-3.9317,8.6139],[-4.2107,8.6392],[-4.4045,8.8466],[-4.936,8.909],[-4.8828,9.0921],[-5.0191,9.2933],[-5.3381,9.3848],[-5.4972,9.0633],[-5.461,8.8907],[-5.6916,8.8411],[-5.6104,8.5292],[-5.3455,8.1859],[-5.7401,8],[-5.7957,7.7439],[-5.6622,7.257],[-5.281,7.2412],[-4.906,7.5358],[-4.661,7.5162],[-4.5272,7.7998],[-4.0101,8.0283]]]}},{"type":"Feature","id":"label-CIV-3450","properties":{"kind":"division-label","code":"CIV-3450","countryCode":"CIV","name":"Vallée du Bandama","localName":"Vallée du Bandama","labelEnglish":"Vallée du Bandama","labelLocal":"Vallée du Bandama","labelBoth":"Vallée du Bandama","type":"Region","iso":"CI-04","qid":"Q845721"},"geometry":{"type":"Point","coordinates":[-4.85838,8.22668]}},{"type":"Feature","id":"CIV-3461","properties":{"kind":"division","code":"CIV-3461","countryCode":"CIV","name":"Lacs","localName":"Lacs","labelEnglish":"Lacs","labelLocal":"Lacs","labelBoth":"Lacs","type":"Department","iso":"CI-07","qid":"Q845706"},"geometry":{"type":"Polygon","coordinates":[[[-4.7015,6.282],[-4.954,6.8214],[-4.8175,6.9992],[-4.661,7.5162],[-4.906,7.5358],[-5.281,7.2412],[-5.6622,7.257],[-5.4611,7.0372],[-5.5355,6.9149],[-5.4134,6.6401],[-5.2153,6.3668],[-5.025,6.2519],[-4.7015,6.282]]]}},{"type":"Feature","id":"label-CIV-3461","properties":{"kind":"division-label","code":"CIV-3461","countryCode":"CIV","name":"Lacs","localName":"Lacs","labelEnglish":"Lacs","labelLocal":"Lacs","labelBoth":"Lacs","type":"Department","iso":"CI-07","qid":"Q845706"},"geometry":{"type":"Point","coordinates":[-5.15412,6.85184]}},{"type":"Feature","id":"CIV-3443","properties":{"kind":"division","code":"CIV-3443","countryCode":"CIV","name":"Worodougou","localName":"Worodougou","labelEnglish":"Worodougou","labelLocal":"Worodougou","labelBoth":"Worodougou","type":"Region","iso":"CI-14","qid":"Q846056"},"geometry":{"type":"Polygon","coordinates":[[[-6.1057,7.6184],[-5.7957,7.7439],[-5.7401,8],[-5.3455,8.1859],[-5.6104,8.5292],[-5.9563,8.6406],[-6.2153,9.134],[-6.7466,9.1178],[-6.9074,8.9427],[-7.1345,9.0051],[-7.23,8.8702],[-7.1865,8.5236],[-7.0838,7.9893],[-7.0716,7.7195],[-6.2488,7.7767],[-6.1057,7.6184]]]}},{"type":"Feature","id":"label-CIV-3443","properties":{"kind":"division-label","code":"CIV-3443","countryCode":"CIV","name":"Worodougou","localName":"Worodougou","labelEnglish":"Worodougou","labelLocal":"Worodougou","labelBoth":"Worodougou","type":"Region","iso":"CI-14","qid":"Q846056"},"geometry":{"type":"Point","coordinates":[-6.28956,8.49071]}}]}