{"type":"FeatureCollection","features":[{"type":"Feature","id":"CMR-803","properties":{"kind":"division","code":"CMR-803","countryCode":"CMR","name":"South","localName":"South","labelEnglish":"South","labelLocal":"South","labelBoth":"South","type":"Province","iso":"CM-SU","qid":"Q857122"},"geometry":{"type":"Polygon","coordinates":[[[11.3221,2.1658],[11.3516,2.3006],[12.334,2.3096],[12.7499,2.2367],[13.2429,2.2715],[13.2946,2.1611],[13.6623,2.1578],[13.6209,2.9063],[13.4316,2.7856],[12.8353,2.9028],[12.5694,3.5584],[12.4892,3.6657],[12.2228,3.3297],[11.8993,3.462],[11.6946,3.2067],[11.2173,3.1344],[11.0371,3.4156],[10.8202,3.4788],[10.2886,3.3579],[10.2476,3.5544],[10.0652,3.5017],[9.9295,3.269],[9.7996,2.3417],[9.991,2.1656],[10.19,2.1656],[10.4097,2.1657],[11.3221,2.1658]]]}},{"type":"Feature","id":"label-CMR-803","properties":{"kind":"division-label","code":"CMR-803","countryCode":"CMR","name":"South","localName":"South","labelEnglish":"South","labelLocal":"South","labelBoth":"South","type":"Province","iso":"CM-SU","qid":"Q857122"},"geometry":{"type":"Point","coordinates":[11.731,2.79256]}},{"type":"Feature","id":"CMR-1462","properties":{"kind":"division","code":"CMR-1462","countryCode":"CMR","name":"Far North","localName":"Far North","labelEnglish":"Far North","labelLocal":"Far North","labelBoth":"Far North","type":"Province","iso":"CM-EN","qid":"Q823976"},"geometry":{"type":"Polygon","coordinates":[[[14.481,13.0005],[14.0649,13.078],[14.1798,12.3856],[14.5144,12.3235],[14.6699,12.1674],[14.5465,11.7186],[14.5938,11.4964],[14.1655,11.2383],[13.9823,11.2763],[13.7498,10.9424],[13.5663,10.679],[13.3927,10.117],[13.928,10.202],[14.1963,9.9791],[14.7325,9.9238],[15.6812,9.9913],[15.3014,10.3117],[15.0659,10.7931],[15.0288,11.0802],[15.1356,11.5308],[15.0406,12.0556],[15.0118,12.1086],[14.9049,12.2487],[14.8192,12.6388],[14.5849,12.7464],[14.481,13.0005]]]}},{"type":"Feature","id":"label-CMR-1462","properties":{"kind":"division-label","code":"CMR-1462","countryCode":"CMR","name":"Far North","localName":"Far North","labelEnglish":"Far North","labelLocal":"Far North","labelBoth":"Far North","type":"Province","iso":"CM-EN","qid":"Q823976"},"geometry":{"type":"Point","coordinates":[14.5367,10.7227]}},{"type":"Feature","id":"CMR-1483","properties":{"kind":"division","code":"CMR-1483","countryCode":"CMR","name":"North","localName":"North","labelEnglish":"North","labelLocal":"North","labelBoth":"North","type":"Province","iso":"CM-NO","qid":"Q502341"},"geometry":{"type":"Polygon","coordinates":[[[14.1963,9.9791],[13.928,10.202],[13.3927,10.117],[13.248,10.0794],[13.1955,9.5422],[12.862,9.3829],[12.8057,8.8315],[12.227,8.3863],[12.2337,8.1885],[12.6539,7.7444],[13.096,7.6],[13.2949,7.708],[13.5112,7.5924],[13.8369,7.6735],[14.1038,7.5738],[14.6571,7.028],[15.2466,7.2667],[15.481,7.5233],[15.5629,7.7924],[15.4407,7.8394],[15.2107,8.4218],[14.3495,9.1684],[13.9476,9.6378],[14.1963,9.9791]]]}},{"type":"Feature","id":"label-CMR-1483","properties":{"kind":"division-label","code":"CMR-1483","countryCode":"CMR","name":"North","localName":"North","labelEnglish":"North","labelLocal":"North","labelBoth":"North","type":"Province","iso":"CM-NO","qid":"Q502341"},"geometry":{"type":"Point","coordinates":[13.8908,8.90981]}},{"type":"Feature","id":"CMR-1482","properties":{"kind":"division","code":"CMR-1482","countryCode":"CMR","name":"Adamawa","localName":"Adamawa","labelEnglish":"Adamawa","labelLocal":"Adamawa","labelBoth":"Adamawa","type":"Province","iso":"CM-AD","qid":"Q351514"},"geometry":{"type":"Polygon","coordinates":[[[11.9035,7.4536],[11.7366,7.2633],[11.8813,7.102],[11.5618,6.8761],[11.5098,6.6123],[11.2023,6.4367],[11.1877,6.2909],[11.2917,5.9929],[11.9747,6.2586],[12.3122,6.1957],[12.5227,6.0023],[12.8829,6],[13.7617,6.0032],[14.4327,6.0791],[14.719,6.2579],[14.9219,6.6864],[15.0422,6.7908],[15.2466,7.2667],[14.6571,7.028],[14.1038,7.5738],[13.8369,7.6735],[13.5112,7.5924],[13.2949,7.708],[13.096,7.6],[12.6539,7.7444],[12.2337,8.1885],[12.1978,7.9752],[11.9035,7.4536]]]}},{"type":"Feature","id":"label-CMR-1482","properties":{"kind":"division-label","code":"CMR-1482","countryCode":"CMR","name":"Adamawa","localName":"Adamawa","labelEnglish":"Adamawa","labelLocal":"Adamawa","labelBoth":"Adamawa","type":"Province","iso":"CM-AD","qid":"Q351514"},"geometry":{"type":"Point","coordinates":[13.217,6.80472]}},{"type":"Feature","id":"CMR-1477","properties":{"kind":"division","code":"CMR-1477","countryCode":"CMR","name":"Northwest","localName":"Northwest","labelEnglish":"Northwest","labelLocal":"Northwest","labelBoth":"Northwest","type":"Province","iso":"CM-NW","qid":"Q823946"},"geometry":{"type":"Polygon","coordinates":[[[9.694,6.5343],[9.8057,6.2658],[9.6095,6.0393],[9.6746,5.8492],[10.0957,5.7284],[10.6025,5.8452],[10.6934,6.0237],[10.9962,6.1102],[11.1877,6.2909],[11.2023,6.4367],[10.8319,6.9452],[10.6025,7.0581],[10.496,6.8747],[10.1195,6.9944],[9.7698,6.7737],[9.694,6.5343]]]}},{"type":"Feature","id":"label-CMR-1477","properties":{"kind":"division-label","code":"CMR-1477","countryCode":"CMR","name":"Northwest","localName":"Northwest","labelEnglish":"Northwest","labelLocal":"Northwest","labelBoth":"Northwest","type":"Province","iso":"CM-NW","qid":"Q823946"},"geometry":{"type":"Point","coordinates":[10.4002,6.34548]}},{"type":"Feature","id":"CMR-799","properties":{"kind":"division","code":"CMR-799","countryCode":"CMR","name":"Southwest","localName":"Southwest","labelEnglish":"Southwest","labelLocal":"Southwest","labelBoth":"Southwest","type":"Province","iso":"CM-SW","qid":"Q607499"},"geometry":{"type":"Polygon","coordinates":[[[9.6448,6.5212],[9.4886,6.4182],[8.8559,5.8475],[8.8937,5.6218],[8.7989,5.1596],[8.5942,4.8153],[8.5103,4.527],[8.9357,4.5533],[8.9712,4.1008],[9.3316,3.9219],[9.4529,4.077],[9.5028,4.1023],[9.4395,4.2434],[9.8501,5.0878],[9.8704,5.3571],[10.0957,5.7284],[9.6746,5.8492],[9.6095,6.0393],[9.8057,6.2658],[9.694,6.5343],[9.6448,6.5212]]]}},{"type":"Feature","id":"label-CMR-799","properties":{"kind":"division-label","code":"CMR-799","countryCode":"CMR","name":"Southwest","localName":"Southwest","labelEnglish":"Southwest","labelLocal":"Southwest","labelBoth":"Southwest","type":"Province","iso":"CM-SW","qid":"Q607499"},"geometry":{"type":"Point","coordinates":[9.24481,5.12818]}},{"type":"Feature","id":"CMR-1481","properties":{"kind":"division","code":"CMR-1481","countryCode":"CMR","name":"East","localName":"East","labelEnglish":"East","labelLocal":"East","labelBoth":"East","type":"Province","iso":"CM-ES","qid":"Q845168"},"geometry":{"type":"Polygon","coordinates":[[[16.1967,2.2365],[16.0903,2.5105],[16.0924,2.8633],[15.7856,3.108],[15.2623,3.6626],[15.026,4.0261],[15.0006,4.4032],[14.7173,4.622],[14.6601,5.0114],[14.6311,5.738],[14.4327,6.0791],[13.7617,6.0032],[12.8829,6],[13.0677,5.5574],[12.8243,5.2993],[13.2379,4.8126],[13.2103,4.5879],[12.8772,4.5096],[12.796,4.0667],[12.5086,3.8795],[12.5694,3.5584],[12.8353,2.9028],[13.4316,2.7856],[13.6209,2.9063],[13.6623,2.1578],[14.4329,2.1321],[14.5621,2.2088],[14.8925,2.0064],[15.2337,2.0313],[15.7647,1.9087],[16.159,1.7348],[16.0649,1.979],[16.1967,2.2365]]]}},{"type":"Feature","id":"label-CMR-1481","properties":{"kind":"division-label","code":"CMR-1481","countryCode":"CMR","name":"East","localName":"East","labelEnglish":"East","labelLocal":"East","labelBoth":"East","type":"Province","iso":"CM-ES","qid":"Q845168"},"geometry":{"type":"Point","coordinates":[14.1674,3.78379]}},{"type":"Feature","id":"CMR-1476","properties":{"kind":"division","code":"CMR-1476","countryCode":"CMR","name":"Littoral","localName":"Littoral","labelEnglish":"Littoral","labelLocal":"Littoral","labelBoth":"Littoral","type":"Province","iso":"CM-LT","qid":"Q845172"},"geometry":{"type":"Polygon","coordinates":[[[9.9295,3.269],[10.0652,3.5017],[10.2476,3.5544],[10.4643,3.8406],[10.5947,3.7448],[10.7213,4.0599],[11.1212,4.219],[10.924,4.6206],[10.6177,4.444],[10.4016,4.4938],[10.5036,4.9084],[10.3744,5.089],[10.1196,4.9269],[9.8704,5.3571],[9.8501,5.0878],[9.4395,4.2434],[9.5028,4.1023],[9.6189,3.9604],[9.6421,3.539],[9.9295,3.269]]]}},{"type":"Feature","id":"label-CMR-1476","properties":{"kind":"division-label","code":"CMR-1476","countryCode":"CMR","name":"Littoral","localName":"Littoral","labelEnglish":"Littoral","labelLocal":"Littoral","labelBoth":"Littoral","type":"Province","iso":"CM-LT","qid":"Q845172"},"geometry":{"type":"Point","coordinates":[10.0932,4.1938]}},{"type":"Feature","id":"CMR-798","properties":{"kind":"division","code":"CMR-798","countryCode":"CMR","name":"West","localName":"West","labelEnglish":"West","labelLocal":"West","labelBoth":"West","type":"Province","iso":"CM-OU","qid":"Q165784"},"geometry":{"type":"Polygon","coordinates":[[[11.1877,6.2909],[10.9962,6.1102],[10.6934,6.0237],[10.6025,5.8452],[10.0957,5.7284],[9.8704,5.3571],[10.1196,4.9269],[10.3744,5.089],[10.5036,4.9084],[10.946,4.9694],[11.183,5.4026],[11.2917,5.9929],[11.1877,6.2909]]]}},{"type":"Feature","id":"label-CMR-798","properties":{"kind":"division-label","code":"CMR-798","countryCode":"CMR","name":"West","localName":"West","labelEnglish":"West","labelLocal":"West","labelBoth":"West","type":"Province","iso":"CM-OU","qid":"Q165784"},"geometry":{"type":"Point","coordinates":[10.5889,5.36694]}},{"type":"Feature","id":"CMR-1480","properties":{"kind":"division","code":"CMR-1480","countryCode":"CMR","name":"Centre","localName":"Centre","labelEnglish":"Centre","labelLocal":"Centre","labelBoth":"Centre","type":"Province","iso":"CM-CE","qid":"Q739951"},"geometry":{"type":"Polygon","coordinates":[[[12.8829,6],[12.5227,6.0023],[12.3122,6.1957],[11.9747,6.2586],[11.2917,5.9929],[11.183,5.4026],[10.946,4.9694],[10.5036,4.9084],[10.4016,4.4938],[10.6177,4.444],[10.924,4.6206],[11.1212,4.219],[10.7213,4.0599],[10.5947,3.7448],[10.4643,3.8406],[10.2476,3.5544],[10.2886,3.3579],[10.8202,3.4788],[11.0371,3.4156],[11.2173,3.1344],[11.6946,3.2067],[11.8993,3.462],[12.2228,3.3297],[12.4892,3.6657],[12.5694,3.5584],[12.5086,3.8795],[12.796,4.0667],[12.8772,4.5096],[13.2103,4.5879],[13.2379,4.8126],[12.8243,5.2993],[13.0677,5.5574],[12.8829,6]]]}},{"type":"Feature","id":"label-CMR-1480","properties":{"kind":"division-label","code":"CMR-1480","countryCode":"CMR","name":"Centre","localName":"Centre","labelEnglish":"Centre","labelLocal":"Centre","labelBoth":"Centre","type":"Province","iso":"CM-CE","qid":"Q739951"},"geometry":{"type":"Point","coordinates":[11.7383,4.73268]}}]}