{"type":"FeatureCollection","features":[{"type":"Feature","id":"COD-1461","properties":{"kind":"division","code":"COD-1461","countryCode":"COD","name":"Équateur","localName":"Équateur","labelEnglish":"Équateur","labelLocal":"Équateur","labelBoth":"Équateur","type":"Province","iso":"CD-EQ","qid":"Q988104"},"geometry":{"type":"Polygon","coordinates":[[[17.5459,-0.7565],[17.2977,-1.0211],[17.0287,-1.0945],[16.656,-1.5903],[16.525,-1.8585],[16.6443,-1.9987],[16.8884,-1.9989],[16.8206,-1.7934],[17.0768,-1.8076],[17.521,-1.5263],[17.9308,-1.3739],[18.1915,-1.1307],[18.5218,-1.2657],[18.82,-1.2211],[18.8094,-0.907],[19.0481,-0.8085],[19.0859,-0.9981],[19.4735,-1.5951],[19.514,-1.7788],[19.7089,-1.6682],[19.9372,-1.9393],[20.4446,-2.0848],[20.6912,-2.023],[21.0071,-2.4888],[21.454,-2.4566],[21.4799,-2.339],[21.8991,-2.4904],[22.1101,-2.2992],[22.2916,-2.4031],[22.1835,-1.9123],[22.4795,-1.9598],[22.6243,-1.8087],[23.2008,-2.0639],[23.6888,-2.0152],[23.8277,-1.7693],[24.4215,-1.7868],[24.3051,-1.4016],[23.9843,-1.3254],[23.3724,-0.7866],[23.6236,-0.6359],[23.4334,-0.44],[22.9842,-0.3969],[23.3969,-0.1898],[22.9972,0.3759],[22.8082,1.0076],[22.6299,1.3472],[22.2937,1.5235],[22.4651,1.682],[22.5761,2.1101],[22.7588,2.0111],[23.3547,2.2505],[23.6387,2.1865],[23.6253,2.3296],[23.2939,2.5334],[23.0641,2.5326],[22.9656,2.6838],[23.0746,3.0773],[22.8458,2.9986],[22.6786,3.4528],[23.3814,3.6253],[23.5122,3.8169],[23.1491,3.9023],[22.9089,3.8545],[22.4515,4.1467],[22.0366,4.2294],[21.7229,4.2951],[21.2109,4.2916],[20.8715,4.4534],[20.6031,4.4097],[20.4567,4.5248],[20.3389,4.7719],[19.8582,5.0603],[19.409,5.1304],[19.1067,4.9315],[18.7211,4.3774],[18.5958,4.3713],[18.5371,4.3061],[18.612,3.8666],[18.6264,3.4769],[18.6131,3.1282],[18.0724,2.16],[18.0714,1.5515],[17.8666,1.0166],[17.952,0.4743],[17.7164,-0.1958],[17.7495,-0.5234],[17.5459,-0.7565]]]}},{"type":"Feature","id":"label-COD-1461","properties":{"kind":"division-label","code":"COD-1461","countryCode":"COD","name":"Équateur","localName":"Équateur","labelEnglish":"Équateur","labelLocal":"Équateur","labelBoth":"Équateur","type":"Province","iso":"CD-EQ","qid":"Q988104"},"geometry":{"type":"Point","coordinates":[20.4731,1.21836]}},{"type":"Feature","id":"COD-1871","properties":{"kind":"division","code":"COD-1871","countryCode":"COD","name":"Bandundu","localName":"Bandundu","labelEnglish":"Bandundu","labelLocal":"Bandundu","labelBoth":"Bandundu","type":"Province","iso":"CD-BN","qid":"Q671442"},"geometry":{"type":"Polygon","coordinates":[[[16.184,-2.9404],[16.2275,-3.2899],[15.9578,-3.8151],[15.888,-3.9405],[16.3896,-4.0997],[16.5481,-4.3493],[16.2605,-4.7945],[16.2787,-5],[16.2223,-5.7004],[16.1009,-5.8581],[16.5974,-5.9247],[16.7268,-6.1892],[16.7681,-6.7083],[16.9732,-7.0148],[17.0979,-7.3783],[17.5362,-8.0754],[18.1766,-7.9992],[19.3555,-8.002],[19.3556,-7.5741],[19.5132,-7.4794],[19.5218,-7.0019],[19.9631,-7.0019],[19.7294,-6.5495],[19.6974,-6.1562],[20.1096,-5.838],[20.191,-5.1546],[20.0554,-4.7658],[20.1186,-4.4981],[20.0379,-4.2848],[20.2662,-4.3906],[20.6777,-4.0938],[20.6647,-3.2803],[21.0071,-2.4888],[20.6912,-2.023],[20.4446,-2.0848],[19.9372,-1.9393],[19.7089,-1.6682],[19.514,-1.7788],[19.4735,-1.5951],[19.0859,-0.9981],[19.0481,-0.8085],[18.8094,-0.907],[18.82,-1.2211],[18.5218,-1.2657],[18.1915,-1.1307],[17.9308,-1.3739],[17.521,-1.5263],[17.0768,-1.8076],[16.8206,-1.7934],[16.8884,-1.9989],[16.6443,-1.9987],[16.525,-1.8585],[16.2313,-2.129],[16.184,-2.9404]]]}},{"type":"Feature","id":"label-COD-1871","properties":{"kind":"division-label","code":"COD-1871","countryCode":"COD","name":"Bandundu","localName":"Bandundu","labelEnglish":"Bandundu","labelLocal":"Bandundu","labelBoth":"Bandundu","type":"Province","iso":"CD-BN","qid":"Q671442"},"geometry":{"type":"Point","coordinates":[18.4474,-4.61778]}},{"type":"Feature","id":"COD-1884","properties":{"kind":"division","code":"COD-1884","countryCode":"COD","name":"Kinshasa","localName":"Kinshasa","labelEnglish":"Kinshasa","labelLocal":"Kinshasa","labelBoth":"Kinshasa","type":"Neutral City","iso":"CD-KN","qid":"Q3838"},"geometry":{"type":"Polygon","coordinates":[[[15.1507,-4.4252],[15.3819,-4.6552],[15.6717,-4.5535],[15.7533,-4.7012],[15.6222,-4.901],[16.2787,-5],[16.2605,-4.7945],[16.5481,-4.3493],[16.3896,-4.0997],[15.888,-3.9405],[15.5668,-4.038],[15.1507,-4.4252]]]}},{"type":"Feature","id":"label-COD-1884","properties":{"kind":"division-label","code":"COD-1884","countryCode":"COD","name":"Kinshasa","localName":"Kinshasa","labelEnglish":"Kinshasa","labelLocal":"Kinshasa","labelBoth":"Kinshasa","type":"Neutral City","iso":"CD-KN","qid":"Q3838"},"geometry":{"type":"Point","coordinates":[15.8492,-4.49522]}},{"type":"Feature","id":"COD-1883","properties":{"kind":"division","code":"COD-1883","countryCode":"COD","name":"Kongo Central","localName":"Kongo Central","labelEnglish":"Kongo Central","labelLocal":"Kongo Central","labelBoth":"Kongo Central","type":"Province","iso":"CD-BC","qid":"Q1043494"},"geometry":{"type":"Polygon","coordinates":[[[15.0761,-4.5201],[14.8312,-4.8151],[14.4007,-4.8863],[14.3686,-4.2784],[13.9054,-4.4901],[13.711,-4.4645],[13.5799,-4.783],[13.3927,-4.8853],[13.0737,-4.6353],[12.8332,-4.7227],[12.4444,-5.0551],[12.5307,-5.1627],[12.509,-5.7263],[12.2105,-5.7634],[12.4495,-6.0519],[12.8224,-5.8298],[13.1839,-5.8564],[14.7597,-5.8805],[16.1009,-5.8581],[16.2223,-5.7004],[16.2787,-5],[15.6222,-4.901],[15.7533,-4.7012],[15.6717,-4.5535],[15.3819,-4.6552],[15.1507,-4.4252],[15.0761,-4.5201]]]}},{"type":"Feature","id":"label-COD-1883","properties":{"kind":"division-label","code":"COD-1883","countryCode":"COD","name":"Kongo Central","localName":"Kongo Central","labelEnglish":"Kongo Central","labelLocal":"Kongo Central","labelBoth":"Kongo Central","type":"Province","iso":"CD-BC","qid":"Q1043494"},"geometry":{"type":"Point","coordinates":[14.2052,-5.31907]}},{"type":"Feature","id":"COD-1559","properties":{"kind":"division","code":"COD-1559","countryCode":"COD","name":"Orientale","localName":"Orientale","labelEnglish":"Orientale","labelLocal":"Orientale","labelBoth":"Orientale","type":"Province","iso":"CD-OR","qid":"Q831370"},"geometry":{"type":"Polygon","coordinates":[[[27.4413,5.0707],[27.1164,5.2003],[26.8671,5.0375],[26.4627,5.0596],[26.13,5.2589],[25.8261,5.1947],[25.5813,5.3749],[25.3637,5.3106],[25.3076,5.0323],[24.7894,4.9199],[24.4808,5.1023],[24.1629,4.9078],[23.5666,4.7244],[23.3884,4.5873],[22.8984,4.8236],[22.4515,4.1467],[22.9089,3.8545],[23.1491,3.9023],[23.5122,3.8169],[23.3814,3.6253],[22.6786,3.4528],[22.8458,2.9986],[23.0746,3.0773],[22.9656,2.6838],[23.0641,2.5326],[23.2939,2.5334],[23.6253,2.3296],[23.6387,2.1865],[23.3547,2.2505],[22.7588,2.0111],[22.5761,2.1101],[22.4651,1.682],[22.2937,1.5235],[22.6299,1.3472],[22.8082,1.0076],[22.9972,0.3759],[23.3969,-0.1898],[22.9842,-0.3969],[23.4334,-0.44],[23.6236,-0.6359],[23.3724,-0.7866],[23.9843,-1.3254],[24.3051,-1.4016],[24.4215,-1.7868],[24.4507,-1.9387],[24.9848,-1.9356],[25.0813,-2.0936],[25.3321,-2.0747],[25.5837,-1.8482],[25.8092,-1.8556],[25.8596,-1.3917],[26.0043,-1.4885],[26.2629,-0.6346],[26.3998,-0.4372],[26.1165,-0.1897],[26.157,-0.0904],[26.4667,-0.3705],[26.8379,-0.2481],[27.1328,-0.4113],[27.7303,-0.567],[28.1056,-0.2287],[28.1395,0.1684],[28.0443,0.4257],[27.7529,0.5393],[28.3353,0.7396],[28.5837,0.5874],[29.1488,0.6838],[29.4013,0.6182],[29.4044,0.8528],[29.8591,0.9583],[29.9822,0.849],[30.1835,0.9546],[30.2389,1.136],[30.5537,1.3356],[31.0755,1.8406],[31.2801,2.1514],[30.968,2.4054],[30.7077,2.4623],[30.7708,2.6758],[30.8548,2.8932],[30.7634,3.1234],[30.9049,3.386],[30.8395,3.4902],[30.7469,3.6749],[30.543,3.6129],[30.5252,3.8675],[30.2059,3.9504],[29.7762,4.4056],[29.7883,4.5394],[29.4492,4.6571],[29.1735,4.348],[28.7554,4.554],[28.4041,4.2778],[27.7724,4.5958],[27.7669,4.7354],[27.4413,5.0707]]]}},{"type":"Feature","id":"label-COD-1559","properties":{"kind":"division-label","code":"COD-1559","countryCode":"COD","name":"Orientale","localName":"Orientale","labelEnglish":"Orientale","labelLocal":"Orientale","labelBoth":"Orientale","type":"Province","iso":"CD-OR","qid":"Q831370"},"geometry":{"type":"Point","coordinates":[26.785,2.40438]}},{"type":"Feature","id":"COD-1894","properties":{"kind":"division","code":"COD-1894","countryCode":"COD","name":"South Kivu","localName":"South Kivu","labelEnglish":"South Kivu","labelLocal":"South Kivu","labelBoth":"South Kivu","type":"Province","iso":"CD-SK","qid":"Q488326"},"geometry":{"type":"Polygon","coordinates":[[[29.4042,-4.4498],[29.3672,-4.189],[29.2171,-3.7093],[29.2239,-3.5711],[29.2119,-3.4068],[29.2361,-3.2707],[29.2415,-3.1042],[29.0154,-2.7207],[28.8588,-2.4182],[29.1506,-2.1504],[29.1866,-1.7396],[28.8658,-1.669],[28.5952,-1.9071],[28.3716,-1.8138],[28.3199,-1.9811],[28.0856,-2.0572],[27.76,-2.0009],[27.4343,-2.0183],[27.1699,-2.2434],[26.8698,-2.1279],[26.8335,-2.5172],[27.0455,-2.9391],[27.1316,-3.2817],[27.1021,-3.7712],[27.2024,-3.8797],[27.7352,-3.9909],[28.0983,-4.1995],[28.1584,-4.1367],[28.4911,-4.3823],[28.8245,-5],[29.3428,-5],[29.4042,-4.4498]]]}},{"type":"Feature","id":"label-COD-1894","properties":{"kind":"division-label","code":"COD-1894","countryCode":"COD","name":"South Kivu","localName":"South Kivu","labelEnglish":"South Kivu","labelLocal":"South Kivu","labelBoth":"South Kivu","type":"Province","iso":"CD-SK","qid":"Q488326"},"geometry":{"type":"Point","coordinates":[28.1159,-3.10474]}},{"type":"Feature","id":"COD-1897","properties":{"kind":"division","code":"COD-1897","countryCode":"COD","name":"Katanga","localName":"Katanga","labelEnglish":"Katanga","labelLocal":"Katanga","labelBoth":"Katanga","type":"Province","iso":"CD-KA","qid":"Q217242"},"geometry":{"type":"Polygon","coordinates":[[[29.3428,-5],[28.8245,-5],[26.2694,-5],[26.0863,-5.3795],[26.1685,-5.795],[26.1374,-6.2611],[25.7637,-6.203],[25.2571,-6.3995],[25.4987,-6.535],[25.2883,-6.758],[24.9734,-6.6624],[24.8996,-6.7904],[24.4538,-7.0703],[24.1354,-6.8804],[23.9681,-7.2062],[23.9468,-7.8311],[23.2251,-7.9381],[23.1581,-7.7974],[22.8765,-7.9014],[22.4859,-7.7867],[22.0767,-7.7752],[21.8266,-7.6456],[21.7585,-8.0151],[21.9131,-8.333],[21.8599,-8.8464],[21.8541,-9.6178],[22.1599,-9.9315],[22.3134,-10.3686],[22.3086,-10.6125],[22.1655,-10.8524],[22.2376,-11.2495],[22.5376,-11.0372],[23.0143,-11.1025],[23.4948,-10.9643],[23.8337,-11.0285],[23.9675,-10.8723],[24.3818,-11.1206],[24.2855,-11.3812],[24.4465,-11.4636],[24.7125,-11.326],[25.2788,-11.1999],[25.352,-11.6461],[25.9941,-11.9048],[26.4146,-11.9118],[26.6971,-12.0175],[26.9673,-11.8704],[27.0103,-11.6098],[27.1801,-11.5696],[27.2342,-11.8091],[27.4207,-11.922],[27.5898,-12.243],[28.3397,-12.4505],[29.0654,-13.3887],[29.1689,-13.4339],[29.5744,-13.2254],[29.6261,-13.4298],[29.7976,-13.4242],[29.7996,-12.159],[29.7994,-12.1558],[29.4743,-12.2427],[29.4997,-12.4531],[29.0304,-12.3762],[28.9447,-12.2061],[28.5079,-11.8728],[28.357,-11.4469],[28.4396,-11.3482],[28.6349,-10.5195],[28.6781,-9.8038],[28.516,-9.3783],[28.3723,-9.2351],[28.8931,-8.7658],[28.9153,-8.4729],[29.5758,-8.3727],[30.7521,-8.1941],[30.4416,-7.5963],[30.2945,-7.1494],[29.9691,-6.803],[29.7386,-6.6524],[29.5255,-6.2731],[29.4761,-6.0021],[29.5935,-5.6203],[29.3428,-5]]]}},{"type":"Feature","id":"label-COD-1897","properties":{"kind":"division-label","code":"COD-1897","countryCode":"COD","name":"Katanga","localName":"Katanga","labelEnglish":"Katanga","labelLocal":"Katanga","labelBoth":"Katanga","type":"Province","iso":"CD-KA","qid":"Q217242"},"geometry":{"type":"Point","coordinates":[26.2512,-8.48374]}},{"type":"Feature","id":"COD-1898","properties":{"kind":"division","code":"COD-1898","countryCode":"COD","name":"North Kivu","localName":"North Kivu","labelEnglish":"North Kivu","labelLocal":"North Kivu","labelBoth":"North Kivu","type":"Province","iso":"CD-NK","qid":"Q130625"},"geometry":{"type":"Polygon","coordinates":[[[29.5779,-1.3884],[29.5515,-0.9903],[29.6294,-0.4424],[29.6439,-0.358],[29.6813,-0.1379],[29.8326,0.337],[29.9039,0.4382],[29.9822,0.849],[29.8591,0.9583],[29.4044,0.8528],[29.4013,0.6182],[29.1488,0.6838],[28.5837,0.5874],[28.3353,0.7396],[27.7529,0.5393],[28.0443,0.4257],[28.1395,0.1684],[28.1056,-0.2287],[27.7303,-0.567],[27.7497,-0.8846],[27.2677,-0.9943],[27.2422,-1.2838],[27.7098,-1.807],[27.76,-2.0009],[28.0856,-2.0572],[28.3199,-1.9811],[28.3716,-1.8138],[28.5952,-1.9071],[28.8658,-1.669],[29.1866,-1.7396],[29.4451,-1.4973],[29.5779,-1.3884]]]}},{"type":"Feature","id":"label-COD-1898","properties":{"kind":"division-label","code":"COD-1898","countryCode":"COD","name":"North Kivu","localName":"North Kivu","labelEnglish":"North Kivu","labelLocal":"North Kivu","labelBoth":"North Kivu","type":"Province","iso":"CD-NK","qid":"Q130625"},"geometry":{"type":"Point","coordinates":[28.5939,-0.659128]}},{"type":"Feature","id":"COD-1872","properties":{"kind":"division","code":"COD-1872","countryCode":"COD","name":"Kasaï-Occidental","localName":"Kasaï-Occidental","labelEnglish":"Kasaï-Occidental","labelLocal":"Kasaï-Occidental","labelBoth":"Kasaï-Occidental","type":"Province","iso":"CD-KW","qid":"Q130576"},"geometry":{"type":"Polygon","coordinates":[[[19.9631,-7.0019],[20.6115,-6.916],[20.5205,-7.2864],[21.785,-7.2834],[21.8266,-7.6456],[22.0767,-7.7752],[22.4859,-7.7867],[22.8765,-7.9014],[23.1581,-7.7974],[23.2422,-6.9479],[22.9396,-6.6663],[23.0866,-6.2139],[22.9781,-6.0632],[22.9984,-5.7724],[23.739,-5.6004],[23.7254,-5.3968],[23.419,-5.2173],[23.2515,-5.2527],[22.961,-4.9745],[23.1769,-4.7368],[23.119,-4.5339],[22.8603,-4.4915],[22.3039,-3.9952],[21.9861,-3.6285],[22.1925,-3.018],[21.8991,-2.4904],[21.4799,-2.339],[21.454,-2.4566],[21.0071,-2.4888],[20.6647,-3.2803],[20.6777,-4.0938],[20.2662,-4.3906],[20.0379,-4.2848],[20.1186,-4.4981],[20.0554,-4.7658],[20.191,-5.1546],[20.1096,-5.838],[19.6974,-6.1562],[19.7294,-6.5495],[19.9631,-7.0019]]]}},{"type":"Feature","id":"label-COD-1872","properties":{"kind":"division-label","code":"COD-1872","countryCode":"COD","name":"Kasaï-Occidental","localName":"Kasaï-Occidental","labelEnglish":"Kasaï-Occidental","labelLocal":"Kasaï-Occidental","labelBoth":"Kasaï-Occidental","type":"Province","iso":"CD-KW","qid":"Q130576"},"geometry":{"type":"Point","coordinates":[21.7144,-4.87578]}},{"type":"Feature","id":"COD-1896","properties":{"kind":"division","code":"COD-1896","countryCode":"COD","name":"Kasaï-Oriental","localName":"Kasaï-Oriental","labelEnglish":"Kasaï-Oriental","labelLocal":"Kasaï-Oriental","labelBoth":"Kasaï-Oriental","type":"Province","iso":"CD-KE","qid":"Q80953"},"geometry":{"type":"Polygon","coordinates":[[[24.4215,-1.7868],[23.8277,-1.7693],[23.6888,-2.0152],[23.2008,-2.0639],[22.6243,-1.8087],[22.4795,-1.9598],[22.1835,-1.9123],[22.2916,-2.4031],[22.1101,-2.2992],[21.8991,-2.4904],[22.1925,-3.018],[21.9861,-3.6285],[22.3039,-3.9952],[22.8603,-4.4915],[23.119,-4.5339],[23.1769,-4.7368],[22.961,-4.9745],[23.2515,-5.2527],[23.419,-5.2173],[23.7254,-5.3968],[23.739,-5.6004],[22.9984,-5.7724],[22.9781,-6.0632],[23.0866,-6.2139],[22.9396,-6.6663],[23.2422,-6.9479],[23.1581,-7.7974],[23.2251,-7.9381],[23.9468,-7.8311],[23.9681,-7.2062],[24.1354,-6.8804],[24.4538,-7.0703],[24.8996,-6.7904],[24.9734,-6.6624],[25.2883,-6.758],[25.4987,-6.535],[25.2571,-6.3995],[25.7637,-6.203],[26.1374,-6.2611],[26.1685,-5.795],[26.0863,-5.3795],[26.2694,-5],[25.1043,-4.9975],[24.8541,-4.6495],[25.0124,-4.4447],[24.9962,-4.1046],[24.7592,-3.8278],[24.7803,-3.4583],[24.9066,-3.3517],[25.106,-2.7907],[25.0998,-2.4478],[24.7413,-2.4675],[24.4507,-1.9387],[24.4215,-1.7868]]]}},{"type":"Feature","id":"label-COD-1896","properties":{"kind":"division-label","code":"COD-1896","countryCode":"COD","name":"Kasaï-Oriental","localName":"Kasaï-Oriental","labelEnglish":"Kasaï-Oriental","labelLocal":"Kasaï-Oriental","labelBoth":"Kasaï-Oriental","type":"Province","iso":"CD-KE","qid":"Q80953"},"geometry":{"type":"Point","coordinates":[24.0842,-4.40511]}},{"type":"Feature","id":"COD-1895","properties":{"kind":"division","code":"COD-1895","countryCode":"COD","name":"Maniema","localName":"Maniema","labelEnglish":"Maniema","labelLocal":"Maniema","labelBoth":"Maniema","type":"Province","iso":"CD-MA","qid":"Q130566"},"geometry":{"type":"Polygon","coordinates":[[[24.4507,-1.9387],[24.7413,-2.4675],[25.0998,-2.4478],[25.106,-2.7907],[24.9066,-3.3517],[24.7803,-3.4583],[24.7592,-3.8278],[24.9962,-4.1046],[25.0124,-4.4447],[24.8541,-4.6495],[25.1043,-4.9975],[26.2694,-5],[28.8245,-5],[28.4911,-4.3823],[28.1584,-4.1367],[28.0983,-4.1995],[27.7352,-3.9909],[27.2024,-3.8797],[27.1021,-3.7712],[27.1316,-3.2817],[27.0455,-2.9391],[26.8335,-2.5172],[26.8698,-2.1279],[27.1699,-2.2434],[27.4343,-2.0183],[27.76,-2.0009],[27.7098,-1.807],[27.2422,-1.2838],[27.2677,-0.9943],[27.7497,-0.8846],[27.7303,-0.567],[27.1328,-0.4113],[26.8379,-0.2481],[26.4667,-0.3705],[26.157,-0.0904],[26.1165,-0.1897],[26.3998,-0.4372],[26.2629,-0.6346],[26.0043,-1.4885],[25.8596,-1.3917],[25.8092,-1.8556],[25.5837,-1.8482],[25.3321,-2.0747],[25.0813,-2.0936],[24.9848,-1.9356],[24.4507,-1.9387]]]}},{"type":"Feature","id":"label-COD-1895","properties":{"kind":"division-label","code":"COD-1895","countryCode":"COD","name":"Maniema","localName":"Maniema","labelEnglish":"Maniema","labelLocal":"Maniema","labelBoth":"Maniema","type":"Province","iso":"CD-MA","qid":"Q130566"},"geometry":{"type":"Point","coordinates":[26.0336,-3.26017]}}]}