{"type":"FeatureCollection","features":[{"type":"Feature","id":"COG-2838","properties":{"kind":"division","code":"COG-2838","countryCode":"COG","name":"Likouala","localName":"Likouala","labelEnglish":"Likouala","labelLocal":"Likouala","labelBoth":"Likouala","type":"Region","iso":"CG-7","qid":"Q863554"},"geometry":{"type":"Polygon","coordinates":[[[18.6264,3.4769],[18.4721,3.6321],[17.8421,3.5401],[17.4145,3.6834],[16.5677,3.4644],[16.4275,2.7265],[16.7341,2.388],[16.7562,1.7965],[16.6985,1.4744],[16.796,1.2004],[16.7157,0.8262],[17.0495,0.3941],[17.203,0.2104],[17.1466,-0.4139],[17.208,-0.688],[17.5459,-0.7565],[17.7495,-0.5234],[17.7164,-0.1958],[17.952,0.4743],[17.8666,1.0166],[18.0714,1.5515],[18.0724,2.16],[18.6131,3.1282],[18.6264,3.4769]]]}},{"type":"Feature","id":"label-COG-2838","properties":{"kind":"division-label","code":"COG-2838","countryCode":"COG","name":"Likouala","localName":"Likouala","labelEnglish":"Likouala","labelLocal":"Likouala","labelBoth":"Likouala","type":"Region","iso":"CG-7","qid":"Q863554"},"geometry":{"type":"Point","coordinates":[17.5344,1.45488]}},{"type":"Feature","id":"COG-3342","properties":{"kind":"division","code":"COG-3342","countryCode":"COG","name":"Cuvette","localName":"Cuvette","labelEnglish":"Cuvette","labelLocal":"Cuvette","labelBoth":"Cuvette","type":"Region","iso":"CG-8","qid":"Q780884"},"geometry":{"type":"Polygon","coordinates":[[[17.5459,-0.7565],[17.208,-0.688],[17.1466,-0.4139],[17.203,0.2104],[17.0495,0.3941],[16.3415,0.0421],[16.1282,0.1239],[15.8753,0.4435],[15.5271,0.3536],[15.2853,0.4114],[15.134,0.3011],[15.1928,0.075],[14.8975,0.033],[14.9503,-0.2256],[15.1502,-0.4734],[15.0098,-0.6879],[15.1854,-0.8577],[14.9924,-1.0942],[14.4394,-1.1857],[14.4631,-1.5487],[14.3686,-1.9221],[14.5876,-1.9305],[14.7627,-1.6624],[14.9843,-1.5687],[15.2286,-1.153],[15.4429,-0.978],[15.7476,-1.0568],[16.2699,-1.3165],[16.3433,-1.4735],[16.656,-1.5903],[17.0287,-1.0945],[17.2977,-1.0211],[17.5459,-0.7565]]]}},{"type":"Feature","id":"label-COG-3342","properties":{"kind":"division-label","code":"COG-3342","countryCode":"COG","name":"Cuvette","localName":"Cuvette","labelEnglish":"Cuvette","labelLocal":"Cuvette","labelBoth":"Cuvette","type":"Region","iso":"CG-8","qid":"Q780884"},"geometry":{"type":"Point","coordinates":[15.9548,-0.393114]}},{"type":"Feature","id":"COG-3346","properties":{"kind":"division","code":"COG-3346","countryCode":"COG","name":"Plateaux","localName":"Plateaux","labelEnglish":"Plateaux","labelLocal":"Plateaux","labelBoth":"Plateaux","type":"Region","iso":"CG-14","qid":"Q765370"},"geometry":{"type":"Polygon","coordinates":[[[16.656,-1.5903],[16.3433,-1.4735],[16.2699,-1.3165],[15.7476,-1.0568],[15.4429,-0.978],[15.2286,-1.153],[14.9843,-1.5687],[14.7627,-1.6624],[14.5876,-1.9305],[14.3686,-1.9221],[14.2522,-1.9676],[14.1006,-2.4781],[14.2977,-2.6955],[14.2609,-2.9813],[14.5205,-3.0806],[14.8933,-2.7175],[14.9392,-2.8942],[15.4736,-3.0064],[15.8231,-2.8248],[16.184,-2.9404],[16.2313,-2.129],[16.525,-1.8585],[16.656,-1.5903]]]}},{"type":"Feature","id":"label-COG-3346","properties":{"kind":"division-label","code":"COG-3346","countryCode":"COG","name":"Plateaux","localName":"Plateaux","labelEnglish":"Plateaux","labelLocal":"Plateaux","labelBoth":"Plateaux","type":"Region","iso":"CG-14","qid":"Q765370"},"geometry":{"type":"Point","coordinates":[15.3777,-2.04221]}},{"type":"Feature","id":"COG-3341","properties":{"kind":"division","code":"COG-3341","countryCode":"COG","name":"Pool","localName":"Pool","labelEnglish":"Pool","labelLocal":"Pool","labelBoth":"Pool","type":"Region","iso":"CG-12","qid":"Q864647"},"geometry":{"type":"Polygon","coordinates":[[[16.184,-2.9404],[15.8231,-2.8248],[15.4736,-3.0064],[14.9392,-2.8942],[14.8933,-2.7175],[14.5205,-3.0806],[14.2609,-2.9813],[13.8603,-3.5384],[14.1505,-3.4581],[14.3773,-3.9514],[13.9748,-4.2696],[13.9054,-4.4901],[14.3686,-4.2784],[14.4007,-4.8863],[14.8312,-4.8151],[15.0761,-4.5201],[14.956,-4.364],[15.1179,-4.0294],[15.2749,-3.448],[15.5539,-3.6391],[15.8034,-3.534],[15.9578,-3.8151],[16.2275,-3.2899],[16.184,-2.9404]]]}},{"type":"Feature","id":"label-COG-3341","properties":{"kind":"division-label","code":"COG-3341","countryCode":"COG","name":"Pool","localName":"Pool","labelEnglish":"Pool","labelLocal":"Pool","labelBoth":"Pool","type":"Region","iso":"CG-12","qid":"Q864647"},"geometry":{"type":"Point","coordinates":[15.0436,-3.71115]}},{"type":"Feature","id":"COG-4855","properties":{"kind":"division","code":"COG-4855","countryCode":"COG","name":"Brazzaville","localName":"Brazzaville","labelEnglish":"Brazzaville","labelLocal":"Brazzaville","labelBoth":"Brazzaville","type":"Region","iso":"CG-BZV","qid":"Q3844"},"geometry":{"type":"Polygon","coordinates":[[[15.9578,-3.8151],[15.8034,-3.534],[15.5539,-3.6391],[15.2749,-3.448],[15.1179,-4.0294],[14.956,-4.364],[15.0761,-4.5201],[15.1507,-4.4252],[15.5668,-4.038],[15.888,-3.9405],[15.9578,-3.8151]]]}},{"type":"Feature","id":"label-COG-4855","properties":{"kind":"division-label","code":"COG-4855","countryCode":"COG","name":"Brazzaville","localName":"Brazzaville","labelEnglish":"Brazzaville","labelLocal":"Brazzaville","labelBoth":"Brazzaville","type":"Region","iso":"CG-BZV","qid":"Q3844"},"geometry":{"type":"Point","coordinates":[15.3319,-4.06879]}},{"type":"Feature","id":"COG-2626","properties":{"kind":"division","code":"COG-2626","countryCode":"COG","name":"Bouenza","localName":"Bouenza","labelEnglish":"Bouenza","labelLocal":"Bouenza","labelBoth":"Bouenza","type":"Region","iso":"CG-11","qid":"Q827015"},"geometry":{"type":"Polygon","coordinates":[[[13.5799,-4.783],[13.711,-4.4645],[13.9054,-4.4901],[13.9748,-4.2696],[14.3773,-3.9514],[14.1505,-3.4581],[13.8603,-3.5384],[13.5128,-4.0206],[13.0305,-3.9276],[12.7959,-3.5623],[12.6569,-3.5282],[12.6046,-3.8093],[12.9888,-4.3195],[13.2401,-4.4036],[13.5799,-4.783]]]}},{"type":"Feature","id":"label-COG-2626","properties":{"kind":"division-label","code":"COG-2626","countryCode":"COG","name":"Bouenza","localName":"Bouenza","labelEnglish":"Bouenza","labelLocal":"Bouenza","labelBoth":"Bouenza","type":"Region","iso":"CG-11","qid":"Q827015"},"geometry":{"type":"Point","coordinates":[13.491,-4.36333]}},{"type":"Feature","id":"COG-3345","properties":{"kind":"division","code":"COG-3345","countryCode":"COG","name":"Niari","localName":"Niari","labelEnglish":"Niari","labelLocal":"Niari","labelBoth":"Niari","type":"Region","iso":"CG-9","qid":"Q969317"},"geometry":{"type":"Polygon","coordinates":[[[13.0737,-4.6353],[13.3927,-4.8853],[13.5799,-4.783],[13.2401,-4.4036],[12.9888,-4.3195],[12.6046,-3.8093],[12.6569,-3.5282],[12.6043,-3.4159],[13.108,-3.1398],[13.051,-2.3863],[12.994,-2.3601],[12.741,-1.8907],[12.45,-1.8993],[12.4593,-2.3299],[12.0623,-2.415],[11.5582,-2.3494],[11.5356,-2.805],[11.7784,-3.0272],[11.6875,-3.171],[11.9444,-3.3032],[11.8408,-3.71],[12.3844,-3.9946],[12.5908,-4.3195],[12.7827,-4.4001],[13.0737,-4.6353]]]}},{"type":"Feature","id":"label-COG-3345","properties":{"kind":"division-label","code":"COG-3345","countryCode":"COG","name":"Niari","localName":"Niari","labelEnglish":"Niari","labelLocal":"Niari","labelBoth":"Niari","type":"Region","iso":"CG-9","qid":"Q969317"},"geometry":{"type":"Point","coordinates":[12.3646,-2.97914]}},{"type":"Feature","id":"COG-3343","properties":{"kind":"division","code":"COG-3343","countryCode":"COG","name":"Kouilou","localName":"Kouilou","labelEnglish":"Kouilou","labelLocal":"Kouilou","labelBoth":"Kouilou","type":"Region","iso":"CG-5","qid":"Q855327"},"geometry":{"type":"Polygon","coordinates":[[[12.7827,-4.4001],[12.5908,-4.3195],[12.3844,-3.9946],[11.8408,-3.71],[11.4826,-3.5093],[11.2125,-3.6973],[11.114,-3.9369],[11.8246,-4.6148],[11.8417,-4.7415],[11.8982,-4.7418],[11.8862,-4.8552],[12.0096,-5.0196],[12.387,-4.6055],[12.7827,-4.4001]]]}},{"type":"Feature","id":"label-COG-3343","properties":{"kind":"division-label","code":"COG-3343","countryCode":"COG","name":"Kouilou","localName":"Kouilou","labelEnglish":"Kouilou","labelLocal":"Kouilou","labelBoth":"Kouilou","type":"Region","iso":"CG-5","qid":"Q855327"},"geometry":{"type":"Point","coordinates":[11.9549,-4.3684]}},{"type":"Feature","id":"COG-2880","properties":{"kind":"division","code":"COG-2880","countryCode":"COG","name":"Sangha","localName":"Sangha","labelEnglish":"Sangha","labelLocal":"Sangha","labelBoth":"Sangha","type":"Region","iso":"CG-13","qid":"Q775410"},"geometry":{"type":"Polygon","coordinates":[[[13.2946,2.1611],[13.1622,1.8998],[13.1849,1.2226],[13.5434,1.2835],[13.7947,1.4344],[14.2199,1.355],[14.4941,1.3911],[15.1494,0.9465],[15.0915,0.527],[15.2853,0.4114],[15.5271,0.3536],[15.8753,0.4435],[16.1282,0.1239],[16.3415,0.0421],[17.0495,0.3941],[16.7157,0.8262],[16.796,1.2004],[16.6985,1.4744],[16.7562,1.7965],[16.7341,2.388],[16.4275,2.7265],[16.1967,2.2365],[16.0649,1.979],[16.159,1.7348],[15.7647,1.9087],[15.2337,2.0313],[14.8925,2.0064],[14.5621,2.2088],[14.4329,2.1321],[13.6623,2.1578],[13.2946,2.1611]]]}},{"type":"Feature","id":"label-COG-2880","properties":{"kind":"division-label","code":"COG-2880","countryCode":"COG","name":"Sangha","localName":"Sangha","labelEnglish":"Sangha","labelLocal":"Sangha","labelBoth":"Sangha","type":"Region","iso":"CG-13","qid":"Q775410"},"geometry":{"type":"Point","coordinates":[15.7466,1.12682]}},{"type":"Feature","id":"COG-2185","properties":{"kind":"division","code":"COG-2185","countryCode":"COG","name":"Cuvette-Ouest","localName":"Cuvette-Ouest","labelEnglish":"Cuvette-Ouest","labelLocal":"Cuvette-Ouest","labelBoth":"Cuvette-Ouest","type":"Region","iso":"CG-15","qid":"Q125711"},"geometry":{"type":"Polygon","coordinates":[[[14.2199,1.355],[14.4681,0.9132],[14.2318,0.5426],[14.076,0.5395],[13.8712,0.1964],[13.8881,-0.0921],[13.8312,-0.2054],[14.1214,-0.3022],[14.499,-0.6309],[14.3918,-1.0233],[14.4394,-1.1857],[14.9924,-1.0942],[15.1854,-0.8577],[15.0098,-0.6879],[15.1502,-0.4734],[14.9503,-0.2256],[14.8975,0.033],[15.1928,0.075],[15.134,0.3011],[15.2853,0.4114],[15.0915,0.527],[15.1494,0.9465],[14.4941,1.3911],[14.2199,1.355]]]}},{"type":"Feature","id":"label-COG-2185","properties":{"kind":"division-label","code":"COG-2185","countryCode":"COG","name":"Cuvette-Ouest","localName":"Cuvette-Ouest","labelEnglish":"Cuvette-Ouest","labelLocal":"Cuvette-Ouest","labelBoth":"Cuvette-Ouest","type":"Region","iso":"CG-15","qid":"Q125711"},"geometry":{"type":"Point","coordinates":[14.558,0.0348606]}},{"type":"Feature","id":"COG-3344","properties":{"kind":"division","code":"COG-3344","countryCode":"COG","name":"Lékoumou","localName":"Lékoumou","labelEnglish":"Lékoumou","labelLocal":"Lékoumou","labelBoth":"Lékoumou","type":"Region","iso":"CG-2","qid":"Q862753"},"geometry":{"type":"Polygon","coordinates":[[[14.1006,-2.4781],[13.885,-2.4885],[13.7432,-2.0971],[13.4694,-2.435],[12.994,-2.3601],[13.051,-2.3863],[13.108,-3.1398],[12.6043,-3.4159],[12.6569,-3.5282],[12.7959,-3.5623],[13.0305,-3.9276],[13.5128,-4.0206],[13.8603,-3.5384],[14.2609,-2.9813],[14.2977,-2.6955],[14.1006,-2.4781]]]}},{"type":"Feature","id":"label-COG-3344","properties":{"kind":"division-label","code":"COG-3344","countryCode":"COG","name":"Lékoumou","localName":"Lékoumou","labelEnglish":"Lékoumou","labelLocal":"Lékoumou","labelBoth":"Lékoumou","type":"Region","iso":"CG-2","qid":"Q862753"},"geometry":{"type":"Point","coordinates":[13.4727,-3.2378]}},{"type":"Feature","id":"COG-5855","properties":{"kind":"division","code":"COG-5855","countryCode":"COG","name":"Pointe-Noire","localName":"Pointe-Noire","labelEnglish":"Pointe-Noire","labelLocal":"Pointe-Noire","labelBoth":"Pointe-Noire","type":"Region","iso":"CG-16","qid":"Q7208306"},"geometry":{"type":"Polygon","coordinates":[[[11.8862,-4.8552],[11.8982,-4.7418],[11.8417,-4.7415],[11.8862,-4.8552]]]}},{"type":"Feature","id":"label-COG-5855","properties":{"kind":"division-label","code":"COG-5855","countryCode":"COG","name":"Pointe-Noire","localName":"Pointe-Noire","labelEnglish":"Pointe-Noire","labelLocal":"Pointe-Noire","labelBoth":"Pointe-Noire","type":"Region","iso":"CG-16","qid":"Q7208306"},"geometry":{"type":"Point","coordinates":[11.859,-4.80537]}}]}