{"type":"FeatureCollection","features":[{"type":"Feature","id":"COK-4952","properties":{"kind":"division","code":"COK-4952","countryCode":"COK","name":"Mangaia","localName":"Mangaia","labelEnglish":"Mangaia","labelLocal":"Mangaia","labelBoth":"Mangaia","type":null,"iso":"CK-X03~","qid":null},"geometry":{"type":"Polygon","coordinates":[[[-157.9346,-21.8775],[-157.9529,-21.9323],[-157.8899,-21.9153],[-157.9346,-21.8775]]]}},{"type":"Feature","id":"label-COK-4952","properties":{"kind":"division-label","code":"COK-4952","countryCode":"COK","name":"Mangaia","localName":"Mangaia","labelEnglish":"Mangaia","labelLocal":"Mangaia","labelBoth":"Mangaia","type":null,"iso":"CK-X03~","qid":null},"geometry":{"type":"Point","coordinates":[-157.909,-21.9367]}},{"type":"Feature","id":"COK-4954","properties":{"kind":"division","code":"COK-4954","countryCode":"COK","name":"Mitiaro","localName":"Mitiaro","labelEnglish":"Mitiaro","labelLocal":"Mitiaro","labelBoth":"Mitiaro","type":null,"iso":"CK-X05~","qid":null},"geometry":{"type":"Polygon","coordinates":[[[-157.708,-19.7672],[-157.7396,-19.8185],[-157.7082,-19.8412],[-157.708,-19.7672]]]}},{"type":"Feature","id":"label-COK-4954","properties":{"kind":"division-label","code":"COK-4954","countryCode":"COK","name":"Mitiaro","localName":"Mitiaro","labelEnglish":"Mitiaro","labelLocal":"Mitiaro","labelBoth":"Mitiaro","type":null,"iso":"CK-X05~","qid":null},"geometry":{"type":"Point","coordinates":[-157.707,-19.8389]}},{"type":"Feature","id":"COK-4962","properties":{"kind":"division","code":"COK-4962","countryCode":"COK","name":"Penrhyn Atoll","localName":"Penrhyn Atoll","labelEnglish":"Penrhyn Atoll","labelLocal":"Penrhyn Atoll","labelBoth":"Penrhyn Atoll","type":null,"iso":"CK-X11~","qid":null},"geometry":{"type":"Polygon","coordinates":[[[-157.9407,-8.9807],[-158.0029,-8.9467],[-157.9786,-8.976],[-157.9407,-8.9807]]]}},{"type":"Feature","id":"label-COK-4962","properties":{"kind":"division-label","code":"COK-4962","countryCode":"COK","name":"Penrhyn Atoll","localName":"Penrhyn Atoll","labelEnglish":"Penrhyn Atoll","labelLocal":"Penrhyn Atoll","labelBoth":"Penrhyn Atoll","type":null,"iso":"CK-X11~","qid":null},"geometry":{"type":"Point","coordinates":[-157.956,-8.99614]}},{"type":"Feature","id":"COK-4953","properties":{"kind":"division","code":"COK-4953","countryCode":"COK","name":"Rarotonga","localName":"Rarotonga","labelEnglish":"Rarotonga","labelLocal":"Rarotonga","labelBoth":"Rarotonga","type":null,"iso":"CK-X04~","qid":null},"geometry":{"type":"Polygon","coordinates":[[[-159.7978,-21.1861],[-159.8463,-21.2338],[-159.7432,-21.2543],[-159.7978,-21.1861]]]}},{"type":"Feature","id":"label-COK-4953","properties":{"kind":"division-label","code":"COK-4953","countryCode":"COK","name":"Rarotonga","localName":"Rarotonga","labelEnglish":"Rarotonga","labelLocal":"Rarotonga","labelBoth":"Rarotonga","type":null,"iso":"CK-X04~","qid":null},"geometry":{"type":"Point","coordinates":[-159.789,-21.2088]}},{"type":"Feature","id":"COK-4955","properties":{"kind":"division","code":"COK-4955","countryCode":"COK","name":"Mauke","localName":"Mauke","labelEnglish":"Mauke","labelLocal":"Mauke","labelBoth":"Mauke","type":null,"iso":"CK-X06~","qid":null},"geometry":{"type":"Polygon","coordinates":[[[-157.3128,-20.1552],[-157.349,-20.1433],[-157.3403,-20.1757],[-157.3128,-20.1552]]]}},{"type":"Feature","id":"label-COK-4955","properties":{"kind":"division-label","code":"COK-4955","countryCode":"COK","name":"Mauke","localName":"Mauke","labelEnglish":"Mauke","labelLocal":"Mauke","labelBoth":"Mauke","type":null,"iso":"CK-X06~","qid":null},"geometry":{"type":"Point","coordinates":[-157.312,-20.1852]}},{"type":"Feature","id":"COK-4950","properties":{"kind":"division","code":"COK-4950","countryCode":"COK","name":"Atiu","localName":"Atiu","labelEnglish":"Atiu","labelLocal":"Atiu","labelBoth":"Atiu","type":null,"iso":"CK-X01~","qid":null},"geometry":{"type":"Polygon","coordinates":[[[-158.0783,-19.9942],[-158.1352,-19.9765],[-158.1151,-20.0157],[-158.0783,-19.9942]]]}},{"type":"Feature","id":"label-COK-4950","properties":{"kind":"division-label","code":"COK-4950","countryCode":"COK","name":"Atiu","localName":"Atiu","labelEnglish":"Atiu","labelLocal":"Atiu","labelBoth":"Atiu","type":null,"iso":"CK-X01~","qid":null},"geometry":{"type":"Point","coordinates":[-158.089,-20.0232]}},{"type":"Feature","id":"COK-4951","properties":{"kind":"division","code":"COK-4951","countryCode":"COK","name":"Aitutaki","localName":"Aitutaki","labelEnglish":"Aitutaki","labelLocal":"Aitutaki","labelBoth":"Aitutaki","type":null,"iso":"CK-X02~","qid":"Q223379"},"geometry":{"type":"Polygon","coordinates":[[[-158.9252,-19.2692],[-158.9457,-19.2421],[-158.9502,-19.2545],[-158.9252,-19.2692]]]}},{"type":"Feature","id":"label-COK-4951","properties":{"kind":"division-label","code":"COK-4951","countryCode":"COK","name":"Aitutaki","localName":"Aitutaki","labelEnglish":"Aitutaki","labelLocal":"Aitutaki","labelBoth":"Aitutaki","type":null,"iso":"CK-X02~","qid":"Q223379"},"geometry":{"type":"Point","coordinates":[-158.892,-19.2709]}},{"type":"Feature","id":"COK-4959","properties":{"kind":"division","code":"COK-4959","countryCode":"COK","name":"Pukapuka","localName":"Pukapuka","labelEnglish":"Pukapuka","labelLocal":"Pukapuka","labelBoth":"Pukapuka","type":null,"iso":"CK-X08~","qid":null},"geometry":{"type":"Polygon","coordinates":[[[-165.8245,-10.8818],[-165.8187,-10.8915],[-165.8077,-10.8813],[-165.8245,-10.8818]]]}},{"type":"Feature","id":"label-COK-4959","properties":{"kind":"division-label","code":"COK-4959","countryCode":"COK","name":"Pukapuka","localName":"Pukapuka","labelEnglish":"Pukapuka","labelLocal":"Pukapuka","labelBoth":"Pukapuka","type":null,"iso":"CK-X08~","qid":null},"geometry":{"type":"Point","coordinates":[-165.802,-10.9163]}},{"type":"Feature","id":"COK-4961","properties":{"kind":"division","code":"COK-4961","countryCode":"COK","name":"Manihiki","localName":"Manihiki","labelEnglish":"Manihiki","labelLocal":"Manihiki","labelBoth":"Manihiki","type":null,"iso":"CK-X10~","qid":null},"geometry":{"type":"Polygon","coordinates":[[[-160.9862,-10.3821],[-160.9381,-10.4228],[-160.9799,-10.381],[-160.9862,-10.3821]]]}},{"type":"Feature","id":"label-COK-4961","properties":{"kind":"division-label","code":"COK-4961","countryCode":"COK","name":"Manihiki","localName":"Manihiki","labelEnglish":"Manihiki","labelLocal":"Manihiki","labelBoth":"Manihiki","type":null,"iso":"CK-X10~","qid":null},"geometry":{"type":"Point","coordinates":[-160.963,-10.4098]}},{"type":"Feature","id":"COK-4960","properties":{"kind":"division","code":"COK-4960","countryCode":"COK","name":"Rakahanga","localName":"Rakahanga","labelEnglish":"Rakahanga","labelLocal":"Rakahanga","labelBoth":"Rakahanga","type":null,"iso":"CK-X09~","qid":null},"geometry":{"type":"Polygon","coordinates":[[[-161.088,-10.0351],[-161.0873,-10.0446],[-161.0701,-10.0274],[-161.088,-10.0351]]]}},{"type":"Feature","id":"label-COK-4960","properties":{"kind":"division-label","code":"COK-4960","countryCode":"COK","name":"Rakahanga","localName":"Rakahanga","labelEnglish":"Rakahanga","labelLocal":"Rakahanga","labelBoth":"Rakahanga","type":null,"iso":"CK-X09~","qid":null},"geometry":{"type":"Point","coordinates":[-161.065,-10.0641]}},{"type":"Feature","id":"COK-4956","properties":{"kind":"division","code":"COK-4956","countryCode":"COK","name":"Palmerston Island","localName":"Palmerston Island","labelEnglish":"Palmerston Island","labelLocal":"Palmerston Island","labelBoth":"Palmerston Island","type":null,"iso":"CK-X07~","qid":null},"geometry":{"type":"Polygon","coordinates":[[[-159.7851,-18.8308],[-159.8023,-18.8658],[-159.7765,-18.8782],[-159.7851,-18.8308]]]}},{"type":"Feature","id":"label-COK-4956","properties":{"kind":"division-label","code":"COK-4956","countryCode":"COK","name":"Palmerston Island","localName":"Palmerston Island","labelEnglish":"Palmerston Island","labelLocal":"Palmerston Island","labelBoth":"Palmerston Island","type":null,"iso":"CK-X07~","qid":null},"geometry":{"type":"Point","coordinates":[-159.771,-18.8968]}}]}