{"type":"FeatureCollection","features":[{"type":"Feature","id":"COL-1406","properties":{"kind":"division","code":"COL-1406","countryCode":"COL","name":"Nariño","localName":"Nariño","labelEnglish":"Nariño","labelLocal":"Nariño","labelBoth":"Nariño","type":"Department","iso":"CO-NAR","qid":"Q230217"},"geometry":{"type":"Polygon","coordinates":[[[-78.8287,1.4343],[-78.4781,1.1871],[-78.12,0.9212],[-77.7279,0.8433],[-77.5141,0.6605],[-77.4244,0.4083],[-77.1039,0.3541],[-77.2386,0.6972],[-76.9117,1.3132],[-76.8448,1.6071],[-76.9409,1.7275],[-77.3251,1.6894],[-77.1993,1.961],[-77.4314,2.221],[-77.7438,2.1445],[-78.0739,2.6468],[-78.0867,2.5106],[-78.334,2.647],[-78.7032,2.1898],[-78.5712,1.7822],[-78.8461,1.8216],[-79.0215,1.6383],[-78.8287,1.4343]]]}},{"type":"Feature","id":"label-COL-1406","properties":{"kind":"division-label","code":"COL-1406","countryCode":"COL","name":"Nariño","localName":"Nariño","labelEnglish":"Nariño","labelLocal":"Nariño","labelBoth":"Nariño","type":"Department","iso":"CO-NAR","qid":"Q230217"},"geometry":{"type":"Point","coordinates":[-77.9777,1.60168]}},{"type":"Feature","id":"COL-1407","properties":{"kind":"division","code":"COL-1407","countryCode":"COL","name":"Putumayo","localName":"Putumayo","labelEnglish":"Putumayo","labelLocal":"Putumayo","labelBoth":"Putumayo","type":"Intendancy","iso":"CO-PUT","qid":"Q232953"},"geometry":{"type":"Polygon","coordinates":[[[-77.1039,0.3541],[-76.8968,0.2453],[-76.408,0.2545],[-76.3116,0.4585],[-76.0535,0.3635],[-75.7897,0.0844],[-75.2835,-0.107],[-75.2221,-0.0324],[-74.8247,-0.1705],[-74.4147,-0.5638],[-73.8641,-0.3929],[-74.2915,-0.1415],[-74.6638,-0.0542],[-74.6829,0.1509],[-74.9624,0.2708],[-74.9962,0.4699],[-75.202,0.5178],[-75.2541,0.719],[-75.8455,0.8895],[-76.0605,1.0437],[-76.351,0.9769],[-76.5366,1.0756],[-76.6705,1.4337],[-76.9117,1.3132],[-77.2386,0.6972],[-77.1039,0.3541]]]}},{"type":"Feature","id":"label-COL-1407","properties":{"kind":"division-label","code":"COL-1407","countryCode":"COL","name":"Putumayo","localName":"Putumayo","labelEnglish":"Putumayo","labelLocal":"Putumayo","labelBoth":"Putumayo","type":"Intendancy","iso":"CO-PUT","qid":"Q232953"},"geometry":{"type":"Point","coordinates":[-75.5514,0.420217]}},{"type":"Feature","id":"COL-1415","properties":{"kind":"division","code":"COL-1415","countryCode":"COL","name":"Chocó","localName":"Chocó","labelEnglish":"Chocó","labelLocal":"Chocó","labelBoth":"Chocó","type":"Department","iso":"CO-CHO","qid":"Q230584"},"geometry":{"type":"Polygon","coordinates":[[[-77.4694,8.5378],[-77.2694,8.1677],[-77.169,7.9351],[-77.6133,7.5375],[-77.7402,7.7189],[-77.8958,7.2351],[-77.6888,7.0546],[-77.6826,6.8759],[-77.343,6.5438],[-77.4844,6.1888],[-77.2464,5.7873],[-77.4083,5.4645],[-77.2544,4.2422],[-76.7304,3.9986],[-76.4396,4.2006],[-76.5457,4.3948],[-76.0759,5.0357],[-76.1799,5.3087],[-76.0425,5.5773],[-76.1113,5.9756],[-76.2772,6.1873],[-76.7001,6.1687],[-76.9728,6.8102],[-76.8314,6.9997],[-76.5461,6.991],[-76.5296,7.2487],[-77.1091,7.7545],[-76.9539,8.0865],[-76.9855,8.2562],[-77.3735,8.6647],[-77.4694,8.5378]]]}},{"type":"Feature","id":"label-COL-1415","properties":{"kind":"division-label","code":"COL-1415","countryCode":"COL","name":"Chocó","localName":"Chocó","labelEnglish":"Chocó","labelLocal":"Chocó","labelBoth":"Chocó","type":"Department","iso":"CO-CHO","qid":"Q230584"},"geometry":{"type":"Point","coordinates":[-76.7263,5.38283]}},{"type":"Feature","id":"COL-1424","properties":{"kind":"division","code":"COL-1424","countryCode":"COL","name":"Guainía","localName":"Guainía","labelEnglish":"Guainía","labelLocal":"Guainía","labelBoth":"Guainía","type":"Commissiary","iso":"CO-GUA","qid":"Q238645"},"geometry":{"type":"Polygon","coordinates":[[[-69.8412,1.7076],[-68.1633,1.7213],[-68.2008,2.0078],[-67.9982,1.75],[-67.7905,1.8126],[-67.5929,2.0548],[-67.3406,2.0901],[-67.1172,1.7098],[-67.0652,1.1727],[-66.8751,1.2225],[-67.1976,2.402],[-67.6266,2.8134],[-67.8386,2.8861],[-67.3046,3.4257],[-67.6318,3.7619],[-67.7169,4.0399],[-67.877,3.9227],[-68.3555,4.0199],[-68.5464,3.7959],[-69.0748,3.6143],[-69.2924,3.7266],[-69.6032,3.692],[-69.6525,3.5421],[-70.0828,3.5255],[-70.1293,3.2043],[-70.4997,2.7845],[-70.8957,2.6209],[-70.6223,2.3276],[-70.3043,2.2264],[-70.0373,2.2774],[-70.105,2.1012],[-70.1566,1.8693],[-69.8412,1.7076]]]}},{"type":"Feature","id":"label-COL-1424","properties":{"kind":"division-label","code":"COL-1424","countryCode":"COL","name":"Guainía","localName":"Guainía","labelEnglish":"Guainía","labelLocal":"Guainía","labelBoth":"Guainía","type":"Commissiary","iso":"CO-GUA","qid":"Q238645"},"geometry":{"type":"Point","coordinates":[-68.8925,2.70535]}},{"type":"Feature","id":"COL-1426","properties":{"kind":"division","code":"COL-1426","countryCode":"COL","name":"Vaupés","localName":"Vaupés","labelEnglish":"Vaupés","labelLocal":"Vaupés","labelBoth":"Vaupés","type":"Commissiary","iso":"CO-VAU","qid":"Q234505"},"geometry":{"type":"Polygon","coordinates":[[[-69.8412,1.7076],[-70.1566,1.8693],[-70.105,2.1012],[-70.702,1.9017],[-70.9118,1.915],[-71.2638,1.6734],[-71.3908,1.7322],[-71.5417,1.1578],[-72.0358,0.664],[-71.689,0.2583],[-71.3223,0.1332],[-70.9966,0.0087],[-70.853,-0.3125],[-70.2161,-0.4234],[-70.2797,-0.9337],[-69.897,-0.9242],[-69.4211,-1.2393],[-69.45,-0.9968],[-69.6284,-0.7334],[-69.6321,-0.5069],[-70.0738,-0.1249],[-70.0542,0.5881],[-69.5037,0.7296],[-69.1375,0.6501],[-69.1524,0.8678],[-69.3709,1.063],[-69.8522,1.0594],[-69.8412,1.7076]]]}},{"type":"Feature","id":"label-COL-1426","properties":{"kind":"division-label","code":"COL-1426","countryCode":"COL","name":"Vaupés","localName":"Vaupés","labelEnglish":"Vaupés","labelLocal":"Vaupés","labelBoth":"Vaupés","type":"Commissiary","iso":"CO-VAU","qid":"Q234505"},"geometry":{"type":"Point","coordinates":[-70.5869,0.790971]}},{"type":"Feature","id":"COL-1283","properties":{"kind":"division","code":"COL-1283","countryCode":"COL","name":"Amazonas","localName":"Amazonas","labelEnglish":"Amazonas","labelLocal":"Amazonas","labelBoth":"Amazonas","type":"Commissiary","iso":"CO-AMA","qid":"Q44724"},"geometry":{"type":"Polygon","coordinates":[[[-69.4211,-1.2393],[-69.897,-0.9242],[-70.2797,-0.9337],[-70.2161,-0.4234],[-70.853,-0.3125],[-70.9966,0.0087],[-71.3223,0.1332],[-71.7742,-0.2247],[-72.0369,-0.2596],[-72.3245,-0.6293],[-72.5498,-0.6833],[-72.9974,-0.5266],[-73.2055,-0.6047],[-73.8641,-0.3929],[-74.4147,-0.5638],[-74.3444,-0.8586],[-73.8808,-1.191],[-73.6366,-1.2552],[-73.4972,-1.478],[-73.531,-1.6737],[-73.1863,-1.7996],[-73.1111,-2.0734],[-73.1978,-2.2136],[-72.9433,-2.419],[-72.6443,-2.3341],[-72.3966,-2.4465],[-71.9663,-2.3285],[-71.7385,-2.1377],[-71.4208,-2.376],[-70.9927,-2.1974],[-70.3575,-2.4869],[-70.0506,-2.7151],[-70.7341,-3.782],[-70.3111,-3.8293],[-69.9649,-4.2365],[-69.7712,-3.2342],[-69.4211,-1.2393]]]}},{"type":"Feature","id":"label-COL-1283","properties":{"kind":"division-label","code":"COL-1283","countryCode":"COL","name":"Amazonas","localName":"Amazonas","labelEnglish":"Amazonas","labelLocal":"Amazonas","labelBoth":"Amazonas","type":"Commissiary","iso":"CO-AMA","qid":"Q44724"},"geometry":{"type":"Point","coordinates":[-71.9171,-1.26032]}},{"type":"Feature","id":"COL-1318","properties":{"kind":"division","code":"COL-1318","countryCode":"COL","name":"La Guajira","localName":"La Guajira","labelEnglish":"La Guajira","labelLocal":"La Guajira","labelBoth":"La Guajira","type":"Department","iso":"CO-LAG","qid":"Q272747"},"geometry":{"type":"Polygon","coordinates":[[[-71.3275,11.85],[-71.1139,12.0944],[-71.2423,12.3277],[-71.6973,12.4643],[-71.8028,12.3237],[-72.1705,12.2343],[-72.2631,11.886],[-72.7597,11.6971],[-73.2924,11.294],[-73.5656,11.2771],[-73.6058,10.8455],[-73.2716,10.8434],[-73.0752,10.63],[-73.1813,10.4566],[-72.9152,10.4282],[-72.4993,11.1208],[-72.2566,11.1678],[-71.9711,11.6619],[-71.3275,11.85]]]}},{"type":"Feature","id":"label-COL-1318","properties":{"kind":"division-label","code":"COL-1318","countryCode":"COL","name":"La Guajira","localName":"La Guajira","labelEnglish":"La Guajira","labelLocal":"La Guajira","labelBoth":"La Guajira","type":"Department","iso":"CO-LAG","qid":"Q272747"},"geometry":{"type":"Point","coordinates":[-72.6702,11.4245]}},{"type":"Feature","id":"COL-1414","properties":{"kind":"division","code":"COL-1414","countryCode":"COL","name":"Cesar","localName":"Cesar","labelEnglish":"Cesar","labelLocal":"Cesar","labelBoth":"Cesar","type":"Department","iso":"CO-CES","qid":"Q234916"},"geometry":{"type":"Polygon","coordinates":[[[-72.9152,10.4282],[-73.1813,10.4566],[-73.0752,10.63],[-73.2716,10.8434],[-73.6058,10.8455],[-73.5778,10.5032],[-73.8935,10.3733],[-74.0662,10.0538],[-73.7842,9.5975],[-74.1371,9.4982],[-73.7998,9.0556],[-73.8704,8.8877],[-73.7622,8.4594],[-73.7856,8.1615],[-73.6254,7.7345],[-73.3574,7.8106],[-73.3627,8.0162],[-73.5546,8.6338],[-73.4268,8.7927],[-73.3636,9.165],[-72.9776,9.8381],[-72.9152,10.4282]]]}},{"type":"Feature","id":"label-COL-1414","properties":{"kind":"division-label","code":"COL-1414","countryCode":"COL","name":"Cesar","localName":"Cesar","labelEnglish":"Cesar","labelLocal":"Cesar","labelBoth":"Cesar","type":"Department","iso":"CO-CES","qid":"Q234916"},"geometry":{"type":"Point","coordinates":[-73.4339,9.84893]}},{"type":"Feature","id":"COL-1421","properties":{"kind":"division","code":"COL-1421","countryCode":"COL","name":"Norte de Santander","localName":"Norte de Santander","labelEnglish":"Norte de Santander","labelLocal":"Norte de Santander","labelBoth":"Norte de Santander","type":"Department","iso":"CO-NSA","qid":"Q233058"},"geometry":{"type":"Polygon","coordinates":[[[-72.4156,8.3827],[-72.6754,8.6515],[-72.8267,9.1417],[-73.0097,9.2954],[-73.3636,9.165],[-73.4268,8.7927],[-73.5546,8.6338],[-73.3627,8.0162],[-73.3574,7.8106],[-73.6254,7.7345],[-73.2607,7.5449],[-72.9913,7.6132],[-72.8423,7.3575],[-72.8859,7.0738],[-72.5049,6.9151],[-71.9938,7.0129],[-72.2062,7.3819],[-72.3958,7.4075],[-72.482,7.508],[-72.4878,7.9492],[-72.3358,8.1039],[-72.4156,8.3827]]]}},{"type":"Feature","id":"label-COL-1421","properties":{"kind":"division-label","code":"COL-1421","countryCode":"COL","name":"Norte de Santander","localName":"Norte de Santander","labelEnglish":"Norte de Santander","labelLocal":"Norte de Santander","labelBoth":"Norte de Santander","type":"Department","iso":"CO-NSA","qid":"Q233058"},"geometry":{"type":"Point","coordinates":[-72.8175,8.086]}},{"type":"Feature","id":"COL-1420","properties":{"kind":"division","code":"COL-1420","countryCode":"COL","name":"Arauca","localName":"Arauca","labelEnglish":"Arauca","labelLocal":"Arauca","labelBoth":"Arauca","type":"Intendancy","iso":"CO-ARA","qid":"Q230223"},"geometry":{"type":"Polygon","coordinates":[[[-71.964,7.0059],[-72.1573,6.4747],[-72.3217,6.3513],[-72.1563,6.074],[-71.2071,6.2741],[-70.8642,6.2153],[-70.1181,6.25],[-69.8558,6.0263],[-69.432,6.1222],[-70.0966,6.9444],[-70.3191,6.9383],[-70.5786,7.0858],[-71.184,6.9626],[-71.6204,7.0521],[-71.964,7.0059]]]}},{"type":"Feature","id":"label-COL-1420","properties":{"kind":"division-label","code":"COL-1420","countryCode":"COL","name":"Arauca","localName":"Arauca","labelEnglish":"Arauca","labelLocal":"Arauca","labelBoth":"Arauca","type":"Intendancy","iso":"CO-ARA","qid":"Q230223"},"geometry":{"type":"Point","coordinates":[-70.8913,6.64307]}},{"type":"Feature","id":"COL-1315","properties":{"kind":"division","code":"COL-1315","countryCode":"COL","name":"Boyacá","localName":"Boyacá","labelEnglish":"Boyacá","labelLocal":"Boyacá","labelBoth":"Boyacá","type":"Department","iso":"CO-BOY","qid":"Q121233"},"geometry":{"type":"Polygon","coordinates":[[[-71.9938,7.0129],[-72.5049,6.9151],[-72.5424,6.5025],[-72.7334,6.4566],[-72.7546,6.2295],[-73.0348,5.9407],[-73.2192,5.9825],[-73.403,5.7562],[-73.4993,6.1071],[-73.6384,5.7227],[-73.9732,5.7326],[-74.2704,5.8832],[-74.2903,6.0707],[-74.5194,6.2823],[-74.6625,5.7719],[-74.6461,5.7525],[-74.3122,5.7895],[-74.2439,5.4839],[-74.0001,5.3743],[-73.8216,5.5585],[-73.6538,5.4617],[-73.4784,5.0525],[-73.5453,4.9324],[-73.2181,4.6776],[-73.053,4.7348],[-72.9383,5.2405],[-72.7096,5.2795],[-72.2377,5.6831],[-72.4474,5.8542],[-72.3217,6.3513],[-72.1573,6.4747],[-71.964,7.0059],[-71.9938,7.0129]]]}},{"type":"Feature","id":"label-COL-1315","properties":{"kind":"division-label","code":"COL-1315","countryCode":"COL","name":"Boyacá","localName":"Boyacá","labelEnglish":"Boyacá","labelLocal":"Boyacá","labelBoth":"Boyacá","type":"Department","iso":"CO-BOY","qid":"Q121233"},"geometry":{"type":"Point","coordinates":[-72.933,5.68515]}},{"type":"Feature","id":"COL-1427","properties":{"kind":"division","code":"COL-1427","countryCode":"COL","name":"Vichada","localName":"Vichada","labelEnglish":"Vichada","labelLocal":"Vichada","labelBoth":"Vichada","type":"Commissiary","iso":"CO-VID","qid":"Q268729"},"geometry":{"type":"Polygon","coordinates":[[[-67.4563,6.1932],[-67.451,6.198],[-67.8391,6.3075],[-67.9241,6.2346],[-68.6353,6.1359],[-69.0611,6.2178],[-69.432,6.1222],[-69.8558,6.0263],[-70.0685,5.6693],[-70.4488,5.5331],[-70.9603,5.1177],[-71.0603,4.9194],[-71.0637,2.8686],[-70.4997,2.7845],[-70.1293,3.2043],[-70.0828,3.5255],[-69.6525,3.5421],[-69.6032,3.692],[-69.2924,3.7266],[-69.0748,3.6143],[-68.5464,3.7959],[-68.3555,4.0199],[-67.877,3.9227],[-67.7169,4.0399],[-67.8651,4.5121],[-67.7931,5.0633],[-67.8437,5.2972],[-67.647,5.4834],[-67.4563,6.1932]]]}},{"type":"Feature","id":"label-COL-1427","properties":{"kind":"division-label","code":"COL-1427","countryCode":"COL","name":"Vichada","localName":"Vichada","labelEnglish":"Vichada","labelLocal":"Vichada","labelBoth":"Vichada","type":"Commissiary","iso":"CO-VID","qid":"Q268729"},"geometry":{"type":"Point","coordinates":[-69.2414,4.89224]}},{"type":"Feature","id":"COL-1404","properties":{"kind":"division","code":"COL-1404","countryCode":"COL","name":"Cauca","localName":"Cauca","labelEnglish":"Cauca","labelLocal":"Cauca","labelBoth":"Cauca","type":"Department","iso":"CO-CAU","qid":"Q230602"},"geometry":{"type":"Polygon","coordinates":[[[-78.0739,2.6468],[-77.7438,2.1445],[-77.4314,2.221],[-77.1993,1.961],[-77.3251,1.6894],[-76.9409,1.7275],[-76.8448,1.6071],[-76.9117,1.3132],[-76.6705,1.4337],[-76.5366,1.0756],[-76.351,0.9769],[-76.0605,1.0437],[-76.297,1.1961],[-76.1453,1.5755],[-76.5769,1.8797],[-76.3789,2.42],[-75.8445,2.4281],[-75.781,2.6696],[-76.0312,2.9295],[-76.0758,3.2133],[-76.4367,3.3179],[-76.5533,3.1101],[-77.2615,3.124],[-77.4649,3.3016],[-77.7218,2.982],[-77.7779,2.5777],[-78.0739,2.6468]]]}},{"type":"Feature","id":"label-COL-1404","properties":{"kind":"division-label","code":"COL-1404","countryCode":"COL","name":"Cauca","localName":"Cauca","labelEnglish":"Cauca","labelLocal":"Cauca","labelBoth":"Cauca","type":"Department","iso":"CO-CAU","qid":"Q230602"},"geometry":{"type":"Point","coordinates":[-77.277,2.61609]}},{"type":"Feature","id":"COL-1408","properties":{"kind":"division","code":"COL-1408","countryCode":"COL","name":"Valle del Cauca","localName":"Valle del Cauca","labelEnglish":"Valle del Cauca","labelLocal":"Valle del Cauca","labelBoth":"Valle del Cauca","type":"Department","iso":"CO-VAC","qid":"Q13990"},"geometry":{"type":"Polygon","coordinates":[[[-77.4649,3.3016],[-77.2615,3.124],[-76.5533,3.1101],[-76.4367,3.3179],[-76.0758,3.2133],[-75.9617,3.7122],[-75.7622,4.0785],[-75.8248,4.6644],[-75.714,4.7129],[-75.9086,4.7632],[-76.0759,5.0357],[-76.5457,4.3948],[-76.4396,4.2006],[-76.7304,3.9986],[-77.2544,4.2422],[-77.2852,4.2113],[-77.4352,4.1528],[-77.1954,3.7582],[-77.4649,3.3016]]]}},{"type":"Feature","id":"label-COL-1408","properties":{"kind":"division-label","code":"COL-1408","countryCode":"COL","name":"Valle del Cauca","localName":"Valle del Cauca","labelEnglish":"Valle del Cauca","labelLocal":"Valle del Cauca","labelBoth":"Valle del Cauca","type":"Department","iso":"CO-VAC","qid":"Q13990"},"geometry":{"type":"Point","coordinates":[-76.5923,3.58331]}},{"type":"Feature","id":"COL-1314","properties":{"kind":"division","code":"COL-1314","countryCode":"COL","name":"Antioquia","localName":"Antioquia","labelEnglish":"Antioquia","labelLocal":"Antioquia","labelBoth":"Antioquia","type":"Department","iso":"CO-ANT","qid":"Q123304"},"geometry":{"type":"Polygon","coordinates":[[[-76.9855,8.2562],[-76.9539,8.0865],[-77.1091,7.7545],[-76.5296,7.2487],[-76.5461,6.991],[-76.8314,6.9997],[-76.9728,6.8102],[-76.7001,6.1687],[-76.2772,6.1873],[-76.1113,5.9756],[-76.0425,5.5773],[-75.8578,5.4894],[-75.5857,5.5188],[-75.6132,5.7352],[-75.3846,5.6742],[-75.2761,5.4336],[-75.0912,5.6596],[-74.6625,5.7719],[-74.5194,6.2823],[-74.3864,6.6263],[-73.8878,7.0199],[-73.9302,7.3008],[-74.2529,6.9961],[-74.5869,7.524],[-74.4859,7.7367],[-74.5995,7.9982],[-74.8349,8.1887],[-75.2288,8.046],[-75.59,7.5695],[-75.8681,7.3642],[-76.4078,7.3804],[-76.5051,7.7407],[-76.4194,8.0987],[-76.2173,8.4102],[-76.4448,8.8699],[-76.9472,8.5455],[-76.7701,8.398],[-76.7572,7.9236],[-76.9337,7.9646],[-76.8323,8.1365],[-76.9855,8.2562]]]}},{"type":"Feature","id":"label-COL-1314","properties":{"kind":"division-label","code":"COL-1314","countryCode":"COL","name":"Antioquia","localName":"Antioquia","labelEnglish":"Antioquia","labelLocal":"Antioquia","labelBoth":"Antioquia","type":"Department","iso":"CO-ANT","qid":"Q123304"},"geometry":{"type":"Point","coordinates":[-75.5071,6.70366]}},{"type":"Feature","id":"COL-1316","properties":{"kind":"division","code":"COL-1316","countryCode":"COL","name":"Córdoba","localName":"Córdoba","labelEnglish":"Córdoba","labelLocal":"Córdoba","labelBoth":"Córdoba","type":"Department","iso":"CO-COR","qid":"Q234912"},"geometry":{"type":"Polygon","coordinates":[[[-76.4448,8.8699],[-76.2173,8.4102],[-76.4194,8.0987],[-76.5051,7.7407],[-76.4078,7.3804],[-75.8681,7.3642],[-75.59,7.5695],[-75.2288,8.046],[-74.8349,8.1887],[-74.805,8.2799],[-74.9433,8.4863],[-75.2951,8.4806],[-75.3599,8.8034],[-75.2128,9.0416],[-75.6983,9.4169],[-76.078,9.3438],[-76.2563,9.0074],[-76.4448,8.8699]]]}},{"type":"Feature","id":"label-COL-1316","properties":{"kind":"division-label","code":"COL-1316","countryCode":"COL","name":"Córdoba","localName":"Córdoba","labelEnglish":"Córdoba","labelLocal":"Córdoba","labelBoth":"Córdoba","type":"Department","iso":"CO-COR","qid":"Q234912"},"geometry":{"type":"Point","coordinates":[-75.6522,8.43894]}},{"type":"Feature","id":"COL-1417","properties":{"kind":"division","code":"COL-1417","countryCode":"COL","name":"Sucre","localName":"Sucre","labelEnglish":"Sucre","labelLocal":"Sucre","labelBoth":"Sucre","type":"Department","iso":"CO-SUC","qid":"Q235188"},"geometry":{"type":"Polygon","coordinates":[[[-75.6983,9.4169],[-75.2128,9.0416],[-75.3599,8.8034],[-75.2951,8.4806],[-74.9433,8.4863],[-74.805,8.2799],[-74.5505,8.4628],[-74.5421,8.8067],[-74.9004,9.1769],[-74.8992,9.4302],[-75.1828,9.6432],[-75.3745,9.6403],[-75.3272,9.8814],[-75.5816,10.092],[-75.6983,9.4169]]]}},{"type":"Feature","id":"label-COL-1417","properties":{"kind":"division-label","code":"COL-1417","countryCode":"COL","name":"Sucre","localName":"Sucre","labelEnglish":"Sucre","labelLocal":"Sucre","labelBoth":"Sucre","type":"Department","iso":"CO-SUC","qid":"Q235188"},"geometry":{"type":"Point","coordinates":[-75.1319,9.01236]}},{"type":"Feature","id":"COL-1413","properties":{"kind":"division","code":"COL-1413","countryCode":"COL","name":"Bolívar","localName":"Bolívar","labelEnglish":"Bolívar","labelLocal":"Bolívar","labelBoth":"Bolívar","type":"Department","iso":"CO-BOL","qid":"Q230597"},"geometry":{"type":"Polygon","coordinates":[[[-75.5816,10.092],[-75.3272,9.8814],[-75.3745,9.6403],[-75.1828,9.6432],[-74.8992,9.4302],[-74.9004,9.1769],[-74.5421,8.8067],[-74.5505,8.4628],[-74.805,8.2799],[-74.8349,8.1887],[-74.5995,7.9982],[-74.4859,7.7367],[-74.5869,7.524],[-74.2529,6.9961],[-73.9302,7.3008],[-73.7856,8.1615],[-73.7622,8.4594],[-73.8704,8.8877],[-73.8721,8.9733],[-74.5122,9.2408],[-74.7998,9.4486],[-74.9175,10.2674],[-75.2664,10.5307],[-75.2563,10.7093],[-75.5098,10.5858],[-75.5816,10.092]]]}},{"type":"Feature","id":"label-COL-1413","properties":{"kind":"division-label","code":"COL-1413","countryCode":"COL","name":"Bolívar","localName":"Bolívar","labelEnglish":"Bolívar","labelLocal":"Bolívar","labelBoth":"Bolívar","type":"Department","iso":"CO-BOL","qid":"Q230597"},"geometry":{"type":"Point","coordinates":[-74.1807,8.57823]}},{"type":"Feature","id":"COL-1412","properties":{"kind":"division","code":"COL-1412","countryCode":"COL","name":"Atlántico","localName":"Atlántico","labelEnglish":"Atlántico","labelLocal":"Atlántico","labelBoth":"Atlántico","type":"Department","iso":"CO-ATL","qid":"Q230882"},"geometry":{"type":"Polygon","coordinates":[[[-75.2563,10.7093],[-75.2664,10.5307],[-74.9175,10.2674],[-74.7286,10.584],[-74.7247,10.9003],[-74.8475,11.0877],[-75.2287,10.8109],[-75.2297,10.7634],[-75.2563,10.7093]]]}},{"type":"Feature","id":"label-COL-1412","properties":{"kind":"division-label","code":"COL-1412","countryCode":"COL","name":"Atlántico","localName":"Atlántico","labelEnglish":"Atlántico","labelLocal":"Atlántico","labelBoth":"Atlántico","type":"Department","iso":"CO-ATL","qid":"Q230882"},"geometry":{"type":"Point","coordinates":[-74.9941,10.6712]}},{"type":"Feature","id":"COL-1416","properties":{"kind":"division","code":"COL-1416","countryCode":"COL","name":"Magdalena","localName":"Magdalena","labelEnglish":"Magdalena","labelLocal":"Magdalena","labelBoth":"Magdalena","type":"Department","iso":"CO-MAG","qid":"Q199910"},"geometry":{"type":"Polygon","coordinates":[[[-74.8475,11.0877],[-74.7247,10.9003],[-74.7286,10.584],[-74.9175,10.2674],[-74.7998,9.4486],[-74.5122,9.2408],[-73.8721,8.9733],[-73.8704,8.8877],[-73.7998,9.0556],[-74.1371,9.4982],[-73.7842,9.5975],[-74.0662,10.0538],[-73.8935,10.3733],[-73.5778,10.5032],[-73.6058,10.8455],[-73.5656,11.2771],[-74.1875,11.317],[-74.3622,10.7757],[-74.523,10.9959],[-74.8475,11.0877]]]}},{"type":"Feature","id":"label-COL-1416","properties":{"kind":"division-label","code":"COL-1416","countryCode":"COL","name":"Magdalena","localName":"Magdalena","labelEnglish":"Magdalena","labelLocal":"Magdalena","labelBoth":"Magdalena","type":"Department","iso":"CO-MAG","qid":"Q199910"},"geometry":{"type":"Point","coordinates":[-74.3474,10.3731]}},{"type":"Feature","id":"COL-1342","properties":{"kind":"division","code":"COL-1342","countryCode":"COL","name":"Archipelago of Saint Andréws","localName":"Archipelago of Saint Andréws","labelEnglish":"Archipelago of Saint Andréws","labelLocal":"Archipelago of Saint Andréws","labelBoth":"Archipelago of Saint Andréws","type":"Department","iso":"CO-SAP","qid":"Q26855"},"geometry":{"type":"Polygon","coordinates":[[[-81.7115,12.5229],[-81.6864,12.5801],[-81.7169,12.5632],[-81.7115,12.5229]]]}},{"type":"Feature","id":"label-COL-1342","properties":{"kind":"division-label","code":"COL-1342","countryCode":"COL","name":"Archipelago of Saint Andréws","localName":"Archipelago of Saint Andréws","labelEnglish":"Archipelago of Saint Andréws","labelLocal":"Archipelago of Saint Andréws","labelBoth":"Archipelago of Saint Andréws","type":"Department","iso":"CO-SAP","qid":"Q26855"},"geometry":{"type":"Point","coordinates":[-81.7049,12.5429]}},{"type":"Feature","id":"COL+99?","properties":{"kind":"division","code":"COL+99?","countryCode":"COL","name":"COL+99?","localName":"COL+99?","labelEnglish":"COL+99?","labelLocal":"COL+99?","labelBoth":"COL+99?","type":null,"iso":"CO-X01~","qid":null},"geometry":{"type":"Polygon","coordinates":[[[-81.6117,3.959],[-81.5787,3.9782],[-81.6014,3.9883],[-81.6117,3.959]]]}},{"type":"Feature","id":"label-COL+99?","properties":{"kind":"division-label","code":"COL+99?","countryCode":"COL","name":"COL+99?","localName":"COL+99?","labelEnglish":"COL+99?","labelLocal":"COL+99?","labelBoth":"COL+99?","type":null,"iso":"CO-X01~","qid":null},"geometry":{"type":"Point","coordinates":[-81.5928,3.97794]}},{"type":"Feature","id":"COL-1403","properties":{"kind":"division","code":"COL-1403","countryCode":"COL","name":"Caquetá","localName":"Caquetá","labelEnglish":"Caquetá","labelLocal":"Caquetá","labelBoth":"Caquetá","type":"Intendancy","iso":"CO-CAQ","qid":"Q13985"},"geometry":{"type":"Polygon","coordinates":[[[-74.8975,2.9507],[-74.9955,2.6553],[-75.4215,2.2474],[-75.9602,1.573],[-76.1453,1.5755],[-76.297,1.1961],[-76.0605,1.0437],[-75.8455,0.8895],[-75.2541,0.719],[-75.202,0.5178],[-74.9962,0.4699],[-74.9624,0.2708],[-74.6829,0.1509],[-74.6638,-0.0542],[-74.2915,-0.1415],[-73.8641,-0.3929],[-73.2055,-0.6047],[-72.9974,-0.5266],[-72.5498,-0.6833],[-72.3245,-0.6293],[-72.0369,-0.2596],[-71.7742,-0.2247],[-71.3223,0.1332],[-71.689,0.2583],[-72.0358,0.664],[-72.2381,0.7366],[-72.4176,1.026],[-72.6707,1.1911],[-72.8706,1.1577],[-73.0829,0.9243],[-73.4257,1.2094],[-73.6751,1.6245],[-73.9178,1.6347],[-74.5108,1.8439],[-74.6459,2.3182],[-74.5964,2.7212],[-74.8975,2.9507]]]}},{"type":"Feature","id":"label-COL-1403","properties":{"kind":"division-label","code":"COL-1403","countryCode":"COL","name":"Caquetá","localName":"Caquetá","labelEnglish":"Caquetá","labelLocal":"Caquetá","labelBoth":"Caquetá","type":"Intendancy","iso":"CO-CAQ","qid":"Q13985"},"geometry":{"type":"Point","coordinates":[-73.8097,0.615494]}},{"type":"Feature","id":"COL-1405","properties":{"kind":"division","code":"COL-1405","countryCode":"COL","name":"Huila","localName":"Huila","labelEnglish":"Huila","labelLocal":"Huila","labelBoth":"Huila","type":"Department","iso":"CO-HUI","qid":"Q234920"},"geometry":{"type":"Polygon","coordinates":[[[-74.8975,2.9507],[-74.6517,3.26],[-74.4936,3.704],[-74.5635,3.7721],[-74.9089,3.2899],[-75.0356,3.4342],[-75.4776,3.3605],[-75.8547,2.8909],[-76.0312,2.9295],[-75.781,2.6696],[-75.8445,2.4281],[-76.3789,2.42],[-76.5769,1.8797],[-76.1453,1.5755],[-75.9602,1.573],[-75.4215,2.2474],[-74.9955,2.6553],[-74.8975,2.9507]]]}},{"type":"Feature","id":"label-COL-1405","properties":{"kind":"division-label","code":"COL-1405","countryCode":"COL","name":"Huila","localName":"Huila","labelEnglish":"Huila","labelLocal":"Huila","labelBoth":"Huila","type":"Department","iso":"CO-HUI","qid":"Q234920"},"geometry":{"type":"Point","coordinates":[-75.5471,2.65469]}},{"type":"Feature","id":"COL-1423","properties":{"kind":"division","code":"COL-1423","countryCode":"COL","name":"Guaviare","localName":"Guaviare","labelEnglish":"Guaviare","labelLocal":"Guaviare","labelBoth":"Guaviare","type":"Commissiary","iso":"CO-GUV","qid":"Q272885"},"geometry":{"type":"Polygon","coordinates":[[[-73.6751,1.6245],[-73.4257,1.2094],[-73.0829,0.9243],[-72.8706,1.1577],[-72.6707,1.1911],[-72.4176,1.026],[-72.2381,0.7366],[-72.0358,0.664],[-71.5417,1.1578],[-71.3908,1.7322],[-71.2638,1.6734],[-70.9118,1.915],[-70.702,1.9017],[-70.105,2.1012],[-70.0373,2.2774],[-70.3043,2.2264],[-70.6223,2.3276],[-70.8957,2.6209],[-70.4997,2.7845],[-71.0637,2.8686],[-71.9928,2.7999],[-72.121,2.8671],[-72.9062,2.5476],[-73.1535,2.3611],[-73.6546,2.2937],[-73.6751,1.6245]]]}},{"type":"Feature","id":"label-COL-1423","properties":{"kind":"division-label","code":"COL-1423","countryCode":"COL","name":"Guaviare","localName":"Guaviare","labelEnglish":"Guaviare","labelLocal":"Guaviare","labelBoth":"Guaviare","type":"Commissiary","iso":"CO-GUV","qid":"Q272885"},"geometry":{"type":"Point","coordinates":[-71.8348,1.85144]}},{"type":"Feature","id":"COL-1397","properties":{"kind":"division","code":"COL-1397","countryCode":"COL","name":"Caldas","localName":"Caldas","labelEnglish":"Caldas","labelLocal":"Caldas","labelBoth":"Caldas","type":"Department","iso":"CO-CAL","qid":"Q230607"},"geometry":{"type":"Polygon","coordinates":[[[-74.6625,5.7719],[-75.0912,5.6596],[-75.2761,5.4336],[-75.3846,5.6742],[-75.6132,5.7352],[-75.5857,5.5188],[-75.8578,5.4894],[-75.8585,4.9323],[-75.4924,4.9194],[-75.378,4.8001],[-75.2944,5.1318],[-75.0628,5.2689],[-74.7487,5.2908],[-74.6461,5.7525],[-74.6625,5.7719]]]}},{"type":"Feature","id":"label-COL-1397","properties":{"kind":"division-label","code":"COL-1397","countryCode":"COL","name":"Caldas","localName":"Caldas","labelEnglish":"Caldas","labelLocal":"Caldas","labelBoth":"Caldas","type":"Department","iso":"CO-CAL","qid":"Q230607"},"geometry":{"type":"Point","coordinates":[-75.2793,5.29037]}},{"type":"Feature","id":"COL-1422","properties":{"kind":"division","code":"COL-1422","countryCode":"COL","name":"Casanare","localName":"Casanare","labelEnglish":"Casanare","labelLocal":"Casanare","labelBoth":"Casanare","type":"Intendancy","iso":"CO-CAS","qid":"Q13984"},"geometry":{"type":"Polygon","coordinates":[[[-72.3217,6.3513],[-72.4474,5.8542],[-72.2377,5.6831],[-72.7096,5.2795],[-72.9383,5.2405],[-73.053,4.7348],[-72.748,4.3131],[-72.0122,4.3986],[-71.8195,4.5701],[-71.0603,4.9194],[-70.9603,5.1177],[-70.4488,5.5331],[-70.0685,5.6693],[-69.8558,6.0263],[-70.1181,6.25],[-70.8642,6.2153],[-71.2071,6.2741],[-72.1563,6.074],[-72.3217,6.3513]]]}},{"type":"Feature","id":"label-COL-1422","properties":{"kind":"division-label","code":"COL-1422","countryCode":"COL","name":"Casanare","localName":"Casanare","labelEnglish":"Casanare","labelLocal":"Casanare","labelBoth":"Casanare","type":"Intendancy","iso":"CO-CAS","qid":"Q13984"},"geometry":{"type":"Point","coordinates":[-71.4622,5.46249]}},{"type":"Feature","id":"COL-1425","properties":{"kind":"division","code":"COL-1425","countryCode":"COL","name":"Meta","localName":"Meta","labelEnglish":"Meta","labelLocal":"Meta","labelBoth":"Meta","type":"Department","iso":"CO-MET","qid":"Q238629"},"geometry":{"type":"Polygon","coordinates":[[[-74.8975,2.9507],[-74.5964,2.7212],[-74.6459,2.3182],[-74.5108,1.8439],[-73.9178,1.6347],[-73.6751,1.6245],[-73.6546,2.2937],[-73.1535,2.3611],[-72.9062,2.5476],[-72.121,2.8671],[-71.9928,2.7999],[-71.0637,2.8686],[-71.0603,4.9194],[-71.8195,4.5701],[-72.0122,4.3986],[-72.748,4.3131],[-73.053,4.7348],[-73.1328,4.2396],[-73.539,4.3065],[-73.7941,4.4444],[-73.7519,4.2022],[-74.1544,4.0072],[-74.4936,3.704],[-74.6517,3.26],[-74.8975,2.9507]]]}},{"type":"Feature","id":"label-COL-1425","properties":{"kind":"division-label","code":"COL-1425","countryCode":"COL","name":"Meta","localName":"Meta","labelEnglish":"Meta","labelLocal":"Meta","labelBoth":"Meta","type":"Department","iso":"CO-MET","qid":"Q238629"},"geometry":{"type":"Point","coordinates":[-72.9789,3.5302]}},{"type":"Feature","id":"COL-1399","properties":{"kind":"division","code":"COL-1399","countryCode":"COL","name":"Bogotá","localName":"Bogotá","labelEnglish":"Bogotá","labelLocal":"Bogotá","labelBoth":"Bogotá","type":"Federal District","iso":"CO-CUN","qid":"Q2841"},"geometry":{"type":"Polygon","coordinates":[[[-74.1544,4.0072],[-74.1493,4.2771],[-73.995,4.6323],[-74.0814,4.8355],[-74.2727,4.0985],[-74.4936,3.704],[-74.1544,4.0072]]]}},{"type":"Feature","id":"label-COL-1399","properties":{"kind":"division-label","code":"COL-1399","countryCode":"COL","name":"Bogotá","localName":"Bogotá","labelEnglish":"Bogotá","labelLocal":"Bogotá","labelBoth":"Bogotá","type":"Federal District","iso":"CO-CUN","qid":"Q2841"},"geometry":{"type":"Point","coordinates":[-74.2443,4.08564]}},{"type":"Feature","id":"COL-1317","properties":{"kind":"division","code":"COL-1317","countryCode":"COL","name":"Santander","localName":"Santander","labelEnglish":"Santander","labelLocal":"Santander","labelBoth":"Santander","type":"Department","iso":"CO-SAN","qid":"Q235166"},"geometry":{"type":"Polygon","coordinates":[[[-73.6254,7.7345],[-73.7856,8.1615],[-73.9302,7.3008],[-73.8878,7.0199],[-74.3864,6.6263],[-74.5194,6.2823],[-74.2903,6.0707],[-74.2704,5.8832],[-73.9732,5.7326],[-73.6384,5.7227],[-73.4993,6.1071],[-73.403,5.7562],[-73.2192,5.9825],[-73.0348,5.9407],[-72.7546,6.2295],[-72.7334,6.4566],[-72.5424,6.5025],[-72.5049,6.9151],[-72.8859,7.0738],[-72.8423,7.3575],[-72.9913,7.6132],[-73.2607,7.5449],[-73.6254,7.7345]]]}},{"type":"Feature","id":"label-COL-1317","properties":{"kind":"division-label","code":"COL-1317","countryCode":"COL","name":"Santander","localName":"Santander","labelEnglish":"Santander","labelLocal":"Santander","labelBoth":"Santander","type":"Department","iso":"CO-SAN","qid":"Q235166"},"geometry":{"type":"Point","coordinates":[-73.4981,6.85402]}},{"type":"Feature","id":"COL-1402","properties":{"kind":"division","code":"COL-1402","countryCode":"COL","name":"Tolima","localName":"Tolima","labelEnglish":"Tolima","labelLocal":"Tolima","labelBoth":"Tolima","type":"Department","iso":"CO-TOL","qid":"Q234501"},"geometry":{"type":"Polygon","coordinates":[[[-74.5635,3.7721],[-74.4881,4.17],[-74.8807,4.2691],[-74.7628,4.7998],[-74.7487,5.2908],[-75.0628,5.2689],[-75.2944,5.1318],[-75.378,4.8001],[-75.3904,4.7168],[-75.7622,4.0785],[-75.9617,3.7122],[-76.0758,3.2133],[-76.0312,2.9295],[-75.8547,2.8909],[-75.4776,3.3605],[-75.0356,3.4342],[-74.9089,3.2899],[-74.5635,3.7721]]]}},{"type":"Feature","id":"label-COL-1402","properties":{"kind":"division-label","code":"COL-1402","countryCode":"COL","name":"Tolima","localName":"Tolima","labelEnglish":"Tolima","labelLocal":"Tolima","labelBoth":"Tolima","type":"Department","iso":"CO-TOL","qid":"Q234501"},"geometry":{"type":"Point","coordinates":[-75.2073,3.93749]}},{"type":"Feature","id":"COL-1400","properties":{"kind":"division","code":"COL-1400","countryCode":"COL","name":"Quindío","localName":"Quindío","labelEnglish":"Quindío","labelLocal":"Quindío","labelBoth":"Quindío","type":"Department","iso":"CO-QUI","qid":"Q13995"},"geometry":{"type":"Polygon","coordinates":[[[-75.3904,4.7168],[-75.714,4.7129],[-75.8248,4.6644],[-75.7622,4.0785],[-75.3904,4.7168]]]}},{"type":"Feature","id":"label-COL-1400","properties":{"kind":"division-label","code":"COL-1400","countryCode":"COL","name":"Quindío","localName":"Quindío","labelEnglish":"Quindío","labelLocal":"Quindío","labelBoth":"Quindío","type":"Department","iso":"CO-QUI","qid":"Q13995"},"geometry":{"type":"Point","coordinates":[-75.64,4.47197]}},{"type":"Feature","id":"COL-1398","properties":{"kind":"division","code":"COL-1398","countryCode":"COL","name":"Cundinamarca","localName":"Cundinamarca","labelEnglish":"Cundinamarca","labelLocal":"Cundinamarca","labelBoth":"Cundinamarca","type":"Department","iso":"CO-CUN","qid":"Q232564"},"geometry":{"type":"Polygon","coordinates":[[[-74.4936,3.704],[-74.2727,4.0985],[-74.0814,4.8355],[-73.995,4.6323],[-74.1493,4.2771],[-74.1544,4.0072],[-73.7519,4.2022],[-73.7941,4.4444],[-73.539,4.3065],[-73.1328,4.2396],[-73.053,4.7348],[-73.2181,4.6776],[-73.5453,4.9324],[-73.4784,5.0525],[-73.6538,5.4617],[-73.8216,5.5585],[-74.0001,5.3743],[-74.2439,5.4839],[-74.3122,5.7895],[-74.6461,5.7525],[-74.7487,5.2908],[-74.7628,4.7998],[-74.8807,4.2691],[-74.4881,4.17],[-74.5635,3.7721],[-74.4936,3.704]]]}},{"type":"Feature","id":"label-COL-1398","properties":{"kind":"division-label","code":"COL-1398","countryCode":"COL","name":"Cundinamarca","localName":"Cundinamarca","labelEnglish":"Cundinamarca","labelLocal":"Cundinamarca","labelBoth":"Cundinamarca","type":"Department","iso":"CO-CUN","qid":"Q232564"},"geometry":{"type":"Point","coordinates":[-74.0613,5.11121]}},{"type":"Feature","id":"COL-1401","properties":{"kind":"division","code":"COL-1401","countryCode":"COL","name":"Risaralda","localName":"Risaralda","labelEnglish":"Risaralda","labelLocal":"Risaralda","labelBoth":"Risaralda","type":"Department","iso":"CO-RIS","qid":"Q13993"},"geometry":{"type":"Polygon","coordinates":[[[-75.8578,5.4894],[-76.0425,5.5773],[-76.1799,5.3087],[-76.0759,5.0357],[-75.9086,4.7632],[-75.714,4.7129],[-75.3904,4.7168],[-75.378,4.8001],[-75.4924,4.9194],[-75.8585,4.9323],[-75.8578,5.4894]]]}},{"type":"Feature","id":"label-COL-1401","properties":{"kind":"division-label","code":"COL-1401","countryCode":"COL","name":"Risaralda","localName":"Risaralda","labelEnglish":"Risaralda","labelLocal":"Risaralda","labelBoth":"Risaralda","type":"Department","iso":"CO-RIS","qid":"Q13993"},"geometry":{"type":"Point","coordinates":[-75.6743,4.82682]}}]}