{"type":"FeatureCollection","features":[{"type":"Feature","id":"COM-4934","properties":{"kind":"division","code":"COM-4934","countryCode":"COM","name":"Mohéli","localName":"Mohéli","labelEnglish":"Mohéli","labelLocal":"Mohéli","labelBoth":"Mohéli","type":null,"iso":"KM-M","qid":"Q271797"},"geometry":{"type":"Polygon","coordinates":[[[43.7887,-12.308],[43.6358,-12.2369],[43.6814,-12.3581],[43.7887,-12.308]]]}},{"type":"Feature","id":"label-COM-4934","properties":{"kind":"division-label","code":"COM-4934","countryCode":"COM","name":"Mohéli","localName":"Mohéli","labelEnglish":"Mohéli","labelLocal":"Mohéli","labelBoth":"Mohéli","type":null,"iso":"KM-M","qid":"Q271797"},"geometry":{"type":"Point","coordinates":[43.7462,-12.3178]}},{"type":"Feature","id":"COM-4936","properties":{"kind":"division","code":"COM-4936","countryCode":"COM","name":"Anjouan","localName":"Anjouan","labelEnglish":"Anjouan","labelLocal":"Anjouan","labelBoth":"Anjouan","type":null,"iso":"KM-A","qid":"Q231324"},"geometry":{"type":"Polygon","coordinates":[[[44.5291,-12.2328],[44.4841,-12.0855],[44.2064,-12.1606],[44.5115,-12.3803],[44.5291,-12.2328]]]}},{"type":"Feature","id":"label-COM-4936","properties":{"kind":"division-label","code":"COM-4936","countryCode":"COM","name":"Anjouan","localName":"Anjouan","labelEnglish":"Anjouan","labelLocal":"Anjouan","labelBoth":"Anjouan","type":null,"iso":"KM-A","qid":"Q231324"},"geometry":{"type":"Point","coordinates":[44.4518,-12.226]}},{"type":"Feature","id":"COM-4935","properties":{"kind":"division","code":"COM-4935","countryCode":"COM","name":"Andjazîdja","localName":"Andjazîdja","labelEnglish":"Andjazîdja","labelLocal":"Andjazîdja","labelBoth":"Andjazîdja","type":null,"iso":"KM-G","qid":null},"geometry":{"type":"Polygon","coordinates":[[[43.4666,-11.8217],[43.3994,-11.4184],[43.2765,-11.3796],[43.2629,-11.818],[43.4666,-11.8217]]]}},{"type":"Feature","id":"label-COM-4935","properties":{"kind":"division-label","code":"COM-4935","countryCode":"COM","name":"Andjazîdja","localName":"Andjazîdja","labelEnglish":"Andjazîdja","labelLocal":"Andjazîdja","labelBoth":"Andjazîdja","type":null,"iso":"KM-G","qid":null},"geometry":{"type":"Point","coordinates":[43.3378,-11.6952]}}]}