{"type":"FeatureCollection","features":[{"type":"Feature","id":"CPV-5041","properties":{"kind":"division","code":"CPV-5041","countryCode":"CPV","name":"Brava","localName":"Brava","labelEnglish":"Brava","labelLocal":"Brava","labelBoth":"Brava","type":null,"iso":"CV-BR","qid":"Q2571624"},"geometry":{"type":"Polygon","coordinates":[[[-24.7043,14.9008],[-24.7446,14.8266],[-24.6869,14.8266],[-24.7043,14.9008]]]}},{"type":"Feature","id":"label-CPV-5041","properties":{"kind":"division-label","code":"CPV-5041","countryCode":"CPV","name":"Brava","localName":"Brava","labelEnglish":"Brava","labelLocal":"Brava","labelBoth":"Brava","type":null,"iso":"CV-BR","qid":"Q2571624"},"geometry":{"type":"Point","coordinates":[-24.7204,14.851]}},{"type":"Feature","id":"CPV-5044","properties":{"kind":"division","code":"CPV-5044","countryCode":"CPV","name":"Santa Catarina do Fogo","localName":"Santa Catarina do Fogo","labelEnglish":"Santa Catarina do Fogo","labelLocal":"Santa Catarina do Fogo","labelBoth":"Santa Catarina do Fogo","type":null,"iso":"CV-CF","qid":"Q2608046"},"geometry":{"type":"Polygon","coordinates":[[[-24.3015,14.9548],[-24.374,14.9449],[-24.2982,14.8955],[-24.3015,14.9548]]]}},{"type":"Feature","id":"label-CPV-5044","properties":{"kind":"division-label","code":"CPV-5044","countryCode":"CPV","name":"Santa Catarina do Fogo","localName":"Santa Catarina do Fogo","labelEnglish":"Santa Catarina do Fogo","labelLocal":"Santa Catarina do Fogo","labelBoth":"Santa Catarina do Fogo","type":null,"iso":"CV-CF","qid":"Q2608046"},"geometry":{"type":"Point","coordinates":[-24.3301,14.9241]}},{"type":"Feature","id":"CPV-5043","properties":{"kind":"division","code":"CPV-5043","countryCode":"CPV","name":"Mosteiros","localName":"Mosteiros","labelEnglish":"Mosteiros","labelLocal":"Mosteiros","labelBoth":"Mosteiros","type":null,"iso":"CV-MO","qid":"Q516835"},"geometry":{"type":"Polygon","coordinates":[[[-24.4297,15.025],[-24.374,14.9449],[-24.3015,14.9548],[-24.4297,15.025]]]}},{"type":"Feature","id":"label-CPV-5043","properties":{"kind":"division-label","code":"CPV-5043","countryCode":"CPV","name":"Mosteiros","localName":"Mosteiros","labelEnglish":"Mosteiros","labelLocal":"Mosteiros","labelBoth":"Mosteiros","type":null,"iso":"CV-MO","qid":"Q516835"},"geometry":{"type":"Point","coordinates":[-24.3541,15.0008]}},{"type":"Feature","id":"CPV-5042","properties":{"kind":"division","code":"CPV-5042","countryCode":"CPV","name":"São Filipe","localName":"São Filipe","labelEnglish":"São Filipe","labelLocal":"São Filipe","labelBoth":"São Filipe","type":null,"iso":"CV-SF","qid":"Q6430079"},"geometry":{"type":"Polygon","coordinates":[[[-24.2982,14.8955],[-24.374,14.9449],[-24.4297,15.025],[-24.5262,14.9247],[-24.2982,14.8955]]]}},{"type":"Feature","id":"label-CPV-5042","properties":{"kind":"division-label","code":"CPV-5042","countryCode":"CPV","name":"São Filipe","localName":"São Filipe","labelEnglish":"São Filipe","labelLocal":"São Filipe","labelBoth":"São Filipe","type":null,"iso":"CV-SF","qid":"Q6430079"},"geometry":{"type":"Point","coordinates":[-24.4403,14.9241]}},{"type":"Feature","id":"CPV-5045","properties":{"kind":"division","code":"CPV-5045","countryCode":"CPV","name":"Tarrafal","localName":"Tarrafal","labelEnglish":"Tarrafal","labelLocal":"Tarrafal","labelBoth":"Tarrafal","type":null,"iso":"CV-TA","qid":"Q499598"},"geometry":{"type":"Polygon","coordinates":[[[-23.7701,15.184],[-23.6859,15.1844],[-23.6561,15.2297],[-23.7701,15.184]]]}},{"type":"Feature","id":"label-CPV-5045","properties":{"kind":"division-label","code":"CPV-5045","countryCode":"CPV","name":"Tarrafal","localName":"Tarrafal","labelEnglish":"Tarrafal","labelLocal":"Tarrafal","labelBoth":"Tarrafal","type":null,"iso":"CV-TA","qid":"Q499598"},"geometry":{"type":"Point","coordinates":[-23.717,15.2355]}},{"type":"Feature","id":"CPV-5046","properties":{"kind":"division","code":"CPV-5046","countryCode":"CPV","name":"Santa Catarina","localName":"Santa Catarina","labelEnglish":"Santa Catarina","labelLocal":"Santa Catarina","labelBoth":"Santa Catarina","type":null,"iso":"CV-CA","qid":"Q494882"},"geometry":{"type":"Polygon","coordinates":[[[-23.7151,14.9685],[-23.6294,15.0393],[-23.6183,15.1058],[-23.6266,15.1314],[-23.6859,15.1844],[-23.7701,15.184],[-23.7151,14.9685]]]}},{"type":"Feature","id":"label-CPV-5046","properties":{"kind":"division-label","code":"CPV-5046","countryCode":"CPV","name":"Santa Catarina","localName":"Santa Catarina","labelEnglish":"Santa Catarina","labelLocal":"Santa Catarina","labelBoth":"Santa Catarina","type":null,"iso":"CV-CA","qid":"Q494882"},"geometry":{"type":"Point","coordinates":[-23.7027,15.0918]}},{"type":"Feature","id":"CPV-5052","properties":{"kind":"division","code":"CPV-5052","countryCode":"CPV","name":"Ribeira Grande de Santiago","localName":"Ribeira Grande de Santiago","labelEnglish":"Ribeira Grande de Santiago","labelLocal":"Ribeira Grande de Santiago","labelBoth":"Ribeira Grande de Santiago","type":null,"iso":"CV-RS","qid":"Q499620"},"geometry":{"type":"Polygon","coordinates":[[[-23.5393,14.9076],[-23.5641,14.9607],[-23.5962,15.0117],[-23.612,15.0409],[-23.6294,15.0393],[-23.7151,14.9685],[-23.5393,14.9076]]]}},{"type":"Feature","id":"label-CPV-5052","properties":{"kind":"division-label","code":"CPV-5052","countryCode":"CPV","name":"Ribeira Grande de Santiago","localName":"Ribeira Grande de Santiago","labelEnglish":"Ribeira Grande de Santiago","labelLocal":"Ribeira Grande de Santiago","labelBoth":"Ribeira Grande de Santiago","type":null,"iso":"CV-RS","qid":"Q499620"},"geometry":{"type":"Point","coordinates":[-23.6404,14.9768]}},{"type":"Feature","id":"CPV-5053","properties":{"kind":"division","code":"CPV-5053","countryCode":"CPV","name":"Praia","localName":"Praia","labelEnglish":"Praia","labelLocal":"Praia","labelBoth":"Praia","type":null,"iso":"CV-PR","qid":"Q497019"},"geometry":{"type":"Polygon","coordinates":[[[-23.4715,14.9737],[-23.5641,14.9607],[-23.5393,14.9076],[-23.4715,14.9737]]]}},{"type":"Feature","id":"label-CPV-5053","properties":{"kind":"division-label","code":"CPV-5053","countryCode":"CPV","name":"Praia","localName":"Praia","labelEnglish":"Praia","labelLocal":"Praia","labelBoth":"Praia","type":null,"iso":"CV-PR","qid":"Q497019"},"geometry":{"type":"Point","coordinates":[-23.5159,14.9529]}},{"type":"Feature","id":"CPV-5051","properties":{"kind":"division","code":"CPV-5051","countryCode":"CPV","name":"São Domingos","localName":"São Domingos","labelEnglish":"São Domingos","labelLocal":"São Domingos","labelBoth":"São Domingos","type":null,"iso":"CV-SD","qid":"Q499009"},"geometry":{"type":"Polygon","coordinates":[[[-23.4847,15.064],[-23.5264,15.0593],[-23.5962,15.0117],[-23.5641,14.9607],[-23.4715,14.9737],[-23.4847,15.064]]]}},{"type":"Feature","id":"label-CPV-5051","properties":{"kind":"division-label","code":"CPV-5051","countryCode":"CPV","name":"São Domingos","localName":"São Domingos","labelEnglish":"São Domingos","labelLocal":"São Domingos","labelBoth":"São Domingos","type":null,"iso":"CV-SD","qid":"Q499009"},"geometry":{"type":"Point","coordinates":[-23.5254,15.0152]}},{"type":"Feature","id":"CPV-5048","properties":{"kind":"division","code":"CPV-5048","countryCode":"CPV","name":"Santa Cruz","localName":"Santa Cruz","labelEnglish":"Santa Cruz","labelLocal":"Santa Cruz","labelBoth":"Santa Cruz","type":null,"iso":"CV-CR","qid":"Q497472"},"geometry":{"type":"Polygon","coordinates":[[[-23.5916,15.1702],[-23.6266,15.1314],[-23.6183,15.1058],[-23.58,15.0816],[-23.5264,15.0593],[-23.4847,15.064],[-23.5916,15.1702]]]}},{"type":"Feature","id":"label-CPV-5048","properties":{"kind":"division-label","code":"CPV-5048","countryCode":"CPV","name":"Santa Cruz","localName":"Santa Cruz","labelEnglish":"Santa Cruz","labelLocal":"Santa Cruz","labelBoth":"Santa Cruz","type":null,"iso":"CV-CR","qid":"Q497472"},"geometry":{"type":"Point","coordinates":[-23.5494,15.1157]}},{"type":"Feature","id":"CPV-5047","properties":{"kind":"division","code":"CPV-5047","countryCode":"CPV","name":"São Miguel","localName":"São Miguel","labelEnglish":"São Miguel","labelLocal":"São Miguel","labelBoth":"São Miguel","type":null,"iso":"CV-SM","qid":"Q494874"},"geometry":{"type":"Polygon","coordinates":[[[-23.6561,15.2297],[-23.6859,15.1844],[-23.6266,15.1314],[-23.5916,15.1702],[-23.6561,15.2297]]]}},{"type":"Feature","id":"label-CPV-5047","properties":{"kind":"division-label","code":"CPV-5047","countryCode":"CPV","name":"São Miguel","localName":"São Miguel","labelEnglish":"São Miguel","labelLocal":"São Miguel","labelBoth":"São Miguel","type":null,"iso":"CV-SM","qid":"Q494874"},"geometry":{"type":"Point","coordinates":[-23.6356,15.178]}},{"type":"Feature","id":"CPV-5054","properties":{"kind":"division","code":"CPV-5054","countryCode":"CPV","name":"Maio","localName":"Maio","labelEnglish":"Maio","labelLocal":"Maio","labelBoth":"Maio","type":null,"iso":"CV-MA","qid":"Q2551133"},"geometry":{"type":"Polygon","coordinates":[[[-23.1278,15.3117],[-23.2513,15.2564],[-23.1827,15.1186],[-23.1278,15.3117]]]}},{"type":"Feature","id":"label-CPV-5054","properties":{"kind":"division-label","code":"CPV-5054","countryCode":"CPV","name":"Maio","localName":"Maio","labelEnglish":"Maio","labelLocal":"Maio","labelBoth":"Maio","type":null,"iso":"CV-MA","qid":"Q2551133"},"geometry":{"type":"Point","coordinates":[-23.1806,15.2115]}},{"type":"Feature","id":"CPV-5055","properties":{"kind":"division","code":"CPV-5055","countryCode":"CPV","name":"Boa Vista","localName":"Boa Vista","labelEnglish":"Boa Vista","labelLocal":"Boa Vista","labelBoth":"Boa Vista","type":null,"iso":"CV-BV","qid":"Q2721025"},"geometry":{"type":"Polygon","coordinates":[[[-22.6821,16.1136],[-22.9156,16.244],[-22.9455,16.0197],[-22.6821,16.1136]]]}},{"type":"Feature","id":"label-CPV-5055","properties":{"kind":"division-label","code":"CPV-5055","countryCode":"CPV","name":"Boa Vista","localName":"Boa Vista","labelEnglish":"Boa Vista","labelLocal":"Boa Vista","labelBoth":"Boa Vista","type":null,"iso":"CV-BV","qid":"Q2721025"},"geometry":{"type":"Point","coordinates":[-22.807,16.1024]}},{"type":"Feature","id":"CPV-5057","properties":{"kind":"division","code":"CPV-5057","countryCode":"CPV","name":"Ribeira Brava","localName":"Ribeira Brava","labelEnglish":"Ribeira Brava","labelLocal":"Ribeira Brava","labelBoth":"Ribeira Brava","type":null,"iso":"CV-RB","qid":"Q747221"},"geometry":{"type":"Polygon","coordinates":[[[-24.3756,16.6771],[-24.3247,16.4827],[-24.2333,16.6021],[-24.3756,16.6771]]]}},{"type":"Feature","id":"label-CPV-5057","properties":{"kind":"division-label","code":"CPV-5057","countryCode":"CPV","name":"Ribeira Brava","localName":"Ribeira Brava","labelEnglish":"Ribeira Brava","labelLocal":"Ribeira Brava","labelBoth":"Ribeira Brava","type":null,"iso":"CV-RB","qid":"Q747221"},"geometry":{"type":"Point","coordinates":[-24.287,16.6197]}},{"type":"Feature","id":"CPV-5058","properties":{"kind":"division","code":"CPV-5058","countryCode":"CPV","name":"Tarrafal de São Nicolau","localName":"Tarrafal de São Nicolau","labelEnglish":"Tarrafal de São Nicolau","labelLocal":"Tarrafal de São Nicolau","labelBoth":"Tarrafal de São Nicolau","type":null,"iso":"CV-TS","qid":"Q1895853"},"geometry":{"type":"Polygon","coordinates":[[[-24.3247,16.4827],[-24.3756,16.6771],[-24.4226,16.6623],[-24.3247,16.4827]]]}},{"type":"Feature","id":"label-CPV-5058","properties":{"kind":"division-label","code":"CPV-5058","countryCode":"CPV","name":"Tarrafal de São Nicolau","localName":"Tarrafal de São Nicolau","labelEnglish":"Tarrafal de São Nicolau","labelLocal":"Tarrafal de São Nicolau","labelBoth":"Tarrafal de São Nicolau","type":null,"iso":"CV-TS","qid":"Q1895853"},"geometry":{"type":"Point","coordinates":[-24.3493,16.6006]}},{"type":"Feature","id":"CPV-5056","properties":{"kind":"division","code":"CPV-5056","countryCode":"CPV","name":"Sal","localName":"Sal","labelEnglish":"Sal","labelLocal":"Sal","labelBoth":"Sal","type":null,"iso":"CV-SL","qid":"Q2721003"},"geometry":{"type":"Polygon","coordinates":[[[-22.9292,16.5934],[-22.8951,16.8293],[-22.9908,16.8157],[-22.9292,16.5934]]]}},{"type":"Feature","id":"label-CPV-5056","properties":{"kind":"division-label","code":"CPV-5056","countryCode":"CPV","name":"Sal","localName":"Sal","labelEnglish":"Sal","labelLocal":"Sal","labelBoth":"Sal","type":null,"iso":"CV-SL","qid":"Q2721003"},"geometry":{"type":"Point","coordinates":[-22.9363,16.7251]}},{"type":"Feature","id":"CPV-5059","properties":{"kind":"division","code":"CPV-5059","countryCode":"CPV","name":"São Vicente","localName":"São Vicente","labelEnglish":"São Vicente","labelLocal":"São Vicente","labelBoth":"São Vicente","type":null,"iso":"CV-SV","qid":"Q648842"},"geometry":{"type":"Polygon","coordinates":[[[-24.9197,16.8951],[-25.0782,16.8651],[-24.988,16.7851],[-24.9197,16.8951]]]}},{"type":"Feature","id":"label-CPV-5059","properties":{"kind":"division-label","code":"CPV-5059","countryCode":"CPV","name":"São Vicente","localName":"São Vicente","labelEnglish":"São Vicente","labelLocal":"São Vicente","labelBoth":"São Vicente","type":null,"iso":"CV-SV","qid":"Q648842"},"geometry":{"type":"Point","coordinates":[-24.972,16.8449]}},{"type":"Feature","id":"CPV-5061","properties":{"kind":"division","code":"CPV-5061","countryCode":"CPV","name":"Ribeira Grande","localName":"Ribeira Grande","labelEnglish":"Ribeira Grande","labelLocal":"Ribeira Grande","labelBoth":"Ribeira Grande","type":null,"iso":"CV-RG","qid":"Q1355642"},"geometry":{"type":"Polygon","coordinates":[[[-25.2454,17.1367],[-25.073,17.1136],[-25.0259,17.1449],[-25.2454,17.1367]]]}},{"type":"Feature","id":"label-CPV-5061","properties":{"kind":"division-label","code":"CPV-5061","countryCode":"CPV","name":"Ribeira Grande","localName":"Ribeira Grande","labelEnglish":"Ribeira Grande","labelLocal":"Ribeira Grande","labelBoth":"Ribeira Grande","type":null,"iso":"CV-RG","qid":"Q1355642"},"geometry":{"type":"Point","coordinates":[-25.1204,17.1418]}},{"type":"Feature","id":"CPV-5060","properties":{"kind":"division","code":"CPV-5060","countryCode":"CPV","name":"Porto Novo","localName":"Porto Novo","labelEnglish":"Porto Novo","labelLocal":"Porto Novo","labelBoth":"Porto Novo","type":null,"iso":"CV-PN","qid":"Q1552897"},"geometry":{"type":"Polygon","coordinates":[[[-24.9867,17.0789],[-25.073,17.1136],[-25.2454,17.1367],[-25.1879,16.9282],[-24.9867,17.0789]]]}},{"type":"Feature","id":"label-CPV-5060","properties":{"kind":"division-label","code":"CPV-5060","countryCode":"CPV","name":"Porto Novo","localName":"Porto Novo","labelEnglish":"Porto Novo","labelLocal":"Porto Novo","labelBoth":"Porto Novo","type":null,"iso":"CV-PN","qid":"Q1552897"},"geometry":{"type":"Point","coordinates":[-25.2258,17.0173]}},{"type":"Feature","id":"CPV-5062","properties":{"kind":"division","code":"CPV-5062","countryCode":"CPV","name":"Paul","localName":"Paul","labelEnglish":"Paul","labelLocal":"Paul","labelBoth":"Paul","type":null,"iso":"CV-PA","qid":"Q1475374"},"geometry":{"type":"Polygon","coordinates":[[[-25.0259,17.1449],[-25.073,17.1136],[-24.9867,17.0789],[-25.0259,17.1449]]]}},{"type":"Feature","id":"label-CPV-5062","properties":{"kind":"division-label","code":"CPV-5062","countryCode":"CPV","name":"Paul","localName":"Paul","labelEnglish":"Paul","labelLocal":"Paul","labelBoth":"Paul","type":null,"iso":"CV-PA","qid":"Q1475374"},"geometry":{"type":"Point","coordinates":[-25.0151,17.1179]}},{"type":"Feature","id":"CPV-5049","properties":{"kind":"division","code":"CPV-5049","countryCode":"CPV","name":"São Salvador do Mundo","localName":"São Salvador do Mundo","labelEnglish":"São Salvador do Mundo","labelLocal":"São Salvador do Mundo","labelBoth":"São Salvador do Mundo","type":null,"iso":"CV-SS","qid":"Q494877"},"geometry":{"type":"Polygon","coordinates":[[[-23.6183,15.1058],[-23.6294,15.0393],[-23.612,15.0409],[-23.58,15.0816],[-23.6183,15.1058]]]}},{"type":"Feature","id":"label-CPV-5049","properties":{"kind":"division-label","code":"CPV-5049","countryCode":"CPV","name":"São Salvador do Mundo","localName":"São Salvador do Mundo","labelEnglish":"São Salvador do Mundo","labelLocal":"São Salvador do Mundo","labelBoth":"São Salvador do Mundo","type":null,"iso":"CV-SS","qid":"Q494877"},"geometry":{"type":"Point","coordinates":[-23.6164,15.0678]}},{"type":"Feature","id":"CPV-5050","properties":{"kind":"division","code":"CPV-5050","countryCode":"CPV","name":"São Lourenço dos Órgãos","localName":"São Lourenço dos Órgãos","labelEnglish":"São Lourenço dos Órgãos","labelLocal":"São Lourenço dos Órgãos","labelBoth":"São Lourenço dos Órgãos","type":null,"iso":"CV-SO","qid":"Q494726"},"geometry":{"type":"Polygon","coordinates":[[[-23.612,15.0409],[-23.5962,15.0117],[-23.5264,15.0593],[-23.58,15.0816],[-23.612,15.0409]]]}},{"type":"Feature","id":"label-CPV-5050","properties":{"kind":"division-label","code":"CPV-5050","countryCode":"CPV","name":"São Lourenço dos Órgãos","localName":"São Lourenço dos Órgãos","labelEnglish":"São Lourenço dos Órgãos","labelLocal":"São Lourenço dos Órgãos","labelBoth":"São Lourenço dos Órgãos","type":null,"iso":"CV-SO","qid":"Q494726"},"geometry":{"type":"Point","coordinates":[-23.5781,15.0439]}}]}