{"type":"FeatureCollection","features":[{"type":"Feature","id":"CRI-1333","properties":{"kind":"division","code":"CRI-1333","countryCode":"CRI","name":"Alajuela","localName":"Alajuela","labelEnglish":"Alajuela","labelLocal":"Alajuela","labelBoth":"Alajuela","type":"Province","iso":"CR-A","qid":"Q502188"},"geometry":{"type":"Polygon","coordinates":[[[-84.1577,10.7884],[-84.3555,10.9946],[-84.6765,11.0704],[-84.885,10.9477],[-85.2365,11.0531],[-85.4375,10.9069],[-84.7933,10.4966],[-84.7866,10.3153],[-84.5501,9.9977],[-84.5711,9.8245],[-84.2,9.9572],[-84.1577,10.7884]]]}},{"type":"Feature","id":"label-CRI-1333","properties":{"kind":"division-label","code":"CRI-1333","countryCode":"CRI","name":"Alajuela","localName":"Alajuela","labelEnglish":"Alajuela","labelLocal":"Alajuela","labelBoth":"Alajuela","type":"Province","iso":"CR-A","qid":"Q502188"},"geometry":{"type":"Point","coordinates":[-84.7995,10.7527]}},{"type":"Feature","id":"CRI-1334","properties":{"kind":"division","code":"CRI-1334","countryCode":"CRI","name":"Guanacaste","localName":"Guanacaste","labelEnglish":"Guanacaste","labelLocal":"Guanacaste","labelBoth":"Guanacaste","type":"Province","iso":"CR-G","qid":"Q690026"},"geometry":{"type":"Polygon","coordinates":[[[-85.2365,11.0531],[-85.5978,11.2099],[-85.7017,11.0809],[-85.9088,10.8864],[-85.6653,10.7788],[-85.875,10.355],[-85.6386,9.9055],[-85.2293,9.7248],[-85.1674,10.0194],[-85.0686,10.1558],[-84.9184,10.1128],[-84.7866,10.3153],[-84.7933,10.4966],[-85.4375,10.9069],[-85.2365,11.0531]]]}},{"type":"Feature","id":"label-CRI-1334","properties":{"kind":"division-label","code":"CRI-1334","countryCode":"CRI","name":"Guanacaste","localName":"Guanacaste","labelEnglish":"Guanacaste","labelLocal":"Guanacaste","labelBoth":"Guanacaste","type":"Province","iso":"CR-G","qid":"Q690026"},"geometry":{"type":"Point","coordinates":[-85.3552,10.3333]}},{"type":"Feature","id":"CRI-1329","properties":{"kind":"division","code":"CRI-1329","countryCode":"CRI","name":"Limón","localName":"Limón","labelEnglish":"Limón","labelLocal":"Limón","labelBoth":"Limón","type":"Province","iso":"CR-L","qid":"Q642644"},"geometry":{"type":"Polygon","coordinates":[[[-82.9395,9.0706],[-82.9443,9.4372],[-82.829,9.6027],[-82.5736,9.5762],[-82.7723,9.661],[-83.2037,10.1293],[-83.6965,10.9366],[-83.7638,10.7737],[-83.9136,10.199],[-83.9427,10.1362],[-83.5891,9.9772],[-83.339,9.9736],[-83.4869,9.4676],[-83.4294,9.3537],[-83.1657,9.3168],[-82.9395,9.0706]]]}},{"type":"Feature","id":"label-CRI-1329","properties":{"kind":"division-label","code":"CRI-1329","countryCode":"CRI","name":"Limón","localName":"Limón","labelEnglish":"Limón","labelLocal":"Limón","labelBoth":"Limón","type":"Province","iso":"CR-L","qid":"Q642644"},"geometry":{"type":"Point","coordinates":[-83.1486,9.7018]}},{"type":"Feature","id":"CRI-1330","properties":{"kind":"division","code":"CRI-1330","countryCode":"CRI","name":"Puntarenas","localName":"Puntarenas","labelEnglish":"Puntarenas","labelLocal":"Puntarenas","labelBoth":"Puntarenas","type":"Province","iso":"CR-P","qid":"Q502170"},"geometry":{"type":"MultiPolygon","coordinates":[[[[-82.9395,9.0706],[-83.1657,9.3168],[-83.4294,9.3537],[-83.5148,9.0661],[-83.8209,9.2391],[-84.1421,9.6117],[-84.5261,9.5693],[-84.5711,9.8245],[-84.5501,9.9977],[-84.7866,10.3153],[-84.9184,10.1128],[-85.0686,10.1558],[-84.7336,9.9669],[-84.6784,9.651],[-84.5216,9.5193],[-84.2084,9.465],[-83.6299,9.0353],[-83.5876,8.8354],[-83.7399,8.6238],[-83.5756,8.445],[-83.2874,8.3767],[-83.4817,8.7126],[-83.1714,8.6375],[-83.1509,8.3693],[-82.8976,8.0347],[-83.0532,8.3151],[-82.8704,8.4381],[-82.923,8.7562],[-82.7202,8.9202],[-82.9395,9.0706]]],[[[-85.1674,10.0194],[-85.2293,9.7248],[-85.1178,9.5554],[-84.8646,9.8229],[-85.1674,10.0194]]]]}},{"type":"Feature","id":"label-CRI-1330","properties":{"kind":"division-label","code":"CRI-1330","countryCode":"CRI","name":"Puntarenas","localName":"Puntarenas","labelEnglish":"Puntarenas","labelLocal":"Puntarenas","labelBoth":"Puntarenas","type":"Province","iso":"CR-P","qid":"Q502170"},"geometry":{"type":"Point","coordinates":[-83.2294,8.93419]}},{"type":"Feature","id":"CRI-1328","properties":{"kind":"division","code":"CRI-1328","countryCode":"CRI","name":"Heredia","localName":"Heredia","labelEnglish":"Heredia","labelLocal":"Heredia","labelBoth":"Heredia","type":"Province","iso":"CR-H","qid":"Q502192"},"geometry":{"type":"Polygon","coordinates":[[[-83.7638,10.7737],[-84.1577,10.7884],[-84.2,9.9572],[-83.9136,10.199],[-83.7638,10.7737]]]}},{"type":"Feature","id":"label-CRI-1328","properties":{"kind":"division-label","code":"CRI-1328","countryCode":"CRI","name":"Heredia","localName":"Heredia","labelEnglish":"Heredia","labelLocal":"Heredia","labelBoth":"Heredia","type":"Province","iso":"CR-H","qid":"Q502192"},"geometry":{"type":"Point","coordinates":[-83.9527,10.4626]}},{"type":"Feature","id":"CRI-1331","properties":{"kind":"division","code":"CRI-1331","countryCode":"CRI","name":"San José","localName":"San José","labelEnglish":"San José","labelLocal":"San José","labelBoth":"San José","type":"Province","iso":"CR-SJ","qid":"Q647808"},"geometry":{"type":"Polygon","coordinates":[[[-83.9136,10.199],[-84.2,9.9572],[-84.5711,9.8245],[-84.5261,9.5693],[-84.1421,9.6117],[-83.8209,9.2391],[-83.5148,9.0661],[-83.4294,9.3537],[-83.4869,9.4676],[-84.0682,9.7558],[-83.8724,10.0261],[-83.9427,10.1362],[-83.9136,10.199]]]}},{"type":"Feature","id":"label-CRI-1331","properties":{"kind":"division-label","code":"CRI-1331","countryCode":"CRI","name":"San José","localName":"San José","labelEnglish":"San José","labelLocal":"San José","labelBoth":"San José","type":"Province","iso":"CR-SJ","qid":"Q647808"},"geometry":{"type":"Point","coordinates":[-84.0105,9.60369]}},{"type":"Feature","id":"CRI-1327","properties":{"kind":"division","code":"CRI-1327","countryCode":"CRI","name":"Cartago","localName":"Cartago","labelEnglish":"Cartago","labelLocal":"Cartago","labelBoth":"Cartago","type":"Province","iso":"CR-C","qid":"Q502181"},"geometry":{"type":"Polygon","coordinates":[[[-83.9427,10.1362],[-83.8724,10.0261],[-84.0682,9.7558],[-83.4869,9.4676],[-83.339,9.9736],[-83.5891,9.9772],[-83.9427,10.1362]]]}},{"type":"Feature","id":"label-CRI-1327","properties":{"kind":"division-label","code":"CRI-1327","countryCode":"CRI","name":"Cartago","localName":"Cartago","labelEnglish":"Cartago","labelLocal":"Cartago","labelBoth":"Cartago","type":"Province","iso":"CR-C","qid":"Q502181"},"geometry":{"type":"Point","coordinates":[-83.6991,9.78411]}}]}