{"type":"FeatureCollection","features":[{"type":"Feature","id":"CUB-1365","properties":{"kind":"division","code":"CUB-1365","countryCode":"CUB","name":"Guantánamo","localName":"Guantánamo","labelEnglish":"Guantánamo","labelLocal":"Guantánamo","labelBoth":"Guantánamo","type":"Province","iso":"CU-14","qid":"Q115319"},"geometry":{"type":"Polygon","coordinates":[[[-75.095,19.8972],[-74.813,20.0373],[-74.2674,20.0683],[-74.2136,20.311],[-74.4011,20.3073],[-74.7152,20.5561],[-74.845,20.4082],[-75.105,20.4842],[-75.3755,20.4229],[-75.4791,20.34],[-75.3821,19.8825],[-75.2329,19.9001],[-75.1602,19.9706],[-75.137,19.9716],[-75.095,19.8972]]]}},{"type":"Feature","id":"label-CUB-1365","properties":{"kind":"division-label","code":"CUB-1365","countryCode":"CUB","name":"Guantánamo","localName":"Guantánamo","labelEnglish":"Guantánamo","labelLocal":"Guantánamo","labelBoth":"Guantánamo","type":"Province","iso":"CU-14","qid":"Q115319"},"geometry":{"type":"Point","coordinates":[-74.8112,20.2358]}},{"type":"Feature","id":"CUB-1364","properties":{"kind":"division","code":"CUB-1364","countryCode":"CUB","name":"Camagüey","localName":"Camagüey","labelEnglish":"Camagüey","labelLocal":"Camagüey","labelBoth":"Camagüey","type":"Province","iso":"CU-09","qid":"Q215147"},"geometry":{"type":"MultiPolygon","coordinates":[[[[-77.6342,22.0543],[-77.9471,22.0728],[-77.7089,21.9122],[-77.6342,22.0543]]],[[[-78.0818,22.0828],[-78.6416,21.5339],[-78.4947,21.0479],[-78.0655,20.7117],[-77.8311,20.7256],[-77.6551,20.9601],[-77.2918,20.995],[-77.1005,21.4165],[-76.9448,21.4578],[-77.5076,21.8625],[-77.3365,21.6501],[-77.7609,21.8133],[-78.0818,22.0828]]]]}},{"type":"Feature","id":"label-CUB-1364","properties":{"kind":"division-label","code":"CUB-1364","countryCode":"CUB","name":"Camagüey","localName":"Camagüey","labelEnglish":"Camagüey","labelLocal":"Camagüey","labelBoth":"Camagüey","type":"Province","iso":"CU-09","qid":"Q215147"},"geometry":{"type":"Point","coordinates":[-77.9304,21.3675]}},{"type":"Feature","id":"CUB-1363","properties":{"kind":"division","code":"CUB-1363","countryCode":"CUB","name":"Ciego de Ávila","localName":"Ciego de Ávila","labelEnglish":"Ciego de Ávila","labelLocal":"Ciego de Ávila","labelBoth":"Ciego de Ávila","type":"Province","iso":"CU-08","qid":"Q220692"},"geometry":{"type":"Polygon","coordinates":[[[-78.9272,22.3987],[-78.9648,22.044],[-79.1221,21.7499],[-78.96,21.5996],[-78.6416,21.5339],[-78.0818,22.0828],[-78.7818,22.3906],[-78.9272,22.3987]]]}},{"type":"Feature","id":"label-CUB-1363","properties":{"kind":"division-label","code":"CUB-1363","countryCode":"CUB","name":"Ciego de Ávila","localName":"Ciego de Ávila","labelEnglish":"Ciego de Ávila","labelLocal":"Ciego de Ávila","labelBoth":"Ciego de Ávila","type":"Province","iso":"CU-08","qid":"Q220692"},"geometry":{"type":"Point","coordinates":[-78.6388,21.9626]}},{"type":"Feature","id":"CUB-1367","properties":{"kind":"division","code":"CUB-1367","countryCode":"CUB","name":"Holguín","localName":"Holguín","labelEnglish":"Holguín","labelLocal":"Holguín","labelBoth":"Holguín","type":"Province","iso":"CU-11","qid":"Q115302"},"geometry":{"type":"Polygon","coordinates":[[[-76.3135,21.2519],[-76.5172,20.9813],[-76.6747,20.9703],[-76.7219,20.7223],[-76.1797,20.4376],[-76.033,20.5679],[-75.8247,20.4076],[-75.3927,20.5475],[-75.3755,20.4229],[-75.105,20.4842],[-74.845,20.4082],[-74.7152,20.5561],[-74.9984,20.7008],[-75.7089,20.6906],[-75.744,20.9016],[-75.5785,21.0134],[-75.8218,21.1369],[-76.0022,21.0781],[-76.3135,21.2519]]]}},{"type":"Feature","id":"label-CUB-1367","properties":{"kind":"division-label","code":"CUB-1367","countryCode":"CUB","name":"Holguín","localName":"Holguín","labelEnglish":"Holguín","labelLocal":"Holguín","labelBoth":"Holguín","type":"Province","iso":"CU-11","qid":"Q115302"},"geometry":{"type":"Point","coordinates":[-76.1892,20.808]}},{"type":"Feature","id":"CUB-1320","properties":{"kind":"division","code":"CUB-1320","countryCode":"CUB","name":"Isla de la Juventud","localName":"Isla de la Juventud","labelEnglish":"Isla de la Juventud","labelLocal":"Isla de la Juventud","labelBoth":"Isla de la Juventud","type":"Special Municipality","iso":"CU-99","qid":"Q115027"},"geometry":{"type":"Polygon","coordinates":[[[-82.568,21.6365],[-82.6902,21.8818],[-83.0752,21.8432],[-83.0785,21.4692],[-82.8356,21.4447],[-82.568,21.6365]]]}},{"type":"Feature","id":"label-CUB-1320","properties":{"kind":"division-label","code":"CUB-1320","countryCode":"CUB","name":"Isla de la Juventud","localName":"Isla de la Juventud","labelEnglish":"Isla de la Juventud","labelLocal":"Isla de la Juventud","labelBoth":"Isla de la Juventud","type":"Special Municipality","iso":"CU-99","qid":"Q115027"},"geometry":{"type":"Point","coordinates":[-82.8148,21.6754]}},{"type":"Feature","id":"CUB-1322","properties":{"kind":"division","code":"CUB-1322","countryCode":"CUB","name":"Sancti Spíritus","localName":"Sancti Spíritus","labelEnglish":"Sancti Spíritus","labelLocal":"Sancti Spíritus","labelBoth":"Sancti Spíritus","type":"Province","iso":"CU-07","qid":"Q115441"},"geometry":{"type":"Polygon","coordinates":[[[-79.4167,22.4725],[-79.3535,22.2968],[-79.542,22.1507],[-79.7775,22.1837],[-79.7907,21.9818],[-80.024,21.9385],[-80.101,21.8248],[-80.0218,21.7292],[-79.1693,21.5517],[-78.96,21.5996],[-79.1221,21.7499],[-78.9648,22.044],[-78.9272,22.3987],[-79.4167,22.4725]]]}},{"type":"Feature","id":"label-CUB-1322","properties":{"kind":"division-label","code":"CUB-1322","countryCode":"CUB","name":"Sancti Spíritus","localName":"Sancti Spíritus","labelEnglish":"Sancti Spíritus","labelLocal":"Sancti Spíritus","labelBoth":"Sancti Spíritus","type":"Province","iso":"CU-07","qid":"Q115441"},"geometry":{"type":"Point","coordinates":[-79.3804,21.9618]}},{"type":"Feature","id":"CUB-1431","properties":{"kind":"division","code":"CUB-1431","countryCode":"CUB","name":"Villa Clara","localName":"Villa Clara","labelEnglish":"Villa Clara","labelLocal":"Villa Clara","labelBoth":"Villa Clara","type":"Province","iso":"CU-05","qid":"Q115434"},"geometry":{"type":"Polygon","coordinates":[[[-80.5931,23.068],[-80.7294,22.9664],[-80.5197,22.542],[-80.2575,22.5785],[-80.024,21.9385],[-79.7907,21.9818],[-79.7775,22.1837],[-79.542,22.1507],[-79.3535,22.2968],[-79.4167,22.4725],[-79.6517,22.7588],[-80.0246,22.9467],[-80.2796,22.912],[-80.5931,23.068]]]}},{"type":"Feature","id":"label-CUB-1431","properties":{"kind":"division-label","code":"CUB-1431","countryCode":"CUB","name":"Villa Clara","localName":"Villa Clara","labelEnglish":"Villa Clara","labelLocal":"Villa Clara","labelBoth":"Villa Clara","type":"Province","iso":"CU-05","qid":"Q115434"},"geometry":{"type":"Point","coordinates":[-79.9527,22.601]}},{"type":"Feature","id":"CUB-1430","properties":{"kind":"division","code":"CUB-1430","countryCode":"CUB","name":"Matanzas","localName":"Matanzas","labelEnglish":"Matanzas","labelLocal":"Matanzas","labelBoth":"Matanzas","type":"Province","iso":"CU-04","qid":"Q115438"},"geometry":{"type":"Polygon","coordinates":[[[-81.6839,23.1569],[-81.7472,22.9868],[-81.6507,22.5751],[-81.6835,22.4636],[-82.1187,22.4318],[-81.8245,22.1889],[-81.2391,22.1511],[-80.9921,22.0543],[-80.5934,22.0542],[-80.9309,22.2691],[-80.8371,22.482],[-80.5197,22.542],[-80.7294,22.9664],[-80.5931,23.068],[-81.1207,23.039],[-81.2863,23.1448],[-81.6839,23.1569]]]}},{"type":"Feature","id":"label-CUB-1430","properties":{"kind":"division-label","code":"CUB-1430","countryCode":"CUB","name":"Matanzas","localName":"Matanzas","labelEnglish":"Matanzas","labelLocal":"Matanzas","labelBoth":"Matanzas","type":"Province","iso":"CU-04","qid":"Q115438"},"geometry":{"type":"Point","coordinates":[-81.186,22.6152]}},{"type":"Feature","id":"CUB-1368","properties":{"kind":"division","code":"CUB-1368","countryCode":"CUB","name":"Las Tunas","localName":"Las Tunas","labelEnglish":"Las Tunas","labelLocal":"Las Tunas","labelBoth":"Las Tunas","type":"Province","iso":"CU-10","qid":"Q115334"},"geometry":{"type":"Polygon","coordinates":[[[-76.9448,21.4578],[-77.1005,21.4165],[-77.2918,20.995],[-77.6551,20.9601],[-77.8311,20.7256],[-77.3367,20.7163],[-77.2817,20.7827],[-76.7219,20.7223],[-76.6747,20.9703],[-76.5172,20.9813],[-76.3135,21.2519],[-76.9448,21.4578]]]}},{"type":"Feature","id":"label-CUB-1368","properties":{"kind":"division-label","code":"CUB-1368","countryCode":"CUB","name":"Las Tunas","localName":"Las Tunas","labelEnglish":"Las Tunas","labelLocal":"Las Tunas","labelBoth":"Las Tunas","type":"Province","iso":"CU-10","qid":"Q115334"},"geometry":{"type":"Point","coordinates":[-77.0723,21.0299]}},{"type":"Feature","id":"CUB-5489","properties":{"kind":"division","code":"CUB-5489","countryCode":"CUB","name":"Mayabeque","localName":"Mayabeque","labelEnglish":"Mayabeque","labelLocal":"Mayabeque","labelBoth":"Mayabeque","type":"Province","iso":"CU-16","qid":"Q115310"},"geometry":{"type":"Polygon","coordinates":[[[-82.1001,23.1876],[-82.2498,22.9726],[-82.4359,22.9573],[-82.3916,22.6884],[-81.8775,22.6797],[-81.6507,22.5751],[-81.7472,22.9868],[-81.6839,23.1569],[-82.1001,23.1876]]]}},{"type":"Feature","id":"label-CUB-5489","properties":{"kind":"division-label","code":"CUB-5489","countryCode":"CUB","name":"Mayabeque","localName":"Mayabeque","labelEnglish":"Mayabeque","labelLocal":"Mayabeque","labelBoth":"Mayabeque","type":"Province","iso":"CU-16","qid":"Q115310"},"geometry":{"type":"Point","coordinates":[-82.0296,22.8761]}},{"type":"Feature","id":"CUB-1428","properties":{"kind":"division","code":"CUB-1428","countryCode":"CUB","name":"Havana","localName":"Havana","labelEnglish":"Havana","labelLocal":"Havana","labelBoth":"Havana","type":"Province","iso":"CU-03","qid":"Q1563"},"geometry":{"type":"Polygon","coordinates":[[[-82.5387,23.0736],[-82.4359,22.9573],[-82.2498,22.9726],[-82.1001,23.1876],[-82.5387,23.0736]]]}},{"type":"Feature","id":"label-CUB-1428","properties":{"kind":"division-label","code":"CUB-1428","countryCode":"CUB","name":"Havana","localName":"Havana","labelEnglish":"Havana","labelLocal":"Havana","labelBoth":"Havana","type":"Province","iso":"CU-03","qid":"Q1563"},"geometry":{"type":"Point","coordinates":[-82.3075,23.0737]}},{"type":"Feature","id":"CUB-1429","properties":{"kind":"division","code":"CUB-1429","countryCode":"CUB","name":"Artemisa","localName":"Artemisa","labelEnglish":"Artemisa","labelLocal":"Artemisa","labelBoth":"Artemisa","type":"Province","iso":"CU-15","qid":"Q115325"},"geometry":{"type":"Polygon","coordinates":[[[-82.9444,22.9851],[-82.8246,22.6106],[-82.3916,22.6884],[-82.4359,22.9573],[-82.5387,23.0736],[-82.9444,22.9851]]]}},{"type":"Feature","id":"label-CUB-1429","properties":{"kind":"division-label","code":"CUB-1429","countryCode":"CUB","name":"Artemisa","localName":"Artemisa","labelEnglish":"Artemisa","labelLocal":"Artemisa","labelBoth":"Artemisa","type":"Province","iso":"CU-15","qid":"Q115325"},"geometry":{"type":"Point","coordinates":[-82.6903,22.8546]}},{"type":"Feature","id":"CUB-1321","properties":{"kind":"division","code":"CUB-1321","countryCode":"CUB","name":"Pinar del Río","localName":"Pinar del Río","labelEnglish":"Pinar del Río","labelLocal":"Pinar del Río","labelBoth":"Pinar del Río","type":"Province","iso":"CU-01","qid":"Q115497"},"geometry":{"type":"Polygon","coordinates":[[[-82.8246,22.6106],[-82.9444,22.9851],[-84.0783,22.6662],[-84.4457,22.205],[-84.3082,22.0367],[-84.5214,21.7866],[-84.0416,21.9177],[-83.9254,22.1715],[-83.4155,22.1861],[-82.8246,22.6106]]]}},{"type":"Feature","id":"label-CUB-1321","properties":{"kind":"division-label","code":"CUB-1321","countryCode":"CUB","name":"Pinar del Río","localName":"Pinar del Río","labelEnglish":"Pinar del Río","labelLocal":"Pinar del Río","labelBoth":"Pinar del Río","type":"Province","iso":"CU-01","qid":"Q115497"},"geometry":{"type":"Point","coordinates":[-83.674,22.4952]}},{"type":"Feature","id":"CUB-1319","properties":{"kind":"division","code":"CUB-1319","countryCode":"CUB","name":"Cienfuegos","localName":"Cienfuegos","labelEnglish":"Cienfuegos","labelLocal":"Cienfuegos","labelBoth":"Cienfuegos","type":"Province","iso":"CU-06","qid":"Q115444"},"geometry":{"type":"Polygon","coordinates":[[[-80.101,21.8248],[-80.024,21.9385],[-80.2575,22.5785],[-80.5197,22.542],[-80.8371,22.482],[-80.9309,22.2691],[-80.5934,22.0542],[-80.5382,22.1645],[-80.101,21.8248]]]}},{"type":"Feature","id":"label-CUB-1319","properties":{"kind":"division-label","code":"CUB-1319","countryCode":"CUB","name":"Cienfuegos","localName":"Cienfuegos","labelEnglish":"Cienfuegos","labelLocal":"Cienfuegos","labelBoth":"Cienfuegos","type":"Province","iso":"CU-06","qid":"Q115444"},"geometry":{"type":"Point","coordinates":[-80.4831,22.3253]}},{"type":"Feature","id":"CUB-1366","properties":{"kind":"division","code":"CUB-1366","countryCode":"CUB","name":"Granma","localName":"Granma","labelEnglish":"Granma","labelLocal":"Granma","labelBoth":"Granma","type":"Province","iso":"CU-12","qid":"Q115046"},"geometry":{"type":"Polygon","coordinates":[[[-77.0346,19.8878],[-76.8007,20.038],[-76.5625,20.0038],[-76.2703,20.4591],[-76.1797,20.4376],[-76.7219,20.7223],[-77.2817,20.7827],[-77.3367,20.7163],[-77.0824,20.4653],[-77.7372,19.8557],[-77.0346,19.8878]]]}},{"type":"Feature","id":"label-CUB-1366","properties":{"kind":"division-label","code":"CUB-1366","countryCode":"CUB","name":"Granma","localName":"Granma","labelEnglish":"Granma","labelLocal":"Granma","labelBoth":"Granma","type":"Province","iso":"CU-12","qid":"Q115046"},"geometry":{"type":"Point","coordinates":[-76.8386,20.3212]}},{"type":"Feature","id":"CUB-1369","properties":{"kind":"division","code":"CUB-1369","countryCode":"CUB","name":"Santiago de Cuba","localName":"Santiago de Cuba","labelEnglish":"Santiago de Cuba","labelLocal":"Santiago de Cuba","labelBoth":"Santiago de Cuba","type":"Province","iso":"CU-13","qid":"Q234200"},"geometry":{"type":"Polygon","coordinates":[[[-75.3821,19.8825],[-75.4791,20.34],[-75.3755,20.4229],[-75.3927,20.5475],[-75.8247,20.4076],[-76.033,20.5679],[-76.1797,20.4376],[-76.2703,20.4591],[-76.5625,20.0038],[-76.8007,20.038],[-77.0346,19.8878],[-76.2482,19.9906],[-75.3821,19.8825]]]}},{"type":"Feature","id":"label-CUB-1369","properties":{"kind":"division-label","code":"CUB-1369","countryCode":"CUB","name":"Santiago de Cuba","localName":"Santiago de Cuba","labelEnglish":"Santiago de Cuba","labelLocal":"Santiago de Cuba","labelBoth":"Santiago de Cuba","type":"Province","iso":"CU-13","qid":"Q234200"},"geometry":{"type":"Point","coordinates":[-76.2117,20.1959]}}]}