{"type":"FeatureCollection","features":[{"type":"Feature","id":"CUW-5151","properties":{"kind":"division","code":"CUW-5151","countryCode":"CUW","name":"Curaçao","localName":"Curaçao","labelEnglish":"Curaçao","labelLocal":"Curaçao","labelBoth":"Curaçao","type":null,"iso":"CW-X01~","qid":"Q25279"},"geometry":{"type":"Polygon","coordinates":[[[-68.7808,12.0978],[-69.1595,12.2934],[-68.8148,12.0432],[-68.7808,12.0978]]]}},{"type":"Feature","id":"label-CUW-5151","properties":{"kind":"division-label","code":"CUW-5151","countryCode":"CUW","name":"Curaçao","localName":"Curaçao","labelEnglish":"Curaçao","labelLocal":"Curaçao","labelBoth":"Curaçao","type":null,"iso":"CW-X01~","qid":"Q25279"},"geometry":{"type":"Point","coordinates":[-68.955,12.1558]}}]}