{"type":"FeatureCollection","features":[{"type":"Feature","id":"CYM+00?","properties":{"kind":"division","code":"CYM+00?","countryCode":"CYM","name":"Cayman Islands","localName":"Cayman Islands","labelEnglish":"Cayman Islands","labelLocal":"Cayman Islands","labelBoth":"Cayman Islands","type":null,"iso":"KY-X01~","qid":null},"geometry":{"type":"Polygon","coordinates":[[[-81.1361,19.3549],[-81.3979,19.2742],[-81.0866,19.3099],[-81.1361,19.3549]]]}},{"type":"Feature","id":"label-CYM+00?","properties":{"kind":"division-label","code":"CYM+00?","countryCode":"CYM","name":"Cayman Islands","localName":"Cayman Islands","labelEnglish":"Cayman Islands","labelLocal":"Cayman Islands","labelBoth":"Cayman Islands","type":null,"iso":"KY-X01~","qid":null},"geometry":{"type":"Point","coordinates":[-81.2592,19.3167]}}]}