{"type":"FeatureCollection","features":[{"type":"Feature","id":"CYN+00?","properties":{"kind":"division","code":"CYN+00?","countryCode":"CYN","name":"Northern Cyprus","localName":"Northern Cyprus","labelEnglish":"Northern Cyprus","labelLocal":"Northern Cyprus","labelBoth":"Northern Cyprus","type":null,"iso":"-99-X04~","qid":null},"geometry":{"type":"Polygon","coordinates":[[[34.0123,35.0638],[33.9236,35.2786],[34.5728,35.6435],[33.4275,35.3289],[32.9204,35.3978],[32.7114,35.1816],[32.8392,35.0799],[33.4003,35.1977],[33.4909,35.0496],[33.6794,35.0339],[33.9065,35.0691],[34.0123,35.0638]]]}},{"type":"Feature","id":"label-CYN+00?","properties":{"kind":"division-label","code":"CYN+00?","countryCode":"CYN","name":"Northern Cyprus","localName":"Northern Cyprus","labelEnglish":"Northern Cyprus","labelLocal":"Northern Cyprus","labelBoth":"Northern Cyprus","type":null,"iso":"-99-X04~","qid":null},"geometry":{"type":"Point","coordinates":[33.6025,35.1975]}}]}