{"type":"FeatureCollection","features":[{"type":"Feature","id":"CYP-3463","properties":{"kind":"division","code":"CYP-3463","countryCode":"CYP","name":"Larnaca","localName":"Larnaca","labelEnglish":"Larnaca","labelLocal":"Larnaca","labelBoth":"Larnaca","type":"District","iso":"CY-03","qid":"Q59153"},"geometry":{"type":"MultiPolygon","coordinates":[[[[33.6794,35.0339],[33.4909,35.0496],[33.1307,34.8797],[33.2726,34.7073],[33.7015,34.9729],[33.6794,35.0339]]],[[[33.8294,35.0012],[33.8918,34.9581],[33.8963,34.962],[33.8294,35.0012]]]]}},{"type":"Feature","id":"label-CYP-3463","properties":{"kind":"division-label","code":"CYP-3463","countryCode":"CYP","name":"Larnaca","localName":"Larnaca","labelEnglish":"Larnaca","labelLocal":"Larnaca","labelBoth":"Larnaca","type":"District","iso":"CY-03","qid":"Q59153"},"geometry":{"type":"Point","coordinates":[33.8678,34.9728]}},{"type":"Feature","id":"CYP-3466","properties":{"kind":"division","code":"CYP-3466","countryCode":"CYP","name":"Famagusta","localName":"Famagusta","labelEnglish":"Famagusta","labelLocal":"Famagusta","labelBoth":"Famagusta","type":"District","iso":"CY-04","qid":"Q59148"},"geometry":{"type":"Polygon","coordinates":[[[33.9065,35.0691],[33.8294,35.0012],[33.8963,34.962],[34.0123,35.0638],[33.9065,35.0691]]]}},{"type":"Feature","id":"label-CYP-3466","properties":{"kind":"division-label","code":"CYP-3466","countryCode":"CYP","name":"Famagusta","localName":"Famagusta","labelEnglish":"Famagusta","labelLocal":"Famagusta","labelBoth":"Famagusta","type":"District","iso":"CY-04","qid":"Q59148"},"geometry":{"type":"Point","coordinates":[33.9489,35.0164]}},{"type":"Feature","id":"CYP-3464","properties":{"kind":"division","code":"CYP-3464","countryCode":"CYP","name":"Nicosia","localName":"Nicosia","labelEnglish":"Nicosia","labelLocal":"Nicosia","labelBoth":"Nicosia","type":"District","iso":"CY-01","qid":"Q59147"},"geometry":{"type":"Polygon","coordinates":[[[33.4909,35.0496],[33.4003,35.1977],[32.8392,35.0799],[32.7114,35.1816],[32.6407,35.1871],[32.6019,35.1786],[32.5665,35.1727],[32.7674,34.9025],[33.1307,34.8797],[33.4909,35.0496]]]}},{"type":"Feature","id":"label-CYP-3464","properties":{"kind":"division-label","code":"CYP-3464","countryCode":"CYP","name":"Nicosia","localName":"Nicosia","labelEnglish":"Nicosia","labelLocal":"Nicosia","labelBoth":"Nicosia","type":"District","iso":"CY-01","qid":"Q59147"},"geometry":{"type":"Point","coordinates":[33.043,35.0214]}},{"type":"Feature","id":"CYP-3489","properties":{"kind":"division","code":"CYP-3489","countryCode":"CYP","name":"Limassol","localName":"Limassol","labelEnglish":"Limassol","labelLocal":"Limassol","labelBoth":"Limassol","type":"District","iso":"CY-02","qid":"Q59150"},"geometry":{"type":"Polygon","coordinates":[[[32.7607,34.6532],[32.8323,34.7009],[33.0156,34.6344],[33.2726,34.7073],[33.1307,34.8797],[32.7674,34.9025],[32.6417,34.6609],[32.7607,34.6532]]]}},{"type":"Feature","id":"label-CYP-3489","properties":{"kind":"division-label","code":"CYP-3489","countryCode":"CYP","name":"Limassol","localName":"Limassol","labelEnglish":"Limassol","labelLocal":"Limassol","labelBoth":"Limassol","type":"District","iso":"CY-02","qid":"Q59150"},"geometry":{"type":"Point","coordinates":[32.9674,34.7755]}},{"type":"Feature","id":"CYP-3465","properties":{"kind":"division","code":"CYP-3465","countryCode":"CYP","name":"Paphos","localName":"Paphos","labelEnglish":"Paphos","labelLocal":"Paphos","labelBoth":"Paphos","type":"District","iso":"CY-05","qid":"Q59133"},"geometry":{"type":"Polygon","coordinates":[[[32.6417,34.6609],[32.7674,34.9025],[32.5665,35.1727],[32.2866,35.0972],[32.4133,34.7535],[32.6417,34.6609]]]}},{"type":"Feature","id":"label-CYP-3465","properties":{"kind":"division-label","code":"CYP-3465","countryCode":"CYP","name":"Paphos","localName":"Paphos","labelEnglish":"Paphos","labelLocal":"Paphos","labelBoth":"Paphos","type":"District","iso":"CY-05","qid":"Q59133"},"geometry":{"type":"Point","coordinates":[32.5276,34.9307]}}]}