{"type":"FeatureCollection","features":[{"type":"Feature","id":"CZE-10368","properties":{"kind":"division","code":"CZE-10368","countryCode":"CZE","name":"Ústí nad Labem","localName":"Ústí nad Labem","labelEnglish":"Ústí nad Labem","labelLocal":"Ústí nad Labem","labelBoth":"Ústí nad Labem","type":"Region","iso":"CZ-US","qid":"Q192702"},"geometry":{"type":"Polygon","coordinates":[[[14.6083,50.8531],[14.3465,50.8802],[13.6019,50.7122],[12.9606,50.4092],[13.2899,50.1085],[13.4057,50.0872],[14.4753,50.4944],[14.34,50.6673],[14.6083,50.8531]]]}},{"type":"Feature","id":"label-CZE-10368","properties":{"kind":"division-label","code":"CZE-10368","countryCode":"CZE","name":"Ústí nad Labem","localName":"Ústí nad Labem","labelEnglish":"Ústí nad Labem","labelLocal":"Ústí nad Labem","labelBoth":"Ústí nad Labem","type":"Region","iso":"CZ-US","qid":"Q192702"},"geometry":{"type":"Point","coordinates":[13.8424,50.4996]}},{"type":"Feature","id":"CZE-1597","properties":{"kind":"division","code":"CZE-1597","countryCode":"CZE","name":"Liberec","localName":"Liberec","labelEnglish":"Liberec","labelLocal":"Liberec","labelBoth":"Liberec","type":"Region","iso":"CZ-LI","qid":"Q193266"},"geometry":{"type":"Polygon","coordinates":[[[14.6083,50.8531],[14.34,50.6673],[14.4753,50.4944],[14.9093,50.6019],[15.1309,50.5146],[15.6058,50.4929],[15.5221,50.7824],[14.961,50.9927],[14.8104,50.8584],[14.6083,50.8531]]]}},{"type":"Feature","id":"label-CZE-1597","properties":{"kind":"division-label","code":"CZE-1597","countryCode":"CZE","name":"Liberec","localName":"Liberec","labelEnglish":"Liberec","labelLocal":"Liberec","labelBoth":"Liberec","type":"Region","iso":"CZ-LI","qid":"Q193266"},"geometry":{"type":"Point","coordinates":[14.9186,50.7339]}},{"type":"Feature","id":"CZE-1590","properties":{"kind":"division","code":"CZE-1590","countryCode":"CZE","name":"Karlovy Vary","localName":"Karlovy Vary","labelEnglish":"Karlovy Vary","labelLocal":"Karlovy Vary","labelBoth":"Karlovy Vary","type":"Region","iso":"CZ-KA","qid":"Q191091"},"geometry":{"type":"Polygon","coordinates":[[[12.9606,50.4092],[12.5102,50.3888],[12.2834,50.1622],[12.1013,50.314],[12.2469,50.045],[12.5241,49.905],[12.9295,49.9322],[13.2899,50.1085],[12.9606,50.4092]]]}},{"type":"Feature","id":"label-CZE-1590","properties":{"kind":"division-label","code":"CZE-1590","countryCode":"CZE","name":"Karlovy Vary","localName":"Karlovy Vary","labelEnglish":"Karlovy Vary","labelLocal":"Karlovy Vary","labelBoth":"Karlovy Vary","type":"Region","iso":"CZ-KA","qid":"Q191091"},"geometry":{"type":"Point","coordinates":[12.7286,50.1601]}},{"type":"Feature","id":"CZE-10369","properties":{"kind":"division","code":"CZE-10369","countryCode":"CZE","name":"Plzeň-","localName":"Plzeň-","labelEnglish":"Plzeň-","labelLocal":"Plzeň-","labelBoth":"Plzeň-","type":"Region","iso":"CZ-PL","qid":"Q1080673"},"geometry":{"type":"Polygon","coordinates":[[[12.5241,49.905],[12.3836,49.7429],[12.7978,49.3278],[13.5224,48.9693],[13.7556,49.4895],[13.8121,49.9242],[13.4057,50.0872],[13.2899,50.1085],[12.9295,49.9322],[12.5241,49.905]]]}},{"type":"Feature","id":"label-CZE-10369","properties":{"kind":"division-label","code":"CZE-10369","countryCode":"CZE","name":"Plzeň-","localName":"Plzeň-","labelEnglish":"Plzeň-","labelLocal":"Plzeň-","labelBoth":"Plzeň-","type":"Region","iso":"CZ-PL","qid":"Q1080673"},"geometry":{"type":"Point","coordinates":[13.2001,49.6458]}},{"type":"Feature","id":"CZE-1593","properties":{"kind":"division","code":"CZE-1593","countryCode":"CZE","name":"South Bohemian","localName":"South Bohemian","labelEnglish":"South Bohemian","labelLocal":"South Bohemian","labelBoth":"South Bohemian","type":"Region","iso":"CZ-JC","qid":"Q188373"},"geometry":{"type":"Polygon","coordinates":[[[13.5224,48.9693],[13.8157,48.7664],[14.0748,48.5917],[14.6911,48.5865],[14.9821,49.0079],[15.5442,48.9026],[15.5747,48.9662],[15.5427,49.1292],[14.9206,49.3003],[14.9228,49.5443],[13.7556,49.4895],[13.5224,48.9693]]]}},{"type":"Feature","id":"label-CZE-1593","properties":{"kind":"division-label","code":"CZE-1593","countryCode":"CZE","name":"South Bohemian","localName":"South Bohemian","labelEnglish":"South Bohemian","labelLocal":"South Bohemian","labelBoth":"South Bohemian","type":"Region","iso":"CZ-JC","qid":"Q188373"},"geometry":{"type":"Point","coordinates":[14.5598,49.0726]}},{"type":"Feature","id":"CZE-1598","properties":{"kind":"division","code":"CZE-1598","countryCode":"CZE","name":"Hradec Králové","localName":"Hradec Králové","labelEnglish":"Hradec Králové","labelLocal":"Hradec Králové","labelBoth":"Hradec Králové","type":"Region","iso":"CZ-KR","qid":"Q193295"},"geometry":{"type":"Polygon","coordinates":[[[15.5221,50.7824],[15.6058,50.4929],[15.1309,50.5146],[15.4099,50.1032],[15.977,50.1525],[16.1888,50.0223],[16.5842,50.1274],[16.1902,50.4242],[16.3316,50.644],[15.5221,50.7824]]]}},{"type":"Feature","id":"label-CZE-1598","properties":{"kind":"division-label","code":"CZE-1598","countryCode":"CZE","name":"Hradec Králové","localName":"Hradec Králové","labelEnglish":"Hradec Králové","labelLocal":"Hradec Králové","labelBoth":"Hradec Králové","type":"Region","iso":"CZ-KR","qid":"Q193295"},"geometry":{"type":"Point","coordinates":[15.8838,50.3723]}},{"type":"Feature","id":"CZE-10372","properties":{"kind":"division","code":"CZE-10372","countryCode":"CZE","name":"Olomouc","localName":"Olomouc","labelEnglish":"Olomouc","labelLocal":"Olomouc","labelBoth":"Olomouc","type":"Region","iso":"CZ-OL","qid":"Q193307"},"geometry":{"type":"Polygon","coordinates":[[[16.944,50.4203],[16.8698,50.1897],[16.7268,49.9933],[16.7892,49.6079],[17.1484,49.2723],[17.9063,49.5273],[17.6231,49.7343],[17.1335,49.85],[17.388,50.2726],[16.944,50.4203]]]}},{"type":"Feature","id":"label-CZE-10372","properties":{"kind":"division-label","code":"CZE-10372","countryCode":"CZE","name":"Olomouc","localName":"Olomouc","labelEnglish":"Olomouc","labelLocal":"Olomouc","labelBoth":"Olomouc","type":"Region","iso":"CZ-OL","qid":"Q193307"},"geometry":{"type":"Point","coordinates":[17.1244,49.6928]}},{"type":"Feature","id":"CZE-10373","properties":{"kind":"division","code":"CZE-10373","countryCode":"CZE","name":"Pardubice","localName":"Pardubice","labelEnglish":"Pardubice","labelLocal":"Pardubice","labelBoth":"Pardubice","type":"Region","iso":"CZ-PA","qid":"Q193317"},"geometry":{"type":"Polygon","coordinates":[[[16.5842,50.1274],[16.1888,50.0223],[15.977,50.1525],[15.4099,50.1032],[15.485,49.8756],[15.8588,49.6998],[16.392,49.5973],[16.7892,49.6079],[16.7268,49.9933],[16.8698,50.1897],[16.5842,50.1274]]]}},{"type":"Feature","id":"label-CZE-10373","properties":{"kind":"division-label","code":"CZE-10373","countryCode":"CZE","name":"Pardubice","localName":"Pardubice","labelEnglish":"Pardubice","labelLocal":"Pardubice","labelBoth":"Pardubice","type":"Region","iso":"CZ-PA","qid":"Q193317"},"geometry":{"type":"Point","coordinates":[16.2784,49.8651]}},{"type":"Feature","id":"CZE-1612","properties":{"kind":"division","code":"CZE-1612","countryCode":"CZE","name":"Moravian-Silesian","localName":"Moravian-Silesian","labelEnglish":"Moravian-Silesian","labelLocal":"Moravian-Silesian","labelBoth":"Moravian-Silesian","type":"Region","iso":"CZ-MO","qid":"Q190550"},"geometry":{"type":"Polygon","coordinates":[[[18.0191,50.0441],[17.8394,49.9736],[17.388,50.2726],[17.1335,49.85],[17.6231,49.7343],[17.9063,49.5273],[18.387,49.3776],[18.8332,49.5103],[18.5592,49.9072],[18.0191,50.0441]]]}},{"type":"Feature","id":"label-CZE-1612","properties":{"kind":"division-label","code":"CZE-1612","countryCode":"CZE","name":"Moravian-Silesian","localName":"Moravian-Silesian","labelEnglish":"Moravian-Silesian","labelLocal":"Moravian-Silesian","labelBoth":"Moravian-Silesian","type":"Region","iso":"CZ-MO","qid":"Q190550"},"geometry":{"type":"Point","coordinates":[17.9683,49.7687]}},{"type":"Feature","id":"CZE-10370","properties":{"kind":"division","code":"CZE-10370","countryCode":"CZE","name":"South Moravian","localName":"South Moravian","labelEnglish":"South Moravian","labelLocal":"South Moravian","labelBoth":"South Moravian","type":"Region","iso":"CZ-JM","qid":"Q192697"},"geometry":{"type":"Polygon","coordinates":[[[15.5442,48.9026],[16.0323,48.7581],[16.4357,48.7945],[16.945,48.6042],[17.1675,48.8598],[17.4112,48.8302],[17.646,48.8418],[17.1101,49.1001],[17.1484,49.2723],[16.7892,49.6079],[16.392,49.5973],[16.2277,49.0849],[15.5747,48.9662],[15.5442,48.9026]]]}},{"type":"Feature","id":"label-CZE-10370","properties":{"kind":"division-label","code":"CZE-10370","countryCode":"CZE","name":"South Moravian","localName":"South Moravian","labelEnglish":"South Moravian","labelLocal":"South Moravian","labelBoth":"South Moravian","type":"Region","iso":"CZ-JM","qid":"Q192697"},"geometry":{"type":"Point","coordinates":[16.7484,49.1054]}},{"type":"Feature","id":"CZE-10371","properties":{"kind":"division","code":"CZE-10371","countryCode":"CZE","name":"Zlín","localName":"Zlín","labelEnglish":"Zlín","labelLocal":"Zlín","labelBoth":"Zlín","type":"Region","iso":"CZ-ZL","qid":"Q262111"},"geometry":{"type":"Polygon","coordinates":[[[18.3616,49.3302],[18.387,49.3776],[17.9063,49.5273],[17.1484,49.2723],[17.1101,49.1001],[17.646,48.8418],[18.3616,49.3302]]]}},{"type":"Feature","id":"label-CZE-10371","properties":{"kind":"division-label","code":"CZE-10371","countryCode":"CZE","name":"Zlín","localName":"Zlín","labelEnglish":"Zlín","labelLocal":"Zlín","labelBoth":"Zlín","type":"Region","iso":"CZ-ZL","qid":"Q262111"},"geometry":{"type":"Point","coordinates":[17.7745,49.1837]}},{"type":"Feature","id":"CZE-1594","properties":{"kind":"division","code":"CZE-1594","countryCode":"CZE","name":"Vysočina","localName":"Vysočina","labelEnglish":"Vysočina","labelLocal":"Vysočina","labelBoth":"Vysočina","type":"Region","iso":"CZ-VY","qid":"Q190930"},"geometry":{"type":"Polygon","coordinates":[[[16.392,49.5973],[15.8588,49.6998],[15.485,49.8756],[15.2355,49.6152],[14.9228,49.5443],[14.9206,49.3003],[15.5427,49.1292],[15.5747,48.9662],[16.2277,49.0849],[16.392,49.5973]]]}},{"type":"Feature","id":"label-CZE-1594","properties":{"kind":"division-label","code":"CZE-1594","countryCode":"CZE","name":"Vysočina","localName":"Vysočina","labelEnglish":"Vysočina","labelLocal":"Vysočina","labelBoth":"Vysočina","type":"Region","iso":"CZ-VY","qid":"Q190930"},"geometry":{"type":"Point","coordinates":[15.7721,49.4088]}},{"type":"Feature","id":"CZE-1596","properties":{"kind":"division","code":"CZE-1596","countryCode":"CZE","name":"Central Bohemian","localName":"Central Bohemian","labelEnglish":"Central Bohemian","labelLocal":"Central Bohemian","labelBoth":"Central Bohemian","type":"Region","iso":"CZ-ST","qid":"Q188399"},"geometry":{"type":"Polygon","coordinates":[[[15.485,49.8756],[15.4099,50.1032],[15.1309,50.5146],[14.9093,50.6019],[14.4753,50.4944],[13.4057,50.0872],[13.8121,49.9242],[13.7556,49.4895],[14.9228,49.5443],[15.2355,49.6152],[15.485,49.8756]],[[14.5881,49.995],[14.213,50.0965],[14.5493,50.1634],[14.5881,49.995]]]}},{"type":"Feature","id":"label-CZE-1596","properties":{"kind":"division-label","code":"CZE-1596","countryCode":"CZE","name":"Central Bohemian","localName":"Central Bohemian","labelEnglish":"Central Bohemian","labelLocal":"Central Bohemian","labelBoth":"Central Bohemian","type":"Region","iso":"CZ-ST","qid":"Q188399"},"geometry":{"type":"Point","coordinates":[14.4559,49.7498]}},{"type":"Feature","id":"CZE-1595","properties":{"kind":"division","code":"CZE-1595","countryCode":"CZE","name":"Prague","localName":"Prague","labelEnglish":"Prague","labelLocal":"Prague","labelBoth":"Prague","type":"Region","iso":"CZ-PR","qid":"Q1085"},"geometry":{"type":"Polygon","coordinates":[[[14.5881,49.995],[14.5493,50.1634],[14.213,50.0965],[14.5881,49.995]]]}},{"type":"Feature","id":"label-CZE-1595","properties":{"kind":"division-label","code":"CZE-1595","countryCode":"CZE","name":"Prague","localName":"Prague","labelEnglish":"Prague","labelLocal":"Prague","labelBoth":"Prague","type":"Region","iso":"CZ-PR","qid":"Q1085"},"geometry":{"type":"Point","coordinates":[14.4487,50.0647]}}]}