{"type":"FeatureCollection","features":[{"type":"Feature","id":"DEU-1601","properties":{"kind":"division","code":"DEU-1601","countryCode":"DEU","name":"Saxony","localName":"Saxony","labelEnglish":"Saxony","labelLocal":"Saxony","labelBoth":"Saxony","type":"State","iso":"DE-SN","qid":"Q1202"},"geometry":{"type":"Polygon","coordinates":[[[12.9606,50.4092],[13.6019,50.7122],[14.3465,50.8802],[14.6083,50.8531],[14.8104,50.8584],[15.0221,51.2368],[14.9506,51.3965],[14.7068,51.5408],[14.1588,51.5269],[13.9703,51.3592],[13.1877,51.3852],[13.0617,51.6151],[12.2354,51.5622],[12.2646,51.0838],[12.6472,50.8999],[11.9053,50.4152],[12.1013,50.314],[12.2834,50.1622],[12.5102,50.3888],[12.9606,50.4092]]]}},{"type":"Feature","id":"label-DEU-1601","properties":{"kind":"division-label","code":"DEU-1601","countryCode":"DEU","name":"Saxony","localName":"Saxony","labelEnglish":"Saxony","labelLocal":"Saxony","labelBoth":"Saxony","type":"State","iso":"DE-SN","qid":"Q1202"},"geometry":{"type":"Point","coordinates":[13.4596,51.0053]}},{"type":"Feature","id":"DEU-1591","properties":{"kind":"division","code":"DEU-1591","countryCode":"DEU","name":"Bavaria","localName":"Bavaria","labelEnglish":"Bavaria","labelLocal":"Bavaria","labelBoth":"Bavaria","type":"State","iso":"DE-BY","qid":"Q980"},"geometry":{"type":"Polygon","coordinates":[[[12.1013,50.314],[11.9053,50.4152],[11.5317,50.3784],[11.4271,50.5131],[11.1125,50.3652],[10.5913,50.326],[10.055,50.5165],[9.7667,50.4021],[9.5067,50.1081],[9.0103,50.0968],[9.1107,49.5751],[9.3519,49.7857],[9.7925,49.722],[10.0852,49.5443],[10.1469,49.2054],[10.4588,48.9394],[10.4951,48.6995],[9.9806,48.3813],[10.1362,48.1073],[10.1314,47.6879],[9.5541,47.5327],[9.7527,47.5821],[10.175,47.2724],[10.4142,47.573],[10.9795,47.3905],[11.6205,47.5897],[12.5634,47.6418],[13.0373,47.493],[12.8482,47.9824],[12.745,48.1206],[13.7165,48.5217],[13.8157,48.7664],[13.5224,48.9693],[12.7978,49.3278],[12.3836,49.7429],[12.5241,49.905],[12.2469,50.045],[12.1013,50.314]]]}},{"type":"Feature","id":"label-DEU-1591","properties":{"kind":"division-label","code":"DEU-1591","countryCode":"DEU","name":"Bavaria","localName":"Bavaria","labelEnglish":"Bavaria","labelLocal":"Bavaria","labelBoth":"Bavaria","type":"State","iso":"DE-BY","qid":"Q980"},"geometry":{"type":"Point","coordinates":[11.3966,49.0056]}},{"type":"Feature","id":"DEU-1580","properties":{"kind":"division","code":"DEU-1580","countryCode":"DEU","name":"Rhineland-Palatinate","localName":"Rhineland-Palatinate","labelEnglish":"Rhineland-Palatinate","labelLocal":"Rhineland-Palatinate","labelBoth":"Rhineland-Palatinate","type":"State","iso":"DE-RP","qid":"Q1200"},"geometry":{"type":"Polygon","coordinates":[[[6.1175,50.1205],[6.2956,49.8486],[6.5001,49.7945],[6.3488,49.5253],[6.9364,49.6272],[7.2675,49.5785],[7.3716,49.1662],[7.6449,49.0363],[8.1999,48.9583],[8.4799,49.297],[8.4168,49.5795],[8.3354,49.9596],[7.7714,50.0535],[8.1227,50.2779],[8.1345,50.684],[7.7575,50.9113],[7.5995,50.7334],[6.3734,50.3231],[6.1175,50.1205]]]}},{"type":"Feature","id":"label-DEU-1580","properties":{"kind":"division-label","code":"DEU-1580","countryCode":"DEU","name":"Rhineland-Palatinate","localName":"Rhineland-Palatinate","labelEnglish":"Rhineland-Palatinate","labelLocal":"Rhineland-Palatinate","labelBoth":"Rhineland-Palatinate","type":"State","iso":"DE-RP","qid":"Q1200"},"geometry":{"type":"Point","coordinates":[7.36974,49.8685]}},{"type":"Feature","id":"DEU-1581","properties":{"kind":"division","code":"DEU-1581","countryCode":"DEU","name":"Saarland","localName":"Saarland","labelEnglish":"Saarland","labelLocal":"Saarland","labelBoth":"Saarland","type":"State","iso":"DE-SL","qid":"Q1201"},"geometry":{"type":"Polygon","coordinates":[[[6.3453,49.4553],[6.701,49.1729],[7.3716,49.1662],[7.2675,49.5785],[6.9364,49.6272],[6.3488,49.5253],[6.3453,49.4553]]]}},{"type":"Feature","id":"label-DEU-1581","properties":{"kind":"division-label","code":"DEU-1581","countryCode":"DEU","name":"Saarland","localName":"Saarland","labelEnglish":"Saarland","labelLocal":"Saarland","labelBoth":"Saarland","type":"State","iso":"DE-SL","qid":"Q1201"},"geometry":{"type":"Point","coordinates":[6.86625,49.4026]}},{"type":"Feature","id":"DEU-1579","properties":{"kind":"division","code":"DEU-1579","countryCode":"DEU","name":"Schleswig-Holstein","localName":"Schleswig-Holstein","labelEnglish":"Schleswig-Holstein","labelLocal":"Schleswig-Holstein","labelBoth":"Schleswig-Holstein","type":"State","iso":"DE-SH","qid":"Q1194"},"geometry":{"type":"Polygon","coordinates":[[[9.4375,54.8104],[8.6608,54.8963],[9.0116,54.5063],[8.6292,54.3877],[9.0078,53.8925],[9.2205,53.8908],[9.3952,53.831],[9.7408,53.5726],[10.1949,53.7225],[10.328,53.4327],[10.6012,53.3718],[10.9544,53.5661],[10.7609,53.7467],[10.906,53.9612],[11.0666,54.1839],[10.1247,54.4958],[10.0335,54.6729],[9.4375,54.8104]]]}},{"type":"Feature","id":"label-DEU-1579","properties":{"kind":"division-label","code":"DEU-1579","countryCode":"DEU","name":"Schleswig-Holstein","localName":"Schleswig-Holstein","labelEnglish":"Schleswig-Holstein","labelLocal":"Schleswig-Holstein","labelBoth":"Schleswig-Holstein","type":"State","iso":"DE-SH","qid":"Q1194"},"geometry":{"type":"Point","coordinates":[9.84605,54.1315]}},{"type":"Feature","id":"DEU-1576","properties":{"kind":"division","code":"DEU-1576","countryCode":"DEU","name":"Lower Saxony","localName":"Lower Saxony","labelEnglish":"Lower Saxony","labelLocal":"Lower Saxony","labelBoth":"Lower Saxony","type":"State","iso":"DE-NI","qid":"Q1197"},"geometry":{"type":"Polygon","coordinates":[[[7.0722,52.8413],[7.0367,52.6474],[6.7191,52.6268],[7.0266,52.2386],[7.6091,52.4756],[7.9736,52.3121],[7.9698,52.0385],[8.4862,52.17],[8.3014,52.4511],[9.1284,52.4085],[8.9833,52.265],[9.4401,51.649],[9.6325,51.4009],[9.9492,51.3818],[10.6976,51.6374],[10.6525,52.0426],[10.9684,52.0646],[11.073,52.3722],[10.7569,52.7865],[11.5813,53.0429],[11.2741,53.1175],[10.6012,53.3718],[10.328,53.4327],[9.764,53.5477],[9.5671,53.5996],[9.2747,53.8651],[8.5733,53.8577],[8.513,53.6171],[8.5572,53.5199],[8.168,53.5532],[7.9514,53.7219],[7.2261,53.6665],[7.0236,53.3764],[7.1946,53.245],[7.0722,52.8413]],[[8.5645,53.2118],[8.9752,53.1347],[8.7024,53.0511],[8.5645,53.2118]]]}},{"type":"Feature","id":"label-DEU-1576","properties":{"kind":"division-label","code":"DEU-1576","countryCode":"DEU","name":"Lower Saxony","localName":"Lower Saxony","labelEnglish":"Lower Saxony","labelLocal":"Lower Saxony","labelBoth":"Lower Saxony","type":"State","iso":"DE-NI","qid":"Q1197"},"geometry":{"type":"Point","coordinates":[8.86184,52.775]}},{"type":"Feature","id":"DEU-1572","properties":{"kind":"division","code":"DEU-1572","countryCode":"DEU","name":"North Rhine-Westphalia","localName":"North Rhine-Westphalia","labelEnglish":"North Rhine-Westphalia","labelLocal":"North Rhine-Westphalia","labelBoth":"North Rhine-Westphalia","type":"State","iso":"DE-NW","qid":"Q1198"},"geometry":{"type":"Polygon","coordinates":[[[6.7716,52.1088],[6.8107,51.9606],[5.9461,51.7463],[6.2078,51.3877],[5.9196,51.0297],[5.9949,50.7499],[6.3734,50.3231],[7.5995,50.7334],[7.7575,50.9113],[8.1345,50.684],[8.7502,51.1728],[8.6855,51.3634],[9.2148,51.4587],[9.4401,51.649],[8.9833,52.265],[9.1284,52.4085],[8.3014,52.4511],[8.4862,52.17],[7.9698,52.0385],[7.9736,52.3121],[7.6091,52.4756],[7.0266,52.2386],[6.7716,52.1088]]]}},{"type":"Feature","id":"label-DEU-1572","properties":{"kind":"division-label","code":"DEU-1572","countryCode":"DEU","name":"North Rhine-Westphalia","localName":"North Rhine-Westphalia","labelEnglish":"North Rhine-Westphalia","labelLocal":"North Rhine-Westphalia","labelBoth":"North Rhine-Westphalia","type":"State","iso":"DE-NW","qid":"Q1198"},"geometry":{"type":"Point","coordinates":[7.65708,51.6146]}},{"type":"Feature","id":"DEU-1573","properties":{"kind":"division","code":"DEU-1573","countryCode":"DEU","name":"Baden-Württemberg","localName":"Baden-Württemberg","labelEnglish":"Baden-Württemberg","labelLocal":"Baden-Württemberg","labelBoth":"Baden-Württemberg","type":"State","iso":"DE-BW","qid":"Q985"},"geometry":{"type":"Polygon","coordinates":[[[9.5475,47.5345],[9.5541,47.5327],[10.1314,47.6879],[10.1362,48.1073],[9.9806,48.3813],[10.4951,48.6995],[10.4588,48.9394],[10.1469,49.2054],[10.0852,49.5443],[9.7925,49.722],[9.3519,49.7857],[9.1107,49.5751],[8.4168,49.5795],[8.4799,49.297],[8.1999,48.9583],[7.8103,48.615],[7.582,48.1214],[7.586,47.5846],[7.6469,47.5514],[7.7273,47.5504],[8.4211,47.5811],[8.5517,47.5969],[8.5763,47.595],[8.5936,47.6582],[8.8519,47.6713],[9.5475,47.5345]]]}},{"type":"Feature","id":"label-DEU-1573","properties":{"kind":"division-label","code":"DEU-1573","countryCode":"DEU","name":"Baden-Württemberg","localName":"Baden-Württemberg","labelEnglish":"Baden-Württemberg","labelLocal":"Baden-Württemberg","labelBoth":"Baden-Württemberg","type":"State","iso":"DE-BW","qid":"Q985"},"geometry":{"type":"Point","coordinates":[9.00328,48.59]}},{"type":"Feature","id":"DEU-3487","properties":{"kind":"division","code":"DEU-3487","countryCode":"DEU","name":"Brandenburg","localName":"Brandenburg","labelEnglish":"Brandenburg","labelLocal":"Brandenburg","labelBoth":"Brandenburg","type":"State","iso":"DE-BB","qid":"Q1208"},"geometry":{"type":"Polygon","coordinates":[[[14.608,52.5965],[14.1239,52.8507],[14.3913,53.334],[13.8693,53.508],[13.4058,53.2747],[12.9492,53.1955],[12.1869,53.369],[11.2741,53.1175],[11.5813,53.0429],[12.2033,52.8659],[12.1991,52.1939],[12.4208,52.0116],[13.2368,51.8555],[13.0617,51.6151],[13.1877,51.3852],[13.9703,51.3592],[14.1588,51.5269],[14.7068,51.5408],[14.5858,51.8039],[14.7614,52.0767],[14.5398,52.4219],[14.608,52.5965]],[[13.6263,52.487],[13.7053,52.3743],[13.0937,52.4187],[13.4685,52.6633],[13.6263,52.487]]]}},{"type":"Feature","id":"label-DEU-3487","properties":{"kind":"division-label","code":"DEU-3487","countryCode":"DEU","name":"Brandenburg","localName":"Brandenburg","labelEnglish":"Brandenburg","labelLocal":"Brandenburg","labelBoth":"Brandenburg","type":"State","iso":"DE-BB","qid":"Q1208"},"geometry":{"type":"Point","coordinates":[12.9206,52.8156]}},{"type":"Feature","id":"DEU-3488","properties":{"kind":"division","code":"DEU-3488","countryCode":"DEU","name":"Mecklenburg-Western Pomerania","localName":"Mecklenburg-Western Pomerania","labelEnglish":"Mecklenburg-Western Pomerania","labelLocal":"Mecklenburg-Western Pomerania","labelBoth":"Mecklenburg-Western Pomerania","type":"State","iso":"DE-MV","qid":"Q1196"},"geometry":{"type":"MultiPolygon","coordinates":[[[[14.2639,53.7],[13.9842,53.774],[13.8185,53.878],[13.6983,54.1531],[13.4651,54.0985],[12.502,54.4736],[12.0506,54.1799],[11.6579,54.1422],[11.4577,53.9062],[10.906,53.9612],[10.7609,53.7467],[10.9544,53.5661],[10.6012,53.3718],[11.2741,53.1175],[12.1869,53.369],[12.9492,53.1955],[13.4058,53.2747],[13.8693,53.508],[14.3913,53.334],[14.2639,53.7]]],[[[14.2101,53.9385],[13.9461,54.0666],[13.8753,53.8441],[14.2008,53.8782],[14.2101,53.9385]]],[[[13.6983,54.3921],[13.1664,54.5494],[13.2679,54.2565],[13.6983,54.3921]]]]}},{"type":"Feature","id":"label-DEU-3488","properties":{"kind":"division-label","code":"DEU-3488","countryCode":"DEU","name":"Mecklenburg-Western Pomerania","localName":"Mecklenburg-Western Pomerania","labelEnglish":"Mecklenburg-Western Pomerania","labelLocal":"Mecklenburg-Western Pomerania","labelBoth":"Mecklenburg-Western Pomerania","type":"State","iso":"DE-MV","qid":"Q1196"},"geometry":{"type":"Point","coordinates":[12.5647,53.7528]}},{"type":"Feature","id":"DEU-1575","properties":{"kind":"division","code":"DEU-1575","countryCode":"DEU","name":"Free Hanseatic Bremen","localName":"Free Hanseatic Bremen","labelEnglish":"Free Hanseatic Bremen","labelLocal":"Free Hanseatic Bremen","labelBoth":"Free Hanseatic Bremen","type":"State","iso":"DE-HB","qid":"Q1209"},"geometry":{"type":"Polygon","coordinates":[[[8.5645,53.2118],[8.7024,53.0511],[8.9752,53.1347],[8.5645,53.2118]]]}},{"type":"Feature","id":"label-DEU-1575","properties":{"kind":"division-label","code":"DEU-1575","countryCode":"DEU","name":"Free Hanseatic Bremen","localName":"Free Hanseatic Bremen","labelEnglish":"Free Hanseatic Bremen","labelLocal":"Free Hanseatic Bremen","labelBoth":"Free Hanseatic Bremen","type":"State","iso":"DE-HB","qid":"Q1209"},"geometry":{"type":"Point","coordinates":[8.74299,53.1211]}},{"type":"Feature","id":"DEU-1578","properties":{"kind":"division","code":"DEU-1578","countryCode":"DEU","name":"Hamburg","localName":"Hamburg","labelEnglish":"Hamburg","labelLocal":"Hamburg","labelBoth":"Hamburg","type":"State","iso":"DE-HH","qid":"Q1055"},"geometry":{"type":"Polygon","coordinates":[[[9.764,53.5477],[10.328,53.4327],[10.1949,53.7225],[9.7408,53.5726],[9.764,53.5477]]]}},{"type":"Feature","id":"label-DEU-1578","properties":{"kind":"division-label","code":"DEU-1578","countryCode":"DEU","name":"Hamburg","localName":"Hamburg","labelEnglish":"Hamburg","labelLocal":"Hamburg","labelBoth":"Hamburg","type":"State","iso":"DE-HH","qid":"Q1055"},"geometry":{"type":"Point","coordinates":[10.0344,53.559]}},{"type":"Feature","id":"DEU-1574","properties":{"kind":"division","code":"DEU-1574","countryCode":"DEU","name":"Hesse","localName":"Hesse","labelEnglish":"Hesse","labelLocal":"Hesse","labelBoth":"Hesse","type":"State","iso":"DE-HE","qid":"Q1199"},"geometry":{"type":"Polygon","coordinates":[[[9.9492,51.3818],[9.6325,51.4009],[9.4401,51.649],[9.2148,51.4587],[8.6855,51.3634],[8.7502,51.1728],[8.1345,50.684],[8.1227,50.2779],[7.7714,50.0535],[8.3354,49.9596],[8.4168,49.5795],[9.1107,49.5751],[9.0103,50.0968],[9.5067,50.1081],[9.7667,50.4021],[10.055,50.5165],[9.8777,50.6436],[10.2303,51.1843],[9.9492,51.3818]]]}},{"type":"Feature","id":"label-DEU-1574","properties":{"kind":"division-label","code":"DEU-1574","countryCode":"DEU","name":"Hesse","localName":"Hesse","labelEnglish":"Hesse","labelLocal":"Hesse","labelBoth":"Hesse","type":"State","iso":"DE-HE","qid":"Q1199"},"geometry":{"type":"Point","coordinates":[8.95873,50.6098]}},{"type":"Feature","id":"DEU-1577","properties":{"kind":"division","code":"DEU-1577","countryCode":"DEU","name":"Thuringia","localName":"Thuringia","labelEnglish":"Thuringia","labelLocal":"Thuringia","labelBoth":"Thuringia","type":"State","iso":"DE-TH","qid":"Q1205"},"geometry":{"type":"Polygon","coordinates":[[[9.9492,51.3818],[10.2303,51.1843],[9.8777,50.6436],[10.055,50.5165],[10.5913,50.326],[11.1125,50.3652],[11.4271,50.5131],[11.5317,50.3784],[11.9053,50.4152],[12.6472,50.8999],[12.2646,51.0838],[12.2008,50.9279],[11.4274,51.0988],[11.3149,51.3833],[10.9991,51.4087],[10.6976,51.6374],[9.9492,51.3818]]]}},{"type":"Feature","id":"label-DEU-1577","properties":{"kind":"division-label","code":"DEU-1577","countryCode":"DEU","name":"Thuringia","localName":"Thuringia","labelEnglish":"Thuringia","labelLocal":"Thuringia","labelBoth":"Thuringia","type":"State","iso":"DE-TH","qid":"Q1205"},"geometry":{"type":"Point","coordinates":[11.0976,50.9052]}},{"type":"Feature","id":"DEU-1600","properties":{"kind":"division","code":"DEU-1600","countryCode":"DEU","name":"Saxony-Anhalt","localName":"Saxony-Anhalt","labelEnglish":"Saxony-Anhalt","labelLocal":"Saxony-Anhalt","labelBoth":"Saxony-Anhalt","type":"State","iso":"DE-ST","qid":"Q1206"},"geometry":{"type":"Polygon","coordinates":[[[10.6976,51.6374],[10.9991,51.4087],[11.3149,51.3833],[11.4274,51.0988],[12.2008,50.9279],[12.2646,51.0838],[12.2354,51.5622],[13.0617,51.6151],[13.2368,51.8555],[12.4208,52.0116],[12.1991,52.1939],[12.2033,52.8659],[11.5813,53.0429],[10.7569,52.7865],[11.073,52.3722],[10.9684,52.0646],[10.6525,52.0426],[10.6976,51.6374]]]}},{"type":"Feature","id":"label-DEU-1600","properties":{"kind":"division-label","code":"DEU-1600","countryCode":"DEU","name":"Saxony-Anhalt","localName":"Saxony-Anhalt","labelEnglish":"Saxony-Anhalt","labelLocal":"Saxony-Anhalt","labelBoth":"Saxony-Anhalt","type":"State","iso":"DE-ST","qid":"Q1206"},"geometry":{"type":"Point","coordinates":[11.6796,51.9338]}},{"type":"Feature","id":"DEU-1599","properties":{"kind":"division","code":"DEU-1599","countryCode":"DEU","name":"Berlin","localName":"Berlin","labelEnglish":"Berlin","labelLocal":"Berlin","labelBoth":"Berlin","type":"State","iso":"DE-BE","qid":"Q64"},"geometry":{"type":"Polygon","coordinates":[[[13.6263,52.487],[13.4685,52.6633],[13.0937,52.4187],[13.7053,52.3743],[13.6263,52.487]]]}},{"type":"Feature","id":"label-DEU-1599","properties":{"kind":"division-label","code":"DEU-1599","countryCode":"DEU","name":"Berlin","localName":"Berlin","labelEnglish":"Berlin","labelLocal":"Berlin","labelBoth":"Berlin","type":"State","iso":"DE-BE","qid":"Q64"},"geometry":{"type":"Point","coordinates":[13.4213,52.5131]}}]}