{"type":"FeatureCollection","features":[{"type":"Feature","id":"DJI-1566","properties":{"kind":"division","code":"DJI-1566","countryCode":"DJI","name":"Ali Sabieh","localName":"Ali Sabieh","labelEnglish":"Ali Sabieh","labelLocal":"Ali Sabieh","labelBoth":"Ali Sabieh","type":"Region","iso":"DJ-AS","qid":"Q821008"},"geometry":{"type":"Polygon","coordinates":[[[43.1888,11.4078],[42.9125,11.4497],[42.7066,11.2655],[42.6081,11.0891],[42.9237,10.9988],[43.1888,11.4078]]]}},{"type":"Feature","id":"label-DJI-1566","properties":{"kind":"division-label","code":"DJI-1566","countryCode":"DJI","name":"Ali Sabieh","localName":"Ali Sabieh","labelEnglish":"Ali Sabieh","labelLocal":"Ali Sabieh","labelBoth":"Ali Sabieh","type":"Region","iso":"DJ-AS","qid":"Q821008"},"geometry":{"type":"Point","coordinates":[42.8985,11.2107]}},{"type":"Feature","id":"DJI-1568","properties":{"kind":"division","code":"DJI-1568","countryCode":"DJI","name":"Arta","localName":"Arta","labelEnglish":"Arta","labelLocal":"Arta","labelBoth":"Arta","type":"Region","iso":"DJ-AR","qid":"Q705941"},"geometry":{"type":"Polygon","coordinates":[[[43.2407,11.4879],[43.1731,11.5417],[42.9007,11.5841],[42.5325,11.5475],[42.3654,11.6542],[42.4992,11.3015],[42.7066,11.2655],[42.9125,11.4497],[43.1888,11.4078],[43.2407,11.4879]]]}},{"type":"Feature","id":"label-DJI-1568","properties":{"kind":"division-label","code":"DJI-1568","countryCode":"DJI","name":"Arta","localName":"Arta","labelEnglish":"Arta","labelLocal":"Arta","labelBoth":"Arta","type":"Region","iso":"DJ-AR","qid":"Q705941"},"geometry":{"type":"Point","coordinates":[42.8032,11.4461]}},{"type":"Feature","id":"DJI-1569","properties":{"kind":"division","code":"DJI-1569","countryCode":"DJI","name":"Dikhil","localName":"Dikhil","labelEnglish":"Dikhil","labelLocal":"Dikhil","labelBoth":"Dikhil","type":"Region","iso":"DJ-DI","qid":"Q283979"},"geometry":{"type":"Polygon","coordinates":[[[41.7665,10.9895],[41.9542,10.9413],[42.6081,11.0891],[42.7066,11.2655],[42.4992,11.3015],[42.3654,11.6542],[41.9747,11.8809],[41.7491,11.538],[41.7665,10.9895]]]}},{"type":"Feature","id":"label-DJI-1569","properties":{"kind":"division-label","code":"DJI-1569","countryCode":"DJI","name":"Dikhil","localName":"Dikhil","labelEnglish":"Dikhil","labelLocal":"Dikhil","labelBoth":"Dikhil","type":"Region","iso":"DJ-DI","qid":"Q283979"},"geometry":{"type":"Point","coordinates":[42.2277,11.3884]}},{"type":"Feature","id":"DJI-1571","properties":{"kind":"division","code":"DJI-1571","countryCode":"DJI","name":"Tadjourah","localName":"Tadjourah","labelEnglish":"Tadjourah","labelLocal":"Tadjourah","labelBoth":"Tadjourah","type":"Region","iso":"DJ-TA","qid":"Q645896"},"geometry":{"type":"Polygon","coordinates":[[[41.9747,11.8809],[42.3654,11.6542],[42.5325,11.5475],[43.086,11.8388],[42.6766,12.299],[42.6962,12.3801],[42.3795,12.4659],[41.9747,11.8809]]]}},{"type":"Feature","id":"label-DJI-1571","properties":{"kind":"division-label","code":"DJI-1571","countryCode":"DJI","name":"Tadjourah","localName":"Tadjourah","labelEnglish":"Tadjourah","labelLocal":"Tadjourah","labelBoth":"Tadjourah","type":"Region","iso":"DJ-TA","qid":"Q645896"},"geometry":{"type":"Point","coordinates":[42.5043,11.7972]}},{"type":"Feature","id":"DJI-1570","properties":{"kind":"division","code":"DJI-1570","countryCode":"DJI","name":"Obock","localName":"Obock","labelEnglish":"Obock","labelLocal":"Obock","labelBoth":"Obock","type":"Region","iso":"DJ-OB","qid":"Q844929"},"geometry":{"type":"Polygon","coordinates":[[[43.1177,12.7079],[42.6962,12.3801],[42.6766,12.299],[43.086,11.8388],[43.3771,12.0048],[43.3294,12.4888],[43.1177,12.7079]]]}},{"type":"Feature","id":"label-DJI-1570","properties":{"kind":"division-label","code":"DJI-1570","countryCode":"DJI","name":"Obock","localName":"Obock","labelEnglish":"Obock","labelLocal":"Obock","labelBoth":"Obock","type":"Region","iso":"DJ-OB","qid":"Q844929"},"geometry":{"type":"Point","coordinates":[43.0464,12.2842]}},{"type":"Feature","id":"DJI-1567","properties":{"kind":"division","code":"DJI-1567","countryCode":"DJI","name":"Djibouti","localName":"Djibouti","labelEnglish":"Djibouti","labelLocal":"Djibouti","labelBoth":"Djibouti","type":"City","iso":"DJ-DJ","qid":"Q3604"},"geometry":{"type":"Polygon","coordinates":[[[42.9007,11.5841],[43.1731,11.5417],[43.1579,11.6013],[42.9007,11.5841]]]}},{"type":"Feature","id":"label-DJI-1567","properties":{"kind":"division-label","code":"DJI-1567","countryCode":"DJI","name":"Djibouti","localName":"Djibouti","labelEnglish":"Djibouti","labelLocal":"Djibouti","labelBoth":"Djibouti","type":"City","iso":"DJ-DJ","qid":"Q3604"},"geometry":{"type":"Point","coordinates":[43.037,11.5524]}}]}