{"type":"FeatureCollection","features":[{"type":"Feature","id":"DMA-1439","properties":{"kind":"division","code":"DMA-1439","countryCode":"DMA","name":"Saint Patrick","localName":"Saint Patrick","labelEnglish":"Saint Patrick","labelLocal":"Saint Patrick","labelBoth":"Saint Patrick","type":"Parish","iso":"DM-09","qid":"Q1431108"},"geometry":{"type":"Polygon","coordinates":[[[-61.2541,15.3327],[-61.3082,15.3167],[-61.3566,15.2538],[-61.3557,15.2438],[-61.3464,15.2117],[-61.2541,15.3327]]]}},{"type":"Feature","id":"label-DMA-1439","properties":{"kind":"division-label","code":"DMA-1439","countryCode":"DMA","name":"Saint Patrick","localName":"Saint Patrick","labelEnglish":"Saint Patrick","labelLocal":"Saint Patrick","labelBoth":"Saint Patrick","type":"Parish","iso":"DM-09","qid":"Q1431108"},"geometry":{"type":"Point","coordinates":[-61.3052,15.2768]}},{"type":"Feature","id":"DMA-1433","properties":{"kind":"division","code":"DMA-1433","countryCode":"DMA","name":"Saint David","localName":"Saint David","labelEnglish":"Saint David","labelLocal":"Saint David","labelBoth":"Saint David","type":"Parish","iso":"DM-03","qid":"Q1431129"},"geometry":{"type":"Polygon","coordinates":[[[-61.2686,15.5099],[-61.3174,15.4449],[-61.3346,15.405],[-61.3276,15.3455],[-61.3082,15.3167],[-61.2541,15.3327],[-61.2686,15.5099]]]}},{"type":"Feature","id":"label-DMA-1433","properties":{"kind":"division-label","code":"DMA-1433","countryCode":"DMA","name":"Saint David","localName":"Saint David","labelEnglish":"Saint David","labelLocal":"Saint David","labelBoth":"Saint David","type":"Parish","iso":"DM-03","qid":"Q1431129"},"geometry":{"type":"Point","coordinates":[-61.2919,15.3956]}},{"type":"Feature","id":"DMA-1432","properties":{"kind":"division","code":"DMA-1432","countryCode":"DMA","name":"Saint Andrew","localName":"Saint Andrew","labelEnglish":"Saint Andrew","labelLocal":"Saint Andrew","labelBoth":"Saint Andrew","type":"Parish","iso":"DM-02","qid":"Q732322"},"geometry":{"type":"Polygon","coordinates":[[[-61.4492,15.6331],[-61.4077,15.503],[-61.4057,15.4945],[-61.3174,15.4449],[-61.2686,15.5099],[-61.4492,15.6331]]]}},{"type":"Feature","id":"label-DMA-1432","properties":{"kind":"division-label","code":"DMA-1432","countryCode":"DMA","name":"Saint Andrew","localName":"Saint Andrew","labelEnglish":"Saint Andrew","labelLocal":"Saint Andrew","labelBoth":"Saint Andrew","type":"Parish","iso":"DM-02","qid":"Q732322"},"geometry":{"type":"Point","coordinates":[-61.3589,15.5378]}},{"type":"Feature","id":"DMA-1435","properties":{"kind":"division","code":"DMA-1435","countryCode":"DMA","name":"Saint John","localName":"Saint John","labelEnglish":"Saint John","labelLocal":"Saint John","labelBoth":"Saint John","type":"Parish","iso":"DM-05","qid":"Q1476285"},"geometry":{"type":"Polygon","coordinates":[[[-61.484,15.5296],[-61.4077,15.503],[-61.4492,15.6331],[-61.484,15.5296]]]}},{"type":"Feature","id":"label-DMA-1435","properties":{"kind":"division-label","code":"DMA-1435","countryCode":"DMA","name":"Saint John","localName":"Saint John","labelEnglish":"Saint John","labelLocal":"Saint John","labelBoth":"Saint John","type":"Parish","iso":"DM-05","qid":"Q1476285"},"geometry":{"type":"Point","coordinates":[-61.4483,15.5767]}},{"type":"Feature","id":"DMA-1441","properties":{"kind":"division","code":"DMA-1441","countryCode":"DMA","name":"Saint Peter","localName":"Saint Peter","labelEnglish":"Saint Peter","labelLocal":"Saint Peter","labelBoth":"Saint Peter","type":"Parish","iso":"DM-11","qid":"Q1476294"},"geometry":{"type":"Polygon","coordinates":[[[-61.4553,15.4663],[-61.4057,15.4945],[-61.4077,15.503],[-61.484,15.5296],[-61.4553,15.4663]]]}},{"type":"Feature","id":"label-DMA-1441","properties":{"kind":"division-label","code":"DMA-1441","countryCode":"DMA","name":"Saint Peter","localName":"Saint Peter","labelEnglish":"Saint Peter","labelLocal":"Saint Peter","labelBoth":"Saint Peter","type":"Parish","iso":"DM-11","qid":"Q1476294"},"geometry":{"type":"Point","coordinates":[-61.4448,15.4986]}},{"type":"Feature","id":"DMA-1436","properties":{"kind":"division","code":"DMA-1436","countryCode":"DMA","name":"Saint Joseph","localName":"Saint Joseph","labelEnglish":"Saint Joseph","labelLocal":"Saint Joseph","labelBoth":"Saint Joseph","type":"Parish","iso":"DM-06","qid":"Q1476302"},"geometry":{"type":"Polygon","coordinates":[[[-61.416,15.3901],[-61.3346,15.405],[-61.3174,15.4449],[-61.4057,15.4945],[-61.4553,15.4663],[-61.416,15.3901]]]}},{"type":"Feature","id":"label-DMA-1436","properties":{"kind":"division-label","code":"DMA-1436","countryCode":"DMA","name":"Saint Joseph","localName":"Saint Joseph","labelEnglish":"Saint Joseph","labelLocal":"Saint Joseph","labelBoth":"Saint Joseph","type":"Parish","iso":"DM-06","qid":"Q1476302"},"geometry":{"type":"Point","coordinates":[-61.3863,15.4355]}},{"type":"Feature","id":"DMA-1440","properties":{"kind":"division","code":"DMA-1440","countryCode":"DMA","name":"Saint Paul","localName":"Saint Paul","labelEnglish":"Saint Paul","labelLocal":"Saint Paul","labelBoth":"Saint Paul","type":"Parish","iso":"DM-10","qid":"Q339063"},"geometry":{"type":"Polygon","coordinates":[[[-61.3936,15.3136],[-61.3276,15.3455],[-61.3346,15.405],[-61.416,15.3901],[-61.3936,15.3136]]]}},{"type":"Feature","id":"label-DMA-1440","properties":{"kind":"division-label","code":"DMA-1440","countryCode":"DMA","name":"Saint Paul","localName":"Saint Paul","labelEnglish":"Saint Paul","labelLocal":"Saint Paul","labelBoth":"Saint Paul","type":"Parish","iso":"DM-10","qid":"Q339063"},"geometry":{"type":"Point","coordinates":[-61.3717,15.3529]}},{"type":"Feature","id":"DMA-1434","properties":{"kind":"division","code":"DMA-1434","countryCode":"DMA","name":"Saint George","localName":"Saint George","labelEnglish":"Saint George","labelLocal":"Saint George","labelBoth":"Saint George","type":"Parish","iso":"DM-04","qid":"Q617801"},"geometry":{"type":"Polygon","coordinates":[[[-61.3732,15.2603],[-61.3566,15.2538],[-61.3082,15.3167],[-61.3276,15.3455],[-61.3936,15.3136],[-61.3732,15.2603]]]}},{"type":"Feature","id":"label-DMA-1434","properties":{"kind":"division-label","code":"DMA-1434","countryCode":"DMA","name":"Saint George","localName":"Saint George","labelEnglish":"Saint George","labelLocal":"Saint George","labelBoth":"Saint George","type":"Parish","iso":"DM-04","qid":"Q617801"},"geometry":{"type":"Point","coordinates":[-61.3489,15.3]}},{"type":"Feature","id":"DMA-1437","properties":{"kind":"division","code":"DMA-1437","countryCode":"DMA","name":"Saint Luke","localName":"Saint Luke","labelEnglish":"Saint Luke","labelLocal":"Saint Luke","labelBoth":"Saint Luke","type":"Parish","iso":"DM-07","qid":"Q1431099"},"geometry":{"type":"Polygon","coordinates":[[[-61.3728,15.2372],[-61.3557,15.2438],[-61.3566,15.2538],[-61.3732,15.2603],[-61.3728,15.2372]]]}},{"type":"Feature","id":"label-DMA-1437","properties":{"kind":"division-label","code":"DMA-1437","countryCode":"DMA","name":"Saint Luke","localName":"Saint Luke","labelEnglish":"Saint Luke","labelLocal":"Saint Luke","labelBoth":"Saint Luke","type":"Parish","iso":"DM-07","qid":"Q1431099"},"geometry":{"type":"Point","coordinates":[-61.3644,15.2483]}},{"type":"Feature","id":"DMA-1438","properties":{"kind":"division","code":"DMA-1438","countryCode":"DMA","name":"Saint Mark","localName":"Saint Mark","labelEnglish":"Saint Mark","labelLocal":"Saint Mark","labelBoth":"Saint Mark","type":"Parish","iso":"DM-08","qid":"Q1431115"},"geometry":{"type":"Polygon","coordinates":[[[-61.3464,15.2117],[-61.3557,15.2438],[-61.3728,15.2372],[-61.3464,15.2117]]]}},{"type":"Feature","id":"label-DMA-1438","properties":{"kind":"division-label","code":"DMA-1438","countryCode":"DMA","name":"Saint Mark","localName":"Saint Mark","labelEnglish":"Saint Mark","labelLocal":"Saint Mark","labelBoth":"Saint Mark","type":"Parish","iso":"DM-08","qid":"Q1431115"},"geometry":{"type":"Point","coordinates":[-61.3612,15.2217]}}]}