{"type":"FeatureCollection","features":[{"type":"Feature","id":"DNK-3417","properties":{"kind":"division","code":"DNK-3417","countryCode":"DNK","name":"Southern Denmark","localName":"Southern Denmark","labelEnglish":"Southern Denmark","labelLocal":"Southern Denmark","labelBoth":"Southern Denmark","type":"Region","iso":"DK-83","qid":"Q26061"},"geometry":{"type":"MultiPolygon","coordinates":[[[[8.6608,54.8963],[9.4375,54.8104],[9.7386,54.9809],[9.4944,55.1605],[9.7103,55.2487],[9.4981,55.4894],[9.6755,55.7086],[9.3999,55.9017],[8.1756,55.8015],[8.094,55.5639],[8.6177,55.4379],[8.6608,54.8963]]],[[[10.6663,55.0643],[10.7966,55.3585],[10.2938,55.6161],[9.6763,55.4957],[10.2053,55.0937],[10.6663,55.0643]]]]}},{"type":"Feature","id":"label-DNK-3417","properties":{"kind":"division-label","code":"DNK-3417","countryCode":"DNK","name":"Southern Denmark","localName":"Southern Denmark","labelEnglish":"Southern Denmark","labelLocal":"Southern Denmark","labelBoth":"Southern Denmark","type":"Region","iso":"DK-83","qid":"Q26061"},"geometry":{"type":"Point","coordinates":[9.1292,55.349]}},{"type":"Feature","id":"DNK-3416","properties":{"kind":"division","code":"DNK-3416","countryCode":"DNK","name":"Central Denmark","localName":"Central Denmark","labelEnglish":"Central Denmark","labelLocal":"Central Denmark","labelBoth":"Central Denmark","type":"Region","iso":"DK-82","qid":"Q26586"},"geometry":{"type":"Polygon","coordinates":[[[8.1756,55.8015],[9.3999,55.9017],[9.6755,55.7086],[10.2454,55.9146],[10.403,56.2982],[10.531,56.1002],[10.9641,56.4484],[10.1932,56.6936],[9.8546,56.5589],[9.326,56.6694],[8.9557,56.803],[8.5658,56.5788],[8.1224,56.5517],[8.1065,56.1195],[8.3877,55.8929],[8.1756,55.8015]]]}},{"type":"Feature","id":"label-DNK-3416","properties":{"kind":"division-label","code":"DNK-3416","countryCode":"DNK","name":"Central Denmark","localName":"Central Denmark","labelEnglish":"Central Denmark","labelLocal":"Central Denmark","labelBoth":"Central Denmark","type":"Region","iso":"DK-82","qid":"Q26586"},"geometry":{"type":"Point","coordinates":[9.26862,56.2367]}},{"type":"Feature","id":"DNK-3418","properties":{"kind":"division","code":"DNK-3418","countryCode":"DNK","name":"North Denmark","localName":"North Denmark","labelEnglish":"North Denmark","labelLocal":"North Denmark","labelBoth":"North Denmark","type":"Region","iso":"DK-81","qid":"Q26067"},"geometry":{"type":"Polygon","coordinates":[[[9.326,56.6694],[9.8546,56.5589],[10.1932,56.6936],[10.5391,57.2367],[10.4304,57.5705],[10.596,57.7512],[9.967,57.5914],[9.4121,57.1654],[8.618,57.1229],[8.2437,56.7774],[9.1145,57.0586],[9.326,56.6694]]]}},{"type":"Feature","id":"label-DNK-3418","properties":{"kind":"division-label","code":"DNK-3418","countryCode":"DNK","name":"North Denmark","localName":"North Denmark","labelEnglish":"North Denmark","labelLocal":"North Denmark","labelBoth":"North Denmark","type":"Region","iso":"DK-81","qid":"Q26067"},"geometry":{"type":"Point","coordinates":[9.73299,56.8261]}},{"type":"Feature","id":"DNK-3420","properties":{"kind":"division","code":"DNK-3420","countryCode":"DNK","name":"Zealand","localName":"Zealand","labelEnglish":"Zealand","labelLocal":"Zealand","labelBoth":"Zealand","type":"Region","iso":"DK-85","qid":"Q26589"},"geometry":{"type":"MultiPolygon","coordinates":[[[[11.8452,54.7319],[11.2317,54.9612],[10.9992,54.7868],[11.4744,54.6261],[11.8452,54.7319]]],[[[12.3592,55.6046],[12.0761,55.7789],[11.9727,55.7214],[11.8544,55.7322],[11.6631,55.9072],[10.9602,55.7244],[11.261,55.2006],[11.6494,55.181],[11.9607,54.6941],[12.1702,54.8383],[12.1828,55.2272],[12.4446,55.3489],[12.3592,55.6046]]]]}},{"type":"Feature","id":"label-DNK-3420","properties":{"kind":"division-label","code":"DNK-3420","countryCode":"DNK","name":"Zealand","localName":"Zealand","labelEnglish":"Zealand","labelLocal":"Zealand","labelBoth":"Zealand","type":"Region","iso":"DK-85","qid":"Q26589"},"geometry":{"type":"Point","coordinates":[11.7483,55.4417]}},{"type":"Feature","id":"DNK-3419","properties":{"kind":"division","code":"DNK-3419","countryCode":"DNK","name":"Denmark","localName":"Denmark","labelEnglish":"Denmark","labelLocal":"Denmark","labelBoth":"Denmark","type":"Region","iso":"DK-84","qid":"Q26073"},"geometry":{"type":"MultiPolygon","coordinates":[[[[15.1514,55.1332],[14.7609,55.3093],[14.6842,55.1013],[15.0727,54.9916],[15.1514,55.1332]]],[[[12.0761,55.7789],[12.3592,55.6046],[12.6022,55.7086],[12.6219,56.0438],[12.2451,56.1287],[11.8656,55.9727],[12.0761,55.7789]]]]}},{"type":"Feature","id":"label-DNK-3419","properties":{"kind":"division-label","code":"DNK-3419","countryCode":"DNK","name":"Denmark","localName":"Denmark","labelEnglish":"Denmark","labelLocal":"Denmark","labelBoth":"Denmark","type":"Region","iso":"DK-84","qid":"Q26073"},"geometry":{"type":"Point","coordinates":[12.3198,55.8486]}}]}