{"type":"FeatureCollection","features":[{"type":"Feature","id":"DOM-1964","properties":{"kind":"division","code":"DOM-1964","countryCode":"DOM","name":"Monte Cristi","localName":"Monte Cristi","labelEnglish":"Monte Cristi","labelLocal":"Monte Cristi","labelBoth":"Monte Cristi","type":"Province","iso":"DO-15","qid":"Q592624"},"geometry":{"type":"Polygon","coordinates":[[[-71.746,19.649],[-71.4131,19.5445],[-71.1842,19.5365],[-71.134,19.7518],[-71.2218,19.8346],[-71.6667,19.8857],[-71.7574,19.7101],[-71.746,19.649]]]}},{"type":"Feature","id":"label-DOM-1964","properties":{"kind":"division-label","code":"DOM-1964","countryCode":"DOM","name":"Monte Cristi","localName":"Monte Cristi","labelEnglish":"Monte Cristi","labelLocal":"Monte Cristi","labelBoth":"Monte Cristi","type":"Province","iso":"DO-15","qid":"Q592624"},"geometry":{"type":"Point","coordinates":[-71.4527,19.7302]}},{"type":"Feature","id":"DOM-1966","properties":{"kind":"division","code":"DOM-1966","countryCode":"DOM","name":"Dajabón","localName":"Dajabón","labelEnglish":"Dajabón","labelLocal":"Dajabón","labelBoth":"Dajabón","type":"Province","iso":"DO-05","qid":"Q1138575"},"geometry":{"type":"Polygon","coordinates":[[[-71.7495,19.2797],[-71.6517,19.2179],[-71.4883,19.2988],[-71.4131,19.5445],[-71.746,19.649],[-71.7495,19.2797]]]}},{"type":"Feature","id":"label-DOM-1966","properties":{"kind":"division-label","code":"DOM-1966","countryCode":"DOM","name":"Dajabón","localName":"Dajabón","labelEnglish":"Dajabón","labelLocal":"Dajabón","labelBoth":"Dajabón","type":"Province","iso":"DO-05","qid":"Q1138575"},"geometry":{"type":"Point","coordinates":[-71.5952,19.4319]}},{"type":"Feature","id":"DOM-1972","properties":{"kind":"division","code":"DOM-1972","countryCode":"DOM","name":"La Estrelleta","localName":"La Estrelleta","labelEnglish":"La Estrelleta","labelLocal":"La Estrelleta","labelBoth":"La Estrelleta","type":"Province","iso":"DO-07","qid":null},"geometry":{"type":"Polygon","coordinates":[[[-71.6517,19.2179],[-71.7837,18.9963],[-71.7849,18.6847],[-71.535,18.6508],[-71.6248,18.9378],[-71.3274,19.1911],[-71.4883,19.2988],[-71.6517,19.2179]]]}},{"type":"Feature","id":"label-DOM-1972","properties":{"kind":"division-label","code":"DOM-1972","countryCode":"DOM","name":"La Estrelleta","localName":"La Estrelleta","labelEnglish":"La Estrelleta","labelLocal":"La Estrelleta","labelBoth":"La Estrelleta","type":"Province","iso":"DO-07","qid":null},"geometry":{"type":"Point","coordinates":[-71.65,19.037]}},{"type":"Feature","id":"DOM-1971","properties":{"kind":"division","code":"DOM-1971","countryCode":"DOM","name":"Independencia","localName":"Independencia","labelEnglish":"Independencia","labelLocal":"Independencia","labelBoth":"Independencia","type":"Province","iso":"DO-10","qid":"Q1424401"},"geometry":{"type":"Polygon","coordinates":[[[-71.7918,18.6807],[-72.0098,18.5988],[-71.7211,18.294],[-71.7217,18.293],[-71.4219,18.1359],[-71.2008,18.3384],[-71.5926,18.478],[-71.535,18.6508],[-71.7849,18.6847],[-71.7918,18.6807]]]}},{"type":"Feature","id":"label-DOM-1971","properties":{"kind":"division-label","code":"DOM-1971","countryCode":"DOM","name":"Independencia","localName":"Independencia","labelEnglish":"Independencia","labelLocal":"Independencia","labelBoth":"Independencia","type":"Province","iso":"DO-10","qid":"Q1424401"},"geometry":{"type":"Point","coordinates":[-71.6057,18.3759]}},{"type":"Feature","id":"DOM-1973","properties":{"kind":"division","code":"DOM-1973","countryCode":"DOM","name":"Pedernales","localName":"Pedernales","labelEnglish":"Pedernales","labelLocal":"Pedernales","labelBoth":"Pedernales","type":"Province","iso":"DO-16","qid":"Q1352533"},"geometry":{"type":"Polygon","coordinates":[[[-71.7762,18.0393],[-71.6793,17.7653],[-71.4172,17.6048],[-71.281,17.8531],[-71.4219,18.1359],[-71.7217,18.293],[-71.7762,18.0393]]]}},{"type":"Feature","id":"label-DOM-1973","properties":{"kind":"division-label","code":"DOM-1973","countryCode":"DOM","name":"Pedernales","localName":"Pedernales","labelEnglish":"Pedernales","labelLocal":"Pedernales","labelBoth":"Pedernales","type":"Province","iso":"DO-16","qid":"Q1352533"},"geometry":{"type":"Point","coordinates":[-71.5201,17.9396]}},{"type":"Feature","id":"DOM-1987","properties":{"kind":"division","code":"DOM-1987","countryCode":"DOM","name":"La Altagracia","localName":"La Altagracia","labelEnglish":"La Altagracia","labelLocal":"La Altagracia","labelBoth":"La Altagracia","type":"Province","iso":"DO-11","qid":"Q1323353"},"geometry":{"type":"Polygon","coordinates":[[[-68.7851,18.9799],[-68.9353,18.6657],[-68.9011,18.4037],[-68.7602,18.2104],[-68.4557,18.3579],[-68.3562,18.6566],[-68.7851,18.9799]]]}},{"type":"Feature","id":"label-DOM-1987","properties":{"kind":"division-label","code":"DOM-1987","countryCode":"DOM","name":"La Altagracia","localName":"La Altagracia","labelEnglish":"La Altagracia","labelLocal":"La Altagracia","labelBoth":"La Altagracia","type":"Province","iso":"DO-11","qid":"Q1323353"},"geometry":{"type":"Point","coordinates":[-68.6413,18.608]}},{"type":"Feature","id":"DOM-1986","properties":{"kind":"division","code":"DOM-1986","countryCode":"DOM","name":"El Seibo","localName":"El Seibo","labelEnglish":"El Seibo","labelLocal":"El Seibo","labelBoth":"El Seibo","type":"Province","iso":"DO-08","qid":"Q1774831"},"geometry":{"type":"Polygon","coordinates":[[[-69.2117,19.021],[-69.3286,18.9241],[-69.2536,18.6402],[-69.0927,18.5273],[-68.9353,18.6657],[-68.7851,18.9799],[-69.2117,19.021]]]}},{"type":"Feature","id":"label-DOM-1986","properties":{"kind":"division-label","code":"DOM-1986","countryCode":"DOM","name":"El Seibo","localName":"El Seibo","labelEnglish":"El Seibo","labelLocal":"El Seibo","labelBoth":"El Seibo","type":"Province","iso":"DO-08","qid":"Q1774831"},"geometry":{"type":"Point","coordinates":[-69.0568,18.7649]}},{"type":"Feature","id":"DOM-1980","properties":{"kind":"division","code":"DOM-1980","countryCode":"DOM","name":"Hato Mayor","localName":"Hato Mayor","labelEnglish":"Hato Mayor","labelLocal":"Hato Mayor","labelBoth":"Hato Mayor","type":"Province","iso":"DO-30","qid":"Q937217"},"geometry":{"type":"Polygon","coordinates":[[[-69.6209,19.102],[-69.6378,19.0089],[-69.4591,18.8026],[-69.3537,18.522],[-69.2536,18.6402],[-69.3286,18.9241],[-69.2117,19.021],[-69.6209,19.102]]]}},{"type":"Feature","id":"label-DOM-1980","properties":{"kind":"division-label","code":"DOM-1980","countryCode":"DOM","name":"Hato Mayor","localName":"Hato Mayor","labelEnglish":"Hato Mayor","labelLocal":"Hato Mayor","labelBoth":"Hato Mayor","type":"Province","iso":"DO-30","qid":"Q937217"},"geometry":{"type":"Point","coordinates":[-69.403,18.981]}},{"type":"Feature","id":"DOM-1983","properties":{"kind":"division","code":"DOM-1983","countryCode":"DOM","name":"Samaná","localName":"Samaná","labelEnglish":"Samaná","labelLocal":"Samaná","labelBoth":"Samaná","type":"Province","iso":"DO-20","qid":"Q1145487"},"geometry":{"type":"Polygon","coordinates":[[[-69.7715,19.3033],[-69.7861,19.1981],[-69.7558,19.0876],[-69.6378,19.0089],[-69.6209,19.102],[-69.6029,19.229],[-69.2537,19.1835],[-69.1643,19.307],[-69.7715,19.3033]]]}},{"type":"Feature","id":"label-DOM-1983","properties":{"kind":"division-label","code":"DOM-1983","countryCode":"DOM","name":"Samaná","localName":"Samaná","labelEnglish":"Samaná","labelLocal":"Samaná","labelBoth":"Samaná","type":"Province","iso":"DO-20","qid":"Q1145487"},"geometry":{"type":"Point","coordinates":[-69.4756,19.2717]}},{"type":"Feature","id":"DOM-1982","properties":{"kind":"division","code":"DOM-1982","countryCode":"DOM","name":"María Trinidad Sánchez","localName":"María Trinidad Sánchez","labelEnglish":"María Trinidad Sánchez","labelLocal":"María Trinidad Sánchez","labelBoth":"María Trinidad Sánchez","type":"Province","iso":"DO-14","qid":"Q1949656"},"geometry":{"type":"Polygon","coordinates":[[[-70.094,19.6367],[-70.2151,19.4974],[-69.9913,19.2571],[-69.7861,19.1981],[-69.7715,19.3033],[-69.8979,19.636],[-70.094,19.6367]]]}},{"type":"Feature","id":"label-DOM-1982","properties":{"kind":"division-label","code":"DOM-1982","countryCode":"DOM","name":"María Trinidad Sánchez","localName":"María Trinidad Sánchez","labelEnglish":"María Trinidad Sánchez","labelLocal":"María Trinidad Sánchez","labelBoth":"María Trinidad Sánchez","type":"Province","iso":"DO-14","qid":"Q1949656"},"geometry":{"type":"Point","coordinates":[-69.9933,19.4682]}},{"type":"Feature","id":"DOM-1967","properties":{"kind":"division","code":"DOM-1967","countryCode":"DOM","name":"Espaillat","localName":"Espaillat","labelEnglish":"Espaillat","labelLocal":"Espaillat","labelBoth":"Espaillat","type":"Province","iso":"DO-09","qid":"Q530231"},"geometry":{"type":"Polygon","coordinates":[[[-70.3727,19.7142],[-70.5477,19.5178],[-70.6139,19.3688],[-70.4673,19.3188],[-70.4423,19.5003],[-70.2366,19.4992],[-70.2151,19.4974],[-70.094,19.6367],[-70.3727,19.7142]]]}},{"type":"Feature","id":"label-DOM-1967","properties":{"kind":"division-label","code":"DOM-1967","countryCode":"DOM","name":"Espaillat","localName":"Espaillat","labelEnglish":"Espaillat","labelLocal":"Espaillat","labelBoth":"Espaillat","type":"Province","iso":"DO-09","qid":"Q530231"},"geometry":{"type":"Point","coordinates":[-70.3537,19.5998]}},{"type":"Feature","id":"DOM-1965","properties":{"kind":"division","code":"DOM-1965","countryCode":"DOM","name":"Puerto Plata","localName":"Puerto Plata","labelEnglish":"Puerto Plata","labelLocal":"Puerto Plata","labelBoth":"Puerto Plata","type":"Province","iso":"DO-18","qid":"Q693487"},"geometry":{"type":"Polygon","coordinates":[[[-71.2218,19.8346],[-71.134,19.7518],[-70.8641,19.6417],[-70.5477,19.5178],[-70.3727,19.7142],[-71.0184,19.9355],[-71.2218,19.8346]]]}},{"type":"Feature","id":"label-DOM-1965","properties":{"kind":"division-label","code":"DOM-1965","countryCode":"DOM","name":"Puerto Plata","localName":"Puerto Plata","labelEnglish":"Puerto Plata","labelLocal":"Puerto Plata","labelBoth":"Puerto Plata","type":"Province","iso":"DO-18","qid":"Q693487"},"geometry":{"type":"Point","coordinates":[-70.7972,19.7427]}},{"type":"Feature","id":"DOM-1970","properties":{"kind":"division","code":"DOM-1970","countryCode":"DOM","name":"Barahona","localName":"Barahona","labelEnglish":"Barahona","labelLocal":"Barahona","labelBoth":"Barahona","type":"Province","iso":"DO-04","qid":"Q1137551"},"geometry":{"type":"Polygon","coordinates":[[[-70.9656,18.2621],[-71.0148,18.502],[-71.2008,18.3384],[-71.4219,18.1359],[-71.281,17.8531],[-70.9656,18.2621]]]}},{"type":"Feature","id":"label-DOM-1970","properties":{"kind":"division-label","code":"DOM-1970","countryCode":"DOM","name":"Barahona","localName":"Barahona","labelEnglish":"Barahona","labelLocal":"Barahona","labelBoth":"Barahona","type":"Province","iso":"DO-04","qid":"Q1137551"},"geometry":{"type":"Point","coordinates":[-71.1872,18.1674]}},{"type":"Feature","id":"DOM-1974","properties":{"kind":"division","code":"DOM-1974","countryCode":"DOM","name":"Azua","localName":"Azua","labelEnglish":"Azua","labelLocal":"Azua","labelBoth":"Azua","type":"Province","iso":"DO-02","qid":"Q794239"},"geometry":{"type":"Polygon","coordinates":[[[-70.5794,18.2718],[-70.4791,18.4132],[-70.7,18.6768],[-70.8912,18.9885],[-71.1613,18.6159],[-71.0148,18.502],[-70.9656,18.2621],[-70.6014,18.4119],[-70.5794,18.2718]]]}},{"type":"Feature","id":"label-DOM-1974","properties":{"kind":"division-label","code":"DOM-1974","countryCode":"DOM","name":"Azua","localName":"Azua","labelEnglish":"Azua","labelLocal":"Azua","labelBoth":"Azua","type":"Province","iso":"DO-02","qid":"Q794239"},"geometry":{"type":"Point","coordinates":[-70.8169,18.5981]}},{"type":"Feature","id":"DOM-1977","properties":{"kind":"division","code":"DOM-1977","countryCode":"DOM","name":"Peravia","localName":"Peravia","labelEnglish":"Peravia","labelLocal":"Peravia","labelBoth":"Peravia","type":"Province","iso":"DO-17","qid":"Q1331932"},"geometry":{"type":"Polygon","coordinates":[[[-70.1804,18.2341],[-70.3566,18.5036],[-70.4791,18.4132],[-70.5794,18.2718],[-70.1804,18.2341]]]}},{"type":"Feature","id":"label-DOM-1977","properties":{"kind":"division-label","code":"DOM-1977","countryCode":"DOM","name":"Peravia","localName":"Peravia","labelEnglish":"Peravia","labelLocal":"Peravia","labelBoth":"Peravia","type":"Province","iso":"DO-17","qid":"Q1331932"},"geometry":{"type":"Point","coordinates":[-70.3799,18.359]}},{"type":"Feature","id":"DOM-1984","properties":{"kind":"division","code":"DOM-1984","countryCode":"DOM","name":"San Cristóbal","localName":"San Cristóbal","labelEnglish":"San Cristóbal","labelLocal":"San Cristóbal","labelBoth":"San Cristóbal","type":"Province","iso":"DO-21","qid":"Q1366107"},"geometry":{"type":"Polygon","coordinates":[[[-70.004,18.4175],[-70.1672,18.7317],[-70.2512,18.8017],[-70.35,18.7202],[-70.3566,18.5036],[-70.1804,18.2341],[-70.004,18.4175]]]}},{"type":"Feature","id":"label-DOM-1984","properties":{"kind":"division-label","code":"DOM-1984","countryCode":"DOM","name":"San Cristóbal","localName":"San Cristóbal","labelEnglish":"San Cristóbal","labelLocal":"San Cristóbal","labelBoth":"San Cristóbal","type":"Province","iso":"DO-21","qid":"Q1366107"},"geometry":{"type":"Point","coordinates":[-70.1914,18.5126]}},{"type":"Feature","id":"DOM-1394","properties":{"kind":"division","code":"DOM-1394","countryCode":"DOM","name":"Santo Domingo","localName":"Santo Domingo","labelEnglish":"Santo Domingo","labelLocal":"Santo Domingo","labelBoth":"Santo Domingo","type":"Province","iso":"DO-32","qid":"Q1352536"},"geometry":{"type":"Polygon","coordinates":[[[-69.9809,18.4265],[-69.9948,18.5224],[-69.8794,18.4712],[-69.5281,18.4103],[-69.5753,18.6482],[-69.798,18.6001],[-70.1672,18.7317],[-70.004,18.4175],[-69.9809,18.4265]]]}},{"type":"Feature","id":"label-DOM-1394","properties":{"kind":"division-label","code":"DOM-1394","countryCode":"DOM","name":"Santo Domingo","localName":"Santo Domingo","labelEnglish":"Santo Domingo","labelLocal":"Santo Domingo","labelBoth":"Santo Domingo","type":"Province","iso":"DO-32","qid":"Q1352536"},"geometry":{"type":"Point","coordinates":[-69.8427,18.5664]}},{"type":"Feature","id":"DOM-1985","properties":{"kind":"division","code":"DOM-1985","countryCode":"DOM","name":"Nacional","localName":"Nacional","labelEnglish":"Nacional","labelLocal":"Nacional","labelBoth":"Nacional","type":"National District","iso":"DO-01","qid":"Q2499228"},"geometry":{"type":"Polygon","coordinates":[[[-69.8794,18.4712],[-69.9948,18.5224],[-69.9809,18.4265],[-69.8794,18.4712]]]}},{"type":"Feature","id":"label-DOM-1985","properties":{"kind":"division-label","code":"DOM-1985","countryCode":"DOM","name":"Nacional","localName":"Nacional","labelEnglish":"Nacional","labelLocal":"Nacional","labelBoth":"Nacional","type":"National District","iso":"DO-01","qid":"Q2499228"},"geometry":{"type":"Point","coordinates":[-69.9376,18.4746]}},{"type":"Feature","id":"DOM-1396","properties":{"kind":"division","code":"DOM-1396","countryCode":"DOM","name":"San Pedro de Macorís","localName":"San Pedro de Macorís","labelEnglish":"San Pedro de Macorís","labelLocal":"San Pedro de Macorís","labelBoth":"San Pedro de Macorís","type":"Province","iso":"DO-23","qid":"Q1366119"},"geometry":{"type":"Polygon","coordinates":[[[-69.0854,18.3959],[-69.0927,18.5273],[-69.2536,18.6402],[-69.3537,18.522],[-69.4591,18.8026],[-69.5753,18.6482],[-69.5281,18.4103],[-69.0854,18.3959]]]}},{"type":"Feature","id":"label-DOM-1396","properties":{"kind":"division-label","code":"DOM-1396","countryCode":"DOM","name":"San Pedro de Macorís","localName":"San Pedro de Macorís","labelEnglish":"San Pedro de Macorís","labelLocal":"San Pedro de Macorís","labelBoth":"San Pedro de Macorís","type":"Province","iso":"DO-23","qid":"Q1366119"},"geometry":{"type":"Point","coordinates":[-69.3484,18.4796]}},{"type":"Feature","id":"DOM-1988","properties":{"kind":"division","code":"DOM-1988","countryCode":"DOM","name":"La Romana","localName":"La Romana","labelEnglish":"La Romana","labelLocal":"La Romana","labelBoth":"La Romana","type":"Province","iso":"DO-12","qid":"Q1140742"},"geometry":{"type":"Polygon","coordinates":[[[-68.9011,18.4037],[-68.9353,18.6657],[-69.0927,18.5273],[-69.0854,18.3959],[-68.9011,18.4037]]]}},{"type":"Feature","id":"label-DOM-1988","properties":{"kind":"division-label","code":"DOM-1988","countryCode":"DOM","name":"La Romana","localName":"La Romana","labelEnglish":"La Romana","labelLocal":"La Romana","labelBoth":"La Romana","type":"Province","iso":"DO-12","qid":"Q1140742"},"geometry":{"type":"Point","coordinates":[-68.9869,18.5221]}},{"type":"Feature","id":"DOM-1392","properties":{"kind":"division","code":"DOM-1392","countryCode":"DOM","name":"Valverde","localName":"Valverde","labelEnglish":"Valverde","labelLocal":"Valverde","labelBoth":"Valverde","type":"Province","iso":"DO-27","qid":"Q1774848"},"geometry":{"type":"Polygon","coordinates":[[[-71.134,19.7518],[-71.1842,19.5365],[-71.0752,19.4681],[-70.8856,19.4475],[-70.8641,19.6417],[-71.134,19.7518]]]}},{"type":"Feature","id":"label-DOM-1392","properties":{"kind":"division-label","code":"DOM-1392","countryCode":"DOM","name":"Valverde","localName":"Valverde","labelEnglish":"Valverde","labelLocal":"Valverde","labelBoth":"Valverde","type":"Province","iso":"DO-27","qid":"Q1774848"},"geometry":{"type":"Point","coordinates":[-71.0242,19.5741]}},{"type":"Feature","id":"DOM-1391","properties":{"kind":"division","code":"DOM-1391","countryCode":"DOM","name":"Santiago Rodríguez","localName":"Santiago Rodríguez","labelEnglish":"Santiago Rodríguez","labelLocal":"Santiago Rodríguez","labelBoth":"Santiago Rodríguez","type":"Province","iso":"DO-26","qid":"Q2021942"},"geometry":{"type":"Polygon","coordinates":[[[-71.1842,19.5365],[-71.4131,19.5445],[-71.4883,19.2988],[-71.3274,19.1911],[-71.2308,19.1702],[-71.0752,19.4681],[-71.1842,19.5365]]]}},{"type":"Feature","id":"label-DOM-1391","properties":{"kind":"division-label","code":"DOM-1391","countryCode":"DOM","name":"Santiago Rodríguez","localName":"Santiago Rodríguez","labelEnglish":"Santiago Rodríguez","labelLocal":"Santiago Rodríguez","labelBoth":"Santiago Rodríguez","type":"Province","iso":"DO-26","qid":"Q2021942"},"geometry":{"type":"Point","coordinates":[-71.2919,19.3626]}},{"type":"Feature","id":"DOM-1975","properties":{"kind":"division","code":"DOM-1975","countryCode":"DOM","name":"La Vega","localName":"La Vega","labelEnglish":"La Vega","labelLocal":"La Vega","labelBoth":"La Vega","type":"Province","iso":"DO-13","qid":"Q594405"},"geometry":{"type":"Polygon","coordinates":[[[-70.6139,19.3688],[-70.9162,19.0259],[-70.8912,18.9885],[-70.7,18.6768],[-70.5337,18.7879],[-70.3923,19.0723],[-70.2814,19.1464],[-70.3636,19.2249],[-70.4673,19.3188],[-70.6139,19.3688]]]}},{"type":"Feature","id":"label-DOM-1975","properties":{"kind":"division-label","code":"DOM-1975","countryCode":"DOM","name":"La Vega","localName":"La Vega","labelEnglish":"La Vega","labelLocal":"La Vega","labelBoth":"La Vega","type":"Province","iso":"DO-13","qid":"Q594405"},"geometry":{"type":"Point","coordinates":[-70.6836,19.0453]}},{"type":"Feature","id":"DOM-1968","properties":{"kind":"division","code":"DOM-1968","countryCode":"DOM","name":"Hermanas Mirabal","localName":"Hermanas Mirabal","labelEnglish":"Hermanas Mirabal","labelLocal":"Hermanas Mirabal","labelBoth":"Hermanas Mirabal","type":"Province","iso":"DO-19","qid":"Q549386"},"geometry":{"type":"Polygon","coordinates":[[[-70.2366,19.4992],[-70.4423,19.5003],[-70.4673,19.3188],[-70.3636,19.2249],[-70.2366,19.4992]]]}},{"type":"Feature","id":"label-DOM-1968","properties":{"kind":"division-label","code":"DOM-1968","countryCode":"DOM","name":"Hermanas Mirabal","localName":"Hermanas Mirabal","labelEnglish":"Hermanas Mirabal","labelLocal":"Hermanas Mirabal","labelBoth":"Hermanas Mirabal","type":"Province","iso":"DO-19","qid":"Q549386"},"geometry":{"type":"Point","coordinates":[-70.352,19.403]}},{"type":"Feature","id":"DOM-1979","properties":{"kind":"division","code":"DOM-1979","countryCode":"DOM","name":"Duarte","localName":"Duarte","labelEnglish":"Duarte","labelLocal":"Duarte","labelBoth":"Duarte","type":"Province","iso":"DO-06","qid":"Q1262745"},"geometry":{"type":"Polygon","coordinates":[[[-70.2151,19.4974],[-70.2366,19.4992],[-70.3636,19.2249],[-70.2814,19.1464],[-69.9203,19.0393],[-69.7558,19.0876],[-69.7861,19.1981],[-69.9913,19.2571],[-70.2151,19.4974]]]}},{"type":"Feature","id":"label-DOM-1979","properties":{"kind":"division-label","code":"DOM-1979","countryCode":"DOM","name":"Duarte","localName":"Duarte","labelEnglish":"Duarte","labelLocal":"Duarte","labelBoth":"Duarte","type":"Province","iso":"DO-06","qid":"Q1262745"},"geometry":{"type":"Point","coordinates":[-70.0202,19.1987]}},{"type":"Feature","id":"DOM-1390","properties":{"kind":"division","code":"DOM-1390","countryCode":"DOM","name":"Santiago","localName":"Santiago","labelEnglish":"Santiago","labelLocal":"Santiago","labelBoth":"Santiago","type":"Province","iso":"DO-25","qid":"Q1772983"},"geometry":{"type":"Polygon","coordinates":[[[-70.5477,19.5178],[-70.8641,19.6417],[-70.8856,19.4475],[-71.0752,19.4681],[-71.2308,19.1702],[-70.9162,19.0259],[-70.6139,19.3688],[-70.5477,19.5178]]]}},{"type":"Feature","id":"label-DOM-1390","properties":{"kind":"division-label","code":"DOM-1390","countryCode":"DOM","name":"Santiago","localName":"Santiago","labelEnglish":"Santiago","labelLocal":"Santiago","labelBoth":"Santiago","type":"Province","iso":"DO-25","qid":"Q1772983"},"geometry":{"type":"Point","coordinates":[-70.8974,19.2636]}},{"type":"Feature","id":"DOM-1969","properties":{"kind":"division","code":"DOM-1969","countryCode":"DOM","name":"Baoruco","localName":"Baoruco","labelEnglish":"Baoruco","labelLocal":"Baoruco","labelBoth":"Baoruco","type":"Province","iso":"DO-03","qid":"Q807079"},"geometry":{"type":"Polygon","coordinates":[[[-71.535,18.6508],[-71.5926,18.478],[-71.2008,18.3384],[-71.0148,18.502],[-71.1613,18.6159],[-71.535,18.6508]]]}},{"type":"Feature","id":"label-DOM-1969","properties":{"kind":"division-label","code":"DOM-1969","countryCode":"DOM","name":"Baoruco","localName":"Baoruco","labelEnglish":"Baoruco","labelLocal":"Baoruco","labelBoth":"Baoruco","type":"Province","iso":"DO-03","qid":"Q807079"},"geometry":{"type":"Point","coordinates":[-71.307,18.5116]}},{"type":"Feature","id":"DOM-1393","properties":{"kind":"division","code":"DOM-1393","countryCode":"DOM","name":"San Juan","localName":"San Juan","labelEnglish":"San Juan","labelLocal":"San Juan","labelBoth":"San Juan","type":"Province","iso":"DO-22","qid":"Q2001793"},"geometry":{"type":"Polygon","coordinates":[[[-71.3274,19.1911],[-71.6248,18.9378],[-71.535,18.6508],[-71.1613,18.6159],[-70.8912,18.9885],[-70.9162,19.0259],[-71.2308,19.1702],[-71.3274,19.1911]]]}},{"type":"Feature","id":"label-DOM-1393","properties":{"kind":"division-label","code":"DOM-1393","countryCode":"DOM","name":"San Juan","localName":"San Juan","labelEnglish":"San Juan","labelLocal":"San Juan","labelBoth":"San Juan","type":"Province","iso":"DO-22","qid":"Q2001793"},"geometry":{"type":"Point","coordinates":[-71.2622,18.8948]}},{"type":"Feature","id":"DOM-1976","properties":{"kind":"division","code":"DOM-1976","countryCode":"DOM","name":"Monseñor Nouel","localName":"Monseñor Nouel","labelEnglish":"Monseñor Nouel","labelLocal":"Monseñor Nouel","labelBoth":"Monseñor Nouel","type":"Province","iso":"DO-28","qid":"Q1295496"},"geometry":{"type":"Polygon","coordinates":[[[-70.3923,19.0723],[-70.5337,18.7879],[-70.35,18.7202],[-70.2512,18.8017],[-70.2238,18.8548],[-70.3923,19.0723]]]}},{"type":"Feature","id":"label-DOM-1976","properties":{"kind":"division-label","code":"DOM-1976","countryCode":"DOM","name":"Monseñor Nouel","localName":"Monseñor Nouel","labelEnglish":"Monseñor Nouel","labelLocal":"Monseñor Nouel","labelBoth":"Monseñor Nouel","type":"Province","iso":"DO-28","qid":"Q1295496"},"geometry":{"type":"Point","coordinates":[-70.4081,18.9242]}},{"type":"Feature","id":"DOM-1395","properties":{"kind":"division","code":"DOM-1395","countryCode":"DOM","name":"Sánchez Ramírez","localName":"Sánchez Ramírez","labelEnglish":"Sánchez Ramírez","labelLocal":"Sánchez Ramírez","labelBoth":"Sánchez Ramírez","type":"Province","iso":"DO-24","qid":"Q1836903"},"geometry":{"type":"Polygon","coordinates":[[[-70.2238,18.8548],[-69.9203,19.0393],[-70.2814,19.1464],[-70.3923,19.0723],[-70.2238,18.8548]]]}},{"type":"Feature","id":"label-DOM-1395","properties":{"kind":"division-label","code":"DOM-1395","countryCode":"DOM","name":"Sánchez Ramírez","localName":"Sánchez Ramírez","labelEnglish":"Sánchez Ramírez","labelLocal":"Sánchez Ramírez","labelBoth":"Sánchez Ramírez","type":"Province","iso":"DO-24","qid":"Q1836903"},"geometry":{"type":"Point","coordinates":[-70.15,19.0101]}},{"type":"Feature","id":"DOM-1978","properties":{"kind":"division","code":"DOM-1978","countryCode":"DOM","name":"San José de Ocoa","localName":"San José de Ocoa","labelEnglish":"San José de Ocoa","labelLocal":"San José de Ocoa","labelBoth":"San José de Ocoa","type":"Province","iso":"DO-31","qid":"Q1424391"},"geometry":{"type":"Polygon","coordinates":[[[-70.5337,18.7879],[-70.7,18.6768],[-70.4791,18.4132],[-70.3566,18.5036],[-70.35,18.7202],[-70.5337,18.7879]]]}},{"type":"Feature","id":"label-DOM-1978","properties":{"kind":"division-label","code":"DOM-1978","countryCode":"DOM","name":"San José de Ocoa","localName":"San José de Ocoa","labelEnglish":"San José de Ocoa","labelLocal":"San José de Ocoa","labelBoth":"San José de Ocoa","type":"Province","iso":"DO-31","qid":"Q1424391"},"geometry":{"type":"Point","coordinates":[-70.525,18.6367]}},{"type":"Feature","id":"DOM-1981","properties":{"kind":"division","code":"DOM-1981","countryCode":"DOM","name":"Monte Plata","localName":"Monte Plata","labelEnglish":"Monte Plata","labelLocal":"Monte Plata","labelBoth":"Monte Plata","type":"Province","iso":"DO-29","qid":"Q1772745"},"geometry":{"type":"Polygon","coordinates":[[[-70.2512,18.8017],[-70.1672,18.7317],[-69.798,18.6001],[-69.5753,18.6482],[-69.4591,18.8026],[-69.6378,19.0089],[-69.7558,19.0876],[-69.9203,19.0393],[-70.2238,18.8548],[-70.2512,18.8017]]]}},{"type":"Feature","id":"label-DOM-1981","properties":{"kind":"division-label","code":"DOM-1981","countryCode":"DOM","name":"Monte Plata","localName":"Monte Plata","labelEnglish":"Monte Plata","labelLocal":"Monte Plata","labelBoth":"Monte Plata","type":"Province","iso":"DO-29","qid":"Q1772745"},"geometry":{"type":"Point","coordinates":[-69.816,18.8533]}}]}