{"type":"FeatureCollection","features":[{"type":"Feature","id":"DZA-2143","properties":{"kind":"division","code":"DZA-2143","countryCode":"DZA","name":"Adrar","localName":"ولاية أدرا","labelEnglish":"Adrar","labelLocal":"ولاية أدرا","labelBoth":"Adrar · ولاية أدرا","type":"Province","iso":"DZ-01","qid":"Q188166"},"geometry":{"type":"Polygon","coordinates":[[[-4.8216,24.9951],[-3.4485,24.106],[-2.5232,23.501],[-0.9636,22.4813],[0.0037,21.8489],[1.1465,21.1017],[1.1685,20.7335],[1.644,20.5227],[1.8914,20.2318],[2.1824,20.2785],[2.4004,20.0566],[2.946,19.9417],[3.2168,19.7941],[3.251,19.3655],[3.1027,19.1536],[3.3084,18.9817],[3.7903,19.0608],[3.7822,20.5494],[3.5732,20.969],[1.369,22.1779],[1.3001,22.2701],[1.3072,25.5414],[1.1171,25.6928],[1.0811,25.9752],[0.8254,26.2688],[1.0678,26.4155],[1.394,26.4258],[1.7636,26.6094],[1.9394,26.8083],[2.1341,28.4915],[2.0793,29.0364],[1.9434,30.0948],[2.0717,30.8597],[2.0854,31.6586],[1.033,31.2018],[0.3991,30.7087],[-0.1992,29.745],[-0.8257,29.0082],[-0.9584,28.923],[-1.876,28.779],[-2.5697,28.3811],[-3.0227,28.331],[-3.5526,28.5824],[-3.7506,28.5669],[-2.9743,27.2033],[-5.6615,25.5089],[-4.8216,24.9951]]]}},{"type":"Feature","id":"label-DZA-2143","properties":{"kind":"division-label","code":"DZA-2143","countryCode":"DZA","name":"Adrar","localName":"ولاية أدرا","labelEnglish":"Adrar","labelLocal":"ولاية أدرا","labelBoth":"Adrar · ولاية أدرا","type":"Province","iso":"DZ-01","qid":"Q188166"},"geometry":{"type":"Point","coordinates":[-0.93557,25.7004]}},{"type":"Feature","id":"DZA-2189","properties":{"kind":"division","code":"DZA-2189","countryCode":"DZA","name":"Tamanghasset","localName":"ولاية تمنراست","labelEnglish":"Tamanghasset","labelLocal":"ولاية تمنراست","labelBoth":"Tamanghasset · ولاية تمنراست","type":"Province","iso":"DZ-11","qid":"Q229467"},"geometry":{"type":"Polygon","coordinates":[[[11.9689,23.5174],[11.7101,24.0001],[8.7125,24.0014],[8.5213,24.2286],[7.9567,24.3667],[7.3202,24.7028],[7.1254,24.8951],[7.1707,25.2864],[6.9586,25.7598],[6.5185,25.9114],[6.1788,26.2316],[6.2699,26.5126],[5.9504,26.8618],[5.8157,27.3214],[6.2578,27.7655],[6.5666,27.8881],[6.5109,28.0899],[5.9527,28.4908],[4.7505,28.4619],[3.8156,28.5459],[2.986,29.1235],[2.0793,29.0364],[2.1341,28.4915],[1.9394,26.8083],[1.7636,26.6094],[1.394,26.4258],[1.0678,26.4155],[0.8254,26.2688],[1.0811,25.9752],[1.1171,25.6928],[1.3072,25.5414],[1.3001,22.2701],[1.369,22.1779],[3.5732,20.969],[3.7822,20.5494],[3.7903,19.0608],[4.2286,19.1422],[5.7493,19.4337],[5.8376,19.4786],[7.4827,20.8726],[8.6345,21.5515],[9.7233,22.1934],[11.9689,23.5174]]]}},{"type":"Feature","id":"label-DZA-2189","properties":{"kind":"division-label","code":"DZA-2189","countryCode":"DZA","name":"Tamanghasset","localName":"ولاية تمنراست","labelEnglish":"Tamanghasset","labelLocal":"ولاية تمنراست","labelBoth":"Tamanghasset · ولاية تمنراست","type":"Province","iso":"DZ-11","qid":"Q229467"},"geometry":{"type":"Point","coordinates":[6.39695,23.0089]}},{"type":"Feature","id":"DZA-2150","properties":{"kind":"division","code":"DZA-2150","countryCode":"DZA","name":"Tindouf","localName":"ولاية تندوف","labelEnglish":"Tindouf","labelLocal":"ولاية تندوف","labelBoth":"Tindouf · ولاية تندوف","type":"Province","iso":"DZ-37","qid":"Q231151"},"geometry":{"type":"Polygon","coordinates":[[[-5.6615,25.5089],[-2.9743,27.2033],[-3.7506,28.5669],[-5.2668,28.2072],[-6.0008,29.5791],[-6.3439,29.5721],[-6.7835,29.4463],[-7.1469,29.5092],[-7.6195,29.3894],[-8.6824,28.6659],[-8.6824,27.6614],[-8.6824,27.2854],[-7.297,26.4707],[-5.6615,25.5089]]]}},{"type":"Feature","id":"label-DZA-2150","properties":{"kind":"division-label","code":"DZA-2150","countryCode":"DZA","name":"Tindouf","localName":"ولاية تندوف","labelEnglish":"Tindouf","labelLocal":"ولاية تندوف","labelBoth":"Tindouf · ولاية تندوف","type":"Province","iso":"DZ-37","qid":"Q231151"},"geometry":{"type":"Point","coordinates":[-5.8285,27.4985]}},{"type":"Feature","id":"DZA-2148","properties":{"kind":"division","code":"DZA-2148","countryCode":"DZA","name":"Béchar","localName":"ولاية بشار","labelEnglish":"Béchar","labelLocal":"ولاية بشار","labelBoth":"Béchar · ولاية بشار","type":"Province","iso":"DZ-08","qid":"Q215467"},"geometry":{"type":"Polygon","coordinates":[[[-1.2734,32.2294],[-1.2496,32.0817],[-2.5161,32.1322],[-2.9387,32.0486],[-2.8278,31.7946],[-3.1617,31.7325],[-3.6595,31.6478],[-3.8192,31.3189],[-3.5547,30.9559],[-3.6455,30.7113],[-4.3724,30.5086],[-4.7707,30.2291],[-5.1761,29.9775],[-5.5395,29.5232],[-6.0008,29.5791],[-5.2668,28.2072],[-3.7506,28.5669],[-3.5526,28.5824],[-3.0227,28.331],[-2.5697,28.3811],[-1.876,28.779],[-0.9584,28.923],[-0.8257,29.0082],[-0.1992,29.745],[0.3991,30.7087],[-0.154,31.1238],[-0.4011,31.4293],[-0.0394,32.3273],[-0.8451,32.11],[-1.2734,32.2294]]]}},{"type":"Feature","id":"label-DZA-2148","properties":{"kind":"division-label","code":"DZA-2148","countryCode":"DZA","name":"Béchar","localName":"ولاية بشار","labelEnglish":"Béchar","labelLocal":"ولاية بشار","labelBoth":"Béchar · ولاية بشار","type":"Province","iso":"DZ-08","qid":"Q215467"},"geometry":{"type":"Point","coordinates":[-2.81838,30.1882]}},{"type":"Feature","id":"DZA-2164","properties":{"kind":"division","code":"DZA-2164","countryCode":"DZA","name":"El Tarf","localName":"ولاية الطارف","labelEnglish":"El Tarf","labelLocal":"ولاية الطارف","labelBoth":"El Tarf · ولاية الطارف","type":"Province","iso":"DZ-36","qid":"Q236788"},"geometry":{"type":"Polygon","coordinates":[[[8.6025,36.9395],[7.7738,36.8898],[7.6497,36.6634],[7.9879,36.4844],[8.1679,36.492],[8.6025,36.9395]]]}},{"type":"Feature","id":"label-DZA-2164","properties":{"kind":"division-label","code":"DZA-2164","countryCode":"DZA","name":"El Tarf","localName":"ولاية الطارف","labelEnglish":"El Tarf","labelLocal":"ولاية الطارف","labelBoth":"El Tarf · ولاية الطارف","type":"Province","iso":"DZ-36","qid":"Q236788"},"geometry":{"type":"Point","coordinates":[8.14597,36.7012]}},{"type":"Feature","id":"DZA-2191","properties":{"kind":"division","code":"DZA-2191","countryCode":"DZA","name":"El Oued","localName":"El Oued","labelEnglish":"El Oued","labelLocal":"El Oued","labelBoth":"El Oued","type":"Province","iso":"DZ-39","qid":"Q233651"},"geometry":{"type":"Polygon","coordinates":[[[7.7083,33.4107],[7.4798,33.8939],[7.5392,34.1138],[7.1358,34.1606],[6.6959,34.3761],[6.5055,34.3197],[5.3193,34.4989],[5.1855,34.3567],[5.3599,34.1662],[5.3348,33.846],[5.1218,33.5727],[5.008,33.4419],[6.193,33.377],[6.3786,33.3176],[6.6838,32.5118],[7.0309,32.053],[7.3138,32.0023],[9.0633,32.0002],[9.0199,32.1049],[8.3326,32.5264],[8.2829,32.8364],[8.0868,33.0943],[7.7507,33.2077],[7.7083,33.4107]]]}},{"type":"Feature","id":"label-DZA-2191","properties":{"kind":"division-label","code":"DZA-2191","countryCode":"DZA","name":"El Oued","localName":"El Oued","labelEnglish":"El Oued","labelLocal":"El Oued","labelBoth":"El Oued","type":"Province","iso":"DZ-39","qid":"Q233651"},"geometry":{"type":"Point","coordinates":[7.03557,33.1137]}},{"type":"Feature","id":"DZA-2223","properties":{"kind":"division","code":"DZA-2223","countryCode":"DZA","name":"Tébessa","localName":"ولاية تبسة","labelEnglish":"Tébessa","labelLocal":"ولاية تبسة","labelBoth":"Tébessa · ولاية تبسة","type":"Province","iso":"DZ-12","qid":"Q267224"},"geometry":{"type":"Polygon","coordinates":[[[8.1025,34.5364],[8.2587,34.7413],[8.3272,35.6214],[8.2684,35.9699],[7.8659,35.8587],[7.8407,35.6152],[7.5448,35.4478],[7.426,35.3973],[7.3977,34.7264],[7.1358,34.1606],[7.5392,34.1138],[7.8315,34.4144],[8.1025,34.5364]]]}},{"type":"Feature","id":"label-DZA-2223","properties":{"kind":"division-label","code":"DZA-2223","countryCode":"DZA","name":"Tébessa","localName":"ولاية تبسة","labelEnglish":"Tébessa","labelLocal":"ولاية تبسة","labelBoth":"Tébessa · ولاية تبسة","type":"Province","iso":"DZ-12","qid":"Q267224"},"geometry":{"type":"Point","coordinates":[7.78338,34.9437]}},{"type":"Feature","id":"DZA-2222","properties":{"kind":"division","code":"DZA-2222","countryCode":"DZA","name":"Souk Ahras","localName":"ولاية سوق أهراس","labelEnglish":"Souk Ahras","labelLocal":"ولاية سوق أهراس","labelBoth":"Souk Ahras · ولاية سوق أهراس","type":"Province","iso":"DZ-41","qid":"Q236772"},"geometry":{"type":"Polygon","coordinates":[[[8.3554,36.3561],[8.1679,36.492],[7.9879,36.4844],[7.8294,36.315],[7.3259,36.1274],[7.5639,35.8399],[7.8659,35.8587],[8.2684,35.9699],[8.3554,36.3561]]]}},{"type":"Feature","id":"label-DZA-2222","properties":{"kind":"division-label","code":"DZA-2222","countryCode":"DZA","name":"Souk Ahras","localName":"ولاية سوق أهراس","labelEnglish":"Souk Ahras","labelLocal":"ولاية سوق أهراس","labelBoth":"Souk Ahras · ولاية سوق أهراس","type":"Province","iso":"DZ-41","qid":"Q236772"},"geometry":{"type":"Point","coordinates":[7.84211,36.1547]}},{"type":"Feature","id":"DZA-2194","properties":{"kind":"division","code":"DZA-2194","countryCode":"DZA","name":"Ouargla","localName":"ورقلة","labelEnglish":"Ouargla","labelLocal":"ورقلة","labelBoth":"Ouargla · ورقلة","type":"Province","iso":"DZ-30","qid":"Q235709"},"geometry":{"type":"Polygon","coordinates":[[[9.0633,32.0002],[7.3138,32.0023],[7.0309,32.053],[6.6838,32.5118],[6.3786,33.3176],[6.193,33.377],[5.008,33.4419],[4.9783,32.8408],[4.7389,32.5319],[4.3989,32.2963],[4.1108,31.7914],[3.8025,29.9898],[3.4796,29.6368],[3.3445,29.3066],[2.986,29.1235],[3.8156,28.5459],[4.7505,28.4619],[5.9527,28.4908],[6.7874,28.8683],[7.1464,28.8394],[9.3695,30.0228],[9.5197,30.2289],[9.0633,32.0002]]]}},{"type":"Feature","id":"label-DZA-2194","properties":{"kind":"division-label","code":"DZA-2194","countryCode":"DZA","name":"Ouargla","localName":"ورقلة","labelEnglish":"Ouargla","labelLocal":"ورقلة","labelBoth":"Ouargla · ورقلة","type":"Province","iso":"DZ-30","qid":"Q235709"},"geometry":{"type":"Point","coordinates":[6.2527,31.0014]}},{"type":"Feature","id":"DZA-2188","properties":{"kind":"division","code":"DZA-2188","countryCode":"DZA","name":"Illizi","localName":"ولاية اليزي","labelEnglish":"Illizi","labelLocal":"ولاية اليزي","labelBoth":"Illizi · ولاية اليزي","type":"Province","iso":"DZ-33","qid":"Q233659"},"geometry":{"type":"Polygon","coordinates":[[[9.3695,30.0228],[7.1464,28.8394],[6.7874,28.8683],[5.9527,28.4908],[6.5109,28.0899],[6.5666,27.8881],[6.2578,27.7655],[5.8157,27.3214],[5.9504,26.8618],[6.2699,26.5126],[6.1788,26.2316],[6.5185,25.9114],[6.9586,25.7598],[7.1707,25.2864],[7.1254,24.8951],[7.3202,24.7028],[7.9567,24.3667],[8.5213,24.2286],[8.7125,24.0014],[11.7101,24.0001],[11.4672,24.3263],[10.7207,24.5523],[10.3918,24.48],[10.032,24.8563],[9.9695,25.3954],[9.4012,26.1134],[9.4826,26.3526],[9.8358,26.5042],[9.9106,26.8431],[9.7213,27.2919],[9.9313,27.8186],[9.777,28.2676],[9.8273,28.6186],[9.8261,29.1285],[9.6677,29.6083],[9.3695,30.0228]]]}},{"type":"Feature","id":"label-DZA-2188","properties":{"kind":"division-label","code":"DZA-2188","countryCode":"DZA","name":"Illizi","localName":"ولاية اليزي","labelEnglish":"Illizi","labelLocal":"ولاية اليزي","labelBoth":"Illizi · ولاية اليزي","type":"Province","iso":"DZ-33","qid":"Q233659"},"geometry":{"type":"Point","coordinates":[8.7628,26.8506]}},{"type":"Feature","id":"DZA-2149","properties":{"kind":"division","code":"DZA-2149","countryCode":"DZA","name":"Naama","localName":"ولاية النعامة","labelEnglish":"Naama","labelLocal":"ولاية النعامة","labelBoth":"Naama · ولاية النعامة","type":"Province","iso":"DZ-45","qid":"Q233675"},"geometry":{"type":"Polygon","coordinates":[[[-1.2734,32.2294],[-0.8451,32.11],[-0.0394,32.3273],[-0.0989,32.5907],[0.0681,33.3761],[0.086,34.0483],[-0.2289,34.0539],[-0.3498,33.9217],[-0.4857,34.2293],[-1.1204,34.2713],[-1.6721,34.092],[-1.7407,33.6866],[-1.6127,33.5215],[-1.6742,33.238],[-1.4995,33.0602],[-1.4233,32.7424],[-1.0475,32.517],[-1.2734,32.2294]]]}},{"type":"Feature","id":"label-DZA-2149","properties":{"kind":"division-label","code":"DZA-2149","countryCode":"DZA","name":"Naama","localName":"ولاية النعامة","labelEnglish":"Naama","labelLocal":"ولاية النعامة","labelBoth":"Naama · ولاية النعامة","type":"Province","iso":"DZ-45","qid":"Q233675"},"geometry":{"type":"Point","coordinates":[-0.830564,33.1649]}},{"type":"Feature","id":"DZA-2147","properties":{"kind":"division","code":"DZA-2147","countryCode":"DZA","name":"Tlemcen","localName":"تلمسان","labelEnglish":"Tlemcen","labelLocal":"تلمسان","labelBoth":"Tlemcen · تلمسان","type":"Province","iso":"DZ-13","qid":"Q233632"},"geometry":{"type":"Polygon","coordinates":[[[-1.6721,34.092],[-1.1204,34.2713],[-0.7612,34.7024],[-1.0005,35.0874],[-1.362,35.3199],[-1.7611,35.1296],[-2.2226,35.0893],[-1.7695,34.7413],[-1.8711,34.5966],[-1.6721,34.092]]]}},{"type":"Feature","id":"label-DZA-2147","properties":{"kind":"division-label","code":"DZA-2147","countryCode":"DZA","name":"Tlemcen","localName":"تلمسان","labelEnglish":"Tlemcen","labelLocal":"تلمسان","labelBoth":"Tlemcen · تلمسان","type":"Province","iso":"DZ-13","qid":"Q233632"},"geometry":{"type":"Point","coordinates":[-1.49045,34.7431]}},{"type":"Feature","id":"DZA-2163","properties":{"kind":"division","code":"DZA-2163","countryCode":"DZA","name":"Annaba","localName":"ولاية عنابة","labelEnglish":"Annaba","labelLocal":"ولاية عنابة","labelBoth":"Annaba · ولاية عنابة","type":"Province","iso":"DZ-23","qid":"Q213944"},"geometry":{"type":"Polygon","coordinates":[[[7.2627,37.076],[7.3842,36.7261],[7.6497,36.6634],[7.7738,36.8898],[7.7986,36.9936],[7.2627,37.076]]]}},{"type":"Feature","id":"label-DZA-2163","properties":{"kind":"division-label","code":"DZA-2163","countryCode":"DZA","name":"Annaba","localName":"ولاية عنابة","labelEnglish":"Annaba","labelLocal":"ولاية عنابة","labelBoth":"Annaba · ولاية عنابة","type":"Province","iso":"DZ-23","qid":"Q213944"},"geometry":{"type":"Point","coordinates":[7.53073,36.823]}},{"type":"Feature","id":"DZA-2166","properties":{"kind":"division","code":"DZA-2166","countryCode":"DZA","name":"Skikda","localName":"سكيكدة","labelEnglish":"Skikda","labelLocal":"سكيكدة","labelBoth":"Skikda · سكيكدة","type":"Province","iso":"DZ-21","qid":"Q234227"},"geometry":{"type":"Polygon","coordinates":[[[6.2478,36.9353],[6.4574,36.5799],[6.5041,36.5777],[6.9201,36.5571],[6.938,36.4329],[7.3842,36.7261],[7.2627,37.076],[6.9094,36.8931],[6.4624,37.0939],[6.2478,36.9353]]]}},{"type":"Feature","id":"label-DZA-2166","properties":{"kind":"division-label","code":"DZA-2166","countryCode":"DZA","name":"Skikda","localName":"سكيكدة","labelEnglish":"Skikda","labelLocal":"سكيكدة","labelBoth":"Skikda · سكيكدة","type":"Province","iso":"DZ-21","qid":"Q234227"},"geometry":{"type":"Point","coordinates":[6.81608,36.7555]}},{"type":"Feature","id":"DZA-2165","properties":{"kind":"division","code":"DZA-2165","countryCode":"DZA","name":"Jijel","localName":"ولاية جيجل","labelEnglish":"Jijel","labelLocal":"ولاية جيجل","labelBoth":"Jijel · ولاية جيجل","type":"Province","iso":"DZ-18","qid":"Q235718"},"geometry":{"type":"Polygon","coordinates":[[[5.428,36.6639],[5.4755,36.5906],[5.7372,36.5551],[6.4574,36.5799],[6.2478,36.9353],[5.7588,36.8334],[5.428,36.6639]]]}},{"type":"Feature","id":"label-DZA-2165","properties":{"kind":"division-label","code":"DZA-2165","countryCode":"DZA","name":"Jijel","localName":"ولاية جيجل","labelEnglish":"Jijel","labelLocal":"ولاية جيجل","labelBoth":"Jijel · ولاية جيجل","type":"Province","iso":"DZ-18","qid":"Q235718"},"geometry":{"type":"Point","coordinates":[5.95292,36.7106]}},{"type":"Feature","id":"DZA-2208","properties":{"kind":"division","code":"DZA-2208","countryCode":"DZA","name":"Béjaïa","localName":"بجاية","labelEnglish":"Béjaïa","labelLocal":"بجاية","labelBoth":"Béjaïa · بجاية","type":"Province","iso":"DZ-06","qid":"Q233665"},"geometry":{"type":"Polygon","coordinates":[[[4.5915,36.8953],[4.5281,36.5685],[4.3709,36.4727],[4.3564,36.3404],[4.6202,36.2479],[4.8011,36.3797],[5.0765,36.5743],[5.3032,36.3893],[5.4755,36.5906],[5.428,36.6639],[4.5915,36.8953]]]}},{"type":"Feature","id":"label-DZA-2208","properties":{"kind":"division-label","code":"DZA-2208","countryCode":"DZA","name":"Béjaïa","localName":"بجاية","labelEnglish":"Béjaïa","labelLocal":"بجاية","labelBoth":"Béjaïa · بجاية","type":"Province","iso":"DZ-06","qid":"Q233665"},"geometry":{"type":"Point","coordinates":[4.91591,36.6189]}},{"type":"Feature","id":"DZA-2197","properties":{"kind":"division","code":"DZA-2197","countryCode":"DZA","name":"Tizi Ouzou","localName":"ولاية غليزان","labelEnglish":"Tizi Ouzou","labelLocal":"ولاية غليزان","labelBoth":"Tizi Ouzou · ولاية غليزان","type":"Province","iso":"DZ-15","qid":"Q233645"},"geometry":{"type":"Polygon","coordinates":[[[4.0395,36.8969],[3.7337,36.6076],[3.9361,36.4744],[4.3709,36.4727],[4.5281,36.5685],[4.5915,36.8953],[4.0395,36.8969]]]}},{"type":"Feature","id":"label-DZA-2197","properties":{"kind":"division-label","code":"DZA-2197","countryCode":"DZA","name":"Tizi Ouzou","localName":"ولاية غليزان","labelEnglish":"Tizi Ouzou","labelLocal":"ولاية غليزان","labelBoth":"Tizi Ouzou · ولاية غليزان","type":"Province","iso":"DZ-15","qid":"Q233645"},"geometry":{"type":"Point","coordinates":[4.19086,36.6814]}},{"type":"Feature","id":"DZA-2196","properties":{"kind":"division","code":"DZA-2196","countryCode":"DZA","name":"Boumerdès","localName":"ولاية بومرداس","labelEnglish":"Boumerdès","labelLocal":"ولاية بومرداس","labelBoth":"Boumerdès · ولاية بومرداس","type":"Province","iso":"DZ-35","qid":"Q236752"},"geometry":{"type":"Polygon","coordinates":[[[3.1733,36.7426],[3.2298,36.6851],[3.4774,36.6886],[3.7337,36.6076],[4.0395,36.8969],[3.8275,36.9129],[3.1733,36.7426]]]}},{"type":"Feature","id":"label-DZA-2196","properties":{"kind":"division-label","code":"DZA-2196","countryCode":"DZA","name":"Boumerdès","localName":"ولاية بومرداس","labelEnglish":"Boumerdès","labelLocal":"ولاية بومرداس","labelBoth":"Boumerdès · ولاية بومرداس","type":"Province","iso":"DZ-35","qid":"Q236752"},"geometry":{"type":"Point","coordinates":[3.60632,36.7503]}},{"type":"Feature","id":"DZA-2195","properties":{"kind":"division","code":"DZA-2195","countryCode":"DZA","name":"Algiers","localName":"ولاية الجزائر","labelEnglish":"Algiers","labelLocal":"ولاية الجزائر","labelBoth":"Algiers · ولاية الجزائر","type":"Province","iso":"DZ-16","qid":"Q141026"},"geometry":{"type":"Polygon","coordinates":[[[2.9849,36.815],[3.0251,36.7101],[3.2298,36.6851],[3.1733,36.7426],[2.9849,36.815]]]}},{"type":"Feature","id":"label-DZA-2195","properties":{"kind":"division-label","code":"DZA-2195","countryCode":"DZA","name":"Algiers","localName":"ولاية الجزائر","labelEnglish":"Algiers","labelLocal":"ولاية الجزائر","labelBoth":"Algiers · ولاية الجزائر","type":"Province","iso":"DZ-16","qid":"Q141026"},"geometry":{"type":"Point","coordinates":[3.09806,36.7024]}},{"type":"Feature","id":"DZA-2198","properties":{"kind":"division","code":"DZA-2198","countryCode":"DZA","name":"Tipasa","localName":"ولاية تيبازة","labelEnglish":"Tipasa","labelLocal":"ولاية تيبازة","labelBoth":"Tipasa · ولاية تيبازة","type":"Province","iso":"DZ-42","qid":"Q235814"},"geometry":{"type":"Polygon","coordinates":[[[1.7009,36.5472],[1.6478,36.4432],[2.4763,36.4206],[3.0251,36.7101],[2.9849,36.815],[2.633,36.6051],[1.7009,36.5472]]]}},{"type":"Feature","id":"label-DZA-2198","properties":{"kind":"division-label","code":"DZA-2198","countryCode":"DZA","name":"Tipasa","localName":"ولاية تيبازة","labelEnglish":"Tipasa","labelLocal":"ولاية تيبازة","labelBoth":"Tipasa · ولاية تيبازة","type":"Province","iso":"DZ-42","qid":"Q235814"},"geometry":{"type":"Point","coordinates":[2.34141,36.527]}},{"type":"Feature","id":"DZA-2200","properties":{"kind":"division","code":"DZA-2200","countryCode":"DZA","name":"Chlef","localName":"ولاية الشلف","labelEnglish":"Chlef","labelLocal":"ولاية الشلف","labelBoth":"Chlef · ولاية الشلف","type":"Province","iso":"DZ-02","qid":"Q231752"},"geometry":{"type":"Polygon","coordinates":[[[0.7404,36.3378],[0.7041,36.1865],[1.4116,35.8416],[1.7127,35.9234],[1.5595,36.381],[1.6478,36.4432],[1.7009,36.5472],[1.0448,36.4869],[0.7404,36.3378]]]}},{"type":"Feature","id":"label-DZA-2200","properties":{"kind":"division-label","code":"DZA-2200","countryCode":"DZA","name":"Chlef","localName":"ولاية الشلف","labelEnglish":"Chlef","labelLocal":"ولاية الشلف","labelBoth":"Chlef · ولاية الشلف","type":"Province","iso":"DZ-02","qid":"Q231752"},"geometry":{"type":"Point","coordinates":[1.21078,36.2337]}},{"type":"Feature","id":"DZA-2202","properties":{"kind":"division","code":"DZA-2202","countryCode":"DZA","name":"Mostaganem","localName":"ولاية مستغانم","labelEnglish":"Mostaganem","labelLocal":"ولاية مستغانم","labelBoth":"Mostaganem · ولاية مستغانم","type":"Province","iso":"DZ-27","qid":"Q221445"},"geometry":{"type":"Polygon","coordinates":[[[-0.1137,35.7888],[-0.1144,35.7838],[0.2294,35.6959],[0.7041,36.1865],[0.7404,36.3378],[0.1273,36.0508],[-0.1137,35.7888]]]}},{"type":"Feature","id":"label-DZA-2202","properties":{"kind":"division-label","code":"DZA-2202","countryCode":"DZA","name":"Mostaganem","localName":"ولاية مستغانم","labelEnglish":"Mostaganem","labelLocal":"ولاية مستغانم","labelBoth":"Mostaganem · ولاية مستغانم","type":"Province","iso":"DZ-27","qid":"Q221445"},"geometry":{"type":"Point","coordinates":[0.313449,35.9631]}},{"type":"Feature","id":"DZA-2145","properties":{"kind":"division","code":"DZA-2145","countryCode":"DZA","name":"Oran","localName":"ولاية وهران","labelEnglish":"Oran","labelLocal":"ولاية وهران","labelBoth":"Oran · ولاية وهران","type":"Province","iso":"DZ-31","qid":"Q231331"},"geometry":{"type":"Polygon","coordinates":[[[-1.1064,35.6232],[-0.6689,35.332],[-0.5454,35.412],[-0.1144,35.7838],[-0.1137,35.7888],[-0.3485,35.9071],[-0.6826,35.7174],[-1.1064,35.6232]]]}},{"type":"Feature","id":"label-DZA-2145","properties":{"kind":"division-label","code":"DZA-2145","countryCode":"DZA","name":"Oran","localName":"ولاية وهران","labelEnglish":"Oran","labelLocal":"ولاية وهران","labelBoth":"Oran · ولاية وهران","type":"Province","iso":"DZ-31","qid":"Q231331"},"geometry":{"type":"Point","coordinates":[-0.610009,35.5208]}},{"type":"Feature","id":"DZA-2144","properties":{"kind":"division","code":"DZA-2144","countryCode":"DZA","name":"Aïn Témouchent","localName":"ولاية عين تموشنت","labelEnglish":"Aïn Témouchent","labelLocal":"ولاية عين تموشنت","labelBoth":"Aïn Témouchent · ولاية عين تموشنت","type":"Province","iso":"DZ-46","qid":"Q233670"},"geometry":{"type":"Polygon","coordinates":[[[-1.362,35.3199],[-1.0005,35.0874],[-0.6689,35.332],[-1.1064,35.6232],[-1.362,35.3199]]]}},{"type":"Feature","id":"label-DZA-2144","properties":{"kind":"division-label","code":"DZA-2144","countryCode":"DZA","name":"Aïn Témouchent","localName":"ولاية عين تموشنت","labelEnglish":"Aïn Témouchent","labelLocal":"ولاية عين تموشنت","labelBoth":"Aïn Témouchent · ولاية عين تموشنت","type":"Province","iso":"DZ-46","qid":"Q233670"},"geometry":{"type":"Point","coordinates":[-0.995722,35.2708]}},{"type":"Feature","id":"DZA-2215","properties":{"kind":"division","code":"DZA-2215","countryCode":"DZA","name":"Sétif","localName":"ولاية سطيف","labelEnglish":"Sétif","labelLocal":"ولاية سطيف","labelBoth":"Sétif · ولاية سطيف","type":"Province","iso":"DZ-19","qid":"Q237164"},"geometry":{"type":"Polygon","coordinates":[[[4.8011,36.3797],[5.2433,36.1544],[5.0545,35.7773],[5.3797,35.6329],[5.5889,35.8231],[5.9767,35.9158],[5.8724,36.4019],[5.7372,36.5551],[5.4755,36.5906],[5.3032,36.3893],[5.0765,36.5743],[4.8011,36.3797]]]}},{"type":"Feature","id":"label-DZA-2215","properties":{"kind":"division-label","code":"DZA-2215","countryCode":"DZA","name":"Sétif","localName":"ولاية سطيف","labelEnglish":"Sétif","labelLocal":"ولاية سطيف","labelBoth":"Sétif · ولاية سطيف","type":"Province","iso":"DZ-19","qid":"Q237164"},"geometry":{"type":"Point","coordinates":[5.38428,36.0513]}},{"type":"Feature","id":"DZA-2207","properties":{"kind":"division","code":"DZA-2207","countryCode":"DZA","name":"Bordj Bou Arréridj","localName":"ولاية برج بوعريريج","labelEnglish":"Bordj Bou Arréridj","labelLocal":"ولاية برج بوعريريج","labelBoth":"Bordj Bou Arréridj · ولاية برج بوعريريج","type":"Province","iso":"DZ-34","qid":"Q266411"},"geometry":{"type":"Polygon","coordinates":[[[4.8011,36.3797],[4.6202,36.2479],[4.3564,36.3404],[4.0843,36.0291],[5.0545,35.7773],[5.2433,36.1544],[4.8011,36.3797]]]}},{"type":"Feature","id":"label-DZA-2207","properties":{"kind":"division-label","code":"DZA-2207","countryCode":"DZA","name":"Bordj Bou Arréridj","localName":"ولاية برج بوعريريج","labelEnglish":"Bordj Bou Arréridj","labelLocal":"ولاية برج بوعريريج","labelBoth":"Bordj Bou Arréridj · ولاية برج بوعريريج","type":"Province","iso":"DZ-34","qid":"Q266411"},"geometry":{"type":"Point","coordinates":[4.66926,36.0966]}},{"type":"Feature","id":"DZA-2210","properties":{"kind":"division","code":"DZA-2210","countryCode":"DZA","name":"Bouïra","localName":"ولاية البويرة","labelEnglish":"Bouïra","labelLocal":"ولاية البويرة","labelBoth":"Bouïra · ولاية البويرة","type":"Province","iso":"DZ-10","qid":"Q233655"},"geometry":{"type":"Polygon","coordinates":[[[4.3564,36.3404],[4.3709,36.4727],[3.9361,36.4744],[3.7337,36.6076],[3.4774,36.6886],[3.283,36.4902],[3.5605,36.412],[3.6284,35.9228],[4.0223,35.8669],[4.0843,36.0291],[4.3564,36.3404]]]}},{"type":"Feature","id":"label-DZA-2210","properties":{"kind":"division-label","code":"DZA-2210","countryCode":"DZA","name":"Bouïra","localName":"ولاية البويرة","labelEnglish":"Bouïra","labelLocal":"ولاية البويرة","labelBoth":"Bouïra · ولاية البويرة","type":"Province","iso":"DZ-10","qid":"Q233655"},"geometry":{"type":"Point","coordinates":[3.84375,36.1884]}},{"type":"Feature","id":"DZA-2209","properties":{"kind":"division","code":"DZA-2209","countryCode":"DZA","name":"Blida","localName":"البليدة","labelEnglish":"Blida","labelLocal":"البليدة","labelBoth":"Blida · البليدة","type":"Province","iso":"DZ-09","qid":"Q233637"},"geometry":{"type":"Polygon","coordinates":[[[3.4774,36.6886],[3.2298,36.6851],[3.0251,36.7101],[2.4763,36.4206],[2.6611,36.3631],[2.9963,36.3533],[3.283,36.4902],[3.4774,36.6886]]]}},{"type":"Feature","id":"label-DZA-2209","properties":{"kind":"division-label","code":"DZA-2209","countryCode":"DZA","name":"Blida","localName":"البليدة","labelEnglish":"Blida","labelLocal":"البليدة","labelBoth":"Blida · البليدة","type":"Province","iso":"DZ-09","qid":"Q233637"},"geometry":{"type":"Point","coordinates":[2.99331,36.503]}},{"type":"Feature","id":"DZA-2206","properties":{"kind":"division","code":"DZA-2206","countryCode":"DZA","name":"Tissemsilt","localName":"ولاية تسمسيلت","labelEnglish":"Tissemsilt","labelLocal":"ولاية تسمسيلت","labelBoth":"Tissemsilt · ولاية تسمسيلت","type":"Province","iso":"DZ-38","qid":"Q235805"},"geometry":{"type":"Polygon","coordinates":[[[1.7127,35.9234],[1.4116,35.8416],[1.2456,35.6473],[1.6346,35.5505],[2.2497,35.5596],[2.3118,35.867],[1.7127,35.9234]]]}},{"type":"Feature","id":"label-DZA-2206","properties":{"kind":"division-label","code":"DZA-2206","countryCode":"DZA","name":"Tissemsilt","localName":"ولاية تسمسيلت","labelEnglish":"Tissemsilt","labelLocal":"ولاية تسمسيلت","labelBoth":"Tissemsilt · ولاية تسمسيلت","type":"Province","iso":"DZ-38","qid":"Q235805"},"geometry":{"type":"Point","coordinates":[1.77868,35.7302]}},{"type":"Feature","id":"DZA-2199","properties":{"kind":"division","code":"DZA-2199","countryCode":"DZA","name":"Aïn Defla","localName":"ولاية عين الدفلى","labelEnglish":"Aïn Defla","labelLocal":"ولاية عين الدفلى","labelBoth":"Aïn Defla · ولاية عين الدفلى","type":"Province","iso":"DZ-44","qid":"Q168953"},"geometry":{"type":"Polygon","coordinates":[[[1.7127,35.9234],[2.3118,35.867],[2.6423,36.1989],[2.6611,36.3631],[2.4763,36.4206],[1.6478,36.4432],[1.5595,36.381],[1.7127,35.9234]]]}},{"type":"Feature","id":"label-DZA-2199","properties":{"kind":"division-label","code":"DZA-2199","countryCode":"DZA","name":"Aïn Defla","localName":"ولاية عين الدفلى","labelEnglish":"Aïn Defla","labelLocal":"ولاية عين الدفلى","labelBoth":"Aïn Defla · ولاية عين الدفلى","type":"Province","iso":"DZ-44","qid":"Q168953"},"geometry":{"type":"Point","coordinates":[2.10714,36.1735]}},{"type":"Feature","id":"DZA-2203","properties":{"kind":"division","code":"DZA-2203","countryCode":"DZA","name":"Relizane","localName":"ولاية غليزان","labelEnglish":"Relizane","labelLocal":"ولاية غليزان","labelBoth":"Relizane · ولاية غليزان","type":"Province","iso":"DZ-48","qid":"Q236758"},"geometry":{"type":"Polygon","coordinates":[[[1.4116,35.8416],[0.7041,36.1865],[0.2294,35.6959],[0.3191,35.5578],[0.8279,35.4435],[1.2456,35.6473],[1.4116,35.8416]]]}},{"type":"Feature","id":"label-DZA-2203","properties":{"kind":"division-label","code":"DZA-2203","countryCode":"DZA","name":"Relizane","localName":"ولاية غليزان","labelEnglish":"Relizane","labelLocal":"ولاية غليزان","labelBoth":"Relizane · ولاية غليزان","type":"Province","iso":"DZ-48","qid":"Q236758"},"geometry":{"type":"Point","coordinates":[0.820498,35.8174]}},{"type":"Feature","id":"DZA-2190","properties":{"kind":"division","code":"DZA-2190","countryCode":"DZA","name":"El Bayadh","localName":"ولاية البيض","labelEnglish":"El Bayadh","labelLocal":"ولاية البيض","labelBoth":"El Bayadh · ولاية البيض","type":"Province","iso":"DZ-32","qid":"Q235703"},"geometry":{"type":"Polygon","coordinates":[[[0.7576,34.4382],[0.086,34.0483],[0.0681,33.3761],[-0.0989,32.5907],[-0.0394,32.3273],[-0.4011,31.4293],[-0.154,31.1238],[0.3991,30.7087],[1.033,31.2018],[2.0854,31.6586],[2.2393,31.7735],[2.3433,32.1327],[2.2915,32.696],[1.9752,33.2922],[2.0193,33.499],[1.76,33.8426],[1.3362,34.0689],[0.7576,34.4382]]]}},{"type":"Feature","id":"label-DZA-2190","properties":{"kind":"division-label","code":"DZA-2190","countryCode":"DZA","name":"El Bayadh","localName":"ولاية البيض","labelEnglish":"El Bayadh","labelLocal":"ولاية البيض","labelBoth":"El Bayadh · ولاية البيض","type":"Province","iso":"DZ-32","qid":"Q235703"},"geometry":{"type":"Point","coordinates":[0.971858,32.7753]}},{"type":"Feature","id":"DZA-2204","properties":{"kind":"division","code":"DZA-2204","countryCode":"DZA","name":"Saïda","localName":"ولاية سعيدة","labelEnglish":"Saïda","labelLocal":"ولاية سعيدة","labelBoth":"Saïda · ولاية سعيدة","type":"Province","iso":"DZ-20","qid":"Q233640"},"geometry":{"type":"Polygon","coordinates":[[[0.7576,34.4382],[0.8563,34.5021],[0.4922,35.0863],[0.2098,35.0215],[-0.1652,35.1229],[-0.285,34.8975],[-0.0526,34.5876],[-0.4857,34.2293],[-0.3498,33.9217],[-0.2289,34.0539],[0.086,34.0483],[0.7576,34.4382]]]}},{"type":"Feature","id":"label-DZA-2204","properties":{"kind":"division-label","code":"DZA-2204","countryCode":"DZA","name":"Saïda","localName":"ولاية سعيدة","labelEnglish":"Saïda","labelLocal":"ولاية سعيدة","labelBoth":"Saïda · ولاية سعيدة","type":"Province","iso":"DZ-20","qid":"Q233640"},"geometry":{"type":"Point","coordinates":[0.178599,34.5917]}},{"type":"Feature","id":"DZA-2146","properties":{"kind":"division","code":"DZA-2146","countryCode":"DZA","name":"Sidi Bel Abbès","localName":"ولاية سيدي بلعباس","labelEnglish":"Sidi Bel Abbès","labelLocal":"ولاية سيدي بلعباس","labelBoth":"Sidi Bel Abbès · ولاية سيدي بلعباس","type":"Province","iso":"DZ-22","qid":"Q235714"},"geometry":{"type":"Polygon","coordinates":[[[-0.1652,35.1229],[-0.2062,35.31],[-0.5454,35.412],[-0.6689,35.332],[-1.0005,35.0874],[-0.7612,34.7024],[-1.1204,34.2713],[-0.4857,34.2293],[-0.0526,34.5876],[-0.285,34.8975],[-0.1652,35.1229]]]}},{"type":"Feature","id":"label-DZA-2146","properties":{"kind":"division-label","code":"DZA-2146","countryCode":"DZA","name":"Sidi Bel Abbès","localName":"ولاية سيدي بلعباس","labelEnglish":"Sidi Bel Abbès","labelLocal":"ولاية سيدي بلعباس","labelBoth":"Sidi Bel Abbès · ولاية سيدي بلعباس","type":"Province","iso":"DZ-22","qid":"Q235714"},"geometry":{"type":"Point","coordinates":[-0.586496,34.8335]}},{"type":"Feature","id":"DZA-2201","properties":{"kind":"division","code":"DZA-2201","countryCode":"DZA","name":"Mascara","localName":"ولاية معسكر","labelEnglish":"Mascara","labelLocal":"ولاية معسكر","labelBoth":"Mascara · ولاية معسكر","type":"Province","iso":"DZ-29","qid":"Q236776"},"geometry":{"type":"Polygon","coordinates":[[[0.2294,35.6959],[-0.1144,35.7838],[-0.5454,35.412],[-0.2062,35.31],[-0.1652,35.1229],[0.2098,35.0215],[0.4922,35.0863],[0.8279,35.4435],[0.3191,35.5578],[0.2294,35.6959]]]}},{"type":"Feature","id":"label-DZA-2201","properties":{"kind":"division-label","code":"DZA-2201","countryCode":"DZA","name":"Mascara","localName":"ولاية معسكر","labelEnglish":"Mascara","labelLocal":"ولاية معسكر","labelBoth":"Mascara · ولاية معسكر","type":"Province","iso":"DZ-29","qid":"Q236776"},"geometry":{"type":"Point","coordinates":[0.167566,35.3625]}},{"type":"Feature","id":"DZA-2192","properties":{"kind":"division","code":"DZA-2192","countryCode":"DZA","name":"Ghardaïa","localName":"ولاية غرداية","labelEnglish":"Ghardaïa","labelLocal":"ولاية غرداية","labelBoth":"Ghardaïa · ولاية غرداية","type":"Province","iso":"DZ-47","qid":"Q17601"},"geometry":{"type":"Polygon","coordinates":[[[2.0854,31.6586],[2.0717,30.8597],[1.9434,30.0948],[2.0793,29.0364],[2.986,29.1235],[3.3445,29.3066],[3.4796,29.6368],[3.8025,29.9898],[4.1108,31.7914],[4.3989,32.2963],[4.7389,32.5319],[4.9783,32.8408],[4.1762,33.0296],[3.735,32.998],[3.2652,32.7812],[2.8873,32.8124],[2.2915,32.696],[2.3433,32.1327],[2.2393,31.7735],[2.0854,31.6586]]]}},{"type":"Feature","id":"label-DZA-2192","properties":{"kind":"division-label","code":"DZA-2192","countryCode":"DZA","name":"Ghardaïa","localName":"ولاية غرداية","labelEnglish":"Ghardaïa","labelLocal":"ولاية غرداية","labelBoth":"Ghardaïa · ولاية غرداية","type":"Province","iso":"DZ-47","qid":"Q17601"},"geometry":{"type":"Point","coordinates":[3.11396,31.1547]}},{"type":"Feature","id":"DZA-2193","properties":{"kind":"division","code":"DZA-2193","countryCode":"DZA","name":"Laghouat","localName":"ولاية الأغواط","labelEnglish":"Laghouat","labelLocal":"ولاية الأغواط","labelBoth":"Laghouat · ولاية الأغواط","type":"Province","iso":"DZ-03","qid":"Q231748"},"geometry":{"type":"Polygon","coordinates":[[[2.2915,32.696],[2.8873,32.8124],[3.2652,32.7812],[3.735,32.998],[4.1762,33.0296],[4.0283,33.2804],[3.2321,33.9474],[3.1039,34.2297],[2.9332,34.2544],[2.49,33.9174],[2.3045,34.4126],[2.3577,34.6929],[1.8328,34.4643],[1.3362,34.0689],[1.76,33.8426],[2.0193,33.499],[1.9752,33.2922],[2.2915,32.696]]]}},{"type":"Feature","id":"label-DZA-2193","properties":{"kind":"division-label","code":"DZA-2193","countryCode":"DZA","name":"Laghouat","localName":"ولاية الأغواط","labelEnglish":"Laghouat","labelLocal":"ولاية الأغواط","labelBoth":"Laghouat · ولاية الأغواط","type":"Province","iso":"DZ-03","qid":"Q231748"},"geometry":{"type":"Point","coordinates":[2.75622,33.4521]}},{"type":"Feature","id":"DZA-2213","properties":{"kind":"division","code":"DZA-2213","countryCode":"DZA","name":"Médéa","localName":"ولاية المدية","labelEnglish":"Médéa","labelLocal":"ولاية المدية","labelBoth":"Médéa · ولاية المدية","type":"Province","iso":"DZ-26","qid":"Q235810"},"geometry":{"type":"Polygon","coordinates":[[[2.2497,35.5596],[2.2857,35.4391],[2.6369,35.4418],[2.8988,35.63],[3.3795,35.7512],[3.5432,35.6724],[3.6284,35.9228],[3.5605,36.412],[3.283,36.4902],[2.9963,36.3533],[2.6611,36.3631],[2.6423,36.1989],[2.3118,35.867],[2.2497,35.5596]]]}},{"type":"Feature","id":"label-DZA-2213","properties":{"kind":"division-label","code":"DZA-2213","countryCode":"DZA","name":"Médéa","localName":"ولاية المدية","labelEnglish":"Médéa","labelLocal":"ولاية المدية","labelBoth":"Médéa · ولاية المدية","type":"Province","iso":"DZ-26","qid":"Q235810"},"geometry":{"type":"Point","coordinates":[2.76411,35.8958]}},{"type":"Feature","id":"DZA-2205","properties":{"kind":"division","code":"DZA-2205","countryCode":"DZA","name":"Tiaret","localName":"ولاية تيارت","labelEnglish":"Tiaret","labelLocal":"ولاية تيارت","labelBoth":"Tiaret · ولاية تيارت","type":"Province","iso":"DZ-14","qid":"Q233258"},"geometry":{"type":"Polygon","coordinates":[[[2.2497,35.5596],[1.6346,35.5505],[1.2456,35.6473],[0.8279,35.4435],[0.4922,35.0863],[0.8563,34.5021],[0.7576,34.4382],[1.3362,34.0689],[1.8328,34.4643],[2.3577,34.6929],[2.6042,35.055],[2.2857,35.4391],[2.2497,35.5596]]]}},{"type":"Feature","id":"label-DZA-2205","properties":{"kind":"division-label","code":"DZA-2205","countryCode":"DZA","name":"Tiaret","localName":"ولاية تيارت","labelEnglish":"Tiaret","labelLocal":"ولاية تيارت","labelBoth":"Tiaret · ولاية تيارت","type":"Province","iso":"DZ-14","qid":"Q233258"},"geometry":{"type":"Point","coordinates":[1.55627,34.9048]}},{"type":"Feature","id":"DZA-2214","properties":{"kind":"division","code":"DZA-2214","countryCode":"DZA","name":"M'Sila","localName":"ولاية المسيلة","labelEnglish":"M'Sila","labelLocal":"ولاية المسيلة","labelBoth":"M'Sila · ولاية المسيلة","type":"Province","iso":"DZ-28","qid":"Q240870"},"geometry":{"type":"Polygon","coordinates":[[[5.0545,35.7773],[4.0843,36.0291],[4.0223,35.8669],[3.6284,35.9228],[3.5432,35.6724],[3.3795,35.7512],[3.6804,35.4956],[3.4736,35.158],[3.6711,34.7903],[3.906,34.7626],[4.0387,34.3716],[4.2137,34.2322],[4.1957,34.5257],[4.4347,34.7727],[4.9328,34.8389],[5.0386,35.0833],[4.777,35.1806],[4.887,35.5282],[5.3797,35.6329],[5.0545,35.7773]]]}},{"type":"Feature","id":"label-DZA-2214","properties":{"kind":"division-label","code":"DZA-2214","countryCode":"DZA","name":"M'Sila","localName":"ولاية المسيلة","labelEnglish":"M'Sila","labelLocal":"ولاية المسيلة","labelBoth":"M'Sila · ولاية المسيلة","type":"Province","iso":"DZ-28","qid":"Q240870"},"geometry":{"type":"Point","coordinates":[4.37961,35.3592]}},{"type":"Feature","id":"DZA-2216","properties":{"kind":"division","code":"DZA-2216","countryCode":"DZA","name":"Batna","localName":"ولاية باتنة","labelEnglish":"Batna","labelLocal":"ولاية باتنة","labelBoth":"Batna · ولاية باتنة","type":"Province","iso":"DZ-05","qid":"Q215452"},"geometry":{"type":"Polygon","coordinates":[[[5.9767,35.9158],[5.5889,35.8231],[5.3797,35.6329],[4.887,35.5282],[4.777,35.1806],[5.0386,35.0833],[5.6087,35.0984],[5.8209,35.2879],[6.0054,35.2263],[5.9931,34.9894],[6.4127,35.0688],[6.5879,34.7785],[6.5121,35.0524],[6.5874,35.4222],[6.7691,35.6839],[6.6495,35.7967],[6.1492,35.9004],[5.9767,35.9158]]]}},{"type":"Feature","id":"label-DZA-2216","properties":{"kind":"division-label","code":"DZA-2216","countryCode":"DZA","name":"Batna","localName":"ولاية باتنة","labelEnglish":"Batna","labelLocal":"ولاية باتنة","labelBoth":"Batna · ولاية باتنة","type":"Province","iso":"DZ-05","qid":"Q215452"},"geometry":{"type":"Point","coordinates":[5.78213,35.5923]}},{"type":"Feature","id":"DZA-2219","properties":{"kind":"division","code":"DZA-2219","countryCode":"DZA","name":"Khenchela","localName":"ولاية خنشلة","labelEnglish":"Khenchela","labelLocal":"ولاية خنشلة","labelBoth":"Khenchela · ولاية خنشلة","type":"Province","iso":"DZ-40","qid":"Q213950"},"geometry":{"type":"Polygon","coordinates":[[[6.7691,35.6839],[6.5874,35.4222],[6.5121,35.0524],[6.5879,34.7785],[6.7495,34.7122],[6.6959,34.3761],[7.1358,34.1606],[7.3977,34.7264],[7.426,35.3973],[7.5448,35.4478],[7.2883,35.6126],[6.7691,35.6839]]]}},{"type":"Feature","id":"label-DZA-2219","properties":{"kind":"division-label","code":"DZA-2219","countryCode":"DZA","name":"Khenchela","localName":"ولاية خنشلة","labelEnglish":"Khenchela","labelLocal":"ولاية خنشلة","labelBoth":"Khenchela · ولاية خنشلة","type":"Province","iso":"DZ-40","qid":"Q213950"},"geometry":{"type":"Point","coordinates":[7.02787,34.8896]}},{"type":"Feature","id":"DZA-2218","properties":{"kind":"division","code":"DZA-2218","countryCode":"DZA","name":"Guelma","localName":"ولاية قالمة","labelEnglish":"Guelma","labelLocal":"ولاية قالمة","labelBoth":"Guelma · ولاية قالمة","type":"Province","iso":"DZ-24","qid":"Q235727"},"geometry":{"type":"Polygon","coordinates":[[[7.0106,36.1552],[7.3259,36.1274],[7.8294,36.315],[7.9879,36.4844],[7.6497,36.6634],[7.3842,36.7261],[6.938,36.4329],[7.0106,36.1552]]]}},{"type":"Feature","id":"label-DZA-2218","properties":{"kind":"division-label","code":"DZA-2218","countryCode":"DZA","name":"Guelma","localName":"ولاية قالمة","labelEnglish":"Guelma","labelLocal":"ولاية قالمة","labelBoth":"Guelma · ولاية قالمة","type":"Province","iso":"DZ-24","qid":"Q235727"},"geometry":{"type":"Point","coordinates":[7.46291,36.4381]}},{"type":"Feature","id":"DZA-2217","properties":{"kind":"division","code":"DZA-2217","countryCode":"DZA","name":"Constantine","localName":"قسنطينة","labelEnglish":"Constantine","labelLocal":"قسنطينة","labelBoth":"Constantine · قسنطينة","type":"Province","iso":"DZ-25","qid":"Q232043"},"geometry":{"type":"Polygon","coordinates":[[[6.938,36.4329],[6.9201,36.5571],[6.5041,36.5777],[6.3487,36.3999],[6.5163,36.1656],[7.0106,36.1552],[6.938,36.4329]]]}},{"type":"Feature","id":"label-DZA-2217","properties":{"kind":"division-label","code":"DZA-2217","countryCode":"DZA","name":"Constantine","localName":"قسنطينة","labelEnglish":"Constantine","labelLocal":"قسنطينة","labelBoth":"Constantine · قسنطينة","type":"Province","iso":"DZ-25","qid":"Q232043"},"geometry":{"type":"Point","coordinates":[6.68301,36.3731]}},{"type":"Feature","id":"DZA-2220","properties":{"kind":"division","code":"DZA-2220","countryCode":"DZA","name":"Mila","localName":"ولاية ميلة","labelEnglish":"Mila","labelLocal":"ولاية ميلة","labelBoth":"Mila · ولاية ميلة","type":"Province","iso":"DZ-43","qid":"Q235723"},"geometry":{"type":"Polygon","coordinates":[[[5.7372,36.5551],[5.8724,36.4019],[5.9767,35.9158],[6.1492,35.9004],[6.5163,36.1656],[6.3487,36.3999],[6.5041,36.5777],[6.4574,36.5799],[5.7372,36.5551]]]}},{"type":"Feature","id":"label-DZA-2220","properties":{"kind":"division-label","code":"DZA-2220","countryCode":"DZA","name":"Mila","localName":"ولاية ميلة","labelEnglish":"Mila","labelLocal":"ولاية ميلة","labelBoth":"Mila · ولاية ميلة","type":"Province","iso":"DZ-43","qid":"Q235723"},"geometry":{"type":"Point","coordinates":[6.1311,36.2449]}},{"type":"Feature","id":"DZA-2221","properties":{"kind":"division","code":"DZA-2221","countryCode":"DZA","name":"Oum El Bouaghi","localName":"ولاية أم البواقي","labelEnglish":"Oum El Bouaghi","labelLocal":"ولاية أم البواقي","labelBoth":"Oum El Bouaghi · ولاية أم البواقي","type":"Province","iso":"DZ-04","qid":"Q235705"},"geometry":{"type":"Polygon","coordinates":[[[6.1492,35.9004],[6.6495,35.7967],[6.7691,35.6839],[7.2883,35.6126],[7.5448,35.4478],[7.8407,35.6152],[7.8659,35.8587],[7.5639,35.8399],[7.3259,36.1274],[7.0106,36.1552],[6.5163,36.1656],[6.1492,35.9004]]]}},{"type":"Feature","id":"label-DZA-2221","properties":{"kind":"division-label","code":"DZA-2221","countryCode":"DZA","name":"Oum El Bouaghi","localName":"ولاية أم البواقي","labelEnglish":"Oum El Bouaghi","labelLocal":"ولاية أم البواقي","labelBoth":"Oum El Bouaghi · ولاية أم البواقي","type":"Province","iso":"DZ-04","qid":"Q235705"},"geometry":{"type":"Point","coordinates":[7.00715,35.891]}},{"type":"Feature","id":"DZA-2211","properties":{"kind":"division","code":"DZA-2211","countryCode":"DZA","name":"Biskra","localName":"ولاية بسكرة","labelEnglish":"Biskra","labelLocal":"ولاية بسكرة","labelBoth":"Biskra · ولاية بسكرة","type":"Province","iso":"DZ-07","qid":"Q458402"},"geometry":{"type":"Polygon","coordinates":[[[5.0386,35.0833],[4.9328,34.8389],[4.4347,34.7727],[4.1957,34.5257],[4.2137,34.2322],[4.4066,33.9276],[5.1218,33.5727],[5.3348,33.846],[5.3599,34.1662],[5.1855,34.3567],[5.3193,34.4989],[6.5055,34.3197],[6.6959,34.3761],[6.7495,34.7122],[6.5879,34.7785],[6.4127,35.0688],[5.9931,34.9894],[6.0054,35.2263],[5.8209,35.2879],[5.6087,35.0984],[5.0386,35.0833]]]}},{"type":"Feature","id":"label-DZA-2211","properties":{"kind":"division-label","code":"DZA-2211","countryCode":"DZA","name":"Biskra","localName":"ولاية بسكرة","labelEnglish":"Biskra","labelLocal":"ولاية بسكرة","labelBoth":"Biskra · ولاية بسكرة","type":"Province","iso":"DZ-07","qid":"Q458402"},"geometry":{"type":"Point","coordinates":[5.46698,34.7569]}},{"type":"Feature","id":"DZA-2212","properties":{"kind":"division","code":"DZA-2212","countryCode":"DZA","name":"Djelfa","localName":"ولاية الجلفة","labelEnglish":"Djelfa","labelLocal":"ولاية الجلفة","labelBoth":"Djelfa · ولاية الجلفة","type":"Province","iso":"DZ-17","qid":"Q233233"},"geometry":{"type":"Polygon","coordinates":[[[4.9783,32.8408],[5.008,33.4419],[5.1218,33.5727],[4.4066,33.9276],[4.2137,34.2322],[4.0387,34.3716],[3.906,34.7626],[3.6711,34.7903],[3.4736,35.158],[3.6804,35.4956],[3.3795,35.7512],[2.8988,35.63],[2.6369,35.4418],[2.2857,35.4391],[2.6042,35.055],[2.3577,34.6929],[2.3045,34.4126],[2.49,33.9174],[2.9332,34.2544],[3.1039,34.2297],[3.2321,33.9474],[4.0283,33.2804],[4.1762,33.0296],[4.9783,32.8408]]]}},{"type":"Feature","id":"label-DZA-2212","properties":{"kind":"division-label","code":"DZA-2212","countryCode":"DZA","name":"Djelfa","localName":"ولاية الجلفة","labelEnglish":"Djelfa","labelLocal":"ولاية الجلفة","labelBoth":"Djelfa · ولاية الجلفة","type":"Province","iso":"DZ-17","qid":"Q233233"},"geometry":{"type":"Point","coordinates":[3.70376,34.1508]}}]}