{"type":"FeatureCollection","features":[{"type":"Feature","id":"ECU-1335","properties":{"kind":"division","code":"ECU-1335","countryCode":"ECU","name":"Esmeraldas","localName":"Esmeraldas","labelEnglish":"Esmeraldas","labelLocal":"Esmeraldas","labelBoth":"Esmeraldas","type":"Province","iso":"EC-E","qid":"Q335526"},"geometry":{"type":"Polygon","coordinates":[[[-78.8287,1.4343],[-78.9917,1.1197],[-79.4565,1.0725],[-80.0462,0.8397],[-79.9995,0.3451],[-79.7411,0.3741],[-79.5955,-0.0136],[-79.3638,0.0469],[-79.3467,0.2393],[-79.0107,0.2674],[-78.86,0.4228],[-78.6754,0.3721],[-78.4242,0.5862],[-78.4421,0.8719],[-78.4781,1.1871],[-78.8287,1.4343]]]}},{"type":"Feature","id":"label-ECU-1335","properties":{"kind":"division-label","code":"ECU-1335","countryCode":"ECU","name":"Esmeraldas","localName":"Esmeraldas","labelEnglish":"Esmeraldas","labelLocal":"Esmeraldas","labelBoth":"Esmeraldas","type":"Province","iso":"EC-E","qid":"Q335526"},"geometry":{"type":"Point","coordinates":[-78.9448,1.29253]}},{"type":"Feature","id":"ECU-1409","properties":{"kind":"division","code":"ECU-1409","countryCode":"ECU","name":"Carchi","localName":"Carchi","labelEnglish":"Carchi","labelLocal":"Carchi","labelBoth":"Carchi","type":"Province","iso":"EC-C","qid":"Q321729"},"geometry":{"type":"Polygon","coordinates":[[[-78.4781,1.1871],[-78.4421,0.8719],[-78.289,0.8018],[-78.1308,0.5056],[-77.8141,0.3457],[-77.5141,0.6605],[-77.7279,0.8433],[-78.12,0.9212],[-78.4781,1.1871]]]}},{"type":"Feature","id":"label-ECU-1409","properties":{"kind":"division-label","code":"ECU-1409","countryCode":"ECU","name":"Carchi","localName":"Carchi","labelEnglish":"Carchi","labelLocal":"Carchi","labelBoth":"Carchi","type":"Province","iso":"EC-C","qid":"Q321729"},"geometry":{"type":"Point","coordinates":[-78.0243,0.686611]}},{"type":"Feature","id":"ECU-1411","properties":{"kind":"division","code":"ECU-1411","countryCode":"ECU","name":"Sucumbíos","localName":"Sucumbíos","labelEnglish":"Sucumbíos","labelLocal":"Sucumbíos","labelBoth":"Sucumbíos","type":"Province","iso":"EC-U","qid":"Q499456"},"geometry":{"type":"Polygon","coordinates":[[[-77.1039,0.3541],[-77.4244,0.4083],[-77.5141,0.6605],[-77.8141,0.3457],[-77.9454,0.1613],[-77.8327,0.0319],[-77.4465,-0.1248],[-77.2994,-0.0585],[-76.9175,-0.0786],[-76.7141,-0.3419],[-76.4102,-0.5103],[-75.7483,-0.4226],[-75.2666,-0.6427],[-75.6376,-0.1115],[-75.2835,-0.107],[-75.7897,0.0844],[-76.0535,0.3635],[-76.3116,0.4585],[-76.408,0.2545],[-76.8968,0.2453],[-77.1039,0.3541]]]}},{"type":"Feature","id":"label-ECU-1411","properties":{"kind":"division-label","code":"ECU-1411","countryCode":"ECU","name":"Sucumbíos","localName":"Sucumbíos","labelEnglish":"Sucumbíos","labelLocal":"Sucumbíos","labelBoth":"Sucumbíos","type":"Province","iso":"EC-U","qid":"Q499456"},"geometry":{"type":"Point","coordinates":[-76.6135,-0.085516]}},{"type":"Feature","id":"ECU-1286","properties":{"kind":"division","code":"ECU-1286","countryCode":"ECU","name":"Orellana","localName":"Orellana","labelEnglish":"Orellana","labelLocal":"Orellana","labelBoth":"Orellana","type":"Province","iso":"EC-D","qid":"Q499475"},"geometry":{"type":"Polygon","coordinates":[[[-75.2666,-0.6427],[-75.7483,-0.4226],[-76.4102,-0.5103],[-76.7141,-0.3419],[-76.9175,-0.0786],[-77.2994,-0.0585],[-77.2732,-0.3604],[-77.6202,-0.5366],[-77.5097,-0.6557],[-77.5791,-0.94],[-77.2471,-0.8296],[-77.0516,-1.0104],[-76.8679,-1.1574],[-76.5623,-1.0464],[-76.4637,-1.2513],[-76.1319,-1.2734],[-75.5807,-1.5466],[-75.4126,-0.9239],[-75.2273,-0.9698],[-75.2666,-0.6427]]]}},{"type":"Feature","id":"label-ECU-1286","properties":{"kind":"division-label","code":"ECU-1286","countryCode":"ECU","name":"Orellana","localName":"Orellana","labelEnglish":"Orellana","labelLocal":"Orellana","labelBoth":"Orellana","type":"Province","iso":"EC-D","qid":"Q499475"},"geometry":{"type":"Point","coordinates":[-76.4248,-0.875888]}},{"type":"Feature","id":"ECU-1288","properties":{"kind":"division","code":"ECU-1288","countryCode":"ECU","name":"Pastaza","localName":"Pastaza","labelEnglish":"Pastaza","labelLocal":"Pastaza","labelBoth":"Pastaza","type":"Province","iso":"EC-Y","qid":"Q214814"},"geometry":{"type":"Polygon","coordinates":[[[-75.5807,-1.5466],[-76.1319,-1.2734],[-76.4637,-1.2513],[-76.5623,-1.0464],[-76.8679,-1.1574],[-77.0516,-1.0104],[-77.846,-1.2247],[-78.1165,-1.2333],[-78.1726,-1.447],[-77.9141,-1.6681],[-77.7235,-2.011],[-77.1231,-2.3137],[-76.9183,-2.5404],[-76.6697,-2.5646],[-76.0912,-2.1289],[-75.5807,-1.5466]]]}},{"type":"Feature","id":"label-ECU-1288","properties":{"kind":"division-label","code":"ECU-1288","countryCode":"ECU","name":"Pastaza","localName":"Pastaza","labelEnglish":"Pastaza","labelLocal":"Pastaza","labelBoth":"Pastaza","type":"Province","iso":"EC-Y","qid":"Q214814"},"geometry":{"type":"Point","coordinates":[-76.8768,-1.84655]}},{"type":"Feature","id":"ECU-1285","properties":{"kind":"division","code":"ECU-1285","countryCode":"ECU","name":"Morona-Santiago","localName":"Morona-Santiago","labelEnglish":"Morona-Santiago","labelLocal":"Morona-Santiago","labelBoth":"Morona-Santiago","type":"Province","iso":"EC-S","qid":"Q549522"},"geometry":{"type":"Polygon","coordinates":[[[-76.6697,-2.5646],[-76.9183,-2.5404],[-77.1231,-2.3137],[-77.7235,-2.011],[-77.9141,-1.6681],[-78.1726,-1.447],[-78.3534,-1.5264],[-78.4502,-1.7173],[-78.4458,-2.0752],[-78.5799,-2.3115],[-78.5491,-2.5629],[-78.6717,-3.0908],[-78.939,-3.3227],[-78.8222,-3.547],[-78.3759,-3.5293],[-77.8104,-2.9671],[-76.6697,-2.5646]]]}},{"type":"Feature","id":"label-ECU-1285","properties":{"kind":"division-label","code":"ECU-1285","countryCode":"ECU","name":"Morona-Santiago","localName":"Morona-Santiago","labelEnglish":"Morona-Santiago","labelLocal":"Morona-Santiago","labelBoth":"Morona-Santiago","type":"Province","iso":"EC-S","qid":"Q549522"},"geometry":{"type":"Point","coordinates":[-77.8071,-2.4505]}},{"type":"Feature","id":"ECU-1269","properties":{"kind":"division","code":"ECU-1269","countryCode":"ECU","name":"Zamora Chinchipe","localName":"Zamora Chinchipe","labelEnglish":"Zamora Chinchipe","labelLocal":"Zamora Chinchipe","labelBoth":"Zamora Chinchipe","type":"Province","iso":"EC-Z","qid":"Q744670"},"geometry":{"type":"Polygon","coordinates":[[[-78.3759,-3.5293],[-78.8222,-3.547],[-78.939,-3.3227],[-79.1022,-3.636],[-79.1135,-4.408],[-79.2769,-4.4752],[-79.4608,-4.7705],[-79.2337,-4.9656],[-79.0639,-5.0114],[-78.9286,-4.7475],[-78.7089,-4.5851],[-78.6824,-4.3269],[-78.4136,-3.7718],[-78.3759,-3.5293]]]}},{"type":"Feature","id":"label-ECU-1269","properties":{"kind":"division-label","code":"ECU-1269","countryCode":"ECU","name":"Zamora Chinchipe","localName":"Zamora Chinchipe","labelEnglish":"Zamora Chinchipe","labelLocal":"Zamora Chinchipe","labelBoth":"Zamora Chinchipe","type":"Province","iso":"EC-Z","qid":"Q744670"},"geometry":{"type":"Point","coordinates":[-78.8595,-3.93679]}},{"type":"Feature","id":"ECU-1268","properties":{"kind":"division","code":"ECU-1268","countryCode":"ECU","name":"Loja","localName":"Loja","labelEnglish":"Loja","labelLocal":"Loja","labelBoth":"Loja","type":"Province","iso":"EC-L","qid":"Q504238"},"geometry":{"type":"Polygon","coordinates":[[[-80.1651,-3.8807],[-80.5123,-4.065],[-80.3453,-4.1985],[-80.4085,-4.4775],[-80.1402,-4.2831],[-79.8329,-4.4789],[-79.5072,-4.5316],[-79.4608,-4.7705],[-79.2769,-4.4752],[-79.1135,-4.408],[-79.1022,-3.636],[-79.1788,-3.4482],[-79.4578,-3.328],[-79.4153,-3.7934],[-80.1651,-3.8807]]]}},{"type":"Feature","id":"label-ECU-1268","properties":{"kind":"division-label","code":"ECU-1268","countryCode":"ECU","name":"Loja","localName":"Loja","labelEnglish":"Loja","labelLocal":"Loja","labelBoth":"Loja","type":"Province","iso":"EC-L","qid":"Q504238"},"geometry":{"type":"Point","coordinates":[-79.8079,-4.15948]}},{"type":"Feature","id":"ECU-1267","properties":{"kind":"division","code":"ECU-1267","countryCode":"ECU","name":"El Oro","localName":"El Oro","labelEnglish":"El Oro","labelLocal":"El Oro","labelBoth":"El Oro","type":"Province","iso":"EC-O","qid":"Q466019"},"geometry":{"type":"Polygon","coordinates":[[[-80.1651,-3.8807],[-79.4153,-3.7934],[-79.4578,-3.328],[-79.65,-3.3288],[-79.7605,-3.0647],[-79.8959,-3.0454],[-80.0399,-3.2799],[-80.3407,-3.3935],[-80.1651,-3.8807]]]}},{"type":"Feature","id":"label-ECU-1267","properties":{"kind":"division-label","code":"ECU-1267","countryCode":"ECU","name":"El Oro","localName":"El Oro","labelEnglish":"El Oro","labelLocal":"El Oro","labelBoth":"El Oro","type":"Province","iso":"EC-O","qid":"Q466019"},"geometry":{"type":"Point","coordinates":[-79.8552,-3.43657]}},{"type":"Feature","id":"ECU-1280","properties":{"kind":"division","code":"ECU-1280","countryCode":"ECU","name":"Guayas","localName":"Guayas","labelEnglish":"Guayas","labelLocal":"Guayas","labelBoth":"Guayas","type":"Province","iso":"EC-G","qid":"Q335464"},"geometry":{"type":"MultiPolygon","coordinates":[[[[-80.0599,-2.6628],[-80.2107,-2.7249],[-80.2659,-3.0185],[-80.131,-3.0209],[-79.9028,-2.7175],[-80.0599,-2.6628]]],[[[-79.8959,-3.0454],[-79.7605,-3.0647],[-79.6906,-2.8257],[-79.4374,-2.4971],[-79.3526,-2.3033],[-79.1301,-2.2037],[-79.2355,-2.1543],[-79.502,-1.8877],[-79.6495,-1.9065],[-79.8554,-1.6407],[-79.8473,-1.3991],[-79.5756,-1.0403],[-79.6196,-0.8502],[-80.0433,-1.2718],[-80.3209,-1.6836],[-80.5161,-1.8408],[-80.2134,-2.1103],[-80.232,-2.2998],[-80.5427,-2.5298],[-80.3205,-2.7106],[-80.076,-2.4577],[-79.984,-2.6052],[-79.8395,-2.377],[-79.7251,-2.5698],[-79.8959,-3.0454]]]]}},{"type":"Feature","id":"label-ECU-1280","properties":{"kind":"division-label","code":"ECU-1280","countryCode":"ECU","name":"Guayas","localName":"Guayas","labelEnglish":"Guayas","labelLocal":"Guayas","labelBoth":"Guayas","type":"Province","iso":"EC-G","qid":"Q335464"},"geometry":{"type":"Point","coordinates":[-79.8608,-1.98384]}},{"type":"Feature","id":"ECU-1270","properties":{"kind":"division","code":"ECU-1270","countryCode":"ECU","name":"Galápagos","localName":"Galápagos","labelEnglish":"Galápagos","labelLocal":"Galápagos","labelBoth":"Galápagos","type":"Province","iso":"EC-W","qid":"Q475038"},"geometry":{"type":"MultiPolygon","coordinates":[[[[-89.3081,-0.6856],[-89.63,-0.9259],[-89.4347,-0.9293],[-89.3081,-0.6856]]],[[[-90.192,-0.5383],[-90.4877,-0.5255],[-90.5445,-0.6816],[-90.3371,-0.777],[-90.192,-0.5383]]],[[[-91.4011,-0.4529],[-91.4742,-0.2493],[-91.6686,-0.2849],[-91.6065,-0.4563],[-91.4011,-0.4529]]],[[[-90.565,-0.2849],[-90.8104,-0.1513],[-90.8182,-0.3396],[-90.565,-0.2849]]],[[[-90.8114,-0.7306],[-90.956,-0.4221],[-91.1846,-0.211],[-91.3236,0.1393],[-91.4233,-0.0286],[-91.352,-0.3072],[-91.0942,-0.5694],[-91.4359,-0.7784],[-91.3997,-1.0185],[-90.9287,-0.9703],[-90.8114,-0.7306]]]]}},{"type":"Feature","id":"label-ECU-1270","properties":{"kind":"division-label","code":"ECU-1270","countryCode":"ECU","name":"Galápagos","localName":"Galápagos","labelEnglish":"Galápagos","labelLocal":"Galápagos","labelBoth":"Galápagos","type":"Province","iso":"EC-W","qid":"Q475038"},"geometry":{"type":"Point","coordinates":[-89.685,-1.36804]}},{"type":"Feature","id":"ECU-5507","properties":{"kind":"division","code":"ECU-5507","countryCode":"ECU","name":"Santa Elena","localName":"Santa Elena","labelEnglish":"Santa Elena","labelLocal":"Santa Elena","labelBoth":"Santa Elena","type":"Province","iso":"EC-SE","qid":"Q1124125"},"geometry":{"type":"Polygon","coordinates":[[[-80.5427,-2.5298],[-80.232,-2.2998],[-80.2134,-2.1103],[-80.5161,-1.8408],[-80.5579,-1.6761],[-80.8182,-1.677],[-80.745,-2.1029],[-80.9136,-2.3188],[-80.5427,-2.5298]]]}},{"type":"Feature","id":"label-ECU-5507","properties":{"kind":"division-label","code":"ECU-5507","countryCode":"ECU","name":"Santa Elena","localName":"Santa Elena","labelEnglish":"Santa Elena","labelLocal":"Santa Elena","labelBoth":"Santa Elena","type":"Province","iso":"EC-SE","qid":"Q1124125"},"geometry":{"type":"Point","coordinates":[-80.5772,-2.15487]}},{"type":"Feature","id":"ECU-1282","properties":{"kind":"division","code":"ECU-1282","countryCode":"ECU","name":"Manabí","localName":"Manabí","labelEnglish":"Manabí","labelLocal":"Manabí","labelBoth":"Manabí","type":"Province","iso":"EC-M","qid":"Q504666"},"geometry":{"type":"Polygon","coordinates":[[[-80.8182,-1.677],[-80.5579,-1.6761],[-80.5161,-1.8408],[-80.3209,-1.6836],[-80.0433,-1.2718],[-79.6196,-0.8502],[-79.48,-0.5437],[-79.413,-0.2048],[-79.5955,-0.0136],[-79.7411,0.3741],[-79.9995,0.3451],[-80.0665,0.0522],[-80.4965,-0.3814],[-80.5472,-0.8885],[-80.9162,-1.0655],[-80.7443,-1.3438],[-80.8182,-1.677]]]}},{"type":"Feature","id":"label-ECU-1282","properties":{"kind":"division-label","code":"ECU-1282","countryCode":"ECU","name":"Manabí","localName":"Manabí","labelEnglish":"Manabí","labelLocal":"Manabí","labelBoth":"Manabí","type":"Province","iso":"EC-M","qid":"Q504666"},"geometry":{"type":"Point","coordinates":[-80.1619,-0.727203]}},{"type":"Feature","id":"ECU-1266","properties":{"kind":"division","code":"ECU-1266","countryCode":"ECU","name":"Azuay","localName":"Azuay","labelEnglish":"Azuay","labelLocal":"Azuay","labelBoth":"Azuay","type":"Province","iso":"EC-A","qid":"Q220451"},"geometry":{"type":"Polygon","coordinates":[[[-79.4374,-2.4971],[-79.6906,-2.8257],[-79.7605,-3.0647],[-79.65,-3.3288],[-79.4578,-3.328],[-79.1788,-3.4482],[-79.1022,-3.636],[-78.939,-3.3227],[-78.6717,-3.0908],[-78.5491,-2.5629],[-78.93,-2.8171],[-79.4374,-2.4971]]]}},{"type":"Feature","id":"label-ECU-1266","properties":{"kind":"division-label","code":"ECU-1266","countryCode":"ECU","name":"Azuay","localName":"Azuay","labelEnglish":"Azuay","labelLocal":"Azuay","labelBoth":"Azuay","type":"Province","iso":"EC-A","qid":"Q220451"},"geometry":{"type":"Point","coordinates":[-79.0909,-3.15279]}},{"type":"Feature","id":"ECU-1278","properties":{"kind":"division","code":"ECU-1278","countryCode":"ECU","name":"Cañar","localName":"Cañar","labelEnglish":"Cañar","labelLocal":"Cañar","labelBoth":"Cañar","type":"Province","iso":"EC-F","qid":"Q335471"},"geometry":{"type":"Polygon","coordinates":[[[-79.4374,-2.4971],[-78.93,-2.8171],[-78.5491,-2.5629],[-78.5799,-2.3115],[-78.9451,-2.3974],[-79.1301,-2.2037],[-79.3526,-2.3033],[-79.4374,-2.4971]]]}},{"type":"Feature","id":"label-ECU-1278","properties":{"kind":"division-label","code":"ECU-1278","countryCode":"ECU","name":"Cañar","localName":"Cañar","labelEnglish":"Cañar","labelLocal":"Cañar","labelBoth":"Cañar","type":"Province","iso":"EC-F","qid":"Q335471"},"geometry":{"type":"Point","coordinates":[-78.9978,-2.54413]}},{"type":"Feature","id":"ECU-1289","properties":{"kind":"division","code":"ECU-1289","countryCode":"ECU","name":"Napo","localName":"Napo","labelEnglish":"Napo","labelLocal":"Napo","labelBoth":"Napo","type":"Province","iso":"EC-N","qid":"Q211900"},"geometry":{"type":"Polygon","coordinates":[[[-78.3914,-0.9636],[-78.4554,-1.0748],[-78.8662,-1.1783],[-78.8807,-1.4592],[-78.4911,-1.442],[-78.3534,-1.5264],[-78.1726,-1.447],[-78.1165,-1.2333],[-78.3386,-1.1644],[-78.3914,-0.9636]]]}},{"type":"Feature","id":"label-ECU-1289","properties":{"kind":"division-label","code":"ECU-1289","countryCode":"ECU","name":"Napo","localName":"Napo","labelEnglish":"Napo","labelLocal":"Napo","labelBoth":"Napo","type":"Province","iso":"EC-N","qid":"Q211900"},"geometry":{"type":"Point","coordinates":[-78.5209,-1.2733]}},{"type":"Feature","id":"ECU-1290","properties":{"kind":"division","code":"ECU-1290","countryCode":"ECU","name":"Tungurahua","localName":"Tungurahua","labelEnglish":"Tungurahua","labelLocal":"Tungurahua","labelBoth":"Tungurahua","type":"Province","iso":"EC-T","qid":"Q504252"},"geometry":{"type":"Polygon","coordinates":[[[-78.3914,-0.9636],[-78.3386,-1.1644],[-78.1165,-1.2333],[-77.846,-1.2247],[-77.0516,-1.0104],[-77.2471,-0.8296],[-77.5791,-0.94],[-77.5097,-0.6557],[-77.6202,-0.5366],[-77.2732,-0.3604],[-77.2994,-0.0585],[-77.4465,-0.1248],[-77.8327,0.0319],[-78.1773,-0.1809],[-78.3968,-0.6844],[-78.3914,-0.9636]]]}},{"type":"Feature","id":"label-ECU-1290","properties":{"kind":"division-label","code":"ECU-1290","countryCode":"ECU","name":"Tungurahua","localName":"Tungurahua","labelEnglish":"Tungurahua","labelLocal":"Tungurahua","labelBoth":"Tungurahua","type":"Province","iso":"EC-T","qid":"Q504252"},"geometry":{"type":"Point","coordinates":[-77.7382,-0.624499]}},{"type":"Feature","id":"ECU-1284","properties":{"kind":"division","code":"ECU-1284","countryCode":"ECU","name":"Chimborazo","localName":"Chimborazo","labelEnglish":"Chimborazo","labelLocal":"Chimborazo","labelBoth":"Chimborazo","type":"Province","iso":"EC-H","qid":"Q238492"},"geometry":{"type":"Polygon","coordinates":[[[-79.1301,-2.2037],[-78.9451,-2.3974],[-78.5799,-2.3115],[-78.4458,-2.0752],[-78.4502,-1.7173],[-78.3534,-1.5264],[-78.4911,-1.442],[-78.8807,-1.4592],[-79.1301,-2.2037]]]}},{"type":"Feature","id":"label-ECU-1284","properties":{"kind":"division-label","code":"ECU-1284","countryCode":"ECU","name":"Chimborazo","localName":"Chimborazo","labelEnglish":"Chimborazo","labelLocal":"Chimborazo","labelBoth":"Chimborazo","type":"Province","iso":"EC-H","qid":"Q238492"},"geometry":{"type":"Point","coordinates":[-78.7417,-1.88915]}},{"type":"Feature","id":"ECU-1277","properties":{"kind":"division","code":"ECU-1277","countryCode":"ECU","name":"Bolívar","localName":"Bolívar","labelEnglish":"Bolívar","labelLocal":"Bolívar","labelBoth":"Bolívar","type":"Province","iso":"EC-B","qid":"Q261165"},"geometry":{"type":"Polygon","coordinates":[[[-78.8662,-1.1783],[-79.2807,-1.2026],[-79.2355,-2.1543],[-79.1301,-2.2037],[-78.8807,-1.4592],[-78.8662,-1.1783]]]}},{"type":"Feature","id":"label-ECU-1277","properties":{"kind":"division-label","code":"ECU-1277","countryCode":"ECU","name":"Bolívar","localName":"Bolívar","labelEnglish":"Bolívar","labelLocal":"Bolívar","labelBoth":"Bolívar","type":"Province","iso":"EC-B","qid":"Q261165"},"geometry":{"type":"Point","coordinates":[-79.1205,-1.67621]}},{"type":"Feature","id":"ECU-1410","properties":{"kind":"division","code":"ECU-1410","countryCode":"ECU","name":"Imbabura","localName":"Imbabura","labelEnglish":"Imbabura","labelLocal":"Imbabura","labelBoth":"Imbabura","type":"Province","iso":"EC-I","qid":"Q321863"},"geometry":{"type":"Polygon","coordinates":[[[-77.8141,0.3457],[-78.1308,0.5056],[-78.289,0.8018],[-78.4421,0.8719],[-78.4242,0.5862],[-78.6754,0.3721],[-78.86,0.4228],[-79.0107,0.2674],[-78.414,0.2454],[-78.2268,0.1333],[-77.9454,0.1613],[-77.8141,0.3457]]]}},{"type":"Feature","id":"label-ECU-1410","properties":{"kind":"division-label","code":"ECU-1410","countryCode":"ECU","name":"Imbabura","localName":"Imbabura","labelEnglish":"Imbabura","labelLocal":"Imbabura","labelBoth":"Imbabura","type":"Province","iso":"EC-I","qid":"Q321863"},"geometry":{"type":"Point","coordinates":[-78.4124,0.55271]}},{"type":"Feature","id":"ECU-1279","properties":{"kind":"division","code":"ECU-1279","countryCode":"ECU","name":"Cotopaxi","localName":"Cotopaxi","labelEnglish":"Cotopaxi","labelLocal":"Cotopaxi","labelBoth":"Cotopaxi","type":"Province","iso":"EC-X","qid":"Q241140"},"geometry":{"type":"Polygon","coordinates":[[[-78.3968,-0.6844],[-78.7076,-0.6559],[-78.9216,-0.3451],[-79.0868,-0.5519],[-79.2907,-0.914],[-79.2807,-1.2026],[-78.8662,-1.1783],[-78.4554,-1.0748],[-78.3914,-0.9636],[-78.3968,-0.6844]]]}},{"type":"Feature","id":"label-ECU-1279","properties":{"kind":"division-label","code":"ECU-1279","countryCode":"ECU","name":"Cotopaxi","localName":"Cotopaxi","labelEnglish":"Cotopaxi","labelLocal":"Cotopaxi","labelBoth":"Cotopaxi","type":"Province","iso":"EC-X","qid":"Q241140"},"geometry":{"type":"Point","coordinates":[-78.8554,-0.813335]}},{"type":"Feature","id":"ECU-1281","properties":{"kind":"division","code":"ECU-1281","countryCode":"ECU","name":"Los Ríos","localName":"Los Ríos","labelEnglish":"Los Ríos","labelLocal":"Los Ríos","labelBoth":"Los Ríos","type":"Province","iso":"EC-R","qid":"Q504260"},"geometry":{"type":"Polygon","coordinates":[[[-79.2807,-1.2026],[-79.2907,-0.914],[-79.0868,-0.5519],[-79.3032,-0.6957],[-79.48,-0.5437],[-79.6196,-0.8502],[-79.5756,-1.0403],[-79.8473,-1.3991],[-79.8554,-1.6407],[-79.6495,-1.9065],[-79.502,-1.8877],[-79.2355,-2.1543],[-79.2807,-1.2026]]]}},{"type":"Feature","id":"label-ECU-1281","properties":{"kind":"division-label","code":"ECU-1281","countryCode":"ECU","name":"Los Ríos","localName":"Los Ríos","labelEnglish":"Los Ríos","labelLocal":"Los Ríos","labelBoth":"Los Ríos","type":"Province","iso":"EC-R","qid":"Q504260"},"geometry":{"type":"Point","coordinates":[-79.4787,-1.22191]}},{"type":"Feature","id":"ECU-1287","properties":{"kind":"division","code":"ECU-1287","countryCode":"ECU","name":"Pichincha","localName":"Pichincha","labelEnglish":"Pichincha","labelLocal":"Pichincha","labelBoth":"Pichincha","type":"Province","iso":"EC-P","qid":"Q272586"},"geometry":{"type":"Polygon","coordinates":[[[-77.8327,0.0319],[-77.9454,0.1613],[-78.2268,0.1333],[-78.414,0.2454],[-79.0107,0.2674],[-79.3467,0.2393],[-79.3638,0.0469],[-78.9229,-0.0758],[-78.7454,-0.2152],[-78.9216,-0.3451],[-78.7076,-0.6559],[-78.3968,-0.6844],[-78.1773,-0.1809],[-77.8327,0.0319]]]}},{"type":"Feature","id":"label-ECU-1287","properties":{"kind":"division-label","code":"ECU-1287","countryCode":"ECU","name":"Pichincha","localName":"Pichincha","labelEnglish":"Pichincha","labelLocal":"Pichincha","labelBoth":"Pichincha","type":"Province","iso":"EC-P","qid":"Q272586"},"geometry":{"type":"Point","coordinates":[-78.5045,-0.087133]}},{"type":"Feature","id":"ECU-5508","properties":{"kind":"division","code":"ECU-5508","countryCode":"ECU","name":"Santo Domingo de los Tsáchilas","localName":"Santo Domingo de los Tsáchilas","labelEnglish":"Santo Domingo de los Tsáchilas","labelLocal":"Santo Domingo de los Tsáchilas","labelBoth":"Santo Domingo de los Tsáchilas","type":"Province","iso":"EC-SD","qid":"Q1123208"},"geometry":{"type":"Polygon","coordinates":[[[-78.9216,-0.3451],[-78.7454,-0.2152],[-78.9229,-0.0758],[-79.3638,0.0469],[-79.5955,-0.0136],[-79.413,-0.2048],[-79.48,-0.5437],[-79.3032,-0.6957],[-79.0868,-0.5519],[-78.9216,-0.3451]]]}},{"type":"Feature","id":"label-ECU-5508","properties":{"kind":"division-label","code":"ECU-5508","countryCode":"ECU","name":"Santo Domingo de los Tsáchilas","localName":"Santo Domingo de los Tsáchilas","labelEnglish":"Santo Domingo de los Tsáchilas","labelLocal":"Santo Domingo de los Tsáchilas","labelBoth":"Santo Domingo de los Tsáchilas","type":"Province","iso":"EC-SD","qid":"Q1123208"},"geometry":{"type":"Point","coordinates":[-79.2525,-0.34834]}}]}