{"type":"FeatureCollection","features":[{"type":"Feature","id":"EGY-1558","properties":{"kind":"division","code":"EGY-1558","countryCode":"EGY","name":"North Sinai","localName":"North Sinai","labelEnglish":"North Sinai","labelLocal":"North Sinai","labelBoth":"North Sinai","type":"Governorate","iso":"EG-SIN","qid":"Q30662"},"geometry":{"type":"Polygon","coordinates":[[[34.2484,31.2114],[34.2003,31.3143],[33.648,31.1173],[33.1333,31.0456],[33.0986,31.1895],[32.5997,31.0615],[32.6021,30.9737],[32.654,30.5],[32.7987,30.254],[32.8548,29.9138],[33.7683,29.827],[34.4682,29.5465],[34.8855,29.4895],[34.8867,29.4901],[34.8244,29.7417],[34.2484,31.2114]]]}},{"type":"Feature","id":"label-EGY-1558","properties":{"kind":"division-label","code":"EGY-1558","countryCode":"EGY","name":"North Sinai","localName":"North Sinai","labelEnglish":"North Sinai","labelLocal":"North Sinai","labelBoth":"North Sinai","type":"Governorate","iso":"EG-SIN","qid":"Q30662"},"geometry":{"type":"Point","coordinates":[33.6723,30.5071]}},{"type":"Feature","id":"EGY-1548","properties":{"kind":"division","code":"EGY-1548","countryCode":"EGY","name":"Aswan","localName":"Aswan","labelEnglish":"Aswan","labelLocal":"Aswan","labelBoth":"Aswan","type":"Governorate","iso":"EG-ASN","qid":"Q29937"},"geometry":{"type":"Polygon","coordinates":[[[31.4947,21.9954],[31.9446,22.2786],[32.1587,22.5829],[32.5373,22.4993],[32.8378,22.9275],[33.3315,22.7431],[33.0618,23.0713],[33.2119,23.3436],[33.1464,23.7676],[33.0004,23.9851],[33.0114,24.3211],[33.1315,24.5238],[32.9796,25.0312],[32.7048,25.2699],[32.6539,25.1457],[32.7912,25.0562],[32.9303,24.649],[32.8311,24.0378],[32.6387,23.9267],[32.4264,23.4489],[32.758,23.4143],[32.436,22.7727],[32.1522,22.8629],[31.6514,22.7302],[31.527,22.3494],[31.3025,22.2805],[31.3144,22.1023],[31.4947,21.9954]]]}},{"type":"Feature","id":"label-EGY-1548","properties":{"kind":"division-label","code":"EGY-1548","countryCode":"EGY","name":"Aswan","localName":"Aswan","labelEnglish":"Aswan","labelLocal":"Aswan","labelBoth":"Aswan","type":"Governorate","iso":"EG-ASN","qid":"Q29937"},"geometry":{"type":"Point","coordinates":[32.2794,22.6543]}},{"type":"Feature","id":"EGY-1556","properties":{"kind":"division","code":"EGY-1556","countryCode":"EGY","name":"Red Sea","localName":"Red Sea","labelEnglish":"Red Sea","labelLocal":"Red Sea","labelBoth":"Red Sea","type":"Governorate","iso":"EG-BA","qid":"Q30831"},"geometry":{"type":"Polygon","coordinates":[[[32.5245,21.9954],[33.1598,21.9954],[35.4864,21.9956],[36.8836,21.9957],[36.4398,22.3564],[36.1978,22.6517],[35.886,22.7357],[35.6953,22.9321],[35.4894,23.497],[35.5139,23.9771],[35.7175,23.9934],[35.2355,24.4001],[34.5466,25.725],[34.014,26.6116],[34.0036,26.8489],[33.4963,27.6466],[33.5125,27.9591],[32.8689,28.5789],[32.6255,28.9727],[32.6562,29.1206],[32.1665,28.9739],[31.8691,28.9682],[31.5011,29.0659],[31.2553,29.2988],[30.9442,28.7157],[30.8154,28.2587],[30.9412,27.6201],[30.9842,27.4184],[31.2367,27.3172],[31.619,26.8332],[31.9885,26.4077],[32.3075,26.1582],[32.7625,26.2383],[32.9311,25.9355],[32.6211,25.4846],[32.7048,25.2699],[32.9796,25.0312],[33.1315,24.5238],[33.0114,24.3211],[33.0004,23.9851],[33.1464,23.7676],[33.2119,23.3436],[33.0618,23.0713],[33.3315,22.7431],[32.8378,22.9275],[32.5373,22.4993],[32.1587,22.5829],[31.9446,22.2786],[31.4947,21.9954],[32.5245,21.9954]]]}},{"type":"Feature","id":"label-EGY-1556","properties":{"kind":"division-label","code":"EGY-1556","countryCode":"EGY","name":"Red Sea","localName":"Red Sea","labelEnglish":"Red Sea","labelLocal":"Red Sea","labelBoth":"Red Sea","type":"Governorate","iso":"EG-BA","qid":"Q30831"},"geometry":{"type":"Point","coordinates":[33.7267,25.2164]}},{"type":"Feature","id":"EGY-1540","properties":{"kind":"division","code":"EGY-1540","countryCode":"EGY","name":"Matrouh","localName":"Matrouh","labelEnglish":"Matrouh","labelLocal":"Matrouh","labelBoth":"Matrouh","type":"Governorate","iso":"EG-MT","qid":"Q30682"},"geometry":{"type":"Polygon","coordinates":[[[24.9812,28.0967],[24.9812,27.6665],[27.3248,27.6679],[27.7571,28.4836],[27.9062,28.5929],[28.6992,28.7751],[29.5506,29.4828],[30.3286,29.8982],[29.6718,30.252],[29.6249,30.3371],[29.5981,31.0095],[29.0281,30.8271],[28.405,31.0865],[27.8971,31.1144],[27.3423,31.3682],[25.8241,31.6149],[25.4019,31.5032],[25.1509,31.6565],[24.8613,31.3804],[24.9949,30.7851],[24.6883,30.1442],[24.8116,29.8909],[24.9812,29.1814],[24.9812,28.0967]]]}},{"type":"Feature","id":"label-EGY-1540","properties":{"kind":"division-label","code":"EGY-1540","countryCode":"EGY","name":"Matrouh","localName":"Matrouh","labelEnglish":"Matrouh","labelLocal":"Matrouh","labelBoth":"Matrouh","type":"Governorate","iso":"EG-MT","qid":"Q30682"},"geometry":{"type":"Point","coordinates":[27.5083,29.6121]}},{"type":"Feature","id":"EGY-1550","properties":{"kind":"division","code":"EGY-1550","countryCode":"EGY","name":"New Valley","localName":"New Valley","labelEnglish":"New Valley","labelLocal":"New Valley","labelBoth":"New Valley","type":"Governorate","iso":"EG-WAD","qid":"Q30650"},"geometry":{"type":"Polygon","coordinates":[[[24.9812,27.0492],[24.9812,24.6217],[24.9812,22.8708],[24.9812,21.9954],[26.3438,21.9951],[28.2903,21.9948],[29.4582,21.9946],[31.2484,21.9944],[31.3144,22.1023],[31.3025,22.2805],[31.527,22.3494],[31.6514,22.7302],[32.1522,22.8629],[32.436,22.7727],[32.758,23.4143],[32.4264,23.4489],[32.6387,23.9267],[32.8311,24.0378],[32.9303,24.649],[32.7912,25.0562],[32.6539,25.1457],[32.443,25.5971],[32.7481,26.0012],[32.5916,26.0973],[32.2241,25.9701],[31.9523,26.1399],[31.3,26.8374],[31.1743,27.0642],[30.7737,27.3601],[30.6712,27.634],[30.6878,27.6676],[28.6532,27.6679],[27.3248,27.6679],[24.9812,27.6665],[24.9812,27.0492]]]}},{"type":"Feature","id":"label-EGY-1550","properties":{"kind":"division-label","code":"EGY-1550","countryCode":"EGY","name":"New Valley","localName":"New Valley","labelEnglish":"New Valley","labelLocal":"New Valley","labelBoth":"New Valley","type":"Governorate","iso":"EG-WAD","qid":"Q30650"},"geometry":{"type":"Point","coordinates":[28.9556,24.8314]}},{"type":"Feature","id":"EGY-1536","properties":{"kind":"division","code":"EGY-1536","countryCode":"EGY","name":"Suez","localName":"Suez","labelEnglish":"Suez","labelLocal":"Suez","labelBoth":"Suez","type":"Governorate","iso":"EG-SUZ","qid":"Q31070"},"geometry":{"type":"Polygon","coordinates":[[[32.6518,29.79],[32.8548,29.9138],[32.7987,30.254],[31.8873,30.2324],[31.9289,29.7832],[31.8691,28.9682],[32.1665,28.9739],[32.6562,29.1206],[32.5915,29.3495],[32.3377,29.5999],[32.5705,29.9558],[32.6518,29.79]]]}},{"type":"Feature","id":"label-EGY-1536","properties":{"kind":"division-label","code":"EGY-1536","countryCode":"EGY","name":"Suez","localName":"Suez","labelEnglish":"Suez","labelLocal":"Suez","labelBoth":"Suez","type":"Governorate","iso":"EG-SUZ","qid":"Q31070"},"geometry":{"type":"Point","coordinates":[32.1523,29.6098]}},{"type":"Feature","id":"EGY-1557","properties":{"kind":"division","code":"EGY-1557","countryCode":"EGY","name":"South Sinai","localName":"South Sinai","labelEnglish":"South Sinai","labelLocal":"South Sinai","labelBoth":"South Sinai","type":"Governorate","iso":"EG-JS","qid":"Q30815"},"geometry":{"type":"Polygon","coordinates":[[[34.8855,29.4895],[34.4682,29.5465],[33.7683,29.827],[32.8548,29.9138],[32.6518,29.79],[32.7214,29.4675],[33.1365,29.0346],[33.2376,28.5661],[33.716,28.0753],[34.0785,27.8007],[34.4274,27.9831],[34.4069,28.308],[34.6335,28.7707],[34.7366,29.3051],[34.8855,29.4895]]]}},{"type":"Feature","id":"label-EGY-1557","properties":{"kind":"division-label","code":"EGY-1557","countryCode":"EGY","name":"South Sinai","localName":"South Sinai","labelEnglish":"South Sinai","labelLocal":"South Sinai","labelBoth":"South Sinai","type":"Governorate","iso":"EG-JS","qid":"Q30815"},"geometry":{"type":"Point","coordinates":[33.7687,28.925]}},{"type":"Feature","id":"EGY-1538","properties":{"kind":"division","code":"EGY-1538","countryCode":"EGY","name":"Port Said","localName":"Port Said","labelEnglish":"Port Said","labelLocal":"Port Said","labelBoth":"Port Said","type":"Governorate","iso":"EG-PTS","qid":"Q31079"},"geometry":{"type":"Polygon","coordinates":[[[32.2566,31.2888],[32.2565,31.2762],[32.2874,31.1702],[32.29,31.1138],[32.6021,30.9737],[32.5997,31.0615],[32.2566,31.2888]]]}},{"type":"Feature","id":"label-EGY-1538","properties":{"kind":"division-label","code":"EGY-1538","countryCode":"EGY","name":"Port Said","localName":"Port Said","labelEnglish":"Port Said","labelLocal":"Port Said","labelBoth":"Port Said","type":"Governorate","iso":"EG-PTS","qid":"Q31079"},"geometry":{"type":"Point","coordinates":[32.4293,31.1245]}},{"type":"Feature","id":"EGY-1537","properties":{"kind":"division","code":"EGY-1537","countryCode":"EGY","name":"Dakahlia","localName":"Dakahlia","labelEnglish":"Dakahlia","labelLocal":"Dakahlia","labelBoth":"Dakahlia","type":"Governorate","iso":"EG-DK","qid":"Q31068"},"geometry":{"type":"Polygon","coordinates":[[[31.7949,31.2777],[31.5716,31.4438],[31.3499,31.5297],[31.2485,31.1099],[31.2537,30.5884],[31.3529,30.5738],[31.3611,30.7604],[31.6164,30.8392],[31.7835,31.0659],[32.0523,31.1288],[31.7949,31.2777]]]}},{"type":"Feature","id":"label-EGY-1537","properties":{"kind":"division-label","code":"EGY-1537","countryCode":"EGY","name":"Dakahlia","localName":"Dakahlia","labelEnglish":"Dakahlia","labelLocal":"Dakahlia","labelBoth":"Dakahlia","type":"Governorate","iso":"EG-DK","qid":"Q31068"},"geometry":{"type":"Point","coordinates":[31.4929,31.0304]}},{"type":"Feature","id":"EGY-1535","properties":{"kind":"division","code":"EGY-1535","countryCode":"EGY","name":"Al Sharqia","localName":"Al Sharqia","labelEnglish":"Al Sharqia","labelLocal":"Al Sharqia","labelBoth":"Al Sharqia","type":"Governorate","iso":"EG-SHR","qid":"Q31074"},"geometry":{"type":"MultiPolygon","coordinates":[[[[32.1418,31.0874],[32.29,31.1138],[32.2874,31.1702],[32.1418,31.0874]]],[[[32.0523,31.1288],[31.7835,31.0659],[31.6164,30.8392],[31.3611,30.7604],[31.3529,30.5738],[31.2725,30.437],[31.5939,30.1904],[31.8431,30.339],[31.7686,30.5621],[32.0986,30.6773],[32.1426,31.0803],[32.0523,31.1288]]]]}},{"type":"Feature","id":"label-EGY-1535","properties":{"kind":"division-label","code":"EGY-1535","countryCode":"EGY","name":"Al Sharqia","localName":"Al Sharqia","labelEnglish":"Al Sharqia","labelLocal":"Al Sharqia","labelBoth":"Al Sharqia","type":"Governorate","iso":"EG-SHR","qid":"Q31074"},"geometry":{"type":"Point","coordinates":[31.8817,30.8161]}},{"type":"Feature","id":"EGY-1531","properties":{"kind":"division","code":"EGY-1531","countryCode":"EGY","name":"Ismailia","localName":"Ismailia","labelEnglish":"Ismailia","labelLocal":"Ismailia","labelBoth":"Ismailia","type":"Governorate","iso":"EG-IS","qid":"Q31067"},"geometry":{"type":"Polygon","coordinates":[[[32.1426,31.0803],[32.0986,30.6773],[31.7686,30.5621],[31.8431,30.339],[31.8873,30.2324],[32.7987,30.254],[32.654,30.5],[32.6021,30.9737],[32.29,31.1138],[32.1418,31.0874],[32.1426,31.0803]]]}},{"type":"Feature","id":"label-EGY-1531","properties":{"kind":"division-label","code":"EGY-1531","countryCode":"EGY","name":"Ismailia","localName":"Ismailia","labelEnglish":"Ismailia","labelLocal":"Ismailia","labelBoth":"Ismailia","type":"Governorate","iso":"EG-IS","qid":"Q31067"},"geometry":{"type":"Point","coordinates":[32.2811,30.6765]}},{"type":"Feature","id":"EGY-1539","properties":{"kind":"division","code":"EGY-1539","countryCode":"EGY","name":"Damietta","localName":"Damietta","labelEnglish":"Damietta","labelLocal":"Damietta","labelBoth":"Damietta","type":"Governorate","iso":"EG-DT","qid":"Q30644"},"geometry":{"type":"Polygon","coordinates":[[[32.0829,31.359],[32.0938,31.3657],[31.9448,31.5209],[31.9129,31.5349],[31.8379,31.5253],[31.5716,31.4438],[31.7949,31.2777],[31.8548,31.4232],[31.8447,31.498],[31.918,31.524],[31.9935,31.4378],[31.995,31.395],[32.0829,31.359]]]}},{"type":"Feature","id":"label-EGY-1539","properties":{"kind":"division-label","code":"EGY-1539","countryCode":"EGY","name":"Damietta","localName":"Damietta","labelEnglish":"Damietta","labelLocal":"Damietta","labelBoth":"Damietta","type":"Governorate","iso":"EG-DT","qid":"Q30644"},"geometry":{"type":"Point","coordinates":[31.7285,31.4067]}},{"type":"Feature","id":"EGY-1547","properties":{"kind":"division","code":"EGY-1547","countryCode":"EGY","name":"Kafr el-Sheikh","localName":"Kafr el-Sheikh","labelEnglish":"Kafr el-Sheikh","labelLocal":"Kafr el-Sheikh","labelBoth":"Kafr el-Sheikh","type":"Governorate","iso":"EG-KFS","qid":"Q30946"},"geometry":{"type":"Polygon","coordinates":[[[30.3982,31.4436],[30.7636,30.9836],[31.2485,31.1099],[31.3499,31.5297],[31.0974,31.6079],[30.9807,31.4365],[30.3982,31.4436]]]}},{"type":"Feature","id":"label-EGY-1547","properties":{"kind":"division-label","code":"EGY-1547","countryCode":"EGY","name":"Kafr el-Sheikh","localName":"Kafr el-Sheikh","labelEnglish":"Kafr el-Sheikh","labelLocal":"Kafr el-Sheikh","labelBoth":"Kafr el-Sheikh","type":"Governorate","iso":"EG-KFS","qid":"Q30946"},"geometry":{"type":"Point","coordinates":[30.853,31.2075]}},{"type":"Feature","id":"EGY-1541","properties":{"kind":"division","code":"EGY-1541","countryCode":"EGY","name":"Beheira","localName":"Beheira","labelEnglish":"Beheira","labelLocal":"Beheira","labelBoth":"Beheira","type":"Governorate","iso":"EG-BH","qid":"Q30630"},"geometry":{"type":"Polygon","coordinates":[[[30.0985,31.2847],[29.8752,31.0842],[30.0127,30.6983],[29.6249,30.3371],[29.6718,30.252],[30.3286,29.8982],[30.8331,30.3338],[30.7961,30.6802],[30.7636,30.9836],[30.3982,31.4436],[30.0985,31.2847]]]}},{"type":"Feature","id":"label-EGY-1541","properties":{"kind":"division-label","code":"EGY-1541","countryCode":"EGY","name":"Beheira","localName":"Beheira","labelEnglish":"Beheira","labelLocal":"Beheira","labelBoth":"Beheira","type":"Governorate","iso":"EG-BH","qid":"Q30630"},"geometry":{"type":"Point","coordinates":[30.2522,30.5945]}},{"type":"Feature","id":"EGY-1543","properties":{"kind":"division","code":"EGY-1543","countryCode":"EGY","name":"Alexandria","localName":"Alexandria","labelEnglish":"Alexandria","labelLocal":"Alexandria","labelBoth":"Alexandria","type":"Governorate","iso":"EG-ALX","qid":"Q29943"},"geometry":{"type":"Polygon","coordinates":[[[29.5981,31.0095],[29.6249,30.3371],[30.0127,30.6983],[29.8752,31.0842],[30.0985,31.2847],[29.5981,31.0095]]]}},{"type":"Feature","id":"label-EGY-1543","properties":{"kind":"division-label","code":"EGY-1543","countryCode":"EGY","name":"Alexandria","localName":"Alexandria","labelEnglish":"Alexandria","labelLocal":"Alexandria","labelBoth":"Alexandria","type":"Governorate","iso":"EG-ALX","qid":"Q29943"},"geometry":{"type":"Point","coordinates":[29.754,30.8251]}},{"type":"Feature","id":"EGY-1533","properties":{"kind":"division","code":"EGY-1533","countryCode":"EGY","name":"Cairo","localName":"Cairo","labelEnglish":"Cairo","labelLocal":"Cairo","labelBoth":"Cairo","type":"Governorate","iso":"EG-C","qid":"Q30805"},"geometry":{"type":"Polygon","coordinates":[[[31.8873,30.2324],[31.8431,30.339],[31.5939,30.1904],[31.2376,30.1148],[31.2916,29.7599],[31.9289,29.7832],[31.8873,30.2324]]]}},{"type":"Feature","id":"label-EGY-1533","properties":{"kind":"division-label","code":"EGY-1533","countryCode":"EGY","name":"Cairo","localName":"Cairo","labelEnglish":"Cairo","labelLocal":"Cairo","labelBoth":"Cairo","type":"Governorate","iso":"EG-C","qid":"Q30805"},"geometry":{"type":"Point","coordinates":[31.5788,29.9801]}},{"type":"Feature","id":"EGY-1544","properties":{"kind":"division","code":"EGY-1544","countryCode":"EGY","name":"Giza","localName":"Giza","labelEnglish":"Giza","labelLocal":"Giza","labelBoth":"Giza","type":"Governorate","iso":"EG-GZ","qid":"Q30832"},"geometry":{"type":"Polygon","coordinates":[[[29.7492,28.7593],[29.8149,29.0884],[30.2816,29.485],[30.746,29.7143],[31.0305,29.6805],[31.1019,29.4001],[31.2553,29.2988],[31.5011,29.0659],[31.8691,28.9682],[31.9289,29.7832],[31.2916,29.7599],[31.2376,30.1148],[31.1454,30.1754],[30.8331,30.3338],[30.3286,29.8982],[29.5506,29.4828],[28.6992,28.7751],[27.9062,28.5929],[27.7571,28.4836],[27.3248,27.6679],[28.6532,27.6679],[28.7749,27.8732],[29.3085,28.1364],[29.5871,28.3844],[29.7492,28.7593]]]}},{"type":"Feature","id":"label-EGY-1544","properties":{"kind":"division-label","code":"EGY-1544","countryCode":"EGY","name":"Giza","localName":"Giza","labelEnglish":"Giza","labelLocal":"Giza","labelBoth":"Giza","type":"Governorate","iso":"EG-GZ","qid":"Q30832"},"geometry":{"type":"Point","coordinates":[29.7204,29.3499]}},{"type":"Feature","id":"EGY-1545","properties":{"kind":"division","code":"EGY-1545","countryCode":"EGY","name":"Minya","localName":"Minya","labelEnglish":"Minya","labelLocal":"Minya","labelBoth":"Minya","type":"Governorate","iso":"EG-MN","qid":"Q30675"},"geometry":{"type":"Polygon","coordinates":[[[28.6532,27.6679],[30.6878,27.6676],[30.6712,27.634],[30.9412,27.6201],[30.8154,28.2587],[30.9442,28.7157],[30.7687,28.781],[29.7492,28.7593],[29.5871,28.3844],[29.3085,28.1364],[28.7749,27.8732],[28.6532,27.6679]]]}},{"type":"Feature","id":"label-EGY-1545","properties":{"kind":"division-label","code":"EGY-1545","countryCode":"EGY","name":"Minya","localName":"Minya","labelEnglish":"Minya","labelLocal":"Minya","labelBoth":"Minya","type":"Governorate","iso":"EG-MN","qid":"Q30675"},"geometry":{"type":"Point","coordinates":[30.1604,28.2141]}},{"type":"Feature","id":"EGY-1542","properties":{"kind":"division","code":"EGY-1542","countryCode":"EGY","name":"Faiyum","localName":"Faiyum","labelEnglish":"Faiyum","labelLocal":"Faiyum","labelBoth":"Faiyum","type":"Governorate","iso":"EG-FYM","qid":"Q30656"},"geometry":{"type":"Polygon","coordinates":[[[31.1019,29.4001],[31.0305,29.6805],[30.746,29.7143],[30.2816,29.485],[29.8149,29.0884],[30.3637,28.9798],[30.7802,29.0824],[31.1019,29.4001]]]}},{"type":"Feature","id":"label-EGY-1542","properties":{"kind":"division-label","code":"EGY-1542","countryCode":"EGY","name":"Faiyum","localName":"Faiyum","labelEnglish":"Faiyum","labelLocal":"Faiyum","labelBoth":"Faiyum","type":"Governorate","iso":"EG-FYM","qid":"Q30656"},"geometry":{"type":"Point","coordinates":[30.4584,29.2965]}},{"type":"Feature","id":"EGY-1546","properties":{"kind":"division","code":"EGY-1546","countryCode":"EGY","name":"Beni Suef","localName":"Beni Suef","labelEnglish":"Beni Suef","labelLocal":"Beni Suef","labelBoth":"Beni Suef","type":"Governorate","iso":"EG-BNS","qid":"Q30683"},"geometry":{"type":"Polygon","coordinates":[[[31.1019,29.4001],[30.7802,29.0824],[30.3637,28.9798],[29.8149,29.0884],[29.7492,28.7593],[30.7687,28.781],[30.9442,28.7157],[31.2553,29.2988],[31.1019,29.4001]]]}},{"type":"Feature","id":"label-EGY-1546","properties":{"kind":"division-label","code":"EGY-1546","countryCode":"EGY","name":"Beni Suef","localName":"Beni Suef","labelEnglish":"Beni Suef","labelLocal":"Beni Suef","labelBoth":"Beni Suef","type":"Governorate","iso":"EG-BNS","qid":"Q30683"},"geometry":{"type":"Point","coordinates":[30.5041,28.8948]}},{"type":"Feature","id":"EGY-1532","properties":{"kind":"division","code":"EGY-1532","countryCode":"EGY","name":"Monufia","localName":"Monufia","labelEnglish":"Monufia","labelLocal":"Monufia","labelBoth":"Monufia","type":"Governorate","iso":"EG-MNF","qid":"Q30786"},"geometry":{"type":"Polygon","coordinates":[[[30.8331,30.3338],[31.1454,30.1754],[31.2512,30.5651],[30.7961,30.6802],[30.8331,30.3338]]]}},{"type":"Feature","id":"label-EGY-1532","properties":{"kind":"division-label","code":"EGY-1532","countryCode":"EGY","name":"Monufia","localName":"Monufia","labelEnglish":"Monufia","labelLocal":"Monufia","labelBoth":"Monufia","type":"Governorate","iso":"EG-MNF","qid":"Q30786"},"geometry":{"type":"Point","coordinates":[31.0029,30.5076]}},{"type":"Feature","id":"EGY-1534","properties":{"kind":"division","code":"EGY-1534","countryCode":"EGY","name":"Qalyubia","localName":"Qalyubia","labelEnglish":"Qalyubia","labelLocal":"Qalyubia","labelBoth":"Qalyubia","type":"Governorate","iso":"EG-KB","qid":"Q31075"},"geometry":{"type":"Polygon","coordinates":[[[31.5939,30.1904],[31.2725,30.437],[31.3529,30.5738],[31.2537,30.5884],[31.2512,30.5651],[31.1454,30.1754],[31.2376,30.1148],[31.5939,30.1904]]]}},{"type":"Feature","id":"label-EGY-1534","properties":{"kind":"division-label","code":"EGY-1534","countryCode":"EGY","name":"Qalyubia","localName":"Qalyubia","labelEnglish":"Qalyubia","labelLocal":"Qalyubia","labelBoth":"Qalyubia","type":"Governorate","iso":"EG-KB","qid":"Q31075"},"geometry":{"type":"Point","coordinates":[31.325,30.2725]}},{"type":"Feature","id":"EGY-1530","properties":{"kind":"division","code":"EGY-1530","countryCode":"EGY","name":"Gharbia","localName":"Gharbia","labelEnglish":"Gharbia","labelLocal":"Gharbia","labelBoth":"Gharbia","type":"Governorate","iso":"EG-GH","qid":"Q30835"},"geometry":{"type":"Polygon","coordinates":[[[30.7961,30.6802],[31.2512,30.5651],[31.2537,30.5884],[31.2485,31.1099],[30.7636,30.9836],[30.7961,30.6802]]]}},{"type":"Feature","id":"label-EGY-1530","properties":{"kind":"division-label","code":"EGY-1530","countryCode":"EGY","name":"Gharbia","localName":"Gharbia","labelEnglish":"Gharbia","labelLocal":"Gharbia","labelBoth":"Gharbia","type":"Governorate","iso":"EG-GH","qid":"Q30835"},"geometry":{"type":"Point","coordinates":[31.0287,30.8504]}},{"type":"Feature","id":"EGY-1552","properties":{"kind":"division","code":"EGY-1552","countryCode":"EGY","name":"Sohag","localName":"Sohag","labelEnglish":"Sohag","labelLocal":"Sohag","labelBoth":"Sohag","type":"Governorate","iso":"EG-SHG","qid":"Q30669"},"geometry":{"type":"Polygon","coordinates":[[[31.9523,26.1399],[32.3075,26.1582],[31.9885,26.4077],[31.619,26.8332],[31.3,26.8374],[31.9523,26.1399]]]}},{"type":"Feature","id":"label-EGY-1552","properties":{"kind":"division-label","code":"EGY-1552","countryCode":"EGY","name":"Sohag","localName":"Sohag","labelEnglish":"Sohag","labelLocal":"Sohag","labelBoth":"Sohag","type":"Governorate","iso":"EG-SHG","qid":"Q30669"},"geometry":{"type":"Point","coordinates":[31.8037,26.5104]}},{"type":"Feature","id":"EGY-1551","properties":{"kind":"division","code":"EGY-1551","countryCode":"EGY","name":"Qena","localName":"Qena","labelEnglish":"Qena","labelLocal":"Qena","labelBoth":"Qena","type":"Governorate","iso":"EG-KN","qid":"Q31065"},"geometry":{"type":"Polygon","coordinates":[[[32.3075,26.1582],[31.9523,26.1399],[32.2241,25.9701],[32.5916,26.0973],[32.7481,26.0012],[32.443,25.5971],[32.6539,25.1457],[32.7048,25.2699],[32.6211,25.4846],[32.9311,25.9355],[32.7625,26.2383],[32.3075,26.1582]],[[32.6514,25.6831],[32.6249,25.6872],[32.6497,25.7299],[32.6514,25.6831]]]}},{"type":"Feature","id":"label-EGY-1551","properties":{"kind":"division-label","code":"EGY-1551","countryCode":"EGY","name":"Qena","localName":"Qena","labelEnglish":"Qena","labelLocal":"Qena","labelBoth":"Qena","type":"Governorate","iso":"EG-KN","qid":"Q31065"},"geometry":{"type":"Point","coordinates":[32.4417,26.1216]}},{"type":"Feature","id":"EGY-1549","properties":{"kind":"division","code":"EGY-1549","countryCode":"EGY","name":"Asyut","localName":"Asyut","labelEnglish":"Asyut","labelLocal":"Asyut","labelBoth":"Asyut","type":"Governorate","iso":"EG-AST","qid":"Q29965"},"geometry":{"type":"Polygon","coordinates":[[[30.6712,27.634],[30.7737,27.3601],[31.1743,27.0642],[31.3,26.8374],[31.619,26.8332],[31.2367,27.3172],[30.9842,27.4184],[30.9412,27.6201],[30.6712,27.634]]]}},{"type":"Feature","id":"label-EGY-1549","properties":{"kind":"division-label","code":"EGY-1549","countryCode":"EGY","name":"Asyut","localName":"Asyut","labelEnglish":"Asyut","labelLocal":"Asyut","labelBoth":"Asyut","type":"Governorate","iso":"EG-AST","qid":"Q29965"},"geometry":{"type":"Point","coordinates":[31.1431,27.2223]}},{"type":"Feature","id":"EGY-5494","properties":{"kind":"division","code":"EGY-5494","countryCode":"EGY","name":"Luxor","localName":"Luxor","labelEnglish":"Luxor","labelLocal":"Luxor","labelBoth":"Luxor","type":"Governorate","iso":"EG-LX","qid":"Q30797"},"geometry":{"type":"Polygon","coordinates":[[[32.6514,25.6831],[32.6497,25.7299],[32.6249,25.6872],[32.6514,25.6831]]]}},{"type":"Feature","id":"label-EGY-5494","properties":{"kind":"division-label","code":"EGY-5494","countryCode":"EGY","name":"Luxor","localName":"Luxor","labelEnglish":"Luxor","labelLocal":"Luxor","labelBoth":"Luxor","type":"Governorate","iso":"EG-LX","qid":"Q30797"},"geometry":{"type":"Point","coordinates":[32.6501,25.705]}}]}