{"type":"FeatureCollection","features":[{"type":"Feature","id":"ERI-1565","properties":{"kind":"division","code":"ERI-1565","countryCode":"ERI","name":"Southern Red Sea","localName":"Southern Red Sea","labelEnglish":"Southern Red Sea","labelLocal":"Southern Red Sea","labelBoth":"Southern Red Sea","type":"Region","iso":"ER-DK","qid":"Q27928"},"geometry":{"type":"Polygon","coordinates":[[[43.1177,12.7079],[42.7739,12.8621],[42.5207,13.2355],[42.3794,13.2226],[42.2884,13.5746],[41.981,13.8378],[41.6765,13.9403],[41.1561,14.6416],[40.7664,14.6953],[40.5723,14.9512],[40.5757,14.7015],[40.3537,14.3352],[40.8332,14.106],[41.192,13.6159],[41.7118,13.2479],[41.9466,12.8762],[42.3795,12.4659],[42.6962,12.3801],[43.1177,12.7079]]]}},{"type":"Feature","id":"label-ERI-1565","properties":{"kind":"division-label","code":"ERI-1565","countryCode":"ERI","name":"Southern Red Sea","localName":"Southern Red Sea","labelEnglish":"Southern Red Sea","labelLocal":"Southern Red Sea","labelBoth":"Southern Red Sea","type":"Region","iso":"ER-DK","qid":"Q27928"},"geometry":{"type":"Point","coordinates":[41.7389,13.5712]}},{"type":"Feature","id":"ERI-1562","properties":{"kind":"division","code":"ERI-1562","countryCode":"ERI","name":"Debub","localName":"Debub","labelEnglish":"Debub","labelLocal":"Debub","labelBoth":"Debub","type":"Region","iso":"ER-DU","qid":"Q27728"},"geometry":{"type":"Polygon","coordinates":[[[38.6016,18.0048],[38.2097,17.5223],[38.0144,17.5393],[37.9931,16.8931],[38.0858,16.626],[38.3136,16.5866],[38.5217,16.2064],[38.531,15.9497],[38.8089,15.8687],[38.9587,15.5757],[39.3263,15.176],[39.723,14.5017],[39.9998,14.4552],[40.3537,14.3352],[40.5757,14.7015],[40.5723,14.9512],[40.1594,14.9822],[40.0724,15.3507],[39.8753,15.5041],[39.7183,15.2639],[39.5872,15.5314],[39.4575,15.5246],[39.427,15.8204],[39.2356,16.1087],[39.1633,16.6282],[38.929,17.3971],[38.6016,18.0048]]]}},{"type":"Feature","id":"label-ERI-1562","properties":{"kind":"division-label","code":"ERI-1562","countryCode":"ERI","name":"Debub","localName":"Debub","labelEnglish":"Debub","labelLocal":"Debub","labelBoth":"Debub","type":"Region","iso":"ER-DU","qid":"Q27728"},"geometry":{"type":"Point","coordinates":[40.1691,15.6179]}},{"type":"Feature","id":"ERI-1563","properties":{"kind":"division","code":"ERI-1563","countryCode":"ERI","name":"Northern Red Sea","localName":"Northern Red Sea","labelEnglish":"Northern Red Sea","labelLocal":"Northern Red Sea","labelBoth":"Northern Red Sea","type":"Region","iso":"ER-SK","qid":"Q27910"},"geometry":{"type":"Polygon","coordinates":[[[38.0144,17.5393],[37.5068,17.3185],[37.4034,17.0299],[36.9734,17.0621],[36.9273,16.4354],[37.0699,16.1749],[37.5511,15.8462],[38.1068,15.6943],[38.2786,15.7315],[38.5008,15.5501],[38.7863,15.5568],[38.9587,15.5757],[38.8089,15.8687],[38.531,15.9497],[38.5217,16.2064],[38.3136,16.5866],[38.0858,16.626],[37.9931,16.8931],[38.0144,17.5393]]]}},{"type":"Feature","id":"label-ERI-1563","properties":{"kind":"division-label","code":"ERI-1563","countryCode":"ERI","name":"Northern Red Sea","localName":"Northern Red Sea","labelEnglish":"Northern Red Sea","labelLocal":"Northern Red Sea","labelBoth":"Northern Red Sea","type":"Region","iso":"ER-SK","qid":"Q27910"},"geometry":{"type":"Point","coordinates":[37.9175,16.6263]}},{"type":"Feature","id":"ERI-1560","properties":{"kind":"division","code":"ERI-1560","countryCode":"ERI","name":"Gash-Barka","localName":"Gash-Barka","labelEnglish":"Gash-Barka","labelLocal":"Gash-Barka","labelBoth":"Gash-Barka","type":"Region","iso":"ER-GB","qid":"Q873012"},"geometry":{"type":"Polygon","coordinates":[[[36.5264,14.2635],[37.0727,14.2853],[37.2938,14.4574],[37.565,14.1167],[37.8915,14.8795],[38.2458,14.6525],[38.2497,14.9304],[38.4253,15.0944],[38.7882,15.1556],[38.7863,15.5568],[38.5008,15.5501],[38.2786,15.7315],[38.1068,15.6943],[37.5511,15.8462],[37.0699,16.1749],[36.9273,16.4354],[36.944,16.2529],[36.671,15.7231],[36.6279,15.4456],[36.4236,15.1115],[36.4622,14.7938],[36.5264,14.2635]]]}},{"type":"Feature","id":"label-ERI-1560","properties":{"kind":"division-label","code":"ERI-1560","countryCode":"ERI","name":"Gash-Barka","localName":"Gash-Barka","labelEnglish":"Gash-Barka","labelLocal":"Gash-Barka","labelBoth":"Gash-Barka","type":"Region","iso":"ER-GB","qid":"Q873012"},"geometry":{"type":"Point","coordinates":[37.6058,15.0297]}},{"type":"Feature","id":"ERI-1564","properties":{"kind":"division","code":"ERI-1564","countryCode":"ERI","name":"Maekel","localName":"Maekel","labelEnglish":"Maekel","labelLocal":"Maekel","labelBoth":"Maekel","type":"Region","iso":"ER-MA","qid":"Q27710"},"geometry":{"type":"Polygon","coordinates":[[[38.2458,14.6525],[38.4268,14.4172],[38.8661,14.4937],[39.0755,14.6374],[39.2082,14.4402],[39.515,14.5678],[39.723,14.5017],[39.3263,15.176],[38.7882,15.1556],[38.4253,15.0944],[38.2497,14.9304],[38.2458,14.6525]]]}},{"type":"Feature","id":"label-ERI-1564","properties":{"kind":"division-label","code":"ERI-1564","countryCode":"ERI","name":"Maekel","localName":"Maekel","labelEnglish":"Maekel","labelLocal":"Maekel","labelBoth":"Maekel","type":"Region","iso":"ER-MA","qid":"Q27710"},"geometry":{"type":"Point","coordinates":[38.9679,14.858]}},{"type":"Feature","id":"ERI-1561","properties":{"kind":"division","code":"ERI-1561","countryCode":"ERI","name":"Anseba","localName":"Anseba","labelEnglish":"Anseba","labelLocal":"Anseba","labelBoth":"Anseba","type":"Region","iso":"ER-AN","qid":"Q569468"},"geometry":{"type":"Polygon","coordinates":[[[38.7882,15.1556],[39.3263,15.176],[38.9587,15.5757],[38.7863,15.5568],[38.7882,15.1556]]]}},{"type":"Feature","id":"label-ERI-1561","properties":{"kind":"division-label","code":"ERI-1561","countryCode":"ERI","name":"Anseba","localName":"Anseba","labelEnglish":"Anseba","labelLocal":"Anseba","labelBoth":"Anseba","type":"Region","iso":"ER-AN","qid":"Q569468"},"geometry":{"type":"Point","coordinates":[39.0563,15.2792]}}]}