{"type":"FeatureCollection","features":[{"type":"Feature","id":"ESP-5815","properties":{"kind":"division","code":"ESP-5815","countryCode":"ESP","name":"Ceuta","localName":"Ceuta","labelEnglish":"Ceuta","labelLocal":"Ceuta","labelBoth":"Ceuta","type":"Autonomous City","iso":"ES-CE","qid":"Q5823"},"geometry":{"type":"Polygon","coordinates":[[[-5.3407,35.8474],[-5.2919,35.8905],[-5.3989,35.9245],[-5.3407,35.8474]]]}},{"type":"Feature","id":"label-ESP-5815","properties":{"kind":"division-label","code":"ESP-5815","countryCode":"ESP","name":"Ceuta","localName":"Ceuta","labelEnglish":"Ceuta","labelLocal":"Ceuta","labelBoth":"Ceuta","type":"Autonomous City","iso":"ES-CE","qid":"Q5823"},"geometry":{"type":"Point","coordinates":[-5.341,35.8803]}},{"type":"Feature","id":"ESP-5835","properties":{"kind":"division","code":"ESP-5835","countryCode":"ESP","name":"Melilla","localName":"Melilla","labelEnglish":"Melilla","labelLocal":"Melilla","labelBoth":"Melilla","type":"Autonomous City","iso":"ES-ML","qid":"Q5831"},"geometry":{"type":"Polygon","coordinates":[[[-2.9478,35.3298],[-2.943,35.2679],[-2.9129,35.2769],[-2.9478,35.3298]]]}},{"type":"Feature","id":"label-ESP-5835","properties":{"kind":"division-label","code":"ESP-5835","countryCode":"ESP","name":"Melilla","localName":"Melilla","labelEnglish":"Melilla","labelLocal":"Melilla","labelBoth":"Melilla","type":"Autonomous City","iso":"ES-ML","qid":"Q5831"},"geometry":{"type":"Point","coordinates":[-2.94015,35.2934]}},{"type":"Feature","id":"ESP-5837","properties":{"kind":"division","code":"ESP-5837","countryCode":"ESP","name":"Navarre","localName":"Navarre","labelEnglish":"Navarre","labelLocal":"Navarre","labelBoth":"Navarre","type":"Autonomous Community","iso":"ES-NA","qid":"Q4018"},"geometry":{"type":"Polygon","coordinates":[[[-1.7497,43.2948],[-2.253,42.9001],[-2.4061,42.4971],[-2.0765,42.4426],[-1.6971,42.2158],[-1.8524,42.0012],[-1.4193,41.9089],[-1.4164,42.2206],[-1.145,42.6414],[-0.9044,42.7426],[-0.745,42.9187],[-1.4878,43.0818],[-1.4035,43.2433],[-1.7497,43.2948]]]}},{"type":"Feature","id":"label-ESP-5837","properties":{"kind":"division-label","code":"ESP-5837","countryCode":"ESP","name":"Navarre","localName":"Navarre","labelEnglish":"Navarre","labelLocal":"Navarre","labelBoth":"Navarre","type":"Autonomous Community","iso":"ES-NA","qid":"Q4018"},"geometry":{"type":"Point","coordinates":[-1.63845,42.7493]}},{"type":"Feature","id":"ESP-5823","properties":{"kind":"division","code":"ESP-5823","countryCode":"ESP","name":"Gipuzkoa","localName":"Gipuzkoa","labelEnglish":"Gipuzkoa","labelLocal":"Gipuzkoa","labelBoth":"Gipuzkoa","type":"Autonomous Community","iso":"ES-SS","qid":"Q95010"},"geometry":{"type":"Polygon","coordinates":[[[-1.7941,43.386],[-2.4068,43.3293],[-2.5465,43.088],[-2.253,42.9001],[-1.7497,43.2948],[-1.7941,43.386]]]}},{"type":"Feature","id":"label-ESP-5823","properties":{"kind":"division-label","code":"ESP-5823","countryCode":"ESP","name":"Gipuzkoa","localName":"Gipuzkoa","labelEnglish":"Gipuzkoa","labelLocal":"Gipuzkoa","labelBoth":"Gipuzkoa","type":"Autonomous Community","iso":"ES-SS","qid":"Q95010"},"geometry":{"type":"Point","coordinates":[-2.2243,43.1495]}},{"type":"Feature","id":"ESP-5825","properties":{"kind":"division","code":"ESP-5825","countryCode":"ESP","name":"Huesca","localName":"Huesca","labelEnglish":"Huesca","labelLocal":"Huesca","labelBoth":"Huesca","type":"Autonomous Community","iso":"ES-HU","qid":"Q55182"},"geometry":{"type":"Polygon","coordinates":[[[-0.745,42.9187],[-0.9044,42.7426],[-0.8982,42.4326],[-0.4888,41.7355],[-0.1749,41.582],[-0.0699,41.3729],[0.3383,41.4059],[0.3285,41.6774],[0.5976,41.8744],[0.7511,42.348],[0.6634,42.6962],[0.4669,42.6904],[-0.0389,42.6851],[-0.3051,42.8308],[-0.745,42.9187]]]}},{"type":"Feature","id":"label-ESP-5825","properties":{"kind":"division-label","code":"ESP-5825","countryCode":"ESP","name":"Huesca","localName":"Huesca","labelEnglish":"Huesca","labelLocal":"Huesca","labelBoth":"Huesca","type":"Autonomous Community","iso":"ES-HU","qid":"Q55182"},"geometry":{"type":"Point","coordinates":[-0.0128081,42.1863]}},{"type":"Feature","id":"ESP-5831","properties":{"kind":"division","code":"ESP-5831","countryCode":"ESP","name":"Lleida","localName":"Lleida","labelEnglish":"Lleida","labelLocal":"Lleida","labelBoth":"Lleida","type":"Autonomous Community","iso":"ES-L","qid":"Q13904"},"geometry":{"type":"Polygon","coordinates":[[[0.8561,42.8128],[0.6634,42.6962],[0.7511,42.348],[0.5976,41.8744],[0.3285,41.6774],[0.3383,41.4059],[0.3604,41.2328],[0.9577,41.3545],[1.3927,41.575],[1.8425,42.3063],[1.7122,42.4937],[1.707,42.5028],[1.657,42.4976],[1.5727,42.4531],[1.45,42.5041],[1.4293,42.5954],[0.8561,42.8128]]]}},{"type":"Feature","id":"label-ESP-5831","properties":{"kind":"division-label","code":"ESP-5831","countryCode":"ESP","name":"Lleida","localName":"Lleida","labelEnglish":"Lleida","labelLocal":"Lleida","labelBoth":"Lleida","type":"Autonomous Community","iso":"ES-L","qid":"Q13904"},"geometry":{"type":"Point","coordinates":[1.11518,42.0143]}},{"type":"Feature","id":"ESP-5820","properties":{"kind":"division","code":"ESP-5820","countryCode":"ESP","name":"Girona","localName":"Girona","labelEnglish":"Girona","labelLocal":"Girona","labelBoth":"Girona","type":"Autonomous Community","iso":"ES-GI","qid":"Q7194"},"geometry":{"type":"Polygon","coordinates":[[[1.7122,42.4937],[1.8425,42.3063],[2.0655,42.1372],[2.5026,42.0259],[2.3627,41.7987],[2.7785,41.6456],[3.2357,41.9655],[3.1225,42.1405],[3.3177,42.323],[3.181,42.4315],[2.9337,42.4702],[2.4649,42.3406],[2.0517,42.3524],[1.7122,42.4937]]]}},{"type":"Feature","id":"label-ESP-5820","properties":{"kind":"division-label","code":"ESP-5820","countryCode":"ESP","name":"Girona","localName":"Girona","labelEnglish":"Girona","labelLocal":"Girona","labelBoth":"Girona","type":"Autonomous Community","iso":"ES-GI","qid":"Q7194"},"geometry":{"type":"Point","coordinates":[2.79123,42.0844]}},{"type":"Feature","id":"ESP-5807","properties":{"kind":"division","code":"ESP-5807","countryCode":"ESP","name":"Badajoz","localName":"Badajoz","labelEnglish":"Badajoz","labelLocal":"Badajoz","labelBoth":"Badajoz","type":"Autonomous Community","iso":"ES-BA","qid":"Q81803"},"geometry":{"type":"Polygon","coordinates":[[[-7.2259,38.7661],[-7.3592,38.4464],[-7.1171,38.1836],[-6.9506,38.1984],[-6.1833,37.939],[-5.8371,38.1743],[-5.581,38.1351],[-5.5694,38.4253],[-5.0366,38.7284],[-4.8466,38.946],[-4.6927,39.4498],[-4.753,39.4182],[-4.9444,39.3919],[-5.3396,39.3236],[-6.1422,39.0315],[-6.3715,39.1629],[-6.7695,39.1906],[-6.7995,39.377],[-7.0492,39.4367],[-7.2508,39.2706],[-6.9733,39.014],[-7.2259,38.7661]]]}},{"type":"Feature","id":"label-ESP-5807","properties":{"kind":"division-label","code":"ESP-5807","countryCode":"ESP","name":"Badajoz","localName":"Badajoz","labelEnglish":"Badajoz","labelLocal":"Badajoz","labelBoth":"Badajoz","type":"Autonomous Community","iso":"ES-BA","qid":"Q81803"},"geometry":{"type":"Point","coordinates":[-6.26724,38.5731]}},{"type":"Feature","id":"ESP-5812","properties":{"kind":"division","code":"ESP-5812","countryCode":"ESP","name":"Cádiz","localName":"Cádiz","labelEnglish":"Cádiz","labelLocal":"Cádiz","labelBoth":"Cádiz","type":"Autonomous Community","iso":"ES-CA","qid":"Q81978"},"geometry":{"type":"Polygon","coordinates":[[[-5.3388,36.1411],[-5.2537,36.2971],[-5.4413,36.5236],[-5.335,36.8397],[-5.1422,37.0037],[-5.6691,36.9652],[-5.891,36.8421],[-6.2316,36.9028],[-6.4333,36.7512],[-6.1595,36.3043],[-5.6118,36.0065],[-5.3584,36.1411],[-5.3388,36.1411]]]}},{"type":"Feature","id":"label-ESP-5812","properties":{"kind":"division-label","code":"ESP-5812","countryCode":"ESP","name":"Cádiz","localName":"Cádiz","labelEnglish":"Cádiz","labelLocal":"Cádiz","labelBoth":"Cádiz","type":"Autonomous Community","iso":"ES-CA","qid":"Q81978"},"geometry":{"type":"Point","coordinates":[-5.82488,36.4828]}},{"type":"Feature","id":"ESP-5838","properties":{"kind":"division","code":"ESP-5838","countryCode":"ESP","name":"Ourense","localName":"Ourense","labelEnglish":"Ourense","labelLocal":"Ourense","labelBoth":"Ourense","type":"Autonomous Community","iso":"ES-OR","qid":"Q95038"},"geometry":{"type":"Polygon","coordinates":[[[-8.2224,42.1536],[-8.1793,41.8126],[-8.0504,41.816],[-7.2093,41.8892],[-6.9835,41.963],[-6.7832,42.2529],[-6.8211,42.4851],[-7.071,42.5035],[-7.6173,42.4021],[-7.9308,42.5785],[-8.3406,42.4923],[-8.2224,42.1536]]]}},{"type":"Feature","id":"label-ESP-5838","properties":{"kind":"division-label","code":"ESP-5838","countryCode":"ESP","name":"Ourense","localName":"Ourense","labelEnglish":"Ourense","labelLocal":"Ourense","labelBoth":"Ourense","type":"Autonomous Community","iso":"ES-OR","qid":"Q95038"},"geometry":{"type":"Point","coordinates":[-7.59234,42.1609]}},{"type":"Feature","id":"ESP-5811","properties":{"kind":"division","code":"ESP-5811","countryCode":"ESP","name":"Cáceres","localName":"Cáceres","labelEnglish":"Cáceres","labelLocal":"Cáceres","labelBoth":"Cáceres","type":"Autonomous Community","iso":"ES-CC","qid":"Q81977"},"geometry":{"type":"Polygon","coordinates":[[[-7.2508,39.2706],[-7.0492,39.4367],[-6.7995,39.377],[-6.7695,39.1906],[-6.3715,39.1629],[-6.1422,39.0315],[-5.3396,39.3236],[-4.9444,39.3919],[-5.1976,39.5996],[-5.1681,39.7929],[-5.3862,39.881],[-5.328,40.1159],[-5.7277,40.294],[-6.2067,40.4776],[-6.6886,40.2497],[-6.8745,40.2792],[-6.9421,40.255],[-6.8797,40.0092],[-7.0358,39.6893],[-7.5559,39.6772],[-7.2508,39.2706]]]}},{"type":"Feature","id":"label-ESP-5811","properties":{"kind":"division-label","code":"ESP-5811","countryCode":"ESP","name":"Cáceres","localName":"Cáceres","labelEnglish":"Cáceres","labelLocal":"Cáceres","labelBoth":"Cáceres","type":"Autonomous Community","iso":"ES-CC","qid":"Q81977"},"geometry":{"type":"Point","coordinates":[-6.08204,39.7279]}},{"type":"Feature","id":"ESP-5841","properties":{"kind":"division","code":"ESP-5841","countryCode":"ESP","name":"Salamanca","localName":"Salamanca","labelEnglish":"Salamanca","labelLocal":"Salamanca","labelBoth":"Salamanca","type":"Autonomous Community","iso":"ES-SA","qid":"Q71080"},"geometry":{"type":"Polygon","coordinates":[[[-6.8745,40.2792],[-6.6886,40.2497],[-6.2067,40.4776],[-5.7277,40.294],[-5.5173,40.5829],[-5.1615,40.8185],[-5.1251,41.132],[-5.2888,41.1821],[-5.6605,41.2441],[-6.0276,41.165],[-6.4821,41.303],[-6.9274,41.0481],[-6.8143,40.6472],[-6.8745,40.2792]]]}},{"type":"Feature","id":"label-ESP-5841","properties":{"kind":"division-label","code":"ESP-5841","countryCode":"ESP","name":"Salamanca","localName":"Salamanca","labelEnglish":"Salamanca","labelLocal":"Salamanca","labelBoth":"Salamanca","type":"Autonomous Community","iso":"ES-SA","qid":"Q71080"},"geometry":{"type":"Point","coordinates":[-5.9926,40.8324]}},{"type":"Feature","id":"ESP-5852","properties":{"kind":"division","code":"ESP-5852","countryCode":"ESP","name":"Zamora","localName":"Zamora","labelEnglish":"Zamora","labelLocal":"Zamora","labelBoth":"Zamora","type":"Autonomous Community","iso":"ES-ZA","qid":"Q71113"},"geometry":{"type":"Polygon","coordinates":[[[-6.4821,41.303],[-6.0276,41.165],[-5.6605,41.2441],[-5.2888,41.1821],[-5.2796,41.8133],[-5.3763,42.0414],[-5.4216,42.0308],[-5.5208,42.097],[-6.7832,42.2529],[-6.9835,41.963],[-6.5676,41.9261],[-6.5774,41.7397],[-6.2059,41.5703],[-6.4821,41.303]]]}},{"type":"Feature","id":"label-ESP-5852","properties":{"kind":"division-label","code":"ESP-5852","countryCode":"ESP","name":"Zamora","localName":"Zamora","labelEnglish":"Zamora","labelLocal":"Zamora","labelBoth":"Zamora","type":"Autonomous Community","iso":"ES-ZA","qid":"Q71113"},"geometry":{"type":"Point","coordinates":[-5.84292,41.6837]}},{"type":"Feature","id":"ESP-5840","properties":{"kind":"division","code":"ESP-5840","countryCode":"ESP","name":"Pontevedra","localName":"Pontevedra","labelEnglish":"Pontevedra","labelLocal":"Pontevedra","labelBoth":"Pontevedra","type":"Autonomous Community","iso":"ES-PO","qid":"Q95086"},"geometry":{"type":"Polygon","coordinates":[[[-8.2224,42.1536],[-8.3406,42.4923],[-7.9308,42.5785],[-7.9998,42.8489],[-8.7309,42.6884],[-8.8675,42.4147],[-8.6252,42.3019],[-8.8986,42.1018],[-8.7508,41.969],[-8.2224,42.1536]]]}},{"type":"Feature","id":"label-ESP-5840","properties":{"kind":"division-label","code":"ESP-5840","countryCode":"ESP","name":"Pontevedra","localName":"Pontevedra","labelEnglish":"Pontevedra","labelLocal":"Pontevedra","labelBoth":"Pontevedra","type":"Autonomous Community","iso":"ES-PO","qid":"Q95086"},"geometry":{"type":"Point","coordinates":[-8.4998,42.5257]}},{"type":"Feature","id":"ESP-5824","properties":{"kind":"division","code":"ESP-5824","countryCode":"ESP","name":"Huelva","localName":"Huelva","labelEnglish":"Huelva","labelLocal":"Huelva","labelBoth":"Huelva","type":"Autonomous Community","iso":"ES-H","qid":"Q95015"},"geometry":{"type":"Polygon","coordinates":[[[-7.4144,37.1928],[-6.8929,37.1666],[-6.3391,36.9047],[-6.3941,37.6042],[-6.469,37.7247],[-6.1244,37.8047],[-6.1833,37.939],[-6.9506,38.1984],[-7.2727,37.977],[-7.5146,37.5283],[-7.4144,37.1928]]]}},{"type":"Feature","id":"label-ESP-5824","properties":{"kind":"division-label","code":"ESP-5824","countryCode":"ESP","name":"Huelva","localName":"Huelva","labelEnglish":"Huelva","labelLocal":"Huelva","labelBoth":"Huelva","type":"Autonomous Community","iso":"ES-H","qid":"Q95015"},"geometry":{"type":"Point","coordinates":[-6.90248,37.6217]}},{"type":"Feature","id":"ESP-5809","properties":{"kind":"division","code":"ESP-5809","countryCode":"ESP","name":"Barcelona","localName":"Barcelona","labelEnglish":"Barcelona","labelLocal":"Barcelona","labelBoth":"Barcelona","type":"Autonomous Community","iso":"ES-B","qid":"Q81949"},"geometry":{"type":"Polygon","coordinates":[[[2.7785,41.6456],[2.3627,41.7987],[2.5026,42.0259],[2.0655,42.1372],[1.8425,42.3063],[1.3927,41.575],[1.6244,41.1922],[2.0603,41.2746],[2.2967,41.4653],[2.7785,41.6456]]]}},{"type":"Feature","id":"label-ESP-5809","properties":{"kind":"division-label","code":"ESP-5809","countryCode":"ESP","name":"Barcelona","localName":"Barcelona","labelEnglish":"Barcelona","labelLocal":"Barcelona","labelBoth":"Barcelona","type":"Autonomous Community","iso":"ES-B","qid":"Q81949"},"geometry":{"type":"Point","coordinates":[2.00777,41.6575]}},{"type":"Feature","id":"ESP-5846","properties":{"kind":"division","code":"ESP-5846","countryCode":"ESP","name":"Tarragona","localName":"Tarragona","labelEnglish":"Tarragona","labelLocal":"Tarragona","labelBoth":"Tarragona","type":"Autonomous Community","iso":"ES-T","qid":"Q98392"},"geometry":{"type":"Polygon","coordinates":[[[1.6244,41.1922],[1.3927,41.575],[0.9577,41.3545],[0.3604,41.2328],[0.2165,41.0706],[0.173,40.7309],[0.5238,40.5262],[0.8483,40.6754],[0.7142,40.8152],[0.9904,41.0397],[1.6244,41.1922]]]}},{"type":"Feature","id":"label-ESP-5846","properties":{"kind":"division-label","code":"ESP-5846","countryCode":"ESP","name":"Tarragona","localName":"Tarragona","labelEnglish":"Tarragona","labelLocal":"Tarragona","labelBoth":"Tarragona","type":"Autonomous Community","iso":"ES-T","qid":"Q98392"},"geometry":{"type":"Point","coordinates":[0.873012,41.1476]}},{"type":"Feature","id":"ESP-5814","properties":{"kind":"division","code":"ESP-5814","countryCode":"ESP","name":"Castellón","localName":"Castellón","labelEnglish":"Castellón","labelLocal":"Castellón","labelBoth":"Castellón","type":"Autonomous Community","iso":"ES-CS","qid":"Q54942"},"geometry":{"type":"Polygon","coordinates":[[[0.5238,40.5262],[0.173,40.7309],[-0.1658,40.7799],[-0.3773,40.6602],[-0.2921,40.3655],[-0.5442,40.2401],[-0.7913,39.8775],[-0.6189,39.7459],[-0.1945,39.7154],[0.5238,40.5262]]]}},{"type":"Feature","id":"label-ESP-5814","properties":{"kind":"division-label","code":"ESP-5814","countryCode":"ESP","name":"Castellón","localName":"Castellón","labelEnglish":"Castellón","labelLocal":"Castellón","labelBoth":"Castellón","type":"Autonomous Community","iso":"ES-CS","qid":"Q54942"},"geometry":{"type":"Point","coordinates":[-0.0975114,40.222]}},{"type":"Feature","id":"ESP-5849","properties":{"kind":"division","code":"ESP-5849","countryCode":"ESP","name":"Valencia","localName":"Valencia","labelEnglish":"Valencia","labelLocal":"Valencia","labelBoth":"Valencia","type":"Autonomous Community","iso":"ES-V","qid":"Q54939"},"geometry":{"type":"Polygon","coordinates":[[[-0.1945,39.7154],[-0.6189,39.7459],[-0.7913,39.8775],[-1.1455,39.9723],[-1.501,39.422],[-1.1777,39.3041],[-1.2621,39.0737],[-0.9306,38.7855],[-0.031,38.8828],[-0.21,39.0787],[-0.3234,39.5162],[-0.1945,39.7154]]]}},{"type":"Feature","id":"label-ESP-5849","properties":{"kind":"division-label","code":"ESP-5849","countryCode":"ESP","name":"Valencia","localName":"Valencia","labelEnglish":"Valencia","labelLocal":"Valencia","labelBoth":"Valencia","type":"Autonomous Community","iso":"ES-V","qid":"Q54939"},"geometry":{"type":"Point","coordinates":[-0.712245,39.3003]}},{"type":"Feature","id":"ESP-5803","properties":{"kind":"division","code":"ESP-5803","countryCode":"ESP","name":"Alicante","localName":"Alicante","labelEnglish":"Alicante","labelLocal":"Alicante","labelBoth":"Alicante","type":"Autonomous Community","iso":"ES-A","qid":"Q54936"},"geometry":{"type":"Polygon","coordinates":[[[-0.031,38.8828],[-0.9306,38.7855],[-1.0221,38.6545],[-1.0329,38.1169],[-0.7606,37.8459],[-0.5098,38.3384],[0.2277,38.7346],[-0.031,38.8828]]]}},{"type":"Feature","id":"label-ESP-5803","properties":{"kind":"division-label","code":"ESP-5803","countryCode":"ESP","name":"Alicante","localName":"Alicante","labelEnglish":"Alicante","labelLocal":"Alicante","labelBoth":"Alicante","type":"Autonomous Community","iso":"ES-A","qid":"Q54936"},"geometry":{"type":"Point","coordinates":[-0.533879,38.5418]}},{"type":"Feature","id":"ESP-5836","properties":{"kind":"division","code":"ESP-5836","countryCode":"ESP","name":"Murcia","localName":"Murcia","labelEnglish":"Murcia","labelLocal":"Murcia","labelBoth":"Murcia","type":"Autonomous Community","iso":"ES-MU","qid":"Q5772"},"geometry":{"type":"Polygon","coordinates":[[[-0.7606,37.8459],[-1.0329,38.1169],[-1.0221,38.6545],[-1.4336,38.6558],[-1.4779,38.4037],[-2.0591,38.2904],[-2.3385,38.0265],[-2.2097,37.9157],[-1.9828,37.8708],[-2.0007,37.6538],[-1.6416,37.381],[-1.2427,37.5792],[-0.7053,37.6195],[-0.7606,37.8459]]]}},{"type":"Feature","id":"label-ESP-5836","properties":{"kind":"division-label","code":"ESP-5836","countryCode":"ESP","name":"Murcia","localName":"Murcia","labelEnglish":"Murcia","labelLocal":"Murcia","labelBoth":"Murcia","type":"Autonomous Community","iso":"ES-MU","qid":"Q5772"},"geometry":{"type":"Point","coordinates":[-1.45758,37.9136]}},{"type":"Feature","id":"ESP-5804","properties":{"kind":"division","code":"ESP-5804","countryCode":"ESP","name":"Almería","localName":"Almería","labelEnglish":"Almería","labelLocal":"Almería","labelBoth":"Almería","type":"Autonomous Community","iso":"ES-AL","qid":"Q81802"},"geometry":{"type":"Polygon","coordinates":[[[-1.6416,37.381],[-2.0007,37.6538],[-1.9828,37.8708],[-2.2097,37.9157],[-2.3585,37.5222],[-2.8599,37.2609],[-3.1282,36.7464],[-2.6589,36.6948],[-2.3617,36.8368],[-2.1267,36.7364],[-1.8987,36.9501],[-1.6416,37.381]]]}},{"type":"Feature","id":"label-ESP-5804","properties":{"kind":"division-label","code":"ESP-5804","countryCode":"ESP","name":"Almería","localName":"Almería","labelEnglish":"Almería","labelLocal":"Almería","labelBoth":"Almería","type":"Autonomous Community","iso":"ES-AL","qid":"Q81802"},"geometry":{"type":"Point","coordinates":[-2.22473,37.1563]}},{"type":"Feature","id":"ESP-5821","properties":{"kind":"division","code":"ESP-5821","countryCode":"ESP","name":"Granada","localName":"Granada","labelEnglish":"Granada","labelLocal":"Granada","labelBoth":"Granada","type":"Autonomous Community","iso":"ES-GR","qid":"Q82142"},"geometry":{"type":"Polygon","coordinates":[[[-3.1282,36.7464],[-2.8599,37.2609],[-2.3585,37.5222],[-2.2097,37.9157],[-2.3385,38.0265],[-2.5474,38.0806],[-2.9834,37.6015],[-3.5071,37.6133],[-4.0009,37.4021],[-4.3203,37.1866],[-4.261,37.024],[-3.7772,36.7358],[-3.1282,36.7464]]]}},{"type":"Feature","id":"label-ESP-5821","properties":{"kind":"division-label","code":"ESP-5821","countryCode":"ESP","name":"Granada","localName":"Granada","labelEnglish":"Granada","labelLocal":"Granada","labelBoth":"Granada","type":"Autonomous Community","iso":"ES-GR","qid":"Q82142"},"geometry":{"type":"Point","coordinates":[-3.2411,37.2665]}},{"type":"Feature","id":"ESP-5834","properties":{"kind":"division","code":"ESP-5834","countryCode":"ESP","name":"Málaga","localName":"Málaga","labelEnglish":"Málaga","labelLocal":"Málaga","labelBoth":"Málaga","type":"Autonomous Community","iso":"ES-MA","qid":"Q95028"},"geometry":{"type":"Polygon","coordinates":[[[-3.7772,36.7358],[-4.261,37.024],[-4.3203,37.1866],[-4.6532,37.2559],[-5.1422,37.0037],[-5.335,36.8397],[-5.4413,36.5236],[-5.2537,36.2971],[-5.1866,36.4112],[-4.7228,36.493],[-4.4333,36.7107],[-3.7772,36.7358]]]}},{"type":"Feature","id":"label-ESP-5834","properties":{"kind":"division-label","code":"ESP-5834","countryCode":"ESP","name":"Málaga","localName":"Málaga","labelEnglish":"Málaga","labelLocal":"Málaga","labelBoth":"Málaga","type":"Autonomous Community","iso":"ES-MA","qid":"Q95028"},"geometry":{"type":"Point","coordinates":[-4.68606,36.838]}},{"type":"Feature","id":"ESP-5844","properties":{"kind":"division","code":"ESP-5844","countryCode":"ESP","name":"Seville","localName":"Seville","labelEnglish":"Seville","labelLocal":"Seville","labelBoth":"Seville","type":"Autonomous Community","iso":"ES-SE","qid":"Q95088"},"geometry":{"type":"Polygon","coordinates":[[[-6.2316,36.9028],[-5.891,36.8421],[-5.6691,36.9652],[-5.1422,37.0037],[-4.6532,37.2559],[-5.0266,37.7105],[-5.3801,37.6118],[-5.3097,37.7734],[-5.581,38.1351],[-5.8371,38.1743],[-6.1833,37.939],[-6.1244,37.8047],[-6.469,37.7247],[-6.3941,37.6042],[-6.3391,36.9047],[-6.2316,36.9028]]]}},{"type":"Feature","id":"label-ESP-5844","properties":{"kind":"division-label","code":"ESP-5844","countryCode":"ESP","name":"Seville","localName":"Seville","labelEnglish":"Seville","labelLocal":"Seville","labelBoth":"Seville","type":"Autonomous Community","iso":"ES-SE","qid":"Q95088"},"geometry":{"type":"Point","coordinates":[-5.73917,37.438]}},{"type":"Feature","id":"ESP-5827","properties":{"kind":"division","code":"ESP-5827","countryCode":"ESP","name":"A Coruña","localName":"A Coruña","labelEnglish":"A Coruña","labelLocal":"A Coruña","labelBoth":"A Coruña","type":"Autonomous Community","iso":"ES-C","qid":"Q82119"},"geometry":{"type":"Polygon","coordinates":[[[-8.7309,42.6884],[-7.9998,42.8489],[-7.9614,43.19],[-7.6962,43.7315],[-7.8808,43.7633],[-8.3127,43.5671],[-8.3307,43.4057],[-8.8412,43.3389],[-9.1379,43.2015],[-9.292,42.9226],[-8.9222,42.7881],[-9.0709,42.5961],[-8.7309,42.6884]]]}},{"type":"Feature","id":"label-ESP-5827","properties":{"kind":"division-label","code":"ESP-5827","countryCode":"ESP","name":"A Coruña","localName":"A Coruña","labelEnglish":"A Coruña","labelLocal":"A Coruña","labelBoth":"A Coruña","type":"Autonomous Community","iso":"ES-C","qid":"Q82119"},"geometry":{"type":"Point","coordinates":[-8.39736,43.1026]}},{"type":"Feature","id":"ESP-5832","properties":{"kind":"division","code":"ESP-5832","countryCode":"ESP","name":"Lugo","localName":"Lugo","labelEnglish":"Lugo","labelLocal":"Lugo","labelBoth":"Lugo","type":"Autonomous Community","iso":"ES-LU","qid":"Q95027"},"geometry":{"type":"Polygon","coordinates":[[[-7.6962,43.7315],[-7.9614,43.19],[-7.9998,42.8489],[-7.9308,42.5785],[-7.6173,42.4021],[-7.071,42.5035],[-6.8283,42.9148],[-7.1669,43.3862],[-7.0469,43.4837],[-7.3671,43.6801],[-7.6962,43.7315]]]}},{"type":"Feature","id":"label-ESP-5832","properties":{"kind":"division-label","code":"ESP-5832","countryCode":"ESP","name":"Lugo","localName":"Lugo","labelEnglish":"Lugo","labelLocal":"Lugo","labelBoth":"Lugo","type":"Autonomous Community","iso":"ES-LU","qid":"Q95027"},"geometry":{"type":"Point","coordinates":[-7.44266,42.9467]}},{"type":"Feature","id":"ESP-5805","properties":{"kind":"division","code":"ESP-5805","countryCode":"ESP","name":"Asturias","localName":"Asturias","labelEnglish":"Asturias","labelLocal":"Asturias","labelBoth":"Asturias","type":"Autonomous Community","iso":"ES-O","qid":"Q3934"},"geometry":{"type":"Polygon","coordinates":[[[-7.0469,43.4837],[-7.1669,43.3862],[-6.8283,42.9148],[-6.3649,43.0514],[-5.7787,42.9747],[-4.8319,43.1887],[-4.5138,43.4028],[-5.4242,43.5611],[-6.2228,43.5959],[-7.0014,43.5567],[-7.0469,43.4837]]]}},{"type":"Feature","id":"label-ESP-5805","properties":{"kind":"division-label","code":"ESP-5805","countryCode":"ESP","name":"Asturias","localName":"Asturias","labelEnglish":"Asturias","labelLocal":"Asturias","labelBoth":"Asturias","type":"Autonomous Community","iso":"ES-O","qid":"Q3934"},"geometry":{"type":"Point","coordinates":[-5.84196,43.3261]}},{"type":"Feature","id":"ESP-5813","properties":{"kind":"division","code":"ESP-5813","countryCode":"ESP","name":"Cantabria","localName":"Cantabria","labelEnglish":"Cantabria","labelLocal":"Cantabria","labelBoth":"Cantabria","type":"Autonomous Community","iso":"ES-S","qid":"Q3946"},"geometry":{"type":"Polygon","coordinates":[[[-4.5138,43.4028],[-4.8319,43.1887],[-4.7269,43.0159],[-4.4629,43.0509],[-4.0858,42.7631],[-3.8158,42.81],[-3.9526,42.9992],[-3.6478,43.1762],[-3.4238,43.1406],[-3.1506,43.3602],[-3.5544,43.5169],[-4.5138,43.4028]]]}},{"type":"Feature","id":"label-ESP-5813","properties":{"kind":"division-label","code":"ESP-5813","countryCode":"ESP","name":"Cantabria","localName":"Cantabria","labelEnglish":"Cantabria","labelLocal":"Cantabria","labelBoth":"Cantabria","type":"Autonomous Community","iso":"ES-S","qid":"Q3946"},"geometry":{"type":"Point","coordinates":[-4.02085,43.2182]}},{"type":"Feature","id":"ESP-5851","properties":{"kind":"division","code":"ESP-5851","countryCode":"ESP","name":"Biscay","localName":"Biscay","labelEnglish":"Biscay","labelLocal":"Biscay","labelBoth":"Biscay","type":"Autonomous Community","iso":"ES-BI","qid":"Q93366"},"geometry":{"type":"Polygon","coordinates":[[[-3.1506,43.3602],[-3.4238,43.1406],[-3.1418,43.1651],[-2.8954,43.0475],[-2.5465,43.088],[-2.4068,43.3293],[-2.7558,43.4503],[-3.1506,43.3602]]]}},{"type":"Feature","id":"label-ESP-5851","properties":{"kind":"division-label","code":"ESP-5851","countryCode":"ESP","name":"Biscay","localName":"Biscay","labelEnglish":"Biscay","labelLocal":"Biscay","labelBoth":"Biscay","type":"Autonomous Community","iso":"ES-BI","qid":"Q93366"},"geometry":{"type":"Point","coordinates":[-2.7953,43.2392]}},{"type":"Feature","id":"ESP-5842","properties":{"kind":"division","code":"ESP-5842","countryCode":"ESP","name":"Santa Cruz de Tenerife","localName":"Santa Cruz de Tenerife","labelEnglish":"Santa Cruz de Tenerife","labelLocal":"Santa Cruz de Tenerife","labelBoth":"Santa Cruz de Tenerife","type":"Autonomous Community","iso":"ES-TF","qid":"Q99976"},"geometry":{"type":"MultiPolygon","coordinates":[[[[-17.9339,27.852],[-18.1604,27.7224],[-17.9795,27.6425],[-17.9339,27.852]]],[[[-16.4277,28.1497],[-16.1413,28.5834],[-16.5071,28.4241],[-16.9161,28.355],[-16.6763,27.9971],[-16.4277,28.1497]]],[[[-17.7558,28.8185],[-18.0022,28.7496],[-17.8309,28.4554],[-17.7558,28.8185]]]]}},{"type":"Feature","id":"label-ESP-5842","properties":{"kind":"division-label","code":"ESP-5842","countryCode":"ESP","name":"Santa Cruz de Tenerife","localName":"Santa Cruz de Tenerife","labelEnglish":"Santa Cruz de Tenerife","labelLocal":"Santa Cruz de Tenerife","labelBoth":"Santa Cruz de Tenerife","type":"Autonomous Community","iso":"ES-TF","qid":"Q99976"},"geometry":{"type":"Point","coordinates":[-16.6144,28.2566]}},{"type":"Feature","id":"ESP-5829","properties":{"kind":"division","code":"ESP-5829","countryCode":"ESP","name":"Las Palmas","localName":"Las Palmas","labelEnglish":"Las Palmas","labelLocal":"Las Palmas","labelBoth":"Las Palmas","type":"Autonomous Community","iso":"ES-GC","qid":"Q95080"},"geometry":{"type":"MultiPolygon","coordinates":[[[[-15.3916,28.0302],[-15.7062,28.1674],[-15.786,27.8442],[-15.578,27.7344],[-15.3916,28.0302]]],[[[-13.9726,28.7359],[-14.3013,28.0679],[-13.9668,28.228],[-13.8355,28.7155],[-13.9726,28.7359]]],[[[-13.483,29.2399],[-13.7506,29.0806],[-13.8597,28.8594],[-13.482,28.9995],[-13.483,29.2399]]]]}},{"type":"Feature","id":"label-ESP-5829","properties":{"kind":"division-label","code":"ESP-5829","countryCode":"ESP","name":"Las Palmas","localName":"Las Palmas","labelEnglish":"Las Palmas","labelLocal":"Las Palmas","labelBoth":"Las Palmas","type":"Autonomous Community","iso":"ES-GC","qid":"Q95080"},"geometry":{"type":"Point","coordinates":[-15.6013,27.9463]}},{"type":"Feature","id":"ESP-5808","properties":{"kind":"division","code":"ESP-5808","countryCode":"ESP","name":"Balearic Islands","localName":"Balearic Islands","labelEnglish":"Balearic Islands","labelLocal":"Balearic Islands","labelBoth":"Balearic Islands","type":"Autonomous Community","iso":"ES-PM","qid":"Q5765"},"geometry":{"type":"MultiPolygon","coordinates":[[[[1.606,39.0913],[1.2122,38.9032],[1.4031,38.8323],[1.606,39.0913]]],[[[3.3545,39.7844],[3.1795,39.9688],[2.3577,39.6119],[2.6553,39.5647],[3.0608,39.2691],[3.4744,39.7497],[3.3545,39.7844]]],[[[4.3029,39.9255],[4.1051,40.0794],[3.8307,39.9361],[4.2481,39.8165],[4.3029,39.9255]]]]}},{"type":"Feature","id":"label-ESP-5808","properties":{"kind":"division-label","code":"ESP-5808","countryCode":"ESP","name":"Balearic Islands","localName":"Balearic Islands","labelEnglish":"Balearic Islands","labelLocal":"Balearic Islands","labelBoth":"Balearic Islands","type":"Autonomous Community","iso":"ES-PM","qid":"Q5765"},"geometry":{"type":"Point","coordinates":[2.99156,39.6162]}},{"type":"Feature","id":"ESP-5853","properties":{"kind":"division","code":"ESP-5853","countryCode":"ESP","name":"Zaragoza","localName":"Zaragoza","labelEnglish":"Zaragoza","labelLocal":"Zaragoza","labelBoth":"Zaragoza","type":"Autonomous Community","iso":"ES-Z","qid":"Q55180"},"geometry":{"type":"Polygon","coordinates":[[[-0.9044,42.7426],[-1.145,42.6414],[-1.4164,42.2206],[-1.4193,41.9089],[-1.8524,42.0012],[-1.8577,41.9548],[-1.8073,41.6704],[-2.0997,41.4426],[-2.0532,41.1504],[-1.6219,40.9468],[-1.0865,41.1593],[-0.9383,41.0824],[-0.6015,41.3196],[0.2165,41.0706],[0.3604,41.2328],[0.3383,41.4059],[-0.0699,41.3729],[-0.1749,41.582],[-0.4888,41.7355],[-0.8982,42.4326],[-0.9044,42.7426]]]}},{"type":"Feature","id":"label-ESP-5853","properties":{"kind":"division-label","code":"ESP-5853","countryCode":"ESP","name":"Zaragoza","localName":"Zaragoza","labelEnglish":"Zaragoza","labelLocal":"Zaragoza","labelBoth":"Zaragoza","type":"Autonomous Community","iso":"ES-Z","qid":"Q55180"},"geometry":{"type":"Point","coordinates":[-1.0538,41.5814]}},{"type":"Feature","id":"ESP-5828","properties":{"kind":"division","code":"ESP-5828","countryCode":"ESP","name":"La Rioja","localName":"La Rioja","labelEnglish":"La Rioja","labelLocal":"La Rioja","labelBoth":"La Rioja","type":"Autonomous Community","iso":"ES-LO","qid":"Q5727"},"geometry":{"type":"Polygon","coordinates":[[[-2.4061,42.4971],[-2.8373,42.6441],[-3.0142,42.6409],[-3.1204,42.1963],[-2.9102,42.0234],[-2.5729,42.0002],[-2.3474,42.1422],[-1.8577,41.9548],[-1.8524,42.0012],[-1.6971,42.2158],[-2.0765,42.4426],[-2.4061,42.4971]]]}},{"type":"Feature","id":"label-ESP-5828","properties":{"kind":"division-label","code":"ESP-5828","countryCode":"ESP","name":"La Rioja","localName":"La Rioja","labelEnglish":"La Rioja","labelLocal":"La Rioja","labelBoth":"La Rioja","type":"Autonomous Community","iso":"ES-LO","qid":"Q5727"},"geometry":{"type":"Point","coordinates":[-2.40337,42.3179]}},{"type":"Feature","id":"ESP-5801","properties":{"kind":"division","code":"ESP-5801","countryCode":"ESP","name":"Araba / Álava","localName":"Araba / Álava","labelEnglish":"Araba / Álava","labelLocal":"Araba / Álava","labelBoth":"Araba / Álava","type":"Autonomous Community","iso":"ES-VI","qid":"Q81801"},"geometry":{"type":"Polygon","coordinates":[[[-2.8373,42.6441],[-2.4061,42.4971],[-2.253,42.9001],[-2.5465,43.088],[-2.8954,43.0475],[-3.1418,43.1651],[-2.9875,42.9263],[-3.2791,42.8872],[-2.8373,42.6441]]]}},{"type":"Feature","id":"label-ESP-5801","properties":{"kind":"division-label","code":"ESP-5801","countryCode":"ESP","name":"Araba / Álava","localName":"Araba / Álava","labelEnglish":"Araba / Álava","labelLocal":"Araba / Álava","labelBoth":"Araba / Álava","type":"Autonomous Community","iso":"ES-VI","qid":"Q81801"},"geometry":{"type":"Point","coordinates":[-2.6966,42.8902]}},{"type":"Feature","id":"ESP-5802","properties":{"kind":"division","code":"ESP-5802","countryCode":"ESP","name":"Albacete","localName":"Albacete","labelEnglish":"Albacete","labelLocal":"Albacete","labelBoth":"Albacete","type":"Autonomous Community","iso":"ES-AB","qid":"Q54889"},"geometry":{"type":"Polygon","coordinates":[[[-1.0221,38.6545],[-0.9306,38.7855],[-1.2621,39.0737],[-1.1777,39.3041],[-1.501,39.422],[-1.77,39.2806],[-2.3739,39.2329],[-2.7421,39.318],[-2.8798,38.9455],[-2.6453,38.7074],[-2.756,38.5331],[-2.4303,38.2588],[-2.5474,38.0806],[-2.3385,38.0265],[-2.0591,38.2904],[-1.4779,38.4037],[-1.4336,38.6558],[-1.0221,38.6545]]]}},{"type":"Feature","id":"label-ESP-5802","properties":{"kind":"division-label","code":"ESP-5802","countryCode":"ESP","name":"Albacete","localName":"Albacete","labelEnglish":"Albacete","labelLocal":"Albacete","labelBoth":"Albacete","type":"Autonomous Community","iso":"ES-AB","qid":"Q54889"},"geometry":{"type":"Point","coordinates":[-1.94309,38.834]}},{"type":"Feature","id":"ESP-5847","properties":{"kind":"division","code":"ESP-5847","countryCode":"ESP","name":"Teruel","localName":"Teruel","labelEnglish":"Teruel","labelLocal":"Teruel","labelBoth":"Teruel","type":"Autonomous Community","iso":"ES-TE","qid":"Q54955"},"geometry":{"type":"Polygon","coordinates":[[[-1.1455,39.9723],[-0.7913,39.8775],[-0.5442,40.2401],[-0.2921,40.3655],[-0.3773,40.6602],[-0.1658,40.7799],[0.173,40.7309],[0.2165,41.0706],[-0.6015,41.3196],[-0.9383,41.0824],[-1.0865,41.1593],[-1.6219,40.9468],[-1.5867,40.5706],[-1.8083,40.402],[-1.4485,40.1498],[-1.1627,40.0115],[-1.1455,39.9723]]]}},{"type":"Feature","id":"label-ESP-5847","properties":{"kind":"division-label","code":"ESP-5847","countryCode":"ESP","name":"Teruel","localName":"Teruel","labelEnglish":"Teruel","labelLocal":"Teruel","labelBoth":"Teruel","type":"Autonomous Community","iso":"ES-TE","qid":"Q54955"},"geometry":{"type":"Point","coordinates":[-0.809409,40.625]}},{"type":"Feature","id":"ESP-5818","properties":{"kind":"division","code":"ESP-5818","countryCode":"ESP","name":"Cuenca","localName":"Cuenca","labelEnglish":"Cuenca","labelLocal":"Cuenca","labelBoth":"Cuenca","type":"Autonomous Community","iso":"ES-CU","qid":"Q54888"},"geometry":{"type":"Polygon","coordinates":[[[-1.1627,40.0115],[-1.4485,40.1498],[-1.8083,40.402],[-1.9299,40.5927],[-2.287,40.6442],[-2.5128,40.4197],[-2.8077,40.4069],[-2.8163,40.2099],[-3.0728,40.1576],[-3.1635,40.0662],[-2.9082,39.6423],[-2.9312,39.4714],[-2.7421,39.318],[-2.3739,39.2329],[-1.77,39.2806],[-1.501,39.422],[-1.1455,39.9723],[-1.1627,40.0115]]]}},{"type":"Feature","id":"label-ESP-5818","properties":{"kind":"division-label","code":"ESP-5818","countryCode":"ESP","name":"Cuenca","localName":"Cuenca","labelEnglish":"Cuenca","labelLocal":"Cuenca","labelBoth":"Cuenca","type":"Autonomous Community","iso":"ES-CU","qid":"Q54888"},"geometry":{"type":"Point","coordinates":[-2.15126,39.9115]}},{"type":"Feature","id":"ESP-5848","properties":{"kind":"division","code":"ESP-5848","countryCode":"ESP","name":"Toledo","localName":"Toledo","labelEnglish":"Toledo","labelLocal":"Toledo","labelBoth":"Toledo","type":"Autonomous Community","iso":"ES-TO","qid":"Q54929"},"geometry":{"type":"Polygon","coordinates":[[[-5.328,40.1159],[-5.3862,39.881],[-5.1681,39.7929],[-5.1976,39.5996],[-4.9444,39.3919],[-4.753,39.4182],[-4.6927,39.4498],[-4.2421,39.4779],[-3.8416,39.2597],[-3.2942,39.4707],[-2.9312,39.4714],[-2.9082,39.6423],[-3.1635,40.0662],[-3.8739,39.9267],[-3.6245,40.1132],[-4.3711,40.308],[-4.5719,40.212],[-5.328,40.1159]]]}},{"type":"Feature","id":"label-ESP-5848","properties":{"kind":"division-label","code":"ESP-5848","countryCode":"ESP","name":"Toledo","localName":"Toledo","labelEnglish":"Toledo","labelLocal":"Toledo","labelBoth":"Toledo","type":"Autonomous Community","iso":"ES-TO","qid":"Q54929"},"geometry":{"type":"Point","coordinates":[-3.95134,39.7401]}},{"type":"Feature","id":"ESP-5830","properties":{"kind":"division","code":"ESP-5830","countryCode":"ESP","name":"León","localName":"León","labelEnglish":"León","labelLocal":"León","labelBoth":"León","type":"Autonomous Community","iso":"ES-LE","qid":"Q71140"},"geometry":{"type":"Polygon","coordinates":[[[-4.8319,43.1887],[-5.7787,42.9747],[-6.3649,43.0514],[-6.8283,42.9148],[-7.071,42.5035],[-6.8211,42.4851],[-6.7832,42.2529],[-5.5208,42.097],[-5.4216,42.0308],[-5.3763,42.0414],[-5.3872,42.1952],[-5.0022,42.2892],[-4.9019,42.8481],[-4.7269,43.0159],[-4.8319,43.1887]]]}},{"type":"Feature","id":"label-ESP-5830","properties":{"kind":"division-label","code":"ESP-5830","countryCode":"ESP","name":"León","localName":"León","labelEnglish":"León","labelLocal":"León","labelBoth":"León","type":"Autonomous Community","iso":"ES-LE","qid":"Q71140"},"geometry":{"type":"Point","coordinates":[-5.75872,42.6006]}},{"type":"Feature","id":"ESP-5845","properties":{"kind":"division","code":"ESP-5845","countryCode":"ESP","name":"Soria","localName":"Soria","labelEnglish":"Soria","labelLocal":"Soria","labelBoth":"Soria","type":"Autonomous Community","iso":"ES-SO","qid":"Q55276"},"geometry":{"type":"Polygon","coordinates":[[[-1.8577,41.9548],[-2.3474,42.1422],[-2.5729,42.0002],[-2.9102,42.0234],[-3.253,41.8637],[-3.5417,41.5778],[-3.1988,41.3012],[-2.7281,41.2728],[-2.4676,41.0861],[-2.0532,41.1504],[-2.0997,41.4426],[-1.8073,41.6704],[-1.8577,41.9548]]]}},{"type":"Feature","id":"label-ESP-5845","properties":{"kind":"division-label","code":"ESP-5845","countryCode":"ESP","name":"Soria","localName":"Soria","labelEnglish":"Soria","labelLocal":"Soria","labelBoth":"Soria","type":"Autonomous Community","iso":"ES-SO","qid":"Q55276"},"geometry":{"type":"Point","coordinates":[-2.55925,41.6463]}},{"type":"Feature","id":"ESP-5810","properties":{"kind":"division","code":"ESP-5810","countryCode":"ESP","name":"Burgos","localName":"Burgos","labelEnglish":"Burgos","labelLocal":"Burgos","labelBoth":"Burgos","type":"Autonomous Community","iso":"ES-BU","qid":"Q55271"},"geometry":{"type":"Polygon","coordinates":[[[-2.8373,42.6441],[-3.2791,42.8872],[-2.9875,42.9263],[-3.1418,43.1651],[-3.4238,43.1406],[-3.6478,43.1762],[-3.9526,42.9992],[-3.8158,42.81],[-4.0858,42.7631],[-4.285,42.676],[-4.2054,42.1347],[-4.041,41.7682],[-3.9806,41.5832],[-3.7291,41.4577],[-3.5417,41.5778],[-3.253,41.8637],[-2.9102,42.0234],[-3.1204,42.1963],[-3.0142,42.6409],[-2.8373,42.6441]]]}},{"type":"Feature","id":"label-ESP-5810","properties":{"kind":"division-label","code":"ESP-5810","countryCode":"ESP","name":"Burgos","localName":"Burgos","labelEnglish":"Burgos","labelLocal":"Burgos","labelBoth":"Burgos","type":"Autonomous Community","iso":"ES-BU","qid":"Q55271"},"geometry":{"type":"Point","coordinates":[-3.60703,42.348]}},{"type":"Feature","id":"ESP-5806","properties":{"kind":"division","code":"ESP-5806","countryCode":"ESP","name":"Ávila","localName":"Ávila","labelEnglish":"Ávila","labelLocal":"Ávila","labelBoth":"Ávila","type":"Autonomous Community","iso":"ES-AV","qid":"Q55288"},"geometry":{"type":"Polygon","coordinates":[[[-5.328,40.1159],[-4.5719,40.212],[-4.1613,40.6873],[-4.2763,40.6927],[-4.3219,40.6579],[-4.4195,40.6334],[-4.7015,41.155],[-5.1251,41.132],[-5.1615,40.8185],[-5.5173,40.5829],[-5.7277,40.294],[-5.328,40.1159]]]}},{"type":"Feature","id":"label-ESP-5806","properties":{"kind":"division-label","code":"ESP-5806","countryCode":"ESP","name":"Ávila","localName":"Ávila","labelEnglish":"Ávila","labelLocal":"Ávila","labelBoth":"Ávila","type":"Autonomous Community","iso":"ES-AV","qid":"Q55288"},"geometry":{"type":"Point","coordinates":[-4.87934,40.5611]}},{"type":"Feature","id":"ESP-5839","properties":{"kind":"division","code":"ESP-5839","countryCode":"ESP","name":"Palencia","localName":"Palencia","labelEnglish":"Palencia","labelLocal":"Palencia","labelBoth":"Palencia","type":"Autonomous Community","iso":"ES-P","qid":"Q55269"},"geometry":{"type":"Polygon","coordinates":[[[-4.0858,42.7631],[-4.4629,43.0509],[-4.7269,43.0159],[-4.9019,42.8481],[-5.0022,42.2892],[-4.9868,41.9134],[-4.4937,41.7802],[-4.041,41.7682],[-4.2054,42.1347],[-4.285,42.676],[-4.0858,42.7631]]]}},{"type":"Feature","id":"label-ESP-5839","properties":{"kind":"division-label","code":"ESP-5839","countryCode":"ESP","name":"Palencia","localName":"Palencia","labelEnglish":"Palencia","labelLocal":"Palencia","labelBoth":"Palencia","type":"Autonomous Community","iso":"ES-P","qid":"Q55269"},"geometry":{"type":"Point","coordinates":[-4.59868,42.3386]}},{"type":"Feature","id":"ESP-5816","properties":{"kind":"division","code":"ESP-5816","countryCode":"ESP","name":"Ciudad Real","localName":"Ciudad Real","labelEnglish":"Ciudad Real","labelLocal":"Ciudad Real","labelBoth":"Ciudad Real","type":"Autonomous Community","iso":"ES-CR","qid":"Q54932"},"geometry":{"type":"Polygon","coordinates":[[[-2.7421,39.318],[-2.9312,39.4714],[-3.2942,39.4707],[-3.8416,39.2597],[-4.2421,39.4779],[-4.6927,39.4498],[-4.8466,38.946],[-5.0366,38.7284],[-4.2755,38.3509],[-4.265,38.4014],[-3.0009,38.4301],[-2.756,38.5331],[-2.6453,38.7074],[-2.8798,38.9455],[-2.7421,39.318]]]}},{"type":"Feature","id":"label-ESP-5816","properties":{"kind":"division-label","code":"ESP-5816","countryCode":"ESP","name":"Ciudad Real","localName":"Ciudad Real","labelEnglish":"Ciudad Real","labelLocal":"Ciudad Real","labelBoth":"Ciudad Real","type":"Autonomous Community","iso":"ES-CR","qid":"Q54932"},"geometry":{"type":"Point","coordinates":[-3.74727,38.8936]}},{"type":"Feature","id":"ESP-5817","properties":{"kind":"division","code":"ESP-5817","countryCode":"ESP","name":"Córdoba","localName":"Córdoba","labelEnglish":"Córdoba","labelLocal":"Córdoba","labelBoth":"Córdoba","type":"Autonomous Community","iso":"ES-CO","qid":"Q81972"},"geometry":{"type":"Polygon","coordinates":[[[-4.0009,37.4021],[-4.2131,37.6263],[-4.2755,38.3509],[-5.0366,38.7284],[-5.5694,38.4253],[-5.581,38.1351],[-5.3097,37.7734],[-5.3801,37.6118],[-5.0266,37.7105],[-4.6532,37.2559],[-4.3203,37.1866],[-4.0009,37.4021]]]}},{"type":"Feature","id":"label-ESP-5817","properties":{"kind":"division-label","code":"ESP-5817","countryCode":"ESP","name":"Córdoba","localName":"Córdoba","labelEnglish":"Córdoba","labelLocal":"Córdoba","labelBoth":"Córdoba","type":"Autonomous Community","iso":"ES-CO","qid":"Q81972"},"geometry":{"type":"Point","coordinates":[-4.74788,37.9699]}},{"type":"Feature","id":"ESP-5822","properties":{"kind":"division","code":"ESP-5822","countryCode":"ESP","name":"Guadalajara","localName":"Guadalajara","labelEnglish":"Guadalajara","labelLocal":"Guadalajara","labelBoth":"Guadalajara","type":"Autonomous Community","iso":"ES-GU","qid":"Q54925"},"geometry":{"type":"Polygon","coordinates":[[[-3.0728,40.1576],[-2.8163,40.2099],[-2.8077,40.4069],[-2.5128,40.4197],[-2.287,40.6442],[-1.9299,40.5927],[-1.8083,40.402],[-1.5867,40.5706],[-1.6219,40.9468],[-2.0532,41.1504],[-2.4676,41.0861],[-2.7281,41.2728],[-3.1988,41.3012],[-3.5458,41.1618],[-3.4984,40.7962],[-3.2045,40.513],[-3.0728,40.1576]]]}},{"type":"Feature","id":"label-ESP-5822","properties":{"kind":"division-label","code":"ESP-5822","countryCode":"ESP","name":"Guadalajara","localName":"Guadalajara","labelEnglish":"Guadalajara","labelLocal":"Guadalajara","labelBoth":"Guadalajara","type":"Autonomous Community","iso":"ES-GU","qid":"Q54925"},"geometry":{"type":"Point","coordinates":[-2.53087,40.8422]}},{"type":"Feature","id":"ESP-5826","properties":{"kind":"division","code":"ESP-5826","countryCode":"ESP","name":"Jaén","localName":"Jaén","labelEnglish":"Jaén","labelLocal":"Jaén","labelBoth":"Jaén","type":"Autonomous Community","iso":"ES-J","qid":"Q95025"},"geometry":{"type":"Polygon","coordinates":[[[-2.5474,38.0806],[-2.4303,38.2588],[-2.756,38.5331],[-3.0009,38.4301],[-4.265,38.4014],[-4.2755,38.3509],[-4.2131,37.6263],[-4.0009,37.4021],[-3.5071,37.6133],[-2.9834,37.6015],[-2.5474,38.0806]]]}},{"type":"Feature","id":"label-ESP-5826","properties":{"kind":"division-label","code":"ESP-5826","countryCode":"ESP","name":"Jaén","localName":"Jaén","labelEnglish":"Jaén","labelLocal":"Jaén","labelBoth":"Jaén","type":"Autonomous Community","iso":"ES-J","qid":"Q95025"},"geometry":{"type":"Point","coordinates":[-3.43703,37.9829]}},{"type":"Feature","id":"ESP-5833","properties":{"kind":"division","code":"ESP-5833","countryCode":"ESP","name":"Community of Madrid","localName":"Community of Madrid","labelEnglish":"Community of Madrid","labelLocal":"Community of Madrid","labelBoth":"Community of Madrid","type":"Autonomous Community","iso":"ES-M","qid":"Q5756"},"geometry":{"type":"Polygon","coordinates":[[[-3.0728,40.1576],[-3.2045,40.513],[-3.4984,40.7962],[-3.5458,41.1618],[-4.1613,40.6873],[-4.5719,40.212],[-4.3711,40.308],[-3.6245,40.1132],[-3.8739,39.9267],[-3.1635,40.0662],[-3.0728,40.1576]]]}},{"type":"Feature","id":"label-ESP-5833","properties":{"kind":"division-label","code":"ESP-5833","countryCode":"ESP","name":"Community of Madrid","localName":"Community of Madrid","labelEnglish":"Community of Madrid","labelLocal":"Community of Madrid","labelBoth":"Community of Madrid","type":"Autonomous Community","iso":"ES-M","qid":"Q5756"},"geometry":{"type":"Point","coordinates":[-3.67012,40.4593]}},{"type":"Feature","id":"ESP-5843","properties":{"kind":"division","code":"ESP-5843","countryCode":"ESP","name":"Segovia","localName":"Segovia","labelEnglish":"Segovia","labelLocal":"Segovia","labelBoth":"Segovia","type":"Autonomous Community","iso":"ES-SG","qid":"Q55283"},"geometry":{"type":"Polygon","coordinates":[[[-4.1613,40.6873],[-3.5458,41.1618],[-3.1988,41.3012],[-3.5417,41.5778],[-3.7291,41.4577],[-3.9806,41.5832],[-4.5149,41.4096],[-4.7015,41.155],[-4.4195,40.6334],[-4.3219,40.6579],[-4.2763,40.6927],[-4.1613,40.6873]]]}},{"type":"Feature","id":"label-ESP-5843","properties":{"kind":"division-label","code":"ESP-5843","countryCode":"ESP","name":"Segovia","localName":"Segovia","labelEnglish":"Segovia","labelLocal":"Segovia","labelBoth":"Segovia","type":"Autonomous Community","iso":"ES-SG","qid":"Q55283"},"geometry":{"type":"Point","coordinates":[-4.04672,41.2066]}},{"type":"Feature","id":"ESP-5850","properties":{"kind":"division","code":"ESP-5850","countryCode":"ESP","name":"Valladolid","localName":"Valladolid","labelEnglish":"Valladolid","labelLocal":"Valladolid","labelBoth":"Valladolid","type":"Autonomous Community","iso":"ES-VA","qid":"Q71097"},"geometry":{"type":"Polygon","coordinates":[[[-3.9806,41.5832],[-4.041,41.7682],[-4.4937,41.7802],[-4.9868,41.9134],[-5.0022,42.2892],[-5.3872,42.1952],[-5.3763,42.0414],[-5.2796,41.8133],[-5.2888,41.1821],[-5.1251,41.132],[-4.7015,41.155],[-4.5149,41.4096],[-3.9806,41.5832]]]}},{"type":"Feature","id":"label-ESP-5850","properties":{"kind":"division-label","code":"ESP-5850","countryCode":"ESP","name":"Valladolid","localName":"Valladolid","labelEnglish":"Valladolid","labelLocal":"Valladolid","labelBoth":"Valladolid","type":"Autonomous Community","iso":"ES-VA","qid":"Q71097"},"geometry":{"type":"Point","coordinates":[-4.83256,41.5715]}}]}