{"type":"FeatureCollection","features":[{"type":"Feature","id":"EST-2350","properties":{"kind":"division","code":"EST-2350","countryCode":"EST","name":"Viljandi","localName":"Viljandi","labelEnglish":"Viljandi","labelLocal":"Viljandi","labelBoth":"Viljandi","type":"County","iso":"EE-84","qid":"Q192061"},"geometry":{"type":"Polygon","coordinates":[[[25.0942,58.0673],[25.4197,58.0083],[25.5518,57.9499],[26.0715,58.1277],[26.1315,58.4847],[25.7771,58.6898],[25.2585,58.6333],[24.955,58.3363],[25.2332,58.2798],[25.0349,58.0486],[25.0942,58.0673]]]}},{"type":"Feature","id":"label-EST-2350","properties":{"kind":"division-label","code":"EST-2350","countryCode":"EST","name":"Viljandi","localName":"Viljandi","labelEnglish":"Viljandi","labelLocal":"Viljandi","labelBoth":"Viljandi","type":"County","iso":"EE-84","qid":"Q192061"},"geometry":{"type":"Point","coordinates":[25.5603,58.3005]}},{"type":"Feature","id":"EST-2346","properties":{"kind":"division","code":"EST-2346","countryCode":"EST","name":"Pärnu","localName":"Pärnu","labelEnglish":"Pärnu","labelLocal":"Pärnu","labelBoth":"Pärnu","type":"County","iso":"EE-67","qid":"Q185036"},"geometry":{"type":"Polygon","coordinates":[[[25.0349,58.0486],[25.2332,58.2798],[24.955,58.3363],[25.2585,58.6333],[25.1998,58.7258],[24.1332,58.7015],[23.5858,58.5442],[24.1117,58.241],[24.5288,58.3507],[24.3062,57.8682],[24.5824,57.946],[24.8274,57.9819],[25.0349,58.0486]]]}},{"type":"Feature","id":"label-EST-2346","properties":{"kind":"division-label","code":"EST-2346","countryCode":"EST","name":"Pärnu","localName":"Pärnu","labelEnglish":"Pärnu","labelLocal":"Pärnu","labelBoth":"Pärnu","type":"County","iso":"EE-67","qid":"Q185036"},"geometry":{"type":"Point","coordinates":[23.9802,58.1294]}},{"type":"Feature","id":"EST-2349","properties":{"kind":"division","code":"EST-2349","countryCode":"EST","name":"Valga","localName":"Valga","labelEnglish":"Valga","labelLocal":"Valga","labelBoth":"Valga","type":"County","iso":"EE-82","qid":"Q192362"},"geometry":{"type":"Polygon","coordinates":[[[25.5518,57.9499],[25.7038,57.9213],[26.3513,57.5802],[26.4307,57.5618],[26.5402,57.9556],[26.595,58.1234],[26.0715,58.1277],[25.5518,57.9499]]]}},{"type":"Feature","id":"label-EST-2349","properties":{"kind":"division-label","code":"EST-2349","countryCode":"EST","name":"Valga","localName":"Valga","labelEnglish":"Valga","labelLocal":"Valga","labelBoth":"Valga","type":"County","iso":"EE-82","qid":"Q192362"},"geometry":{"type":"Point","coordinates":[26.0733,57.9402]}},{"type":"Feature","id":"EST-2351","properties":{"kind":"division","code":"EST-2351","countryCode":"EST","name":"Võru","localName":"Võru","labelEnglish":"Võru","labelLocal":"Võru","labelBoth":"Võru","type":"County","iso":"EE-86","qid":"Q188076"},"geometry":{"type":"Polygon","coordinates":[[[26.4307,57.5618],[26.7958,57.5713],[27.3529,57.5276],[27.5563,57.8131],[26.5402,57.9556],[26.4307,57.5618]]]}},{"type":"Feature","id":"label-EST-2351","properties":{"kind":"division-label","code":"EST-2351","countryCode":"EST","name":"Võru","localName":"Võru","labelEnglish":"Võru","labelLocal":"Võru","labelBoth":"Võru","type":"County","iso":"EE-86","qid":"Q188076"},"geometry":{"type":"Point","coordinates":[26.9602,57.7735]}},{"type":"Feature","id":"EST-1655","properties":{"kind":"division","code":"EST-1655","countryCode":"EST","name":"Ida-Viru","localName":"Ida-Viru","labelEnglish":"Ida-Viru","labelLocal":"Ida-Viru","labelBoth":"Ida-Viru","type":"County","iso":"EE-44","qid":"Q189963"},"geometry":{"type":"Polygon","coordinates":[[[28.0191,59.4818],[27.8733,59.4076],[26.7809,59.5026],[26.9288,59.1426],[26.703,58.9559],[27.4463,58.8189],[27.6959,58.9772],[28.0191,59.4818]]]}},{"type":"Feature","id":"label-EST-1655","properties":{"kind":"division-label","code":"EST-1655","countryCode":"EST","name":"Ida-Viru","localName":"Ida-Viru","labelEnglish":"Ida-Viru","labelLocal":"Ida-Viru","labelBoth":"Ida-Viru","type":"County","iso":"EE-44","qid":"Q189963"},"geometry":{"type":"Point","coordinates":[27.4446,59.1333]}},{"type":"Feature","id":"EST-2347","properties":{"kind":"division","code":"EST-2347","countryCode":"EST","name":"Põlva","localName":"Põlva","labelEnglish":"Põlva","labelLocal":"Põlva","labelBoth":"Põlva","type":"County","iso":"EE-65","qid":"Q191813"},"geometry":{"type":"Polygon","coordinates":[[[27.5196,58.1945],[26.8641,58.2373],[26.595,58.1234],[26.5402,57.9556],[27.5563,57.8131],[27.5196,58.1945]]]}},{"type":"Feature","id":"label-EST-2347","properties":{"kind":"division-label","code":"EST-2347","countryCode":"EST","name":"Põlva","localName":"Põlva","labelEnglish":"Põlva","labelLocal":"Põlva","labelBoth":"Põlva","type":"County","iso":"EE-65","qid":"Q191813"},"geometry":{"type":"Point","coordinates":[27.1696,58.0905]}},{"type":"Feature","id":"EST-1659","properties":{"kind":"division","code":"EST-1659","countryCode":"EST","name":"Tartu","localName":"Tartu","labelEnglish":"Tartu","labelLocal":"Tartu","labelBoth":"Tartu","type":"County","iso":"EE-78","qid":"Q192370"},"geometry":{"type":"Polygon","coordinates":[[[27.4288,58.7094],[26.1315,58.4847],[26.0715,58.1277],[26.595,58.1234],[26.8641,58.2373],[27.5196,58.1945],[27.4288,58.7094]]]}},{"type":"Feature","id":"label-EST-1659","properties":{"kind":"division-label","code":"EST-1659","countryCode":"EST","name":"Tartu","localName":"Tartu","labelEnglish":"Tartu","labelLocal":"Tartu","labelBoth":"Tartu","type":"County","iso":"EE-78","qid":"Q192370"},"geometry":{"type":"Point","coordinates":[26.7967,58.3727]}},{"type":"Feature","id":"EST-1657","properties":{"kind":"division","code":"EST-1657","countryCode":"EST","name":"Jõgeva","localName":"Jõgeva","labelEnglish":"Jõgeva","labelLocal":"Jõgeva","labelBoth":"Jõgeva","type":"County","iso":"EE-49","qid":"Q189974"},"geometry":{"type":"Polygon","coordinates":[[[27.4463,58.8189],[26.703,58.9559],[26.1537,58.8872],[25.7771,58.6898],[26.1315,58.4847],[27.4288,58.7094],[27.4463,58.8189]]]}},{"type":"Feature","id":"label-EST-1657","properties":{"kind":"division-label","code":"EST-1657","countryCode":"EST","name":"Jõgeva","localName":"Jõgeva","labelEnglish":"Jõgeva","labelLocal":"Jõgeva","labelBoth":"Jõgeva","type":"County","iso":"EE-49","qid":"Q189974"},"geometry":{"type":"Point","coordinates":[26.5975,58.7313]}},{"type":"Feature","id":"EST-1661","properties":{"kind":"division","code":"EST-1661","countryCode":"EST","name":"Lääne","localName":"Lääne","labelEnglish":"Lääne","labelLocal":"Lääne","labelBoth":"Lääne","type":"County","iso":"EE-57","qid":"Q189968"},"geometry":{"type":"Polygon","coordinates":[[[23.5858,58.5442],[24.1332,58.7015],[24.1045,58.9847],[23.7185,59.2314],[23.4709,59.2121],[23.4295,58.7648],[23.5858,58.5442]]]}},{"type":"Feature","id":"label-EST-1661","properties":{"kind":"division-label","code":"EST-1661","countryCode":"EST","name":"Lääne","localName":"Lääne","labelEnglish":"Lääne","labelLocal":"Lääne","labelBoth":"Lääne","type":"County","iso":"EE-57","qid":"Q189968"},"geometry":{"type":"Point","coordinates":[23.2541,59.0075]}},{"type":"Feature","id":"EST-1654","properties":{"kind":"division","code":"EST-1654","countryCode":"EST","name":"Harju","localName":"Harju","labelEnglish":"Harju","labelLocal":"Harju","labelBoth":"Harju","type":"County","iso":"EE-37","qid":"Q180200"},"geometry":{"type":"Polygon","coordinates":[[[23.7185,59.2314],[24.1045,58.9847],[24.6639,59.2169],[25.3205,58.9922],[25.4894,59.2638],[25.9259,59.2763],[25.8369,59.5765],[24.0222,59.3781],[23.7185,59.2314]]]}},{"type":"Feature","id":"label-EST-1654","properties":{"kind":"division-label","code":"EST-1654","countryCode":"EST","name":"Harju","localName":"Harju","labelEnglish":"Harju","labelLocal":"Harju","labelBoth":"Harju","type":"County","iso":"EE-37","qid":"Q180200"},"geometry":{"type":"Point","coordinates":[25.1734,59.3206]}},{"type":"Feature","id":"EST-1658","properties":{"kind":"division","code":"EST-1658","countryCode":"EST","name":"Lääne-Viru","localName":"Lääne-Viru","labelEnglish":"Lääne-Viru","labelLocal":"Lääne-Viru","labelBoth":"Lääne-Viru","type":"County","iso":"EE-59","qid":"Q189952"},"geometry":{"type":"Polygon","coordinates":[[[25.8369,59.5765],[25.9259,59.2763],[26.1537,58.8872],[26.703,58.9559],[26.9288,59.1426],[26.7809,59.5026],[25.8369,59.5765]]]}},{"type":"Feature","id":"label-EST-1658","properties":{"kind":"division-label","code":"EST-1658","countryCode":"EST","name":"Lääne-Viru","localName":"Lääne-Viru","labelEnglish":"Lääne-Viru","labelLocal":"Lääne-Viru","labelBoth":"Lääne-Viru","type":"County","iso":"EE-59","qid":"Q189952"},"geometry":{"type":"Point","coordinates":[26.3773,59.229]}},{"type":"Feature","id":"EST-2352","properties":{"kind":"division","code":"EST-2352","countryCode":"EST","name":"Saare","localName":"Saare","labelEnglish":"Saare","labelLocal":"Saare","labelBoth":"Saare","type":"Municipality","iso":"EE-74","qid":"Q203272"},"geometry":{"type":"Polygon","coordinates":[[[23.2306,58.5048],[22.5832,58.6345],[21.885,58.4982],[21.8678,58.2646],[22.203,58.1479],[22.6692,58.2215],[23.2306,58.5048]]]}},{"type":"Feature","id":"label-EST-2352","properties":{"kind":"division-label","code":"EST-2352","countryCode":"EST","name":"Saare","localName":"Saare","labelEnglish":"Saare","labelLocal":"Saare","labelBoth":"Saare","type":"Municipality","iso":"EE-74","qid":"Q203272"},"geometry":{"type":"Point","coordinates":[23.2464,57.8027]}},{"type":"Feature","id":"EST-1660","properties":{"kind":"division","code":"EST-1660","countryCode":"EST","name":"Hiiu","localName":"Hiiu","labelEnglish":"Hiiu","labelLocal":"Hiiu","labelBoth":"Hiiu","type":"County","iso":"EE-39","qid":"Q1466462"},"geometry":{"type":"Polygon","coordinates":[[[22.2918,58.8952],[22.5557,58.687],[23.0405,58.8408],[22.5977,59.0895],[22.2918,58.8952]]]}},{"type":"Feature","id":"label-EST-1660","properties":{"kind":"division-label","code":"EST-1660","countryCode":"EST","name":"Hiiu","localName":"Hiiu","labelEnglish":"Hiiu","labelLocal":"Hiiu","labelBoth":"Hiiu","type":"County","iso":"EE-39","qid":"Q1466462"},"geometry":{"type":"Point","coordinates":[22.5428,58.8594]}},{"type":"Feature","id":"EST-2348","properties":{"kind":"division","code":"EST-2348","countryCode":"EST","name":"Rapla","localName":"Rapla","labelEnglish":"Rapla","labelLocal":"Rapla","labelBoth":"Rapla","type":"County","iso":"EE-70","qid":"Q192352"},"geometry":{"type":"Polygon","coordinates":[[[24.1332,58.7015],[25.1998,58.7258],[25.3205,58.9922],[24.6639,59.2169],[24.1045,58.9847],[24.1332,58.7015]]]}},{"type":"Feature","id":"label-EST-2348","properties":{"kind":"division-label","code":"EST-2348","countryCode":"EST","name":"Rapla","localName":"Rapla","labelEnglish":"Rapla","labelLocal":"Rapla","labelBoth":"Rapla","type":"County","iso":"EE-70","qid":"Q192352"},"geometry":{"type":"Point","coordinates":[24.6953,58.9829]}},{"type":"Feature","id":"EST-1656","properties":{"kind":"division","code":"EST-1656","countryCode":"EST","name":"Järva","localName":"Järva","labelEnglish":"Järva","labelLocal":"Järva","labelBoth":"Järva","type":"County","iso":"EE-51","qid":"Q188068"},"geometry":{"type":"Polygon","coordinates":[[[25.7771,58.6898],[26.1537,58.8872],[25.9259,59.2763],[25.4894,59.2638],[25.3205,58.9922],[25.1998,58.7258],[25.2585,58.6333],[25.7771,58.6898]]]}},{"type":"Feature","id":"label-EST-1656","properties":{"kind":"division-label","code":"EST-1656","countryCode":"EST","name":"Järva","localName":"Järva","labelEnglish":"Järva","labelLocal":"Järva","labelBoth":"Järva","type":"County","iso":"EE-51","qid":"Q188068"},"geometry":{"type":"Point","coordinates":[25.6829,58.9729]}}]}