{"type":"FeatureCollection","features":[{"type":"Feature","id":"ETH-3129","properties":{"kind":"division","code":"ETH-3129","countryCode":"ETH","name":"Southern Nations","localName":"Southern Nations","labelEnglish":"Southern Nations","labelLocal":"Southern Nations","labelBoth":"Southern Nations","type":"Administrative State","iso":"ET-SN","qid":"Q203193"},"geometry":{"type":"Polygon","coordinates":[[[34.968,6.0081],[35.0987,5.6225],[35.3208,5.3487],[35.4302,5.4272],[35.8091,5.3091],[35.7845,4.7642],[35.9208,4.6193],[36.0453,4.4437],[36.6489,4.4312],[36.8765,4.7261],[36.9715,5.1861],[37.4035,5.1652],[37.6857,5.313],[37.9006,5.2493],[37.9374,5.6184],[38.0875,5.7057],[37.7942,6.0087],[37.8677,6.5746],[38.2943,6.4289],[38.0921,6.1053],[38.2343,5.8648],[38.4364,6.2142],[38.4529,6.4123],[38.7649,6.412],[38.9934,6.1519],[39.135,6.1616],[39.0929,6.5234],[38.6401,6.7875],[38.5807,7.1041],[38.3311,7.1614],[38.0747,7.0769],[38.4298,7.5272],[38.4259,7.6915],[38.676,8.0933],[38.6463,8.4104],[38.4031,8.2778],[38.2398,8.4145],[37.8595,8.3376],[37.5172,8.4187],[37.6167,7.9645],[37.3945,7.9967],[37.3789,7.3688],[37.1071,7.2352],[36.7838,7.2597],[36.0646,7.5597],[35.8028,7.9361],[35.6092,7.8135],[35.3567,7.8419],[35.2635,7.5396],[35.3299,7.1325],[35.065,7.1643],[34.6299,7.0121],[34.1958,7.0977],[34.7335,6.6376],[34.968,6.0081]]]}},{"type":"Feature","id":"label-ETH-3129","properties":{"kind":"division-label","code":"ETH-3129","countryCode":"ETH","name":"Southern Nations","localName":"Southern Nations","labelEnglish":"Southern Nations","labelLocal":"Southern Nations","labelBoth":"Southern Nations","type":"Administrative State","iso":"ET-SN","qid":"Q203193"},"geometry":{"type":"Point","coordinates":[36.4494,6.21467]}},{"type":"Feature","id":"ETH-3134","properties":{"kind":"division","code":"ETH-3134","countryCode":"ETH","name":"Somali","localName":"Somali","labelEnglish":"Somali","labelLocal":"Somali","labelBoth":"Somali","type":"Administrative State","iso":"ET-SO","qid":"Q202800"},"geometry":{"type":"Polygon","coordinates":[[[47.9792,7.9966],[46.9792,7.9966],[45.5144,8.4965],[44.0239,8.9855],[43.6215,9.3369],[43.419,9.413],[42.8363,10.2081],[42.6472,10.6322],[42.9237,10.9988],[42.6081,11.0891],[41.9542,10.9413],[41.7665,10.9895],[41.2923,10.9671],[41.0923,10.6992],[40.9432,10.047],[41.0071,9.929],[40.7371,9.6236],[40.6951,9.4444],[40.8464,9.3071],[41.2309,9.4966],[41.7369,9.4738],[41.763,9.6401],[42.341,9.7204],[42.6257,9.1198],[42.857,8.8404],[42.8969,8.4124],[42.6684,8.1408],[42.5036,8.4925],[42.2071,8.6048],[42.0323,8.4337],[41.9313,8.1156],[41.9015,7.4123],[42.2075,7.293],[42.1779,7.0337],[41.9858,6.5957],[41.622,6.364],[41.122,6.6927],[40.8585,6.4199],[40.9225,5.6995],[40.5467,5.4235],[40.0511,5.3997],[39.9195,5.2465],[39.742,4.657],[39.3007,3.6426],[39.0904,3.5183],[39.2963,3.492],[39.5363,3.405],[39.8485,3.8673],[40.7637,4.2849],[41.1145,3.9623],[41.885,3.9772],[42.1353,4.2001],[42.8702,4.3282],[43.1193,4.6477],[43.5285,4.8416],[43.969,4.954],[44.5968,4.9176],[44.9415,4.9115],[45.5185,5.5406],[46.467,6.5383],[47.5324,7.5659],[47.9792,7.9966]]]}},{"type":"Feature","id":"label-ETH-3134","properties":{"kind":"division-label","code":"ETH-3134","countryCode":"ETH","name":"Somali","localName":"Somali","labelEnglish":"Somali","labelLocal":"Somali","labelBoth":"Somali","type":"Administrative State","iso":"ET-SO","qid":"Q202800"},"geometry":{"type":"Point","coordinates":[43.5345,7.09365]}},{"type":"Feature","id":"ETH-3111","properties":{"kind":"division","code":"ETH-3111","countryCode":"ETH","name":"Afar","localName":"Afar","labelEnglish":"Afar","labelLocal":"Afar","labelBoth":"Afar","type":"Administrative State","iso":"ET-AF","qid":"Q193494"},"geometry":{"type":"Polygon","coordinates":[[[41.9747,11.8809],[42.3795,12.4659],[41.9466,12.8762],[41.7118,13.2479],[41.192,13.6159],[40.8332,14.106],[40.3537,14.3352],[39.9998,14.4552],[39.6755,14.3338],[39.7922,14.062],[39.828,13.6146],[39.7241,13.4815],[39.8919,12.7611],[39.7797,12.325],[39.8832,11.7751],[40.1886,11.158],[40.1152,10.7397],[40.177,10.4955],[40.0154,9.7281],[39.8524,9.7411],[39.8953,9.3153],[39.8107,9.139],[40.039,8.8429],[40.4053,9.2776],[40.6951,9.4444],[40.7371,9.6236],[41.0071,9.929],[40.9432,10.047],[41.0923,10.6992],[41.2923,10.9671],[41.7665,10.9895],[41.7491,11.538],[41.9747,11.8809]]]}},{"type":"Feature","id":"label-ETH-3111","properties":{"kind":"division-label","code":"ETH-3111","countryCode":"ETH","name":"Afar","localName":"Afar","labelEnglish":"Afar","labelLocal":"Afar","labelBoth":"Afar","type":"Administrative State","iso":"ET-AF","qid":"Q193494"},"geometry":{"type":"Point","coordinates":[41.0236,12.1232]}},{"type":"Feature","id":"ETH-3109","properties":{"kind":"division","code":"ETH-3109","countryCode":"ETH","name":"Amhara","localName":"Amhara","labelEnglish":"Amhara","labelLocal":"Amhara","labelBoth":"Amhara","type":"Administrative State","iso":"ET-AM","qid":"Q203009"},"geometry":{"type":"Polygon","coordinates":[[[36.4399,13.7762],[36.2336,13.3616],[36.0994,12.6957],[35.7014,12.6654],[35.2484,11.9579],[35.4112,11.784],[35.7656,12.0379],[35.9299,12.0059],[36.1316,11.6905],[36.3412,11.7975],[36.5073,11.3459],[36.4889,11.0778],[36.312,10.8228],[36.392,10.4692],[37.0461,10.3027],[37.21,10.1102],[37.7028,9.8428],[38.433,10.1615],[38.4979,10.3709],[38.8472,10.3627],[38.821,10.1112],[38.6634,10.0613],[38.858,9.749],[39.2203,9.6309],[39.5084,9.3389],[39.2579,9.2992],[39.3716,9.1498],[39.3241,8.7817],[39.5428,8.761],[39.769,8.9001],[39.8107,9.139],[39.8953,9.3153],[39.8524,9.7411],[40.0154,9.7281],[40.177,10.4955],[40.1152,10.7397],[40.1886,11.158],[39.8832,11.7751],[39.7797,12.325],[39.2727,12.3126],[39.2055,13.0236],[38.9958,13.1271],[38.6751,13.4917],[38.0585,13.4688],[37.7811,13.5655],[37.4864,13.3618],[36.9148,13.3892],[36.5246,13.6146],[36.4399,13.7762]]]}},{"type":"Feature","id":"label-ETH-3109","properties":{"kind":"division-label","code":"ETH-3109","countryCode":"ETH","name":"Amhara","localName":"Amhara","labelEnglish":"Amhara","labelLocal":"Amhara","labelBoth":"Amhara","type":"Administrative State","iso":"ET-AM","qid":"Q203009"},"geometry":{"type":"Point","coordinates":[37.7222,11.6981]}},{"type":"Feature","id":"ETH-3110","properties":{"kind":"division","code":"ETH-3110","countryCode":"ETH","name":"Tigray","localName":"Tigray","labelEnglish":"Tigray","labelLocal":"Tigray","labelBoth":"Tigray","type":"Administrative State","iso":"ET-TI","qid":"Q200127"},"geometry":{"type":"Polygon","coordinates":[[[36.4399,13.7762],[36.5246,13.6146],[36.9148,13.3892],[37.4864,13.3618],[37.7811,13.5655],[38.0585,13.4688],[38.6751,13.4917],[38.9958,13.1271],[39.2055,13.0236],[39.2727,12.3126],[39.7797,12.325],[39.8919,12.7611],[39.7241,13.4815],[39.828,13.6146],[39.7922,14.062],[39.6755,14.3338],[39.9998,14.4552],[39.723,14.5017],[39.515,14.5678],[39.2082,14.4402],[39.0755,14.6374],[38.8661,14.4937],[38.4268,14.4172],[38.2458,14.6525],[37.8915,14.8795],[37.565,14.1167],[37.2938,14.4574],[37.0727,14.2853],[36.5264,14.2635],[36.4399,13.7762]]]}},{"type":"Feature","id":"label-ETH-3110","properties":{"kind":"division-label","code":"ETH-3110","countryCode":"ETH","name":"Tigray","localName":"Tigray","labelEnglish":"Tigray","labelLocal":"Tigray","labelBoth":"Tigray","type":"Administrative State","iso":"ET-TI","qid":"Q200127"},"geometry":{"type":"Point","coordinates":[38.2158,14.1003]}},{"type":"Feature","id":"ETH-3132","properties":{"kind":"division","code":"ETH-3132","countryCode":"ETH","name":"Benishangul-Gumuz","localName":"Benishangul-Gumuz","labelEnglish":"Benishangul-Gumuz","labelLocal":"Benishangul-Gumuz","labelBoth":"Benishangul-Gumuz","type":"Administrative State","iso":"ET-BE","qid":"Q207635"},"geometry":{"type":"Polygon","coordinates":[[[35.1486,11.8712],[34.9471,11.2749],[34.9507,10.8692],[34.8385,10.7291],[34.5871,10.8793],[34.2795,10.5655],[34.3249,10.2687],[34.0982,9.6797],[34.0707,9.4546],[34.0831,9.2051],[34.4051,9.2808],[34.4641,9.6391],[34.6928,9.5914],[34.902,9.963],[35.2579,9.9329],[35.7939,9.3586],[36.0839,9.1387],[36.2637,9.5348],[36.1184,9.6803],[36.1281,10.0515],[36.5024,10.3353],[36.5382,10.2234],[37.0461,10.3027],[36.392,10.4692],[36.312,10.8228],[36.4889,11.0778],[36.5073,11.3459],[36.3412,11.7975],[36.1316,11.6905],[35.9299,12.0059],[35.7656,12.0379],[35.4112,11.784],[35.2484,11.9579],[35.1486,11.8712]]]}},{"type":"Feature","id":"label-ETH-3132","properties":{"kind":"division-label","code":"ETH-3132","countryCode":"ETH","name":"Benishangul-Gumuz","localName":"Benishangul-Gumuz","labelEnglish":"Benishangul-Gumuz","labelLocal":"Benishangul-Gumuz","labelBoth":"Benishangul-Gumuz","type":"Administrative State","iso":"ET-BE","qid":"Q207635"},"geometry":{"type":"Point","coordinates":[35.6017,10.5396]}},{"type":"Feature","id":"ETH-3130","properties":{"kind":"division","code":"ETH-3130","countryCode":"ETH","name":"Gambela","localName":"Gambela","labelEnglish":"Gambela","labelLocal":"Gambela","labelBoth":"Gambela","type":"Administrative State","iso":"ET-GA","qid":"Q207638"},"geometry":{"type":"Polygon","coordinates":[[[34.1073,8.6015],[33.9708,8.4454],[33.1741,8.4045],[33.2083,8.2537],[33.0076,7.9441],[33.0513,7.8011],[33.7161,7.6572],[34.0065,7.4099],[34.1958,7.0977],[34.6299,7.0121],[35.065,7.1643],[35.3299,7.1325],[35.2635,7.5396],[35.1903,7.4616],[34.8714,7.8303],[34.8184,8.1919],[34.3523,8.5578],[34.1073,8.6015]]]}},{"type":"Feature","id":"label-ETH-3130","properties":{"kind":"division-label","code":"ETH-3130","countryCode":"ETH","name":"Gambela","localName":"Gambela","labelEnglish":"Gambela","labelLocal":"Gambela","labelBoth":"Gambela","type":"Administrative State","iso":"ET-GA","qid":"Q207638"},"geometry":{"type":"Point","coordinates":[34.1775,7.86869]}},{"type":"Feature","id":"ETH-3131","properties":{"kind":"division","code":"ETH-3131","countryCode":"ETH","name":"Oromia","localName":"Oromia","labelEnglish":"Oromia","labelLocal":"Oromia","labelBoth":"Oromia","type":"Administrative State","iso":"ET-OR","qid":"Q202107"},"geometry":{"type":"Polygon","coordinates":[[[34.1073,8.6015],[34.3523,8.5578],[34.8184,8.1919],[34.8714,7.8303],[35.1903,7.4616],[35.2635,7.5396],[35.3567,7.8419],[35.6092,7.8135],[35.8028,7.9361],[36.0646,7.5597],[36.7838,7.2597],[37.1071,7.2352],[37.3789,7.3688],[37.3945,7.9967],[37.6167,7.9645],[37.5172,8.4187],[37.8595,8.3376],[38.2398,8.4145],[38.4031,8.2778],[38.6463,8.4104],[38.676,8.0933],[38.4259,7.6915],[38.4298,7.5272],[38.0747,7.0769],[38.3311,7.1614],[38.5807,7.1041],[38.6401,6.7875],[39.0929,6.5234],[39.135,6.1616],[38.9934,6.1519],[38.7649,6.412],[38.4529,6.4123],[38.4364,6.2142],[38.2343,5.8648],[38.0921,6.1053],[38.2943,6.4289],[37.8677,6.5746],[37.7942,6.0087],[38.0875,5.7057],[37.9374,5.6184],[37.9006,5.2493],[37.6857,5.313],[37.4035,5.1652],[36.9715,5.1861],[36.8765,4.7261],[36.6489,4.4312],[36.8441,4.4322],[37.9767,3.7264],[38.1019,3.6126],[38.4969,3.6239],[39.0904,3.5183],[39.3007,3.6426],[39.742,4.657],[39.9195,5.2465],[40.0511,5.3997],[40.5467,5.4235],[40.9225,5.6995],[40.8585,6.4199],[41.122,6.6927],[41.622,6.364],[41.9858,6.5957],[42.1779,7.0337],[42.2075,7.293],[41.9015,7.4123],[41.9313,8.1156],[42.0323,8.4337],[42.2071,8.6048],[42.5036,8.4925],[42.6684,8.1408],[42.8969,8.4124],[42.857,8.8404],[42.6257,9.1198],[42.341,9.7204],[42.0767,9.4749],[41.7369,9.4738],[41.2309,9.4966],[40.8464,9.3071],[40.6951,9.4444],[40.4053,9.2776],[40.039,8.8429],[39.8107,9.139],[39.769,8.9001],[39.5428,8.761],[39.3241,8.7817],[39.3716,9.1498],[39.2579,9.2992],[39.5084,9.3389],[39.2203,9.6309],[38.858,9.749],[38.6634,10.0613],[38.821,10.1112],[38.8472,10.3627],[38.4979,10.3709],[38.433,10.1615],[37.7028,9.8428],[37.21,10.1102],[37.0461,10.3027],[36.5382,10.2234],[36.5024,10.3353],[36.1281,10.0515],[36.1184,9.6803],[36.2637,9.5348],[36.0839,9.1387],[35.7939,9.3586],[35.2579,9.9329],[34.902,9.963],[34.6928,9.5914],[34.4641,9.6391],[34.4051,9.2808],[34.0831,9.2051],[34.1073,8.6015]],[[38.83,9.0789],[38.8166,8.8326],[38.655,8.9966],[38.83,9.0789]],[[42.2487,9.1887],[42.0637,9.2298],[42.2719,9.3629],[42.2487,9.1887]]]}},{"type":"Feature","id":"label-ETH-3131","properties":{"kind":"division-label","code":"ETH-3131","countryCode":"ETH","name":"Oromia","localName":"Oromia","labelEnglish":"Oromia","labelLocal":"Oromia","labelBoth":"Oromia","type":"Administrative State","iso":"ET-OR","qid":"Q202107"},"geometry":{"type":"Point","coordinates":[40.2242,7.55642]}},{"type":"Feature","id":"ETH-3135","properties":{"kind":"division","code":"ETH-3135","countryCode":"ETH","name":"Dire Dawa","localName":"Dire Dawa","labelEnglish":"Dire Dawa","labelLocal":"Dire Dawa","labelBoth":"Dire Dawa","type":"Administrative State","iso":"ET-DD","qid":"Q193486"},"geometry":{"type":"Polygon","coordinates":[[[42.341,9.7204],[41.763,9.6401],[41.7369,9.4738],[42.0767,9.4749],[42.341,9.7204]]]}},{"type":"Feature","id":"label-ETH-3135","properties":{"kind":"division-label","code":"ETH-3135","countryCode":"ETH","name":"Dire Dawa","localName":"Dire Dawa","labelEnglish":"Dire Dawa","labelLocal":"Dire Dawa","labelBoth":"Dire Dawa","type":"Administrative State","iso":"ET-DD","qid":"Q193486"},"geometry":{"type":"Point","coordinates":[42.0364,9.56155]}},{"type":"Feature","id":"ETH-3133","properties":{"kind":"division","code":"ETH-3133","countryCode":"ETH","name":"Addis Ababa","localName":"Addis Ababa","labelEnglish":"Addis Ababa","labelLocal":"Addis Ababa","labelBoth":"Addis Ababa","type":"Administrative State","iso":"ET-AA","qid":"Q3624"},"geometry":{"type":"Polygon","coordinates":[[[38.83,9.0789],[38.655,8.9966],[38.8166,8.8326],[38.83,9.0789]]]}},{"type":"Feature","id":"label-ETH-3133","properties":{"kind":"division-label","code":"ETH-3133","countryCode":"ETH","name":"Addis Ababa","localName":"Addis Ababa","labelEnglish":"Addis Ababa","labelLocal":"Addis Ababa","labelBoth":"Addis Ababa","type":"Administrative State","iso":"ET-AA","qid":"Q3624"},"geometry":{"type":"Point","coordinates":[38.7815,8.966]}},{"type":"Feature","id":"ETH-3136","properties":{"kind":"division","code":"ETH-3136","countryCode":"ETH","name":"Harari","localName":"Harari","labelEnglish":"Harari","labelLocal":"Harari","labelBoth":"Harari","type":"Administrative State","iso":"ET-HA","qid":"Q1033855"},"geometry":{"type":"Polygon","coordinates":[[[42.2487,9.1887],[42.2719,9.3629],[42.0637,9.2298],[42.2487,9.1887]]]}},{"type":"Feature","id":"label-ETH-3136","properties":{"kind":"division-label","code":"ETH-3136","countryCode":"ETH","name":"Harari","localName":"Harari","labelEnglish":"Harari","labelLocal":"Harari","labelBoth":"Harari","type":"Administrative State","iso":"ET-HA","qid":"Q1033855"},"geometry":{"type":"Point","coordinates":[42.1676,9.29063]}}]}