{"type":"FeatureCollection","features":[{"type":"Feature","id":"FIN-3176","properties":{"kind":"division","code":"FIN-3176","countryCode":"FIN","name":"Lapland","localName":"Lapland","labelEnglish":"Lapland","labelLocal":"Lapland","labelBoth":"Lapland","type":"Province","iso":"FI-10","qid":"Q5700"},"geometry":{"type":"Polygon","coordinates":[[[28.9541,69.0273],[28.8648,69.2166],[29.3445,69.4644],[29.1312,69.6742],[28.4046,69.8023],[27.8973,70.0707],[27.1003,69.9018],[26.5007,69.9183],[26.032,69.6967],[25.6516,68.8835],[24.8609,68.5634],[23.929,68.8162],[23.1976,68.618],[22.4287,68.7101],[21.9461,69.0657],[21.3136,69.2914],[21.0325,69.041],[20.6232,69.0364],[22.0722,68.477],[22.8083,68.3949],[23.4989,67.8822],[23.4313,67.4855],[23.7652,67.4201],[23.5813,67.1531],[24.0013,66.8124],[23.6423,66.4363],[24.1631,65.8227],[25.0932,65.5919],[25.3882,65.7361],[27.1022,65.7508],[27.4003,65.9416],[27.765,65.8293],[28.47,65.8386],[28.7654,66.189],[28.7345,66.4844],[29.5462,66.432],[29.3625,66.6266],[29.1001,66.9912],[29.9162,67.5081],[30.0094,67.6858],[29.2987,68.0818],[28.6638,68.204],[28.4474,68.5149],[28.9541,69.0273]]]}},{"type":"Feature","id":"label-FIN-3176","properties":{"kind":"division-label","code":"FIN-3176","countryCode":"FIN","name":"Lapland","localName":"Lapland","labelEnglish":"Lapland","labelLocal":"Lapland","labelBoth":"Lapland","type":"Province","iso":"FI-10","qid":"Q5700"},"geometry":{"type":"Point","coordinates":[26.5614,67.5811]}},{"type":"Feature","id":"FIN-3180","properties":{"kind":"division","code":"FIN-3180","countryCode":"FIN","name":"Northern Ostrobothnia","localName":"Northern Ostrobothnia","labelEnglish":"Northern Ostrobothnia","labelLocal":"Northern Ostrobothnia","labelBoth":"Northern Ostrobothnia","type":"Province","iso":"FI-14","qid":"Q5704"},"geometry":{"type":"Polygon","coordinates":[[[29.5462,66.432],[28.7345,66.4844],[28.7654,66.189],[28.47,65.8386],[27.765,65.8293],[27.4003,65.9416],[27.1022,65.7508],[25.3882,65.7361],[25.0932,65.5919],[25.3518,65.4841],[25.4435,64.9668],[25.2595,64.8165],[24.7731,64.8658],[23.7065,64.1681],[25.0287,63.458],[25.2316,63.6009],[26.1378,63.4563],[26.238,63.8069],[26.8721,64.0334],[26.296,64.4804],[26.9927,64.7937],[27.388,64.8455],[27.3634,65.0857],[27.9032,65.1065],[29.2466,65.5219],[29.7315,65.4969],[30.0985,65.6564],[29.9002,66.1081],[29.5462,66.432]]]}},{"type":"Feature","id":"label-FIN-3180","properties":{"kind":"division-label","code":"FIN-3180","countryCode":"FIN","name":"Northern Ostrobothnia","localName":"Northern Ostrobothnia","labelEnglish":"Northern Ostrobothnia","labelLocal":"Northern Ostrobothnia","labelBoth":"Northern Ostrobothnia","type":"Province","iso":"FI-14","qid":"Q5704"},"geometry":{"type":"Point","coordinates":[26.2356,65.1599]}},{"type":"Feature","id":"FIN-3179","properties":{"kind":"division","code":"FIN-3179","countryCode":"FIN","name":"Kainuu","localName":"Kainuu","labelEnglish":"Kainuu","labelLocal":"Kainuu","labelBoth":"Kainuu","type":"Province","iso":"FI-05","qid":"Q5694"},"geometry":{"type":"Polygon","coordinates":[[[29.7315,65.4969],[29.2466,65.5219],[27.9032,65.1065],[27.3634,65.0857],[27.388,64.8455],[26.9927,64.7937],[26.296,64.4804],[26.8721,64.0334],[28.3584,63.7534],[28.4655,63.8713],[29.6562,63.8734],[29.9984,63.7471],[30.5093,63.9914],[30.5585,64.2197],[30.0325,64.3969],[30.0625,64.7842],[29.5881,64.9914],[29.7315,65.4969]]]}},{"type":"Feature","id":"label-FIN-3179","properties":{"kind":"division-label","code":"FIN-3179","countryCode":"FIN","name":"Kainuu","localName":"Kainuu","labelEnglish":"Kainuu","labelLocal":"Kainuu","labelBoth":"Kainuu","type":"Province","iso":"FI-05","qid":"Q5694"},"geometry":{"type":"Point","coordinates":[28.441,64.5496]}},{"type":"Feature","id":"FIN-3190","properties":{"kind":"division","code":"FIN-3190","countryCode":"FIN","name":"North Karelia","localName":"North Karelia","labelEnglish":"North Karelia","labelLocal":"North Karelia","labelBoth":"North Karelia","type":"Province","iso":"FI-13","qid":"Q5703"},"geometry":{"type":"Polygon","coordinates":[[[29.9984,63.7471],[29.6562,63.8734],[28.4655,63.8713],[28.3584,63.7534],[28.7614,63.3766],[28.6182,63.2088],[29.0519,62.999],[28.6582,62.6533],[29.2814,62.383],[29.6564,61.9731],[29.564,61.7241],[30.1456,61.8505],[31.2438,62.5033],[31.5695,62.9059],[31.2257,63.196],[30.4887,63.4621],[29.9984,63.7471]]]}},{"type":"Feature","id":"label-FIN-3190","properties":{"kind":"division-label","code":"FIN-3190","countryCode":"FIN","name":"North Karelia","localName":"North Karelia","labelEnglish":"North Karelia","labelLocal":"North Karelia","labelBoth":"North Karelia","type":"Province","iso":"FI-13","qid":"Q5703"},"geometry":{"type":"Point","coordinates":[29.9637,62.7879]}},{"type":"Feature","id":"FIN-3188","properties":{"kind":"division","code":"FIN-3188","countryCode":"FIN","name":"South Karelia","localName":"South Karelia","labelEnglish":"South Karelia","labelLocal":"South Karelia","labelBoth":"South Karelia","type":"Province","iso":"FI-02","qid":"Q5691"},"geometry":{"type":"Polygon","coordinates":[[[30.1456,61.8505],[29.564,61.7241],[29.272,61.5721],[28.4689,61.5092],[28.1815,61.3733],[26.9764,61.3439],[27.2132,61.1618],[27.1313,60.9639],[28.0038,60.6642],[29.2771,61.3046],[30.1456,61.8505]]]}},{"type":"Feature","id":"label-FIN-3188","properties":{"kind":"division-label","code":"FIN-3188","countryCode":"FIN","name":"South Karelia","localName":"South Karelia","labelEnglish":"South Karelia","labelLocal":"South Karelia","labelBoth":"South Karelia","type":"Province","iso":"FI-02","qid":"Q5691"},"geometry":{"type":"Point","coordinates":[28.5567,61.2148]}},{"type":"Feature","id":"FIN-3187","properties":{"kind":"division","code":"FIN-3187","countryCode":"FIN","name":"Kymenlaakso","localName":"Kymenlaakso","labelEnglish":"Kymenlaakso","labelLocal":"Kymenlaakso","labelBoth":"Kymenlaakso","type":"Province","iso":"FI-09","qid":"Q5698"},"geometry":{"type":"Polygon","coordinates":[[[28.0038,60.6642],[27.1313,60.9639],[27.2132,61.1618],[26.5151,61.2737],[26.0521,61.1076],[26.2155,60.7554],[26.5533,60.5918],[26.6873,60.4182],[27.1777,60.5673],[27.8079,60.553],[28.0038,60.6642]]]}},{"type":"Feature","id":"label-FIN-3187","properties":{"kind":"division-label","code":"FIN-3187","countryCode":"FIN","name":"Kymenlaakso","localName":"Kymenlaakso","labelEnglish":"Kymenlaakso","labelLocal":"Kymenlaakso","labelBoth":"Kymenlaakso","type":"Province","iso":"FI-09","qid":"Q5698"},"geometry":{"type":"Point","coordinates":[26.5799,60.4164]}},{"type":"Feature","id":"FIN-3193","properties":{"kind":"division","code":"FIN-3193","countryCode":"FIN","name":"Uusimaa","localName":"Uusimaa","labelEnglish":"Uusimaa","labelLocal":"Uusimaa","labelBoth":"Uusimaa","type":"Province","iso":"FI-18","qid":"Q5711"},"geometry":{"type":"Polygon","coordinates":[[[26.5533,60.5918],[26.2155,60.7554],[25.6105,60.6884],[25.1089,60.8199],[24.5249,60.5585],[23.8967,60.6488],[23.6417,60.198],[23.0213,60.1068],[23.2471,59.9224],[23.7713,59.968],[25.5028,60.2462],[25.9302,60.2452],[26.0137,60.4626],[26.324,60.383],[26.5533,60.5918]]]}},{"type":"Feature","id":"label-FIN-3193","properties":{"kind":"division-label","code":"FIN-3193","countryCode":"FIN","name":"Uusimaa","localName":"Uusimaa","labelEnglish":"Uusimaa","labelLocal":"Uusimaa","labelBoth":"Uusimaa","type":"Province","iso":"FI-18","qid":"Q5711"},"geometry":{"type":"Point","coordinates":[24.8475,60.4179]}},{"type":"Feature","id":"FIN-3191","properties":{"kind":"division","code":"FIN-3191","countryCode":"FIN","name":"Finland Proper","localName":"Finland Proper","labelEnglish":"Finland Proper","labelLocal":"Finland Proper","labelBoth":"Finland Proper","type":"Region","iso":"FI-19","qid":"Q5712"},"geometry":{"type":"MultiPolygon","coordinates":[[[[23.0213,60.1068],[23.6417,60.198],[23.8967,60.6488],[23.2673,60.7282],[23.1974,60.9999],[22.9698,61.0455],[22.0056,60.8987],[21.4081,61.0482],[21.3796,60.647],[22.2915,60.3826],[22.8771,60.3011],[23.0213,60.1068]]],[[[22.8435,60.2418],[22.451,60.1885],[22.6821,59.9975],[22.8435,60.2418]]]]}},{"type":"Feature","id":"label-FIN-3191","properties":{"kind":"division-label","code":"FIN-3191","countryCode":"FIN","name":"Finland Proper","localName":"Finland Proper","labelEnglish":"Finland Proper","labelLocal":"Finland Proper","labelBoth":"Finland Proper","type":"Region","iso":"FI-19","qid":"Q5712"},"geometry":{"type":"Point","coordinates":[22.7128,60.6134]}},{"type":"Feature","id":"FIN-3192","properties":{"kind":"division","code":"FIN-3192","countryCode":"FIN","name":"Satakunta","localName":"Satakunta","labelEnglish":"Satakunta","labelLocal":"Satakunta","labelBoth":"Satakunta","type":"Region","iso":"FI-17","qid":"Q5709"},"geometry":{"type":"Polygon","coordinates":[[[21.4081,61.0482],[22.0056,60.8987],[22.9698,61.0455],[22.6807,61.2417],[22.6015,61.5527],[22.8219,61.7977],[22.5935,62.0282],[22.8383,62.2712],[22.587,62.3018],[21.933,61.9853],[21.6466,62.0205],[21.3167,61.9392],[21.4861,61.8112],[21.5581,61.2042],[21.4081,61.0482]]]}},{"type":"Feature","id":"label-FIN-3192","properties":{"kind":"division-label","code":"FIN-3192","countryCode":"FIN","name":"Satakunta","localName":"Satakunta","labelEnglish":"Satakunta","labelLocal":"Satakunta","labelBoth":"Satakunta","type":"Region","iso":"FI-17","qid":"Q5709"},"geometry":{"type":"Point","coordinates":[22.1012,61.4773]}},{"type":"Feature","id":"FIN-3182","properties":{"kind":"division","code":"FIN-3182","countryCode":"FIN","name":"Ostrobothnia","localName":"Ostrobothnia","labelEnglish":"Ostrobothnia","labelLocal":"Ostrobothnia","labelBoth":"Ostrobothnia","type":"Province","iso":"FI-12","qid":"Q5702"},"geometry":{"type":"Polygon","coordinates":[[[21.3167,61.9392],[21.6466,62.0205],[21.5324,62.3791],[21.7918,62.8566],[22.4042,62.876],[22.7506,63.3444],[23.3505,63.488],[23.6994,63.3806],[23.4436,63.6075],[23.734,63.6682],[22.9907,63.7876],[22.589,63.7033],[22.3737,63.3214],[21.2267,62.8585],[21.1336,62.404],[21.339,62.3555],[21.3167,61.9392]]]}},{"type":"Feature","id":"label-FIN-3182","properties":{"kind":"division-label","code":"FIN-3182","countryCode":"FIN","name":"Ostrobothnia","localName":"Ostrobothnia","labelEnglish":"Ostrobothnia","labelLocal":"Ostrobothnia","labelBoth":"Ostrobothnia","type":"Province","iso":"FI-12","qid":"Q5702"},"geometry":{"type":"Point","coordinates":[22.1482,63.0354]}},{"type":"Feature","id":"FIN-3181","properties":{"kind":"division","code":"FIN-3181","countryCode":"FIN","name":"Central Ostrobothnia","localName":"Central Ostrobothnia","labelEnglish":"Central Ostrobothnia","labelLocal":"Central Ostrobothnia","labelBoth":"Central Ostrobothnia","type":"Province","iso":"FI-07","qid":"Q5696"},"geometry":{"type":"Polygon","coordinates":[[[22.9907,63.7876],[23.734,63.6682],[23.4436,63.6075],[23.6994,63.3806],[24.3628,63.1192],[24.7364,63.1371],[25.0287,63.458],[23.7065,64.1681],[22.9907,63.7876]]]}},{"type":"Feature","id":"label-FIN-3181","properties":{"kind":"division-label","code":"FIN-3181","countryCode":"FIN","name":"Central Ostrobothnia","localName":"Central Ostrobothnia","labelEnglish":"Central Ostrobothnia","labelLocal":"Central Ostrobothnia","labelBoth":"Central Ostrobothnia","type":"Province","iso":"FI-07","qid":"Q5696"},"geometry":{"type":"Point","coordinates":[24.0097,63.6751]}},{"type":"Feature","id":"FIN-3178","properties":{"kind":"division","code":"FIN-3178","countryCode":"FIN","name":"Northern Savonia","localName":"Northern Savonia","labelEnglish":"Northern Savonia","labelLocal":"Northern Savonia","labelBoth":"Northern Savonia","type":"Province","iso":"FI-15","qid":"Q5706"},"geometry":{"type":"Polygon","coordinates":[[[26.8721,64.0334],[26.238,63.8069],[26.1378,63.4563],[26.3188,62.9814],[26.0522,62.921],[26.5208,62.7364],[26.7118,62.4513],[27.3809,62.5173],[27.8382,62.279],[28.3103,62.3579],[28.6582,62.6533],[29.0519,62.999],[28.6182,63.2088],[28.7614,63.3766],[28.3584,63.7534],[26.8721,64.0334]]]}},{"type":"Feature","id":"label-FIN-3178","properties":{"kind":"division-label","code":"FIN-3178","countryCode":"FIN","name":"Northern Savonia","localName":"Northern Savonia","labelEnglish":"Northern Savonia","labelLocal":"Northern Savonia","labelBoth":"Northern Savonia","type":"Province","iso":"FI-15","qid":"Q5706"},"geometry":{"type":"Point","coordinates":[27.5702,63.1933]}},{"type":"Feature","id":"FIN-3189","properties":{"kind":"division","code":"FIN-3189","countryCode":"FIN","name":"Southern Savonia","localName":"Southern Savonia","labelEnglish":"Southern Savonia","labelLocal":"Southern Savonia","labelBoth":"Southern Savonia","type":"Province","iso":"FI-04","qid":"Q5693"},"geometry":{"type":"Polygon","coordinates":[[[28.6582,62.6533],[28.3103,62.3579],[27.8382,62.279],[27.3809,62.5173],[26.7118,62.4513],[26.2448,62.1367],[26.5291,61.6864],[26.3195,61.6076],[26.5151,61.2737],[27.2132,61.1618],[26.9764,61.3439],[28.1815,61.3733],[28.4689,61.5092],[29.272,61.5721],[29.564,61.7241],[29.6564,61.9731],[29.2814,62.383],[28.6582,62.6533]]]}},{"type":"Feature","id":"label-FIN-3189","properties":{"kind":"division-label","code":"FIN-3189","countryCode":"FIN","name":"Southern Savonia","localName":"Southern Savonia","labelEnglish":"Southern Savonia","labelLocal":"Southern Savonia","labelBoth":"Southern Savonia","type":"Province","iso":"FI-04","qid":"Q5693"},"geometry":{"type":"Point","coordinates":[27.9693,61.8152]}},{"type":"Feature","id":"FIN-3177","properties":{"kind":"division","code":"FIN-3177","countryCode":"FIN","name":"Central Finland","localName":"Central Finland","labelEnglish":"Central Finland","labelLocal":"Central Finland","labelBoth":"Central Finland","type":"Province","iso":"FI-08","qid":"Q5697"},"geometry":{"type":"Polygon","coordinates":[[[26.1378,63.4563],[25.2316,63.6009],[25.0287,63.458],[24.7364,63.1371],[24.3628,63.1192],[24.5136,62.5039],[24.0203,62.364],[24.8688,62.0557],[24.9582,61.4559],[25.4033,61.4841],[25.862,61.798],[26.3195,61.6076],[26.5291,61.6864],[26.2448,62.1367],[26.7118,62.4513],[26.5208,62.7364],[26.0522,62.921],[26.3188,62.9814],[26.1378,63.4563]]]}},{"type":"Feature","id":"label-FIN-3177","properties":{"kind":"division-label","code":"FIN-3177","countryCode":"FIN","name":"Central Finland","localName":"Central Finland","labelEnglish":"Central Finland","labelLocal":"Central Finland","labelBoth":"Central Finland","type":"Province","iso":"FI-08","qid":"Q5697"},"geometry":{"type":"Point","coordinates":[25.3934,62.5246]}},{"type":"Feature","id":"FIN-3183","properties":{"kind":"division","code":"FIN-3183","countryCode":"FIN","name":"Southern Ostrobothnia","localName":"Southern Ostrobothnia","labelEnglish":"Southern Ostrobothnia","labelLocal":"Southern Ostrobothnia","labelBoth":"Southern Ostrobothnia","type":"Province","iso":"FI-03","qid":"Q5692"},"geometry":{"type":"Polygon","coordinates":[[[23.6994,63.3806],[23.3505,63.488],[22.7506,63.3444],[22.4042,62.876],[21.7918,62.8566],[21.5324,62.3791],[21.6466,62.0205],[21.933,61.9853],[22.587,62.3018],[22.8383,62.2712],[23.9101,62.4694],[24.0203,62.364],[24.5136,62.5039],[24.3628,63.1192],[23.6994,63.3806]]]}},{"type":"Feature","id":"label-FIN-3183","properties":{"kind":"division-label","code":"FIN-3183","countryCode":"FIN","name":"Southern Ostrobothnia","localName":"Southern Ostrobothnia","labelEnglish":"Southern Ostrobothnia","labelLocal":"Southern Ostrobothnia","labelBoth":"Southern Ostrobothnia","type":"Province","iso":"FI-03","qid":"Q5692"},"geometry":{"type":"Point","coordinates":[23.1486,62.7521]}},{"type":"Feature","id":"FIN-3186","properties":{"kind":"division","code":"FIN-3186","countryCode":"FIN","name":"Pirkanmaa","localName":"Pirkanmaa","labelEnglish":"Pirkanmaa","labelLocal":"Pirkanmaa","labelBoth":"Pirkanmaa","type":"Region","iso":"FI-11","qid":"Q5701"},"geometry":{"type":"Polygon","coordinates":[[[24.0203,62.364],[23.9101,62.4694],[22.8383,62.2712],[22.5935,62.0282],[22.8219,61.7977],[22.6015,61.5527],[22.6807,61.2417],[22.9698,61.0455],[23.1974,60.9999],[23.707,61.007],[24.2795,61.2371],[24.9183,61.3223],[24.9582,61.4559],[24.8688,62.0557],[24.0203,62.364]]]}},{"type":"Feature","id":"label-FIN-3186","properties":{"kind":"division-label","code":"FIN-3186","countryCode":"FIN","name":"Pirkanmaa","localName":"Pirkanmaa","labelEnglish":"Pirkanmaa","labelLocal":"Pirkanmaa","labelBoth":"Pirkanmaa","type":"Region","iso":"FI-11","qid":"Q5701"},"geometry":{"type":"Point","coordinates":[23.7573,61.6936]}},{"type":"Feature","id":"FIN-3185","properties":{"kind":"division","code":"FIN-3185","countryCode":"FIN","name":"Tavastia Proper","localName":"Tavastia Proper","labelEnglish":"Tavastia Proper","labelLocal":"Tavastia Proper","labelBoth":"Tavastia Proper","type":"Region","iso":"FI-06","qid":"Q5695"},"geometry":{"type":"Polygon","coordinates":[[[24.9183,61.3223],[24.2795,61.2371],[23.707,61.007],[23.1974,60.9999],[23.2673,60.7282],[23.8967,60.6488],[24.5249,60.5585],[25.1089,60.8199],[25.2867,61.0757],[24.9183,61.3223]]]}},{"type":"Feature","id":"label-FIN-3185","properties":{"kind":"division-label","code":"FIN-3185","countryCode":"FIN","name":"Tavastia Proper","localName":"Tavastia Proper","labelEnglish":"Tavastia Proper","labelLocal":"Tavastia Proper","labelBoth":"Tavastia Proper","type":"Region","iso":"FI-06","qid":"Q5695"},"geometry":{"type":"Point","coordinates":[24.4224,60.9239]}},{"type":"Feature","id":"FIN-3184","properties":{"kind":"division","code":"FIN-3184","countryCode":"FIN","name":"Päijänne Tavastia","localName":"Päijänne Tavastia","labelEnglish":"Päijänne Tavastia","labelLocal":"Päijänne Tavastia","labelBoth":"Päijänne Tavastia","type":"Province","iso":"FI-16","qid":"Q5708"},"geometry":{"type":"Polygon","coordinates":[[[26.3195,61.6076],[25.862,61.798],[25.4033,61.4841],[24.9582,61.4559],[24.9183,61.3223],[25.2867,61.0757],[25.1089,60.8199],[25.6105,60.6884],[26.2155,60.7554],[26.0521,61.1076],[26.5151,61.2737],[26.3195,61.6076]]]}},{"type":"Feature","id":"label-FIN-3184","properties":{"kind":"division-label","code":"FIN-3184","countryCode":"FIN","name":"Päijänne Tavastia","localName":"Päijänne Tavastia","labelEnglish":"Päijänne Tavastia","labelLocal":"Päijänne Tavastia","labelBoth":"Päijänne Tavastia","type":"Province","iso":"FI-16","qid":"Q5708"},"geometry":{"type":"Point","coordinates":[25.6876,61.2034]}}]}