{"type":"FeatureCollection","features":[{"type":"Feature","id":"FJI-2618","properties":{"kind":"division","code":"FJI-2618","countryCode":"FJI","name":"Eastern","localName":"Eastern","labelEnglish":"Eastern","labelLocal":"Eastern","labelBoth":"Eastern","type":"Division","iso":"FJ-E","qid":"Q182169"},"geometry":{"type":"Polygon","coordinates":[[[178.4303,-18.9553],[177.9512,-19.1297],[178.4966,-19.0133],[178.4303,-18.9553]]]}},{"type":"Feature","id":"label-FJI-2618","properties":{"kind":"division-label","code":"FJI-2618","countryCode":"FJI","name":"Eastern","localName":"Eastern","labelEnglish":"Eastern","labelLocal":"Eastern","labelBoth":"Eastern","type":"Division","iso":"FJ-E","qid":"Q182169"},"geometry":{"type":"Point","coordinates":[-178.72,-20.6657]}},{"type":"Feature","id":"FJI-2620","properties":{"kind":"division","code":"FJI-2620","countryCode":"FJI","name":"Western","localName":"Western","labelEnglish":"Western","labelLocal":"Western","labelBoth":"Western","type":"Division","iso":"FJ-W","qid":"Q1062451"},"geometry":{"type":"Polygon","coordinates":[[[177.7834,-18.2232],[177.8152,-17.9854],[178.0076,-17.9533],[178.0416,-17.5709],[178.4269,-17.6642],[178.4483,-17.5503],[178.1901,-17.3006],[177.5151,-17.5051],[177.2516,-17.9522],[177.3359,-18.1056],[177.7834,-18.2232]]]}},{"type":"Feature","id":"label-FJI-2620","properties":{"kind":"division-label","code":"FJI-2620","countryCode":"FJI","name":"Western","localName":"Western","labelEnglish":"Western","labelLocal":"Western","labelBoth":"Western","type":"Division","iso":"FJ-W","qid":"Q1062451"},"geometry":{"type":"Point","coordinates":[174.61,-21.6878]}},{"type":"Feature","id":"FJI-2617","properties":{"kind":"division","code":"FJI-2617","countryCode":"FJI","name":"Central","localName":"Central","labelEnglish":"Central","labelLocal":"Central","labelBoth":"Central","type":"Division","iso":"FJ-C","qid":"Q1053789"},"geometry":{"type":"Polygon","coordinates":[[[178.4483,-17.5503],[178.4269,-17.6642],[178.0416,-17.5709],[178.0076,-17.9533],[177.8152,-17.9854],[177.7834,-18.2232],[178.1683,-18.2485],[178.6636,-18.0881],[178.573,-17.6179],[178.4483,-17.5503]]]}},{"type":"Feature","id":"label-FJI-2617","properties":{"kind":"division-label","code":"FJI-2617","countryCode":"FJI","name":"Central","localName":"Central","labelEnglish":"Central","labelLocal":"Central","labelBoth":"Central","type":"Division","iso":"FJ-C","qid":"Q1053789"},"geometry":{"type":"Point","coordinates":[178.132,-18.3823]}},{"type":"Feature","id":"FJI-2619","properties":{"kind":"division","code":"FJI-2619","countryCode":"FJI","name":"Northern","localName":"Northern","labelEnglish":"Northern","labelLocal":"Northern","labelBoth":"Northern","type":"Division","iso":"FJ-N","qid":"Q1062430"},"geometry":{"type":"Polygon","coordinates":[[[180,-16.169],[180,-16.1491],[179.4712,-16.274],[179.4036,-16.408],[178.9651,-16.4706],[178.7043,-16.6671],[178.5718,-16.6155],[178.7053,-16.9988],[179.2664,-16.6899],[179.2969,-16.8068],[179.5651,-16.7917],[179.8486,-16.6624],[179.9395,-16.4633],[179.5481,-16.766],[179.4888,-16.7076],[180,-16.169]]]}},{"type":"Feature","id":"label-FJI-2619","properties":{"kind":"division-label","code":"FJI-2619","countryCode":"FJI","name":"Northern","localName":"Northern","labelEnglish":"Northern","labelLocal":"Northern","labelBoth":"Northern","type":"Division","iso":"FJ-N","qid":"Q1062430"},"geometry":{"type":"Point","coordinates":[178.308,-16.8107]}},{"type":"Feature","id":"FJI-2658","properties":{"kind":"division","code":"FJI-2658","countryCode":"FJI","name":"Rotuma","localName":"Rotuma","labelEnglish":"Rotuma","labelLocal":"Rotuma","labelBoth":"Rotuma","type":"Division","iso":"FJ-R","qid":"Q459763"},"geometry":{"type":"Polygon","coordinates":[[[177.1248,-12.4861],[177.0597,-12.4753],[177.0115,-12.5095],[177.1248,-12.4861]]]}},{"type":"Feature","id":"label-FJI-2658","properties":{"kind":"division-label","code":"FJI-2658","countryCode":"FJI","name":"Rotuma","localName":"Rotuma","labelEnglish":"Rotuma","labelLocal":"Rotuma","labelBoth":"Rotuma","type":"Division","iso":"FJ-R","qid":"Q459763"},"geometry":{"type":"Point","coordinates":[177.067,-12.4964]}}]}