{"type":"FeatureCollection","features":[{"type":"Feature","id":"FLK-5152","properties":{"kind":"division","code":"FLK-5152","countryCode":"FLK","name":"Falkland Islands","localName":"Falkland Islands","labelEnglish":"Falkland Islands","labelLocal":"Falkland Islands","labelBoth":"Falkland Islands","type":null,"iso":"FK-X01~","qid":null},"geometry":{"type":"MultiPolygon","coordinates":[[[[-59.6324,-51.7413],[-59.3928,-51.4328],[-60.0175,-51.3752],[-60.4904,-51.5265],[-60.5321,-51.9999],[-61.0369,-52.0466],[-60.5928,-52.2367],[-60.2865,-52.0128],[-59.8717,-51.949],[-59.6324,-51.7413]]],[[[-57.8162,-51.6935],[-57.9064,-51.3766],[-58.3594,-51.5047],[-58.4814,-51.301],[-58.9418,-51.2789],[-59.1678,-51.5737],[-58.9912,-51.6466],[-59.4711,-51.8381],[-59.7144,-52.1187],[-59.3928,-52.3105],[-59.2003,-52.0076],[-58.6412,-52.1078],[-58.7578,-51.8913],[-57.8162,-51.6935]]]]}},{"type":"Feature","id":"label-FLK-5152","properties":{"kind":"division-label","code":"FLK-5152","countryCode":"FLK","name":"Falkland Islands","localName":"Falkland Islands","labelEnglish":"Falkland Islands","labelLocal":"Falkland Islands","labelBoth":"Falkland Islands","type":null,"iso":"FK-X01~","qid":null},"geometry":{"type":"Point","coordinates":[-59.1944,-51.8593]}}]}