{"type":"FeatureCollection","features":[{"type":"Feature","id":"FRA-2000","properties":{"kind":"division","code":"FRA-2000","countryCode":"FRA","name":"French Guiana","localName":"French Guiana","labelEnglish":"French Guiana","labelLocal":"French Guiana","labelBoth":"French Guiana","type":"Overseas department","iso":"FR-GF","qid":"Q3769"},"geometry":{"type":"Polygon","coordinates":[[[-54.3207,5.2125],[-54.4821,4.9128],[-54.3444,4.0249],[-54.0501,3.6345],[-54.003,3.4554],[-54.2112,3.1274],[-54.1634,2.9697],[-54.3594,2.508],[-54.6153,2.3263],[-54.1349,2.1107],[-53.8309,2.3101],[-53.5318,2.247],[-53.3441,2.3496],[-52.9597,2.1752],[-52.7077,2.3589],[-51.9884,3.7046],[-51.6832,4.0394],[-51.6507,4.19],[-51.7931,4.6011],[-51.9963,4.6523],[-52.9946,5.4576],[-53.9443,5.7446],[-54.171,5.3484],[-54.3207,5.2125]]]}},{"type":"Feature","id":"label-FRA-2000","properties":{"kind":"division-label","code":"FRA-2000","countryCode":"FRA","name":"French Guiana","localName":"French Guiana","labelEnglish":"French Guiana","labelLocal":"French Guiana","labelBoth":"French Guiana","type":"Overseas department","iso":"FR-GF","qid":"Q3769"},"geometry":{"type":"Point","coordinates":[-53.1324,3.85831]}},{"type":"Feature","id":"FRA-5330","properties":{"kind":"division","code":"FRA-5330","countryCode":"FRA","name":"Nord","localName":"Nord","labelEnglish":"Nord","labelLocal":"Nord","labelBoth":"Nord","type":"Metropolitan department","iso":"FR-59","qid":"Q12661"},"geometry":{"type":"Polygon","coordinates":[[[2.5218,51.0875],[2.0633,51.0143],[2.3715,50.6743],[2.7343,50.6264],[3.0555,50.4263],[3.0883,50.05],[3.157,50.0187],[3.6832,50.0593],[4.1317,49.975],[4.2037,50.252],[3.6617,50.3193],[3.271,50.5269],[3.1628,50.7499],[3.0238,50.7683],[2.8667,50.7001],[2.59,50.842],[2.5218,51.0875]]]}},{"type":"Feature","id":"label-FRA-5330","properties":{"kind":"division-label","code":"FRA-5330","countryCode":"FRA","name":"Nord","localName":"Nord","labelEnglish":"Nord","labelLocal":"Nord","labelBoth":"Nord","type":"Metropolitan department","iso":"FR-59","qid":"Q12661"},"geometry":{"type":"Point","coordinates":[3.22709,50.403]}},{"type":"Feature","id":"FRA-5268","properties":{"kind":"division","code":"FRA-5268","countryCode":"FRA","name":"Ardennes","localName":"Ardennes","labelEnglish":"Ardennes","labelLocal":"Ardennes","labelBoth":"Ardennes","type":"Metropolitan department","iso":"FR-08","qid":"Q3164"},"geometry":{"type":"Polygon","coordinates":[[[4.9684,49.797],[4.8719,50.1398],[4.4277,49.9336],[4.2159,49.9544],[4.0553,49.4073],[4.6365,49.235],[4.9787,49.2357],[5.1008,49.5635],[5.3912,49.6088],[4.9684,49.797]]]}},{"type":"Feature","id":"label-FRA-5268","properties":{"kind":"division-label","code":"FRA-5268","countryCode":"FRA","name":"Ardennes","localName":"Ardennes","labelEnglish":"Ardennes","labelLocal":"Ardennes","labelBoth":"Ardennes","type":"Metropolitan department","iso":"FR-08","qid":"Q3164"},"geometry":{"type":"Point","coordinates":[4.62417,49.5403]}},{"type":"Feature","id":"FRA-5263","properties":{"kind":"division","code":"FRA-5263","countryCode":"FRA","name":"Aisne","localName":"Aisne","labelEnglish":"Aisne","labelLocal":"Aisne","labelBoth":"Aisne","type":"Metropolitan department","iso":"FR-02","qid":"Q3093"},"geometry":{"type":"Polygon","coordinates":[[[4.1317,49.975],[3.6832,50.0593],[3.157,50.0187],[3.1186,49.7058],[3.0797,49.1062],[3.4779,48.8501],[3.6501,49.3028],[4.0553,49.4073],[4.2159,49.9544],[4.1317,49.975]]]}},{"type":"Feature","id":"label-FRA-5263","properties":{"kind":"division-label","code":"FRA-5263","countryCode":"FRA","name":"Aisne","localName":"Aisne","labelEnglish":"Aisne","labelLocal":"Aisne","labelBoth":"Aisne","type":"Metropolitan department","iso":"FR-02","qid":"Q3093"},"geometry":{"type":"Point","coordinates":[3.51554,49.5667]}},{"type":"Feature","id":"FRA-5326","properties":{"kind":"division","code":"FRA-5326","countryCode":"FRA","name":"Meuse","localName":"Meuse","labelEnglish":"Meuse","labelLocal":"Meuse","labelBoth":"Meuse","type":"Metropolitan department","iso":"FR-55","qid":"Q12631"},"geometry":{"type":"Polygon","coordinates":[[[5.3912,49.6088],[5.1008,49.5635],[4.9787,49.2357],[4.9921,48.6929],[5.4552,48.4192],[5.7652,48.4966],[5.8415,49.0556],[5.4777,49.4952],[5.3912,49.6088]]]}},{"type":"Feature","id":"label-FRA-5326","properties":{"kind":"division-label","code":"FRA-5326","countryCode":"FRA","name":"Meuse","localName":"Meuse","labelEnglish":"Meuse","labelLocal":"Meuse","labelBoth":"Meuse","type":"Metropolitan department","iso":"FR-55","qid":"Q12631"},"geometry":{"type":"Point","coordinates":[5.50884,48.9505]}},{"type":"Feature","id":"FRA-5325","properties":{"kind":"division","code":"FRA-5325","countryCode":"FRA","name":"Meurthe-et-Moselle","localName":"Meurthe-et-Moselle","labelEnglish":"Meurthe-et-Moselle","labelLocal":"Meurthe-et-Moselle","labelBoth":"Meurthe-et-Moselle","type":"Metropolitan department","iso":"FR-54","qid":"Q12626"},"geometry":{"type":"Polygon","coordinates":[[[5.7907,49.5378],[5.4777,49.4952],[5.8415,49.0556],[5.7652,48.4966],[5.9769,48.3575],[6.8072,48.396],[7.0887,48.5234],[6.3715,48.7802],[5.935,49.084],[5.9281,49.4823],[5.7907,49.5378]]]}},{"type":"Feature","id":"label-FRA-5325","properties":{"kind":"division-label","code":"FRA-5325","countryCode":"FRA","name":"Meurthe-et-Moselle","localName":"Meurthe-et-Moselle","labelEnglish":"Meurthe-et-Moselle","labelLocal":"Meurthe-et-Moselle","labelBoth":"Meurthe-et-Moselle","type":"Metropolitan department","iso":"FR-54","qid":"Q12626"},"geometry":{"type":"Point","coordinates":[6.27603,48.7055]}},{"type":"Feature","id":"FRA-5328","properties":{"kind":"division","code":"FRA-5328","countryCode":"FRA","name":"Moselle","localName":"Moselle","labelEnglish":"Moselle","labelLocal":"Moselle","labelBoth":"Moselle","type":"Metropolitan department","iso":"FR-57","qid":"Q12652"},"geometry":{"type":"Polygon","coordinates":[[[6.3453,49.4553],[6.2511,49.4895],[5.9281,49.4823],[5.935,49.084],[6.3715,48.7802],[7.0887,48.5234],[7.3041,48.7755],[6.9862,48.8987],[7.0787,49.0602],[7.3417,48.9434],[7.6449,49.0363],[7.3716,49.1662],[6.701,49.1729],[6.3453,49.4553]]]}},{"type":"Feature","id":"label-FRA-5328","properties":{"kind":"division-label","code":"FRA-5328","countryCode":"FRA","name":"Moselle","localName":"Moselle","labelEnglish":"Moselle","labelLocal":"Moselle","labelBoth":"Moselle","type":"Metropolitan department","iso":"FR-57","qid":"Q12652"},"geometry":{"type":"Point","coordinates":[6.51862,49.0845]}},{"type":"Feature","id":"FRA-5266","properties":{"kind":"division","code":"FRA-5266","countryCode":"FRA","name":"Alpes-Maritimes","localName":"Alpes-Maritimes","labelEnglish":"Alpes-Maritimes","labelLocal":"Alpes-Maritimes","labelBoth":"Alpes-Maritimes","type":"Metropolitan department","iso":"FR-06","qid":"Q3139"},"geometry":{"type":"Polygon","coordinates":[[[7.6879,44.0908],[7.3808,44.1229],[6.8784,44.3546],[6.695,44.1531],[6.9423,43.8972],[6.6364,43.7889],[6.9332,43.4803],[7.3658,43.7227],[7.407,43.7635],[7.4375,43.7434],[7.5023,43.7922],[7.6879,44.0908]]]}},{"type":"Feature","id":"label-FRA-5266","properties":{"kind":"division-label","code":"FRA-5266","countryCode":"FRA","name":"Alpes-Maritimes","localName":"Alpes-Maritimes","labelEnglish":"Alpes-Maritimes","labelLocal":"Alpes-Maritimes","labelBoth":"Alpes-Maritimes","type":"Metropolitan department","iso":"FR-06","qid":"Q3139"},"geometry":{"type":"Point","coordinates":[7.18651,43.8699]}},{"type":"Feature","id":"FRA-5265","properties":{"kind":"division","code":"FRA-5265","countryCode":"FRA","name":"Alpes-de-Haute-Provence","localName":"Alpes-de-Haute-Provence","labelEnglish":"Alpes-de-Haute-Provence","labelLocal":"Alpes-de-Haute-Provence","labelBoth":"Alpes-de-Haute-Provence","type":"Metropolitan department","iso":"FR-04","qid":"Q3131"},"geometry":{"type":"Polygon","coordinates":[[[6.9383,44.658],[6.236,44.3847],[6.0735,44.4676],[5.6789,44.1907],[5.5062,44.1218],[5.7538,43.7321],[6.6364,43.7889],[6.9423,43.8972],[6.695,44.1531],[6.8784,44.3546],[6.9383,44.658]]]}},{"type":"Feature","id":"label-FRA-5265","properties":{"kind":"division-label","code":"FRA-5265","countryCode":"FRA","name":"Alpes-de-Haute-Provence","localName":"Alpes-de-Haute-Provence","labelEnglish":"Alpes-de-Haute-Provence","labelLocal":"Alpes-de-Haute-Provence","labelBoth":"Alpes-de-Haute-Provence","type":"Metropolitan department","iso":"FR-04","qid":"Q3131"},"geometry":{"type":"Point","coordinates":[6.24822,44.0454]}},{"type":"Feature","id":"FRA-5304","properties":{"kind":"division","code":"FRA-5304","countryCode":"FRA","name":"Hautes-Alpes","localName":"Hautes-Alpes","labelEnglish":"Hautes-Alpes","labelLocal":"Hautes-Alpes","labelBoth":"Hautes-Alpes","type":"Metropolitan department","iso":"FR-05","qid":"Q3125"},"geometry":{"type":"Polygon","coordinates":[[[7.0388,44.7121],[6.6294,45.1235],[6.2664,45.1248],[6.3568,44.8579],[5.812,44.7121],[5.4593,44.3703],[5.6789,44.1907],[6.0735,44.4676],[6.236,44.3847],[6.9383,44.658],[7.0388,44.7121]]]}},{"type":"Feature","id":"label-FRA-5304","properties":{"kind":"division-label","code":"FRA-5304","countryCode":"FRA","name":"Hautes-Alpes","localName":"Hautes-Alpes","labelEnglish":"Hautes-Alpes","labelLocal":"Hautes-Alpes","labelBoth":"Hautes-Alpes","type":"Metropolitan department","iso":"FR-05","qid":"Q3125"},"geometry":{"type":"Point","coordinates":[6.37648,44.6732]}},{"type":"Feature","id":"FRA-5341","properties":{"kind":"division","code":"FRA-5341","countryCode":"FRA","name":"Savoie","localName":"Savoie","labelEnglish":"Savoie","labelLocal":"Savoie","labelBoth":"Savoie","type":"Metropolitan department","iso":"FR-73","qid":"Q12745"},"geometry":{"type":"Polygon","coordinates":[[[7.0754,45.4663],[6.7839,45.765],[6.5123,45.9066],[6.3302,45.7039],[6.0032,45.7521],[5.8404,45.9388],[5.6005,45.6556],[5.7562,45.4393],[6.1254,45.4351],[6.2664,45.1248],[6.6294,45.1235],[7.1084,45.2592],[7.0754,45.4663]]]}},{"type":"Feature","id":"label-FRA-5341","properties":{"kind":"division-label","code":"FRA-5341","countryCode":"FRA","name":"Savoie","localName":"Savoie","labelEnglish":"Savoie","labelLocal":"Savoie","labelBoth":"Savoie","type":"Metropolitan department","iso":"FR-73","qid":"Q12745"},"geometry":{"type":"Point","coordinates":[6.47098,45.4832]}},{"type":"Feature","id":"FRA-5302","properties":{"kind":"division","code":"FRA-5302","countryCode":"FRA","name":"Haute-Savoie","localName":"Haute-Savoie","labelEnglish":"Haute-Savoie","labelLocal":"Haute-Savoie","labelBoth":"Haute-Savoie","type":"Metropolitan department","iso":"FR-74","qid":"Q12751"},"geometry":{"type":"Polygon","coordinates":[[[7.0221,45.9253],[6.7881,46.405],[6.2166,46.3095],[5.9588,46.1305],[5.8404,45.9388],[6.0032,45.7521],[6.3302,45.7039],[6.5123,45.9066],[6.7839,45.765],[7.0221,45.9253]]]}},{"type":"Feature","id":"label-FRA-5302","properties":{"kind":"division-label","code":"FRA-5302","countryCode":"FRA","name":"Haute-Savoie","localName":"Haute-Savoie","labelEnglish":"Haute-Savoie","labelLocal":"Haute-Savoie","labelBoth":"Haute-Savoie","type":"Metropolitan department","iso":"FR-74","qid":"Q12751"},"geometry":{"type":"Point","coordinates":[6.51823,46.0502]}},{"type":"Feature","id":"FRA-5336","properties":{"kind":"division","code":"FRA-5336","countryCode":"FRA","name":"Pyrenees-Atlantics","localName":"Pyrenees-Atlantics","labelEnglish":"Pyrenees-Atlantics","labelLocal":"Pyrenees-Atlantics","labelBoth":"Pyrenees-Atlantics","type":"Metropolitan department","iso":"FR-64","qid":"Q12703"},"geometry":{"type":"Polygon","coordinates":[[[-1.7497,43.2948],[-1.4035,43.2433],[-1.4878,43.0818],[-0.745,42.9187],[-0.3051,42.8308],[0.0232,43.3392],[-0.1097,43.5748],[-0.2363,43.5871],[-1.154,43.49],[-1.514,43.5386],[-1.7941,43.386],[-1.7497,43.2948]]]}},{"type":"Feature","id":"label-FRA-5336","properties":{"kind":"division-label","code":"FRA-5336","countryCode":"FRA","name":"Pyrenees-Atlantics","localName":"Pyrenees-Atlantics","labelEnglish":"Pyrenees-Atlantics","labelLocal":"Pyrenees-Atlantics","labelBoth":"Pyrenees-Atlantics","type":"Metropolitan department","iso":"FR-64","qid":"Q12703"},"geometry":{"type":"Point","coordinates":[-0.74999,43.259]}},{"type":"Feature","id":"FRA-5298","properties":{"kind":"division","code":"FRA-5298","countryCode":"FRA","name":"Haute-Garonne","localName":"Haute-Garonne","labelEnglish":"Haute-Garonne","labelLocal":"Haute-Garonne","labelBoth":"Haute-Garonne","type":"Metropolitan department","iso":"FR-31","qid":"Q12538"},"geometry":{"type":"Polygon","coordinates":[[[0.6634,42.6962],[0.8561,42.8128],[0.9966,43.0947],[1.7026,43.2667],[2.0317,43.4226],[1.6878,43.6308],[1.5557,43.9183],[0.9539,43.7873],[1.1923,43.5988],[1.0253,43.3775],[0.6067,43.3109],[0.4416,43.1311],[0.6449,42.9569],[0.4669,42.6904],[0.6634,42.6962]]]}},{"type":"Feature","id":"label-FRA-5298","properties":{"kind":"division-label","code":"FRA-5298","countryCode":"FRA","name":"Haute-Garonne","localName":"Haute-Garonne","labelEnglish":"Haute-Garonne","labelLocal":"Haute-Garonne","labelBoth":"Haute-Garonne","type":"Metropolitan department","iso":"FR-31","qid":"Q12538"},"geometry":{"type":"Point","coordinates":[1.41673,43.5457]}},{"type":"Feature","id":"FRA-5305","properties":{"kind":"division","code":"FRA-5305","countryCode":"FRA","name":"Hautes-Pyrénées","localName":"Hautes-Pyrénées","labelEnglish":"Hautes-Pyrénées","labelLocal":"Hautes-Pyrénées","labelBoth":"Hautes-Pyrénées","type":"Metropolitan department","iso":"FR-65","qid":"Q12700"},"geometry":{"type":"Polygon","coordinates":[[[-0.3051,42.8308],[-0.0389,42.6851],[0.4669,42.6904],[0.6449,42.9569],[0.4416,43.1311],[0.6067,43.3109],[0.1957,43.3716],[-0.1097,43.5748],[0.0232,43.3392],[-0.3051,42.8308]]]}},{"type":"Feature","id":"label-FRA-5305","properties":{"kind":"division-label","code":"FRA-5305","countryCode":"FRA","name":"Hautes-Pyrénées","localName":"Hautes-Pyrénées","labelEnglish":"Hautes-Pyrénées","labelLocal":"Hautes-Pyrénées","labelBoth":"Hautes-Pyrénées","type":"Metropolitan department","iso":"FR-65","qid":"Q12700"},"geometry":{"type":"Point","coordinates":[0.13923,43.0599]}},{"type":"Feature","id":"FRA-5269","properties":{"kind":"division","code":"FRA-5269","countryCode":"FRA","name":"Ariège","localName":"Ariège","labelEnglish":"Ariège","labelLocal":"Ariège","labelBoth":"Ariège","type":"Metropolitan department","iso":"FR-09","qid":"Q3184"},"geometry":{"type":"Polygon","coordinates":[[[0.8561,42.8128],[1.4293,42.5954],[1.4514,42.6021],[1.5973,42.6219],[1.7611,42.5676],[2.1661,42.6638],[1.8655,42.8159],[1.9249,43.1167],[1.7026,43.2667],[0.9966,43.0947],[0.8561,42.8128]]]}},{"type":"Feature","id":"label-FRA-5269","properties":{"kind":"division-label","code":"FRA-5269","countryCode":"FRA","name":"Ariège","localName":"Ariège","labelEnglish":"Ariège","labelLocal":"Ariège","labelBoth":"Ariège","type":"Metropolitan department","iso":"FR-09","qid":"Q3184"},"geometry":{"type":"Point","coordinates":[1.53654,42.9046]}},{"type":"Feature","id":"FRA-5337","properties":{"kind":"division","code":"FRA-5337","countryCode":"FRA","name":"Pyrénées-Orientales","localName":"Pyrénées-Orientales","labelEnglish":"Pyrénées-Orientales","labelLocal":"Pyrénées-Orientales","labelBoth":"Pyrénées-Orientales","type":"Metropolitan department","iso":"FR-66","qid":"Q12709"},"geometry":{"type":"Polygon","coordinates":[[[1.7171,42.5399],[1.707,42.5028],[1.7122,42.4937],[2.0517,42.3524],[2.4649,42.3406],[2.9337,42.4702],[3.181,42.4315],[3.0463,42.8371],[2.375,42.8473],[2.1661,42.6638],[1.7611,42.5676],[1.7171,42.5399]]]}},{"type":"Feature","id":"label-FRA-5337","properties":{"kind":"division-label","code":"FRA-5337","countryCode":"FRA","name":"Pyrénées-Orientales","localName":"Pyrénées-Orientales","labelEnglish":"Pyrénées-Orientales","labelLocal":"Pyrénées-Orientales","labelBoth":"Pyrénées-Orientales","type":"Metropolitan department","iso":"FR-66","qid":"Q12709"},"geometry":{"type":"Point","coordinates":[2.54908,42.5738]}},{"type":"Feature","id":"FRA-5273","properties":{"kind":"division","code":"FRA-5273","countryCode":"FRA","name":"Bas-Rhin","localName":"Bas-Rhin","labelEnglish":"Bas-Rhin","labelLocal":"Bas-Rhin","labelBoth":"Bas-Rhin","type":"Metropolitan department","iso":"FR-67","qid":"Q12717"},"geometry":{"type":"Polygon","coordinates":[[[7.6449,49.0363],[7.3417,48.9434],[7.0787,49.0602],[6.9862,48.8987],[7.3041,48.7755],[7.0887,48.5234],[7.2087,48.3034],[7.582,48.1214],[7.8103,48.615],[8.1999,48.9583],[7.6449,49.0363]]]}},{"type":"Feature","id":"label-FRA-5273","properties":{"kind":"division-label","code":"FRA-5273","countryCode":"FRA","name":"Bas-Rhin","localName":"Bas-Rhin","labelEnglish":"Bas-Rhin","labelLocal":"Bas-Rhin","labelBoth":"Bas-Rhin","type":"Metropolitan department","iso":"FR-67","qid":"Q12717"},"geometry":{"type":"Point","coordinates":[7.56628,48.6179]}},{"type":"Feature","id":"FRA-5296","properties":{"kind":"division","code":"FRA-5296","countryCode":"FRA","name":"Haut-Rhin","localName":"Haut-Rhin","labelEnglish":"Haut-Rhin","labelLocal":"Haut-Rhin","labelBoth":"Haut-Rhin","type":"Metropolitan department","iso":"FR-68","qid":"Q12722"},"geometry":{"type":"Polygon","coordinates":[[[7.582,48.1214],[7.2087,48.3034],[6.8689,47.819],[7.1422,47.4877],[7.3369,47.4319],[7.3882,47.4333],[7.4206,47.4509],[7.446,47.4869],[7.4858,47.4988],[7.5209,47.5634],[7.586,47.5846],[7.582,48.1214]]]}},{"type":"Feature","id":"label-FRA-5296","properties":{"kind":"division-label","code":"FRA-5296","countryCode":"FRA","name":"Haut-Rhin","localName":"Haut-Rhin","labelEnglish":"Haut-Rhin","labelLocal":"Haut-Rhin","labelBoth":"Haut-Rhin","type":"Metropolitan department","iso":"FR-68","qid":"Q12722"},"geometry":{"type":"Point","coordinates":[7.25359,47.886]}},{"type":"Feature","id":"FRA-5348","properties":{"kind":"division","code":"FRA-5348","countryCode":"FRA","name":"Territoire de Belfort","localName":"Territoire de Belfort","labelEnglish":"Territoire de Belfort","labelLocal":"Territoire de Belfort","labelBoth":"Territoire de Belfort","type":"Metropolitan department","iso":"FR-90","qid":"Q12782"},"geometry":{"type":"Polygon","coordinates":[[[6.9392,47.4268],[7.1422,47.4877],[6.8689,47.819],[6.836,47.8242],[6.8071,47.5629],[6.9392,47.4268]]]}},{"type":"Feature","id":"label-FRA-5348","properties":{"kind":"division-label","code":"FRA-5348","countryCode":"FRA","name":"Territoire de Belfort","localName":"Territoire de Belfort","labelEnglish":"Territoire de Belfort","labelLocal":"Territoire de Belfort","labelBoth":"Territoire de Belfort","type":"Metropolitan department","iso":"FR-90","qid":"Q12782"},"geometry":{"type":"Point","coordinates":[6.93675,47.6568]}},{"type":"Feature","id":"FRA-5287","properties":{"kind":"division","code":"FRA-5287","countryCode":"FRA","name":"Doubs","localName":"Doubs","labelEnglish":"Doubs","labelLocal":"Doubs","labelBoth":"Doubs","type":"Metropolitan department","iso":"FR-25","qid":"Q3361"},"geometry":{"type":"Polygon","coordinates":[[[6.9392,47.4268],[6.8071,47.5629],[6.3077,47.4923],[5.6988,47.265],[5.7479,47.0249],[6.2066,46.7664],[6.138,46.5576],[6.4431,46.8515],[6.8381,47.1681],[6.9392,47.4268]]]}},{"type":"Feature","id":"label-FRA-5287","properties":{"kind":"division-label","code":"FRA-5287","countryCode":"FRA","name":"Doubs","localName":"Doubs","labelEnglish":"Doubs","labelLocal":"Doubs","labelBoth":"Doubs","type":"Metropolitan department","iso":"FR-25","qid":"Q3361"},"geometry":{"type":"Point","coordinates":[6.31895,47.1584]}},{"type":"Feature","id":"FRA-5262","properties":{"kind":"division","code":"FRA-5262","countryCode":"FRA","name":"Ain","localName":"Ain","labelEnglish":"Ain","labelLocal":"Ain","labelBoth":"Ain","type":"Metropolitan department","iso":"FR-01","qid":"Q3083"},"geometry":{"type":"Polygon","coordinates":[[[6.1186,46.3318],[6.059,46.4174],[5.8809,46.2755],[5.5099,46.2607],[5.311,46.4554],[4.9376,46.5016],[4.7978,46.1718],[4.7467,45.9666],[5.1024,45.8262],[5.369,45.88],[5.6005,45.6556],[5.8404,45.9388],[5.9588,46.1305],[6.1186,46.3318]]]}},{"type":"Feature","id":"label-FRA-5262","properties":{"kind":"division-label","code":"FRA-5262","countryCode":"FRA","name":"Ain","localName":"Ain","labelEnglish":"Ain","labelLocal":"Ain","labelBoth":"Ain","type":"Metropolitan department","iso":"FR-01","qid":"Q3083"},"geometry":{"type":"Point","coordinates":[5.37744,46.084]}},{"type":"Feature","id":"FRA-5312","properties":{"kind":"division","code":"FRA-5312","countryCode":"FRA","name":"Jura","localName":"Jura","labelEnglish":"Jura","labelLocal":"Jura","labelBoth":"Jura","type":"Metropolitan department","iso":"FR-39","qid":"Q3120"},"geometry":{"type":"Polygon","coordinates":[[[6.138,46.5576],[6.2066,46.7664],[5.7479,47.0249],[5.6988,47.265],[5.5217,47.2893],[5.2506,46.9812],[5.4241,46.4989],[5.311,46.4554],[5.5099,46.2607],[5.8809,46.2755],[6.059,46.4174],[6.138,46.5576]]]}},{"type":"Feature","id":"label-FRA-5312","properties":{"kind":"division-label","code":"FRA-5312","countryCode":"FRA","name":"Jura","localName":"Jura","labelEnglish":"Jura","labelLocal":"Jura","labelBoth":"Jura","type":"Metropolitan department","iso":"FR-39","qid":"Q3120"},"geometry":{"type":"Point","coordinates":[5.72845,46.732]}},{"type":"Feature","id":"FRA-5351","properties":{"kind":"division","code":"FRA-5351","countryCode":"FRA","name":"Var","localName":"Var","labelEnglish":"Var","labelLocal":"Var","labelBoth":"Var","type":"Metropolitan department","iso":"FR-83","qid":"Q12789"},"geometry":{"type":"Polygon","coordinates":[[[6.9332,43.4803],[6.6364,43.7889],[5.7538,43.7321],[5.6722,43.1804],[5.8566,43.0448],[6.6798,43.2016],[6.9332,43.4803]]]}},{"type":"Feature","id":"label-FRA-5351","properties":{"kind":"division-label","code":"FRA-5351","countryCode":"FRA","name":"Var","localName":"Var","labelEnglish":"Var","labelLocal":"Var","labelBoth":"Var","type":"Metropolitan department","iso":"FR-83","qid":"Q12789"},"geometry":{"type":"Point","coordinates":[6.27103,43.4095]}},{"type":"Feature","id":"FRA-5274","properties":{"kind":"division","code":"FRA-5274","countryCode":"FRA","name":"Bouches-du-Rhône","localName":"Bouches-du-Rhône","labelEnglish":"Bouches-du-Rhône","labelLocal":"Bouches-du-Rhône","labelBoth":"Bouches-du-Rhône","type":"Metropolitan department","iso":"FR-13","qid":"Q3240"},"geometry":{"type":"Polygon","coordinates":[[[5.6722,43.1804],[5.7538,43.7321],[5.5825,43.666],[4.7728,43.9328],[4.6049,43.696],[4.2059,43.4599],[4.8203,43.3464],[5.1738,43.4283],[5.347,43.2159],[5.6722,43.1804]]]}},{"type":"Feature","id":"label-FRA-5274","properties":{"kind":"division-label","code":"FRA-5274","countryCode":"FRA","name":"Bouches-du-Rhône","localName":"Bouches-du-Rhône","labelEnglish":"Bouches-du-Rhône","labelLocal":"Bouches-du-Rhône","labelBoth":"Bouches-du-Rhône","type":"Metropolitan department","iso":"FR-13","qid":"Q3240"},"geometry":{"type":"Point","coordinates":[5.40444,43.5324]}},{"type":"Feature","id":"FRA-5293","properties":{"kind":"division","code":"FRA-5293","countryCode":"FRA","name":"Gard","localName":"Gard","labelEnglish":"Gard","labelLocal":"Gard","labelBoth":"Gard","type":"Metropolitan department","iso":"FR-30","qid":"Q12515"},"geometry":{"type":"Polygon","coordinates":[[[4.2059,43.4599],[4.6049,43.696],[4.7728,43.9328],[4.6578,44.2817],[4.0443,44.3311],[3.994,44.4579],[3.8758,44.1314],[3.3767,44.1683],[3.342,43.9039],[3.7216,43.9707],[4.1764,43.6905],[4.1053,43.5519],[4.2059,43.4599]]]}},{"type":"Feature","id":"label-FRA-5293","properties":{"kind":"division-label","code":"FRA-5293","countryCode":"FRA","name":"Gard","localName":"Gard","labelEnglish":"Gard","labelLocal":"Gard","labelBoth":"Gard","type":"Metropolitan department","iso":"FR-30","qid":"Q12515"},"geometry":{"type":"Point","coordinates":[4.18939,43.9914]}},{"type":"Feature","id":"FRA-5307","properties":{"kind":"division","code":"FRA-5307","countryCode":"FRA","name":"Hérault","localName":"Hérault","labelEnglish":"Hérault","labelLocal":"Hérault","labelBoth":"Hérault","type":"Metropolitan department","iso":"FR-34","qid":"Q12545"},"geometry":{"type":"Polygon","coordinates":[[[4.1053,43.5519],[4.1764,43.6905],[3.7216,43.9707],[3.342,43.9039],[2.9345,43.6937],[2.6414,43.6331],[2.5675,43.4228],[3.2443,43.2194],[4.1053,43.5519]]]}},{"type":"Feature","id":"label-FRA-5307","properties":{"kind":"division-label","code":"FRA-5307","countryCode":"FRA","name":"Hérault","localName":"Hérault","labelEnglish":"Hérault","labelLocal":"Hérault","labelBoth":"Hérault","type":"Metropolitan department","iso":"FR-34","qid":"Q12545"},"geometry":{"type":"Point","coordinates":[3.27316,43.5524]}},{"type":"Feature","id":"FRA-5271","properties":{"kind":"division","code":"FRA-5271","countryCode":"FRA","name":"Aude","localName":"Aude","labelEnglish":"Aude","labelLocal":"Aude","labelBoth":"Aude","type":"Metropolitan department","iso":"FR-11","qid":"Q3207"},"geometry":{"type":"Polygon","coordinates":[[[3.2443,43.2194],[2.5675,43.4228],[2.0317,43.4226],[1.7026,43.2667],[1.9249,43.1167],[1.8655,42.8159],[2.1661,42.6638],[2.375,42.8473],[3.0463,42.8371],[3.2443,43.2194]]]}},{"type":"Feature","id":"label-FRA-5271","properties":{"kind":"division-label","code":"FRA-5271","countryCode":"FRA","name":"Aude","localName":"Aude","labelEnglish":"Aude","labelLocal":"Aude","labelBoth":"Aude","type":"Metropolitan department","iso":"FR-11","qid":"Q3207"},"geometry":{"type":"Point","coordinates":[2.48157,43.1004]}},{"type":"Feature","id":"FRA-5313","properties":{"kind":"division","code":"FRA-5313","countryCode":"FRA","name":"Landes","localName":"Landes","labelEnglish":"Landes","labelLocal":"Landes","labelBoth":"Landes","type":"Metropolitan department","iso":"FR-40","qid":"Q12563"},"geometry":{"type":"Polygon","coordinates":[[[-1.514,43.5386],[-1.154,43.49],[-0.2363,43.5871],[-0.2239,43.8914],[0.0852,43.9673],[-0.1406,44.2265],[-0.6441,44.4486],[-1.2513,44.4682],[-1.514,43.5386]]]}},{"type":"Feature","id":"label-FRA-5313","properties":{"kind":"division-label","code":"FRA-5313","countryCode":"FRA","name":"Landes","localName":"Landes","labelEnglish":"Landes","labelLocal":"Landes","labelBoth":"Landes","type":"Metropolitan department","iso":"FR-40","qid":"Q12563"},"geometry":{"type":"Point","coordinates":[-0.792307,43.9644]}},{"type":"Feature","id":"FRA-5295","properties":{"kind":"division","code":"FRA-5295","countryCode":"FRA","name":"Gironde","localName":"Gironde","labelEnglish":"Gironde","labelLocal":"Gironde","labelBoth":"Gironde","type":"Metropolitan department","iso":"FR-33","qid":"Q12526"},"geometry":{"type":"Polygon","coordinates":[[[-1.2513,44.4682],[-0.6441,44.4486],[-0.1406,44.2265],[-0.0061,44.5091],[0.2974,44.7623],[-0.0127,44.8613],[-0.0336,45.1201],[-0.7066,45.3222],[-1.14,45.4901],[-1.2513,44.4682]]]}},{"type":"Feature","id":"label-FRA-5295","properties":{"kind":"division-label","code":"FRA-5295","countryCode":"FRA","name":"Gironde","localName":"Gironde","labelEnglish":"Gironde","labelLocal":"Gironde","labelBoth":"Gironde","type":"Metropolitan department","iso":"FR-33","qid":"Q12526"},"geometry":{"type":"Point","coordinates":[-0.515546,44.7339]}},{"type":"Feature","id":"FRA-5278","properties":{"kind":"division","code":"FRA-5278","countryCode":"FRA","name":"Charente-Maritime","localName":"Charente-Maritime","labelEnglish":"Charente-Maritime","labelLocal":"Charente-Maritime","labelBoth":"Charente-Maritime","type":"Metropolitan department","iso":"FR-17","qid":"Q3278"},"geometry":{"type":"Polygon","coordinates":[[[-0.7066,45.3222],[-0.0336,45.1201],[0.0003,45.192],[-0.2657,45.3075],[-0.4132,45.7832],[-0.103,45.9697],[-0.6371,46.1545],[-0.7566,46.3012],[-1.1192,46.311],[-1.0734,45.9044],[-1.1942,45.7102],[-0.7066,45.3222]]]}},{"type":"Feature","id":"label-FRA-5278","properties":{"kind":"division-label","code":"FRA-5278","countryCode":"FRA","name":"Charente-Maritime","localName":"Charente-Maritime","labelEnglish":"Charente-Maritime","labelLocal":"Charente-Maritime","labelBoth":"Charente-Maritime","type":"Metropolitan department","iso":"FR-17","qid":"Q3278"},"geometry":{"type":"Point","coordinates":[-0.714301,45.8441]}},{"type":"Feature","id":"FRA-5353","properties":{"kind":"division","code":"FRA-5353","countryCode":"FRA","name":"Vendée","localName":"Vendée","labelEnglish":"Vendée","labelLocal":"Vendée","labelBoth":"Vendée","type":"Metropolitan department","iso":"FR-85","qid":"Q12798"},"geometry":{"type":"Polygon","coordinates":[[[-1.1192,46.311],[-0.7566,46.3012],[-0.5553,46.3697],[-0.712,46.802],[-0.946,47.0004],[-1.1486,47.0295],[-1.5,46.8827],[-1.9907,47.0354],[-2.1188,46.82],[-1.8048,46.5036],[-1.1192,46.311]]]}},{"type":"Feature","id":"label-FRA-5353","properties":{"kind":"division-label","code":"FRA-5353","countryCode":"FRA","name":"Vendée","localName":"Vendée","labelEnglish":"Vendée","labelLocal":"Vendée","labelBoth":"Vendée","type":"Metropolitan department","iso":"FR-85","qid":"Q12798"},"geometry":{"type":"Point","coordinates":[-1.31827,46.6893]}},{"type":"Feature","id":"FRA-5316","properties":{"kind":"division","code":"FRA-5316","countryCode":"FRA","name":"Loire-Atlantique","localName":"Loire-Atlantique","labelEnglish":"Loire-Atlantique","labelLocal":"Loire-Atlantique","labelBoth":"Loire-Atlantique","type":"Metropolitan department","iso":"FR-44","qid":"Q3068"},"geometry":{"type":"Polygon","coordinates":[[[-1.9907,47.0354],[-1.5,46.8827],[-1.1486,47.0295],[-1.3347,47.3239],[-0.9238,47.3943],[-1.251,47.7804],[-1.4617,47.8234],[-2.0885,47.6326],[-2.4611,47.4526],[-2.5564,47.3832],[-1.9907,47.0354]]]}},{"type":"Feature","id":"label-FRA-5316","properties":{"kind":"division-label","code":"FRA-5316","countryCode":"FRA","name":"Loire-Atlantique","localName":"Loire-Atlantique","labelEnglish":"Loire-Atlantique","labelLocal":"Loire-Atlantique","labelBoth":"Loire-Atlantique","type":"Metropolitan department","iso":"FR-44","qid":"Q3068"},"geometry":{"type":"Point","coordinates":[-1.6025,47.3637]}},{"type":"Feature","id":"FRA-5327","properties":{"kind":"division","code":"FRA-5327","countryCode":"FRA","name":"Morbihan","localName":"Morbihan","labelEnglish":"Morbihan","labelLocal":"Morbihan","labelBoth":"Morbihan","type":"Metropolitan department","iso":"FR-56","qid":"Q12642"},"geometry":{"type":"Polygon","coordinates":[[[-2.4611,47.4526],[-2.0885,47.6326],[-2.106,47.945],[-2.2873,48.1337],[-2.6599,48.0404],[-3.0161,48.1981],[-3.5649,48.1857],[-3.7305,48.1012],[-3.3939,47.9525],[-3.5393,47.7737],[-2.8171,47.4992],[-2.4611,47.4526]]]}},{"type":"Feature","id":"label-FRA-5327","properties":{"kind":"division-label","code":"FRA-5327","countryCode":"FRA","name":"Morbihan","localName":"Morbihan","labelEnglish":"Morbihan","labelLocal":"Morbihan","labelBoth":"Morbihan","type":"Metropolitan department","iso":"FR-56","qid":"Q12642"},"geometry":{"type":"Point","coordinates":[-2.89359,47.8699]}},{"type":"Feature","id":"FRA-5292","properties":{"kind":"division","code":"FRA-5292","countryCode":"FRA","name":"Finistère","localName":"Finistère","labelEnglish":"Finistère","labelLocal":"Finistère","labelBoth":"Finistère","type":"Metropolitan department","iso":"FR-29","qid":"Q3389"},"geometry":{"type":"Polygon","coordinates":[[[-3.5393,47.7737],[-3.3939,47.9525],[-3.7305,48.1012],[-3.5649,48.1857],[-3.6385,48.6878],[-3.974,48.7328],[-4.5636,48.6296],[-4.7746,48.4913],[-4.2899,48.1082],[-4.6837,48.0673],[-4.3718,47.8072],[-3.9351,47.8879],[-3.5393,47.7737]]]}},{"type":"Feature","id":"label-FRA-5292","properties":{"kind":"division-label","code":"FRA-5292","countryCode":"FRA","name":"Finistère","localName":"Finistère","labelEnglish":"Finistère","labelLocal":"Finistère","labelBoth":"Finistère","type":"Metropolitan department","iso":"FR-29","qid":"Q3389"},"geometry":{"type":"Point","coordinates":[-3.92644,48.3309]}},{"type":"Feature","id":"FRA-5283","properties":{"kind":"division","code":"FRA-5283","countryCode":"FRA","name":"Côtes-d'Armor","localName":"Côtes-d'Armor","labelEnglish":"Côtes-d'Armor","labelLocal":"Côtes-d'Armor","labelBoth":"Côtes-d'Armor","type":"Metropolitan department","iso":"FR-22","qid":"Q3349"},"geometry":{"type":"Polygon","coordinates":[[[-3.6385,48.6878],[-3.5649,48.1857],[-3.0161,48.1981],[-2.6599,48.0404],[-2.2873,48.1337],[-1.9824,48.2803],[-1.9485,48.5383],[-2.3125,48.687],[-2.6824,48.509],[-3.0915,48.8713],[-3.5153,48.8419],[-3.6385,48.6878]]]}},{"type":"Feature","id":"label-FRA-5283","properties":{"kind":"division-label","code":"FRA-5283","countryCode":"FRA","name":"Côtes-d'Armor","localName":"Côtes-d'Armor","labelEnglish":"Côtes-d'Armor","labelLocal":"Côtes-d'Armor","labelBoth":"Côtes-d'Armor","type":"Metropolitan department","iso":"FR-22","qid":"Q3349"},"geometry":{"type":"Point","coordinates":[-2.93239,48.4383]}},{"type":"Feature","id":"FRA-5308","properties":{"kind":"division","code":"FRA-5308","countryCode":"FRA","name":"Ille-et-Vilaine","localName":"Ille-et-Vilaine","labelEnglish":"Ille-et-Vilaine","labelLocal":"Ille-et-Vilaine","labelBoth":"Ille-et-Vilaine","type":"Metropolitan department","iso":"FR-35","qid":"Q12549"},"geometry":{"type":"Polygon","coordinates":[[[-1.9485,48.5383],[-1.9824,48.2803],[-2.2873,48.1337],[-2.106,47.945],[-2.0885,47.6326],[-1.4617,47.8234],[-1.251,47.7804],[-1.243,47.8095],[-1.0406,48.0015],[-1.0791,48.4987],[-1.4483,48.4658],[-1.5897,48.6418],[-1.9485,48.5383]]]}},{"type":"Feature","id":"label-FRA-5308","properties":{"kind":"division-label","code":"FRA-5308","countryCode":"FRA","name":"Ille-et-Vilaine","localName":"Ille-et-Vilaine","labelEnglish":"Ille-et-Vilaine","labelLocal":"Ille-et-Vilaine","labelBoth":"Ille-et-Vilaine","type":"Metropolitan department","iso":"FR-35","qid":"Q12549"},"geometry":{"type":"Point","coordinates":[-1.65623,48.1428]}},{"type":"Feature","id":"FRA-5322","properties":{"kind":"division","code":"FRA-5322","countryCode":"FRA","name":"Manche","localName":"Manche","labelEnglish":"Manche","labelLocal":"Manche","labelBoth":"Manche","type":"Metropolitan department","iso":"FR-50","qid":"Q12589"},"geometry":{"type":"Polygon","coordinates":[[[-1.5897,48.6418],[-1.4483,48.4658],[-1.0791,48.4987],[-0.8627,48.5018],[-0.8409,48.7523],[-1.1469,48.8218],[-0.8626,49.0264],[-1.1188,49.3462],[-1.3913,49.7127],[-1.9352,49.7241],[-1.6027,49.2254],[-1.5897,48.6418]]]}},{"type":"Feature","id":"label-FRA-5322","properties":{"kind":"division-label","code":"FRA-5322","countryCode":"FRA","name":"Manche","localName":"Manche","labelEnglish":"Manche","labelLocal":"Manche","labelBoth":"Manche","type":"Metropolitan department","iso":"FR-50","qid":"Q12589"},"geometry":{"type":"Point","coordinates":[-1.34727,49.1637]}},{"type":"Feature","id":"FRA-5275","properties":{"kind":"division","code":"FRA-5275","countryCode":"FRA","name":"Calvados","localName":"Calvados","labelEnglish":"Calvados","labelLocal":"Calvados","labelBoth":"Calvados","type":"Metropolitan department","iso":"FR-14","qid":"Q3249"},"geometry":{"type":"Polygon","coordinates":[[[-1.1188,49.3462],[-0.8626,49.0264],[-1.1469,48.8218],[-0.8409,48.7523],[0.4172,48.9461],[0.2943,49.4347],[-0.2195,49.2801],[-1.1188,49.3462]]]}},{"type":"Feature","id":"label-FRA-5275","properties":{"kind":"division-label","code":"FRA-5275","countryCode":"FRA","name":"Calvados","localName":"Calvados","labelEnglish":"Calvados","labelLocal":"Calvados","labelBoth":"Calvados","type":"Metropolitan department","iso":"FR-14","qid":"Q3249"},"geometry":{"type":"Point","coordinates":[-0.288724,49.0601]}},{"type":"Feature","id":"FRA-5290","properties":{"kind":"division","code":"FRA-5290","countryCode":"FRA","name":"Eure","localName":"Eure","labelEnglish":"Eure","labelLocal":"Eure","labelBoth":"Eure","type":"Metropolitan department","iso":"FR-27","qid":"Q3372"},"geometry":{"type":"Polygon","coordinates":[[[0.2943,49.4347],[0.4172,48.9461],[0.8164,48.6651],[1.2582,48.7516],[1.4928,48.9395],[1.6199,49.0826],[1.6981,49.2307],[1.718,49.411],[1.3501,49.442],[1.0034,49.258],[0.4932,49.4936],[0.2943,49.4347]]]}},{"type":"Feature","id":"label-FRA-5290","properties":{"kind":"division-label","code":"FRA-5290","countryCode":"FRA","name":"Eure","localName":"Eure","labelEnglish":"Eure","labelLocal":"Eure","labelBoth":"Eure","type":"Metropolitan department","iso":"FR-27","qid":"Q3372"},"geometry":{"type":"Point","coordinates":[0.92951,49.0414]}},{"type":"Feature","id":"FRA-5343","properties":{"kind":"division","code":"FRA-5343","countryCode":"FRA","name":"Seine-Maritime","localName":"Seine-Maritime","labelEnglish":"Seine-Maritime","labelLocal":"Seine-Maritime","labelBoth":"Seine-Maritime","type":"Metropolitan department","iso":"FR-76","qid":"Q12758"},"geometry":{"type":"Polygon","coordinates":[[[0.4932,49.4936],[1.0034,49.258],[1.3501,49.442],[1.718,49.411],[1.7545,49.7656],[1.3731,50.0657],[1.1726,49.961],[0.2359,49.7293],[0.0797,49.5422],[0.4932,49.4936]]]}},{"type":"Feature","id":"label-FRA-5343","properties":{"kind":"division-label","code":"FRA-5343","countryCode":"FRA","name":"Seine-Maritime","localName":"Seine-Maritime","labelEnglish":"Seine-Maritime","labelLocal":"Seine-Maritime","labelBoth":"Seine-Maritime","type":"Metropolitan department","iso":"FR-76","qid":"Q12758"},"geometry":{"type":"Point","coordinates":[1.1513,49.5936]}},{"type":"Feature","id":"FRA-5345","properties":{"kind":"division","code":"FRA-5345","countryCode":"FRA","name":"Somme","localName":"Somme","labelEnglish":"Somme","labelLocal":"Somme","labelBoth":"Somme","type":"Metropolitan department","iso":"FR-80","qid":"Q12770"},"geometry":{"type":"Polygon","coordinates":[[[1.3731,50.0657],[1.7545,49.7656],[2.6095,49.612],[3.1186,49.7058],[3.157,50.0187],[3.0883,50.05],[2.7663,50.0384],[1.595,50.3727],[1.3731,50.0657]]]}},{"type":"Feature","id":"label-FRA-5345","properties":{"kind":"division-label","code":"FRA-5345","countryCode":"FRA","name":"Somme","localName":"Somme","labelEnglish":"Somme","labelLocal":"Somme","labelBoth":"Somme","type":"Metropolitan department","iso":"FR-80","qid":"Q12770"},"geometry":{"type":"Point","coordinates":[2.36029,49.8757]}},{"type":"Feature","id":"FRA-5334","properties":{"kind":"division","code":"FRA-5334","countryCode":"FRA","name":"Pas-de-Calais","localName":"Pas-de-Calais","labelEnglish":"Pas-de-Calais","labelLocal":"Pas-de-Calais","labelBoth":"Pas-de-Calais","type":"Metropolitan department","iso":"FR-62","qid":"Q12689"},"geometry":{"type":"Polygon","coordinates":[[[1.595,50.3727],[2.7663,50.0384],[3.0883,50.05],[3.0555,50.4263],[2.7343,50.6264],[2.3715,50.6743],[2.0633,51.0143],[1.5806,50.8688],[1.595,50.3727]]]}},{"type":"Feature","id":"label-FRA-5334","properties":{"kind":"division-label","code":"FRA-5334","countryCode":"FRA","name":"Pas-de-Calais","localName":"Pas-de-Calais","labelEnglish":"Pas-de-Calais","labelLocal":"Pas-de-Calais","labelBoth":"Pas-de-Calais","type":"Metropolitan department","iso":"FR-62","qid":"Q12689"},"geometry":{"type":"Point","coordinates":[2.3614,50.4661]}},{"type":"Feature","id":"FRA-1442","properties":{"kind":"division","code":"FRA-1442","countryCode":"FRA","name":"Martinique","localName":"Martinique","labelEnglish":"Martinique","labelLocal":"Martinique","labelBoth":"Martinique","type":"Overseas department","iso":"FR-MQ","qid":"Q17054"},"geometry":{"type":"Polygon","coordinates":[[[-60.8104,14.462],[-61.0023,14.8114],[-61.171,14.8764],[-61.0696,14.4667],[-60.8104,14.462]]]}},{"type":"Feature","id":"label-FRA-1442","properties":{"kind":"division-label","code":"FRA-1442","countryCode":"FRA","name":"Martinique","localName":"Martinique","labelEnglish":"Martinique","labelLocal":"Martinique","labelBoth":"Martinique","type":"Overseas department","iso":"FR-MQ","qid":"Q17054"},"geometry":{"type":"Point","coordinates":[-61.064,14.7245]}},{"type":"Feature","id":"FRA-4603","properties":{"kind":"division","code":"FRA-4603","countryCode":"FRA","name":"Guadeloupe","localName":"Guadeloupe","labelEnglish":"Guadeloupe","labelLocal":"Guadeloupe","labelBoth":"Guadeloupe","type":"Overseas department","iso":"FR-GP","qid":"Q17012"},"geometry":{"type":"MultiPolygon","coordinates":[[[[-61.5517,16.2855],[-61.7708,16.3488],[-61.6949,15.9492],[-61.5517,16.2855]]],[[[-61.5442,16.2854],[-61.1884,16.2638],[-61.4593,16.5118],[-61.5442,16.2854]]]]}},{"type":"Feature","id":"label-FRA-4603","properties":{"kind":"division-label","code":"FRA-4603","countryCode":"FRA","name":"Guadeloupe","localName":"Guadeloupe","labelEnglish":"Guadeloupe","labelLocal":"Guadeloupe","labelBoth":"Guadeloupe","type":"Overseas department","iso":"FR-GP","qid":"Q17012"},"geometry":{"type":"Point","coordinates":[-61.6822,16.1881]}},{"type":"Feature","id":"FRA-4601","properties":{"kind":"division","code":"FRA-4601","countryCode":"FRA","name":"Réunion","localName":"Réunion","labelEnglish":"Réunion","labelLocal":"Réunion","labelBoth":"Réunion","type":"Overseas department","iso":"FR-RE","qid":"Q17070"},"geometry":{"type":"Polygon","coordinates":[[[55.7879,-21.1034],[55.5784,-20.8748],[55.2874,-20.9117],[55.3545,-21.2746],[55.8208,-21.325],[55.7879,-21.1034]]]}},{"type":"Feature","id":"label-FRA-4601","properties":{"kind":"division-label","code":"FRA-4601","countryCode":"FRA","name":"Réunion","localName":"Réunion","labelEnglish":"Réunion","labelLocal":"Réunion","labelBoth":"Réunion","type":"Overseas department","iso":"FR-RE","qid":"Q17070"},"geometry":{"type":"Point","coordinates":[55.5405,-21.1155]}},{"type":"Feature","id":"FRA-4602","properties":{"kind":"division","code":"FRA-4602","countryCode":"FRA","name":"Mayotte","localName":"Mayotte","labelEnglish":"Mayotte","labelLocal":"Mayotte","labelBoth":"Mayotte","type":"Overseas department","iso":"FR-YT","qid":"Q17063"},"geometry":{"type":"Polygon","coordinates":[[[45.2007,-12.7229],[45.0425,-12.6984],[45.1318,-12.8874],[45.2007,-12.7229]]]}},{"type":"Feature","id":"label-FRA-4602","properties":{"kind":"division-label","code":"FRA-4602","countryCode":"FRA","name":"Mayotte","localName":"Mayotte","labelEnglish":"Mayotte","labelLocal":"Mayotte","labelBoth":"Mayotte","type":"Overseas department","iso":"FR-YT","qid":"Q17063"},"geometry":{"type":"Point","coordinates":[45.2769,-12.7767]}},{"type":"Feature","id":"FRA-5297","properties":{"kind":"division","code":"FRA-5297","countryCode":"FRA","name":"Haute-Corse","localName":"Haute-Corse","labelEnglish":"Haute-Corse","labelLocal":"Haute-Corse","labelBoth":"Haute-Corse","type":"Metropolitan department","iso":"FR-2B","qid":"Q3334"},"geometry":{"type":"Polygon","coordinates":[[[8.5705,42.3818],[9.0353,42.2079],[9.2274,41.8555],[9.3958,41.8604],[9.5527,42.113],[9.4844,42.8324],[9.3418,42.9907],[9.2922,42.6748],[9.1071,42.7259],[8.5705,42.3818]]]}},{"type":"Feature","id":"label-FRA-5297","properties":{"kind":"division-label","code":"FRA-5297","countryCode":"FRA","name":"Haute-Corse","localName":"Haute-Corse","labelEnglish":"Haute-Corse","labelLocal":"Haute-Corse","labelBoth":"Haute-Corse","type":"Metropolitan department","iso":"FR-2B","qid":"Q3334"},"geometry":{"type":"Point","coordinates":[9.2309,42.3996]}},{"type":"Feature","id":"FRA-5281","properties":{"kind":"division","code":"FRA-5281","countryCode":"FRA","name":"Corse-du-Sud","localName":"Corse-du-Sud","labelEnglish":"Corse-du-Sud","labelLocal":"Corse-du-Sud","labelBoth":"Corse-du-Sud","type":"Metropolitan department","iso":"FR-2A","qid":"Q3336"},"geometry":{"type":"Polygon","coordinates":[[[9.3958,41.8604],[9.2274,41.8555],[9.0353,42.2079],[8.5705,42.3818],[8.7434,42.0441],[8.7918,41.5612],[9.2232,41.3725],[9.3958,41.8604]]]}},{"type":"Feature","id":"label-FRA-5281","properties":{"kind":"division-label","code":"FRA-5281","countryCode":"FRA","name":"Corse-du-Sud","localName":"Corse-du-Sud","labelEnglish":"Corse-du-Sud","labelLocal":"Corse-du-Sud","labelBoth":"Corse-du-Sud","type":"Metropolitan department","iso":"FR-2A","qid":"Q3336"},"geometry":{"type":"Point","coordinates":[9.02252,41.8449]}},{"type":"Feature","id":"FRA-5294","properties":{"kind":"division","code":"FRA-5294","countryCode":"FRA","name":"Gers","localName":"Gers","labelEnglish":"Gers","labelLocal":"Gers","labelBoth":"Gers","type":"Metropolitan department","iso":"FR-32","qid":"Q12517"},"geometry":{"type":"Polygon","coordinates":[[[-0.1097,43.5748],[0.1957,43.3716],[0.6067,43.3109],[1.0253,43.3775],[1.1923,43.5988],[0.9539,43.7873],[0.7417,44.067],[0.0852,43.9673],[-0.2239,43.8914],[-0.2363,43.5871],[-0.1097,43.5748]]]}},{"type":"Feature","id":"label-FRA-5294","properties":{"kind":"division-label","code":"FRA-5294","countryCode":"FRA","name":"Gers","localName":"Gers","labelEnglish":"Gers","labelLocal":"Gers","labelBoth":"Gers","type":"Metropolitan department","iso":"FR-32","qid":"Q12517"},"geometry":{"type":"Point","coordinates":[0.537496,43.6809]}},{"type":"Feature","id":"FRA-5303","properties":{"kind":"division","code":"FRA-5303","countryCode":"FRA","name":"Haute-Vienne","localName":"Haute-Vienne","labelEnglish":"Haute-Vienne","labelLocal":"Haute-Vienne","labelBoth":"Haute-Vienne","type":"Metropolitan department","iso":"FR-87","qid":"Q12808"},"geometry":{"type":"Polygon","coordinates":[[[1.8936,45.6962],[1.5275,45.9224],[1.4144,46.3509],[1.177,46.387],[0.7964,46.1329],[0.9241,45.9737],[0.6359,45.7103],[1.2553,45.4465],[1.8936,45.6962]]]}},{"type":"Feature","id":"label-FRA-5303","properties":{"kind":"division-label","code":"FRA-5303","countryCode":"FRA","name":"Haute-Vienne","localName":"Haute-Vienne","labelEnglish":"Haute-Vienne","labelLocal":"Haute-Vienne","labelBoth":"Haute-Vienne","type":"Metropolitan department","iso":"FR-87","qid":"Q12808"},"geometry":{"type":"Point","coordinates":[1.21857,45.8465]}},{"type":"Feature","id":"FRA-5280","properties":{"kind":"division","code":"FRA-5280","countryCode":"FRA","name":"Corrèze","localName":"Corrèze","labelEnglish":"Corrèze","labelLocal":"Corrèze","labelBoth":"Corrèze","type":"Metropolitan department","iso":"FR-19","qid":"Q3326"},"geometry":{"type":"Polygon","coordinates":[[[1.8936,45.6962],[1.2553,45.4465],[1.2422,45.2024],[1.4586,45.0151],[2.0587,44.9751],[2.5186,45.4792],[2.4899,45.7361],[1.8936,45.6962]]]}},{"type":"Feature","id":"label-FRA-5280","properties":{"kind":"division-label","code":"FRA-5280","countryCode":"FRA","name":"Corrèze","localName":"Corrèze","labelEnglish":"Corrèze","labelLocal":"Corrèze","labelBoth":"Corrèze","type":"Metropolitan department","iso":"FR-19","qid":"Q3326"},"geometry":{"type":"Point","coordinates":[1.90105,45.355]}},{"type":"Feature","id":"FRA-5347","properties":{"kind":"division","code":"FRA-5347","countryCode":"FRA","name":"Tarn-et-Garonne","localName":"Tarn-et-Garonne","labelEnglish":"Tarn-et-Garonne","labelLocal":"Tarn-et-Garonne","labelBoth":"Tarn-et-Garonne","type":"Metropolitan department","iso":"FR-82","qid":"Q12779"},"geometry":{"type":"Polygon","coordinates":[[[1.9774,44.1706],[1.8821,44.34],[1.3643,44.2205],[1.0645,44.3787],[0.7417,44.067],[0.9539,43.7873],[1.5557,43.9183],[1.9774,44.1706]]]}},{"type":"Feature","id":"label-FRA-5347","properties":{"kind":"division-label","code":"FRA-5347","countryCode":"FRA","name":"Tarn-et-Garonne","localName":"Tarn-et-Garonne","labelEnglish":"Tarn-et-Garonne","labelLocal":"Tarn-et-Garonne","labelBoth":"Tarn-et-Garonne","type":"Metropolitan department","iso":"FR-82","qid":"Q12779"},"geometry":{"type":"Point","coordinates":[1.23277,44.0657]}},{"type":"Feature","id":"FRA-5346","properties":{"kind":"division","code":"FRA-5346","countryCode":"FRA","name":"Tarn","localName":"Tarn","labelEnglish":"Tarn","labelLocal":"Tarn","labelBoth":"Tarn","type":"Metropolitan department","iso":"FR-81","qid":"Q12772"},"geometry":{"type":"Polygon","coordinates":[[[1.9774,44.1706],[1.5557,43.9183],[1.6878,43.6308],[2.0317,43.4226],[2.5675,43.4228],[2.6414,43.6331],[2.9345,43.6937],[2.6138,43.7983],[2.4601,44.0467],[1.9774,44.1706]]]}},{"type":"Feature","id":"label-FRA-5346","properties":{"kind":"division-label","code":"FRA-5346","countryCode":"FRA","name":"Tarn","localName":"Tarn","labelEnglish":"Tarn","labelLocal":"Tarn","labelBoth":"Tarn","type":"Metropolitan department","iso":"FR-81","qid":"Q12772"},"geometry":{"type":"Point","coordinates":[2.13731,43.8024]}},{"type":"Feature","id":"FRA-5311","properties":{"kind":"division","code":"FRA-5311","countryCode":"FRA","name":"Isère","localName":"Isère","labelEnglish":"Isère","labelLocal":"Isère","labelBoth":"Isère","type":"Metropolitan department","iso":"FR-38","qid":"Q12559"},"geometry":{"type":"Polygon","coordinates":[[[4.8114,45.2963],[5.1604,45.2574],[5.1775,45.0812],[5.4932,44.9954],[5.4599,44.8182],[5.812,44.7121],[6.3568,44.8579],[6.2664,45.1248],[6.1254,45.4351],[5.7562,45.4393],[5.6005,45.6556],[5.369,45.88],[5.1024,45.8262],[5.1545,45.7003],[4.76,45.4445],[4.7698,45.3657],[4.8114,45.2963]]]}},{"type":"Feature","id":"label-FRA-5311","properties":{"kind":"division-label","code":"FRA-5311","countryCode":"FRA","name":"Isère","localName":"Isère","labelEnglish":"Isère","labelLocal":"Isère","labelBoth":"Isère","type":"Metropolitan department","iso":"FR-38","qid":"Q12559"},"geometry":{"type":"Point","coordinates":[5.4175,45.2478]}},{"type":"Feature","id":"FRA-5288","properties":{"kind":"division","code":"FRA-5288","countryCode":"FRA","name":"Drôme","localName":"Drôme","labelEnglish":"Drôme","labelLocal":"Drôme","labelBoth":"Drôme","type":"Metropolitan department","iso":"FR-26","qid":"Q3364"},"geometry":{"type":"Polygon","coordinates":[[[5.812,44.7121],[5.4599,44.8182],[5.4932,44.9954],[5.1775,45.0812],[5.1604,45.2574],[4.8114,45.2963],[4.8926,44.9495],[4.6575,44.3268],[5.1745,44.2971],[5.5062,44.1218],[5.6789,44.1907],[5.4593,44.3703],[5.812,44.7121]]]}},{"type":"Feature","id":"label-FRA-5288","properties":{"kind":"division-label","code":"FRA-5288","countryCode":"FRA","name":"Drôme","localName":"Drôme","labelEnglish":"Drôme","labelLocal":"Drôme","labelBoth":"Drôme","type":"Metropolitan department","iso":"FR-26","qid":"Q3364"},"geometry":{"type":"Point","coordinates":[5.13443,44.7407]}},{"type":"Feature","id":"FRA-5272","properties":{"kind":"division","code":"FRA-5272","countryCode":"FRA","name":"Aveyron","localName":"Aveyron","labelEnglish":"Aveyron","labelLocal":"Aveyron","labelBoth":"Aveyron","type":"Metropolitan department","iso":"FR-12","qid":"Q3216"},"geometry":{"type":"Polygon","coordinates":[[[2.2053,44.6223],[1.834,44.4883],[1.8821,44.34],[1.9774,44.1706],[2.4601,44.0467],[2.6138,43.7983],[2.9345,43.6937],[3.342,43.9039],[3.3767,44.1683],[3.1234,44.2634],[2.9801,44.6443],[2.7267,44.9354],[2.4547,44.6616],[2.2053,44.6223]]]}},{"type":"Feature","id":"label-FRA-5272","properties":{"kind":"division-label","code":"FRA-5272","countryCode":"FRA","name":"Aveyron","localName":"Aveyron","labelEnglish":"Aveyron","labelLocal":"Aveyron","labelBoth":"Aveyron","type":"Metropolitan department","iso":"FR-12","qid":"Q3216"},"geometry":{"type":"Point","coordinates":[2.66383,44.2884]}},{"type":"Feature","id":"FRA-5318","properties":{"kind":"division","code":"FRA-5318","countryCode":"FRA","name":"Lot","localName":"Lot","labelEnglish":"Lot","labelLocal":"Lot","labelBoth":"Lot","type":"Metropolitan department","iso":"FR-46","qid":"Q12576"},"geometry":{"type":"Polygon","coordinates":[[[2.2053,44.6223],[2.0587,44.9751],[1.4586,45.0151],[1.0772,44.5745],[1.0645,44.3787],[1.3643,44.2205],[1.8821,44.34],[1.834,44.4883],[2.2053,44.6223]]]}},{"type":"Feature","id":"label-FRA-5318","properties":{"kind":"division-label","code":"FRA-5318","countryCode":"FRA","name":"Lot","localName":"Lot","labelEnglish":"Lot","labelLocal":"Lot","labelBoth":"Lot","type":"Metropolitan department","iso":"FR-46","qid":"Q12576"},"geometry":{"type":"Point","coordinates":[1.61079,44.6327]}},{"type":"Feature","id":"FRA-5310","properties":{"kind":"division","code":"FRA-5310","countryCode":"FRA","name":"Indre-et-Loire","localName":"Indre-et-Loire","labelEnglish":"Indre-et-Loire","labelLocal":"Indre-et-Loire","labelBoth":"Indre-et-Loire","type":"Metropolitan department","iso":"FR-37","qid":"Q12556"},"geometry":{"type":"Polygon","coordinates":[[[1.3267,47.1863],[1.0988,47.3259],[0.9874,47.622],[0.6096,47.6892],[0.2418,47.6029],[0.0668,47.1537],[0.3082,46.9515],[0.5844,47.0013],[0.8808,46.7505],[1.3267,47.1863]]]}},{"type":"Feature","id":"label-FRA-5310","properties":{"kind":"division-label","code":"FRA-5310","countryCode":"FRA","name":"Indre-et-Loire","localName":"Indre-et-Loire","labelEnglish":"Indre-et-Loire","labelLocal":"Indre-et-Loire","labelBoth":"Indre-et-Loire","type":"Metropolitan department","iso":"FR-37","qid":"Q12556"},"geometry":{"type":"Point","coordinates":[0.713649,47.2903]}},{"type":"Feature","id":"FRA-5309","properties":{"kind":"division","code":"FRA-5309","countryCode":"FRA","name":"Indre","localName":"Indre","labelEnglish":"Indre","labelLocal":"Indre","labelBoth":"Indre","type":"Metropolitan department","iso":"FR-36","qid":"Q12553"},"geometry":{"type":"Polygon","coordinates":[[[1.3267,47.1863],[0.8808,46.7505],[1.177,46.387],[1.4144,46.3509],[2.1392,46.4214],[2.0519,47.0964],[1.839,47.2192],[1.3267,47.1863]]]}},{"type":"Feature","id":"label-FRA-5309","properties":{"kind":"division-label","code":"FRA-5309","countryCode":"FRA","name":"Indre","localName":"Indre","labelEnglish":"Indre","labelLocal":"Indre","labelBoth":"Indre","type":"Metropolitan department","iso":"FR-36","qid":"Q12553"},"geometry":{"type":"Point","coordinates":[1.61636,46.8003]}},{"type":"Feature","id":"FRA-5314","properties":{"kind":"division","code":"FRA-5314","countryCode":"FRA","name":"Loir-et-Cher","localName":"Loir-et-Cher","labelEnglish":"Loir-et-Cher","labelLocal":"Loir-et-Cher","labelBoth":"Loir-et-Cher","type":"Metropolitan department","iso":"FR-41","qid":"Q12564"},"geometry":{"type":"Polygon","coordinates":[[[1.839,47.2192],[2.1008,47.2701],[2.2391,47.621],[1.5991,47.7353],[1.5197,47.9855],[0.8326,48.0945],[0.6096,47.6892],[0.9874,47.622],[1.0988,47.3259],[1.3267,47.1863],[1.839,47.2192]]]}},{"type":"Feature","id":"label-FRA-5314","properties":{"kind":"division-label","code":"FRA-5314","countryCode":"FRA","name":"Loir-et-Cher","localName":"Loir-et-Cher","labelEnglish":"Loir-et-Cher","labelLocal":"Loir-et-Cher","labelBoth":"Loir-et-Cher","type":"Metropolitan department","iso":"FR-41","qid":"Q12564"},"geometry":{"type":"Point","coordinates":[1.59234,47.5484]}},{"type":"Feature","id":"FRA-5284","properties":{"kind":"division","code":"FRA-5284","countryCode":"FRA","name":"Creuse","localName":"Creuse","labelEnglish":"Creuse","labelLocal":"Creuse","labelBoth":"Creuse","type":"Metropolitan department","iso":"FR-23","qid":"Q3353"},"geometry":{"type":"Polygon","coordinates":[[[1.8936,45.6962],[2.4899,45.7361],[2.5667,46.1359],[2.2539,46.4198],[2.1392,46.4214],[1.4144,46.3509],[1.5275,45.9224],[1.8936,45.6962]]]}},{"type":"Feature","id":"label-FRA-5284","properties":{"kind":"division-label","code":"FRA-5284","countryCode":"FRA","name":"Creuse","localName":"Creuse","labelEnglish":"Creuse","labelLocal":"Creuse","labelBoth":"Creuse","type":"Metropolitan department","iso":"FR-23","qid":"Q3353"},"geometry":{"type":"Point","coordinates":[2.04281,46.0705]}},{"type":"Feature","id":"FRA-5324","properties":{"kind":"division","code":"FRA-5324","countryCode":"FRA","name":"Mayenne","localName":"Mayenne","labelEnglish":"Mayenne","labelLocal":"Mayenne","labelBoth":"Mayenne","type":"Metropolitan department","iso":"FR-53","qid":"Q12620"},"geometry":{"type":"Polygon","coordinates":[[[-0.4198,47.7618],[-0.0527,48.3806],[-0.1711,48.5451],[-0.8627,48.5018],[-1.0791,48.4987],[-1.0406,48.0015],[-1.243,47.8095],[-0.4198,47.7618]]]}},{"type":"Feature","id":"label-FRA-5324","properties":{"kind":"division-label","code":"FRA-5324","countryCode":"FRA","name":"Mayenne","localName":"Mayenne","labelEnglish":"Mayenne","labelLocal":"Mayenne","labelBoth":"Mayenne","type":"Metropolitan department","iso":"FR-53","qid":"Q12620"},"geometry":{"type":"Point","coordinates":[-0.635312,48.1562]}},{"type":"Feature","id":"FRA-5340","properties":{"kind":"division","code":"FRA-5340","countryCode":"FRA","name":"Sarthe","localName":"Sarthe","labelEnglish":"Sarthe","labelLocal":"Sarthe","labelBoth":"Sarthe","type":"Metropolitan department","iso":"FR-72","qid":"Q12740"},"geometry":{"type":"Polygon","coordinates":[[[-0.4198,47.7618],[0.2418,47.6029],[0.6096,47.6892],[0.8326,48.0945],[0.7984,48.186],[0.3715,48.4485],[-0.0527,48.3806],[-0.4198,47.7618]]]}},{"type":"Feature","id":"label-FRA-5340","properties":{"kind":"division-label","code":"FRA-5340","countryCode":"FRA","name":"Sarthe","localName":"Sarthe","labelEnglish":"Sarthe","labelLocal":"Sarthe","labelBoth":"Sarthe","type":"Metropolitan department","iso":"FR-72","qid":"Q12740"},"geometry":{"type":"Point","coordinates":[0.170679,47.9682]}},{"type":"Feature","id":"FRA-5352","properties":{"kind":"division","code":"FRA-5352","countryCode":"FRA","name":"Vaucluse","localName":"Vaucluse","labelEnglish":"Vaucluse","labelLocal":"Vaucluse","labelBoth":"Vaucluse","type":"Metropolitan department","iso":"FR-84","qid":"Q12792"},"geometry":{"type":"Polygon","coordinates":[[[5.7538,43.7321],[5.5062,44.1218],[5.1745,44.2971],[4.6575,44.3268],[4.6578,44.2817],[4.7728,43.9328],[5.5825,43.666],[5.7538,43.7321]]]}},{"type":"Feature","id":"label-FRA-5352","properties":{"kind":"division-label","code":"FRA-5352","countryCode":"FRA","name":"Vaucluse","localName":"Vaucluse","labelEnglish":"Vaucluse","labelLocal":"Vaucluse","labelBoth":"Vaucluse","type":"Metropolitan department","iso":"FR-84","qid":"Q12792"},"geometry":{"type":"Point","coordinates":[5.21543,43.9981]}},{"type":"Feature","id":"FRA-5300","properties":{"kind":"division","code":"FRA-5300","countryCode":"FRA","name":"Haute-Marne","localName":"Haute-Marne","labelEnglish":"Haute-Marne","labelLocal":"Haute-Marne","labelBoth":"Haute-Marne","type":"Metropolitan department","iso":"FR-52","qid":"Q12607"},"geometry":{"type":"Polygon","coordinates":[[[4.9921,48.6929],[4.6702,48.5318],[4.8196,48.3444],[4.6985,48.022],[4.9715,47.6934],[5.3749,47.6078],[5.7009,47.6931],[5.8918,47.9326],[5.4552,48.4192],[4.9921,48.6929]]]}},{"type":"Feature","id":"label-FRA-5300","properties":{"kind":"division-label","code":"FRA-5300","countryCode":"FRA","name":"Haute-Marne","localName":"Haute-Marne","labelEnglish":"Haute-Marne","labelLocal":"Haute-Marne","labelBoth":"Haute-Marne","type":"Metropolitan department","iso":"FR-52","qid":"Q12607"},"geometry":{"type":"Point","coordinates":[5.24076,48.1552]}},{"type":"Feature","id":"FRA-5323","properties":{"kind":"division","code":"FRA-5323","countryCode":"FRA","name":"Marne","localName":"Marne","labelEnglish":"Marne","labelLocal":"Marne","labelBoth":"Marne","type":"Metropolitan department","iso":"FR-51","qid":"Q12594"},"geometry":{"type":"Polygon","coordinates":[[[4.9921,48.6929],[4.9787,49.2357],[4.6365,49.235],[4.0553,49.4073],[3.6501,49.3028],[3.4779,48.8501],[3.5378,48.6134],[3.8484,48.5258],[4.0786,48.6945],[4.6702,48.5318],[4.9921,48.6929]]]}},{"type":"Feature","id":"label-FRA-5323","properties":{"kind":"division-label","code":"FRA-5323","countryCode":"FRA","name":"Marne","localName":"Marne","labelEnglish":"Marne","labelLocal":"Marne","labelBoth":"Marne","type":"Metropolitan department","iso":"FR-51","qid":"Q12594"},"geometry":{"type":"Point","coordinates":[4.26395,49.022]}},{"type":"Feature","id":"FRA-5286","properties":{"kind":"division","code":"FRA-5286","countryCode":"FRA","name":"Dordogne","localName":"Dordogne","labelEnglish":"Dordogne","labelLocal":"Dordogne","labelBoth":"Dordogne","type":"Metropolitan department","iso":"FR-24","qid":"Q3357"},"geometry":{"type":"Polygon","coordinates":[[[-0.0336,45.1201],[-0.0127,44.8613],[0.2974,44.7623],[0.417,44.6453],[0.7928,44.692],[1.0772,44.5745],[1.4586,45.0151],[1.2422,45.2024],[1.2553,45.4465],[0.6359,45.7103],[0.2494,45.293],[0.0003,45.192],[-0.0336,45.1201]]]}},{"type":"Feature","id":"label-FRA-5286","properties":{"kind":"division-label","code":"FRA-5286","countryCode":"FRA","name":"Dordogne","localName":"Dordogne","labelEnglish":"Dordogne","labelLocal":"Dordogne","labelBoth":"Dordogne","type":"Metropolitan department","iso":"FR-24","qid":"Q3357"},"geometry":{"type":"Point","coordinates":[0.780505,45.1592]}},{"type":"Feature","id":"FRA-5338","properties":{"kind":"division","code":"FRA-5338","countryCode":"FRA","name":"Rhône","localName":"Rhône","labelEnglish":"Rhône","labelLocal":"Rhône","labelBoth":"Rhône","type":"Metropolitan department","iso":"FR-69","qid":"Q46130"},"geometry":{"type":"Polygon","coordinates":[[[4.7978,46.1718],[4.3839,46.2248],[4.2584,46.0667],[4.3842,45.6544],[4.76,45.4445],[5.1545,45.7003],[5.1024,45.8262],[4.7467,45.9666],[4.7978,46.1718]]]}},{"type":"Feature","id":"label-FRA-5338","properties":{"kind":"division-label","code":"FRA-5338","countryCode":"FRA","name":"Rhône","localName":"Rhône","labelEnglish":"Rhône","labelLocal":"Rhône","labelBoth":"Rhône","type":"Metropolitan department","iso":"FR-69","qid":"Q46130"},"geometry":{"type":"Point","coordinates":[4.64841,45.841]}},{"type":"Feature","id":"FRA-5355","properties":{"kind":"division","code":"FRA-5355","countryCode":"FRA","name":"Vosges","localName":"Vosges","labelEnglish":"Vosges","labelLocal":"Vosges","labelBoth":"Vosges","type":"Metropolitan department","iso":"FR-88","qid":"Q3105"},"geometry":{"type":"Polygon","coordinates":[[[7.0887,48.5234],[6.8072,48.396],[5.9769,48.3575],[5.7652,48.4966],[5.4552,48.4192],[5.8918,47.9326],[6.6138,47.9413],[6.836,47.8242],[6.8689,47.819],[7.2087,48.3034],[7.0887,48.5234]]]}},{"type":"Feature","id":"label-FRA-5355","properties":{"kind":"division-label","code":"FRA-5355","countryCode":"FRA","name":"Vosges","localName":"Vosges","labelEnglish":"Vosges","labelLocal":"Vosges","labelBoth":"Vosges","type":"Metropolitan department","iso":"FR-88","qid":"Q3105"},"geometry":{"type":"Point","coordinates":[6.67053,48.2445]}},{"type":"Feature","id":"FRA-5267","properties":{"kind":"division","code":"FRA-5267","countryCode":"FRA","name":"Ardèche","localName":"Ardèche","labelEnglish":"Ardèche","labelLocal":"Ardèche","labelBoth":"Ardèche","type":"Metropolitan department","iso":"FR-07","qid":"Q3148"},"geometry":{"type":"Polygon","coordinates":[[[4.8114,45.2963],[4.7698,45.3657],[4.4627,45.2365],[4.3602,45.033],[3.8722,44.7509],[3.994,44.4579],[4.0443,44.3311],[4.6578,44.2817],[4.6575,44.3268],[4.8926,44.9495],[4.8114,45.2963]]]}},{"type":"Feature","id":"label-FRA-5267","properties":{"kind":"division-label","code":"FRA-5267","countryCode":"FRA","name":"Ardèche","localName":"Ardèche","labelEnglish":"Ardèche","labelLocal":"Ardèche","labelBoth":"Ardèche","type":"Metropolitan department","iso":"FR-07","qid":"Q3148"},"geometry":{"type":"Point","coordinates":[4.4999,44.8014]}},{"type":"Feature","id":"FRA-5315","properties":{"kind":"division","code":"FRA-5315","countryCode":"FRA","name":"Loire","localName":"Loire","labelEnglish":"Loire","labelLocal":"Loire","labelBoth":"Loire","type":"Metropolitan department","iso":"FR-42","qid":"Q12569"},"geometry":{"type":"Polygon","coordinates":[[[4.76,45.4445],[4.3842,45.6544],[4.2584,46.0667],[4.3839,46.2248],[3.8865,46.2762],[3.6795,45.957],[3.9689,45.4824],[3.8855,45.3587],[4.3025,45.3929],[4.4627,45.2365],[4.7698,45.3657],[4.76,45.4445]]]}},{"type":"Feature","id":"label-FRA-5315","properties":{"kind":"division-label","code":"FRA-5315","countryCode":"FRA","name":"Loire","localName":"Loire","labelEnglish":"Loire","labelLocal":"Loire","labelBoth":"Loire","type":"Metropolitan department","iso":"FR-42","qid":"Q12569"},"geometry":{"type":"Point","coordinates":[4.16239,45.706]}},{"type":"Feature","id":"FRA-5335","properties":{"kind":"division","code":"FRA-5335","countryCode":"FRA","name":"Puy-de-Dôme","localName":"Puy-de-Dôme","labelEnglish":"Puy-de-Dôme","labelLocal":"Puy-de-Dôme","labelBoth":"Puy-de-Dôme","type":"Metropolitan department","iso":"FR-63","qid":"Q12694"},"geometry":{"type":"Polygon","coordinates":[[[3.6795,45.957],[3.017,46.1025],[2.8903,46.2609],[2.5667,46.1359],[2.4899,45.7361],[2.5186,45.4792],[2.9955,45.2886],[3.1035,45.3545],[3.3435,45.4219],[3.8855,45.3587],[3.9689,45.4824],[3.6795,45.957]]]}},{"type":"Feature","id":"label-FRA-5335","properties":{"kind":"division-label","code":"FRA-5335","countryCode":"FRA","name":"Puy-de-Dôme","localName":"Puy-de-Dôme","labelEnglish":"Puy-de-Dôme","labelLocal":"Puy-de-Dôme","labelBoth":"Puy-de-Dôme","type":"Metropolitan department","iso":"FR-63","qid":"Q12694"},"geometry":{"type":"Point","coordinates":[3.26844,45.8135]}},{"type":"Feature","id":"FRA-5264","properties":{"kind":"division","code":"FRA-5264","countryCode":"FRA","name":"Allier","localName":"Allier","labelEnglish":"Allier","labelLocal":"Allier","labelBoth":"Allier","type":"Metropolitan department","iso":"FR-03","qid":"Q3113"},"geometry":{"type":"Polygon","coordinates":[[[2.5667,46.1359],[2.8903,46.2609],[3.017,46.1025],[3.6795,45.957],[3.8865,46.2762],[3.9788,46.4626],[3.6249,46.7393],[3.216,46.6872],[3.0298,46.7909],[2.5768,46.6559],[2.2539,46.4198],[2.5667,46.1359]]]}},{"type":"Feature","id":"label-FRA-5264","properties":{"kind":"division-label","code":"FRA-5264","countryCode":"FRA","name":"Allier","localName":"Allier","labelEnglish":"Allier","labelLocal":"Allier","labelBoth":"Allier","type":"Metropolitan department","iso":"FR-03","qid":"Q3113"},"geometry":{"type":"Point","coordinates":[3.18698,46.408]}},{"type":"Feature","id":"FRA-5317","properties":{"kind":"division","code":"FRA-5317","countryCode":"FRA","name":"Loiret","localName":"Loiret","labelEnglish":"Loiret","labelLocal":"Loiret","labelBoth":"Loiret","type":"Metropolitan department","iso":"FR-45","qid":"Q12574"},"geometry":{"type":"Polygon","coordinates":[[[1.5197,47.9855],[1.5991,47.7353],[2.2391,47.621],[2.8747,47.5205],[2.9693,47.5676],[2.8349,47.7491],[3.1123,48.0257],[2.9256,48.1559],[2.4505,48.1341],[2.3907,48.3136],[1.9884,48.2767],[1.5197,47.9855]]]}},{"type":"Feature","id":"label-FRA-5317","properties":{"kind":"division-label","code":"FRA-5317","countryCode":"FRA","name":"Loiret","localName":"Loiret","labelEnglish":"Loiret","labelLocal":"Loiret","labelBoth":"Loiret","type":"Metropolitan department","iso":"FR-45","qid":"Q12574"},"geometry":{"type":"Point","coordinates":[2.19238,47.9007]}},{"type":"Feature","id":"FRA-5321","properties":{"kind":"division","code":"FRA-5321","countryCode":"FRA","name":"Maine-et-Loire","localName":"Maine-et-Loire","labelEnglish":"Maine-et-Loire","labelLocal":"Maine-et-Loire","labelBoth":"Maine-et-Loire","type":"Metropolitan department","iso":"FR-49","qid":"Q12584"},"geometry":{"type":"Polygon","coordinates":[[[-1.251,47.7804],[-0.9238,47.3943],[-1.3347,47.3239],[-1.1486,47.0295],[-0.946,47.0004],[-0.109,47.0696],[0.0668,47.1537],[0.2418,47.6029],[-0.4198,47.7618],[-1.243,47.8095],[-1.251,47.7804]]]}},{"type":"Feature","id":"label-FRA-5321","properties":{"kind":"division-label","code":"FRA-5321","countryCode":"FRA","name":"Maine-et-Loire","localName":"Maine-et-Loire","labelEnglish":"Maine-et-Loire","labelLocal":"Maine-et-Loire","labelBoth":"Maine-et-Loire","type":"Metropolitan department","iso":"FR-49","qid":"Q12584"},"geometry":{"type":"Point","coordinates":[-0.527847,47.3771]}},{"type":"Feature","id":"FRA-5270","properties":{"kind":"division","code":"FRA-5270","countryCode":"FRA","name":"Aube","localName":"Aube","labelEnglish":"Aube","labelLocal":"Aube","labelBoth":"Aube","type":"Metropolitan department","iso":"FR-10","qid":"Q3194"},"geometry":{"type":"Polygon","coordinates":[[[4.6702,48.5318],[4.0786,48.6945],[3.8484,48.5258],[3.5378,48.6134],[3.3954,48.4117],[3.9092,47.939],[4.2884,47.9243],[4.6985,48.022],[4.8196,48.3444],[4.6702,48.5318]]]}},{"type":"Feature","id":"label-FRA-5270","properties":{"kind":"division-label","code":"FRA-5270","countryCode":"FRA","name":"Aube","localName":"Aube","labelEnglish":"Aube","labelLocal":"Aube","labelBoth":"Aube","type":"Metropolitan department","iso":"FR-10","qid":"Q3194"},"geometry":{"type":"Point","coordinates":[4.16252,48.3125]}},{"type":"Feature","id":"FRA-5333","properties":{"kind":"division","code":"FRA-5333","countryCode":"FRA","name":"Paris","localName":"Paris","labelEnglish":"Paris","labelLocal":"Paris","labelBoth":"Paris","type":"Metropolitan department","iso":"FR-75","qid":"Q90"},"geometry":{"type":"Polygon","coordinates":[[[2.2666,48.9011],[2.332,48.8171],[2.4734,48.8592],[2.2666,48.9011]]]}},{"type":"Feature","id":"label-FRA-5333","properties":{"kind":"division-label","code":"FRA-5333","countryCode":"FRA","name":"Paris","localName":"Paris","labelEnglish":"Paris","labelLocal":"Paris","labelBoth":"Paris","type":"Metropolitan department","iso":"FR-75","qid":"Q90"},"geometry":{"type":"Point","coordinates":[2.34347,48.8594]}},{"type":"Feature","id":"FRA-5306","properties":{"kind":"division","code":"FRA-5306","countryCode":"FRA","name":"Hauts-de-Seine","localName":"Hauts-de-Seine","labelEnglish":"Hauts-de-Seine","labelLocal":"Hauts-de-Seine","labelBoth":"Hauts-de-Seine","type":"Metropolitan department","iso":"FR-92","qid":"Q12543"},"geometry":{"type":"Polygon","coordinates":[[[2.2666,48.9011],[2.3188,48.9581],[2.1516,48.8829],[2.2265,48.7761],[2.3208,48.7487],[2.332,48.8171],[2.2666,48.9011]]]}},{"type":"Feature","id":"label-FRA-5306","properties":{"kind":"division-label","code":"FRA-5306","countryCode":"FRA","name":"Hauts-de-Seine","localName":"Hauts-de-Seine","labelEnglish":"Hauts-de-Seine","labelLocal":"Hauts-de-Seine","labelBoth":"Hauts-de-Seine","type":"Metropolitan department","iso":"FR-92","qid":"Q12543"},"geometry":{"type":"Point","coordinates":[2.19706,48.8557]}},{"type":"Feature","id":"FRA-5344","properties":{"kind":"division","code":"FRA-5344","countryCode":"FRA","name":"Seine-Saint-Denis","localName":"Seine-Saint-Denis","labelEnglish":"Seine-Saint-Denis","labelLocal":"Seine-Saint-Denis","labelBoth":"Seine-Saint-Denis","type":"Metropolitan department","iso":"FR-93","qid":"Q12761"},"geometry":{"type":"Polygon","coordinates":[[[2.2666,48.9011],[2.4734,48.8592],[2.5924,48.8075],[2.5531,49.0098],[2.3188,48.9581],[2.2666,48.9011]]]}},{"type":"Feature","id":"label-FRA-5344","properties":{"kind":"division-label","code":"FRA-5344","countryCode":"FRA","name":"Seine-Saint-Denis","localName":"Seine-Saint-Denis","labelEnglish":"Seine-Saint-Denis","labelLocal":"Seine-Saint-Denis","labelBoth":"Seine-Saint-Denis","type":"Metropolitan department","iso":"FR-93","qid":"Q12761"},"geometry":{"type":"Point","coordinates":[2.51916,48.9289]}},{"type":"Feature","id":"FRA-5349","properties":{"kind":"division","code":"FRA-5349","countryCode":"FRA","name":"Val-d'Oise","localName":"Val-d'Oise","labelEnglish":"Val-d'Oise","labelLocal":"Val-d'Oise","labelBoth":"Val-d'Oise","type":"Metropolitan department","iso":"FR-95","qid":"Q12784"},"geometry":{"type":"Polygon","coordinates":[[[2.3188,48.9581],[2.5531,49.0098],[2.5833,49.0845],[1.6981,49.2307],[1.6199,49.0826],[2.1774,48.985],[2.1516,48.8829],[2.3188,48.9581]]]}},{"type":"Feature","id":"label-FRA-5349","properties":{"kind":"division-label","code":"FRA-5349","countryCode":"FRA","name":"Val-d'Oise","localName":"Val-d'Oise","labelEnglish":"Val-d'Oise","labelLocal":"Val-d'Oise","labelBoth":"Val-d'Oise","type":"Metropolitan department","iso":"FR-95","qid":"Q12784"},"geometry":{"type":"Point","coordinates":[2.23366,49.0754]}},{"type":"Feature","id":"FRA-5357","properties":{"kind":"division","code":"FRA-5357","countryCode":"FRA","name":"Yvelines","localName":"Yvelines","labelEnglish":"Yvelines","labelLocal":"Yvelines","labelBoth":"Yvelines","type":"Metropolitan department","iso":"FR-78","qid":"Q12820"},"geometry":{"type":"Polygon","coordinates":[[[1.6199,49.0826],[1.4928,48.9395],[1.5752,48.704],[1.9193,48.4445],[2.2265,48.7761],[2.1516,48.8829],[2.1774,48.985],[1.6199,49.0826]]]}},{"type":"Feature","id":"label-FRA-5357","properties":{"kind":"division-label","code":"FRA-5357","countryCode":"FRA","name":"Yvelines","localName":"Yvelines","labelEnglish":"Yvelines","labelLocal":"Yvelines","labelBoth":"Yvelines","type":"Metropolitan department","iso":"FR-78","qid":"Q12820"},"geometry":{"type":"Point","coordinates":[1.90058,48.8191]}},{"type":"Feature","id":"FRA-5277","properties":{"kind":"division","code":"FRA-5277","countryCode":"FRA","name":"Charente","localName":"Charente","labelEnglish":"Charente","labelLocal":"Charente","labelBoth":"Charente","type":"Metropolitan department","iso":"FR-16","qid":"Q3266"},"geometry":{"type":"Polygon","coordinates":[[[-0.103,45.9697],[-0.4132,45.7832],[-0.2657,45.3075],[0.0003,45.192],[0.2494,45.293],[0.6359,45.7103],[0.9241,45.9737],[0.7964,46.1329],[0.1974,46.0955],[-0.103,45.9697]]]}},{"type":"Feature","id":"label-FRA-5277","properties":{"kind":"division-label","code":"FRA-5277","countryCode":"FRA","name":"Charente","localName":"Charente","labelEnglish":"Charente","labelLocal":"Charente","labelBoth":"Charente","type":"Metropolitan department","iso":"FR-16","qid":"Q3266"},"geometry":{"type":"Point","coordinates":[0.154828,45.6998]}},{"type":"Feature","id":"FRA-5279","properties":{"kind":"division","code":"FRA-5279","countryCode":"FRA","name":"Cher","localName":"Cher","labelEnglish":"Cher","labelLocal":"Cher","labelBoth":"Cher","type":"Metropolitan department","iso":"FR-18","qid":"Q3286"},"geometry":{"type":"Polygon","coordinates":[[[1.839,47.2192],[2.0519,47.0964],[2.1392,46.4214],[2.2539,46.4198],[2.5768,46.6559],[3.0298,46.7909],[3.0684,47.0455],[2.8747,47.5205],[2.2391,47.621],[2.1008,47.2701],[1.839,47.2192]]]}},{"type":"Feature","id":"label-FRA-5279","properties":{"kind":"division-label","code":"FRA-5279","countryCode":"FRA","name":"Cher","localName":"Cher","labelEnglish":"Cher","labelLocal":"Cher","labelBoth":"Cher","type":"Metropolitan department","iso":"FR-18","qid":"Q3286"},"geometry":{"type":"Point","coordinates":[2.51907,47.1356]}},{"type":"Feature","id":"FRA-5291","properties":{"kind":"division","code":"FRA-5291","countryCode":"FRA","name":"Eure-et-Loir","localName":"Eure-et-Loir","labelEnglish":"Eure-et-Loir","labelLocal":"Eure-et-Loir","labelBoth":"Eure-et-Loir","type":"Metropolitan department","iso":"FR-28","qid":"Q3377"},"geometry":{"type":"Polygon","coordinates":[[[0.8326,48.0945],[1.5197,47.9855],[1.9884,48.2767],[1.9193,48.4445],[1.5752,48.704],[1.4928,48.9395],[1.2582,48.7516],[0.8164,48.6651],[0.9798,48.4331],[0.7984,48.186],[0.8326,48.0945]]]}},{"type":"Feature","id":"label-FRA-5291","properties":{"kind":"division-label","code":"FRA-5291","countryCode":"FRA","name":"Eure-et-Loir","localName":"Eure-et-Loir","labelEnglish":"Eure-et-Loir","labelLocal":"Eure-et-Loir","labelBoth":"Eure-et-Loir","type":"Metropolitan department","iso":"FR-28","qid":"Q3377"},"geometry":{"type":"Point","coordinates":[1.36704,48.3564]}},{"type":"Feature","id":"FRA-5299","properties":{"kind":"division","code":"FRA-5299","countryCode":"FRA","name":"Haute-Loire","localName":"Haute-Loire","labelEnglish":"Haute-Loire","labelLocal":"Haute-Loire","labelBoth":"Haute-Loire","type":"Metropolitan department","iso":"FR-43","qid":"Q12572"},"geometry":{"type":"Polygon","coordinates":[[[3.1035,45.3545],[3.3697,44.9542],[3.8722,44.7509],[4.3602,45.033],[4.4627,45.2365],[4.3025,45.3929],[3.8855,45.3587],[3.3435,45.4219],[3.1035,45.3545]]]}},{"type":"Feature","id":"label-FRA-5299","properties":{"kind":"division-label","code":"FRA-5299","countryCode":"FRA","name":"Haute-Loire","localName":"Haute-Loire","labelEnglish":"Haute-Loire","labelLocal":"Haute-Loire","labelBoth":"Haute-Loire","type":"Metropolitan department","iso":"FR-43","qid":"Q12572"},"geometry":{"type":"Point","coordinates":[3.72362,45.1254]}},{"type":"Feature","id":"FRA-5276","properties":{"kind":"division","code":"FRA-5276","countryCode":"FRA","name":"Cantal","localName":"Cantal","labelEnglish":"Cantal","labelLocal":"Cantal","labelBoth":"Cantal","type":"Metropolitan department","iso":"FR-15","qid":"Q3259"},"geometry":{"type":"Polygon","coordinates":[[[3.1035,45.3545],[2.9955,45.2886],[2.5186,45.4792],[2.0587,44.9751],[2.2053,44.6223],[2.4547,44.6616],[2.7267,44.9354],[2.9801,44.6443],[3.1003,44.8815],[3.3697,44.9542],[3.1035,45.3545]]]}},{"type":"Feature","id":"label-FRA-5276","properties":{"kind":"division-label","code":"FRA-5276","countryCode":"FRA","name":"Cantal","localName":"Cantal","labelEnglish":"Cantal","labelLocal":"Cantal","labelBoth":"Cantal","type":"Metropolitan department","iso":"FR-15","qid":"Q3259"},"geometry":{"type":"Point","coordinates":[2.74821,45.1592]}},{"type":"Feature","id":"FRA-5319","properties":{"kind":"division","code":"FRA-5319","countryCode":"FRA","name":"Lot-et-Garonne","localName":"Lot-et-Garonne","labelEnglish":"Lot-et-Garonne","labelLocal":"Lot-et-Garonne","labelBoth":"Lot-et-Garonne","type":"Metropolitan department","iso":"FR-47","qid":"Q12578"},"geometry":{"type":"Polygon","coordinates":[[[-0.1406,44.2265],[0.0852,43.9673],[0.7417,44.067],[1.0645,44.3787],[1.0772,44.5745],[0.7928,44.692],[0.417,44.6453],[0.2974,44.7623],[-0.0061,44.5091],[-0.1406,44.2265]]]}},{"type":"Feature","id":"label-FRA-5319","properties":{"kind":"division-label","code":"FRA-5319","countryCode":"FRA","name":"Lot-et-Garonne","localName":"Lot-et-Garonne","labelEnglish":"Lot-et-Garonne","labelLocal":"Lot-et-Garonne","labelBoth":"Lot-et-Garonne","type":"Metropolitan department","iso":"FR-47","qid":"Q12578"},"geometry":{"type":"Point","coordinates":[0.449742,44.3829]}},{"type":"Feature","id":"FRA-5320","properties":{"kind":"division","code":"FRA-5320","countryCode":"FRA","name":"Lozère","localName":"Lozère","labelEnglish":"Lozère","labelLocal":"Lozère","labelBoth":"Lozère","type":"Metropolitan department","iso":"FR-48","qid":"Q12580"},"geometry":{"type":"Polygon","coordinates":[[[3.994,44.4579],[3.8722,44.7509],[3.3697,44.9542],[3.1003,44.8815],[2.9801,44.6443],[3.1234,44.2634],[3.3767,44.1683],[3.8758,44.1314],[3.994,44.4579]]]}},{"type":"Feature","id":"label-FRA-5320","properties":{"kind":"division-label","code":"FRA-5320","countryCode":"FRA","name":"Lozère","localName":"Lozère","labelEnglish":"Lozère","labelLocal":"Lozère","labelBoth":"Lozère","type":"Metropolitan department","iso":"FR-48","qid":"Q12580"},"geometry":{"type":"Point","coordinates":[3.54811,44.4909]}},{"type":"Feature","id":"FRA-5329","properties":{"kind":"division","code":"FRA-5329","countryCode":"FRA","name":"Nièvre","localName":"Nièvre","labelEnglish":"Nièvre","labelLocal":"Nièvre","labelBoth":"Nièvre","type":"Metropolitan department","iso":"FR-58","qid":"Q12657"},"geometry":{"type":"Polygon","coordinates":[[[4.1061,47.3392],[2.9693,47.5676],[2.8747,47.5205],[3.0684,47.0455],[3.0298,46.7909],[3.216,46.6872],[3.6249,46.7393],[4.0473,46.7856],[4.0011,47.0013],[4.2097,47.1553],[4.1061,47.3392]]]}},{"type":"Feature","id":"label-FRA-5329","properties":{"kind":"division-label","code":"FRA-5329","countryCode":"FRA","name":"Nièvre","localName":"Nièvre","labelEnglish":"Nièvre","labelLocal":"Nièvre","labelBoth":"Nièvre","type":"Metropolitan department","iso":"FR-58","qid":"Q12657"},"geometry":{"type":"Point","coordinates":[3.56837,47.1505]}},{"type":"Feature","id":"FRA-5282","properties":{"kind":"division","code":"FRA-5282","countryCode":"FRA","name":"Côte-d’Or","localName":"Côte-d’Or","labelEnglish":"Côte-d’Or","labelLocal":"Côte-d’Or","labelBoth":"Côte-d’Or","type":"Metropolitan department","iso":"FR-21","qid":"Q3342"},"geometry":{"type":"Polygon","coordinates":[[[4.1061,47.3392],[4.2097,47.1553],[4.6772,46.905],[5.2506,46.9812],[5.5217,47.2893],[5.3749,47.6078],[4.9715,47.6934],[4.6985,48.022],[4.2884,47.9243],[4.3303,47.7603],[4.1061,47.3392]]]}},{"type":"Feature","id":"label-FRA-5282","properties":{"kind":"division-label","code":"FRA-5282","countryCode":"FRA","name":"Côte-d’Or","localName":"Côte-d’Or","labelEnglish":"Côte-d’Or","labelLocal":"Côte-d’Or","labelBoth":"Côte-d’Or","type":"Metropolitan department","iso":"FR-21","qid":"Q3342"},"geometry":{"type":"Point","coordinates":[4.76991,47.4003]}},{"type":"Feature","id":"FRA-5331","properties":{"kind":"division","code":"FRA-5331","countryCode":"FRA","name":"Oise","localName":"Oise","labelEnglish":"Oise","labelLocal":"Oise","labelBoth":"Oise","type":"Metropolitan department","iso":"FR-60","qid":"Q12675"},"geometry":{"type":"Polygon","coordinates":[[[3.1186,49.7058],[2.6095,49.612],[1.7545,49.7656],[1.718,49.411],[1.6981,49.2307],[2.5833,49.0845],[3.0797,49.1062],[3.1186,49.7058]]]}},{"type":"Feature","id":"label-FRA-5331","properties":{"kind":"division-label","code":"FRA-5331","countryCode":"FRA","name":"Oise","localName":"Oise","labelEnglish":"Oise","labelLocal":"Oise","labelBoth":"Oise","type":"Metropolitan department","iso":"FR-60","qid":"Q12675"},"geometry":{"type":"Point","coordinates":[2.64323,49.3967]}},{"type":"Feature","id":"FRA-5332","properties":{"kind":"division","code":"FRA-5332","countryCode":"FRA","name":"Orne","localName":"Orne","labelEnglish":"Orne","labelLocal":"Orne","labelBoth":"Orne","type":"Metropolitan department","iso":"FR-61","qid":"Q12679"},"geometry":{"type":"Polygon","coordinates":[[[-0.8627,48.5018],[-0.1711,48.5451],[-0.0527,48.3806],[0.3715,48.4485],[0.7984,48.186],[0.9798,48.4331],[0.8164,48.6651],[0.4172,48.9461],[-0.8409,48.7523],[-0.8627,48.5018]]]}},{"type":"Feature","id":"label-FRA-5332","properties":{"kind":"division-label","code":"FRA-5332","countryCode":"FRA","name":"Orne","localName":"Orne","labelEnglish":"Orne","labelLocal":"Orne","labelBoth":"Orne","type":"Metropolitan department","iso":"FR-61","qid":"Q12679"},"geometry":{"type":"Point","coordinates":[0.0632139,48.6533]}},{"type":"Feature","id":"FRA-5301","properties":{"kind":"division","code":"FRA-5301","countryCode":"FRA","name":"Haute-Saône","localName":"Haute-Saône","labelEnglish":"Haute-Saône","labelLocal":"Haute-Saône","labelBoth":"Haute-Saône","type":"Metropolitan department","iso":"FR-70","qid":"Q12730"},"geometry":{"type":"Polygon","coordinates":[[[5.5217,47.2893],[5.6988,47.265],[6.3077,47.4923],[6.8071,47.5629],[6.836,47.8242],[6.6138,47.9413],[5.8918,47.9326],[5.7009,47.6931],[5.3749,47.6078],[5.5217,47.2893]]]}},{"type":"Feature","id":"label-FRA-5301","properties":{"kind":"division-label","code":"FRA-5301","countryCode":"FRA","name":"Haute-Saône","localName":"Haute-Saône","labelEnglish":"Haute-Saône","labelLocal":"Haute-Saône","labelBoth":"Haute-Saône","type":"Metropolitan department","iso":"FR-70","qid":"Q12730"},"geometry":{"type":"Point","coordinates":[6.16722,47.6973]}},{"type":"Feature","id":"FRA-5339","properties":{"kind":"division","code":"FRA-5339","countryCode":"FRA","name":"Saône-et-Loire","localName":"Saône-et-Loire","labelEnglish":"Saône-et-Loire","labelLocal":"Saône-et-Loire","labelBoth":"Saône-et-Loire","type":"Metropolitan department","iso":"FR-71","qid":"Q12736"},"geometry":{"type":"Polygon","coordinates":[[[4.2097,47.1553],[4.0011,47.0013],[4.0473,46.7856],[3.6249,46.7393],[3.9788,46.4626],[3.8865,46.2762],[4.3839,46.2248],[4.7978,46.1718],[4.9376,46.5016],[5.311,46.4554],[5.4241,46.4989],[5.2506,46.9812],[4.6772,46.905],[4.2097,47.1553]]]}},{"type":"Feature","id":"label-FRA-5339","properties":{"kind":"division-label","code":"FRA-5339","countryCode":"FRA","name":"Saône-et-Loire","localName":"Saône-et-Loire","labelEnglish":"Saône-et-Loire","labelLocal":"Saône-et-Loire","labelBoth":"Saône-et-Loire","type":"Metropolitan department","iso":"FR-71","qid":"Q12736"},"geometry":{"type":"Point","coordinates":[4.5138,46.6789]}},{"type":"Feature","id":"FRA-5285","properties":{"kind":"division","code":"FRA-5285","countryCode":"FRA","name":"Deux-Sèvres","localName":"Deux-Sèvres","labelEnglish":"Deux-Sèvres","labelLocal":"Deux-Sèvres","labelBoth":"Deux-Sèvres","type":"Metropolitan department","iso":"FR-79","qid":"Q12765"},"geometry":{"type":"Polygon","coordinates":[[[-0.7566,46.3012],[-0.6371,46.1545],[-0.103,45.9697],[0.1974,46.0955],[-0.0146,46.4117],[0.0254,46.8357],[-0.109,47.0696],[-0.946,47.0004],[-0.712,46.802],[-0.5553,46.3697],[-0.7566,46.3012]]]}},{"type":"Feature","id":"label-FRA-5285","properties":{"kind":"division-label","code":"FRA-5285","countryCode":"FRA","name":"Deux-Sèvres","localName":"Deux-Sèvres","labelEnglish":"Deux-Sèvres","labelLocal":"Deux-Sèvres","labelBoth":"Deux-Sèvres","type":"Metropolitan department","iso":"FR-79","qid":"Q12765"},"geometry":{"type":"Point","coordinates":[-0.300826,46.5681]}},{"type":"Feature","id":"FRA-5354","properties":{"kind":"division","code":"FRA-5354","countryCode":"FRA","name":"Vienne","localName":"Vienne","labelEnglish":"Vienne","labelLocal":"Vienne","labelBoth":"Vienne","type":"Metropolitan department","iso":"FR-86","qid":"Q12804"},"geometry":{"type":"Polygon","coordinates":[[[0.7964,46.1329],[1.177,46.387],[0.8808,46.7505],[0.5844,47.0013],[0.3082,46.9515],[0.0668,47.1537],[-0.109,47.0696],[0.0254,46.8357],[-0.0146,46.4117],[0.1974,46.0955],[0.7964,46.1329]]]}},{"type":"Feature","id":"label-FRA-5354","properties":{"kind":"division-label","code":"FRA-5354","countryCode":"FRA","name":"Vienne","localName":"Vienne","labelEnglish":"Vienne","labelLocal":"Vienne","labelBoth":"Vienne","type":"Metropolitan department","iso":"FR-86","qid":"Q12804"},"geometry":{"type":"Point","coordinates":[0.412746,46.5338]}},{"type":"Feature","id":"FRA-5356","properties":{"kind":"division","code":"FRA-5356","countryCode":"FRA","name":"Yonne","localName":"Yonne","labelEnglish":"Yonne","labelLocal":"Yonne","labelBoth":"Yonne","type":"Metropolitan department","iso":"FR-89","qid":"Q12816"},"geometry":{"type":"Polygon","coordinates":[[[2.9693,47.5676],[4.1061,47.3392],[4.3303,47.7603],[4.2884,47.9243],[3.9092,47.939],[3.3954,48.4117],[3.0423,48.3618],[2.9256,48.1559],[3.1123,48.0257],[2.8349,47.7491],[2.9693,47.5676]]]}},{"type":"Feature","id":"label-FRA-5356","properties":{"kind":"division-label","code":"FRA-5356","countryCode":"FRA","name":"Yonne","localName":"Yonne","labelEnglish":"Yonne","labelLocal":"Yonne","labelBoth":"Yonne","type":"Metropolitan department","iso":"FR-89","qid":"Q12816"},"geometry":{"type":"Point","coordinates":[3.64262,47.7715]}},{"type":"Feature","id":"FRA-5289","properties":{"kind":"division","code":"FRA-5289","countryCode":"FRA","name":"Essonne","localName":"Essonne","labelEnglish":"Essonne","labelLocal":"Essonne","labelBoth":"Essonne","type":"Metropolitan department","iso":"FR-91","qid":"Q3368"},"geometry":{"type":"Polygon","coordinates":[[[2.2265,48.7761],[1.9193,48.4445],[1.9884,48.2767],[2.3907,48.3136],[2.5717,48.692],[2.3208,48.7487],[2.2265,48.7761]]]}},{"type":"Feature","id":"label-FRA-5289","properties":{"kind":"division-label","code":"FRA-5289","countryCode":"FRA","name":"Essonne","localName":"Essonne","labelEnglish":"Essonne","labelLocal":"Essonne","labelBoth":"Essonne","type":"Metropolitan department","iso":"FR-91","qid":"Q3368"},"geometry":{"type":"Point","coordinates":[2.29588,48.5629]}},{"type":"Feature","id":"FRA-5342","properties":{"kind":"division","code":"FRA-5342","countryCode":"FRA","name":"Seine-et-Marne","localName":"Seine-et-Marne","labelEnglish":"Seine-et-Marne","labelLocal":"Seine-et-Marne","labelBoth":"Seine-et-Marne","type":"Metropolitan department","iso":"FR-77","qid":"Q12753"},"geometry":{"type":"Polygon","coordinates":[[[2.3907,48.3136],[2.4505,48.1341],[2.9256,48.1559],[3.0423,48.3618],[3.3954,48.4117],[3.5378,48.6134],[3.4779,48.8501],[3.0797,49.1062],[2.5833,49.0845],[2.5531,49.0098],[2.5924,48.8075],[2.5717,48.692],[2.3907,48.3136]]]}},{"type":"Feature","id":"label-FRA-5342","properties":{"kind":"division-label","code":"FRA-5342","countryCode":"FRA","name":"Seine-et-Marne","localName":"Seine-et-Marne","labelEnglish":"Seine-et-Marne","labelLocal":"Seine-et-Marne","labelBoth":"Seine-et-Marne","type":"Metropolitan department","iso":"FR-77","qid":"Q12753"},"geometry":{"type":"Point","coordinates":[2.84201,48.5515]}},{"type":"Feature","id":"FRA-5350","properties":{"kind":"division","code":"FRA-5350","countryCode":"FRA","name":"Val-de-Marne","localName":"Val-de-Marne","labelEnglish":"Val-de-Marne","labelLocal":"Val-de-Marne","labelBoth":"Val-de-Marne","type":"Metropolitan department","iso":"FR-94","qid":"Q12788"},"geometry":{"type":"Polygon","coordinates":[[[2.4734,48.8592],[2.332,48.8171],[2.3208,48.7487],[2.5717,48.692],[2.5924,48.8075],[2.4734,48.8592]]]}},{"type":"Feature","id":"label-FRA-5350","properties":{"kind":"division-label","code":"FRA-5350","countryCode":"FRA","name":"Val-de-Marne","localName":"Val-de-Marne","labelEnglish":"Val-de-Marne","labelLocal":"Val-de-Marne","labelBoth":"Val-de-Marne","type":"Metropolitan department","iso":"FR-94","qid":"Q12788"},"geometry":{"type":"Point","coordinates":[2.5155,48.7752]}}]}