{"type":"FeatureCollection","features":[{"type":"Feature","id":"FRO-1443","properties":{"kind":"division","code":"FRO-1443","countryCode":"FRO","name":"Eysturoy","localName":"Eysturoy","labelEnglish":"Eysturoy","labelLocal":"Eysturoy","labelBoth":"Eysturoy","type":"Region","iso":"FO-X00~","qid":"Q200939"},"geometry":{"type":"Polygon","coordinates":[[[-7.2226,62.1706],[-6.7345,61.9382],[-7.1903,62.3098],[-7.2226,62.1706]]]}},{"type":"Feature","id":"label-FRO-1443","properties":{"kind":"division-label","code":"FRO-1443","countryCode":"FRO","name":"Eysturoy","localName":"Eysturoy","labelEnglish":"Eysturoy","labelLocal":"Eysturoy","labelBoth":"Eysturoy","type":"Region","iso":"FO-X00~","qid":"Q200939"},"geometry":{"type":"Point","coordinates":[-6.95941,62.1385]}}]}