{"type":"FeatureCollection","features":[{"type":"Feature","id":"FSM-4944","properties":{"kind":"division","code":"FSM-4944","countryCode":"FSM","name":"Kosrae","localName":"Kosrae","labelEnglish":"Kosrae","labelLocal":"Kosrae","labelBoth":"Kosrae","type":null,"iso":"FM-KSA","qid":"Q459848"},"geometry":{"type":"Polygon","coordinates":[[[163.0261,5.3409],[162.9162,5.2869],[163.0192,5.2727],[163.0261,5.3409]]]}},{"type":"Feature","id":"label-FSM-4944","properties":{"kind":"division-label","code":"FSM-4944","countryCode":"FSM","name":"Kosrae","localName":"Kosrae","labelEnglish":"Kosrae","labelLocal":"Kosrae","labelBoth":"Kosrae","type":null,"iso":"FM-KSA","qid":"Q459848"},"geometry":{"type":"Point","coordinates":[162.927,5.35641]}},{"type":"Feature","id":"FSM-4941","properties":{"kind":"division","code":"FSM-4941","countryCode":"FSM","name":"Pohnpei State","localName":"Pohnpei State","labelEnglish":"Pohnpei State","labelLocal":"Pohnpei State","labelBoth":"Pohnpei State","type":null,"iso":"FM-PNI","qid":"Q7771127"},"geometry":{"type":"Polygon","coordinates":[[[158.2908,6.938],[158.1258,6.9074],[158.2925,6.7951],[158.2908,6.938]]]}},{"type":"Feature","id":"label-FSM-4941","properties":{"kind":"division-label","code":"FSM-4941","countryCode":"FSM","name":"Pohnpei State","localName":"Pohnpei State","labelEnglish":"Pohnpei State","labelLocal":"Pohnpei State","labelBoth":"Pohnpei State","type":null,"iso":"FM-PNI","qid":"Q7771127"},"geometry":{"type":"Point","coordinates":[158.163,6.86579]}},{"type":"Feature","id":"FSM-4942","properties":{"kind":"division","code":"FSM-4942","countryCode":"FSM","name":"Chuuk State","localName":"Chuuk State","labelEnglish":"Chuuk State","labelLocal":"Chuuk State","labelBoth":"Chuuk State","type":null,"iso":"FM-TRK","qid":"Q221684"},"geometry":{"type":"Polygon","coordinates":[[[151.5886,7.3836],[151.6445,7.3361],[151.6502,7.3694],[151.5886,7.3836]]]}},{"type":"Feature","id":"label-FSM-4942","properties":{"kind":"division-label","code":"FSM-4942","countryCode":"FSM","name":"Chuuk State","localName":"Chuuk State","labelEnglish":"Chuuk State","labelLocal":"Chuuk State","labelBoth":"Chuuk State","type":null,"iso":"FM-TRK","qid":"Q221684"},"geometry":{"type":"Point","coordinates":[151.839,7.44003]}},{"type":"Feature","id":"FSM-4943","properties":{"kind":"division","code":"FSM-4943","countryCode":"FSM","name":"Yap State","localName":"Yap State","labelEnglish":"Yap State","labelLocal":"Yap State","labelBoth":"Yap State","type":null,"iso":"FM-YAP","qid":"Q11342951"},"geometry":{"type":"Polygon","coordinates":[[[138.1924,9.5759],[138.1345,9.5119],[138.1887,9.5068],[138.1924,9.5759]]]}},{"type":"Feature","id":"label-FSM-4943","properties":{"kind":"division-label","code":"FSM-4943","countryCode":"FSM","name":"Yap State","localName":"Yap State","labelEnglish":"Yap State","labelLocal":"Yap State","labelBoth":"Yap State","type":null,"iso":"FM-YAP","qid":"Q11342951"},"geometry":{"type":"Point","coordinates":[138.114,9.58101]}}]}