{"type":"FeatureCollection","features":[{"type":"Feature","id":"GAB-2187","properties":{"kind":"division","code":"GAB-2187","countryCode":"GAB","name":"Woleu-Ntem","localName":"Woleu-Ntem","labelEnglish":"Woleu-Ntem","labelLocal":"Woleu-Ntem","labelBoth":"Woleu-Ntem","type":"Province","iso":"GA-9","qid":"Q823800"},"geometry":{"type":"Polygon","coordinates":[[[13.2946,2.1611],[13.2429,2.2715],[12.7499,2.2367],[12.334,2.3096],[11.3516,2.3006],[11.3221,2.1658],[11.332,1.7326],[11.3363,0.9992],[10.9638,1.0004],[10.415,1.0022],[10.4267,0.6406],[10.9484,0.8207],[10.807,0.2318],[11.5828,0.2301],[11.4854,0.3602],[12.2048,0.8482],[12.3548,1.2347],[13.1849,1.2226],[13.1622,1.8998],[13.2946,2.1611]]]}},{"type":"Feature","id":"label-GAB-2187","properties":{"kind":"division-label","code":"GAB-2187","countryCode":"GAB","name":"Woleu-Ntem","localName":"Woleu-Ntem","labelEnglish":"Woleu-Ntem","labelLocal":"Woleu-Ntem","labelBoth":"Woleu-Ntem","type":"Province","iso":"GA-9","qid":"Q823800"},"geometry":{"type":"Point","coordinates":[11.8313,1.43947]}},{"type":"Feature","id":"GAB-2186","properties":{"kind":"division","code":"GAB-2186","countryCode":"GAB","name":"Ogooué-Ivindo","localName":"Ogooué-Ivindo","labelEnglish":"Ogooué-Ivindo","labelLocal":"Ogooué-Ivindo","labelBoth":"Ogooué-Ivindo","type":"Province","iso":"GA-6","qid":"Q823822"},"geometry":{"type":"Polygon","coordinates":[[[13.1849,1.2226],[12.3548,1.2347],[12.2048,0.8482],[11.4854,0.3602],[11.5828,0.2301],[11.2803,-0.0804],[11.5625,-0.7535],[12.4576,-0.4024],[12.6089,0.2734],[13.0874,0.1934],[13.2814,0.0407],[13.8881,-0.0921],[13.8712,0.1964],[14.076,0.5395],[14.2318,0.5426],[14.4681,0.9132],[14.2199,1.355],[13.7947,1.4344],[13.5434,1.2835],[13.1849,1.2226]]]}},{"type":"Feature","id":"label-GAB-2186","properties":{"kind":"division-label","code":"GAB-2186","countryCode":"GAB","name":"Ogooué-Ivindo","localName":"Ogooué-Ivindo","labelEnglish":"Ogooué-Ivindo","labelLocal":"Ogooué-Ivindo","labelBoth":"Ogooué-Ivindo","type":"Province","iso":"GA-6","qid":"Q823822"},"geometry":{"type":"Point","coordinates":[12.8739,0.72338]}},{"type":"Feature","id":"GAB-2627","properties":{"kind":"division","code":"GAB-2627","countryCode":"GAB","name":"Haut-Ogooué","localName":"Haut-Ogooué","labelEnglish":"Haut-Ogooué","labelLocal":"Haut-Ogooué","labelBoth":"Haut-Ogooué","type":"Province","iso":"GA-2","qid":"Q654438"},"geometry":{"type":"Polygon","coordinates":[[[13.8881,-0.0921],[13.2814,0.0407],[13.2227,-0.1062],[13.5574,-0.7696],[13.2708,-1.151],[12.9007,-1.4844],[12.741,-1.8907],[12.994,-2.3601],[13.4694,-2.435],[13.7432,-2.0971],[13.885,-2.4885],[14.1006,-2.4781],[14.2522,-1.9676],[14.3686,-1.9221],[14.4631,-1.5487],[14.4394,-1.1857],[14.3918,-1.0233],[14.499,-0.6309],[14.1214,-0.3022],[13.8312,-0.2054],[13.8881,-0.0921]]]}},{"type":"Feature","id":"label-GAB-2627","properties":{"kind":"division-label","code":"GAB-2627","countryCode":"GAB","name":"Haut-Ogooué","localName":"Haut-Ogooué","labelEnglish":"Haut-Ogooué","labelLocal":"Haut-Ogooué","labelBoth":"Haut-Ogooué","type":"Province","iso":"GA-2","qid":"Q654438"},"geometry":{"type":"Point","coordinates":[13.6198,-1.13187]}},{"type":"Feature","id":"GAB-2628","properties":{"kind":"division","code":"GAB-2628","countryCode":"GAB","name":"Ogooué-Lolo","localName":"Ogooué-Lolo","labelEnglish":"Ogooué-Lolo","labelLocal":"Ogooué-Lolo","labelBoth":"Ogooué-Lolo","type":"Province","iso":"GA-7","qid":"Q823762"},"geometry":{"type":"Polygon","coordinates":[[[12.741,-1.8907],[12.9007,-1.4844],[13.2708,-1.151],[13.5574,-0.7696],[13.2227,-0.1062],[13.2814,0.0407],[13.0874,0.1934],[12.6089,0.2734],[12.4576,-0.4024],[11.5625,-0.7535],[11.5563,-1.1218],[11.7573,-1.0673],[12.0262,-1.3976],[12.0158,-1.5894],[12.2191,-1.8203],[12.45,-1.8993],[12.741,-1.8907]]]}},{"type":"Feature","id":"label-GAB-2628","properties":{"kind":"division-label","code":"GAB-2628","countryCode":"GAB","name":"Ogooué-Lolo","localName":"Ogooué-Lolo","labelEnglish":"Ogooué-Lolo","labelLocal":"Ogooué-Lolo","labelBoth":"Ogooué-Lolo","type":"Province","iso":"GA-7","qid":"Q823762"},"geometry":{"type":"Point","coordinates":[12.5284,-0.972672]}},{"type":"Feature","id":"GAB-2622","properties":{"kind":"division","code":"GAB-2622","countryCode":"GAB","name":"Ngounié","localName":"Ngounié","labelEnglish":"Ngounié","labelLocal":"Ngounié","labelBoth":"Ngounié","type":"Province","iso":"GA-4","qid":"Q823774"},"geometry":{"type":"Polygon","coordinates":[[[12.45,-1.8993],[12.2191,-1.8203],[12.0158,-1.5894],[12.0262,-1.3976],[11.7573,-1.0673],[11.5563,-1.1218],[11.5625,-0.7535],[11.1726,-0.5785],[10.7123,-0.6152],[10.3573,-1.1609],[10.0665,-1.2555],[9.8724,-1.6744],[9.9861,-1.8286],[10.4592,-1.9642],[10.6071,-2.3099],[11.0399,-2.2538],[11.5356,-2.805],[11.5582,-2.3494],[12.0623,-2.415],[12.4593,-2.3299],[12.45,-1.8993]]]}},{"type":"Feature","id":"label-GAB-2622","properties":{"kind":"division-label","code":"GAB-2622","countryCode":"GAB","name":"Ngounié","localName":"Ngounié","labelEnglish":"Ngounié","labelLocal":"Ngounié","labelBoth":"Ngounié","type":"Province","iso":"GA-4","qid":"Q823774"},"geometry":{"type":"Point","coordinates":[11.1859,-1.48647]}},{"type":"Feature","id":"GAB-2623","properties":{"kind":"division","code":"GAB-2623","countryCode":"GAB","name":"Nyanga","localName":"Nyanga","labelEnglish":"Nyanga","labelLocal":"Nyanga","labelBoth":"Nyanga","type":"Province","iso":"GA-5","qid":"Q846017"},"geometry":{"type":"Polygon","coordinates":[[[11.5356,-2.805],[11.0399,-2.2538],[10.6071,-2.3099],[10.3257,-2.6448],[9.9617,-2.7454],[10.6354,-3.3137],[10.6464,-3.4519],[10.9846,-3.7146],[11.114,-3.9369],[11.2125,-3.6973],[11.4826,-3.5093],[11.8408,-3.71],[11.9444,-3.3032],[11.6875,-3.171],[11.7784,-3.0272],[11.5356,-2.805]]]}},{"type":"Feature","id":"label-GAB-2623","properties":{"kind":"division-label","code":"GAB-2623","countryCode":"GAB","name":"Nyanga","localName":"Nyanga","labelEnglish":"Nyanga","labelLocal":"Nyanga","labelBoth":"Nyanga","type":"Province","iso":"GA-5","qid":"Q846017"},"geometry":{"type":"Point","coordinates":[10.9768,-2.97713]}},{"type":"Feature","id":"GAB-2168","properties":{"kind":"division","code":"GAB-2168","countryCode":"GAB","name":"Estuaire","localName":"Estuaire","labelEnglish":"Estuaire","labelLocal":"Estuaire","labelBoth":"Estuaire","type":"Province","iso":"GA-1","qid":"Q281109"},"geometry":{"type":"Polygon","coordinates":[[[10.415,1.0022],[10.0004,0.9997],[9.8044,0.9984],[9.5615,0.9628],[9.6421,0.5989],[9.3159,0.6262],[9.4981,0.291],[9.8196,0.1191],[9.4981,0.1092],[9.3071,0.319],[9.3061,-0.2716],[9.5701,-0.578],[9.5619,-0.4251],[9.9028,-0.3023],[9.9961,-0.4089],[10.5519,-0.0451],[10.807,0.2318],[10.9484,0.8207],[10.4267,0.6406],[10.415,1.0022]]]}},{"type":"Feature","id":"label-GAB-2168","properties":{"kind":"division-label","code":"GAB-2168","countryCode":"GAB","name":"Estuaire","localName":"Estuaire","labelEnglish":"Estuaire","labelLocal":"Estuaire","labelBoth":"Estuaire","type":"Province","iso":"GA-1","qid":"Q281109"},"geometry":{"type":"Point","coordinates":[10.1365,0.32201]}},{"type":"Feature","id":"GAB-2624","properties":{"kind":"division","code":"GAB-2624","countryCode":"GAB","name":"Ogooué-Maritime","localName":"Ogooué-Maritime","labelEnglish":"Ogooué-Maritime","labelLocal":"Ogooué-Maritime","labelBoth":"Ogooué-Maritime","type":"Province","iso":"GA-8","qid":"Q823751"},"geometry":{"type":"Polygon","coordinates":[[[9.9617,-2.7454],[10.3257,-2.6448],[10.6071,-2.3099],[10.4592,-1.9642],[9.9861,-1.8286],[9.8724,-1.6744],[10.0665,-1.2555],[9.9103,-1.1617],[9.9235,-0.9392],[9.6356,-0.7867],[9.5701,-0.578],[9.3061,-0.2716],[9.0046,-0.8051],[8.6956,-0.5866],[9.03,-1.2991],[9.3545,-1.3505],[9.2713,-1.8766],[9.9617,-2.7454]]]}},{"type":"Feature","id":"label-GAB-2624","properties":{"kind":"division-label","code":"GAB-2624","countryCode":"GAB","name":"Ogooué-Maritime","localName":"Ogooué-Maritime","labelEnglish":"Ogooué-Maritime","labelLocal":"Ogooué-Maritime","labelBoth":"Ogooué-Maritime","type":"Province","iso":"GA-8","qid":"Q823751"},"geometry":{"type":"Point","coordinates":[8.99566,-0.682548]}},{"type":"Feature","id":"GAB-2621","properties":{"kind":"division","code":"GAB-2621","countryCode":"GAB","name":"Moyen-Ogooué","localName":"Moyen-Ogooué","labelEnglish":"Moyen-Ogooué","labelLocal":"Moyen-Ogooué","labelBoth":"Moyen-Ogooué","type":"Province","iso":"GA-3","qid":"Q590802"},"geometry":{"type":"Polygon","coordinates":[[[11.5828,0.2301],[10.807,0.2318],[10.5519,-0.0451],[9.9961,-0.4089],[9.9028,-0.3023],[9.5619,-0.4251],[9.5701,-0.578],[9.6356,-0.7867],[9.9235,-0.9392],[9.9103,-1.1617],[10.0665,-1.2555],[10.3573,-1.1609],[10.7123,-0.6152],[11.1726,-0.5785],[11.5625,-0.7535],[11.2803,-0.0804],[11.5828,0.2301]]]}},{"type":"Feature","id":"label-GAB-2621","properties":{"kind":"division-label","code":"GAB-2621","countryCode":"GAB","name":"Moyen-Ogooué","localName":"Moyen-Ogooué","labelEnglish":"Moyen-Ogooué","labelLocal":"Moyen-Ogooué","labelBoth":"Moyen-Ogooué","type":"Province","iso":"GA-3","qid":"Q590802"},"geometry":{"type":"Point","coordinates":[10.5724,-0.374156]}}]}