{"type":"FeatureCollection","features":[{"type":"Feature","id":"GEO-3015","properties":{"kind":"division","code":"GEO-3015","countryCode":"GEO","name":"Abkhazia","localName":"Abkhazia","labelEnglish":"Abkhazia","labelLocal":"Abkhazia","labelBoth":"Abkhazia","type":"Autonomous Republic","iso":"GE-AB","qid":"Q23334"},"geometry":{"type":"Polygon","coordinates":[[[40.69,43.5231],[40.2331,43.5758],[39.986,43.389],[40.3351,43.1409],[40.856,43.0631],[41.1502,42.7956],[41.3835,42.7573],[41.5512,42.4065],[41.9384,42.618],[41.908,42.9872],[42.1543,43.2175],[41.5506,43.2263],[40.69,43.5231]]]}},{"type":"Feature","id":"label-GEO-3015","properties":{"kind":"division-label","code":"GEO-3015","countryCode":"GEO","name":"Abkhazia","localName":"Abkhazia","labelEnglish":"Abkhazia","labelLocal":"Abkhazia","labelBoth":"Abkhazia","type":"Autonomous Republic","iso":"GE-AB","qid":"Q23334"},"geometry":{"type":"Point","coordinates":[41.0701,43.1479]}},{"type":"Feature","id":"GEO-3029","properties":{"kind":"division","code":"GEO-3029","countryCode":"GEO","name":"Samegrelo-Zemo Svaneti","localName":"Samegrelo-Zemo Svaneti","labelEnglish":"Samegrelo-Zemo Svaneti","labelLocal":"Samegrelo-Zemo Svaneti","labelBoth":"Samegrelo-Zemo Svaneti","type":"Region","iso":"GE-SZ","qid":"Q200309"},"geometry":{"type":"Polygon","coordinates":[[[42.3626,43.2352],[42.1543,43.2175],[41.908,42.9872],[41.9384,42.618],[41.5512,42.4065],[41.7152,42.0593],[42.229,42.0972],[42.6144,42.5241],[42.3526,42.7938],[42.4919,42.8872],[43.0656,42.8221],[43.1752,42.9345],[43.0001,43.0987],[42.3626,43.2352]]]}},{"type":"Feature","id":"label-GEO-3029","properties":{"kind":"division-label","code":"GEO-3029","countryCode":"GEO","name":"Samegrelo-Zemo Svaneti","localName":"Samegrelo-Zemo Svaneti","labelEnglish":"Samegrelo-Zemo Svaneti","labelLocal":"Samegrelo-Zemo Svaneti","labelBoth":"Samegrelo-Zemo Svaneti","type":"Region","iso":"GE-SZ","qid":"Q200309"},"geometry":{"type":"Point","coordinates":[42.3632,42.5492]}},{"type":"Feature","id":"GEO-3039","properties":{"kind":"division","code":"GEO-3039","countryCode":"GEO","name":"Shida Kartli","localName":"Shida Kartli","labelEnglish":"Shida Kartli","labelLocal":"Shida Kartli","labelBoth":"Shida Kartli","type":"Region","iso":"GE-SK","qid":"Q200047"},"geometry":{"type":"Polygon","coordinates":[[[43.9082,42.5662],[43.5874,42.3947],[43.7501,42.394],[43.4262,41.9166],[43.8862,41.7342],[44.4792,41.748],[44.493,42.0063],[44.2619,42.034],[44.3344,42.4947],[44.1858,42.6265],[43.9082,42.5662]]]}},{"type":"Feature","id":"label-GEO-3039","properties":{"kind":"division-label","code":"GEO-3039","countryCode":"GEO","name":"Shida Kartli","localName":"Shida Kartli","labelEnglish":"Shida Kartli","labelLocal":"Shida Kartli","labelBoth":"Shida Kartli","type":"Region","iso":"GE-SK","qid":"Q200047"},"geometry":{"type":"Point","coordinates":[43.9997,42.1586]}},{"type":"Feature","id":"GEO-3035","properties":{"kind":"division","code":"GEO-3035","countryCode":"GEO","name":"Racha-Lechkhumi and Kvemo Svaneti","localName":"Racha-Lechkhumi and Kvemo Svaneti","labelEnglish":"Racha-Lechkhumi and Kvemo Svaneti","labelLocal":"Racha-Lechkhumi and Kvemo Svaneti","labelBoth":"Racha-Lechkhumi and Kvemo Svaneti","type":"Region","iso":"GE-RL","qid":"Q38893"},"geometry":{"type":"Polygon","coordinates":[[[43.3862,42.8869],[43.1752,42.9345],[43.0656,42.8221],[42.4919,42.8872],[42.3526,42.7938],[42.6144,42.5241],[43.05,42.3396],[43.5874,42.3947],[43.9082,42.5662],[43.8006,42.7465],[43.3862,42.8869]]]}},{"type":"Feature","id":"label-GEO-3035","properties":{"kind":"division-label","code":"GEO-3035","countryCode":"GEO","name":"Racha-Lechkhumi and Kvemo Svaneti","localName":"Racha-Lechkhumi and Kvemo Svaneti","labelEnglish":"Racha-Lechkhumi and Kvemo Svaneti","labelLocal":"Racha-Lechkhumi and Kvemo Svaneti","labelBoth":"Racha-Lechkhumi and Kvemo Svaneti","type":"Region","iso":"GE-RL","qid":"Q38893"},"geometry":{"type":"Point","coordinates":[43.1304,42.6296]}},{"type":"Feature","id":"GEO-3034","properties":{"kind":"division","code":"GEO-3034","countryCode":"GEO","name":"Mtskheta-Mtianeti","localName":"Mtskheta-Mtianeti","labelEnglish":"Mtskheta-Mtianeti","labelLocal":"Mtskheta-Mtianeti","labelBoth":"Mtskheta-Mtianeti","type":"Region","iso":"GE-MM","qid":"Q203339"},"geometry":{"type":"Polygon","coordinates":[[[45.076,42.6914],[44.6388,42.7401],[44.1858,42.6265],[44.3344,42.4947],[44.2619,42.034],[44.493,42.0063],[44.4792,41.748],[44.6807,41.7055],[44.8922,41.7698],[45.0662,41.8375],[45.055,42.1045],[45.3016,42.5598],[45.076,42.6914]]]}},{"type":"Feature","id":"label-GEO-3034","properties":{"kind":"division-label","code":"GEO-3034","countryCode":"GEO","name":"Mtskheta-Mtianeti","localName":"Mtskheta-Mtianeti","labelEnglish":"Mtskheta-Mtianeti","labelLocal":"Mtskheta-Mtianeti","labelBoth":"Mtskheta-Mtianeti","type":"Region","iso":"GE-MM","qid":"Q203339"},"geometry":{"type":"Point","coordinates":[44.7435,42.2106]}},{"type":"Feature","id":"GEO-3033","properties":{"kind":"division","code":"GEO-3033","countryCode":"GEO","name":"Kakheti","localName":"Kakheti","labelEnglish":"Kakheti","labelLocal":"Kakheti","labelBoth":"Kakheti","type":"Region","iso":"GE-KA","qid":"Q169674"},"geometry":{"type":"Polygon","coordinates":[[[45.3016,42.5598],[45.055,42.1045],[45.0662,41.8375],[45.3331,41.4444],[45.7703,41.2321],[46.0876,41.1837],[46.6155,41.1087],[46.6298,41.3461],[46.2799,41.5712],[46.4309,41.8904],[45.9476,42.0229],[45.6214,42.2245],[45.7395,42.4706],[45.3016,42.5598]]]}},{"type":"Feature","id":"label-GEO-3033","properties":{"kind":"division-label","code":"GEO-3033","countryCode":"GEO","name":"Kakheti","localName":"Kakheti","labelEnglish":"Kakheti","labelLocal":"Kakheti","labelBoth":"Kakheti","type":"Region","iso":"GE-KA","qid":"Q169674"},"geometry":{"type":"Point","coordinates":[45.8579,41.6527]}},{"type":"Feature","id":"GEO-3038","properties":{"kind":"division","code":"GEO-3038","countryCode":"GEO","name":"Samtskhe–Javakheti","localName":"Samtskhe–Javakheti","labelEnglish":"Samtskhe–Javakheti","labelLocal":"Samtskhe–Javakheti","labelBoth":"Samtskhe–Javakheti","type":"Region","iso":"GE-SJ","qid":"Q19039"},"geometry":{"type":"Polygon","coordinates":[[[42.5866,41.5791],[42.8199,41.5723],[43.2306,41.1726],[43.4404,41.1066],[43.9778,41.1645],[43.9782,41.1646],[43.8862,41.7342],[43.4262,41.9166],[43.1274,41.8254],[42.6496,41.8334],[42.4817,41.7987],[42.5866,41.5791]]]}},{"type":"Feature","id":"label-GEO-3038","properties":{"kind":"division-label","code":"GEO-3038","countryCode":"GEO","name":"Samtskhe–Javakheti","localName":"Samtskhe–Javakheti","labelEnglish":"Samtskhe–Javakheti","labelLocal":"Samtskhe–Javakheti","labelBoth":"Samtskhe–Javakheti","type":"Region","iso":"GE-SJ","qid":"Q19039"},"geometry":{"type":"Point","coordinates":[43.2296,41.5149]}},{"type":"Feature","id":"GEO-3027","properties":{"kind":"division","code":"GEO-3027","countryCode":"GEO","name":"Adjara","localName":"Adjara","labelEnglish":"Adjara","labelLocal":"Adjara","labelBoth":"Adjara","type":"Autonomous Republic","iso":"GE-AJ","qid":"Q45693"},"geometry":{"type":"Polygon","coordinates":[[[42.451,41.4314],[42.5866,41.5791],[42.4817,41.7987],[41.7739,41.9026],[41.5208,41.5142],[42.451,41.4314]]]}},{"type":"Feature","id":"label-GEO-3027","properties":{"kind":"division-label","code":"GEO-3027","countryCode":"GEO","name":"Adjara","localName":"Adjara","labelEnglish":"Adjara","labelLocal":"Adjara","labelBoth":"Adjara","type":"Autonomous Republic","iso":"GE-AJ","qid":"Q45693"},"geometry":{"type":"Point","coordinates":[42.0537,41.6552]}},{"type":"Feature","id":"GEO-3037","properties":{"kind":"division","code":"GEO-3037","countryCode":"GEO","name":"Kvemo Kartli","localName":"Kvemo Kartli","labelEnglish":"Kvemo Kartli","labelLocal":"Kvemo Kartli","labelBoth":"Kvemo Kartli","type":"Region","iso":"GE-KK","qid":"Q200048"},"geometry":{"type":"Polygon","coordinates":[[[45.0024,41.2905],[45.0978,41.3499],[45.3331,41.4444],[45.0662,41.8375],[44.8922,41.7698],[44.8269,41.6436],[44.6807,41.7055],[44.4792,41.748],[43.8862,41.7342],[43.9782,41.1646],[44.8538,41.2235],[45.0024,41.2905]]]}},{"type":"Feature","id":"label-GEO-3037","properties":{"kind":"division-label","code":"GEO-3037","countryCode":"GEO","name":"Kvemo Kartli","localName":"Kvemo Kartli","labelEnglish":"Kvemo Kartli","labelLocal":"Kvemo Kartli","labelBoth":"Kvemo Kartli","type":"Region","iso":"GE-KK","qid":"Q200048"},"geometry":{"type":"Point","coordinates":[44.5029,41.4755]}},{"type":"Feature","id":"GEO-3028","properties":{"kind":"division","code":"GEO-3028","countryCode":"GEO","name":"Guria","localName":"Guria","labelEnglish":"Guria","labelLocal":"Guria","labelBoth":"Guria","type":"Region","iso":"GE-GU","qid":"Q19038"},"geometry":{"type":"Polygon","coordinates":[[[42.4817,41.7987],[42.6496,41.8334],[42.229,42.0972],[41.7152,42.0593],[41.7739,41.9026],[42.4817,41.7987]]]}},{"type":"Feature","id":"label-GEO-3028","properties":{"kind":"division-label","code":"GEO-3028","countryCode":"GEO","name":"Guria","localName":"Guria","labelEnglish":"Guria","labelLocal":"Guria","labelBoth":"Guria","type":"Region","iso":"GE-GU","qid":"Q19038"},"geometry":{"type":"Point","coordinates":[42.1824,41.9634]}},{"type":"Feature","id":"GEO-3036","properties":{"kind":"division","code":"GEO-3036","countryCode":"GEO","name":"Tbilisi","localName":"Tbilisi","labelEnglish":"Tbilisi","labelLocal":"Tbilisi","labelBoth":"Tbilisi","type":"Independent City","iso":"GE-TB","qid":"Q994"},"geometry":{"type":"Polygon","coordinates":[[[44.8922,41.7698],[44.6807,41.7055],[44.8269,41.6436],[44.8922,41.7698]]]}},{"type":"Feature","id":"label-GEO-3036","properties":{"kind":"division-label","code":"GEO-3036","countryCode":"GEO","name":"Tbilisi","localName":"Tbilisi","labelEnglish":"Tbilisi","labelLocal":"Tbilisi","labelBoth":"Tbilisi","type":"Independent City","iso":"GE-TB","qid":"Q994"},"geometry":{"type":"Point","coordinates":[44.845,41.7153]}},{"type":"Feature","id":"GEO-3030","properties":{"kind":"division","code":"GEO-3030","countryCode":"GEO","name":"Imereti","localName":"Imereti","labelEnglish":"Imereti","labelLocal":"Imereti","labelBoth":"Imereti","type":"Region","iso":"GE-IM","qid":"Q200045"},"geometry":{"type":"Polygon","coordinates":[[[43.4262,41.9166],[43.7501,42.394],[43.5874,42.3947],[43.05,42.3396],[42.6144,42.5241],[42.229,42.0972],[42.6496,41.8334],[43.1274,41.8254],[43.4262,41.9166]]]}},{"type":"Feature","id":"label-GEO-3030","properties":{"kind":"division-label","code":"GEO-3030","countryCode":"GEO","name":"Imereti","localName":"Imereti","labelEnglish":"Imereti","labelLocal":"Imereti","labelBoth":"Imereti","type":"Region","iso":"GE-IM","qid":"Q200045"},"geometry":{"type":"Point","coordinates":[42.9894,42.093]}}]}