{"type":"FeatureCollection","features":[{"type":"Feature","id":"GGY+00?","properties":{"kind":"division","code":"GGY+00?","countryCode":"GGY","name":"Sark","localName":"Sark","labelEnglish":"Sark","labelLocal":"Sark","labelBoth":"Sark","type":null,"iso":"GG-X01~","qid":null},"geometry":{"type":"Polygon","coordinates":[[[-2.5802,49.4936],[-2.6693,49.4309],[-2.5341,49.4362],[-2.5802,49.4936]]]}},{"type":"Feature","id":"label-GGY+00?","properties":{"kind":"division-label","code":"GGY+00?","countryCode":"GGY","name":"Sark","localName":"Sark","labelEnglish":"Sark","labelLocal":"Sark","labelBoth":"Sark","type":null,"iso":"GG-X01~","qid":null},"geometry":{"type":"Point","coordinates":[-2.36628,49.4309]}}]}