{"type":"FeatureCollection","features":[{"type":"Feature","id":"GHA-2156","properties":{"kind":"division","code":"GHA-2156","countryCode":"GHA","name":"Upper East","localName":"Upper East","labelEnglish":"Upper East","labelLocal":"Upper East","labelBoth":"Upper East","type":"Region","iso":"GH-UE","qid":"Q712828"},"geometry":{"type":"Polygon","coordinates":[[[-0.1661,11.135],[-0.3017,11.1629],[-0.6348,10.908],[-0.703,10.9942],[-1.4136,11.014],[-1.4236,11.0179],[-1.5653,10.613],[-1.3658,10.3906],[-1.2324,10.2986],[-1.1241,10.4898],[-0.7042,10.52],[-0.0916,10.7003],[0.0162,11.0626],[-0.1661,11.135]]]}},{"type":"Feature","id":"label-GHA-2156","properties":{"kind":"division-label","code":"GHA-2156","countryCode":"GHA","name":"Upper East","localName":"Upper East","labelEnglish":"Upper East","labelLocal":"Upper East","labelBoth":"Upper East","type":"Region","iso":"GH-UE","qid":"Q712828"},"geometry":{"type":"Point","coordinates":[-0.779779,10.8183]}},{"type":"Feature","id":"GHA-2155","properties":{"kind":"division","code":"GHA-2155","countryCode":"GHA","name":"Northern","localName":"Northern","labelEnglish":"Northern","labelLocal":"Northern","labelBoth":"Northern","type":"Region","iso":"GH-NP","qid":"Q502215"},"geometry":{"type":"Polygon","coordinates":[[[-0.0916,10.7003],[-0.7042,10.52],[-1.1241,10.4898],[-1.2324,10.2986],[-1.3658,10.3906],[-1.4901,10.4262],[-1.7636,9.8338],[-2.3297,9.812],[-2.7434,9.6533],[-2.6892,9.4887],[-2.7748,9.055],[-2.6031,8.7852],[-2.1309,8.1577],[-1.7853,8.2334],[-1.8787,8.5873],[-1.378,8.7615],[-1.1423,8.5673],[-1.2699,8.3568],[-1.0964,7.9906],[-0.8166,8.3185],[-0.3949,8.1393],[-0.0716,8.3352],[0.1976,8.254],[0.0932,8.5073],[0.1926,8.7657],[0.3681,8.7615],[0.4836,8.835],[0.4313,9.0276],[0.5314,9.4011],[0.2302,9.5757],[0.3946,10.0356],[0.3966,10.2832],[0.177,10.3977],[-0.0916,10.7003]]]}},{"type":"Feature","id":"label-GHA-2155","properties":{"kind":"division-label","code":"GHA-2155","countryCode":"GHA","name":"Northern","localName":"Northern","labelEnglish":"Northern","labelLocal":"Northern","labelBoth":"Northern","type":"Region","iso":"GH-NP","qid":"Q502215"},"geometry":{"type":"Point","coordinates":[-1.11905,9.27258]}},{"type":"Feature","id":"GHA-2173","properties":{"kind":"division","code":"GHA-2173","countryCode":"GHA","name":"Volta","localName":"Volta","labelEnglish":"Volta","labelLocal":"Volta","labelBoth":"Volta","type":"Region","iso":"GH-TV","qid":"Q712832"},"geometry":{"type":"Polygon","coordinates":[[[0.6027,7.8931],[0.5738,8.2039],[0.7052,8.2828],[0.3681,8.7615],[0.1926,8.7657],[0.0932,8.5073],[0.1976,8.254],[-0.0716,8.3352],[-0.3949,8.1393],[0.0044,7.7345],[0.2236,7.1673],[0.1108,6.5341],[0.2165,6.4082],[0.0973,6.1382],[0.32,5.9442],[0.561,5.979],[0.6736,5.7591],[0.9144,5.7771],[1.1854,6.1005],[0.7131,6.5339],[0.5193,6.8322],[0.6457,7.3236],[0.4994,7.5624],[0.6027,7.8931]]]}},{"type":"Feature","id":"label-GHA-2173","properties":{"kind":"division-label","code":"GHA-2173","countryCode":"GHA","name":"Volta","localName":"Volta","labelEnglish":"Volta","labelLocal":"Volta","labelBoth":"Volta","type":"Region","iso":"GH-TV","qid":"Q712832"},"geometry":{"type":"Point","coordinates":[0.396325,7.33855]}},{"type":"Feature","id":"GHA-2159","properties":{"kind":"division","code":"GHA-2159","countryCode":"GHA","name":"Brong-Ahafo","localName":"Brong-Ahafo","labelEnglish":"Brong-Ahafo","labelLocal":"Brong-Ahafo","labelBoth":"Brong-Ahafo","type":"Region","iso":"GH-BA","qid":"Q397737"},"geometry":{"type":"Polygon","coordinates":[[[-2.6031,8.7852],[-2.5063,8.2093],[-2.84,7.8202],[-3.0966,7.0545],[-3.0973,7.0541],[-2.8865,6.9053],[-2.8274,6.65],[-2.4258,6.3867],[-2.3919,6.8525],[-2.2494,7.0581],[-2.0554,7.0404],[-1.8564,7.2341],[-2.1415,7.3544],[-1.8599,7.4692],[-1.7399,7.3386],[-1.5238,7.4066],[-1.3558,7.6193],[-1.2892,7.4693],[-0.6985,7.5407],[-0.2138,7.1928],[0.2236,7.1673],[0.0044,7.7345],[-0.3949,8.1393],[-0.8166,8.3185],[-1.0964,7.9906],[-1.2699,8.3568],[-1.1423,8.5673],[-1.378,8.7615],[-1.8787,8.5873],[-1.7853,8.2334],[-2.1309,8.1577],[-2.6031,8.7852]]]}},{"type":"Feature","id":"label-GHA-2159","properties":{"kind":"division-label","code":"GHA-2159","countryCode":"GHA","name":"Brong-Ahafo","localName":"Brong-Ahafo","labelEnglish":"Brong-Ahafo","labelLocal":"Brong-Ahafo","labelBoth":"Brong-Ahafo","type":"Region","iso":"GH-BA","qid":"Q397737"},"geometry":{"type":"Point","coordinates":[-1.42805,8.16555]}},{"type":"Feature","id":"GHA-2162","properties":{"kind":"division","code":"GHA-2162","countryCode":"GHA","name":"Western","localName":"Western","labelEnglish":"Western","labelLocal":"Western","labelBoth":"Western","type":"Region","iso":"GH-WP","qid":"Q870155"},"geometry":{"type":"Polygon","coordinates":[[[-3.1717,6.2496],[-2.9695,5.6214],[-2.7818,5.5789],[-2.757,5.1799],[-2.8437,5.1491],[-3.1153,5.1078],[-3.1196,5.0913],[-2.3566,4.9196],[-2.0906,4.7371],[-1.5688,5.0193],[-1.4248,5.2484],[-1.5835,5.5432],[-1.8104,5.6153],[-1.8502,5.9023],[-2.1678,6.217],[-2.0702,6.2977],[-2.3242,6.5102],[-2.4258,6.3867],[-2.8274,6.65],[-2.8865,6.9053],[-3.0973,7.0541],[-3.2625,6.6171],[-3.1717,6.2496]]]}},{"type":"Feature","id":"label-GHA-2162","properties":{"kind":"division-label","code":"GHA-2162","countryCode":"GHA","name":"Western","localName":"Western","labelEnglish":"Western","labelLocal":"Western","labelBoth":"Western","type":"Region","iso":"GH-WP","qid":"Q870155"},"geometry":{"type":"Point","coordinates":[-2.34206,5.70024]}},{"type":"Feature","id":"GHA-2157","properties":{"kind":"division","code":"GHA-2157","countryCode":"GHA","name":"Upper West","localName":"Upper West","labelEnglish":"Upper West","labelLocal":"Upper West","labelBoth":"Upper West","type":"Region","iso":"GH-UW","qid":"Q715805"},"geometry":{"type":"Polygon","coordinates":[[[-1.4236,11.0179],[-2.7288,10.9861],[-2.92,10.7111],[-2.7885,10.0924],[-2.7434,9.6533],[-2.3297,9.812],[-1.7636,9.8338],[-1.4901,10.4262],[-1.3658,10.3906],[-1.5653,10.613],[-1.4236,11.0179]]]}},{"type":"Feature","id":"label-GHA-2157","properties":{"kind":"division-label","code":"GHA-2157","countryCode":"GHA","name":"Upper West","localName":"Upper West","labelEnglish":"Upper West","labelLocal":"Upper West","labelBoth":"Upper West","type":"Region","iso":"GH-UW","qid":"Q715805"},"geometry":{"type":"Point","coordinates":[-2.14449,10.404]}},{"type":"Feature","id":"GHA-2160","properties":{"kind":"division","code":"GHA-2160","countryCode":"GHA","name":"Central","localName":"Central","labelEnglish":"Central","labelLocal":"Central","labelBoth":"Central","type":"Region","iso":"GH-CP","qid":"Q846323"},"geometry":{"type":"Polygon","coordinates":[[[-0.3593,5.4987],[-0.5066,5.7259],[-1.1164,5.7784],[-1.2395,5.9153],[-1.5118,5.8708],[-1.9118,6.0138],[-2.0702,6.2977],[-2.1678,6.217],[-1.8502,5.9023],[-1.8104,5.6153],[-1.5835,5.5432],[-1.4248,5.2484],[-1.5688,5.0193],[-0.9971,5.2168],[-0.7995,5.2148],[-0.3593,5.4987]]]}},{"type":"Feature","id":"label-GHA-2160","properties":{"kind":"division-label","code":"GHA-2160","countryCode":"GHA","name":"Central","localName":"Central","labelEnglish":"Central","labelLocal":"Central","labelBoth":"Central","type":"Region","iso":"GH-CP","qid":"Q846323"},"geometry":{"type":"Point","coordinates":[-1.26555,5.49477]}},{"type":"Feature","id":"GHA-2172","properties":{"kind":"division","code":"GHA-2172","countryCode":"GHA","name":"Greater Accra","localName":"Greater Accra","labelEnglish":"Greater Accra","labelLocal":"Greater Accra","labelBoth":"Greater Accra","type":"Region","iso":"GH-AA","qid":"Q431729"},"geometry":{"type":"Polygon","coordinates":[[[0.6736,5.7591],[0.561,5.979],[0.32,5.9442],[-0.0415,5.9719],[-0.1577,5.7871],[-0.5066,5.7259],[-0.3593,5.4987],[0.322,5.7792],[0.6736,5.7591]]]}},{"type":"Feature","id":"label-GHA-2172","properties":{"kind":"division-label","code":"GHA-2172","countryCode":"GHA","name":"Greater Accra","localName":"Greater Accra","labelEnglish":"Greater Accra","labelLocal":"Greater Accra","labelBoth":"Greater Accra","type":"Region","iso":"GH-AA","qid":"Q431729"},"geometry":{"type":"Point","coordinates":[0.105309,5.83921]}},{"type":"Feature","id":"GHA-2158","properties":{"kind":"division","code":"GHA-2158","countryCode":"GHA","name":"Ashanti","localName":"Ashanti","labelEnglish":"Ashanti","labelLocal":"Ashanti","labelBoth":"Ashanti","type":"Region","iso":"GH-AH","qid":"Q398417"},"geometry":{"type":"Polygon","coordinates":[[[-0.2138,7.1928],[-0.6985,7.5407],[-1.2892,7.4693],[-1.3558,7.6193],[-1.5238,7.4066],[-1.7399,7.3386],[-1.8599,7.4692],[-2.1415,7.3544],[-1.8564,7.2341],[-2.0554,7.0404],[-2.2494,7.0581],[-2.3919,6.8525],[-2.4258,6.3867],[-2.3242,6.5102],[-2.0702,6.2977],[-1.9118,6.0138],[-1.5118,5.8708],[-1.2395,5.9153],[-1.192,6.2021],[-0.6132,7.047],[-0.2138,7.1928]]]}},{"type":"Feature","id":"label-GHA-2158","properties":{"kind":"division-label","code":"GHA-2158","countryCode":"GHA","name":"Ashanti","localName":"Ashanti","labelEnglish":"Ashanti","labelLocal":"Ashanti","labelBoth":"Ashanti","type":"Region","iso":"GH-AH","qid":"Q398417"},"geometry":{"type":"Point","coordinates":[-1.3296,6.75219]}},{"type":"Feature","id":"GHA-2161","properties":{"kind":"division","code":"GHA-2161","countryCode":"GHA","name":"Eastern","localName":"Eastern","labelEnglish":"Eastern","labelLocal":"Eastern","labelBoth":"Eastern","type":"Region","iso":"GH-EP","qid":"Q405670"},"geometry":{"type":"Polygon","coordinates":[[[-0.2138,7.1928],[-0.6132,7.047],[-1.192,6.2021],[-1.2395,5.9153],[-1.1164,5.7784],[-0.5066,5.7259],[-0.1577,5.7871],[-0.0415,5.9719],[0.32,5.9442],[0.0973,6.1382],[0.2165,6.4082],[0.1108,6.5341],[0.2236,7.1673],[-0.2138,7.1928]]]}},{"type":"Feature","id":"label-GHA-2161","properties":{"kind":"division-label","code":"GHA-2161","countryCode":"GHA","name":"Eastern","localName":"Eastern","labelEnglish":"Eastern","labelLocal":"Eastern","labelBoth":"Eastern","type":"Region","iso":"GH-EP","qid":"Q405670"},"geometry":{"type":"Point","coordinates":[-0.460431,6.42584]}}]}