{"type":"FeatureCollection","features":[{"type":"Feature","id":"GIN-5636","properties":{"kind":"division","code":"GIN-5636","countryCode":"GIN","name":"Faranah","localName":"Faranah","labelEnglish":"Faranah","labelLocal":"Faranah","labelBoth":"Faranah","type":"Prefecture","iso":"GN-FA","qid":"Q870166"},"geometry":{"type":"Polygon","coordinates":[[[-11.4492,9.995],[-11.1996,9.9822],[-10.8549,9.4553],[-10.6751,9.3065],[-10.7463,9.0838],[-10.5931,9.0476],[-10.4782,9.1852],[-10.4177,9.6117],[-10.3538,9.9991],[-10.1374,10.3989],[-10.5981,10.6621],[-10.8813,10.6565],[-11.377,10.3952],[-11.4492,9.995]]]}},{"type":"Feature","id":"label-GIN-5636","properties":{"kind":"division-label","code":"GIN-5636","countryCode":"GIN","name":"Faranah","localName":"Faranah","labelEnglish":"Faranah","labelLocal":"Faranah","labelBoth":"Faranah","type":"Prefecture","iso":"GN-FA","qid":"Q870166"},"geometry":{"type":"Point","coordinates":[-10.881,9.98517]}},{"type":"Feature","id":"GIN-5643","properties":{"kind":"division","code":"GIN-5643","countryCode":"GIN","name":"Kindia","localName":"Kindia","labelEnglish":"Kindia","labelLocal":"Kindia","labelBoth":"Kindia","type":"Prefecture","iso":"GN-KD","qid":"Q868520"},"geometry":{"type":"Polygon","coordinates":[[[-12.1098,9.8817],[-12.229,10.2578],[-12.3949,10.2649],[-12.4151,10.4912],[-12.6495,10.5287],[-12.896,10.4699],[-13.1346,10.4042],[-13.1556,10.1097],[-13.2818,9.9986],[-13.0895,9.5629],[-12.9243,9.6831],[-12.6016,9.6517],[-12.5083,9.8604],[-12.1098,9.8817]]]}},{"type":"Feature","id":"label-GIN-5643","properties":{"kind":"division-label","code":"GIN-5643","countryCode":"GIN","name":"Kindia","localName":"Kindia","labelEnglish":"Kindia","labelLocal":"Kindia","labelBoth":"Kindia","type":"Prefecture","iso":"GN-KD","qid":"Q868520"},"geometry":{"type":"Point","coordinates":[-12.7298,10.0552]}},{"type":"Feature","id":"GIN-5653","properties":{"kind":"division","code":"GIN-5653","countryCode":"GIN","name":"Mamou Prefecture","localName":"Mamou Prefecture","labelEnglish":"Mamou Prefecture","labelLocal":"Mamou Prefecture","labelBoth":"Mamou Prefecture","type":"Prefecture","iso":"GN-MM","qid":"Q623295"},"geometry":{"type":"Polygon","coordinates":[[[-11.5875,9.9943],[-11.5533,10.7957],[-11.6029,10.9653],[-11.4231,11.0642],[-11.3062,11.3262],[-11.8131,11.0025],[-11.8217,10.8038],[-12.029,10.7617],[-12.4151,10.4912],[-12.3949,10.2649],[-12.229,10.2578],[-12.1098,9.8817],[-11.9101,9.9925],[-11.5875,9.9943]]]}},{"type":"Feature","id":"label-GIN-5653","properties":{"kind":"division-label","code":"GIN-5653","countryCode":"GIN","name":"Mamou Prefecture","localName":"Mamou Prefecture","labelEnglish":"Mamou Prefecture","labelLocal":"Mamou Prefecture","labelBoth":"Mamou Prefecture","type":"Prefecture","iso":"GN-MM","qid":"Q623295"},"geometry":{"type":"Point","coordinates":[-11.8934,10.3442]}},{"type":"Feature","id":"GIN-5632","properties":{"kind":"division","code":"GIN-5632","countryCode":"GIN","name":"Dabola Prefecture","localName":"Dabola Prefecture","labelEnglish":"Dabola Prefecture","labelLocal":"Dabola Prefecture","labelBoth":"Dabola Prefecture","type":"Prefecture","iso":"GN-DB","qid":"Q1156587"},"geometry":{"type":"Polygon","coordinates":[[[-11.4492,9.995],[-11.377,10.3952],[-10.8813,10.6565],[-10.5981,10.6621],[-10.8906,10.8714],[-10.7031,11.1126],[-11.0255,10.96],[-11.4231,11.0642],[-11.6029,10.9653],[-11.5533,10.7957],[-11.5875,9.9943],[-11.4492,9.995]]]}},{"type":"Feature","id":"label-GIN-5632","properties":{"kind":"division-label","code":"GIN-5632","countryCode":"GIN","name":"Dabola Prefecture","localName":"Dabola Prefecture","labelEnglish":"Dabola Prefecture","labelLocal":"Dabola Prefecture","labelBoth":"Dabola Prefecture","type":"Prefecture","iso":"GN-DB","qid":"Q1156587"},"geometry":{"type":"Point","coordinates":[-11.2004,10.7774]}},{"type":"Feature","id":"GIN-5637","properties":{"kind":"division","code":"GIN-5637","countryCode":"GIN","name":"Forécariah Prefecture","localName":"Forécariah Prefecture","labelEnglish":"Forécariah Prefecture","labelLocal":"Forécariah Prefecture","labelBoth":"Forécariah Prefecture","type":"Prefecture","iso":"GN-FO","qid":"Q1439329"},"geometry":{"type":"Polygon","coordinates":[[[-12.6016,9.6517],[-12.9243,9.6831],[-13.0895,9.5629],[-13.4867,9.5691],[-13.3011,9.0415],[-13.0289,9.096],[-12.9579,9.2724],[-12.7016,9.4202],[-12.6016,9.6517]]]}},{"type":"Feature","id":"label-GIN-5637","properties":{"kind":"division-label","code":"GIN-5637","countryCode":"GIN","name":"Forécariah Prefecture","localName":"Forécariah Prefecture","labelEnglish":"Forécariah Prefecture","labelLocal":"Forécariah Prefecture","labelBoth":"Forécariah Prefecture","type":"Prefecture","iso":"GN-FO","qid":"Q1439329"},"geometry":{"type":"Point","coordinates":[-13.0624,9.38543]}},{"type":"Feature","id":"GIN-5640","properties":{"kind":"division","code":"GIN-5640","countryCode":"GIN","name":"Guéckédou Prefecture","localName":"Guéckédou Prefecture","labelEnglish":"Guéckédou Prefecture","labelLocal":"Guéckédou Prefecture","labelBoth":"Guéckédou Prefecture","type":"Prefecture","iso":"GN-GU","qid":"Q623142"},"geometry":{"type":"Polygon","coordinates":[[[-10.5922,9.0417],[-10.4819,8.6725],[-10.725,8.3199],[-10.2822,8.4846],[-9.8728,8.5004],[-9.9079,8.7548],[-9.77,8.9003],[-10.2022,8.8723],[-10.4782,9.1852],[-10.5931,9.0476],[-10.5922,9.0417]]]}},{"type":"Feature","id":"label-GIN-5640","properties":{"kind":"division-label","code":"GIN-5640","countryCode":"GIN","name":"Guéckédou Prefecture","localName":"Guéckédou Prefecture","labelEnglish":"Guéckédou Prefecture","labelLocal":"Guéckédou Prefecture","labelBoth":"Guéckédou Prefecture","type":"Prefecture","iso":"GN-GU","qid":"Q623142"},"geometry":{"type":"Point","coordinates":[-10.2232,8.70329]}},{"type":"Feature","id":"GIN-5641","properties":{"kind":"division","code":"GIN-5641","countryCode":"GIN","name":"Kankan","localName":"Kankan","labelEnglish":"Kankan","labelLocal":"Kankan","labelBoth":"Kankan","type":"Prefecture","iso":"GN-K","qid":"Q870191"},"geometry":{"type":"Polygon","coordinates":[[[-8.1524,9.95],[-8.4297,10.1788],[-8.6731,10.2329],[-8.9465,10.5033],[-8.9645,10.6656],[-9.3731,10.7497],[-9.6675,10.4372],[-9.7006,9.9024],[-9.9552,9.669],[-9.5495,9.459],[-9.2212,9.4262],[-9.0246,9.7312],[-8.5709,9.626],[-8.4791,9.3808],[-8.0704,9.3975],[-8.1616,9.5756],[-8.1524,9.95]]]}},{"type":"Feature","id":"label-GIN-5641","properties":{"kind":"division-label","code":"GIN-5641","countryCode":"GIN","name":"Kankan","localName":"Kankan","labelEnglish":"Kankan","labelLocal":"Kankan","labelBoth":"Kankan","type":"Prefecture","iso":"GN-K","qid":"Q870191"},"geometry":{"type":"Point","coordinates":[-9.12624,10.1319]}},{"type":"Feature","id":"GIN-5654","properties":{"kind":"division","code":"GIN-5654","countryCode":"GIN","name":"Mandiana Prefecture","localName":"Mandiana Prefecture","labelEnglish":"Mandiana Prefecture","labelLocal":"Mandiana Prefecture","labelBoth":"Mandiana Prefecture","type":"Prefecture","iso":"GN-MD","qid":"Q1470878"},"geometry":{"type":"Polygon","coordinates":[[[-7.9897,10.162],[-7.9646,10.2589],[-8.2955,10.5374],[-8.3111,11.0008],[-8.6154,11.1341],[-8.3753,11.3677],[-8.5394,11.4563],[-8.7265,11.6495],[-8.9224,11.1312],[-9.3431,10.8668],[-9.3731,10.7497],[-8.9645,10.6656],[-8.9465,10.5033],[-8.6731,10.2329],[-8.4297,10.1788],[-8.1524,9.95],[-7.9897,10.162]]]}},{"type":"Feature","id":"label-GIN-5654","properties":{"kind":"division-label","code":"GIN-5654","countryCode":"GIN","name":"Mandiana Prefecture","localName":"Mandiana Prefecture","labelEnglish":"Mandiana Prefecture","labelLocal":"Mandiana Prefecture","labelBoth":"Mandiana Prefecture","type":"Prefecture","iso":"GN-MD","qid":"Q1470878"},"geometry":{"type":"Point","coordinates":[-8.66537,10.7221]}},{"type":"Feature","id":"GIN-5627","properties":{"kind":"division","code":"GIN-5627","countryCode":"GIN","name":"Beyla Prefecture","localName":"Beyla Prefecture","labelEnglish":"Beyla Prefecture","labelLocal":"Beyla Prefecture","labelBoth":"Beyla Prefecture","type":"Prefecture","iso":"GN-BE","qid":"Q853169"},"geometry":{"type":"Polygon","coordinates":[[[-8.0704,9.3975],[-8.4791,9.3808],[-8.728,9.0721],[-8.9691,8.9619],[-8.8563,8.4633],[-8.9104,8.2981],[-8.5889,8.3492],[-8.4297,8.217],[-8.0672,8.0208],[-7.9656,8.0269],[-8.0024,8.1743],[-8.266,8.246],[-8.2489,8.4536],[-7.8238,8.4779],[-7.6916,8.6061],[-7.9589,8.782],[-7.9167,9.0123],[-7.7482,9.0754],[-7.9296,9.1839],[-7.8654,9.4099],[-8.0704,9.3975]]]}},{"type":"Feature","id":"label-GIN-5627","properties":{"kind":"division-label","code":"GIN-5627","countryCode":"GIN","name":"Beyla Prefecture","localName":"Beyla Prefecture","labelEnglish":"Beyla Prefecture","labelLocal":"Beyla Prefecture","labelBoth":"Beyla Prefecture","type":"Prefecture","iso":"GN-BE","qid":"Q853169"},"geometry":{"type":"Point","coordinates":[-8.40726,8.81391]}},{"type":"Feature","id":"GIN-5650","properties":{"kind":"division","code":"GIN-5650","countryCode":"GIN","name":"Lola Prefecture","localName":"Lola Prefecture","labelEnglish":"Lola Prefecture","labelLocal":"Lola Prefecture","labelBoth":"Lola Prefecture","type":"Prefecture","iso":"GN-LO","qid":"Q623145"},"geometry":{"type":"Polygon","coordinates":[[[-8.0672,8.0208],[-8.4297,8.217],[-8.5674,7.6882],[-8.4854,7.558],[-8.229,7.5443],[-8.0672,8.0208]]]}},{"type":"Feature","id":"label-GIN-5650","properties":{"kind":"division-label","code":"GIN-5650","countryCode":"GIN","name":"Lola Prefecture","localName":"Lola Prefecture","labelEnglish":"Lola Prefecture","labelLocal":"Lola Prefecture","labelBoth":"Lola Prefecture","type":"Prefecture","iso":"GN-LO","qid":"Q623145"},"geometry":{"type":"Point","coordinates":[-8.33352,7.85522]}},{"type":"Feature","id":"GIN-5646","properties":{"kind":"division","code":"GIN-5646","countryCode":"GIN","name":"Koundara Prefecture","localName":"Koundara Prefecture","labelEnglish":"Koundara Prefecture","labelLocal":"Koundara Prefecture","labelBoth":"Koundara Prefecture","type":"Prefecture","iso":"GN-KN","qid":"Q1781312"},"geometry":{"type":"Polygon","coordinates":[[[-13.3598,12.6497],[-13.7283,12.6734],[-13.6953,12.2925],[-13.4213,12.3089],[-13.3418,12.1049],[-13.0181,12.0169],[-12.8277,12.1542],[-12.5781,12.3615],[-13.0765,12.6359],[-13.3598,12.6497]]]}},{"type":"Feature","id":"label-GIN-5646","properties":{"kind":"division-label","code":"GIN-5646","countryCode":"GIN","name":"Koundara Prefecture","localName":"Koundara Prefecture","labelEnglish":"Koundara Prefecture","labelLocal":"Koundara Prefecture","labelBoth":"Koundara Prefecture","type":"Prefecture","iso":"GN-KN","qid":"Q1781312"},"geometry":{"type":"Point","coordinates":[-13.1823,12.3537]}},{"type":"Feature","id":"GIN-5652","properties":{"kind":"division","code":"GIN-5652","countryCode":"GIN","name":"Mali Prefecture","localName":"Mali Prefecture","labelEnglish":"Mali Prefecture","labelLocal":"Mali Prefecture","labelBoth":"Mali Prefecture","type":"Prefecture","iso":"GN-ML","qid":"Q1781017"},"geometry":{"type":"Polygon","coordinates":[[[-11.3884,12.4039],[-12.0792,12.4081],[-12.3609,12.3056],[-12.5781,12.3615],[-12.8277,12.1542],[-12.8087,11.7222],[-12.5006,11.7257],[-12.3175,11.7278],[-11.9565,11.6529],[-11.6264,11.7291],[-11.4708,12.1346],[-11.3884,12.4039]]]}},{"type":"Feature","id":"label-GIN-5652","properties":{"kind":"division-label","code":"GIN-5652","countryCode":"GIN","name":"Mali Prefecture","localName":"Mali Prefecture","labelEnglish":"Mali Prefecture","labelLocal":"Mali Prefecture","labelBoth":"Mali Prefecture","type":"Prefecture","iso":"GN-ML","qid":"Q1781017"},"geometry":{"type":"Point","coordinates":[-12.1222,12.0218]}},{"type":"Feature","id":"GIN-5651","properties":{"kind":"division","code":"GIN-5651","countryCode":"GIN","name":"Macenta Prefecture","localName":"Macenta Prefecture","labelEnglish":"Macenta Prefecture","labelLocal":"Macenta Prefecture","labelBoth":"Macenta Prefecture","type":"Prefecture","iso":"GN-MC","qid":"Q949332"},"geometry":{"type":"Polygon","coordinates":[[[-9.8728,8.5004],[-9.4991,8.3435],[-9.5301,8.1855],[-9.3678,7.7575],[-9.0694,8.0532],[-8.9104,8.2981],[-8.8563,8.4633],[-8.9691,8.9619],[-9.2398,8.9192],[-9.3361,9.0897],[-9.4217,8.9287],[-9.77,8.9003],[-9.9079,8.7548],[-9.8728,8.5004]]]}},{"type":"Feature","id":"label-GIN-5651","properties":{"kind":"division-label","code":"GIN-5651","countryCode":"GIN","name":"Macenta Prefecture","localName":"Macenta Prefecture","labelEnglish":"Macenta Prefecture","labelLocal":"Macenta Prefecture","labelBoth":"Macenta Prefecture","type":"Prefecture","iso":"GN-MC","qid":"Q949332"},"geometry":{"type":"Point","coordinates":[-9.31986,8.54658]}},{"type":"Feature","id":"GIN-5659","properties":{"kind":"division","code":"GIN-5659","countryCode":"GIN","name":"Yomou Prefecture","localName":"Yomou Prefecture","labelEnglish":"Yomou Prefecture","labelLocal":"Yomou Prefecture","labelBoth":"Yomou Prefecture","type":"Prefecture","iso":"GN-YO","qid":"Q623139"},"geometry":{"type":"Polygon","coordinates":[[[-9.4871,7.3732],[-9.2343,7.3813],[-9.1061,7.203],[-8.8578,7.273],[-8.7276,7.622],[-8.8845,7.666],[-9.0694,8.0532],[-9.3678,7.7575],[-9.4871,7.3732]]]}},{"type":"Feature","id":"label-GIN-5659","properties":{"kind":"division-label","code":"GIN-5659","countryCode":"GIN","name":"Yomou Prefecture","localName":"Yomou Prefecture","labelEnglish":"Yomou Prefecture","labelLocal":"Yomou Prefecture","labelBoth":"Yomou Prefecture","type":"Prefecture","iso":"GN-YO","qid":"Q623139"},"geometry":{"type":"Point","coordinates":[-9.08019,7.61555]}},{"type":"Feature","id":"GIN-5655","properties":{"kind":"division","code":"GIN-5655","countryCode":"GIN","name":"Nzérékoré Prefecture","localName":"Nzérékoré Prefecture","labelEnglish":"Nzérékoré Prefecture","labelLocal":"Nzérékoré Prefecture","labelBoth":"Nzérékoré Prefecture","type":"Prefecture","iso":"GN-NZ","qid":"Q1471203"},"geometry":{"type":"Polygon","coordinates":[[[-8.5674,7.6882],[-8.4297,8.217],[-8.5889,8.3492],[-8.9104,8.2981],[-9.0694,8.0532],[-8.8845,7.666],[-8.7276,7.622],[-8.5674,7.6882]]]}},{"type":"Feature","id":"label-GIN-5655","properties":{"kind":"division-label","code":"GIN-5655","countryCode":"GIN","name":"Nzérékoré Prefecture","localName":"Nzérékoré Prefecture","labelEnglish":"Nzérékoré Prefecture","labelLocal":"Nzérékoré Prefecture","labelBoth":"Nzérékoré Prefecture","type":"Prefecture","iso":"GN-NZ","qid":"Q1471203"},"geometry":{"type":"Point","coordinates":[-8.73838,8.05075]}},{"type":"Feature","id":"GIN-5639","properties":{"kind":"division","code":"GIN-5639","countryCode":"GIN","name":"Gaoual Prefecture","localName":"Gaoual Prefecture","labelEnglish":"Gaoual Prefecture","labelLocal":"Gaoual Prefecture","labelBoth":"Gaoual Prefecture","type":"Prefecture","iso":"GN-GA","qid":"Q614669"},"geometry":{"type":"Polygon","coordinates":[[[-13.6953,12.2925],[-13.9725,12.1516],[-13.7239,12.0028],[-13.7299,11.7098],[-14.0151,11.6371],[-13.8066,11.292],[-13.2642,11.331],[-13.2457,11.1424],[-12.9687,11.1685],[-12.9303,11.3854],[-12.7042,11.5662],[-12.8087,11.7222],[-12.8277,12.1542],[-13.0181,12.0169],[-13.3418,12.1049],[-13.4213,12.3089],[-13.6953,12.2925]]]}},{"type":"Feature","id":"label-GIN-5639","properties":{"kind":"division-label","code":"GIN-5639","countryCode":"GIN","name":"Gaoual Prefecture","localName":"Gaoual Prefecture","labelEnglish":"Gaoual Prefecture","labelLocal":"Gaoual Prefecture","labelBoth":"Gaoual Prefecture","type":"Prefecture","iso":"GN-GA","qid":"Q614669"},"geometry":{"type":"Point","coordinates":[-13.3943,11.7453]}},{"type":"Feature","id":"GIN-5629","properties":{"kind":"division","code":"GIN-5629","countryCode":"GIN","name":"Boké","localName":"Boké","labelEnglish":"Boké","labelLocal":"Boké","labelBoth":"Boké","type":"Prefecture","iso":"GN-BK","qid":"Q862611"},"geometry":{"type":"Polygon","coordinates":[[[-14.0151,11.6371],[-14.4323,11.5606],[-14.6868,11.5107],[-15.021,10.9675],[-14.8087,10.9396],[-14.7928,10.745],[-14.5356,10.5075],[-14.1445,10.6691],[-13.8601,10.8899],[-13.8066,11.292],[-14.0151,11.6371]]]}},{"type":"Feature","id":"label-GIN-5629","properties":{"kind":"division-label","code":"GIN-5629","countryCode":"GIN","name":"Boké","localName":"Boké","labelEnglish":"Boké","labelLocal":"Boké","labelBoth":"Boké","type":"Prefecture","iso":"GN-BK","qid":"Q862611"},"geometry":{"type":"Point","coordinates":[-14.3088,11.1674]}},{"type":"Feature","id":"GIN-5657","properties":{"kind":"division","code":"GIN-5657","countryCode":"GIN","name":"Siguiri Prefecture","localName":"Siguiri Prefecture","labelEnglish":"Siguiri Prefecture","labelLocal":"Siguiri Prefecture","labelBoth":"Siguiri Prefecture","type":"Prefecture","iso":"GN-SI","qid":"Q1780649"},"geometry":{"type":"Polygon","coordinates":[[[-9.0278,12.4048],[-9.3215,12.4966],[-9.3085,12.345],[-9.8888,12.0606],[-10.2077,11.8149],[-10.0295,11.3775],[-9.8748,11.3025],[-9.6886,10.8729],[-9.3431,10.8668],[-8.9224,11.1312],[-8.7265,11.6495],[-9.0278,12.4048]]]}},{"type":"Feature","id":"label-GIN-5657","properties":{"kind":"division-label","code":"GIN-5657","countryCode":"GIN","name":"Siguiri Prefecture","localName":"Siguiri Prefecture","labelEnglish":"Siguiri Prefecture","labelLocal":"Siguiri Prefecture","labelBoth":"Siguiri Prefecture","type":"Prefecture","iso":"GN-SI","qid":"Q1780649"},"geometry":{"type":"Point","coordinates":[-9.3936,11.5701]}},{"type":"Feature","id":"GIN-5645","properties":{"kind":"division","code":"GIN-5645","countryCode":"GIN","name":"Koubia Prefecture","localName":"Koubia Prefecture","labelEnglish":"Koubia Prefecture","labelLocal":"Koubia Prefecture","labelBoth":"Koubia Prefecture","type":"Prefecture","iso":"GN-KB","qid":"Q623409"},"geometry":{"type":"Polygon","coordinates":[[[-11.4708,12.1346],[-11.6264,11.7291],[-11.9565,11.6529],[-12.3175,11.7278],[-12.0555,11.291],[-12.0055,11.2866],[-11.353,11.666],[-11.3513,12.0404],[-11.4708,12.1346]]]}},{"type":"Feature","id":"label-GIN-5645","properties":{"kind":"division-label","code":"GIN-5645","countryCode":"GIN","name":"Koubia Prefecture","localName":"Koubia Prefecture","labelEnglish":"Koubia Prefecture","labelLocal":"Koubia Prefecture","labelBoth":"Koubia Prefecture","type":"Prefecture","iso":"GN-KB","qid":"Q623409"},"geometry":{"type":"Point","coordinates":[-11.7074,11.6162]}},{"type":"Feature","id":"GIN-5658","properties":{"kind":"division","code":"GIN-5658","countryCode":"GIN","name":"Tougué Prefecture","localName":"Tougué Prefecture","labelEnglish":"Tougué Prefecture","labelLocal":"Tougué Prefecture","labelBoth":"Tougué Prefecture","type":"Prefecture","iso":"GN-TO","qid":"Q1432094"},"geometry":{"type":"Polygon","coordinates":[[[-11.3513,12.0404],[-11.353,11.666],[-12.0055,11.2866],[-11.8131,11.0025],[-11.3062,11.3262],[-11.1459,11.4604],[-11.1846,12.0211],[-11.3513,12.0404]]]}},{"type":"Feature","id":"label-GIN-5658","properties":{"kind":"division-label","code":"GIN-5658","countryCode":"GIN","name":"Tougué Prefecture","localName":"Tougué Prefecture","labelEnglish":"Tougué Prefecture","labelLocal":"Tougué Prefecture","labelBoth":"Tougué Prefecture","type":"Prefecture","iso":"GN-TO","qid":"Q1432094"},"geometry":{"type":"Point","coordinates":[-11.4677,11.4503]}},{"type":"Feature","id":"GIN-5634","properties":{"kind":"division","code":"GIN-5634","countryCode":"GIN","name":"Dinguiraye Prefecture","localName":"Dinguiraye Prefecture","labelEnglish":"Dinguiraye Prefecture","labelLocal":"Dinguiraye Prefecture","labelBoth":"Dinguiraye Prefecture","type":"Prefecture","iso":"GN-DI","qid":"Q1226479"},"geometry":{"type":"Polygon","coordinates":[[[-9.8888,12.0606],[-10.2669,12.2178],[-10.5116,12.1181],[-10.7114,11.8904],[-10.9098,12.2001],[-11.1846,12.0211],[-11.1459,11.4604],[-11.3062,11.3262],[-11.4231,11.0642],[-11.0255,10.96],[-10.7031,11.1126],[-10.6954,11.2279],[-10.3749,11.1781],[-10.3215,11.4665],[-10.0295,11.3775],[-10.2077,11.8149],[-9.8888,12.0606]]]}},{"type":"Feature","id":"label-GIN-5634","properties":{"kind":"division-label","code":"GIN-5634","countryCode":"GIN","name":"Dinguiraye Prefecture","localName":"Dinguiraye Prefecture","labelEnglish":"Dinguiraye Prefecture","labelLocal":"Dinguiraye Prefecture","labelBoth":"Dinguiraye Prefecture","type":"Prefecture","iso":"GN-DI","qid":"Q1226479"},"geometry":{"type":"Point","coordinates":[-10.6749,11.5609]}},{"type":"Feature","id":"GIN-5628","properties":{"kind":"division","code":"GIN-5628","countryCode":"GIN","name":"Boffa Prefecture","localName":"Boffa Prefecture","labelEnglish":"Boffa Prefecture","labelLocal":"Boffa Prefecture","labelBoth":"Boffa Prefecture","type":"Prefecture","iso":"GN-BF","qid":"Q890340"},"geometry":{"type":"Polygon","coordinates":[[[-13.6904,9.9508],[-13.9134,10.1169],[-13.819,10.2961],[-13.6124,10.7148],[-14.1445,10.6691],[-14.5356,10.5075],[-14.4626,10.2252],[-13.7847,9.8502],[-13.6904,9.9508]]]}},{"type":"Feature","id":"label-GIN-5628","properties":{"kind":"division-label","code":"GIN-5628","countryCode":"GIN","name":"Boffa Prefecture","localName":"Boffa Prefecture","labelEnglish":"Boffa Prefecture","labelLocal":"Boffa Prefecture","labelBoth":"Boffa Prefecture","type":"Prefecture","iso":"GN-BF","qid":"Q890340"},"geometry":{"type":"Point","coordinates":[-14.0764,10.3994]}},{"type":"Feature","id":"GIN-5635","properties":{"kind":"division","code":"GIN-5635","countryCode":"GIN","name":"Dubréka Prefecture","localName":"Dubréka Prefecture","labelEnglish":"Dubréka Prefecture","labelLocal":"Dubréka Prefecture","labelBoth":"Dubréka Prefecture","type":"Prefecture","iso":"GN-DU","qid":"Q1263263"},"geometry":{"type":"Polygon","coordinates":[[[-13.6733,9.5738],[-13.6433,9.5425],[-13.5156,9.5245],[-13.4741,9.8994],[-13.2818,9.9986],[-13.1556,10.1097],[-13.1346,10.4042],[-13.2121,10.3972],[-13.4839,10.2392],[-13.819,10.2961],[-13.9134,10.1169],[-13.6904,9.9508],[-13.6733,9.5738]]]}},{"type":"Feature","id":"label-GIN-5635","properties":{"kind":"division-label","code":"GIN-5635","countryCode":"GIN","name":"Dubréka Prefecture","localName":"Dubréka Prefecture","labelEnglish":"Dubréka Prefecture","labelLocal":"Dubréka Prefecture","labelBoth":"Dubréka Prefecture","type":"Prefecture","iso":"GN-DU","qid":"Q1263263"},"geometry":{"type":"Point","coordinates":[-13.468,10.1137]}},{"type":"Feature","id":"GIN-5630","properties":{"kind":"division","code":"GIN-5630","countryCode":"GIN","name":"Conakry","localName":"Conakry","labelEnglish":"Conakry","labelLocal":"Conakry","labelBoth":"Conakry","type":"Administrative Zone","iso":"GN-C","qid":"Q3733"},"geometry":{"type":"Polygon","coordinates":[[[-13.6433,9.5425],[-13.6733,9.5738],[-13.7224,9.5058],[-13.6433,9.5425]]]}},{"type":"Feature","id":"label-GIN-5630","properties":{"kind":"division-label","code":"GIN-5630","countryCode":"GIN","name":"Conakry","localName":"Conakry","labelEnglish":"Conakry","labelLocal":"Conakry","labelBoth":"Conakry","type":"Administrative Zone","iso":"GN-C","qid":"Q3733"},"geometry":{"type":"Point","coordinates":[-13.6847,9.5392]}},{"type":"Feature","id":"GIN-5631","properties":{"kind":"division","code":"GIN-5631","countryCode":"GIN","name":"Coyah Prefecture","localName":"Coyah Prefecture","labelEnglish":"Coyah Prefecture","labelLocal":"Coyah Prefecture","labelBoth":"Coyah Prefecture","type":"Prefecture","iso":"GN-CO","qid":"Q616816"},"geometry":{"type":"Polygon","coordinates":[[[-13.4867,9.5691],[-13.0895,9.5629],[-13.2818,9.9986],[-13.4741,9.8994],[-13.5156,9.5245],[-13.4867,9.5691]]]}},{"type":"Feature","id":"label-GIN-5631","properties":{"kind":"division-label","code":"GIN-5631","countryCode":"GIN","name":"Coyah Prefecture","localName":"Coyah Prefecture","labelEnglish":"Coyah Prefecture","labelLocal":"Coyah Prefecture","labelBoth":"Coyah Prefecture","type":"Prefecture","iso":"GN-CO","qid":"Q616816"},"geometry":{"type":"Point","coordinates":[-13.3482,9.79103]}},{"type":"Feature","id":"GIN-5644","properties":{"kind":"division","code":"GIN-5644","countryCode":"GIN","name":"Kissidougou Prefecture","localName":"Kissidougou Prefecture","labelEnglish":"Kissidougou Prefecture","labelLocal":"Kissidougou Prefecture","labelBoth":"Kissidougou Prefecture","type":"Prefecture","iso":"GN-KS","qid":"Q1470920"},"geometry":{"type":"Polygon","coordinates":[[[-9.9552,9.669],[-10.4177,9.6117],[-10.4782,9.1852],[-10.2022,8.8723],[-9.77,8.9003],[-9.4217,8.9287],[-9.3361,9.0897],[-9.2212,9.4262],[-9.5495,9.459],[-9.9552,9.669]]]}},{"type":"Feature","id":"label-GIN-5644","properties":{"kind":"division-label","code":"GIN-5644","countryCode":"GIN","name":"Kissidougou Prefecture","localName":"Kissidougou Prefecture","labelEnglish":"Kissidougou Prefecture","labelLocal":"Kissidougou Prefecture","labelBoth":"Kissidougou Prefecture","type":"Prefecture","iso":"GN-KS","qid":"Q1470920"},"geometry":{"type":"Point","coordinates":[-9.89138,9.25638]}},{"type":"Feature","id":"GIN-5642","properties":{"kind":"division","code":"GIN-5642","countryCode":"GIN","name":"Kérouané Prefecture","localName":"Kérouané Prefecture","labelEnglish":"Kérouané Prefecture","labelLocal":"Kérouané Prefecture","labelBoth":"Kérouané Prefecture","type":"Prefecture","iso":"GN-KE","qid":"Q962654"},"geometry":{"type":"Polygon","coordinates":[[[-9.3361,9.0897],[-9.2398,8.9192],[-8.9691,8.9619],[-8.728,9.0721],[-8.4791,9.3808],[-8.5709,9.626],[-9.0246,9.7312],[-9.2212,9.4262],[-9.3361,9.0897]]]}},{"type":"Feature","id":"label-GIN-5642","properties":{"kind":"division-label","code":"GIN-5642","countryCode":"GIN","name":"Kérouané Prefecture","localName":"Kérouané Prefecture","labelEnglish":"Kérouané Prefecture","labelLocal":"Kérouané Prefecture","labelBoth":"Kérouané Prefecture","type":"Prefecture","iso":"GN-KE","qid":"Q962654"},"geometry":{"type":"Point","coordinates":[-8.90504,9.33012]}},{"type":"Feature","id":"GIN-5660","properties":{"kind":"division","code":"GIN-5660","countryCode":"GIN","name":"Télimélé Prefecture","localName":"Télimélé Prefecture","labelEnglish":"Télimélé Prefecture","labelLocal":"Télimélé Prefecture","labelBoth":"Télimélé Prefecture","type":"Prefecture","iso":"GN-TE","qid":"Q922545"},"geometry":{"type":"Polygon","coordinates":[[[-12.9687,11.1685],[-13.2457,11.1424],[-13.2642,11.331],[-13.8066,11.292],[-13.8601,10.8899],[-14.1445,10.6691],[-13.6124,10.7148],[-13.2089,10.5964],[-13.2121,10.3972],[-13.1346,10.4042],[-12.896,10.4699],[-12.9612,10.813],[-12.8749,10.9861],[-12.9687,11.1685]]]}},{"type":"Feature","id":"label-GIN-5660","properties":{"kind":"division-label","code":"GIN-5660","countryCode":"GIN","name":"Télimélé Prefecture","localName":"Télimélé Prefecture","labelEnglish":"Télimélé Prefecture","labelLocal":"Télimélé Prefecture","labelBoth":"Télimélé Prefecture","type":"Prefecture","iso":"GN-TE","qid":"Q922545"},"geometry":{"type":"Point","coordinates":[-13.3113,10.9156]}},{"type":"Feature","id":"GIN-5649","properties":{"kind":"division","code":"GIN-5649","countryCode":"GIN","name":"Lélouma Prefecture","localName":"Lélouma Prefecture","labelEnglish":"Lélouma Prefecture","labelLocal":"Lélouma Prefecture","labelBoth":"Lélouma Prefecture","type":"Prefecture","iso":"GN-LE","qid":"Q253661"},"geometry":{"type":"Polygon","coordinates":[[[-12.8749,10.9861],[-12.6483,11.3135],[-12.5257,11.2992],[-12.5006,11.7257],[-12.8087,11.7222],[-12.7042,11.5662],[-12.9303,11.3854],[-12.9687,11.1685],[-12.8749,10.9861]]]}},{"type":"Feature","id":"label-GIN-5649","properties":{"kind":"division-label","code":"GIN-5649","countryCode":"GIN","name":"Lélouma Prefecture","localName":"Lélouma Prefecture","labelEnglish":"Lélouma Prefecture","labelLocal":"Lélouma Prefecture","labelBoth":"Lélouma Prefecture","type":"Prefecture","iso":"GN-LE","qid":"Q253661"},"geometry":{"type":"Point","coordinates":[-12.6338,11.4687]}},{"type":"Feature","id":"GIN-5633","properties":{"kind":"division","code":"GIN-5633","countryCode":"GIN","name":"Dalaba Prefecture","localName":"Dalaba Prefecture","labelEnglish":"Dalaba Prefecture","labelLocal":"Dalaba Prefecture","labelBoth":"Dalaba Prefecture","type":"Prefecture","iso":"GN-DL","qid":"Q623302"},"geometry":{"type":"Polygon","coordinates":[[[-12.0055,11.2866],[-12.0555,11.291],[-12.1218,11.293],[-12.1341,11.0321],[-12.3835,10.954],[-12.6179,10.7317],[-12.6495,10.5287],[-12.4151,10.4912],[-12.029,10.7617],[-11.8217,10.8038],[-11.8131,11.0025],[-12.0055,11.2866]]]}},{"type":"Feature","id":"label-GIN-5633","properties":{"kind":"division-label","code":"GIN-5633","countryCode":"GIN","name":"Dalaba Prefecture","localName":"Dalaba Prefecture","labelEnglish":"Dalaba Prefecture","labelLocal":"Dalaba Prefecture","labelBoth":"Dalaba Prefecture","type":"Prefecture","iso":"GN-DL","qid":"Q623302"},"geometry":{"type":"Point","coordinates":[-12.2144,10.8327]}},{"type":"Feature","id":"GIN-5648","properties":{"kind":"division","code":"GIN-5648","countryCode":"GIN","name":"Labé Prefecture","localName":"Labé Prefecture","labelEnglish":"Labé Prefecture","labelLocal":"Labé Prefecture","labelBoth":"Labé Prefecture","type":"Prefecture","iso":"GN-LA","qid":"Q1781303"},"geometry":{"type":"Polygon","coordinates":[[[-12.1218,11.293],[-12.0555,11.291],[-12.3175,11.7278],[-12.5006,11.7257],[-12.5257,11.2992],[-12.4163,11.1484],[-12.1218,11.293]]]}},{"type":"Feature","id":"label-GIN-5648","properties":{"kind":"division-label","code":"GIN-5648","countryCode":"GIN","name":"Labé Prefecture","localName":"Labé Prefecture","labelEnglish":"Labé Prefecture","labelLocal":"Labé Prefecture","labelBoth":"Labé Prefecture","type":"Prefecture","iso":"GN-LA","qid":"Q1781303"},"geometry":{"type":"Point","coordinates":[-12.3404,11.515]}},{"type":"Feature","id":"GIN-5656","properties":{"kind":"division","code":"GIN-5656","countryCode":"GIN","name":"Pita Prefecture","localName":"Pita Prefecture","labelEnglish":"Pita Prefecture","labelLocal":"Pita Prefecture","labelBoth":"Pita Prefecture","type":"Prefecture","iso":"GN-PI","qid":"Q736507"},"geometry":{"type":"Polygon","coordinates":[[[-12.1218,11.293],[-12.4163,11.1484],[-12.5257,11.2992],[-12.6483,11.3135],[-12.8749,10.9861],[-12.9612,10.813],[-12.896,10.4699],[-12.6495,10.5287],[-12.6179,10.7317],[-12.3835,10.954],[-12.1341,11.0321],[-12.1218,11.293]]]}},{"type":"Feature","id":"label-GIN-5656","properties":{"kind":"division-label","code":"GIN-5656","countryCode":"GIN","name":"Pita Prefecture","localName":"Pita Prefecture","labelEnglish":"Pita Prefecture","labelLocal":"Pita Prefecture","labelBoth":"Pita Prefecture","type":"Prefecture","iso":"GN-PI","qid":"Q736507"},"geometry":{"type":"Point","coordinates":[-12.62,10.9341]}},{"type":"Feature","id":"GIN-5647","properties":{"kind":"division","code":"GIN-5647","countryCode":"GIN","name":"Kouroussa Prefecture","localName":"Kouroussa Prefecture","labelEnglish":"Kouroussa Prefecture","labelLocal":"Kouroussa Prefecture","labelBoth":"Kouroussa Prefecture","type":"Prefecture","iso":"GN-KO","qid":"Q1471573"},"geometry":{"type":"Polygon","coordinates":[[[-9.9552,9.669],[-9.7006,9.9024],[-9.6675,10.4372],[-9.3731,10.7497],[-9.3431,10.8668],[-9.6886,10.8729],[-9.8748,11.3025],[-10.0295,11.3775],[-10.3215,11.4665],[-10.3749,11.1781],[-10.6954,11.2279],[-10.7031,11.1126],[-10.8906,10.8714],[-10.5981,10.6621],[-10.1374,10.3989],[-10.3538,9.9991],[-10.4177,9.6117],[-9.9552,9.669]]]}},{"type":"Feature","id":"label-GIN-5647","properties":{"kind":"division-label","code":"GIN-5647","countryCode":"GIN","name":"Kouroussa Prefecture","localName":"Kouroussa Prefecture","labelEnglish":"Kouroussa Prefecture","labelLocal":"Kouroussa Prefecture","labelBoth":"Kouroussa Prefecture","type":"Prefecture","iso":"GN-KO","qid":"Q1471573"},"geometry":{"type":"Point","coordinates":[-10.0204,10.7221]}},{"type":"Feature","id":"GIN-5638","properties":{"kind":"division","code":"GIN-5638","countryCode":"GIN","name":"Fria Prefecture","localName":"Fria Prefecture","labelEnglish":"Fria Prefecture","labelLocal":"Fria Prefecture","labelBoth":"Fria Prefecture","type":"Prefecture","iso":"GN-FR","qid":"Q1456055"},"geometry":{"type":"Polygon","coordinates":[[[-13.6124,10.7148],[-13.819,10.2961],[-13.4839,10.2392],[-13.2121,10.3972],[-13.2089,10.5964],[-13.6124,10.7148]]]}},{"type":"Feature","id":"label-GIN-5638","properties":{"kind":"division-label","code":"GIN-5638","countryCode":"GIN","name":"Fria Prefecture","localName":"Fria Prefecture","labelEnglish":"Fria Prefecture","labelLocal":"Fria Prefecture","labelBoth":"Fria Prefecture","type":"Prefecture","iso":"GN-FR","qid":"Q1456055"},"geometry":{"type":"Point","coordinates":[-13.4957,10.4732]}}]}