{"type":"FeatureCollection","features":[{"type":"Feature","id":"GMB-2151","properties":{"kind":"division","code":"GMB-2151","countryCode":"GMB","name":"Central River","localName":"Central River","labelEnglish":"Central River","labelLocal":"Central River","labelBoth":"Central River","type":"Division","iso":"GM-M","qid":"Q824431"},"geometry":{"type":"Polygon","coordinates":[[[-14.8603,13.7656],[-15.3941,13.7715],[-15.498,13.6415],[-15.3019,13.4962],[-15.3,13.4962],[-15.1813,13.5598],[-14.5521,13.3231],[-14.4621,13.5167],[-14.8603,13.7656]]]}},{"type":"Feature","id":"label-GMB-2151","properties":{"kind":"division-label","code":"GMB-2151","countryCode":"GMB","name":"Central River","localName":"Central River","labelEnglish":"Central River","labelLocal":"Central River","labelBoth":"Central River","type":"Division","iso":"GM-M","qid":"Q824431"},"geometry":{"type":"Point","coordinates":[-14.9804,13.637]}},{"type":"Feature","id":"GMB-5513","properties":{"kind":"division","code":"GMB-5513","countryCode":"GMB","name":"North Bank","localName":"North Bank","labelEnglish":"North Bank","labelLocal":"North Bank","labelBoth":"North Bank","type":"Division","iso":"GM-N","qid":"Q846161"},"geometry":{"type":"Polygon","coordinates":[[[-15.498,13.6415],[-16.0854,13.5852],[-16.5614,13.5869],[-16.5218,13.359],[-16.1416,13.4546],[-15.5561,13.5283],[-15.3019,13.4962],[-15.498,13.6415]]]}},{"type":"Feature","id":"label-GMB-5513","properties":{"kind":"division-label","code":"GMB-5513","countryCode":"GMB","name":"North Bank","localName":"North Bank","labelEnglish":"North Bank","labelLocal":"North Bank","labelBoth":"North Bank","type":"Division","iso":"GM-N","qid":"Q846161"},"geometry":{"type":"Point","coordinates":[-15.9799,13.5236]}},{"type":"Feature","id":"GMB-2152","properties":{"kind":"division","code":"GMB-2152","countryCode":"GMB","name":"Upper River","localName":"Upper River","labelEnglish":"Upper River","labelLocal":"Upper River","labelBoth":"Upper River","type":"Division","iso":"GM-U","qid":"Q824373"},"geometry":{"type":"Polygon","coordinates":[[[-14.4621,13.5167],[-14.5521,13.3231],[-14.2017,13.2296],[-13.851,13.3358],[-13.8825,13.5038],[-13.9885,13.5791],[-14.3473,13.4524],[-14.4621,13.5167]]]}},{"type":"Feature","id":"label-GMB-2152","properties":{"kind":"division-label","code":"GMB-2152","countryCode":"GMB","name":"Upper River","localName":"Upper River","labelEnglish":"Upper River","labelLocal":"Upper River","labelBoth":"Upper River","type":"Division","iso":"GM-U","qid":"Q824373"},"geometry":{"type":"Point","coordinates":[-14.1857,13.3797]}},{"type":"Feature","id":"GMB-2154","properties":{"kind":"division","code":"GMB-2154","countryCode":"GMB","name":"Lower River","localName":"Lower River","labelEnglish":"Lower River","labelLocal":"Lower River","labelBoth":"Lower River","type":"Division","iso":"GM-L","qid":"Q824421"},"geometry":{"type":"Polygon","coordinates":[[[-15.1813,13.5598],[-15.3,13.4962],[-16.1612,13.4287],[-16.1513,13.2839],[-15.8244,13.2485],[-15.8071,13.3398],[-15.3424,13.3626],[-15.1813,13.5598]]]}},{"type":"Feature","id":"label-GMB-2154","properties":{"kind":"division-label","code":"GMB-2154","countryCode":"GMB","name":"Lower River","localName":"Lower River","labelEnglish":"Lower River","labelLocal":"Lower River","labelBoth":"Lower River","type":"Division","iso":"GM-L","qid":"Q824421"},"geometry":{"type":"Point","coordinates":[-15.7046,13.4062]}},{"type":"Feature","id":"GMB-5512","properties":{"kind":"division","code":"GMB-5512","countryCode":"GMB","name":"West Coast","localName":"West Coast","labelEnglish":"West Coast","labelLocal":"West Coast","labelBoth":"West Coast","type":"Division","iso":"GM-W","qid":"Q846158"},"geometry":{"type":"Polygon","coordinates":[[[-15.8244,13.2485],[-16.1513,13.2839],[-16.5458,13.2901],[-16.5955,13.3851],[-16.7629,13.405],[-16.7537,13.065],[-16.6735,13.1643],[-15.8974,13.1574],[-15.8244,13.2485]]]}},{"type":"Feature","id":"label-GMB-5512","properties":{"kind":"division-label","code":"GMB-5512","countryCode":"GMB","name":"West Coast","localName":"West Coast","labelEnglish":"West Coast","labelLocal":"West Coast","labelBoth":"West Coast","type":"Division","iso":"GM-W","qid":"Q846158"},"geometry":{"type":"Point","coordinates":[-16.3138,13.2212]}},{"type":"Feature","id":"GMB-2153","properties":{"kind":"division","code":"GMB-2153","countryCode":"GMB","name":"Banjul","localName":"Banjul","labelEnglish":"Banjul","labelLocal":"Banjul","labelBoth":"Banjul","type":"Independent City","iso":"GM-B","qid":"Q3726"},"geometry":{"type":"Polygon","coordinates":[[[-16.7629,13.405],[-16.5955,13.3851],[-16.6788,13.4962],[-16.7629,13.405]]]}},{"type":"Feature","id":"label-GMB-2153","properties":{"kind":"division-label","code":"GMB-2153","countryCode":"GMB","name":"Banjul","localName":"Banjul","labelEnglish":"Banjul","labelLocal":"Banjul","labelBoth":"Banjul","type":"Independent City","iso":"GM-B","qid":"Q3726"},"geometry":{"type":"Point","coordinates":[-16.6831,13.4063]}}]}