{"type":"FeatureCollection","features":[{"type":"Feature","id":"GNB-777","properties":{"kind":"division","code":"GNB-777","countryCode":"GNB","name":"Gabú","localName":"Gabú","labelEnglish":"Gabú","labelLocal":"Gabú","labelBoth":"Gabú","type":"Region","iso":"GW-GA","qid":"Q872212"},"geometry":{"type":"Polygon","coordinates":[[[-13.6953,12.2925],[-13.7283,12.6734],[-14.3431,12.6759],[-14.5548,12.362],[-14.4612,11.7356],[-14.5071,11.6416],[-14.4323,11.5606],[-14.0151,11.6371],[-13.7299,11.7098],[-13.7239,12.0028],[-13.9725,12.1516],[-13.6953,12.2925]]]}},{"type":"Feature","id":"label-GNB-777","properties":{"kind":"division-label","code":"GNB-777","countryCode":"GNB","name":"Gabú","localName":"Gabú","labelEnglish":"Gabú","labelLocal":"Gabú","labelBoth":"Gabú","type":"Region","iso":"GW-GA","qid":"Q872212"},"geometry":{"type":"Point","coordinates":[-14.1098,12.1569]}},{"type":"Feature","id":"GNB-778","properties":{"kind":"division","code":"GNB-778","countryCode":"GNB","name":"Tombali","localName":"Tombali","labelEnglish":"Tombali","labelLocal":"Tombali","labelBoth":"Tombali","type":"Region","iso":"GW-TO","qid":"Q1047255"},"geometry":{"type":"Polygon","coordinates":[[[-14.4323,11.5606],[-14.5071,11.6416],[-14.8298,11.6986],[-14.9556,11.4481],[-15.2732,11.42],[-15.4095,11.1896],[-15.2301,10.9948],[-15.021,10.9675],[-14.6868,11.5107],[-14.4323,11.5606]]]}},{"type":"Feature","id":"label-GNB-778","properties":{"kind":"division-label","code":"GNB-778","countryCode":"GNB","name":"Tombali","localName":"Tombali","labelEnglish":"Tombali","labelLocal":"Tombali","labelBoth":"Tombali","type":"Region","iso":"GW-TO","qid":"Q1047255"},"geometry":{"type":"Point","coordinates":[-14.9293,11.2932]}},{"type":"Feature","id":"GNB-776","properties":{"kind":"division","code":"GNB-776","countryCode":"GNB","name":"Bafatá","localName":"Bafatá","labelEnglish":"Bafatá","labelLocal":"Bafatá","labelBoth":"Bafatá","type":"Region","iso":"GW-BA","qid":"Q799791"},"geometry":{"type":"Polygon","coordinates":[[[-14.8722,12.6781],[-15.0399,12.2116],[-14.9938,11.9576],[-14.9254,11.7694],[-14.8298,11.6986],[-14.5071,11.6416],[-14.4612,11.7356],[-14.5548,12.362],[-14.3431,12.6759],[-14.8722,12.6781]]]}},{"type":"Feature","id":"label-GNB-776","properties":{"kind":"division-label","code":"GNB-776","countryCode":"GNB","name":"Bafatá","localName":"Bafatá","labelEnglish":"Bafatá","labelLocal":"Bafatá","labelBoth":"Bafatá","type":"Region","iso":"GW-BA","qid":"Q799791"},"geometry":{"type":"Point","coordinates":[-14.707,12.1429]}},{"type":"Feature","id":"GNB-772","properties":{"kind":"division","code":"GNB-772","countryCode":"GNB","name":"Oio","localName":"Oio","labelEnglish":"Oio","labelLocal":"Oio","labelBoth":"Oio","type":"Region","iso":"GW-OI","qid":"Q853991"},"geometry":{"type":"Polygon","coordinates":[[[-15.1462,12.6792],[-15.4217,12.5571],[-15.411,12.4113],[-15.7527,12.2464],[-15.6658,12.0315],[-15.6241,11.9659],[-15.5456,11.8981],[-14.9938,11.9576],[-15.0399,12.2116],[-14.8722,12.6781],[-15.1462,12.6792]]]}},{"type":"Feature","id":"label-GNB-772","properties":{"kind":"division-label","code":"GNB-772","countryCode":"GNB","name":"Oio","localName":"Oio","labelEnglish":"Oio","labelLocal":"Oio","labelBoth":"Oio","type":"Region","iso":"GW-OI","qid":"Q853991"},"geometry":{"type":"Point","coordinates":[-15.3013,12.2794]}},{"type":"Feature","id":"GNB-771","properties":{"kind":"division","code":"GNB-771","countryCode":"GNB","name":"Cacheu","localName":"Cacheu","labelEnglish":"Cacheu","labelLocal":"Cacheu","labelBoth":"Cacheu","type":"Region","iso":"GW-CA","qid":"Q780838"},"geometry":{"type":"Polygon","coordinates":[[[-15.4217,12.5571],[-15.884,12.4422],[-16.2329,12.4529],[-16.7284,12.3325],[-16.1343,11.8889],[-15.7063,12.0083],[-15.6658,12.0315],[-15.7527,12.2464],[-15.411,12.4113],[-15.4217,12.5571]]]}},{"type":"Feature","id":"label-GNB-771","properties":{"kind":"division-label","code":"GNB-771","countryCode":"GNB","name":"Cacheu","localName":"Cacheu","labelEnglish":"Cacheu","labelLocal":"Cacheu","labelBoth":"Cacheu","type":"Region","iso":"GW-CA","qid":"Q780838"},"geometry":{"type":"Point","coordinates":[-16.0628,12.19]}},{"type":"Feature","id":"GNB-5500","properties":{"kind":"division","code":"GNB-5500","countryCode":"GNB","name":"Biombo","localName":"Biombo","labelEnglish":"Biombo","labelLocal":"Biombo","labelBoth":"Biombo","type":"Region","iso":"GW-BM","qid":"Q872228"},"geometry":{"type":"Polygon","coordinates":[[[-15.6768,11.8048],[-15.6241,11.9659],[-15.6658,12.0315],[-15.7063,12.0083],[-15.959,11.7348],[-15.6768,11.8048]]]}},{"type":"Feature","id":"label-GNB-5500","properties":{"kind":"division-label","code":"GNB-5500","countryCode":"GNB","name":"Biombo","localName":"Biombo","labelEnglish":"Biombo","labelLocal":"Biombo","labelBoth":"Biombo","type":"Region","iso":"GW-BM","qid":"Q872228"},"geometry":{"type":"Point","coordinates":[-15.7839,11.8108]}},{"type":"Feature","id":"GNB-769","properties":{"kind":"division","code":"GNB-769","countryCode":"GNB","name":"Bissau","localName":"Bissau","labelEnglish":"Bissau","labelLocal":"Bissau","labelBoth":"Bissau","type":"Autonomous Sector","iso":"GW-BS","qid":"Q3739"},"geometry":{"type":"Polygon","coordinates":[[[-15.5456,11.8981],[-15.6241,11.9659],[-15.6768,11.8048],[-15.5456,11.8981]]]}},{"type":"Feature","id":"label-GNB-769","properties":{"kind":"division-label","code":"GNB-769","countryCode":"GNB","name":"Bissau","localName":"Bissau","labelEnglish":"Bissau","labelLocal":"Bissau","labelBoth":"Bissau","type":"Autonomous Sector","iso":"GW-BS","qid":"Q3739"},"geometry":{"type":"Point","coordinates":[-15.6119,11.8919]}},{"type":"Feature","id":"GNB-773","properties":{"kind":"division","code":"GNB-773","countryCode":"GNB","name":"Quinara","localName":"Quinara","labelEnglish":"Quinara","labelLocal":"Quinara","labelBoth":"Quinara","type":"Region","iso":"GW-QU","qid":"Q862617"},"geometry":{"type":"Polygon","coordinates":[[[-15.4276,11.6804],[-15.3414,11.6828],[-15.5071,11.3579],[-15.2732,11.42],[-14.9556,11.4481],[-14.8298,11.6986],[-14.9254,11.7694],[-15.4387,11.8854],[-15.4276,11.6804]]]}},{"type":"Feature","id":"label-GNB-773","properties":{"kind":"division-label","code":"GNB-773","countryCode":"GNB","name":"Quinara","localName":"Quinara","labelEnglish":"Quinara","labelLocal":"Quinara","labelBoth":"Quinara","type":"Region","iso":"GW-QU","qid":"Q862617"},"geometry":{"type":"Point","coordinates":[-15.1905,11.5576]}},{"type":"Feature","id":"GNB-770","properties":{"kind":"division","code":"GNB-770","countryCode":"GNB","name":"Bolama","localName":"Bolama","labelEnglish":"Bolama","labelLocal":"Bolama","labelBoth":"Bolama","type":"Region","iso":"GW-BL","qid":"Q151909"},"geometry":{"type":"Polygon","coordinates":[[[-16.0489,11.1183],[-16.1383,11.1866],[-16.2131,11.0556],[-16.0489,11.1183]]]}},{"type":"Feature","id":"label-GNB-770","properties":{"kind":"division-label","code":"GNB-770","countryCode":"GNB","name":"Bolama","localName":"Bolama","labelEnglish":"Bolama","labelLocal":"Bolama","labelBoth":"Bolama","type":"Region","iso":"GW-BL","qid":"Q151909"},"geometry":{"type":"Point","coordinates":[-15.962,11.5187]}}]}