{"type":"FeatureCollection","features":[{"type":"Feature","id":"GNQ-1470","properties":{"kind":"division","code":"GNQ-1470","countryCode":"GNQ","name":"Litoral","localName":"Litoral","labelEnglish":"Litoral","labelLocal":"Litoral","labelBoth":"Litoral","type":"Province","iso":"GQ-LI","qid":"Q203873"},"geometry":{"type":"Polygon","coordinates":[[[9.7996,2.3417],[9.7991,1.9011],[9.3467,1.1817],[9.8044,0.9984],[10.0004,0.9997],[10.2729,1.1271],[10.1157,1.4817],[9.9298,1.558],[10.1061,1.8174],[10.19,2.1656],[9.991,2.1656],[9.7996,2.3417]]]}},{"type":"Feature","id":"label-GNQ-1470","properties":{"kind":"division-label","code":"GNQ-1470","countryCode":"GNQ","name":"Litoral","localName":"Litoral","labelEnglish":"Litoral","labelLocal":"Litoral","labelBoth":"Litoral","type":"Province","iso":"GQ-LI","qid":"Q203873"},"geometry":{"type":"Point","coordinates":[9.7992,1.30717]}},{"type":"Feature","id":"GNQ-1469","properties":{"kind":"division","code":"GNQ-1469","countryCode":"GNQ","name":"Kié-Ntem","localName":"Kié-Ntem","labelEnglish":"Kié-Ntem","labelLocal":"Kié-Ntem","labelBoth":"Kié-Ntem","type":"Province","iso":"GQ-KN","qid":"Q853393"},"geometry":{"type":"Polygon","coordinates":[[[10.4097,2.1657],[10.5174,1.9149],[10.9591,1.9495],[11.0353,1.732],[11.332,1.7326],[11.3221,2.1658],[10.4097,2.1657]]]}},{"type":"Feature","id":"label-GNQ-1469","properties":{"kind":"division-label","code":"GNQ-1469","countryCode":"GNQ","name":"Kié-Ntem","localName":"Kié-Ntem","labelEnglish":"Kié-Ntem","labelLocal":"Kié-Ntem","labelBoth":"Kié-Ntem","type":"Province","iso":"GQ-KN","qid":"Q853393"},"geometry":{"type":"Point","coordinates":[10.8707,2.04853]}},{"type":"Feature","id":"GNQ-1468","properties":{"kind":"division","code":"GNQ-1468","countryCode":"GNQ","name":"Centro Sur","localName":"Centro Sur","labelEnglish":"Centro Sur","labelLocal":"Centro Sur","labelBoth":"Centro Sur","type":"Province","iso":"GQ-CS","qid":"Q845823"},"geometry":{"type":"Polygon","coordinates":[[[10.19,2.1656],[10.1061,1.8174],[9.9298,1.558],[10.1157,1.4817],[10.2729,1.1271],[10.0004,0.9997],[10.415,1.0022],[10.9638,1.0004],[10.7772,1.3222],[10.9748,1.5563],[10.5749,1.5872],[10.5174,1.9149],[10.4097,2.1657],[10.19,2.1656]]]}},{"type":"Feature","id":"label-GNQ-1468","properties":{"kind":"division-label","code":"GNQ-1468","countryCode":"GNQ","name":"Centro Sur","localName":"Centro Sur","labelEnglish":"Centro Sur","labelLocal":"Centro Sur","labelBoth":"Centro Sur","type":"Province","iso":"GQ-CS","qid":"Q845823"},"geometry":{"type":"Point","coordinates":[10.4494,1.46235]}},{"type":"Feature","id":"GNQ-1471","properties":{"kind":"division","code":"GNQ-1471","countryCode":"GNQ","name":"Wele-Nzas","localName":"Wele-Nzas","labelEnglish":"Wele-Nzas","labelLocal":"Wele-Nzas","labelBoth":"Wele-Nzas","type":"Province","iso":"GQ-WN","qid":"Q853400"},"geometry":{"type":"Polygon","coordinates":[[[11.332,1.7326],[11.0353,1.732],[10.9591,1.9495],[10.5174,1.9149],[10.5749,1.5872],[10.9748,1.5563],[10.7772,1.3222],[10.9638,1.0004],[11.3363,0.9992],[11.332,1.7326]]]}},{"type":"Feature","id":"label-GNQ-1471","properties":{"kind":"division-label","code":"GNQ-1471","countryCode":"GNQ","name":"Wele-Nzas","localName":"Wele-Nzas","labelEnglish":"Wele-Nzas","labelLocal":"Wele-Nzas","labelBoth":"Wele-Nzas","type":"Province","iso":"GQ-WN","qid":"Q853400"},"geometry":{"type":"Point","coordinates":[10.9267,1.33965]}},{"type":"Feature","id":"GNQ-1467","properties":{"kind":"division","code":"GNQ-1467","countryCode":"GNQ","name":"Annobón","localName":"Annobón","labelEnglish":"Annobón","labelLocal":"Annobón","labelBoth":"Annobón","type":"Province","iso":"GQ-AN","qid":"Q3736616"},"geometry":{"type":"Polygon","coordinates":[[[5.6262,-1.4562],[5.6463,-1.4384],[5.6331,-1.4158],[5.6262,-1.4562]]]}},{"type":"Feature","id":"label-GNQ-1467","properties":{"kind":"division-label","code":"GNQ-1467","countryCode":"GNQ","name":"Annobón","localName":"Annobón","labelEnglish":"Annobón","labelLocal":"Annobón","labelBoth":"Annobón","type":"Province","iso":"GQ-AN","qid":"Q3736616"},"geometry":{"type":"Point","coordinates":[5.62933,-1.44699]}},{"type":"Feature","id":"GNQ-1478","properties":{"kind":"division","code":"GNQ-1478","countryCode":"GNQ","name":"Bioko Norte","localName":"Bioko Norte","labelEnglish":"Bioko Norte","labelLocal":"Bioko Norte","labelBoth":"Bioko Norte","type":"Province","iso":"GQ-BN","qid":"Q845834"},"geometry":{"type":"Polygon","coordinates":[[[8.6268,3.6331],[8.8635,3.5151],[8.9085,3.7582],[8.6268,3.6331]]]}},{"type":"Feature","id":"label-GNQ-1478","properties":{"kind":"division-label","code":"GNQ-1478","countryCode":"GNQ","name":"Bioko Norte","localName":"Bioko Norte","labelEnglish":"Bioko Norte","labelLocal":"Bioko Norte","labelBoth":"Bioko Norte","type":"Province","iso":"GQ-BN","qid":"Q845834"},"geometry":{"type":"Point","coordinates":[8.79508,3.66783]}},{"type":"Feature","id":"GNQ-1479","properties":{"kind":"division","code":"GNQ-1479","countryCode":"GNQ","name":"Bioko Sur","localName":"Bioko Sur","labelEnglish":"Bioko Sur","labelLocal":"Bioko Sur","labelBoth":"Bioko Sur","type":"Province","iso":"GQ-BS","qid":"Q845817"},"geometry":{"type":"Polygon","coordinates":[[[8.8635,3.5151],[8.6268,3.6331],[8.4694,3.258],[8.6862,3.1973],[8.8635,3.5151]]]}},{"type":"Feature","id":"label-GNQ-1479","properties":{"kind":"division-label","code":"GNQ-1479","countryCode":"GNQ","name":"Bioko Sur","localName":"Bioko Sur","labelEnglish":"Bioko Sur","labelLocal":"Bioko Sur","labelBoth":"Bioko Sur","type":"Province","iso":"GQ-BS","qid":"Q845817"},"geometry":{"type":"Point","coordinates":[8.64291,3.42557]}}]}