{"type":"FeatureCollection","features":[{"type":"Feature","id":"GRC-2892","properties":{"kind":"division","code":"GRC-2892","countryCode":"GRC","name":"West Macedonia","localName":"Δυτικής Μακεδονίας","labelEnglish":"West Macedonia","labelLocal":"Δυτικής Μακεδονίας","labelBoth":"West Macedonia · Δυτικής Μακεδονίας","type":"Region","iso":"GR-C","qid":"Q165408"},"geometry":{"type":"Polygon","coordinates":[[[20.9653,40.8494],[21.0367,40.6397],[20.7396,40.3092],[20.8439,40.3266],[21.0949,39.8277],[21.2912,39.8048],[21.8762,39.8329],[22.0948,40.1674],[22.1711,40.2812],[21.7458,40.6733],[21.7571,40.9225],[21.5057,40.9009],[21.2458,40.8632],[20.9653,40.8494]]]}},{"type":"Feature","id":"label-GRC-2892","properties":{"kind":"division-label","code":"GRC-2892","countryCode":"GRC","name":"West Macedonia","localName":"Δυτικής Μακεδονίας","labelEnglish":"West Macedonia","labelLocal":"Δυτικής Μακεδονίας","labelBoth":"West Macedonia · Δυτικής Μακεδονίας","type":"Region","iso":"GR-C","qid":"Q165408"},"geometry":{"type":"Point","coordinates":[21.4551,40.3834]}},{"type":"Feature","id":"GRC-2949","properties":{"kind":"division","code":"GRC-2949","countryCode":"GRC","name":"Epirus","localName":"Ήπειρος","labelEnglish":"Epirus","labelLocal":"Ήπειρος","labelBoth":"Epirus · Ήπειρος","type":"Region","iso":"GR-D","qid":"Q180484"},"geometry":{"type":"Polygon","coordinates":[[[20.6154,40.081],[20.31,39.9899],[20.2996,39.8051],[19.9998,39.6935],[20.3656,39.2877],[20.6865,39.0725],[21.0603,39.039],[21.3623,39.1539],[21.1104,39.6592],[21.2912,39.8048],[21.0949,39.8277],[20.8439,40.3266],[20.7396,40.3092],[20.6154,40.081]]]}},{"type":"Feature","id":"label-GRC-2949","properties":{"kind":"division-label","code":"GRC-2949","countryCode":"GRC","name":"Epirus","localName":"Ήπειρος","labelEnglish":"Epirus","labelLocal":"Ήπειρος","labelBoth":"Epirus · Ήπειρος","type":"Region","iso":"GR-D","qid":"Q180484"},"geometry":{"type":"Point","coordinates":[20.6925,39.6365]}},{"type":"Feature","id":"GRC-2991","properties":{"kind":"division","code":"GRC-2991","countryCode":"GRC","name":"Centre Macedonia","localName":"Κεντρική Μακεδονία","labelEnglish":"Centre Macedonia","labelLocal":"Κεντρική Μακεδονία","labelBoth":"Centre Macedonia · Κεντρική Μακεδονία","type":"Region","iso":"GR-B","qid":"Q17152"},"geometry":{"type":"Polygon","coordinates":[[[22.917,41.3358],[22.7968,41.337],[22.7623,41.3225],[22.742,41.287],[22.6572,41.177],[22.5866,41.1241],[22.2136,41.1607],[21.9255,41.1068],[21.8963,41.0647],[21.7571,40.9225],[21.7458,40.6733],[22.1711,40.2812],[22.0948,40.1674],[22.5343,39.9224],[22.7098,39.935],[22.5525,40.1666],[22.5791,40.4682],[22.8216,40.5021],[23.2991,40.2354],[23.3606,39.9611],[23.7031,39.9127],[23.3377,40.2084],[23.6755,40.2179],[23.9912,39.9536],[23.9912,40.1187],[23.6997,40.3264],[24.0017,40.3198],[24.0039,40.3874],[23.6917,40.6954],[23.8543,40.7812],[24.1077,40.9146],[23.6248,41.3771],[22.917,41.3358]]]}},{"type":"Feature","id":"label-GRC-2991","properties":{"kind":"division-label","code":"GRC-2991","countryCode":"GRC","name":"Centre Macedonia","localName":"Κεντρική Μακεδονία","labelEnglish":"Centre Macedonia","labelLocal":"Κεντρική Μακεδονία","labelBoth":"Centre Macedonia · Κεντρική Μακεδονία","type":"Region","iso":"GR-B","qid":"Q17152"},"geometry":{"type":"Point","coordinates":[22.8519,40.8836]}},{"type":"Feature","id":"GRC-3001","properties":{"kind":"division","code":"GRC-3001","countryCode":"GRC","name":"East Macedonia and Thrace","localName":"Ανατολική Μακεδονία και Θράκη","labelEnglish":"East Macedonia and Thrace","labelLocal":"Ανατολική Μακεδονία και Θράκη","labelBoth":"East Macedonia and Thrace · Ανατολική Μακεδονία και Θράκη","type":"Region","iso":"GR-A","qid":"Q171314"},"geometry":{"type":"Polygon","coordinates":[[[26.3334,41.713],[26.0595,41.6438],[26.1743,41.446],[25.882,41.304],[25.2857,41.2394],[25.1538,41.3075],[24.7744,41.3481],[24.5102,41.5617],[24.1977,41.5477],[23.6248,41.3771],[24.1077,40.9146],[23.8543,40.7812],[24.1101,40.7279],[24.5667,40.9517],[24.802,40.8535],[25.0391,41.006],[26.044,40.7385],[26.3591,40.9647],[26.3317,41.2541],[26.6366,41.3785],[26.5955,41.6124],[26.3334,41.713]]]}},{"type":"Feature","id":"label-GRC-3001","properties":{"kind":"division-label","code":"GRC-3001","countryCode":"GRC","name":"East Macedonia and Thrace","localName":"Ανατολική Μακεδονία και Θράκη","labelEnglish":"East Macedonia and Thrace","labelLocal":"Ανατολική Μακεδονία και Θράκη","labelBoth":"East Macedonia and Thrace · Ανατολική Μακεδονία και Θράκη","type":"Region","iso":"GR-A","qid":"Q171314"},"geometry":{"type":"Point","coordinates":[25.2076,41.1043]}},{"type":"Feature","id":"GRC-2992","properties":{"kind":"division","code":"GRC-2992","countryCode":"GRC","name":"Mount Athos","localName":"Όρος Άθως","labelEnglish":"Mount Athos","labelLocal":"Όρος Άθως","labelBoth":"Mount Athos · Όρος Άθως","type":"Autonomous Monastic State","iso":"GR-69","qid":"Q130321"},"geometry":{"type":"Polygon","coordinates":[[[24.0039,40.3874],[24.0017,40.3198],[24.3,40.1281],[24.2334,40.3169],[24.0039,40.3874]]]}},{"type":"Feature","id":"label-GRC-2992","properties":{"kind":"division-label","code":"GRC-2992","countryCode":"GRC","name":"Mount Athos","localName":"Όρος Άθως","labelEnglish":"Mount Athos","labelLocal":"Όρος Άθως","labelBoth":"Mount Athos · Όρος Άθως","type":"Autonomous Monastic State","iso":"GR-69","qid":"Q130321"},"geometry":{"type":"Point","coordinates":[24.1925,40.2922]}},{"type":"Feature","id":"GRC-2900","properties":{"kind":"division","code":"GRC-2900","countryCode":"GRC","name":"Thessalia","localName":"Θεσσαλία","labelEnglish":"Thessalia","labelLocal":"Θεσσαλία","labelBoth":"Thessalia · Θεσσαλία","type":"Region","iso":"GR-E","qid":"Q166919"},"geometry":{"type":"Polygon","coordinates":[[[22.7098,39.935],[22.5343,39.9224],[22.0948,40.1674],[21.8762,39.8329],[21.2912,39.8048],[21.1104,39.6592],[21.3623,39.1539],[21.6377,39.2437],[21.97,39.0358],[22.2359,39.2402],[22.516,39.0287],[22.9967,38.9634],[22.854,39.1591],[22.9359,39.3606],[23.3438,39.1796],[22.9251,39.5995],[22.7098,39.935]]]}},{"type":"Feature","id":"label-GRC-2900","properties":{"kind":"division-label","code":"GRC-2900","countryCode":"GRC","name":"Thessalia","localName":"Θεσσαλία","labelEnglish":"Thessalia","labelLocal":"Θεσσαλία","labelBoth":"Thessalia · Θεσσαλία","type":"Region","iso":"GR-E","qid":"Q166919"},"geometry":{"type":"Point","coordinates":[22.1914,39.5322]}},{"type":"Feature","id":"GRC-2989","properties":{"kind":"division","code":"GRC-2989","countryCode":"GRC","name":"Central Greece","localName":"Κεντρική Ελλάδα","labelEnglish":"Central Greece","labelLocal":"Κεντρική Ελλάδα","labelBoth":"Central Greece · Κεντρική Ελλάδα","type":"Region","iso":"GR-H","qid":"Q199580"},"geometry":{"type":"MultiPolygon","coordinates":[[[[22.9967,38.9634],[22.516,39.0287],[22.2359,39.2402],[21.97,39.0358],[21.6377,39.2437],[21.3623,39.1539],[21.6475,38.6904],[21.9984,38.7427],[21.8512,38.388],[22.6914,38.3222],[23.2134,38.1603],[23.5523,38.1223],[23.7668,38.3416],[23.3506,38.5019],[23.321,38.6433],[22.7695,38.7848],[22.9967,38.9634]]],[[[24.5877,38.1592],[24.3444,38.1592],[24.0731,38.6794],[23.5913,38.7742],[23.2991,39.0425],[22.9694,38.8891],[23.2023,38.8299],[23.6355,38.5286],[23.6385,38.4155],[24.0254,38.3305],[24.3718,37.9719],[24.5877,38.1592]]]]}},{"type":"Feature","id":"label-GRC-2989","properties":{"kind":"division-label","code":"GRC-2989","countryCode":"GRC","name":"Central Greece","localName":"Κεντρική Ελλάδα","labelEnglish":"Central Greece","labelLocal":"Κεντρική Ελλάδα","labelBoth":"Central Greece · Κεντρική Ελλάδα","type":"Region","iso":"GR-H","qid":"Q199580"},"geometry":{"type":"Point","coordinates":[22.6102,38.6373]}},{"type":"Feature","id":"GRC-2884","properties":{"kind":"division","code":"GRC-2884","countryCode":"GRC","name":"Attica","localName":"Αττική","labelEnglish":"Attica","labelLocal":"Αττική","labelBoth":"Attica · Αττική","type":"Region","iso":"GR-A1","qid":"Q758056"},"geometry":{"type":"Polygon","coordinates":[[[23.7668,38.3416],[23.5523,38.1223],[23.2134,38.1603],[23.0763,38.0597],[23.1594,37.9405],[23.5813,38.0463],[24.0327,37.6515],[23.989,38.1226],[23.7668,38.3416]]]}},{"type":"Feature","id":"label-GRC-2884","properties":{"kind":"division-label","code":"GRC-2884","countryCode":"GRC","name":"Attica","localName":"Αττική","labelEnglish":"Attica","labelLocal":"Αττική","labelBoth":"Attica · Αττική","type":"Region","iso":"GR-A1","qid":"Q758056"},"geometry":{"type":"Point","coordinates":[23.7997,38.0626]}},{"type":"Feature","id":"GRC-2885","properties":{"kind":"division","code":"GRC-2885","countryCode":"GRC","name":"Peloponnese","localName":"ΙΠελοπόννησος","labelEnglish":"Peloponnese","labelLocal":"ΙΠελοπόννησος","labelBoth":"Peloponnese · ΙΠελοπόννησος","type":"Region","iso":"GR-J","qid":"Q202484"},"geometry":{"type":"Polygon","coordinates":[[[23.1594,37.9405],[23.0763,38.0597],[22.3573,38.163],[22.2286,37.8354],[21.8314,37.8536],[21.7907,37.5803],[21.9788,37.4855],[21.682,37.379],[21.5676,37.1563],[21.7074,36.818],[21.874,36.7267],[21.9373,36.98],[22.1532,37.0212],[22.5115,36.4666],[22.5774,36.783],[23.1961,36.4325],[23.1141,36.7813],[22.7232,37.5417],[23.4418,37.4144],[23.187,37.6083],[23.1594,37.9405]]]}},{"type":"Feature","id":"label-GRC-2885","properties":{"kind":"division-label","code":"GRC-2885","countryCode":"GRC","name":"Peloponnese","localName":"ΙΠελοπόννησος","labelEnglish":"Peloponnese","labelLocal":"ΙΠελοπόννησος","labelBoth":"Peloponnese · ΙΠελοπόννησος","type":"Region","iso":"GR-J","qid":"Q202484"},"geometry":{"type":"Point","coordinates":[22.3501,37.3319]}},{"type":"Feature","id":"GRC-2886","properties":{"kind":"division","code":"GRC-2886","countryCode":"GRC","name":"West Greece","localName":"Δυτικής Ελλάδος","labelEnglish":"West Greece","labelLocal":"Δυτικής Ελλάδος","labelBoth":"West Greece · Δυτικής Ελλάδος","type":"Region","iso":"GR-G","qid":"Q170291"},"geometry":{"type":"MultiPolygon","coordinates":[[[[21.682,37.379],[21.9788,37.4855],[21.7907,37.5803],[21.8314,37.8536],[22.2286,37.8354],[22.3573,38.163],[21.9559,38.3367],[21.603,38.1518],[21.3743,38.2206],[21.1221,37.8374],[21.682,37.379]]],[[[21.8512,38.388],[21.9984,38.7427],[21.6475,38.6904],[21.3623,39.1539],[21.0603,39.039],[20.8171,38.9214],[21.1556,38.3039],[21.8512,38.388]]]]}},{"type":"Feature","id":"label-GRC-2886","properties":{"kind":"division-label","code":"GRC-2886","countryCode":"GRC","name":"West Greece","localName":"Δυτικής Ελλάδος","labelEnglish":"West Greece","labelLocal":"Δυτικής Ελλάδος","labelBoth":"West Greece · Δυτικής Ελλάδος","type":"Region","iso":"GR-G","qid":"Q170291"},"geometry":{"type":"Point","coordinates":[21.7273,38.0299]}},{"type":"Feature","id":"GRC-2990","properties":{"kind":"division","code":"GRC-2990","countryCode":"GRC","name":"Crete","localName":"Κρήτη","labelEnglish":"Crete","labelLocal":"Κρήτη","labelBoth":"Crete · Κρήτη","type":"Region","iso":"GR-M","qid":"Q34374"},"geometry":{"type":"Polygon","coordinates":[[[26.3211,35.3153],[25.8176,35.116],[25.7664,35.3357],[25.4819,35.2974],[24.9712,35.4245],[24.2731,35.3649],[24.183,35.5856],[23.7184,35.5128],[23.6047,35.6126],[23.5182,35.2941],[24.7075,35.0961],[24.7385,34.9316],[25.9849,35.0391],[26.1472,35.0023],[26.3211,35.3153]]]}},{"type":"Feature","id":"label-GRC-2990","properties":{"kind":"division-label","code":"GRC-2990","countryCode":"GRC","name":"Crete","localName":"Κρήτη","labelEnglish":"Crete","labelLocal":"Κρήτη","labelBoth":"Crete · Κρήτη","type":"Region","iso":"GR-M","qid":"Q34374"},"geometry":{"type":"Point","coordinates":[25.0652,35.1921]}},{"type":"Feature","id":"GRC-3013","properties":{"kind":"division","code":"GRC-3013","countryCode":"GRC","name":"South Aegean","localName":"Νοτίου Αιγαίου","labelEnglish":"South Aegean","labelLocal":"Νοτίου Αιγαίου","labelBoth":"South Aegean · Νοτίου Αιγαίου","type":"Region","iso":"GR-L","qid":"Q173616"},"geometry":{"type":"Polygon","coordinates":[[[28.2398,36.4325],[27.6843,36.1581],[27.7804,35.89],[28.1305,36.1855],[28.2398,36.4325]]]}},{"type":"Feature","id":"label-GRC-3013","properties":{"kind":"division-label","code":"GRC-3013","countryCode":"GRC","name":"South Aegean","localName":"Νοτίου Αιγαίου","labelEnglish":"South Aegean","labelLocal":"Νοτίου Αιγαίου","labelBoth":"South Aegean · Νοτίου Αιγαίου","type":"Region","iso":"GR-L","qid":"Q173616"},"geometry":{"type":"Point","coordinates":[25.4867,37.0538]}},{"type":"Feature","id":"GRC-2988","properties":{"kind":"division","code":"GRC-2988","countryCode":"GRC","name":"North Aegean","localName":"Βορείου Αιγαίου","labelEnglish":"North Aegean","labelLocal":"Βορείου Αιγαίου","labelBoth":"North Aegean · Βορείου Αιγαίου","type":"Region","iso":"GR-K","qid":"Q173620"},"geometry":{"type":"MultiPolygon","coordinates":[[[[26.1636,38.5428],[25.8489,38.5804],[26.0098,38.1567],[26.1636,38.5428]]],[[[26.6123,39.0493],[26.343,39.383],[25.8346,39.1796],[26.4242,38.9674],[26.6123,39.0493]]],[[[25.4499,40.0362],[25.0334,39.9953],[25.047,39.8376],[25.349,39.7877],[25.4499,40.0362]]]]}},{"type":"Feature","id":"label-GRC-2988","properties":{"kind":"division-label","code":"GRC-2988","countryCode":"GRC","name":"North Aegean","localName":"Βορείου Αιγαίου","labelEnglish":"North Aegean","labelLocal":"Βορείου Αιγαίου","labelBoth":"North Aegean · Βορείου Αιγαίου","type":"Region","iso":"GR-K","qid":"Q173620"},"geometry":{"type":"Point","coordinates":[25.2262,39.9531]}},{"type":"Feature","id":"GRC-2883","properties":{"kind":"division","code":"GRC-2883","countryCode":"GRC","name":"Ionian Islands","localName":"Ιόνια νησιά","labelEnglish":"Ionian Islands","labelLocal":"Ιόνια νησιά","labelBoth":"Ionian Islands · Ιόνια νησιά","type":"Region","iso":"GR-F","qid":"Q1147674"},"geometry":{"type":"MultiPolygon","coordinates":[[[[20.7336,38.0624],[20.5718,38.4739],[20.5098,38.1108],[20.7336,38.0624]]],[[[20.0921,39.4335],[19.9325,39.4787],[19.8518,39.8245],[19.6265,39.7482],[19.8656,39.4686],[20.0921,39.4335]]]]}},{"type":"Feature","id":"label-GRC-2883","properties":{"kind":"division-label","code":"GRC-2883","countryCode":"GRC","name":"Ionian Islands","localName":"Ιόνια νησιά","labelEnglish":"Ionian Islands","labelLocal":"Ιόνια νησιά","labelBoth":"Ionian Islands · Ιόνια νησιά","type":"Region","iso":"GR-F","qid":"Q1147674"},"geometry":{"type":"Point","coordinates":[20.5554,38.2419]}}]}