{"type":"FeatureCollection","features":[{"type":"Feature","id":"GRD-5072","properties":{"kind":"division","code":"GRD-5072","countryCode":"GRD","name":"Saint George","localName":"Saint George","labelEnglish":"Saint George","labelLocal":"Saint George","labelBoth":"Saint George","type":"Parish","iso":"GD-03","qid":"Q576651"},"geometry":{"type":"Polygon","coordinates":[[[-61.683,12.0254],[-61.6765,12.0846],[-61.6864,12.1109],[-61.751,12.1101],[-61.683,12.0254]]]}},{"type":"Feature","id":"label-GRD-5072","properties":{"kind":"division-label","code":"GRD-5072","countryCode":"GRD","name":"Saint George","localName":"Saint George","labelEnglish":"Saint George","labelLocal":"Saint George","labelBoth":"Saint George","type":"Parish","iso":"GD-03","qid":"Q576651"},"geometry":{"type":"Point","coordinates":[-61.7226,12.0681]}},{"type":"Feature","id":"GRD-5071","properties":{"kind":"division","code":"GRD-5071","countryCode":"GRD","name":"Saint David","localName":"Saint David","labelEnglish":"Saint David","labelLocal":"Saint David","labelBoth":"Saint David","type":"Parish","iso":"GD-02","qid":"Q2087806"},"geometry":{"type":"Polygon","coordinates":[[[-61.6245,12.069],[-61.6765,12.0846],[-61.683,12.0254],[-61.6245,12.069]]]}},{"type":"Feature","id":"label-GRD-5071","properties":{"kind":"division-label","code":"GRD-5071","countryCode":"GRD","name":"Saint David","localName":"Saint David","labelEnglish":"Saint David","labelLocal":"Saint David","labelBoth":"Saint David","type":"Parish","iso":"GD-02","qid":"Q2087806"},"geometry":{"type":"Point","coordinates":[-61.6617,12.055]}},{"type":"Feature","id":"GRD-5070","properties":{"kind":"division","code":"GRD-5070","countryCode":"GRD","name":"Saint Andrew","localName":"Saint Andrew","labelEnglish":"Saint Andrew","labelLocal":"Saint Andrew","labelBoth":"Saint Andrew","type":"Parish","iso":"GD-01","qid":"Q977183"},"geometry":{"type":"Polygon","coordinates":[[[-61.6032,12.1767],[-61.6559,12.1792],[-61.6625,12.1586],[-61.6864,12.1109],[-61.6765,12.0846],[-61.6245,12.069],[-61.6032,12.1767]]]}},{"type":"Feature","id":"label-GRD-5070","properties":{"kind":"division-label","code":"GRD-5070","countryCode":"GRD","name":"Saint Andrew","localName":"Saint Andrew","labelEnglish":"Saint Andrew","labelLocal":"Saint Andrew","labelBoth":"Saint Andrew","type":"Parish","iso":"GD-01","qid":"Q977183"},"geometry":{"type":"Point","coordinates":[-61.6329,12.1224]}},{"type":"Feature","id":"GRD-5075","properties":{"kind":"division","code":"GRD-5075","countryCode":"GRD","name":"Saint Patrick","localName":"Saint Patrick","labelEnglish":"Saint Patrick","labelLocal":"Saint Patrick","labelBoth":"Saint Patrick","type":"Parish","iso":"GD-06","qid":"Q1476309"},"geometry":{"type":"Polygon","coordinates":[[[-61.6821,12.2233],[-61.6559,12.1792],[-61.6032,12.1767],[-61.6821,12.2233]]]}},{"type":"Feature","id":"label-GRD-5075","properties":{"kind":"division-label","code":"GRD-5075","countryCode":"GRD","name":"Saint Patrick","localName":"Saint Patrick","labelEnglish":"Saint Patrick","labelLocal":"Saint Patrick","labelBoth":"Saint Patrick","type":"Parish","iso":"GD-06","qid":"Q1476309"},"geometry":{"type":"Point","coordinates":[-61.6342,12.2147]}},{"type":"Feature","id":"GRD-5074","properties":{"kind":"division","code":"GRD-5074","countryCode":"GRD","name":"Saint Mark","localName":"Saint Mark","labelEnglish":"Saint Mark","labelLocal":"Saint Mark","labelBoth":"Saint Mark","type":"Parish","iso":"GD-05","qid":"Q1291077"},"geometry":{"type":"Polygon","coordinates":[[[-61.7151,12.1839],[-61.6625,12.1586],[-61.6559,12.1792],[-61.6821,12.2233],[-61.7151,12.1839]]]}},{"type":"Feature","id":"label-GRD-5074","properties":{"kind":"division-label","code":"GRD-5074","countryCode":"GRD","name":"Saint Mark","localName":"Saint Mark","labelEnglish":"Saint Mark","labelLocal":"Saint Mark","labelBoth":"Saint Mark","type":"Parish","iso":"GD-05","qid":"Q1291077"},"geometry":{"type":"Point","coordinates":[-61.6749,12.189]}},{"type":"Feature","id":"GRD-5073","properties":{"kind":"division","code":"GRD-5073","countryCode":"GRD","name":"Saint John","localName":"Saint John","labelEnglish":"Saint John","labelLocal":"Saint John","labelBoth":"Saint John","type":"Parish","iso":"GD-04","qid":"Q1476289"},"geometry":{"type":"Polygon","coordinates":[[[-61.751,12.1101],[-61.6864,12.1109],[-61.6625,12.1586],[-61.7151,12.1839],[-61.751,12.1101]]]}},{"type":"Feature","id":"label-GRD-5073","properties":{"kind":"division-label","code":"GRD-5073","countryCode":"GRD","name":"Saint John","localName":"Saint John","labelEnglish":"Saint John","labelLocal":"Saint John","labelBoth":"Saint John","type":"Parish","iso":"GD-04","qid":"Q1476289"},"geometry":{"type":"Point","coordinates":[-61.7094,12.1446]}},{"type":"Feature","id":"GRD-5069","properties":{"kind":"division","code":"GRD-5069","countryCode":"GRD","name":"Carriacou and Petite Martinique","localName":"Carriacou and Petite Martinique","labelEnglish":"Carriacou and Petite Martinique","labelLocal":"Carriacou and Petite Martinique","labelBoth":"Carriacou and Petite Martinique","type":"Dependency","iso":"GD-10","qid":"Q3044818"},"geometry":{"type":"Polygon","coordinates":[[[-61.428,12.4547],[-61.428,12.5297],[-61.4962,12.4404],[-61.428,12.4547]]]}},{"type":"Feature","id":"label-GRD-5069","properties":{"kind":"division-label","code":"GRD-5069","countryCode":"GRD","name":"Carriacou and Petite Martinique","localName":"Carriacou and Petite Martinique","labelEnglish":"Carriacou and Petite Martinique","labelLocal":"Carriacou and Petite Martinique","labelBoth":"Carriacou and Petite Martinique","type":"Dependency","iso":"GD-10","qid":"Q3044818"},"geometry":{"type":"Point","coordinates":[-61.4461,12.4733]}}]}