{"type":"FeatureCollection","features":[{"type":"Feature","id":"GRL-2739","properties":{"kind":"division","code":"GRL-2739","countryCode":"GRL","name":"Sermersooq","localName":"Sermersooq","labelEnglish":"Sermersooq","labelLocal":"Sermersooq","labelBoth":"Sermersooq","type":"Lansdele","iso":"GL-SM","qid":"Q695387"},"geometry":{"type":"MultiPolygon","coordinates":[[[[-27.9129,71.1163],[-28.8215,70.9996],[-32.9975,71],[-35.4991,71],[-39.9999,71],[-44,71],[-44,69],[-44,67.55],[-44,65.365],[-46.5,65.365],[-49.9953,65.3656],[-50.7232,65.1841],[-50.5382,64.7692],[-50.6556,64.4352],[-51.4399,64.0823],[-51.5392,63.685],[-51.1622,63.5075],[-51.0006,63.1647],[-50.593,63.2303],[-50.4158,62.9452],[-50.1426,62.9382],[-50.3077,62.4913],[-49.8876,62.2457],[-49.295,62.1369],[-48.9897,61.458],[-48.3401,61.3758],[-48.6406,61.239],[-47.8846,61.0093],[-47.6049,61.0696],[-45.8024,61.9084],[-44,62.7472],[-43.1512,62.7596],[-42.4871,62.6982],[-41.7501,62.8439],[-41.4729,63.2258],[-41.9071,63.4635],[-41.7159,63.553],[-41.2401,63.4039],[-40.7501,63.5169],[-40.5133,63.726],[-40.5609,64.1069],[-41.3873,64.1785],[-41.5249,64.3261],[-40.623,64.3922],[-40.6045,64.6835],[-41.0546,64.8774],[-41.0571,65.0998],[-40.2608,65.0036],[-39.7591,65.2473],[-40.133,65.4596],[-39.6561,65.6862],[-39.4481,65.5469],[-38.5122,65.6793],[-37.9852,65.9499],[-37.9983,66.241],[-37.2154,66.3462],[-37.7979,66.0487],[-37.2101,65.7753],[-36.5216,65.9909],[-36.0738,65.9355],[-35.5893,66.2895],[-34.654,66.3714],[-33.5482,67.0782],[-33.2323,67.5433],[-31.9956,68.0504],[-32.4105,68.6155],[-31.6938,68.0993],[-31.0172,68.0411],[-30.0082,68.126],[-29.8527,68.4156],[-29.3776,68.2012],[-28.0222,68.5629],[-27.2187,68.5438],[-26.2854,68.6955],[-24.6151,69.2801],[-23.703,69.7181],[-23.0326,69.7617],[-22.3717,70.1151],[-23.5598,70.1129],[-25.3053,70.4132],[-26.3262,70.1983],[-26.8454,70.2608],[-27.2837,69.992],[-27.904,70.0924],[-26.7433,70.4841],[-28.2329,70.372],[-28.3103,70.5639],[-27.6182,70.9538],[-27.9129,71.1163]]],[[[-26.1766,71.4937],[-26.3321,71.3458],[-27.7657,71.1389],[-27.5062,70.9421],[-26.4256,70.9746],[-25.5808,71.1885],[-25.4442,71.3803],[-26.1766,71.4937]]],[[[-22.5161,71.9093],[-24.3395,71.849],[-24.5511,71.4426],[-25.392,71.4466],[-24.2649,71.0814],[-23.9298,70.6132],[-23.3454,70.4406],[-22.6609,70.4385],[-22.4289,70.8459],[-22.3812,70.4487],[-21.4768,70.5449],[-21.8157,71.2674],[-21.7499,71.4902],[-22.3554,71.2698],[-22.4479,71.581],[-21.8945,71.7435],[-23.06,71.7121],[-22.5161,71.9093]]],[[[-50.8322,64.9868],[-51.4607,64.8753],[-52.0237,64.5939],[-52.0735,64.1913],[-51.6627,64.3088],[-51.2786,64.7477],[-51.0218,64.631],[-50.6652,64.852],[-50.8322,64.9868]]],[[[-41.147,63.2844],[-41.7,63.4998],[-41.4387,63.241],[-41.147,63.2844]]],[[[-40.1434,64.487],[-40.4791,64.5826],[-40.4996,64.8296],[-40.8695,64.9047],[-40.602,64.7197],[-40.4996,64.5041],[-40.1434,64.487]]],[[[-37.454,65.7925],[-37.8236,65.8711],[-37.7379,65.5694],[-37.454,65.7925]]],[[[-25.3172,70.747],[-25.7038,71.0858],[-26.6625,70.8965],[-27.0675,70.8935],[-28.0677,70.4307],[-26.0712,70.5312],[-25.3172,70.747]]]]}},{"type":"Feature","id":"label-GRL-2739","properties":{"kind":"division-label","code":"GRL-2739","countryCode":"GRL","name":"Sermersooq","localName":"Sermersooq","labelEnglish":"Sermersooq","labelLocal":"Sermersooq","labelBoth":"Sermersooq","type":"Lansdele","iso":"GL-SM","qid":"Q695387"},"geometry":{"type":"Point","coordinates":[-44.037,64.0596]}},{"type":"Feature","id":"GRL-2742","properties":{"kind":"division","code":"GRL-2742","countryCode":"GRL","name":"Northeast Greenland National Park","localName":"Northeast Greenland National Park","labelEnglish":"Northeast Greenland National Park","labelLocal":"Northeast Greenland National Park","labelBoth":"Northeast Greenland National Park","type":"Lansdele","iso":"GL-UO","qid":"Q309276"},"geometry":{"type":"MultiPolygon","coordinates":[[[[-27.7657,71.1389],[-26.3321,71.3458],[-26.1766,71.4937],[-27.6508,71.6131],[-27.3314,71.7188],[-28.4569,71.9394],[-27.8817,71.9788],[-26.7851,71.5465],[-25.8597,71.5717],[-25.392,71.4466],[-24.5511,71.4426],[-24.3395,71.849],[-22.5161,71.9093],[-24.5464,72.4234],[-24.6969,72.6757],[-25.5228,72.8402],[-25.0526,73.0839],[-26.1506,73.2409],[-25.2922,73.4735],[-23.9878,73.5974],[-22.3141,73.2504],[-21.5432,73.4904],[-20.5433,73.449],[-20.6886,73.8865],[-22.2294,74.1013],[-21.7716,74.4387],[-21.255,74.4742],[-20.3573,74.4453],[-20.2007,74.2798],[-19.3744,74.2668],[-18.9748,74.4844],[-20.7919,74.666],[-20.5172,75.1423],[-20.1687,75.3411],[-19.4272,75.2255],[-19.3453,75.7326],[-20.2694,75.9923],[-19.9377,76.258],[-21.7045,76.2556],[-21.6748,76.5271],[-22.7442,76.6984],[-22.2659,76.8594],[-21.7301,76.6574],[-20.5134,76.9457],[-19.0627,76.8379],[-18.6284,76.7016],[-18.3245,77.2085],[-19.0627,77.1867],[-20.4654,77.3828],[-20.8215,77.6535],[-18.9792,77.6168],[-20.9621,77.9704],[-21.3546,77.6641],[-21.9673,77.6792],[-20.8909,78.6271],[-18.9552,79.149],[-19.5659,79.3859],[-19.2078,79.7085],[-20.3534,79.8861],[-19.4744,80.2602],[-17.8729,80.1611],[-16.4473,80.2193],[-15.7892,80.4047],[-17.063,80.6628],[-15.4204,80.6484],[-14.2949,80.7843],[-14.5527,80.9906],[-13.3546,81.0199],[-11.3959,81.4609],[-13.9205,81.8122],[-15.7927,81.832],[-17.5059,81.3882],[-19.0853,81.6254],[-21.959,81.0214],[-23.107,80.9222],[-21.2568,81.5175],[-21.3884,82.0834],[-23.1954,82.0223],[-23.7663,81.746],[-26.3872,81.4277],[-26.3148,81.6168],[-24.7062,81.7812],[-24.6199,81.9875],[-27.762,82.0624],[-31.6802,81.8348],[-32.7794,81.8411],[-29.8523,82.1393],[-22.4373,82.34],[-21.3395,82.6263],[-23.997,82.9172],[-25.1493,82.8529],[-25.2214,83.1679],[-27.381,83.0606],[-30.0969,83.1262],[-31.8266,82.9946],[-34.951,82.9049],[-30.7364,83.1371],[-26.0754,83.2085],[-25.6496,83.2976],[-30.6471,83.6018],[-32.4907,83.6341],[-38.6903,83.4255],[-38.6834,83.2084],[-37.2721,83.0096],[-40.6903,82.9865],[-42.1173,83.2425],[-44.6469,83.1751],[-45.6344,82.8775],[-40.9766,82.7744],[-45.7464,82.777],[-43.7272,82.4069],[-45.1561,81.7899],[-46.0082,82.0362],[-48.7353,82.3581],[-51.1072,82.5099],[-50.5813,82.154],[-49.4645,81.9472],[-51.0361,81.9564],[-50.287,81.7243],[-52.9256,82.0393],[-53.7928,81.5561],[-53.557,82.1161],[-54.4407,82.3727],[-58.6109,82.1052],[-61.4543,81.745],[-60.7869,81.5089],[-61.0761,81.1205],[-61.8506,81.1285],[-60.285,80.6056],[-57.1551,80.0378],[-53.0441,79.4009],[-49.7554,78.8915],[-46.4666,78.3821],[-44,78],[-44,76.2601],[-44,74.5202],[-44,72.4322],[-44,71],[-39.9999,71],[-35.4991,71],[-32.9975,71],[-28.8215,70.9996],[-27.9129,71.1163],[-27.7657,71.1389]]],[[[-53.2748,82.1723],[-51.2314,82.014],[-52.7868,82.3175],[-53.2748,82.1723]]],[[[-44.5292,82.4138],[-46.3242,82.6785],[-47.6981,82.6438],[-46.876,82.36],[-44.7346,82.0984],[-44.5292,82.4138]]],[[[-21.9491,72.4287],[-23.1468,72.8402],[-24.4853,72.8266],[-24.3518,72.5913],[-22.2504,72.121],[-22.0453,72.2717],[-22.7601,72.4411],[-21.9491,72.4287]]],[[[-21.9286,72.7378],[-21.9007,72.916],[-23.2383,73.0753],[-24.5365,72.9919],[-24.5262,72.9017],[-23.1633,72.8779],[-22.654,72.6981],[-21.9286,72.7378]]],[[[-24.5243,73.0479],[-22.9807,73.1071],[-24.9704,73.3253],[-23.2578,73.2211],[-24.4601,73.425],[-25.2435,73.4111],[-25.7073,73.1847],[-24.5243,73.0479]]],[[[-20.3527,74.2517],[-20.5476,74.4099],[-21.2471,74.4571],[-21.9329,74.2077],[-21.2687,74.0878],[-20.3527,74.2517]]],[[[-19.81,74.8909],[-20.3391,75.0542],[-20.6807,74.821],[-20.1383,74.6993],[-19.81,74.8909]]],[[[-17.317,75.1361],[-17.8134,75.0889],[-18.0941,75.4193],[-18.8533,75.2948],[-18.8926,74.9992],[-17.3553,75.0259],[-17.317,75.1361]]],[[[-18.5503,76.0541],[-18.9747,76.7661],[-19.1064,76.4735],[-18.5503,76.0541]]],[[[-18.7643,79.9733],[-19.3575,79.8707],[-18.4852,79.6861],[-17.2775,80.0131],[-18.7643,79.9733]]]]}},{"type":"Feature","id":"label-GRL-2742","properties":{"kind":"division-label","code":"GRL-2742","countryCode":"GRL","name":"Northeast Greenland National Park","localName":"Northeast Greenland National Park","labelEnglish":"Northeast Greenland National Park","labelLocal":"Northeast Greenland National Park","labelBoth":"Northeast Greenland National Park","type":"Lansdele","iso":"GL-UO","qid":"Q309276"},"geometry":{"type":"Point","coordinates":[-33.4567,77.0582]}},{"type":"Feature","id":"GRL-2743","properties":{"kind":"division","code":"GRL-2743","countryCode":"GRL","name":"Qaasuitsup","localName":"Qaasuitsup","labelEnglish":"Qaasuitsup","labelLocal":"Qaasuitsup","labelBoth":"Qaasuitsup","type":"Lansdele","iso":"GL-QA","qid":"Q641460"},"geometry":{"type":"MultiPolygon","coordinates":[[[[-67.9865,76.6008],[-68.1857,76.3008],[-69.0795,76.5003],[-69.6373,76.3831],[-68.4325,76.0794],[-66.4871,75.9474],[-66.2073,76.2778],[-64.6996,76.1256],[-64.4291,76.349],[-64.0311,76.1361],[-63.4769,76.3769],[-60.8725,76.1581],[-58.4476,75.7314],[-58.2392,75.4367],[-58.6595,75.3773],[-58.1595,75.0673],[-57.0832,74.9238],[-56.1547,74.3691],[-56.4048,74.0742],[-55.6702,73.8853],[-56.0311,73.6384],[-55.2497,73.392],[-55.6634,73.0574],[-54.6029,72.834],[-55.0106,72.5217],[-55.5121,72.5151],[-54.8835,72.2512],[-55.6097,71.9905],[-55.2678,71.9273],[-55.9045,71.682],[-55.2876,71.3814],[-53.9518,71.4378],[-54.0816,71.7174],[-51.7816,71.6027],[-52.9923,71.4213],[-52.2577,71.3655],[-52.4243,71.1517],[-51.3433,71.1466],[-50.8941,70.8081],[-50.9928,70.425],[-51.5494,70.4316],[-52.4503,70.7026],[-53.9796,70.8297],[-54.5775,70.7142],[-53.84,70.3807],[-53.2318,70.3531],[-52.3295,70.0536],[-50.5933,69.9279],[-50.2476,69.776],[-50.8266,69.702],[-50.8875,69.1745],[-50.4704,69.3041],[-50.1749,69.0298],[-50.5231,68.9511],[-51.0799,69.1328],[-51.1488,68.5639],[-51.9647,68.5876],[-53.3395,68.2719],[-52.5876,68.3514],[-52.4451,68.1815],[-51.4368,68.208],[-50.2991,67.9343],[-51.2171,68.0709],[-51.9315,68.0468],[-53.1527,68.2012],[-53.1502,67.8912],[-53.6877,67.8118],[-53.6674,67.503],[-52.824,67.7965],[-51.2889,67.7143],[-50.5517,67.5102],[-50.1038,67.5056],[-44,67.55],[-44,69],[-44,71],[-44,72.4322],[-44,74.5202],[-44,76.2601],[-44,78],[-46.4666,78.3821],[-49.7554,78.8915],[-53.0441,79.4009],[-57.1551,80.0378],[-60.285,80.6056],[-61.8506,81.1285],[-62.9768,81.2283],[-64.7898,80.9904],[-65.5252,80.6634],[-67.4554,80.3425],[-67.0501,80.0612],[-65.3061,80.096],[-64.8599,79.5078],[-65.9777,79.1036],[-68.0402,79.0768],[-69.3587,78.7994],[-72.5902,78.5212],[-72.8952,78.154],[-71.3128,77.7698],[-69.5182,77.6874],[-70.2877,77.5754],[-69.2226,77.4529],[-67.5917,77.5244],[-67.1409,77.6723],[-66.0534,77.4935],[-66.7728,77.3564],[-68.3695,77.3769],[-70.9033,77.1914],[-71.3456,76.9918],[-70.4075,76.7978],[-67.9865,76.6008]]],[[[-51.2233,69.9143],[-51.2454,69.5383],[-50.6676,69.8293],[-51.2233,69.9143]]],[[[-52.9029,69.3451],[-52.1416,69.4773],[-51.9982,69.8051],[-52.7281,69.9287],[-53.266,70.2023],[-54.453,70.3133],[-54.8292,70.2008],[-54.9927,69.702],[-54.7374,69.5891],[-53.403,69.4392],[-54.2046,69.4524],[-53.5745,69.2353],[-52.9029,69.3451]]],[[[-53.8966,71.0825],[-53.4491,71.0569],[-53.6118,71.3217],[-53.8966,71.0825]]],[[[-52.4849,71.2643],[-53.1697,71.3463],[-52.9574,71.1544],[-52.4849,71.2643]]]]}},{"type":"Feature","id":"label-GRL-2743","properties":{"kind":"division-label","code":"GRL-2743","countryCode":"GRL","name":"Qaasuitsup","localName":"Qaasuitsup","labelEnglish":"Qaasuitsup","labelLocal":"Qaasuitsup","labelBoth":"Qaasuitsup","type":"Lansdele","iso":"GL-QA","qid":"Q641460"},"geometry":{"type":"Point","coordinates":[-49.3311,74.5573]}},{"type":"Feature","id":"GRL-2738","properties":{"kind":"division","code":"GRL-2738","countryCode":"GRL","name":"Pituffik","localName":"Pituffik","labelEnglish":"Pituffik","labelLocal":"Pituffik","labelBoth":"Pituffik","type":"Lansdele","iso":"GL-UO","qid":"Q1991632"},"geometry":{"type":"Polygon","coordinates":[[[-69.0795,76.5003],[-68.1857,76.3008],[-67.9865,76.6008],[-69.0795,76.5003]]]}},{"type":"Feature","id":"label-GRL-2738","properties":{"kind":"division-label","code":"GRL-2738","countryCode":"GRL","name":"Pituffik","localName":"Pituffik","labelEnglish":"Pituffik","labelLocal":"Pituffik","labelBoth":"Pituffik","type":"Lansdele","iso":"GL-UO","qid":"Q1991632"},"geometry":{"type":"Point","coordinates":[-68.3611,76.4432]}},{"type":"Feature","id":"GRL-2741","properties":{"kind":"division","code":"GRL-2741","countryCode":"GRL","name":"Qeqqata","localName":"Qeqqata","labelEnglish":"Qeqqata","labelLocal":"Qeqqata","labelBoth":"Qeqqata","type":"Lansdele","iso":"GL-QE","qid":"Q476233"},"geometry":{"type":"Polygon","coordinates":[[[-52.0237,64.5939],[-51.4607,64.8753],[-50.8322,64.9868],[-50.7232,65.1841],[-49.9953,65.3656],[-46.5,65.365],[-44,65.365],[-44,67.55],[-50.1038,67.5056],[-50.5792,67.4825],[-51.4157,67.6804],[-52.4091,67.7692],[-53.8057,67.4186],[-53.8767,67.2348],[-52.1493,67.372],[-53.9649,67.0777],[-53.647,66.9116],[-52.2927,66.9269],[-53.2045,66.7481],[-53.6365,66.5011],[-53.6502,66.1243],[-53.2392,65.6862],[-52.6906,65.7203],[-52.7917,65.5347],[-52.0122,64.9804],[-52.1835,64.8023],[-51.2718,65.0331],[-52.1562,64.6788],[-52.0237,64.5939]]]}},{"type":"Feature","id":"label-GRL-2741","properties":{"kind":"division-label","code":"GRL-2741","countryCode":"GRL","name":"Qeqqata","localName":"Qeqqata","labelEnglish":"Qeqqata","labelLocal":"Qeqqata","labelBoth":"Qeqqata","type":"Lansdele","iso":"GL-QE","qid":"Q476233"},"geometry":{"type":"Point","coordinates":[-47.3782,66.5487]}},{"type":"Feature","id":"GRL-2740","properties":{"kind":"division","code":"GRL-2740","countryCode":"GRL","name":"Kujalleq","localName":"Kujalleq","labelEnglish":"Kujalleq","labelLocal":"Kujalleq","labelBoth":"Kujalleq","type":"Lansdele","iso":"GL-KU","qid":"Q478813"},"geometry":{"type":"MultiPolygon","coordinates":[[[[-43.1512,62.7596],[-44,62.7472],[-45.8024,61.9084],[-47.6049,61.0696],[-47.8846,61.0093],[-48.2321,60.8437],[-47.4383,60.8274],[-47.3004,60.9611],[-46.0926,60.9827],[-45.7134,60.77],[-45.5931,60.4747],[-44.8445,60.4711],[-45.1873,60.2126],[-44.6572,60.0032],[-44.1592,60.2514],[-43.1382,60.0808],[-43.4276,60.4831],[-42.8263,60.6113],[-43.0275,60.8816],[-42.6305,61.1011],[-42.5275,61.5338],[-42.1172,62.0067],[-42.3966,62.4323],[-43.1512,62.7596]]],[[[-43.1717,60.0739],[-44.0733,60.1763],[-43.5644,59.9254],[-43.1717,60.0739]]]]}},{"type":"Feature","id":"label-GRL-2740","properties":{"kind":"division-label","code":"GRL-2740","countryCode":"GRL","name":"Kujalleq","localName":"Kujalleq","labelEnglish":"Kujalleq","labelLocal":"Kujalleq","labelBoth":"Kujalleq","type":"Lansdele","iso":"GL-KU","qid":"Q478813"},"geometry":{"type":"Point","coordinates":[-44.296,61.5451]}}]}