{"type":"FeatureCollection","features":[{"type":"Feature","id":"GTM-1962","properties":{"kind":"division","code":"GTM-1962","countryCode":"GTM","name":"Jutiapa","localName":"Jutiapa","labelEnglish":"Jutiapa","labelLocal":"Jutiapa","labelBoth":"Jutiapa","type":"Department","iso":"GT-JU","qid":"Q765984"},"geometry":{"type":"Polygon","coordinates":[[[-89.748,14.0449],[-89.5309,14.2256],[-89.4961,14.4229],[-89.6855,14.5776],[-90.0519,14.4335],[-90.1911,14.2529],[-90.0583,14.1697],[-90.2406,13.7887],[-90.0983,13.7314],[-90.099,13.8585],[-89.748,14.0449]]]}},{"type":"Feature","id":"label-GTM-1962","properties":{"kind":"division-label","code":"GTM-1962","countryCode":"GTM","name":"Jutiapa","localName":"Jutiapa","labelEnglish":"Jutiapa","labelLocal":"Jutiapa","labelBoth":"Jutiapa","type":"Department","iso":"GT-JU","qid":"Q765984"},"geometry":{"type":"Point","coordinates":[-89.8946,14.2384]}},{"type":"Feature","id":"GTM-1960","properties":{"kind":"division","code":"GTM-1960","countryCode":"GTM","name":"Chiquimula","localName":"Chiquimula","labelEnglish":"Chiquimula","labelLocal":"Chiquimula","labelBoth":"Chiquimula","type":"Department","iso":"GT-CQ","qid":"Q753037"},"geometry":{"type":"Polygon","coordinates":[[[-89.3616,14.4155],[-89.1462,14.7109],[-89.1892,14.9131],[-89.6704,14.9011],[-89.7364,14.7799],[-89.6855,14.5776],[-89.4961,14.4229],[-89.3616,14.4155]]]}},{"type":"Feature","id":"label-GTM-1960","properties":{"kind":"division-label","code":"GTM-1960","countryCode":"GTM","name":"Chiquimula","localName":"Chiquimula","labelEnglish":"Chiquimula","labelLocal":"Chiquimula","labelBoth":"Chiquimula","type":"Department","iso":"GT-CQ","qid":"Q753037"},"geometry":{"type":"Point","coordinates":[-89.4399,14.6668]}},{"type":"Feature","id":"GTM-1944","properties":{"kind":"division","code":"GTM-1944","countryCode":"GTM","name":"Petén","localName":"Petén","labelEnglish":"Petén","labelLocal":"Petén","labelBoth":"Petén","type":"Department","iso":"GT-PE","qid":"Q466061"},"geometry":{"type":"Polygon","coordinates":[[[-89.1507,17.321],[-89.1605,17.8143],[-90.9909,17.802],[-90.992,17.2519],[-91.4333,17.2545],[-91.0669,16.9182],[-90.7353,16.7466],[-90.3799,16.3673],[-90.4478,16.0797],[-89.3963,15.8613],[-89.236,15.9065],[-89.1931,16.3926],[-89.1507,17.321]]]}},{"type":"Feature","id":"label-GTM-1944","properties":{"kind":"division-label","code":"GTM-1944","countryCode":"GTM","name":"Petén","localName":"Petén","labelEnglish":"Petén","labelLocal":"Petén","labelBoth":"Petén","type":"Department","iso":"GT-PE","qid":"Q466061"},"geometry":{"type":"Point","coordinates":[-90.0321,16.888]}},{"type":"Feature","id":"GTM-1947","properties":{"kind":"division","code":"GTM-1947","countryCode":"GTM","name":"San Marcos","localName":"San Marcos","labelEnglish":"San Marcos","labelLocal":"San Marcos","labelBoth":"San Marcos","type":"Department","iso":"GT-SM","qid":"Q883907"},"geometry":{"type":"Polygon","coordinates":[[[-92.2463,14.5463],[-92.1624,14.4873],[-92.0166,14.5309],[-92.1341,14.6421],[-91.8507,14.729],[-91.6161,15.2209],[-91.7157,15.3501],[-92.0552,15.2885],[-92.1059,15.4545],[-92.2034,15.2372],[-92.0738,15.0737],[-92.2463,14.5463]]]}},{"type":"Feature","id":"label-GTM-1947","properties":{"kind":"division-label","code":"GTM-1947","countryCode":"GTM","name":"San Marcos","localName":"San Marcos","labelEnglish":"San Marcos","labelLocal":"San Marcos","labelBoth":"San Marcos","type":"Department","iso":"GT-SM","qid":"Q883907"},"geometry":{"type":"Point","coordinates":[-91.9311,15.0311]}},{"type":"Feature","id":"GTM-1943","properties":{"kind":"division","code":"GTM-1943","countryCode":"GTM","name":"Huehuetenango","localName":"Huehuetenango","labelEnglish":"Huehuetenango","labelLocal":"Huehuetenango","labelBoth":"Huehuetenango","type":"Department","iso":"GT-HU","qid":"Q842266"},"geometry":{"type":"Polygon","coordinates":[[[-92.1059,15.4545],[-92.0552,15.2885],[-91.7157,15.3501],[-91.6161,15.2209],[-91.5188,15.156],[-91.3154,15.2632],[-91.3322,15.5171],[-90.9948,16.0699],[-91.7238,16.0688],[-92.1059,15.4545]]]}},{"type":"Feature","id":"label-GTM-1943","properties":{"kind":"division-label","code":"GTM-1943","countryCode":"GTM","name":"Huehuetenango","localName":"Huehuetenango","labelEnglish":"Huehuetenango","labelLocal":"Huehuetenango","labelBoth":"Huehuetenango","type":"Department","iso":"GT-HU","qid":"Q842266"},"geometry":{"type":"Point","coordinates":[-91.5504,15.6369]}},{"type":"Feature","id":"GTM-3467","properties":{"kind":"division","code":"GTM-3467","countryCode":"GTM","name":"Quiché","localName":"Quiché","labelEnglish":"Quiché","labelLocal":"Quiché","labelBoth":"Quiché","type":"Department","iso":"GT-QC","qid":"Q669802"},"geometry":{"type":"Polygon","coordinates":[[[-90.9948,16.0699],[-91.3322,15.5171],[-91.3154,15.2632],[-91.183,14.9107],[-91.0874,14.8263],[-90.6576,14.9039],[-90.8657,15.2568],[-90.5038,15.2622],[-90.597,15.526],[-90.8181,15.7506],[-90.7635,15.9697],[-90.4482,16.0793],[-90.9948,16.0699]]]}},{"type":"Feature","id":"label-GTM-3467","properties":{"kind":"division-label","code":"GTM-3467","countryCode":"GTM","name":"Quiché","localName":"Quiché","labelEnglish":"Quiché","labelLocal":"Quiché","labelBoth":"Quiché","type":"Department","iso":"GT-QC","qid":"Q669802"},"geometry":{"type":"Point","coordinates":[-90.8819,15.5049]}},{"type":"Feature","id":"GTM-1948","properties":{"kind":"division","code":"GTM-1948","countryCode":"GTM","name":"Alta Verapaz","localName":"Alta Verapaz","labelEnglish":"Alta Verapaz","labelLocal":"Alta Verapaz","labelBoth":"Alta Verapaz","type":"Department","iso":"GT-AV","qid":"Q504637"},"geometry":{"type":"Polygon","coordinates":[[[-90.4482,16.0793],[-90.7635,15.9697],[-90.8181,15.7506],[-90.597,15.526],[-90.5038,15.2622],[-89.9521,15.2885],[-89.973,15.1565],[-89.878,15.1599],[-89.6055,15.1799],[-89.654,15.5777],[-89.3963,15.8613],[-90.4478,16.0797],[-90.4482,16.0793]]]}},{"type":"Feature","id":"label-GTM-1948","properties":{"kind":"division-label","code":"GTM-1948","countryCode":"GTM","name":"Alta Verapaz","localName":"Alta Verapaz","labelEnglish":"Alta Verapaz","labelLocal":"Alta Verapaz","labelBoth":"Alta Verapaz","type":"Department","iso":"GT-AV","qid":"Q504637"},"geometry":{"type":"Point","coordinates":[-90.1072,15.6455]}},{"type":"Feature","id":"GTM-1959","properties":{"kind":"division","code":"GTM-1959","countryCode":"GTM","name":"Izabal","localName":"Izabal","labelEnglish":"Izabal","labelLocal":"Izabal","labelBoth":"Izabal","type":"Department","iso":"GT-IZ","qid":"Q693658"},"geometry":{"type":"Polygon","coordinates":[[[-88.2209,15.7257],[-88.6199,15.9533],[-88.5984,15.7061],[-88.914,15.8939],[-89.236,15.9065],[-89.3963,15.8613],[-89.654,15.5777],[-89.6055,15.1799],[-89.2505,15.3029],[-89.1469,15.0713],[-88.7609,15.3],[-88.4674,15.5207],[-88.2209,15.7257]]]}},{"type":"Feature","id":"label-GTM-1959","properties":{"kind":"division-label","code":"GTM-1959","countryCode":"GTM","name":"Izabal","localName":"Izabal","labelEnglish":"Izabal","labelLocal":"Izabal","labelBoth":"Izabal","type":"Department","iso":"GT-IZ","qid":"Q693658"},"geometry":{"type":"Point","coordinates":[-88.9414,15.5246]}},{"type":"Feature","id":"GTM-1963","properties":{"kind":"division","code":"GTM-1963","countryCode":"GTM","name":"Zacapa","localName":"Zacapa","labelEnglish":"Zacapa","labelLocal":"Zacapa","labelBoth":"Zacapa","type":"Department","iso":"GT-ZA","qid":"Q780784"},"geometry":{"type":"Polygon","coordinates":[[[-89.1469,15.0713],[-89.2505,15.3029],[-89.6055,15.1799],[-89.878,15.1599],[-89.834,14.8765],[-89.7364,14.7799],[-89.6704,14.9011],[-89.1892,14.9131],[-89.1469,15.0713]]]}},{"type":"Feature","id":"label-GTM-1963","properties":{"kind":"division-label","code":"GTM-1963","countryCode":"GTM","name":"Zacapa","localName":"Zacapa","labelEnglish":"Zacapa","labelLocal":"Zacapa","labelBoth":"Zacapa","type":"Department","iso":"GT-ZA","qid":"Q780784"},"geometry":{"type":"Point","coordinates":[-89.5127,15.0329]}},{"type":"Feature","id":"GTM-1946","properties":{"kind":"division","code":"GTM-1946","countryCode":"GTM","name":"Retalhuleu","localName":"Retalhuleu","labelEnglish":"Retalhuleu","labelLocal":"Retalhuleu","labelBoth":"Retalhuleu","type":"Department","iso":"GT-RE","qid":"Q888307"},"geometry":{"type":"Polygon","coordinates":[[[-91.6585,14.1173],[-91.5105,14.713],[-91.761,14.6965],[-92.0166,14.5309],[-92.1624,14.4873],[-91.6585,14.1173]]]}},{"type":"Feature","id":"label-GTM-1946","properties":{"kind":"division-label","code":"GTM-1946","countryCode":"GTM","name":"Retalhuleu","localName":"Retalhuleu","labelEnglish":"Retalhuleu","labelLocal":"Retalhuleu","labelBoth":"Retalhuleu","type":"Department","iso":"GT-RE","qid":"Q888307"},"geometry":{"type":"Point","coordinates":[-91.8364,14.3957]}},{"type":"Feature","id":"GTM-1952","properties":{"kind":"division","code":"GTM-1952","countryCode":"GTM","name":"Suchitepéquez","localName":"Suchitepéquez","labelEnglish":"Suchitepéquez","labelLocal":"Suchitepéquez","labelBoth":"Suchitepéquez","type":"Department","iso":"GT-SU","qid":"Q883734"},"geometry":{"type":"Polygon","coordinates":[[[-91.5519,14.0573],[-91.448,14.3065],[-91.1711,14.272],[-91.1113,14.4304],[-91.1141,14.5304],[-91.4697,14.7396],[-91.5105,14.713],[-91.6585,14.1173],[-91.5519,14.0573]]]}},{"type":"Feature","id":"label-GTM-1952","properties":{"kind":"division-label","code":"GTM-1952","countryCode":"GTM","name":"Suchitepéquez","localName":"Suchitepéquez","labelEnglish":"Suchitepéquez","labelLocal":"Suchitepéquez","labelBoth":"Suchitepéquez","type":"Department","iso":"GT-SU","qid":"Q883734"},"geometry":{"type":"Point","coordinates":[-91.3803,14.5182]}},{"type":"Feature","id":"GTM-1950","properties":{"kind":"division","code":"GTM-1950","countryCode":"GTM","name":"Escuintla","localName":"Escuintla","labelEnglish":"Escuintla","labelLocal":"Escuintla","labelBoth":"Escuintla","type":"Department","iso":"GT-ES","qid":"Q795587"},"geometry":{"type":"Polygon","coordinates":[[[-90.6273,13.9207],[-90.5649,14.2562],[-90.6505,14.4687],[-90.8905,14.4893],[-91.1113,14.4304],[-91.1711,14.272],[-91.448,14.3065],[-91.5519,14.0573],[-91.3165,13.9557],[-90.6273,13.9207]]]}},{"type":"Feature","id":"label-GTM-1950","properties":{"kind":"division-label","code":"GTM-1950","countryCode":"GTM","name":"Escuintla","localName":"Escuintla","labelEnglish":"Escuintla","labelLocal":"Escuintla","labelBoth":"Escuintla","type":"Department","iso":"GT-ES","qid":"Q795587"},"geometry":{"type":"Point","coordinates":[-91.0243,14.1674]}},{"type":"Feature","id":"GTM-1957","properties":{"kind":"division","code":"GTM-1957","countryCode":"GTM","name":"Santa Rosa","localName":"Santa Rosa","labelEnglish":"Santa Rosa","labelLocal":"Santa Rosa","labelBoth":"Santa Rosa","type":"Department","iso":"GT-SR","qid":"Q885656"},"geometry":{"type":"Polygon","coordinates":[[[-90.2406,13.7887],[-90.0583,14.1697],[-90.1911,14.2529],[-90.0519,14.4335],[-90.2852,14.5143],[-90.5649,14.2562],[-90.6273,13.9207],[-90.2406,13.7887]]]}},{"type":"Feature","id":"label-GTM-1957","properties":{"kind":"division-label","code":"GTM-1957","countryCode":"GTM","name":"Santa Rosa","localName":"Santa Rosa","labelEnglish":"Santa Rosa","labelLocal":"Santa Rosa","labelBoth":"Santa Rosa","type":"Department","iso":"GT-SR","qid":"Q885656"},"geometry":{"type":"Point","coordinates":[-90.3389,14.1651]}},{"type":"Feature","id":"GTM-1949","properties":{"kind":"division","code":"GTM-1949","countryCode":"GTM","name":"Chimaltenango","localName":"Chimaltenango","labelEnglish":"Chimaltenango","labelLocal":"Chimaltenango","labelBoth":"Chimaltenango","type":"Department","iso":"GT-CM","qid":"Q765975"},"geometry":{"type":"Polygon","coordinates":[[[-90.7652,14.7779],[-90.6576,14.9039],[-91.0874,14.8263],[-91.1141,14.5304],[-91.1113,14.4304],[-90.8905,14.4893],[-90.7652,14.7779]]]}},{"type":"Feature","id":"label-GTM-1949","properties":{"kind":"division-label","code":"GTM-1949","countryCode":"GTM","name":"Chimaltenango","localName":"Chimaltenango","labelEnglish":"Chimaltenango","labelLocal":"Chimaltenango","labelBoth":"Chimaltenango","type":"Department","iso":"GT-CM","qid":"Q765975"},"geometry":{"type":"Point","coordinates":[-90.8859,14.7313]}},{"type":"Feature","id":"GTM-1953","properties":{"kind":"division","code":"GTM-1953","countryCode":"GTM","name":"Sacatepéquez","localName":"Sacatepéquez","labelEnglish":"Sacatepéquez","labelLocal":"Sacatepéquez","labelBoth":"Sacatepéquez","type":"Department","iso":"GT-SA","qid":"Q508804"},"geometry":{"type":"Polygon","coordinates":[[[-90.8905,14.4893],[-90.6505,14.4687],[-90.7652,14.7779],[-90.8905,14.4893]]]}},{"type":"Feature","id":"label-GTM-1953","properties":{"kind":"division-label","code":"GTM-1953","countryCode":"GTM","name":"Sacatepéquez","localName":"Sacatepéquez","labelEnglish":"Sacatepéquez","labelLocal":"Sacatepéquez","labelBoth":"Sacatepéquez","type":"Department","iso":"GT-SA","qid":"Q508804"},"geometry":{"type":"Point","coordinates":[-90.7545,14.6139]}},{"type":"Feature","id":"GTM-1951","properties":{"kind":"division","code":"GTM-1951","countryCode":"GTM","name":"Guatemala","localName":"Guatemala","labelEnglish":"Guatemala","labelLocal":"Guatemala","labelBoth":"Guatemala","type":"Department","iso":"GT-GU","qid":"Q695660"},"geometry":{"type":"Polygon","coordinates":[[[-90.7652,14.7779],[-90.6505,14.4687],[-90.5649,14.2562],[-90.2852,14.5143],[-90.2091,14.6743],[-90.3999,14.899],[-90.6576,14.9039],[-90.7652,14.7779]]]}},{"type":"Feature","id":"label-GTM-1951","properties":{"kind":"division-label","code":"GTM-1951","countryCode":"GTM","name":"Guatemala","localName":"Guatemala","labelEnglish":"Guatemala","labelLocal":"Guatemala","labelBoth":"Guatemala","type":"Department","iso":"GT-GU","qid":"Q695660"},"geometry":{"type":"Point","coordinates":[-90.4872,14.6006]}},{"type":"Feature","id":"GTM-1961","properties":{"kind":"division","code":"GTM-1961","countryCode":"GTM","name":"Jalapa","localName":"Jalapa","labelEnglish":"Jalapa","labelLocal":"Jalapa","labelBoth":"Jalapa","type":"Department","iso":"GT-JA","qid":"Q795441"},"geometry":{"type":"Polygon","coordinates":[[[-90.2852,14.5143],[-90.0519,14.4335],[-89.6855,14.5776],[-89.7364,14.7799],[-89.834,14.8765],[-90.2091,14.6743],[-90.2852,14.5143]]]}},{"type":"Feature","id":"label-GTM-1961","properties":{"kind":"division-label","code":"GTM-1961","countryCode":"GTM","name":"Jalapa","localName":"Jalapa","labelEnglish":"Jalapa","labelLocal":"Jalapa","labelBoth":"Jalapa","type":"Department","iso":"GT-JA","qid":"Q795441"},"geometry":{"type":"Point","coordinates":[-89.9727,14.6255]}},{"type":"Feature","id":"GTM-1956","properties":{"kind":"division","code":"GTM-1956","countryCode":"GTM","name":"El Progreso","localName":"El Progreso","labelEnglish":"El Progreso","labelLocal":"El Progreso","labelBoth":"El Progreso","type":"Department","iso":"GT-PR","qid":"Q795591"},"geometry":{"type":"Polygon","coordinates":[[[-90.3999,14.899],[-90.2091,14.6743],[-89.834,14.8765],[-89.878,15.1599],[-89.973,15.1565],[-90.3999,14.899]]]}},{"type":"Feature","id":"label-GTM-1956","properties":{"kind":"division-label","code":"GTM-1956","countryCode":"GTM","name":"El Progreso","localName":"El Progreso","labelEnglish":"El Progreso","labelLocal":"El Progreso","labelBoth":"El Progreso","type":"Department","iso":"GT-PR","qid":"Q795591"},"geometry":{"type":"Point","coordinates":[-90.0911,14.9038]}},{"type":"Feature","id":"GTM-1954","properties":{"kind":"division","code":"GTM-1954","countryCode":"GTM","name":"Sololá","localName":"Sololá","labelEnglish":"Sololá","labelLocal":"Sololá","labelBoth":"Sololá","type":"Department","iso":"GT-SO","qid":"Q178136"},"geometry":{"type":"Polygon","coordinates":[[[-91.0874,14.8263],[-91.183,14.9107],[-91.4283,14.8176],[-91.4697,14.7396],[-91.1141,14.5304],[-91.0874,14.8263]]]}},{"type":"Feature","id":"label-GTM-1954","properties":{"kind":"division-label","code":"GTM-1954","countryCode":"GTM","name":"Sololá","localName":"Sololá","labelEnglish":"Sololá","labelLocal":"Sololá","labelBoth":"Sololá","type":"Department","iso":"GT-SO","qid":"Q178136"},"geometry":{"type":"Point","coordinates":[-91.2727,14.7372]}},{"type":"Feature","id":"GTM-1945","properties":{"kind":"division","code":"GTM-1945","countryCode":"GTM","name":"Quetzaltenango","localName":"Quetzaltenango","labelEnglish":"Quetzaltenango","labelLocal":"Quetzaltenango","labelBoth":"Quetzaltenango","type":"Department","iso":"GT-QZ","qid":"Q844502"},"geometry":{"type":"Polygon","coordinates":[[[-91.4283,14.8176],[-91.5188,15.156],[-91.6161,15.2209],[-91.8507,14.729],[-92.1341,14.6421],[-92.0166,14.5309],[-91.761,14.6965],[-91.5105,14.713],[-91.4697,14.7396],[-91.4283,14.8176]]]}},{"type":"Feature","id":"label-GTM-1945","properties":{"kind":"division-label","code":"GTM-1945","countryCode":"GTM","name":"Quetzaltenango","localName":"Quetzaltenango","labelEnglish":"Quetzaltenango","labelLocal":"Quetzaltenango","labelBoth":"Quetzaltenango","type":"Department","iso":"GT-QZ","qid":"Q844502"},"geometry":{"type":"Point","coordinates":[-91.7831,14.7269]}},{"type":"Feature","id":"GTM-1942","properties":{"kind":"division","code":"GTM-1942","countryCode":"GTM","name":"Baja Verapaz","localName":"Baja Verapaz","labelEnglish":"Baja Verapaz","labelLocal":"Baja Verapaz","labelBoth":"Baja Verapaz","type":"Department","iso":"GT-BV","qid":"Q504647"},"geometry":{"type":"Polygon","coordinates":[[[-90.3999,14.899],[-89.973,15.1565],[-89.9521,15.2885],[-90.5038,15.2622],[-90.8657,15.2568],[-90.6576,14.9039],[-90.3999,14.899]]]}},{"type":"Feature","id":"label-GTM-1942","properties":{"kind":"division-label","code":"GTM-1942","countryCode":"GTM","name":"Baja Verapaz","localName":"Baja Verapaz","labelEnglish":"Baja Verapaz","labelLocal":"Baja Verapaz","labelBoth":"Baja Verapaz","type":"Department","iso":"GT-BV","qid":"Q504647"},"geometry":{"type":"Point","coordinates":[-90.3946,15.0766]}},{"type":"Feature","id":"GTM-1955","properties":{"kind":"division","code":"GTM-1955","countryCode":"GTM","name":"Totonicapán","localName":"Totonicapán","labelEnglish":"Totonicapán","labelLocal":"Totonicapán","labelBoth":"Totonicapán","type":"Department","iso":"GT-TO","qid":"Q885644"},"geometry":{"type":"Polygon","coordinates":[[[-91.5188,15.156],[-91.4283,14.8176],[-91.183,14.9107],[-91.3154,15.2632],[-91.5188,15.156]]]}},{"type":"Feature","id":"label-GTM-1955","properties":{"kind":"division-label","code":"GTM-1955","countryCode":"GTM","name":"Totonicapán","localName":"Totonicapán","labelEnglish":"Totonicapán","labelLocal":"Totonicapán","labelBoth":"Totonicapán","type":"Department","iso":"GT-TO","qid":"Q885644"},"geometry":{"type":"Point","coordinates":[-91.3884,15.0474]}}]}