{"type":"FeatureCollection","features":[{"type":"Feature","id":"GUM+00?","properties":{"kind":"division","code":"GUM+00?","countryCode":"GUM","name":"Guam","localName":"Guam","labelEnglish":"Guam","labelLocal":"Guam","labelBoth":"Guam","type":null,"iso":"GU-X01~","qid":"Q16635"},"geometry":{"type":"Polygon","coordinates":[[[144.8864,13.6402],[144.6545,13.4392],[144.6807,13.2468],[144.9522,13.5869],[144.8864,13.6402]]]}},{"type":"Feature","id":"label-GUM+00?","properties":{"kind":"division-label","code":"GUM+00?","countryCode":"GUM","name":"Guam","localName":"Guam","labelEnglish":"Guam","labelLocal":"Guam","labelBoth":"Guam","type":null,"iso":"GU-X01~","qid":"Q16635"},"geometry":{"type":"Point","coordinates":[144.789,13.4733]}}]}