{"type":"FeatureCollection","features":[{"type":"Feature","id":"GUY-671","properties":{"kind":"division","code":"GUY-671","countryCode":"GUY","name":"Mahaica-Berbice","localName":"Mahaica-Berbice","labelEnglish":"Mahaica-Berbice","labelLocal":"Mahaica-Berbice","labelBoth":"Mahaica-Berbice","type":"Region","iso":"GY-MA","qid":"Q1466671"},"geometry":{"type":"Polygon","coordinates":[[[-56.4818,1.9416],[-56.7052,2.0296],[-57.1746,2.819],[-57.3084,3.3949],[-57.5651,3.3498],[-57.8298,3.6624],[-58.0677,4.1511],[-57.8374,4.6509],[-57.9185,4.8298],[-57.7205,4.9898],[-57.2805,5.0261],[-57.2325,5.2606],[-57.2477,5.4849],[-57.1615,5.6389],[-57.1673,6.0851],[-57.5204,6.278],[-57.683,5.875],[-57.6076,5.7738],[-57.6984,5.3473],[-58.066,4.654],[-58.2822,4.6343],[-58.4399,4.2512],[-58.1516,3.5344],[-58.1005,3.2044],[-57.9324,2.8783],[-58.2671,1.8971],[-58.5018,1.4538],[-58.3319,1.5934],[-58.0272,1.5169],[-57.985,1.6577],[-57.5612,1.709],[-57.3415,1.9688],[-57.1045,2.0215],[-56.8065,1.8736],[-56.4818,1.9416]]]}},{"type":"Feature","id":"label-GUY-671","properties":{"kind":"division-label","code":"GUY-671","countryCode":"GUY","name":"Mahaica-Berbice","localName":"Mahaica-Berbice","labelEnglish":"Mahaica-Berbice","labelLocal":"Mahaica-Berbice","labelBoth":"Mahaica-Berbice","type":"Region","iso":"GY-MA","qid":"Q1466671"},"geometry":{"type":"Point","coordinates":[-57.4923,2.56716]}},{"type":"Feature","id":"GUY-676","properties":{"kind":"division","code":"GUY-676","countryCode":"GUY","name":"Pomeroon-Supenaam","localName":"Pomeroon-Supenaam","labelEnglish":"Pomeroon-Supenaam","labelLocal":"Pomeroon-Supenaam","labelBoth":"Pomeroon-Supenaam","type":"Region","iso":"GY-PM","qid":"Q680382"},"geometry":{"type":"Polygon","coordinates":[[[-60.7399,5.2021],[-60.2134,5.2672],[-60.0887,5.1554],[-59.9182,5.3742],[-59.5732,5.4052],[-59.5881,5.5363],[-59.2068,5.7048],[-58.8447,5.415],[-58.693,5.4376],[-58.5732,5.9137],[-58.602,6.4166],[-58.617,6.4881],[-58.8336,6.714],[-59.1544,6.9843],[-59.3307,6.951],[-59.8317,7.1924],[-60.0877,7.0681],[-60.3483,7.1527],[-60.3773,6.9385],[-60.7215,6.7597],[-61.1298,6.7158],[-61.2097,6.541],[-61.1216,6.1867],[-61.3796,5.9053],[-60.7399,5.2021]]]}},{"type":"Feature","id":"label-GUY-676","properties":{"kind":"division-label","code":"GUY-676","countryCode":"GUY","name":"Pomeroon-Supenaam","localName":"Pomeroon-Supenaam","labelEnglish":"Pomeroon-Supenaam","labelLocal":"Pomeroon-Supenaam","labelBoth":"Pomeroon-Supenaam","type":"Region","iso":"GY-PM","qid":"Q680382"},"geometry":{"type":"Point","coordinates":[-59.9838,6.18361]}},{"type":"Feature","id":"GUY-672","properties":{"kind":"division","code":"GUY-672","countryCode":"GUY","name":"Potaro-Siparuni","localName":"Potaro-Siparuni","labelEnglish":"Potaro-Siparuni","labelLocal":"Potaro-Siparuni","labelBoth":"Potaro-Siparuni","type":"Region","iso":"GY-PT","qid":"Q1454035"},"geometry":{"type":"Polygon","coordinates":[[[-60.0887,5.1554],[-59.9831,5.0859],[-60.1488,4.513],[-59.6871,4.3715],[-59.5247,4.4953],[-59.3847,4.1546],[-59.0685,4.1864],[-58.8806,4.0006],[-58.5485,4.2885],[-58.4399,4.2512],[-58.2822,4.6343],[-58.5678,4.6212],[-58.7943,4.7659],[-58.8447,5.415],[-59.2068,5.7048],[-59.5881,5.5363],[-59.5732,5.4052],[-59.9182,5.3742],[-60.0887,5.1554]]]}},{"type":"Feature","id":"label-GUY-672","properties":{"kind":"division-label","code":"GUY-672","countryCode":"GUY","name":"Potaro-Siparuni","localName":"Potaro-Siparuni","labelEnglish":"Potaro-Siparuni","labelLocal":"Potaro-Siparuni","labelBoth":"Potaro-Siparuni","type":"Region","iso":"GY-PT","qid":"Q1454035"},"geometry":{"type":"Point","coordinates":[-59.2238,4.93151]}},{"type":"Feature","id":"GUY-674","properties":{"kind":"division","code":"GUY-674","countryCode":"GUY","name":"Upper Demerara-Berbice","localName":"Upper Demerara-Berbice","labelEnglish":"Upper Demerara-Berbice","labelLocal":"Upper Demerara-Berbice","labelBoth":"Upper Demerara-Berbice","type":"Region","iso":"GY-UD","qid":"Q1309042"},"geometry":{"type":"Polygon","coordinates":[[[-59.6871,4.3715],[-59.7267,4.1765],[-59.5292,3.9319],[-59.8377,3.6093],[-59.821,3.3635],[-59.9594,3.0665],[-60.0001,2.694],[-59.9031,2.3596],[-59.7417,2.2638],[-59.7497,1.8513],[-59.2421,1.3778],[-58.972,1.3123],[-58.7719,1.2013],[-58.5189,1.2673],[-58.5018,1.4538],[-58.2671,1.8971],[-57.9324,2.8783],[-58.1005,3.2044],[-58.1516,3.5344],[-58.4399,4.2512],[-58.5485,4.2885],[-58.8806,4.0006],[-59.0685,4.1864],[-59.3847,4.1546],[-59.5247,4.4953],[-59.6871,4.3715]]]}},{"type":"Feature","id":"label-GUY-674","properties":{"kind":"division-label","code":"GUY-674","countryCode":"GUY","name":"Upper Demerara-Berbice","localName":"Upper Demerara-Berbice","labelEnglish":"Upper Demerara-Berbice","labelLocal":"Upper Demerara-Berbice","labelBoth":"Upper Demerara-Berbice","type":"Region","iso":"GY-UD","qid":"Q1309042"},"geometry":{"type":"Point","coordinates":[-58.9648,2.6693]}},{"type":"Feature","id":"GUY-675","properties":{"kind":"division","code":"GUY-675","countryCode":"GUY","name":"Barima-Waini","localName":"Barima-Waini","labelEnglish":"Barima-Waini","labelLocal":"Barima-Waini","labelBoth":"Barima-Waini","type":"Region","iso":"GY-BA","qid":"Q537740"},"geometry":{"type":"Polygon","coordinates":[[[-60.021,8.558],[-59.8156,8.2878],[-60.268,7.9213],[-60.5033,7.8209],[-60.7306,7.5254],[-60.548,7.1255],[-60.3483,7.1527],[-60.0877,7.0681],[-59.8317,7.1924],[-59.3307,6.951],[-59.1544,6.9843],[-59.1004,7.3943],[-58.7807,7.6651],[-59.1652,8.0587],[-60.021,8.558]]]}},{"type":"Feature","id":"label-GUY-675","properties":{"kind":"division-label","code":"GUY-675","countryCode":"GUY","name":"Barima-Waini","localName":"Barima-Waini","labelEnglish":"Barima-Waini","labelLocal":"Barima-Waini","labelBoth":"Barima-Waini","type":"Region","iso":"GY-BA","qid":"Q537740"},"geometry":{"type":"Point","coordinates":[-59.7502,7.74233]}},{"type":"Feature","id":"GUY-678","properties":{"kind":"division","code":"GUY-678","countryCode":"GUY","name":"Demerara-Mahaica","localName":"Demerara-Mahaica","labelEnglish":"Demerara-Mahaica","labelLocal":"Demerara-Mahaica","labelBoth":"Demerara-Mahaica","type":"Region","iso":"GY-DE","qid":"Q1185362"},"geometry":{"type":"MultiPolygon","coordinates":[[[[-58.5196,6.9776],[-58.8336,6.714],[-58.617,6.4881],[-58.5196,6.9776]]],[[[-58.5812,6.4634],[-58.2747,6.1059],[-58.3034,6.4617],[-58.1737,6.8154],[-58.3984,6.8834],[-58.5812,6.4634]]]]}},{"type":"Feature","id":"label-GUY-678","properties":{"kind":"division-label","code":"GUY-678","countryCode":"GUY","name":"Demerara-Mahaica","localName":"Demerara-Mahaica","labelEnglish":"Demerara-Mahaica","labelLocal":"Demerara-Mahaica","labelBoth":"Demerara-Mahaica","type":"Region","iso":"GY-DE","qid":"Q1185362"},"geometry":{"type":"Point","coordinates":[-58.3773,6.54128]}},{"type":"Feature","id":"GUY-680","properties":{"kind":"division","code":"GUY-680","countryCode":"GUY","name":"Cuyuni-Mazaruni","localName":"Cuyuni-Mazaruni","labelEnglish":"Cuyuni-Mazaruni","labelLocal":"Cuyuni-Mazaruni","labelBoth":"Cuyuni-Mazaruni","type":"Region","iso":"GY-CU","qid":"Q1146777"},"geometry":{"type":"Polygon","coordinates":[[[-58.7807,7.6651],[-59.1004,7.3943],[-59.1544,6.9843],[-58.8336,6.714],[-58.5196,6.9776],[-58.4897,7.3761],[-58.7807,7.6651]]]}},{"type":"Feature","id":"label-GUY-680","properties":{"kind":"division-label","code":"GUY-680","countryCode":"GUY","name":"Cuyuni-Mazaruni","localName":"Cuyuni-Mazaruni","labelEnglish":"Cuyuni-Mazaruni","labelLocal":"Cuyuni-Mazaruni","labelBoth":"Cuyuni-Mazaruni","type":"Region","iso":"GY-CU","qid":"Q1146777"},"geometry":{"type":"Point","coordinates":[-58.8206,7.16881]}},{"type":"Feature","id":"GUY-673","properties":{"kind":"division","code":"GUY-673","countryCode":"GUY","name":"Upper Takutu-Upper Essequibo","localName":"Upper Takutu-Upper Essequibo","labelEnglish":"Upper Takutu-Upper Essequibo","labelLocal":"Upper Takutu-Upper Essequibo","labelBoth":"Upper Takutu-Upper Essequibo","type":"Region","iso":"GY-UT","qid":"Q1516381"},"geometry":{"type":"Polygon","coordinates":[[[-58.602,6.4166],[-58.5732,5.9137],[-58.693,5.4376],[-58.8447,5.415],[-58.7943,4.7659],[-58.5678,4.6212],[-58.2822,4.6343],[-58.066,4.654],[-57.6984,5.3473],[-57.6076,5.7738],[-57.683,5.875],[-57.8437,5.841],[-58.1252,6.0799],[-58.2747,6.1059],[-58.5812,6.4634],[-58.602,6.4166]]]}},{"type":"Feature","id":"label-GUY-673","properties":{"kind":"division-label","code":"GUY-673","countryCode":"GUY","name":"Upper Takutu-Upper Essequibo","localName":"Upper Takutu-Upper Essequibo","labelEnglish":"Upper Takutu-Upper Essequibo","labelLocal":"Upper Takutu-Upper Essequibo","labelBoth":"Upper Takutu-Upper Essequibo","type":"Region","iso":"GY-UT","qid":"Q1516381"},"geometry":{"type":"Point","coordinates":[-58.2455,5.36479]}},{"type":"Feature","id":"GUY-677","properties":{"kind":"division","code":"GUY-677","countryCode":"GUY","name":"East Berbice-Corentyne","localName":"East Berbice-Corentyne","labelEnglish":"East Berbice-Corentyne","labelLocal":"East Berbice-Corentyne","labelBoth":"East Berbice-Corentyne","type":"Region","iso":"GY-EB","qid":"Q1277758"},"geometry":{"type":"Polygon","coordinates":[[[-58.1737,6.8154],[-58.3034,6.4617],[-58.2747,6.1059],[-58.1252,6.0799],[-58.0791,6.3444],[-57.8916,6.5328],[-57.9139,6.7128],[-58.1737,6.8154]]]}},{"type":"Feature","id":"label-GUY-677","properties":{"kind":"division-label","code":"GUY-677","countryCode":"GUY","name":"East Berbice-Corentyne","localName":"East Berbice-Corentyne","labelEnglish":"East Berbice-Corentyne","labelLocal":"East Berbice-Corentyne","labelBoth":"East Berbice-Corentyne","type":"Region","iso":"GY-EB","qid":"Q1277758"},"geometry":{"type":"Point","coordinates":[-58.0942,6.56415]}},{"type":"Feature","id":"GUY-679","properties":{"kind":"division","code":"GUY-679","countryCode":"GUY","name":"Mahaica-Berbice","localName":"Mahaica-Berbice","labelEnglish":"Mahaica-Berbice","labelLocal":"Mahaica-Berbice","labelBoth":"Mahaica-Berbice","type":"Region","iso":"GY-ES","qid":"Q1466671"},"geometry":{"type":"Polygon","coordinates":[[[-57.9139,6.7128],[-57.8916,6.5328],[-58.0791,6.3444],[-58.1252,6.0799],[-57.8437,5.841],[-57.683,5.875],[-57.5204,6.278],[-57.9139,6.7128]]]}},{"type":"Feature","id":"label-GUY-679","properties":{"kind":"division-label","code":"GUY-679","countryCode":"GUY","name":"Mahaica-Berbice","localName":"Mahaica-Berbice","labelEnglish":"Mahaica-Berbice","labelLocal":"Mahaica-Berbice","labelBoth":"Mahaica-Berbice","type":"Region","iso":"GY-ES","qid":"Q1466671"},"geometry":{"type":"Point","coordinates":[-57.8277,6.23705]}}]}