{"type":"FeatureCollection","features":[{"type":"Feature","id":"HKG-5168","properties":{"kind":"division","code":"HKG-5168","countryCode":"HKG","name":"North District","localName":"North District","labelEnglish":"North District","labelLocal":"North District","labelBoth":"North District","type":null,"iso":"HK-X16~","qid":null},"geometry":{"type":"Polygon","coordinates":[[[114.2298,22.5558],[114.0824,22.5294],[114.0853,22.5229],[114.1396,22.4681],[114.3328,22.5119],[114.2298,22.5558]]]}},{"type":"Feature","id":"label-HKG-5168","properties":{"kind":"division-label","code":"HKG-5168","countryCode":"HKG","name":"North District","localName":"North District","labelEnglish":"North District","labelLocal":"North District","labelBoth":"North District","type":null,"iso":"HK-X16~","qid":null},"geometry":{"type":"Point","coordinates":[114.148,22.5063]}},{"type":"Feature","id":"HKG-5170","properties":{"kind":"division","code":"HKG-5170","countryCode":"HKG","name":"Lantau Island","localName":"Lantau Island","labelEnglish":"Lantau Island","labelLocal":"Lantau Island","labelBoth":"Lantau Island","type":null,"iso":"HK-X18~","qid":null},"geometry":{"type":"Polygon","coordinates":[[[113.9956,22.3158],[113.8392,22.2342],[113.9063,22.204],[114.0305,22.3162],[113.9956,22.3158]]]}},{"type":"Feature","id":"label-HKG-5170","properties":{"kind":"division-label","code":"HKG-5170","countryCode":"HKG","name":"Lantau Island","localName":"Lantau Island","labelEnglish":"Lantau Island","labelLocal":"Lantau Island","labelBoth":"Lantau Island","type":null,"iso":"HK-X18~","qid":null},"geometry":{"type":"Point","coordinates":[113.954,22.2597]}},{"type":"Feature","id":"HKG-5156","properties":{"kind":"division","code":"HKG-5156","countryCode":"HKG","name":"Southern District","localName":"Southern District","labelEnglish":"Southern District","labelLocal":"Southern District","labelBoth":"Southern District","type":null,"iso":"HK-X04~","qid":null},"geometry":{"type":"Polygon","coordinates":[[[114.2515,22.2489],[114.1888,22.2594],[114.1625,22.2582],[114.1126,22.2715],[114.2077,22.1896],[114.2515,22.2489]]]}},{"type":"Feature","id":"label-HKG-5156","properties":{"kind":"division-label","code":"HKG-5156","countryCode":"HKG","name":"Southern District","localName":"Southern District","labelEnglish":"Southern District","labelLocal":"Southern District","labelBoth":"Southern District","type":null,"iso":"HK-X04~","qid":null},"geometry":{"type":"Point","coordinates":[114.204,22.2402]}},{"type":"Feature","id":"HKG-5153","properties":{"kind":"division","code":"HKG-5153","countryCode":"HKG","name":"Central and Western District","localName":"Central and Western District","labelEnglish":"Central and Western District","labelLocal":"Central and Western District","labelBoth":"Central and Western District","type":null,"iso":"HK-X01~","qid":null},"geometry":{"type":"Polygon","coordinates":[[[114.1126,22.2715],[114.1625,22.2582],[114.1657,22.2794],[114.1126,22.2715]]]}},{"type":"Feature","id":"label-HKG-5153","properties":{"kind":"division-label","code":"HKG-5153","countryCode":"HKG","name":"Central and Western District","localName":"Central and Western District","labelEnglish":"Central and Western District","labelLocal":"Central and Western District","labelBoth":"Central and Western District","type":null,"iso":"HK-X01~","qid":null},"geometry":{"type":"Point","coordinates":[114.144,22.2741]}},{"type":"Feature","id":"HKG-5154","properties":{"kind":"division","code":"HKG-5154","countryCode":"HKG","name":"Wan Chai","localName":"Wan Chai","labelEnglish":"Wan Chai","labelLocal":"Wan Chai","labelBoth":"Wan Chai","type":null,"iso":"HK-X02~","qid":null},"geometry":{"type":"Polygon","coordinates":[[[114.1657,22.2794],[114.1625,22.2582],[114.1888,22.2594],[114.1789,22.2794],[114.1657,22.2794]]]}},{"type":"Feature","id":"label-HKG-5154","properties":{"kind":"division-label","code":"HKG-5154","countryCode":"HKG","name":"Wan Chai","localName":"Wan Chai","labelEnglish":"Wan Chai","labelLocal":"Wan Chai","labelBoth":"Wan Chai","type":null,"iso":"HK-X02~","qid":null},"geometry":{"type":"Point","coordinates":[114.178,22.2699]}},{"type":"Feature","id":"HKG-5155","properties":{"kind":"division","code":"HKG-5155","countryCode":"HKG","name":"Siu Ma Shan","localName":"Siu Ma Shan","labelEnglish":"Siu Ma Shan","labelLocal":"Siu Ma Shan","labelBoth":"Siu Ma Shan","type":null,"iso":"HK-X03~","qid":null},"geometry":{"type":"Polygon","coordinates":[[[114.1789,22.2794],[114.1888,22.2594],[114.2515,22.2489],[114.1789,22.2794]]]}},{"type":"Feature","id":"label-HKG-5155","properties":{"kind":"division-label","code":"HKG-5155","countryCode":"HKG","name":"Siu Ma Shan","localName":"Siu Ma Shan","labelEnglish":"Siu Ma Shan","labelLocal":"Siu Ma Shan","labelBoth":"Siu Ma Shan","type":null,"iso":"HK-X03~","qid":null},"geometry":{"type":"Point","coordinates":[114.213,22.2706]}},{"type":"Feature","id":"HKG-5165","properties":{"kind":"division","code":"HKG-5165","countryCode":"HKG","name":"Tsuen Wan","localName":"Tsuen Wan","labelEnglish":"Tsuen Wan","labelLocal":"Tsuen Wan","labelBoth":"Tsuen Wan","type":null,"iso":"HK-X13~","qid":null},"geometry":{"type":"Polygon","coordinates":[[[114.1125,22.3577],[114.1505,22.3666],[114.1708,22.4178],[114.1373,22.4119],[114.0358,22.3822],[114.0205,22.3504],[114.1125,22.3577]]]}},{"type":"Feature","id":"label-HKG-5165","properties":{"kind":"division-label","code":"HKG-5165","countryCode":"HKG","name":"Tsuen Wan","localName":"Tsuen Wan","labelEnglish":"Tsuen Wan","labelLocal":"Tsuen Wan","labelBoth":"Tsuen Wan","type":null,"iso":"HK-X13~","qid":null},"geometry":{"type":"Point","coordinates":[114.12,22.3869]}},{"type":"Feature","id":"HKG-5169","properties":{"kind":"division","code":"HKG-5169","countryCode":"HKG","name":"Tai Po","localName":"Tai Po","labelEnglish":"Tai Po","labelLocal":"Tai Po","labelBoth":"Tai Po","type":null,"iso":"HK-X17~","qid":null},"geometry":{"type":"MultiPolygon","coordinates":[[[[114.3328,22.5119],[114.1396,22.4681],[114.1373,22.4119],[114.1708,22.4178],[114.2053,22.4249],[114.3328,22.5119]]],[[[114.2515,22.4307],[114.2512,22.3955],[114.3674,22.4463],[114.2515,22.4307]]]]}},{"type":"Feature","id":"label-HKG-5169","properties":{"kind":"division-label","code":"HKG-5169","countryCode":"HKG","name":"Tai Po","localName":"Tai Po","labelEnglish":"Tai Po","labelLocal":"Tai Po","labelBoth":"Tai Po","type":null,"iso":"HK-X17~","qid":null},"geometry":{"type":"Point","coordinates":[114.154,22.4447]}},{"type":"Feature","id":"HKG-5163","properties":{"kind":"division","code":"HKG-5163","countryCode":"HKG","name":"Sha Tin","localName":"Sha Tin","labelEnglish":"Sha Tin","labelLocal":"Sha Tin","labelBoth":"Sha Tin","type":null,"iso":"HK-X11~","qid":null},"geometry":{"type":"Polygon","coordinates":[[[114.2053,22.4249],[114.1708,22.4178],[114.1505,22.3666],[114.1595,22.3419],[114.17,22.3448],[114.1856,22.348],[114.2231,22.3557],[114.2512,22.3955],[114.2515,22.4307],[114.2053,22.4249]]]}},{"type":"Feature","id":"label-HKG-5163","properties":{"kind":"division-label","code":"HKG-5163","countryCode":"HKG","name":"Sha Tin","localName":"Sha Tin","labelEnglish":"Sha Tin","labelLocal":"Sha Tin","labelBoth":"Sha Tin","type":null,"iso":"HK-X11~","qid":null},"geometry":{"type":"Point","coordinates":[114.2,22.3807]}},{"type":"Feature","id":"HKG-5162","properties":{"kind":"division","code":"HKG-5162","countryCode":"HKG","name":"Sai Kung","localName":"Sai Kung","labelEnglish":"Sai Kung","labelLocal":"Sai Kung","labelBoth":"Sai Kung","type":null,"iso":"HK-X10~","qid":null},"geometry":{"type":"Polygon","coordinates":[[[114.3674,22.4463],[114.2512,22.3955],[114.2231,22.3557],[114.234,22.3331],[114.2434,22.2862],[114.3674,22.4463]]]}},{"type":"Feature","id":"label-HKG-5162","properties":{"kind":"division-label","code":"HKG-5162","countryCode":"HKG","name":"Sai Kung","localName":"Sai Kung","labelEnglish":"Sai Kung","labelLocal":"Sai Kung","labelBoth":"Sai Kung","type":null,"iso":"HK-X10~","qid":null},"geometry":{"type":"Point","coordinates":[114.249,22.3463]}},{"type":"Feature","id":"HKG-5161","properties":{"kind":"division","code":"HKG-5161","countryCode":"HKG","name":"Kwun Tong","localName":"Kwun Tong","labelEnglish":"Kwun Tong","labelLocal":"Kwun Tong","labelBoth":"Kwun Tong","type":null,"iso":"HK-X09~","qid":null},"geometry":{"type":"Polygon","coordinates":[[[114.2434,22.2862],[114.234,22.3331],[114.2052,22.3345],[114.2118,22.3106],[114.2434,22.2862]]]}},{"type":"Feature","id":"label-HKG-5161","properties":{"kind":"division-label","code":"HKG-5161","countryCode":"HKG","name":"Kwun Tong","localName":"Kwun Tong","labelEnglish":"Kwun Tong","labelLocal":"Kwun Tong","labelBoth":"Kwun Tong","type":null,"iso":"HK-X09~","qid":null},"geometry":{"type":"Point","coordinates":[114.225,22.3159]}},{"type":"Feature","id":"HKG-5158","properties":{"kind":"division","code":"HKG-5158","countryCode":"HKG","name":"Kowloon City","localName":"Kowloon City","labelEnglish":"Kowloon City","labelLocal":"Kowloon City","labelBoth":"Kowloon City","type":null,"iso":"HK-X06~","qid":null},"geometry":{"type":"Polygon","coordinates":[[[114.2118,22.3106],[114.2052,22.3345],[114.1856,22.348],[114.17,22.3448],[114.1753,22.3231],[114.1765,22.2911],[114.2118,22.3106]]]}},{"type":"Feature","id":"label-HKG-5158","properties":{"kind":"division-label","code":"HKG-5158","countryCode":"HKG","name":"Kowloon City","localName":"Kowloon City","labelEnglish":"Kowloon City","labelLocal":"Kowloon City","labelBoth":"Kowloon City","type":null,"iso":"HK-X06~","qid":null},"geometry":{"type":"Point","coordinates":[114.19,22.3268]}},{"type":"Feature","id":"HKG-5157","properties":{"kind":"division","code":"HKG-5157","countryCode":"HKG","name":"Yau Tsim Mong","localName":"Yau Tsim Mong","labelEnglish":"Yau Tsim Mong","labelLocal":"Yau Tsim Mong","labelBoth":"Yau Tsim Mong","type":null,"iso":"HK-X05~","qid":null},"geometry":{"type":"Polygon","coordinates":[[[114.1765,22.2911],[114.1753,22.3231],[114.1595,22.3223],[114.1765,22.2911]]]}},{"type":"Feature","id":"label-HKG-5157","properties":{"kind":"division-label","code":"HKG-5157","countryCode":"HKG","name":"Yau Tsim Mong","localName":"Yau Tsim Mong","labelEnglish":"Yau Tsim Mong","labelLocal":"Yau Tsim Mong","labelBoth":"Yau Tsim Mong","type":null,"iso":"HK-X05~","qid":null},"geometry":{"type":"Point","coordinates":[114.169,22.3128]}},{"type":"Feature","id":"HKG-5159","properties":{"kind":"division","code":"HKG-5159","countryCode":"HKG","name":"Sham Shui Po","localName":"Sham Shui Po","labelEnglish":"Sham Shui Po","labelLocal":"Sham Shui Po","labelBoth":"Sham Shui Po","type":null,"iso":"HK-X07~","qid":null},"geometry":{"type":"Polygon","coordinates":[[[114.1595,22.3223],[114.1753,22.3231],[114.17,22.3448],[114.1595,22.3419],[114.1457,22.332],[114.1595,22.3223]]]}},{"type":"Feature","id":"label-HKG-5159","properties":{"kind":"division-label","code":"HKG-5159","countryCode":"HKG","name":"Sham Shui Po","localName":"Sham Shui Po","labelEnglish":"Sham Shui Po","labelLocal":"Sham Shui Po","labelBoth":"Sham Shui Po","type":null,"iso":"HK-X07~","qid":null},"geometry":{"type":"Point","coordinates":[114.164,22.3331]}},{"type":"Feature","id":"HKG-5164","properties":{"kind":"division","code":"HKG-5164","countryCode":"HKG","name":"Kwai Tsing","localName":"Kwai Tsing","labelEnglish":"Kwai Tsing","labelLocal":"Kwai Tsing","labelBoth":"Kwai Tsing","type":null,"iso":"HK-X12~","qid":null},"geometry":{"type":"Polygon","coordinates":[[[114.1457,22.332],[114.1595,22.3419],[114.1505,22.3666],[114.1125,22.3577],[114.1457,22.332]]]}},{"type":"Feature","id":"label-HKG-5164","properties":{"kind":"division-label","code":"HKG-5164","countryCode":"HKG","name":"Kwai Tsing","localName":"Kwai Tsing","labelEnglish":"Kwai Tsing","labelLocal":"Kwai Tsing","labelBoth":"Kwai Tsing","type":null,"iso":"HK-X12~","qid":null},"geometry":{"type":"Point","coordinates":[114.14,22.351]}},{"type":"Feature","id":"HKG-5166","properties":{"kind":"division","code":"HKG-5166","countryCode":"HKG","name":"Tuen Mun","localName":"Tuen Mun","labelEnglish":"Tuen Mun","labelLocal":"Tuen Mun","labelBoth":"Tuen Mun","type":null,"iso":"HK-X14~","qid":null},"geometry":{"type":"Polygon","coordinates":[[[114.0205,22.3504],[114.0358,22.3822],[113.941,22.4268],[114.0205,22.3504]]]}},{"type":"Feature","id":"label-HKG-5166","properties":{"kind":"division-label","code":"HKG-5166","countryCode":"HKG","name":"Tuen Mun","localName":"Tuen Mun","labelEnglish":"Tuen Mun","labelLocal":"Tuen Mun","labelBoth":"Tuen Mun","type":null,"iso":"HK-X14~","qid":null},"geometry":{"type":"Point","coordinates":[113.991,22.3846]}},{"type":"Feature","id":"HKG-5167","properties":{"kind":"division","code":"HKG-5167","countryCode":"HKG","name":"Yuen Long","localName":"Yuen Long","labelEnglish":"Yuen Long","labelLocal":"Yuen Long","labelBoth":"Yuen Long","type":null,"iso":"HK-X15~","qid":null},"geometry":{"type":"Polygon","coordinates":[[[113.941,22.4268],[114.0358,22.3822],[114.1373,22.4119],[114.1396,22.4681],[114.0853,22.5229],[113.941,22.4268]]]}},{"type":"Feature","id":"label-HKG-5167","properties":{"kind":"division-label","code":"HKG-5167","countryCode":"HKG","name":"Yuen Long","localName":"Yuen Long","labelEnglish":"Yuen Long","labelLocal":"Yuen Long","labelBoth":"Yuen Long","type":null,"iso":"HK-X15~","qid":null},"geometry":{"type":"Point","coordinates":[114.058,22.4415]}},{"type":"Feature","id":"HKG-5160","properties":{"kind":"division","code":"HKG-5160","countryCode":"HKG","name":"Wong Tai Sin District","localName":"Wong Tai Sin District","labelEnglish":"Wong Tai Sin District","labelLocal":"Wong Tai Sin District","labelBoth":"Wong Tai Sin District","type":null,"iso":"HK-X08~","qid":null},"geometry":{"type":"Polygon","coordinates":[[[114.1856,22.348],[114.2052,22.3345],[114.234,22.3331],[114.2231,22.3557],[114.1856,22.348]]]}},{"type":"Feature","id":"label-HKG-5160","properties":{"kind":"division-label","code":"HKG-5160","countryCode":"HKG","name":"Wong Tai Sin District","localName":"Wong Tai Sin District","labelEnglish":"Wong Tai Sin District","labelLocal":"Wong Tai Sin District","labelBoth":"Wong Tai Sin District","type":null,"iso":"HK-X08~","qid":null},"geometry":{"type":"Point","coordinates":[114.215,22.3432]}}]}