{"type":"FeatureCollection","features":[{"type":"Feature","id":"HMD+00?","properties":{"kind":"division","code":"HMD+00?","countryCode":"HMD","name":"Heard Island and McDonald Islands","localName":"Heard Island and McDonald Islands","labelEnglish":"Heard Island and McDonald Islands","labelLocal":"Heard Island and McDonald Islands","labelBoth":"Heard Island and McDonald Islands","type":null,"iso":"HM-X01~","qid":null},"geometry":{"type":"Polygon","coordinates":[[[73.7351,-53.1124],[73.3533,-53.0517],[73.4734,-53.1892],[73.7351,-53.1124]]]}},{"type":"Feature","id":"label-HMD+00?","properties":{"kind":"division-label","code":"HMD+00?","countryCode":"HMD","name":"Heard Island and McDonald Islands","localName":"Heard Island and McDonald Islands","labelEnglish":"Heard Island and McDonald Islands","labelLocal":"Heard Island and McDonald Islands","labelBoth":"Heard Island and McDonald Islands","type":null,"iso":"HM-X01~","qid":null},"geometry":{"type":"Point","coordinates":[73.5247,-53.1036]}}]}