{"type":"FeatureCollection","features":[{"type":"Feature","id":"HND-653","properties":{"kind":"division","code":"HND-653","countryCode":"HND","name":"Ocotepeque","localName":"Ocotepeque","labelEnglish":"Ocotepeque","labelLocal":"Ocotepeque","labelBoth":"Ocotepeque","type":"Department","iso":"HN-OC","qid":"Q867084"},"geometry":{"type":"Polygon","coordinates":[[[-89.3462,14.4131],[-89.1075,14.396],[-88.9702,14.2102],[-88.7305,14.5488],[-88.8927,14.5232],[-89.1462,14.7109],[-89.3616,14.4155],[-89.3462,14.4131]]]}},{"type":"Feature","id":"label-HND-653","properties":{"kind":"division-label","code":"HND-653","countryCode":"HND","name":"Ocotepeque","localName":"Ocotepeque","labelEnglish":"Ocotepeque","labelLocal":"Ocotepeque","labelBoth":"Ocotepeque","type":"Department","iso":"HN-OC","qid":"Q867084"},"geometry":{"type":"Point","coordinates":[-89.0399,14.5248]}},{"type":"Feature","id":"HND-652","properties":{"kind":"division","code":"HND-652","countryCode":"HND","name":"Lempira","localName":"Lempira","labelEnglish":"Lempira","labelLocal":"Lempira","labelBoth":"Lempira","type":"Department","iso":"HN-LE","qid":"Q744138"},"geometry":{"type":"Polygon","coordinates":[[[-88.9702,14.2102],[-88.6908,14.0118],[-88.4971,13.9691],[-88.3362,14.0768],[-88.5015,14.4486],[-88.3438,14.6543],[-88.3605,14.8192],[-88.6446,14.9274],[-88.7305,14.5488],[-88.9702,14.2102]]]}},{"type":"Feature","id":"label-HND-652","properties":{"kind":"division-label","code":"HND-652","countryCode":"HND","name":"Lempira","localName":"Lempira","labelEnglish":"Lempira","labelLocal":"Lempira","labelBoth":"Lempira","type":"Department","iso":"HN-LE","qid":"Q744138"},"geometry":{"type":"Point","coordinates":[-88.6478,14.4408]}},{"type":"Feature","id":"HND-648","properties":{"kind":"division","code":"HND-648","countryCode":"HND","name":"Intibucá","localName":"Intibucá","labelEnglish":"Intibucá","labelLocal":"Intibucá","labelBoth":"Intibucá","type":"Department","iso":"HN-IN","qid":"Q262125"},"geometry":{"type":"Polygon","coordinates":[[[-88.4971,13.9691],[-88.4968,13.8512],[-88.2742,13.9191],[-88.2177,13.9908],[-88.2322,14.0787],[-87.8531,14.4291],[-88.075,14.6648],[-88.3438,14.6543],[-88.5015,14.4486],[-88.3362,14.0768],[-88.4971,13.9691]]]}},{"type":"Feature","id":"label-HND-648","properties":{"kind":"division-label","code":"HND-648","countryCode":"HND","name":"Intibucá","localName":"Intibucá","labelEnglish":"Intibucá","labelLocal":"Intibucá","labelBoth":"Intibucá","type":"Department","iso":"HN-IN","qid":"Q262125"},"geometry":{"type":"Point","coordinates":[-88.1754,14.3981]}},{"type":"Feature","id":"HND-649","properties":{"kind":"division","code":"HND-649","countryCode":"HND","name":"La Paz","localName":"La Paz","labelEnglish":"La Paz","labelLocal":"La Paz","labelBoth":"La Paz","type":"Department","iso":"HN-LP","qid":"Q866886"},"geometry":{"type":"Polygon","coordinates":[[[-88.2177,13.9908],[-87.9526,13.892],[-87.7495,13.8456],[-87.647,13.8342],[-87.6152,14.0885],[-87.8258,14.2322],[-87.6395,14.2737],[-87.8531,14.4291],[-88.2322,14.0787],[-88.2177,13.9908]]]}},{"type":"Feature","id":"label-HND-649","properties":{"kind":"division-label","code":"HND-649","countryCode":"HND","name":"La Paz","localName":"La Paz","labelEnglish":"La Paz","labelLocal":"La Paz","labelBoth":"La Paz","type":"Department","iso":"HN-LP","qid":"Q866886"},"geometry":{"type":"Point","coordinates":[-87.9144,14.138]}},{"type":"Feature","id":"HND-645","properties":{"kind":"division","code":"HND-645","countryCode":"HND","name":"Valle","localName":"Valle","labelEnglish":"Valle","labelLocal":"Valle","labelBoth":"Valle","type":"Department","iso":"HN-VA","qid":"Q867097"},"geometry":{"type":"Polygon","coordinates":[[[-87.7495,13.8456],[-87.8172,13.4066],[-87.379,13.3931],[-87.4611,13.6702],[-87.647,13.8342],[-87.7495,13.8456]]]}},{"type":"Feature","id":"label-HND-645","properties":{"kind":"division-label","code":"HND-645","countryCode":"HND","name":"Valle","localName":"Valle","labelEnglish":"Valle","labelLocal":"Valle","labelBoth":"Valle","type":"Department","iso":"HN-VA","qid":"Q867097"},"geometry":{"type":"Point","coordinates":[-87.5992,13.5753]}},{"type":"Feature","id":"HND-642","properties":{"kind":"division","code":"HND-642","countryCode":"HND","name":"Olancho","localName":"Olancho","labelEnglish":"Olancho","labelLocal":"Olancho","labelBoth":"Olancho","type":"Department","iso":"HN-OL","qid":"Q867089"},"geometry":{"type":"Polygon","coordinates":[[[-84.9999,14.742],[-84.9999,15.0687],[-85.6883,15.5772],[-86.2329,15.4098],[-86.8589,15.2536],[-86.9875,15.0159],[-86.7142,14.4238],[-86.4282,14.2908],[-86.2325,14.3414],[-85.9131,14.1328],[-85.6469,14.1834],[-85.5631,14.042],[-85.158,14.3383],[-85.0237,14.6025],[-84.9999,14.742]]]}},{"type":"Feature","id":"label-HND-642","properties":{"kind":"division-label","code":"HND-642","countryCode":"HND","name":"Olancho","localName":"Olancho","labelEnglish":"Olancho","labelLocal":"Olancho","labelBoth":"Olancho","type":"Department","iso":"HN-OL","qid":"Q867089"},"geometry":{"type":"Point","coordinates":[-85.9937,14.8052]}},{"type":"Feature","id":"HND-640","properties":{"kind":"division","code":"HND-640","countryCode":"HND","name":"Gracias a Dios","localName":"Gracias a Dios","labelEnglish":"Gracias a Dios","labelLocal":"Gracias a Dios","labelBoth":"Gracias a Dios","type":"Department","iso":"HN-GD","qid":"Q867112"},"geometry":{"type":"Polygon","coordinates":[[[-84.9999,14.742],[-84.7702,14.8051],[-84.4827,14.6195],[-83.6156,14.8727],[-83.3903,15.031],[-83.1304,14.997],[-83.3563,15.2297],[-83.7694,15.2192],[-84.0825,15.3601],[-83.8942,15.4852],[-84.2946,15.811],[-84.9999,15.9879],[-84.9999,15.0687],[-84.9999,14.742]]]}},{"type":"Feature","id":"label-HND-640","properties":{"kind":"division-label","code":"HND-640","countryCode":"HND","name":"Gracias a Dios","localName":"Gracias a Dios","labelEnglish":"Gracias a Dios","labelLocal":"Gracias a Dios","labelBoth":"Gracias a Dios","type":"Department","iso":"HN-GD","qid":"Q867112"},"geometry":{"type":"Point","coordinates":[-84.3701,15.1219]}},{"type":"Feature","id":"HND-662","properties":{"kind":"division","code":"HND-662","countryCode":"HND","name":"El Paraíso","localName":"El Paraíso","labelEnglish":"El Paraíso","labelLocal":"El Paraíso","labelBoth":"El Paraíso","type":"Department","iso":"HN-EP","qid":"Q867108"},"geometry":{"type":"Polygon","coordinates":[[[-85.5631,14.042],[-85.6469,14.1834],[-85.9131,14.1328],[-86.2325,14.3414],[-86.4282,14.2908],[-86.7142,14.4238],[-86.8217,14.3378],[-87.0355,13.7754],[-87.2142,13.6711],[-87.0699,13.5081],[-86.7712,13.7079],[-86.4101,13.749],[-86.0967,14.0441],[-85.7431,13.824],[-85.5631,14.042]]]}},{"type":"Feature","id":"label-HND-662","properties":{"kind":"division-label","code":"HND-662","countryCode":"HND","name":"El Paraíso","localName":"El Paraíso","labelEnglish":"El Paraíso","labelLocal":"El Paraíso","labelBoth":"El Paraíso","type":"Department","iso":"HN-EP","qid":"Q867108"},"geometry":{"type":"Point","coordinates":[-86.5592,14.037]}},{"type":"Feature","id":"HND-661","properties":{"kind":"division","code":"HND-661","countryCode":"HND","name":"Choluteca","localName":"Choluteca","labelEnglish":"Choluteca","labelLocal":"Choluteca","labelBoth":"Choluteca","type":"Department","iso":"HN-CH","qid":"Q899272"},"geometry":{"type":"Polygon","coordinates":[[[-86.7327,13.2685],[-86.7641,13.6373],[-86.7712,13.7079],[-87.0699,13.5081],[-87.2142,13.6711],[-87.4611,13.6702],[-87.379,13.3931],[-87.5122,13.2867],[-87.314,12.9816],[-87.035,12.9798],[-86.9108,13.2396],[-86.7327,13.2685]]]}},{"type":"Feature","id":"label-HND-661","properties":{"kind":"division-label","code":"HND-661","countryCode":"HND","name":"Choluteca","localName":"Choluteca","labelEnglish":"Choluteca","labelLocal":"Choluteca","labelBoth":"Choluteca","type":"Department","iso":"HN-CH","qid":"Q899272"},"geometry":{"type":"Point","coordinates":[-87.1074,13.2587]}},{"type":"Feature","id":"HND-647","properties":{"kind":"division","code":"HND-647","countryCode":"HND","name":"Cortés","localName":"Cortés","labelEnglish":"Cortés","labelLocal":"Cortés","labelBoth":"Cortés","type":"Department","iso":"HN-CR","qid":"Q767244"},"geometry":{"type":"Polygon","coordinates":[[[-88.2209,15.7257],[-88.4674,15.5207],[-88.2409,15.4907],[-88.0615,15.2078],[-87.9858,14.8364],[-87.7359,15.0166],[-87.9231,15.1908],[-87.7876,15.721],[-87.7284,15.921],[-88.2209,15.7257]]]}},{"type":"Feature","id":"label-HND-647","properties":{"kind":"division-label","code":"HND-647","countryCode":"HND","name":"Cortés","localName":"Cortés","labelEnglish":"Cortés","labelLocal":"Cortés","labelBoth":"Cortés","type":"Department","iso":"HN-CR","qid":"Q767244"},"geometry":{"type":"Point","coordinates":[-88.0359,15.5336]}},{"type":"Feature","id":"HND-650","properties":{"kind":"division","code":"HND-650","countryCode":"HND","name":"Santa Bárbara","localName":"Santa Bárbara","labelEnglish":"Santa Bárbara","labelLocal":"Santa Bárbara","labelBoth":"Santa Bárbara","type":"Department","iso":"HN-SB","qid":"Q591139"},"geometry":{"type":"Polygon","coordinates":[[[-88.7609,15.3],[-88.6446,14.9274],[-88.3605,14.8192],[-88.3438,14.6543],[-88.075,14.6648],[-87.9858,14.8364],[-88.0615,15.2078],[-88.2409,15.4907],[-88.4674,15.5207],[-88.7609,15.3]]]}},{"type":"Feature","id":"label-HND-650","properties":{"kind":"division-label","code":"HND-650","countryCode":"HND","name":"Santa Bárbara","localName":"Santa Bárbara","labelEnglish":"Santa Bárbara","labelLocal":"Santa Bárbara","labelBoth":"Santa Bárbara","type":"Department","iso":"HN-SB","qid":"Q591139"},"geometry":{"type":"Point","coordinates":[-88.33,15.0527]}},{"type":"Feature","id":"HND-651","properties":{"kind":"division","code":"HND-651","countryCode":"HND","name":"Copán","localName":"Copán","labelEnglish":"Copán","labelLocal":"Copán","labelBoth":"Copán","type":"Department","iso":"HN-CP","qid":"Q843984"},"geometry":{"type":"Polygon","coordinates":[[[-89.1469,15.0713],[-89.1892,14.9131],[-89.1462,14.7109],[-88.8927,14.5232],[-88.7305,14.5488],[-88.6446,14.9274],[-88.7609,15.3],[-89.1469,15.0713]]]}},{"type":"Feature","id":"label-HND-651","properties":{"kind":"division-label","code":"HND-651","countryCode":"HND","name":"Copán","localName":"Copán","labelEnglish":"Copán","labelLocal":"Copán","labelBoth":"Copán","type":"Department","iso":"HN-CP","qid":"Q843984"},"geometry":{"type":"Point","coordinates":[-88.9362,14.8909]}},{"type":"Feature","id":"HND-638","properties":{"kind":"division","code":"HND-638","countryCode":"HND","name":"Colón","localName":"Colón","labelEnglish":"Colón","labelLocal":"Colón","labelBoth":"Colón","type":"Department","iso":"HN-CL","qid":"Q867117"},"geometry":{"type":"Polygon","coordinates":[[[-86.4379,15.7908],[-86.4209,15.5828],[-86.2329,15.4098],[-85.6883,15.5772],[-84.9999,15.0687],[-84.9999,15.9879],[-85.4886,15.8696],[-85.9192,16.0037],[-85.9949,15.9007],[-86.4379,15.7908]]]}},{"type":"Feature","id":"label-HND-638","properties":{"kind":"division-label","code":"HND-638","countryCode":"HND","name":"Colón","localName":"Colón","labelEnglish":"Colón","labelLocal":"Colón","labelBoth":"Colón","type":"Department","iso":"HN-CL","qid":"Q867117"},"geometry":{"type":"Point","coordinates":[-85.7236,15.7786]}},{"type":"Feature","id":"HND-637","properties":{"kind":"division","code":"HND-637","countryCode":"HND","name":"Atlántida","localName":"Atlántida","labelEnglish":"Atlántida","labelLocal":"Atlántida","labelBoth":"Atlántida","type":"Department","iso":"HN-AT","qid":"Q622619"},"geometry":{"type":"Polygon","coordinates":[[[-87.7284,15.921],[-87.7876,15.721],[-87.61,15.5044],[-87.1825,15.4266],[-86.9906,15.5488],[-86.4209,15.5828],[-86.4379,15.7908],[-86.8787,15.7641],[-87.7284,15.921]]]}},{"type":"Feature","id":"label-HND-637","properties":{"kind":"division-label","code":"HND-637","countryCode":"HND","name":"Atlántida","localName":"Atlántida","labelEnglish":"Atlántida","labelLocal":"Atlántida","labelBoth":"Atlántida","type":"Department","iso":"HN-AT","qid":"Q622619"},"geometry":{"type":"Point","coordinates":[-87.0783,15.6343]}},{"type":"Feature","id":"HND-641","properties":{"kind":"division","code":"HND-641","countryCode":"HND","name":"Bay Islands","localName":"Bay Islands","labelEnglish":"Bay Islands","labelLocal":"Bay Islands","labelBoth":"Bay Islands","type":"Department","iso":"HN-IB","qid":"Q751725"},"geometry":{"type":"Polygon","coordinates":[[[-86.6065,16.285],[-86.3121,16.4125],[-86.5307,16.3562],[-86.6065,16.285]]]}},{"type":"Feature","id":"label-HND-641","properties":{"kind":"division-label","code":"HND-641","countryCode":"HND","name":"Bay Islands","localName":"Bay Islands","labelEnglish":"Bay Islands","labelLocal":"Bay Islands","labelBoth":"Bay Islands","type":"Department","iso":"HN-IB","qid":"Q751725"},"geometry":{"type":"Point","coordinates":[-86.9319,16.1048]}},{"type":"Feature","id":"HND-646","properties":{"kind":"division","code":"HND-646","countryCode":"HND","name":"Comayagua","localName":"Comayagua","labelEnglish":"Comayagua","labelLocal":"Comayagua","labelBoth":"Comayagua","type":"Department","iso":"HN-CM","qid":"Q823443"},"geometry":{"type":"Polygon","coordinates":[[[-88.075,14.6648],[-87.8531,14.4291],[-87.6395,14.2737],[-87.8258,14.2322],[-87.6152,14.0885],[-87.4255,14.2291],[-87.4659,14.5222],[-87.2661,14.7031],[-87.2458,14.8977],[-87.5547,15.0556],[-87.7359,15.0166],[-87.9858,14.8364],[-88.075,14.6648]]]}},{"type":"Feature","id":"label-HND-646","properties":{"kind":"division-label","code":"HND-646","countryCode":"HND","name":"Comayagua","localName":"Comayagua","labelEnglish":"Comayagua","labelLocal":"Comayagua","labelBoth":"Comayagua","type":"Department","iso":"HN-CM","qid":"Q823443"},"geometry":{"type":"Point","coordinates":[-87.678,14.6577]}},{"type":"Feature","id":"HND-643","properties":{"kind":"division","code":"HND-643","countryCode":"HND","name":"Yoro","localName":"Yoro","labelEnglish":"Yoro","labelLocal":"Yoro","labelBoth":"Yoro","type":"Department","iso":"HN-YO","qid":"Q1123380"},"geometry":{"type":"Polygon","coordinates":[[[-87.7876,15.721],[-87.9231,15.1908],[-87.7359,15.0166],[-87.5547,15.0556],[-87.2458,14.8977],[-86.9875,15.0159],[-86.8589,15.2536],[-86.2329,15.4098],[-86.4209,15.5828],[-86.9906,15.5488],[-87.1825,15.4266],[-87.61,15.5044],[-87.7876,15.721]]]}},{"type":"Feature","id":"label-HND-643","properties":{"kind":"division-label","code":"HND-643","countryCode":"HND","name":"Yoro","localName":"Yoro","labelEnglish":"Yoro","labelLocal":"Yoro","labelBoth":"Yoro","type":"Department","iso":"HN-YO","qid":"Q1123380"},"geometry":{"type":"Point","coordinates":[-87.206,15.233]}},{"type":"Feature","id":"HND-639","properties":{"kind":"division","code":"HND-639","countryCode":"HND","name":"Francisco Morazán","localName":"Francisco Morazán","labelEnglish":"Francisco Morazán","labelLocal":"Francisco Morazán","labelBoth":"Francisco Morazán","type":"Department","iso":"HN-FM","qid":"Q867126"},"geometry":{"type":"Polygon","coordinates":[[[-87.2458,14.8977],[-87.2661,14.7031],[-87.4659,14.5222],[-87.4255,14.2291],[-87.6152,14.0885],[-87.647,13.8342],[-87.4611,13.6702],[-87.2142,13.6711],[-87.0355,13.7754],[-86.8217,14.3378],[-86.7142,14.4238],[-86.9875,15.0159],[-87.2458,14.8977]]]}},{"type":"Feature","id":"label-HND-639","properties":{"kind":"division-label","code":"HND-639","countryCode":"HND","name":"Francisco Morazán","localName":"Francisco Morazán","labelEnglish":"Francisco Morazán","labelLocal":"Francisco Morazán","labelBoth":"Francisco Morazán","type":"Department","iso":"HN-FM","qid":"Q867126"},"geometry":{"type":"Point","coordinates":[-87.1815,14.3474]}}]}