{"type":"FeatureCollection","features":[{"type":"Feature","id":"HRV-1609","properties":{"kind":"division","code":"HRV-1609","countryCode":"HRV","name":"Međimurje","localName":"Međimurje","labelEnglish":"Međimurje","labelLocal":"Međimurje","labelBoth":"Međimurje","type":"County","iso":"HR-20","qid":"Q58330"},"geometry":{"type":"Polygon","coordinates":[[[16.5153,46.5017],[16.3403,46.5438],[16.3107,46.531],[16.3015,46.5271],[16.2609,46.5136],[16.2342,46.4849],[16.2799,46.3787],[16.7452,46.3057],[16.8594,46.3648],[16.5153,46.5017]]]}},{"type":"Feature","id":"label-HRV-1609","properties":{"kind":"division-label","code":"HRV-1609","countryCode":"HRV","name":"Međimurje","localName":"Međimurje","labelEnglish":"Međimurje","labelLocal":"Međimurje","labelBoth":"Međimurje","type":"County","iso":"HR-20","qid":"Q58330"},"geometry":{"type":"Point","coordinates":[16.5464,46.398]}},{"type":"Feature","id":"HRV-1606","properties":{"kind":"division","code":"HRV-1606","countryCode":"HRV","name":"Virovitica-Podravina","localName":"Virovitica-Podravina","labelEnglish":"Virovitica-Podravina","labelLocal":"Virovitica-Podravina","labelBoth":"Virovitica-Podravina","type":"County","iso":"HR-10","qid":"Q58092"},"geometry":{"type":"Polygon","coordinates":[[[17.3066,45.9799],[17.1404,45.8703],[17.4305,45.5747],[17.8791,45.4707],[18.0832,45.6303],[17.9062,45.7921],[17.6547,45.8521],[17.3066,45.9799]]]}},{"type":"Feature","id":"label-HRV-1606","properties":{"kind":"division-label","code":"HRV-1606","countryCode":"HRV","name":"Virovitica-Podravina","localName":"Virovitica-Podravina","labelEnglish":"Virovitica-Podravina","labelLocal":"Virovitica-Podravina","labelBoth":"Virovitica-Podravina","type":"County","iso":"HR-10","qid":"Q58092"},"geometry":{"type":"Point","coordinates":[17.6078,45.7303]}},{"type":"Feature","id":"HRV-1608","properties":{"kind":"division","code":"HRV-1608","countryCode":"HRV","name":"Koprivnica-Križevci","localName":"Koprivnica-Križevci","labelEnglish":"Koprivnica-Križevci","labelLocal":"Koprivnica-Križevci","labelBoth":"Koprivnica-Križevci","type":"County","iso":"HR-06","qid":"Q58026"},"geometry":{"type":"Polygon","coordinates":[[[16.8793,46.3121],[16.8594,46.3648],[16.7452,46.3057],[16.3592,46.0246],[16.6926,45.9242],[16.7411,46.0457],[17.1404,45.8703],[17.3066,45.9799],[16.8793,46.3121]]]}},{"type":"Feature","id":"label-HRV-1608","properties":{"kind":"division-label","code":"HRV-1608","countryCode":"HRV","name":"Koprivnica-Križevci","localName":"Koprivnica-Križevci","labelEnglish":"Koprivnica-Križevci","labelLocal":"Koprivnica-Križevci","labelBoth":"Koprivnica-Križevci","type":"County","iso":"HR-06","qid":"Q58026"},"geometry":{"type":"Point","coordinates":[16.831,46.1914]}},{"type":"Feature","id":"HRV-1603","properties":{"kind":"division","code":"HRV-1603","countryCode":"HRV","name":"Osijek-Baranja","localName":"Osijek-Baranja","labelEnglish":"Osijek-Baranja","labelLocal":"Osijek-Baranja","labelBoth":"Osijek-Baranja","type":"County","iso":"HR-14","qid":"Q58159"},"geometry":{"type":"Polygon","coordinates":[[[18.8225,45.9056],[18.4117,45.7432],[17.9062,45.7921],[18.0832,45.6303],[18.4412,45.4737],[18.0816,45.2715],[18.5369,45.1935],[18.5119,45.2926],[19.0023,45.4437],[19.0179,45.4978],[18.9013,45.9312],[18.8225,45.9056]]]}},{"type":"Feature","id":"label-HRV-1603","properties":{"kind":"division-label","code":"HRV-1603","countryCode":"HRV","name":"Osijek-Baranja","localName":"Osijek-Baranja","labelEnglish":"Osijek-Baranja","labelLocal":"Osijek-Baranja","labelBoth":"Osijek-Baranja","type":"County","iso":"HR-14","qid":"Q58159"},"geometry":{"type":"Point","coordinates":[18.506,45.4948]}},{"type":"Feature","id":"HRV-1592","properties":{"kind":"division","code":"HRV-1592","countryCode":"HRV","name":"Istria","localName":"Istria","labelEnglish":"Istria","labelLocal":"Istria","labelBoth":"Istria","type":"County","iso":"HR-18","qid":"Q58268"},"geometry":{"type":"Polygon","coordinates":[[[13.66,45.46],[13.5895,45.4888],[13.6126,45.1179],[13.9639,44.8118],[14.2347,45.1546],[14.1173,45.473],[14.1167,45.473],[13.9875,45.5119],[13.66,45.46]]]}},{"type":"Feature","id":"label-HRV-1592","properties":{"kind":"division-label","code":"HRV-1592","countryCode":"HRV","name":"Istria","localName":"Istria","labelEnglish":"Istria","labelLocal":"Istria","labelBoth":"Istria","type":"County","iso":"HR-18","qid":"Q58268"},"geometry":{"type":"Point","coordinates":[13.8682,45.1248]}},{"type":"Feature","id":"HRV-1490","properties":{"kind":"division","code":"HRV-1490","countryCode":"HRV","name":"Dubrovnik-Neretva","localName":"Dubrovnik-Neretva","labelEnglish":"Dubrovnik-Neretva","labelLocal":"Dubrovnik-Neretva","labelBoth":"Dubrovnik-Neretva","type":"County","iso":"HR-19","qid":"Q58289"},"geometry":{"type":"MultiPolygon","coordinates":[[[[18.4374,42.5592],[18.3698,42.5744],[17.6533,42.8909],[18.4964,42.4163],[18.4374,42.5592]]],[[[17.4509,43.1482],[17.3654,43.0792],[17.5807,42.9421],[17.598,43.0729],[17.4509,43.1482]]]]}},{"type":"Feature","id":"label-HRV-1490","properties":{"kind":"division-label","code":"HRV-1490","countryCode":"HRV","name":"Dubrovnik-Neretva","localName":"Dubrovnik-Neretva","labelEnglish":"Dubrovnik-Neretva","labelLocal":"Dubrovnik-Neretva","labelBoth":"Dubrovnik-Neretva","type":"County","iso":"HR-19","qid":"Q58289"},"geometry":{"type":"Point","coordinates":[16.8699,42.761]}},{"type":"Feature","id":"HRV-1587","properties":{"kind":"division","code":"HRV-1587","countryCode":"HRV","name":"Sisak-Moslavina","localName":"Sisak-Moslavina","labelEnglish":"Sisak-Moslavina","labelLocal":"Sisak-Moslavina","labelBoth":"Sisak-Moslavina","type":"County","iso":"HR-03","qid":"Q57060"},"geometry":{"type":"Polygon","coordinates":[[[16.346,45.02],[16.4819,45.1995],[16.9244,45.2845],[17.1246,45.1691],[17.1812,45.3479],[16.9292,45.4759],[16.4967,45.7651],[16.1108,45.5064],[15.8129,45.5234],[15.6394,45.2107],[15.8026,45.1965],[16.346,45.02]]]}},{"type":"Feature","id":"label-HRV-1587","properties":{"kind":"division-label","code":"HRV-1587","countryCode":"HRV","name":"Sisak-Moslavina","localName":"Sisak-Moslavina","labelEnglish":"Sisak-Moslavina","labelLocal":"Sisak-Moslavina","labelBoth":"Sisak-Moslavina","type":"County","iso":"HR-03","qid":"Q57060"},"geometry":{"type":"Point","coordinates":[16.4156,45.4687]}},{"type":"Feature","id":"HRV-1602","properties":{"kind":"division","code":"HRV-1602","countryCode":"HRV","name":"Brod-Posavina","localName":"Brod-Posavina","labelEnglish":"Brod-Posavina","labelLocal":"Brod-Posavina","labelBoth":"Brod-Posavina","type":"County","iso":"HR-12","qid":"Q58129"},"geometry":{"type":"Polygon","coordinates":[[[17.1246,45.1691],[17.7657,45.111],[18.1437,45.0977],[18.4518,45.085],[18.4817,45.0669],[18.5348,45.0884],[18.5369,45.1935],[18.0816,45.2715],[17.7088,45.1935],[17.3916,45.3873],[17.1812,45.3479],[17.1246,45.1691]]]}},{"type":"Feature","id":"label-HRV-1602","properties":{"kind":"division-label","code":"HRV-1602","countryCode":"HRV","name":"Brod-Posavina","localName":"Brod-Posavina","labelEnglish":"Brod-Posavina","labelLocal":"Brod-Posavina","labelBoth":"Brod-Posavina","type":"County","iso":"HR-12","qid":"Q58129"},"geometry":{"type":"Point","coordinates":[17.8112,45.1454]}},{"type":"Feature","id":"HRV-1583","properties":{"kind":"division","code":"HRV-1583","countryCode":"HRV","name":"Karlovac","localName":"Karlovac","labelEnglish":"Karlovac","labelLocal":"Karlovac","labelBoth":"Karlovac","type":"County","iso":"HR-04","qid":"Q57071"},"geometry":{"type":"Polygon","coordinates":[[[15.8026,45.1965],[15.6394,45.2107],[15.8129,45.5234],[15.35,45.6696],[15.2822,45.5715],[15.2258,45.4365],[15.008,45.1241],[15.5668,44.8786],[15.7341,44.9344],[15.8026,45.1965]]]}},{"type":"Feature","id":"label-HRV-1583","properties":{"kind":"division-label","code":"HRV-1583","countryCode":"HRV","name":"Karlovac","localName":"Karlovac","labelEnglish":"Karlovac","labelLocal":"Karlovac","labelBoth":"Karlovac","type":"County","iso":"HR-04","qid":"Q57071"},"geometry":{"type":"Point","coordinates":[15.4054,45.3396]}},{"type":"Feature","id":"HRV-1493","properties":{"kind":"division","code":"HRV-1493","countryCode":"HRV","name":"Zadar","localName":"Zadar","labelEnglish":"Zadar","labelLocal":"Zadar","labelBoth":"Zadar","type":"County","iso":"HR-13","qid":"Q58146"},"geometry":{"type":"Polygon","coordinates":[[[15.7341,44.9344],[15.5668,44.8786],[15.6535,44.495],[15.2938,44.3648],[15.1445,44.1955],[15.5469,43.8766],[16.0327,44.0127],[16.3509,43.9262],[16.5274,43.9679],[16.2056,44.3505],[15.7173,44.7865],[15.7341,44.9344]]]}},{"type":"Feature","id":"label-HRV-1493","properties":{"kind":"division-label","code":"HRV-1493","countryCode":"HRV","name":"Zadar","localName":"Zadar","labelEnglish":"Zadar","labelLocal":"Zadar","labelBoth":"Zadar","type":"County","iso":"HR-13","qid":"Q58146"},"geometry":{"type":"Point","coordinates":[15.7536,44.2007]}},{"type":"Feature","id":"HRV-1605","properties":{"kind":"division","code":"HRV-1605","countryCode":"HRV","name":"Vukovar-Syrmia","localName":"Vukovar-Syrmia","labelEnglish":"Vukovar-Syrmia","labelLocal":"Vukovar-Syrmia","labelBoth":"Vukovar-Syrmia","type":"County","iso":"HR-16","qid":"Q58225"},"geometry":{"type":"Polygon","coordinates":[[[18.5348,45.0884],[18.8421,44.8762],[18.9749,44.8628],[19.0158,44.8656],[19.0601,45.1469],[19.3939,45.1716],[19.0023,45.4437],[18.5119,45.2926],[18.5369,45.1935],[18.5348,45.0884]]]}},{"type":"Feature","id":"label-HRV-1605","properties":{"kind":"division-label","code":"HRV-1605","countryCode":"HRV","name":"Vukovar-Syrmia","localName":"Vukovar-Syrmia","labelEnglish":"Vukovar-Syrmia","labelLocal":"Vukovar-Syrmia","labelBoth":"Vukovar-Syrmia","type":"County","iso":"HR-16","qid":"Q58225"},"geometry":{"type":"Point","coordinates":[18.9549,45.1467]}},{"type":"Feature","id":"HRV-1492","properties":{"kind":"division","code":"HRV-1492","countryCode":"HRV","name":"Split-Dalmatia","localName":"Split-Dalmatia","labelEnglish":"Split-Dalmatia","labelLocal":"Split-Dalmatia","labelBoth":"Split-Dalmatia","type":"County","iso":"HR-17","qid":"Q58253"},"geometry":{"type":"Polygon","coordinates":[[[16.5274,43.9679],[16.3509,43.9262],[16.3417,43.71],[16.0128,43.504],[16.3368,43.5512],[16.8806,43.406],[17.3654,43.0792],[17.4509,43.1482],[17.2395,43.4784],[17.0623,43.5277],[16.5274,43.9679]]]}},{"type":"Feature","id":"label-HRV-1492","properties":{"kind":"division-label","code":"HRV-1492","countryCode":"HRV","name":"Split-Dalmatia","localName":"Split-Dalmatia","labelEnglish":"Split-Dalmatia","labelLocal":"Split-Dalmatia","labelBoth":"Split-Dalmatia","type":"County","iso":"HR-17","qid":"Q58253"},"geometry":{"type":"Point","coordinates":[16.788,43.5266]}},{"type":"Feature","id":"HRV-1610","properties":{"kind":"division","code":"HRV-1610","countryCode":"HRV","name":"Varaždin","localName":"Varaždin","labelEnglish":"Varaždin","labelLocal":"Varaždin","labelBoth":"Varaždin","type":"County","iso":"HR-05","qid":"Q57967"},"geometry":{"type":"Polygon","coordinates":[[[16.0887,46.3731],[16.0499,46.3167],[15.9937,46.2906],[15.9189,46.2728],[15.8809,46.2593],[15.8793,46.2593],[16.2559,46.0611],[16.3592,46.0246],[16.7452,46.3057],[16.2799,46.3787],[16.0887,46.3731]]]}},{"type":"Feature","id":"label-HRV-1610","properties":{"kind":"division-label","code":"HRV-1610","countryCode":"HRV","name":"Varaždin","localName":"Varaždin","labelEnglish":"Varaždin","labelLocal":"Varaždin","labelBoth":"Varaždin","type":"County","iso":"HR-05","qid":"Q57967"},"geometry":{"type":"Point","coordinates":[16.3267,46.1918]}},{"type":"Feature","id":"HRV-1582","properties":{"kind":"division","code":"HRV-1582","countryCode":"HRV","name":"Krapina-Zagorje","localName":"Krapina-Zagorje","labelEnglish":"Krapina-Zagorje","labelLocal":"Krapina-Zagorje","labelBoth":"Krapina-Zagorje","type":"County","iso":"HR-02","qid":"Q57056"},"geometry":{"type":"Polygon","coordinates":[[[15.7995,46.2486],[15.678,46.2145],[15.6266,46.1952],[15.6236,46.0764],[15.6929,46.0416],[15.6754,45.9725],[15.9395,45.9338],[16.1363,45.9704],[16.2559,46.0611],[15.8793,46.2593],[15.7995,46.2486]]]}},{"type":"Feature","id":"label-HRV-1582","properties":{"kind":"division-label","code":"HRV-1582","countryCode":"HRV","name":"Krapina-Zagorje","localName":"Krapina-Zagorje","labelEnglish":"Krapina-Zagorje","labelLocal":"Krapina-Zagorje","labelBoth":"Krapina-Zagorje","type":"County","iso":"HR-02","qid":"Q57056"},"geometry":{"type":"Point","coordinates":[15.9228,46.0883]}},{"type":"Feature","id":"HRV-1588","properties":{"kind":"division","code":"HRV-1588","countryCode":"HRV","name":"Zagreb","localName":"Zagreb","labelEnglish":"Zagreb","labelLocal":"Zagreb","labelBoth":"Zagreb","type":"County","iso":"HR-01","qid":"Q27038"},"geometry":{"type":"Polygon","coordinates":[[[15.5497,45.8237],[15.4298,45.7757],[15.331,45.7525],[15.2499,45.7137],[15.35,45.6696],[15.8129,45.5234],[16.1108,45.5064],[16.4967,45.7651],[16.6926,45.9242],[16.3592,46.0246],[16.2559,46.0611],[16.1363,45.9704],[16.2268,45.8496],[15.7703,45.7055],[15.9395,45.9338],[15.6754,45.9725],[15.5497,45.8237]]]}},{"type":"Feature","id":"label-HRV-1588","properties":{"kind":"division-label","code":"HRV-1588","countryCode":"HRV","name":"Zagreb","localName":"Zagreb","labelEnglish":"Zagreb","labelLocal":"Zagreb","labelBoth":"Zagreb","type":"County","iso":"HR-01","qid":"Q27038"},"geometry":{"type":"Point","coordinates":[15.5948,45.7203]}},{"type":"Feature","id":"HRV-1586","properties":{"kind":"division","code":"HRV-1586","countryCode":"HRV","name":"Primorje-Gorski","localName":"Primorje-Gorski","labelEnglish":"Primorje-Gorski","labelLocal":"Primorje-Gorski","labelBoth":"Primorje-Gorski","type":"County","iso":"HR-08","qid":"Q58071"},"geometry":{"type":"MultiPolygon","coordinates":[[[[15.2258,45.4365],[15.0661,45.4739],[14.9773,45.4917],[14.6637,45.5702],[14.5691,45.6643],[14.4915,45.5792],[14.1173,45.473],[14.2347,45.1546],[14.3298,45.354],[14.5822,45.2853],[14.8813,45.0356],[15.008,45.1241],[15.2258,45.4365]]],[[[14.5139,44.6622],[14.4661,44.9837],[14.3015,44.9434],[14.5139,44.6622]]],[[[14.7234,44.9433],[14.5633,45.2497],[14.4251,45.0873],[14.7234,44.9433]]]]}},{"type":"Feature","id":"label-HRV-1586","properties":{"kind":"division-label","code":"HRV-1586","countryCode":"HRV","name":"Primorje-Gorski","localName":"Primorje-Gorski","labelEnglish":"Primorje-Gorski","labelLocal":"Primorje-Gorski","labelBoth":"Primorje-Gorski","type":"County","iso":"HR-08","qid":"Q58071"},"geometry":{"type":"Point","coordinates":[14.6925,45.3736]}},{"type":"Feature","id":"HRV-1491","properties":{"kind":"division","code":"HRV-1491","countryCode":"HRV","name":"Šibenik-Knin","localName":"Šibenik-Knin","labelEnglish":"Šibenik-Knin","labelLocal":"Šibenik-Knin","labelBoth":"Šibenik-Knin","type":"County","iso":"HR-15","qid":"Q58194"},"geometry":{"type":"Polygon","coordinates":[[[16.0128,43.504],[16.3417,43.71],[16.3509,43.9262],[16.0327,44.0127],[15.5469,43.8766],[15.9312,43.6765],[16.0128,43.504]]]}},{"type":"Feature","id":"label-HRV-1491","properties":{"kind":"division-label","code":"HRV-1491","countryCode":"HRV","name":"Šibenik-Knin","localName":"Šibenik-Knin","labelEnglish":"Šibenik-Knin","labelLocal":"Šibenik-Knin","labelBoth":"Šibenik-Knin","type":"County","iso":"HR-15","qid":"Q58194"},"geometry":{"type":"Point","coordinates":[16.0356,43.7911]}},{"type":"Feature","id":"HRV-1584","properties":{"kind":"division","code":"HRV-1584","countryCode":"HRV","name":"Lika-Senj","localName":"Lika-Senj","labelEnglish":"Lika-Senj","labelLocal":"Lika-Senj","labelBoth":"Lika-Senj","type":"County","iso":"HR-09","qid":"Q58081"},"geometry":{"type":"Polygon","coordinates":[[[15.2938,44.3648],[15.6535,44.495],[15.5668,44.8786],[15.008,45.1241],[14.8813,45.0356],[14.9014,44.6902],[15.2938,44.3648]]]}},{"type":"Feature","id":"label-HRV-1584","properties":{"kind":"division-label","code":"HRV-1584","countryCode":"HRV","name":"Lika-Senj","localName":"Lika-Senj","labelEnglish":"Lika-Senj","labelLocal":"Lika-Senj","labelBoth":"Lika-Senj","type":"County","iso":"HR-09","qid":"Q58081"},"geometry":{"type":"Point","coordinates":[15.2031,44.7521]}},{"type":"Feature","id":"HRV-1607","properties":{"kind":"division","code":"HRV-1607","countryCode":"HRV","name":"Bjelovar-Bilogora","localName":"Bjelovar-Bilogora","labelEnglish":"Bjelovar-Bilogora","labelLocal":"Bjelovar-Bilogora","labelBoth":"Bjelovar-Bilogora","type":"County","iso":"HR-07","qid":"Q58060"},"geometry":{"type":"Polygon","coordinates":[[[17.1404,45.8703],[16.7411,46.0457],[16.6926,45.9242],[16.4967,45.7651],[16.9292,45.4759],[17.4305,45.5747],[17.1404,45.8703]]]}},{"type":"Feature","id":"label-HRV-1607","properties":{"kind":"division-label","code":"HRV-1607","countryCode":"HRV","name":"Bjelovar-Bilogora","localName":"Bjelovar-Bilogora","labelEnglish":"Bjelovar-Bilogora","labelLocal":"Bjelovar-Bilogora","labelBoth":"Bjelovar-Bilogora","type":"County","iso":"HR-07","qid":"Q58060"},"geometry":{"type":"Point","coordinates":[16.9948,45.7207]}},{"type":"Feature","id":"HRV-1589","properties":{"kind":"division","code":"HRV-1589","countryCode":"HRV","name":"Zagreb","localName":"Zagreb","labelEnglish":"Zagreb","labelLocal":"Zagreb","labelBoth":"Zagreb","type":"City","iso":"HR-21","qid":"Q1435"},"geometry":{"type":"Polygon","coordinates":[[[16.1363,45.9704],[15.9395,45.9338],[15.7703,45.7055],[16.2268,45.8496],[16.1363,45.9704]]]}},{"type":"Feature","id":"label-HRV-1589","properties":{"kind":"division-label","code":"HRV-1589","countryCode":"HRV","name":"Zagreb","localName":"Zagreb","labelEnglish":"Zagreb","labelLocal":"Zagreb","labelBoth":"Zagreb","type":"City","iso":"HR-21","qid":"Q1435"},"geometry":{"type":"Point","coordinates":[15.9958,45.8251]}},{"type":"Feature","id":"HRV-1604","properties":{"kind":"division","code":"HRV-1604","countryCode":"HRV","name":"Požega-Slavonia","localName":"Požega-Slavonia","labelEnglish":"Požega-Slavonia","labelLocal":"Požega-Slavonia","labelBoth":"Požega-Slavonia","type":"County","iso":"HR-12","qid":"Q58111"},"geometry":{"type":"Polygon","coordinates":[[[18.0832,45.6303],[17.8791,45.4707],[17.4305,45.5747],[16.9292,45.4759],[17.1812,45.3479],[17.3916,45.3873],[17.7088,45.1935],[18.0816,45.2715],[18.4412,45.4737],[18.0832,45.6303]]]}},{"type":"Feature","id":"label-HRV-1604","properties":{"kind":"division-label","code":"HRV-1604","countryCode":"HRV","name":"Požega-Slavonia","localName":"Požega-Slavonia","labelEnglish":"Požega-Slavonia","labelLocal":"Požega-Slavonia","labelBoth":"Požega-Slavonia","type":"County","iso":"HR-12","qid":"Q58111"},"geometry":{"type":"Point","coordinates":[17.6849,45.3863]}}]}