{"type":"FeatureCollection","features":[{"type":"Feature","id":"HTI-1386","properties":{"kind":"division","code":"HTI-1386","countryCode":"HTI","name":"Nord-Est","localName":"Nord-Est","labelEnglish":"Nord-Est","labelLocal":"Nord-Est","labelBoth":"Nord-Est","type":"Department","iso":"HT-NE","qid":"Q928694"},"geometry":{"type":"Polygon","coordinates":[[[-71.7574,19.7101],[-72.0479,19.712],[-71.9789,19.3358],[-71.7495,19.2797],[-71.746,19.649],[-71.7574,19.7101]]]}},{"type":"Feature","id":"label-HTI-1386","properties":{"kind":"division-label","code":"HTI-1386","countryCode":"HTI","name":"Nord-Est","localName":"Nord-Est","labelEnglish":"Nord-Est","labelLocal":"Nord-Est","labelBoth":"Nord-Est","type":"Department","iso":"HT-NE","qid":"Q928694"},"geometry":{"type":"Point","coordinates":[-71.9088,19.4929]}},{"type":"Feature","id":"HTI-1385","properties":{"kind":"division","code":"HTI-1385","countryCode":"HTI","name":"Centre","localName":"Centre","labelEnglish":"Centre","labelLocal":"Centre","labelBoth":"Centre","type":"Department","iso":"HT-CE","qid":"Q844528"},"geometry":{"type":"Polygon","coordinates":[[[-71.7495,19.2797],[-71.9789,19.3358],[-72.2001,19.3019],[-72.2474,18.8771],[-72.3652,18.867],[-72.1059,18.7051],[-71.7918,18.6807],[-71.7849,18.6847],[-71.7837,18.9963],[-71.6517,19.2179],[-71.7495,19.2797]]]}},{"type":"Feature","id":"label-HTI-1385","properties":{"kind":"division-label","code":"HTI-1385","countryCode":"HTI","name":"Centre","localName":"Centre","labelEnglish":"Centre","labelLocal":"Centre","labelBoth":"Centre","type":"Department","iso":"HT-CE","qid":"Q844528"},"geometry":{"type":"Point","coordinates":[-72.0025,19.029]}},{"type":"Feature","id":"HTI-1388","properties":{"kind":"division","code":"HTI-1388","countryCode":"HTI","name":"Ouest","localName":"Ouest","labelEnglish":"Ouest","labelLocal":"Ouest","labelBoth":"Ouest","type":"Department","iso":"HT-OU","qid":"Q1434621"},"geometry":{"type":"MultiPolygon","coordinates":[[[[-71.7918,18.6807],[-72.1059,18.7051],[-72.3652,18.867],[-72.706,18.9442],[-72.3251,18.6714],[-72.3714,18.5256],[-72.755,18.4294],[-73.0559,18.4585],[-72.9977,18.3228],[-72.765,18.2653],[-72.4903,18.4015],[-71.7211,18.294],[-72.0098,18.5988],[-71.7918,18.6807]]],[[[-73.2587,18.8785],[-72.8087,18.7204],[-73.2008,18.9687],[-73.2587,18.8785]]]]}},{"type":"Feature","id":"label-HTI-1388","properties":{"kind":"division-label","code":"HTI-1388","countryCode":"HTI","name":"Ouest","localName":"Ouest","labelEnglish":"Ouest","labelLocal":"Ouest","labelBoth":"Ouest","type":"Department","iso":"HT-OU","qid":"Q1434621"},"geometry":{"type":"Point","coordinates":[-72.2399,18.5501]}},{"type":"Feature","id":"HTI-1389","properties":{"kind":"division","code":"HTI-1389","countryCode":"HTI","name":"Sud-Est","localName":"Sud-Est","labelEnglish":"Sud-Est","labelLocal":"Sud-Est","labelBoth":"Sud-Est","type":"Department","iso":"HT-SE","qid":"Q936717"},"geometry":{"type":"Polygon","coordinates":[[[-71.7211,18.294],[-72.4903,18.4015],[-72.765,18.2653],[-72.9977,18.3228],[-73.0125,18.2209],[-73.008,18.1811],[-72.0718,18.2375],[-71.7762,18.0393],[-71.7217,18.293],[-71.7211,18.294]]]}},{"type":"Feature","id":"label-HTI-1389","properties":{"kind":"division-label","code":"HTI-1389","countryCode":"HTI","name":"Sud-Est","localName":"Sud-Est","labelEnglish":"Sud-Est","labelLocal":"Sud-Est","labelBoth":"Sud-Est","type":"Department","iso":"HT-SE","qid":"Q936717"},"geometry":{"type":"Point","coordinates":[-72.3683,18.2947]}},{"type":"Feature","id":"HTI-1362","properties":{"kind":"division","code":"HTI-1362","countryCode":"HTI","name":"Sud","localName":"Sud","labelEnglish":"Sud","labelLocal":"Sud","labelBoth":"Sud","type":"Department","iso":"HT-SD","qid":"Q936704"},"geometry":{"type":"Polygon","coordinates":[[[-73.008,18.1811],[-73.0125,18.2209],[-73.1159,18.3551],[-73.5134,18.334],[-73.784,18.4247],[-74.4526,18.361],[-74.1834,18.2933],[-73.8733,18.0262],[-73.6463,18.2587],[-73.008,18.1811]]]}},{"type":"Feature","id":"label-HTI-1362","properties":{"kind":"division-label","code":"HTI-1362","countryCode":"HTI","name":"Sud","localName":"Sud","labelEnglish":"Sud","labelLocal":"Sud","labelBoth":"Sud","type":"Department","iso":"HT-SD","qid":"Q936704"},"geometry":{"type":"Point","coordinates":[-73.7855,18.2929]}},{"type":"Feature","id":"HTI-1359","properties":{"kind":"division","code":"HTI-1359","countryCode":"HTI","name":"Grand'Anse","localName":"Grand'Anse","labelEnglish":"Grand'Anse","labelLocal":"Grand'Anse","labelBoth":"Grand'Anse","type":"Department","iso":"HT-GA","qid":"Q913231"},"geometry":{"type":"Polygon","coordinates":[[[-74.4526,18.361],[-73.784,18.4247],[-73.7394,18.5438],[-74.16,18.6592],[-74.4263,18.6082],[-74.4526,18.361]]]}},{"type":"Feature","id":"label-HTI-1359","properties":{"kind":"division-label","code":"HTI-1359","countryCode":"HTI","name":"Grand'Anse","localName":"Grand'Anse","labelEnglish":"Grand'Anse","labelLocal":"Grand'Anse","labelBoth":"Grand'Anse","type":"Department","iso":"HT-GA","qid":"Q913231"},"geometry":{"type":"Point","coordinates":[-74.1273,18.5137]}},{"type":"Feature","id":"HTI-1361","properties":{"kind":"division","code":"HTI-1361","countryCode":"HTI","name":"Nord-Ouest","localName":"Nord-Ouest","labelEnglish":"Nord-Ouest","labelLocal":"Nord-Ouest","labelBoth":"Nord-Ouest","type":"Department","iso":"HT-NO","qid":"Q608361"},"geometry":{"type":"Polygon","coordinates":[[[-73.1208,19.6291],[-73.0668,19.7333],[-72.6756,19.8068],[-72.5652,19.8757],[-73.1671,19.9377],[-73.4324,19.779],[-73.4095,19.636],[-73.1208,19.6291]]]}},{"type":"Feature","id":"label-HTI-1361","properties":{"kind":"division-label","code":"HTI-1361","countryCode":"HTI","name":"Nord-Ouest","localName":"Nord-Ouest","labelEnglish":"Nord-Ouest","labelLocal":"Nord-Ouest","labelBoth":"Nord-Ouest","type":"Department","iso":"HT-NO","qid":"Q608361"},"geometry":{"type":"Point","coordinates":[-73.0166,19.8257]}},{"type":"Feature","id":"HTI-1387","properties":{"kind":"division","code":"HTI-1387","countryCode":"HTI","name":"Nord","localName":"Nord","labelEnglish":"Nord","labelLocal":"Nord","labelBoth":"Nord","type":"Department","iso":"HT-ND","qid":"Q943932"},"geometry":{"type":"Polygon","coordinates":[[[-72.5652,19.8757],[-72.6756,19.8068],[-72.5403,19.5919],[-72.361,19.5815],[-72.2001,19.3019],[-71.9789,19.3358],[-72.0479,19.712],[-72.5652,19.8757]]]}},{"type":"Feature","id":"label-HTI-1387","properties":{"kind":"division-label","code":"HTI-1387","countryCode":"HTI","name":"Nord","localName":"Nord","labelEnglish":"Nord","labelLocal":"Nord","labelBoth":"Nord","type":"Department","iso":"HT-ND","qid":"Q943932"},"geometry":{"type":"Point","coordinates":[-72.3274,19.6412]}},{"type":"Feature","id":"HTI-1384","properties":{"kind":"division","code":"HTI-1384","countryCode":"HTI","name":"Artibonite","localName":"Artibonite","labelEnglish":"Artibonite","labelLocal":"Artibonite","labelBoth":"Artibonite","type":"Department","iso":"HT-AR","qid":"Q844024"},"geometry":{"type":"Polygon","coordinates":[[[-72.706,18.9442],[-72.3652,18.867],[-72.2474,18.8771],[-72.2001,19.3019],[-72.361,19.5815],[-72.5403,19.5919],[-72.6756,19.8068],[-73.0668,19.7333],[-73.1208,19.6291],[-72.6991,19.4459],[-72.8183,19.0786],[-72.706,18.9442]]]}},{"type":"Feature","id":"label-HTI-1384","properties":{"kind":"division-label","code":"HTI-1384","countryCode":"HTI","name":"Artibonite","localName":"Artibonite","labelEnglish":"Artibonite","labelLocal":"Artibonite","labelBoth":"Artibonite","type":"Department","iso":"HT-AR","qid":"Q844024"},"geometry":{"type":"Point","coordinates":[-72.5089,19.3089]}},{"type":"Feature","id":"HTI-1360","properties":{"kind":"division","code":"HTI-1360","countryCode":"HTI","name":"Nippes","localName":"Nippes","labelEnglish":"Nippes","labelLocal":"Nippes","labelBoth":"Nippes","type":"Department","iso":"HT-NI","qid":"Q125232"},"geometry":{"type":"Polygon","coordinates":[[[-73.7394,18.5438],[-73.784,18.4247],[-73.5134,18.334],[-73.1159,18.3551],[-73.0125,18.2209],[-72.9977,18.3228],[-73.0559,18.4585],[-73.7394,18.5438]]]}},{"type":"Feature","id":"label-HTI-1360","properties":{"kind":"division-label","code":"HTI-1360","countryCode":"HTI","name":"Nippes","localName":"Nippes","labelEnglish":"Nippes","labelLocal":"Nippes","labelBoth":"Nippes","type":"Department","iso":"HT-NI","qid":"Q125232"},"geometry":{"type":"Point","coordinates":[-73.3909,18.4297]}}]}