{"type":"FeatureCollection","features":[{"type":"Feature","id":"HUN-3169","properties":{"kind":"division","code":"HUN-3169","countryCode":"HUN","name":"Szabolcs-Szatmár-Bereg","localName":"Szabolcs-Szatmár-Bereg","labelEnglish":"Szabolcs-Szatmár-Bereg","labelLocal":"Szabolcs-Szatmár-Bereg","labelBoth":"Szabolcs-Szatmár-Bereg","type":"County","iso":"HU-SZ","qid":"Q190518"},"geometry":{"type":"Polygon","coordinates":[[[22.8776,47.9467],[22.1583,48.4022],[21.1137,47.9605],[22.1542,47.5822],[22.1676,47.5949],[22.2617,47.7158],[22.8776,47.9467]],[[21.85,47.9903],[21.8374,47.8411],[21.6199,47.874],[21.85,47.9903]]]}},{"type":"Feature","id":"label-HUN-3169","properties":{"kind":"division-label","code":"HUN-3169","countryCode":"HUN","name":"Szabolcs-Szatmár-Bereg","localName":"Szabolcs-Szatmár-Bereg","labelEnglish":"Szabolcs-Szatmár-Bereg","labelLocal":"Szabolcs-Szatmár-Bereg","labelBoth":"Szabolcs-Szatmár-Bereg","type":"County","iso":"HU-SZ","qid":"Q190518"},"geometry":{"type":"Point","coordinates":[22.182,47.9535]}},{"type":"Feature","id":"HUN-3171","properties":{"kind":"division","code":"HUN-3171","countryCode":"HUN","name":"Békés","localName":"Békés","labelEnglish":"Békés","labelLocal":"Békés","labelBoth":"Békés","type":"County","iso":"HU-BE","qid":"Q191616"},"geometry":{"type":"Polygon","coordinates":[[[21.4235,46.6582],[21.6343,47.0194],[21.3868,46.9408],[20.9945,47.236],[20.4232,46.8033],[20.5865,46.7537],[20.5856,46.4481],[20.5993,46.3845],[20.7874,46.2634],[21.1349,46.2785],[21.4235,46.6582]],[[21.1677,46.6701],[21.0028,46.6657],[21.0597,46.8522],[21.1677,46.6701]]]}},{"type":"Feature","id":"label-HUN-3171","properties":{"kind":"division-label","code":"HUN-3171","countryCode":"HUN","name":"Békés","localName":"Békés","labelEnglish":"Békés","labelLocal":"Békés","labelBoth":"Békés","type":"County","iso":"HU-BE","qid":"Q191616"},"geometry":{"type":"Point","coordinates":[20.8362,46.592]}},{"type":"Feature","id":"HUN-3173","properties":{"kind":"division","code":"HUN-3173","countryCode":"HUN","name":"Hajdú-Bihar","localName":"Hajdú-Bihar","labelEnglish":"Hajdú-Bihar","labelLocal":"Hajdú-Bihar","labelBoth":"Hajdú-Bihar","type":"County","iso":"HU-HB","qid":"Q185368"},"geometry":{"type":"Polygon","coordinates":[[[22.1542,47.5822],[21.1137,47.9605],[20.8192,47.6794],[20.9945,47.236],[21.3868,46.9408],[21.6343,47.0194],[22.1542,47.5822]],[[21.5464,47.6715],[21.8628,47.5703],[21.5767,47.3906],[21.5464,47.6715]]]}},{"type":"Feature","id":"label-HUN-3173","properties":{"kind":"division-label","code":"HUN-3173","countryCode":"HUN","name":"Hajdú-Bihar","localName":"Hajdú-Bihar","labelEnglish":"Hajdú-Bihar","labelLocal":"Hajdú-Bihar","labelBoth":"Hajdú-Bihar","type":"County","iso":"HU-HB","qid":"Q185368"},"geometry":{"type":"Point","coordinates":[21.3746,47.2906]}},{"type":"Feature","id":"HUN-3172","properties":{"kind":"division","code":"HUN-3172","countryCode":"HUN","name":"Csongrád-Csanád","localName":"Csongrád-Csanád","labelEnglish":"Csongrád-Csanád","labelLocal":"Csongrád-Csanád","labelBoth":"Csongrád-Csanád","type":"County","iso":"HU-CS","qid":"Q193031"},"geometry":{"type":"MultiPolygon","coordinates":[[[[20.7874,46.2634],[20.5993,46.3845],[20.269,46.2589],[20.1148,46.1522],[20.2428,46.1081],[20.7044,46.1685],[20.7874,46.2634]]],[[[19.7119,46.1587],[19.8736,46.153],[20.0634,46.1453],[20.2167,46.3168],[20.2972,46.5208],[20.5856,46.4481],[20.5865,46.7537],[20.4232,46.8033],[20.0613,46.8007],[19.7119,46.1587]]]]}},{"type":"Feature","id":"label-HUN-3172","properties":{"kind":"division-label","code":"HUN-3172","countryCode":"HUN","name":"Csongrád-Csanád","localName":"Csongrád-Csanád","labelEnglish":"Csongrád-Csanád","labelLocal":"Csongrád-Csanád","labelBoth":"Csongrád-Csanád","type":"County","iso":"HU-CS","qid":"Q193031"},"geometry":{"type":"Point","coordinates":[20.1413,46.5997]}},{"type":"Feature","id":"HUN-3156","properties":{"kind":"division","code":"HUN-3156","countryCode":"HUN","name":"Győr-Moson-Sopron","localName":"Győr-Moson-Sopron","labelEnglish":"Győr-Moson-Sopron","labelLocal":"Győr-Moson-Sopron","labelBoth":"Győr-Moson-Sopron","type":"County","iso":"HU-GS","qid":"Q187753"},"geometry":{"type":"Polygon","coordinates":[[[17.1483,48.0054],[17.0754,47.7085],[16.7168,47.697],[16.5578,47.6298],[16.627,47.4455],[17.2019,47.3984],[17.8825,47.4548],[17.8835,47.7525],[17.7192,47.7737],[17.2623,48.0073],[17.1483,48.0054]],[[17.7265,47.73],[17.7963,47.6475],[17.5048,47.6349],[17.7265,47.73]]]}},{"type":"Feature","id":"label-HUN-3156","properties":{"kind":"division-label","code":"HUN-3156","countryCode":"HUN","name":"Győr-Moson-Sopron","localName":"Győr-Moson-Sopron","labelEnglish":"Győr-Moson-Sopron","labelLocal":"Győr-Moson-Sopron","labelBoth":"Győr-Moson-Sopron","type":"County","iso":"HU-GS","qid":"Q187753"},"geometry":{"type":"Point","coordinates":[17.1682,47.7217]}},{"type":"Feature","id":"HUN-4904","properties":{"kind":"division","code":"HUN-4904","countryCode":"HUN","name":"Sopron","localName":"Sopron","labelEnglish":"Sopron","labelLocal":"Sopron","labelBoth":"Sopron","type":"Urban county","iso":"HU-SN","qid":"Q168648"},"geometry":{"type":"Polygon","coordinates":[[[16.7168,47.697],[16.6098,47.7506],[16.4078,47.6613],[16.5578,47.6298],[16.7168,47.697]]]}},{"type":"Feature","id":"label-HUN-4904","properties":{"kind":"division-label","code":"HUN-4904","countryCode":"HUN","name":"Sopron","localName":"Sopron","labelEnglish":"Sopron","labelLocal":"Sopron","labelBoth":"Sopron","type":"Urban county","iso":"HU-SN","qid":"Q168648"},"geometry":{"type":"Point","coordinates":[16.6001,47.6911]}},{"type":"Feature","id":"HUN-3138","properties":{"kind":"division","code":"HUN-3138","countryCode":"HUN","name":"Vas","localName":"Vas","labelEnglish":"Vas","labelLocal":"Vas","labelBoth":"Vas","type":"County","iso":"HU-VA","qid":"Q187677"},"geometry":{"type":"Polygon","coordinates":[[[16.627,47.4455],[16.425,47.3511],[16.4864,46.9986],[16.094,46.8628],[16.1302,46.8567],[16.1795,46.8585],[16.2974,46.847],[16.3298,46.8344],[16.3111,46.7975],[16.2995,46.7795],[16.3654,46.6967],[16.3662,46.6965],[16.6133,46.9212],[17.098,47.0468],[17.2019,47.3984],[16.627,47.4455]],[[16.6591,47.2866],[16.6805,47.1594],[16.5273,47.2698],[16.6591,47.2866]]]}},{"type":"Feature","id":"label-HUN-3138","properties":{"kind":"division-label","code":"HUN-3138","countryCode":"HUN","name":"Vas","localName":"Vas","labelEnglish":"Vas","labelLocal":"Vas","labelBoth":"Vas","type":"County","iso":"HU-VA","qid":"Q187677"},"geometry":{"type":"Point","coordinates":[16.814,47.1693]}},{"type":"Feature","id":"HUN-3161","properties":{"kind":"division","code":"HUN-3161","countryCode":"HUN","name":"Bács-Kiskun","localName":"Bács-Kiskun","labelEnglish":"Bács-Kiskun","labelLocal":"Bács-Kiskun","labelBoth":"Bács-Kiskun","type":"County","iso":"HU-BK","qid":"Q181018"},"geometry":{"type":"Polygon","coordinates":[[[19.7119,46.1587],[20.0613,46.8007],[20.1464,46.9793],[19.8191,46.9455],[19.6898,46.7851],[19.6467,47.0121],[19.2653,47.1516],[18.968,47.0332],[18.9552,46.9947],[18.9267,46.8484],[18.9144,46.2457],[18.7858,46.0997],[18.8225,45.9056],[18.9013,45.9312],[19.2983,46.0221],[19.7119,46.1587]]]}},{"type":"Feature","id":"label-HUN-3161","properties":{"kind":"division-label","code":"HUN-3161","countryCode":"HUN","name":"Bács-Kiskun","localName":"Bács-Kiskun","labelEnglish":"Bács-Kiskun","labelLocal":"Bács-Kiskun","labelBoth":"Bács-Kiskun","type":"County","iso":"HU-BK","qid":"Q181018"},"geometry":{"type":"Point","coordinates":[19.4699,46.6096]}},{"type":"Feature","id":"HUN-4916","properties":{"kind":"division","code":"HUN-4916","countryCode":"HUN","name":"Szeged","localName":"Szeged","labelEnglish":"Szeged","labelLocal":"Szeged","labelBoth":"Szeged","type":"Urban county","iso":"HU-SD","qid":"Q81581"},"geometry":{"type":"Polygon","coordinates":[[[20.1148,46.1522],[20.269,46.2589],[20.2167,46.3168],[20.0634,46.1453],[20.1148,46.1522]]]}},{"type":"Feature","id":"label-HUN-4916","properties":{"kind":"division-label","code":"HUN-4916","countryCode":"HUN","name":"Szeged","localName":"Szeged","labelEnglish":"Szeged","labelLocal":"Szeged","labelBoth":"Szeged","type":"Urban county","iso":"HU-SD","qid":"Q81581"},"geometry":{"type":"Point","coordinates":[20.1431,46.2689]}},{"type":"Feature","id":"HUN-3159","properties":{"kind":"division","code":"HUN-3159","countryCode":"HUN","name":"Zala","localName":"Zala","labelEnglish":"Zala","labelLocal":"Zala","labelBoth":"Zala","type":"County","iso":"HU-ZA","qid":"Q185374"},"geometry":{"type":"Polygon","coordinates":[[[16.5153,46.5017],[16.8594,46.3648],[16.8793,46.3121],[17.0539,46.3896],[16.9232,46.4016],[16.995,46.5616],[17.0686,46.4232],[17.2204,46.6646],[17.098,47.0468],[16.6133,46.9212],[16.3662,46.6965],[16.4026,46.6631],[16.3722,46.6363],[16.5153,46.5017]],[[16.8103,46.7813],[16.7708,46.8999],[16.896,46.8774],[16.8103,46.7813]]]}},{"type":"Feature","id":"label-HUN-3159","properties":{"kind":"division-label","code":"HUN-3159","countryCode":"HUN","name":"Zala","localName":"Zala","labelEnglish":"Zala","labelLocal":"Zala","labelBoth":"Zala","type":"County","iso":"HU-ZA","qid":"Q185374"},"geometry":{"type":"Point","coordinates":[16.7964,46.6712]}},{"type":"Feature","id":"HUN-3157","properties":{"kind":"division","code":"HUN-3157","countryCode":"HUN","name":"Somogy","localName":"Somogy","labelEnglish":"Somogy","labelLocal":"Somogy","labelBoth":"Somogy","type":"County","iso":"HU-SO","qid":"Q190522"},"geometry":{"type":"Polygon","coordinates":[[[17.3066,45.9799],[17.6547,45.8521],[17.6909,46.1763],[18.0976,46.3712],[18.218,46.7907],[18.1771,46.9531],[17.2204,46.6646],[17.0686,46.4232],[17.0539,46.3896],[16.8793,46.3121],[17.3066,45.9799]],[[17.7764,46.4391],[17.8805,46.3284],[17.7429,46.2476],[17.7764,46.4391]]]}},{"type":"Feature","id":"label-HUN-3157","properties":{"kind":"division-label","code":"HUN-3157","countryCode":"HUN","name":"Somogy","localName":"Somogy","labelEnglish":"Somogy","labelLocal":"Somogy","labelBoth":"Somogy","type":"County","iso":"HU-SO","qid":"Q190522"},"geometry":{"type":"Point","coordinates":[17.5491,46.3623]}},{"type":"Feature","id":"HUN-3155","properties":{"kind":"division","code":"HUN-3155","countryCode":"HUN","name":"Baranya","localName":"Baranya","labelEnglish":"Baranya","labelLocal":"Baranya","labelBoth":"Baranya","type":"County","iso":"HU-BA","qid":"Q186195"},"geometry":{"type":"Polygon","coordinates":[[[17.6547,45.8521],[17.9062,45.7921],[18.4117,45.7432],[18.8225,45.9056],[18.7858,46.0997],[18.0976,46.3712],[17.6909,46.1763],[17.6547,45.8521]],[[18.3615,46.0566],[18.2358,45.9848],[18.1355,46.1235],[18.3615,46.0566]]]}},{"type":"Feature","id":"label-HUN-3155","properties":{"kind":"division-label","code":"HUN-3155","countryCode":"HUN","name":"Baranya","localName":"Baranya","labelEnglish":"Baranya","labelLocal":"Baranya","labelBoth":"Baranya","type":"County","iso":"HU-BA","qid":"Q186195"},"geometry":{"type":"Point","coordinates":[17.9611,45.9602]}},{"type":"Feature","id":"HUN-3168","properties":{"kind":"division","code":"HUN-3168","countryCode":"HUN","name":"Borsod-Abaúj-Zemplén","localName":"Borsod-Abaúj-Zemplén","labelEnglish":"Borsod-Abaúj-Zemplén","labelLocal":"Borsod-Abaúj-Zemplén","labelBoth":"Borsod-Abaúj-Zemplén","type":"County","iso":"HU-BZ","qid":"Q188895"},"geometry":{"type":"Polygon","coordinates":[[[22.1328,48.4048],[21.7277,48.3409],[21.4246,48.5613],[20.7841,48.5691],[20.466,48.4638],[20.0383,48.1772],[20.0959,48.1411],[20.4728,48.1134],[20.7111,48.2228],[20.9033,48.0407],[20.4918,48.0549],[20.422,47.9691],[20.4484,47.8806],[20.7741,47.6723],[20.8192,47.6794],[21.1137,47.9605],[22.1583,48.4022],[22.1328,48.4048]]]}},{"type":"Feature","id":"label-HUN-3168","properties":{"kind":"division-label","code":"HUN-3168","countryCode":"HUN","name":"Borsod-Abaúj-Zemplén","localName":"Borsod-Abaúj-Zemplén","labelEnglish":"Borsod-Abaúj-Zemplén","labelLocal":"Borsod-Abaúj-Zemplén","labelBoth":"Borsod-Abaúj-Zemplén","type":"County","iso":"HU-BZ","qid":"Q188895"},"geometry":{"type":"Point","coordinates":[21.0983,48.2104]}},{"type":"Feature","id":"HUN-3166","properties":{"kind":"division","code":"HUN-3166","countryCode":"HUN","name":"Nógrád","localName":"Nógrád","labelEnglish":"Nógrád","labelLocal":"Nógrád","labelBoth":"Nógrád","type":"County","iso":"HU-NO","qid":"Q194273"},"geometry":{"type":"Polygon","coordinates":[[[19.9051,48.1243],[19.7106,48.0502],[19.7667,48.159],[19.019,48.0655],[18.9336,48.0543],[18.9589,47.9194],[19.5807,47.7372],[20.0959,48.1411],[20.0383,48.1772],[19.9051,48.1243]]]}},{"type":"Feature","id":"label-HUN-3166","properties":{"kind":"division-label","code":"HUN-3166","countryCode":"HUN","name":"Nógrád","localName":"Nógrád","labelEnglish":"Nógrád","labelLocal":"Nógrád","labelBoth":"Nógrád","type":"County","iso":"HU-NO","qid":"Q194273"},"geometry":{"type":"Point","coordinates":[19.5146,47.9662]}},{"type":"Feature","id":"HUN-4921","properties":{"kind":"division","code":"HUN-4921","countryCode":"HUN","name":"Salgótarján","localName":"Salgótarján","labelEnglish":"Salgótarján","labelLocal":"Salgótarján","labelBoth":"Salgótarján","type":"Urban county","iso":"HU-ST","qid":"Q189769"},"geometry":{"type":"Polygon","coordinates":[[[19.7667,48.159],[19.7106,48.0502],[19.9051,48.1243],[19.7667,48.159]]]}},{"type":"Feature","id":"label-HUN-4921","properties":{"kind":"division-label","code":"HUN-4921","countryCode":"HUN","name":"Salgótarján","localName":"Salgótarján","labelEnglish":"Salgótarján","labelLocal":"Salgótarján","labelBoth":"Salgótarján","type":"Urban county","iso":"HU-ST","qid":"Q189769"},"geometry":{"type":"Point","coordinates":[19.7907,48.1057]}},{"type":"Feature","id":"HUN-3163","properties":{"kind":"division","code":"HUN-3163","countryCode":"HUN","name":"Komárom-Esztergom","localName":"Komárom-Esztergom","labelEnglish":"Komárom-Esztergom","labelLocal":"Komárom-Esztergom","labelBoth":"Komárom-Esztergom","type":"County","iso":"HU-KE","qid":"Q190018"},"geometry":{"type":"Polygon","coordinates":[[[18.8149,47.8322],[17.8835,47.7525],[17.8825,47.4548],[18.1032,47.3592],[18.462,47.5054],[18.4004,47.6208],[18.516,47.5553],[18.685,47.5619],[18.8149,47.8322]]]}},{"type":"Feature","id":"label-HUN-3163","properties":{"kind":"division-label","code":"HUN-3163","countryCode":"HUN","name":"Komárom-Esztergom","localName":"Komárom-Esztergom","labelEnglish":"Komárom-Esztergom","labelLocal":"Komárom-Esztergom","labelBoth":"Komárom-Esztergom","type":"County","iso":"HU-KE","qid":"Q190018"},"geometry":{"type":"Point","coordinates":[18.2244,47.6697]}},{"type":"Feature","id":"HUN-3164","properties":{"kind":"division","code":"HUN-3164","countryCode":"HUN","name":"Pest","localName":"Pest","labelEnglish":"Pest","labelLocal":"Pest","labelBoth":"Pest","type":"County","iso":"HU-PE","qid":"Q188612"},"geometry":{"type":"Polygon","coordinates":[[[18.8149,47.8322],[18.685,47.5619],[18.8194,47.3563],[18.9555,47.4045],[18.9296,47.5737],[19.3267,47.4861],[18.949,47.3693],[18.9028,47.3038],[18.968,47.0332],[19.2653,47.1516],[19.6467,47.0121],[19.8191,46.9455],[20.1464,46.9793],[20.0564,47.152],[20.0224,47.2491],[19.6748,47.5959],[19.5807,47.7372],[18.9589,47.9194],[18.9336,48.0543],[18.8149,47.8322]]]}},{"type":"Feature","id":"label-HUN-3164","properties":{"kind":"division-label","code":"HUN-3164","countryCode":"HUN","name":"Pest","localName":"Pest","labelEnglish":"Pest","labelLocal":"Pest","labelBoth":"Pest","type":"County","iso":"HU-PE","qid":"Q188612"},"geometry":{"type":"Point","coordinates":[19.4435,47.4344]}},{"type":"Feature","id":"HUN-3175","properties":{"kind":"division","code":"HUN-3175","countryCode":"HUN","name":"Jász-Nagykun-Szolnok","localName":"Jász-Nagykun-Szolnok","labelEnglish":"Jász-Nagykun-Szolnok","labelLocal":"Jász-Nagykun-Szolnok","labelBoth":"Jász-Nagykun-Szolnok","type":"County","iso":"HU-JN","qid":"Q189655"},"geometry":{"type":"Polygon","coordinates":[[[20.7741,47.6723],[20.3744,47.4297],[19.9998,47.6616],[19.6748,47.5959],[20.0224,47.2491],[20.1323,47.3414],[20.3018,47.1187],[20.0564,47.152],[20.1464,46.9793],[20.0613,46.8007],[20.4232,46.8033],[20.9945,47.236],[20.8192,47.6794],[20.7741,47.6723]]]}},{"type":"Feature","id":"label-HUN-3175","properties":{"kind":"division-label","code":"HUN-3175","countryCode":"HUN","name":"Jász-Nagykun-Szolnok","localName":"Jász-Nagykun-Szolnok","labelEnglish":"Jász-Nagykun-Szolnok","labelLocal":"Jász-Nagykun-Szolnok","labelBoth":"Jász-Nagykun-Szolnok","type":"County","iso":"HU-JN","qid":"Q189655"},"geometry":{"type":"Point","coordinates":[20.5204,47.2052]}},{"type":"Feature","id":"HUN-3162","properties":{"kind":"division","code":"HUN-3162","countryCode":"HUN","name":"Fejér","localName":"Fejér","labelEnglish":"Fejér","labelLocal":"Fejér","labelBoth":"Fejér","type":"County","iso":"HU-FE","qid":"Q187693"},"geometry":{"type":"Polygon","coordinates":[[[18.1771,46.9531],[18.218,46.7907],[18.6303,46.7074],[18.9267,46.8484],[18.8422,46.9766],[18.9552,46.9947],[18.968,47.0332],[18.9028,47.3038],[18.8194,47.3563],[18.685,47.5619],[18.516,47.5553],[18.462,47.5054],[18.1032,47.3592],[18.1771,46.9531]],[[18.4979,47.2757],[18.4292,47.0657],[18.3289,47.2041],[18.4979,47.2757]]]}},{"type":"Feature","id":"label-HUN-3162","properties":{"kind":"division-label","code":"HUN-3162","countryCode":"HUN","name":"Fejér","localName":"Fejér","labelEnglish":"Fejér","labelLocal":"Fejér","labelBoth":"Fejér","type":"County","iso":"HU-FE","qid":"Q187693"},"geometry":{"type":"Point","coordinates":[18.6516,46.989]}},{"type":"Feature","id":"HUN-3158","properties":{"kind":"division","code":"HUN-3158","countryCode":"HUN","name":"Veszprém","localName":"Veszprém","labelEnglish":"Veszprém","labelLocal":"Veszprém","labelBoth":"Veszprém","type":"County","iso":"HU-VE","qid":"Q188890"},"geometry":{"type":"Polygon","coordinates":[[[18.1032,47.3592],[17.8825,47.4548],[17.2019,47.3984],[17.098,47.0468],[17.2204,46.6646],[18.1771,46.9531],[18.1032,47.3592]],[[18.0065,47.0581],[17.8797,47.0174],[17.9323,47.2281],[18.0065,47.0581]]]}},{"type":"Feature","id":"label-HUN-3158","properties":{"kind":"division-label","code":"HUN-3158","countryCode":"HUN","name":"Veszprém","localName":"Veszprém","labelEnglish":"Veszprém","labelLocal":"Veszprém","labelBoth":"Veszprém","type":"County","iso":"HU-VE","qid":"Q188890"},"geometry":{"type":"Point","coordinates":[17.6638,47.1365]}},{"type":"Feature","id":"HUN-3165","properties":{"kind":"division","code":"HUN-3165","countryCode":"HUN","name":"Tolna","localName":"Tolna","labelEnglish":"Tolna","labelLocal":"Tolna","labelBoth":"Tolna","type":"County","iso":"HU-TO","qid":"Q191625"},"geometry":{"type":"Polygon","coordinates":[[[18.9267,46.8484],[18.6303,46.7074],[18.218,46.7907],[18.0976,46.3712],[18.7858,46.0997],[18.9144,46.2457],[18.9267,46.8484]],[[18.7693,46.361],[18.7005,46.2987],[18.6271,46.369],[18.7693,46.361]]]}},{"type":"Feature","id":"label-HUN-3165","properties":{"kind":"division-label","code":"HUN-3165","countryCode":"HUN","name":"Tolna","localName":"Tolna","labelEnglish":"Tolna","labelLocal":"Tolna","labelBoth":"Tolna","type":"County","iso":"HU-TO","qid":"Q191625"},"geometry":{"type":"Point","coordinates":[18.5198,46.5078]}},{"type":"Feature","id":"HUN-4918","properties":{"kind":"division","code":"HUN-4918","countryCode":"HUN","name":"Szolnok","localName":"Szolnok","labelEnglish":"Szolnok","labelLocal":"Szolnok","labelBoth":"Szolnok","type":"Urban county","iso":"HU-SK","qid":"Q181276"},"geometry":{"type":"Polygon","coordinates":[[[20.0564,47.152],[20.3018,47.1187],[20.1323,47.3414],[20.0224,47.2491],[20.0564,47.152]]]}},{"type":"Feature","id":"label-HUN-4918","properties":{"kind":"division-label","code":"HUN-4918","countryCode":"HUN","name":"Szolnok","localName":"Szolnok","labelEnglish":"Szolnok","labelLocal":"Szolnok","labelBoth":"Szolnok","type":"Urban county","iso":"HU-SK","qid":"Q181276"},"geometry":{"type":"Point","coordinates":[20.168,47.206]}},{"type":"Feature","id":"HUN-3160","properties":{"kind":"division","code":"HUN-3160","countryCode":"HUN","name":"Budapest","localName":"Budapest","labelEnglish":"Budapest","labelLocal":"Budapest","labelBoth":"Budapest","type":"Capital City","iso":"HU-BU","qid":"Q1781"},"geometry":{"type":"Polygon","coordinates":[[[18.949,47.3693],[19.3267,47.4861],[18.9296,47.5737],[18.9555,47.4045],[18.949,47.3693]]]}},{"type":"Feature","id":"label-HUN-3160","properties":{"kind":"division-label","code":"HUN-3160","countryCode":"HUN","name":"Budapest","localName":"Budapest","labelEnglish":"Budapest","labelLocal":"Budapest","labelBoth":"Budapest","type":"Capital City","iso":"HU-BU","qid":"Q1781"},"geometry":{"type":"Point","coordinates":[19.1282,47.4757]}},{"type":"Feature","id":"HUN-4907","properties":{"kind":"division","code":"HUN-4907","countryCode":"HUN","name":"Érd","localName":"Érd","labelEnglish":"Érd","labelLocal":"Érd","labelBoth":"Érd","type":"Urban county","iso":"HU-ED","qid":"Q193050"},"geometry":{"type":"Polygon","coordinates":[[[18.9555,47.4045],[18.8194,47.3563],[18.9028,47.3038],[18.949,47.3693],[18.9555,47.4045]]]}},{"type":"Feature","id":"label-HUN-4907","properties":{"kind":"division-label","code":"HUN-4907","countryCode":"HUN","name":"Érd","localName":"Érd","labelEnglish":"Érd","labelLocal":"Érd","labelBoth":"Érd","type":"Urban county","iso":"HU-ED","qid":"Q193050"},"geometry":{"type":"Point","coordinates":[18.893,47.3677]}},{"type":"Feature","id":"HUN-3174","properties":{"kind":"division","code":"HUN-3174","countryCode":"HUN","name":"Heves","localName":"Heves","labelEnglish":"Heves","labelLocal":"Heves","labelBoth":"Heves","type":"County","iso":"HU-HE","qid":"Q191604"},"geometry":{"type":"Polygon","coordinates":[[[20.7741,47.6723],[20.4484,47.8806],[20.3029,47.8494],[20.2966,48.0012],[20.422,47.9691],[20.4918,48.0549],[20.4728,48.1134],[20.0959,48.1411],[19.5807,47.7372],[19.6748,47.5959],[19.9998,47.6616],[20.3744,47.4297],[20.7741,47.6723]]]}},{"type":"Feature","id":"label-HUN-3174","properties":{"kind":"division-label","code":"HUN-3174","countryCode":"HUN","name":"Heves","localName":"Heves","labelEnglish":"Heves","labelLocal":"Heves","labelBoth":"Heves","type":"County","iso":"HU-HE","qid":"Q191604"},"geometry":{"type":"Point","coordinates":[20.1774,47.8614]}},{"type":"Feature","id":"HUN-4920","properties":{"kind":"division","code":"HUN-4920","countryCode":"HUN","name":"Eger","localName":"Eger","labelEnglish":"Eger","labelLocal":"Eger","labelBoth":"Eger","type":"Urban county","iso":"HU-EG","qid":"Q167109"},"geometry":{"type":"Polygon","coordinates":[[[20.422,47.9691],[20.2966,48.0012],[20.3029,47.8494],[20.4484,47.8806],[20.422,47.9691]]]}},{"type":"Feature","id":"label-HUN-4920","properties":{"kind":"division-label","code":"HUN-4920","countryCode":"HUN","name":"Eger","localName":"Eger","labelEnglish":"Eger","labelLocal":"Eger","labelBoth":"Eger","type":"Urban county","iso":"HU-EG","qid":"Q167109"},"geometry":{"type":"Point","coordinates":[20.3836,47.9316]}},{"type":"Feature","id":"HUN-4922","properties":{"kind":"division","code":"HUN-4922","countryCode":"HUN","name":"Miskolc","localName":"Miskolc","labelEnglish":"Miskolc","labelLocal":"Miskolc","labelBoth":"Miskolc","type":"Urban county","iso":"HU-MI","qid":"Q102397"},"geometry":{"type":"Polygon","coordinates":[[[20.4918,48.0549],[20.9033,48.0407],[20.7111,48.2228],[20.4728,48.1134],[20.4918,48.0549]]]}},{"type":"Feature","id":"label-HUN-4922","properties":{"kind":"division-label","code":"HUN-4922","countryCode":"HUN","name":"Miskolc","localName":"Miskolc","labelEnglish":"Miskolc","labelLocal":"Miskolc","labelBoth":"Miskolc","type":"Urban county","iso":"HU-MI","qid":"Q102397"},"geometry":{"type":"Point","coordinates":[20.7319,48.1181]}},{"type":"Feature","id":"HUN-4917","properties":{"kind":"division","code":"HUN-4917","countryCode":"HUN","name":"Hódmezővásárhely","localName":"Hódmezővásárhely","labelEnglish":"Hódmezővásárhely","labelLocal":"Hódmezővásárhely","labelBoth":"Hódmezővásárhely","type":"Urban county","iso":"HU-HV","qid":"Q124375"},"geometry":{"type":"Polygon","coordinates":[[[20.5856,46.4481],[20.2972,46.5208],[20.2167,46.3168],[20.269,46.2589],[20.5993,46.3845],[20.5856,46.4481]]]}},{"type":"Feature","id":"label-HUN-4917","properties":{"kind":"division-label","code":"HUN-4917","countryCode":"HUN","name":"Hódmezővásárhely","localName":"Hódmezővásárhely","labelEnglish":"Hódmezővásárhely","labelLocal":"Hódmezővásárhely","labelBoth":"Hódmezővásárhely","type":"Urban county","iso":"HU-HV","qid":"Q124375"},"geometry":{"type":"Point","coordinates":[20.3919,46.3767]}},{"type":"Feature","id":"HUN-4925","properties":{"kind":"division","code":"HUN-4925","countryCode":"HUN","name":"Dunaújváros","localName":"Dunaújváros","labelEnglish":"Dunaújváros","labelLocal":"Dunaújváros","labelBoth":"Dunaújváros","type":"Urban county","iso":"HU-DU","qid":"Q187812"},"geometry":{"type":"Polygon","coordinates":[[[18.9552,46.9947],[18.8422,46.9766],[18.9267,46.8484],[18.9552,46.9947]]]}},{"type":"Feature","id":"label-HUN-4925","properties":{"kind":"division-label","code":"HUN-4925","countryCode":"HUN","name":"Dunaújváros","localName":"Dunaújváros","labelEnglish":"Dunaújváros","labelLocal":"Dunaújváros","labelBoth":"Dunaújváros","type":"Urban county","iso":"HU-DU","qid":"Q187812"},"geometry":{"type":"Point","coordinates":[18.8971,46.9489]}},{"type":"Feature","id":"HUN-4915","properties":{"kind":"division","code":"HUN-4915","countryCode":"HUN","name":"Kecskemét","localName":"Kecskemét","labelEnglish":"Kecskemét","labelLocal":"Kecskemét","labelBoth":"Kecskemét","type":"Urban county","iso":"HU-KM","qid":"Q171357"},"geometry":{"type":"Polygon","coordinates":[[[19.6467,47.0121],[19.6898,46.7851],[19.8191,46.9455],[19.6467,47.0121]]]}},{"type":"Feature","id":"label-HUN-4915","properties":{"kind":"division-label","code":"HUN-4915","countryCode":"HUN","name":"Kecskemét","localName":"Kecskemét","labelEnglish":"Kecskemét","labelLocal":"Kecskemét","labelBoth":"Kecskemét","type":"Urban county","iso":"HU-KM","qid":"Q171357"},"geometry":{"type":"Point","coordinates":[19.6684,46.9282]}},{"type":"Feature","id":"HUN-4906","properties":{"kind":"division","code":"HUN-4906","countryCode":"HUN","name":"Tatabánya","localName":"Tatabánya","labelEnglish":"Tatabánya","labelLocal":"Tatabánya","labelBoth":"Tatabánya","type":"Urban county","iso":"HU-TB","qid":"Q187821"},"geometry":{"type":"Polygon","coordinates":[[[18.516,47.5553],[18.4004,47.6208],[18.462,47.5054],[18.516,47.5553]]]}},{"type":"Feature","id":"label-HUN-4906","properties":{"kind":"division-label","code":"HUN-4906","countryCode":"HUN","name":"Tatabánya","localName":"Tatabánya","labelEnglish":"Tatabánya","labelLocal":"Tatabánya","labelBoth":"Tatabánya","type":"Urban county","iso":"HU-TB","qid":"Q187821"},"geometry":{"type":"Point","coordinates":[18.4452,47.5667]}},{"type":"Feature","id":"HUN-4905","properties":{"kind":"division","code":"HUN-4905","countryCode":"HUN","name":"Győr","localName":"Győr","labelEnglish":"Győr","labelLocal":"Győr","labelBoth":"Győr","type":"Urban county","iso":"HU-GY","qid":"Q134494"},"geometry":{"type":"Polygon","coordinates":[[[17.7265,47.73],[17.5048,47.6349],[17.7963,47.6475],[17.7265,47.73]]]}},{"type":"Feature","id":"label-HUN-4905","properties":{"kind":"division-label","code":"HUN-4905","countryCode":"HUN","name":"Győr","localName":"Győr","labelEnglish":"Győr","labelLocal":"Győr","labelBoth":"Győr","type":"Urban county","iso":"HU-GY","qid":"Q134494"},"geometry":{"type":"Point","coordinates":[17.6657,47.6621]}},{"type":"Feature","id":"HUN-4903","properties":{"kind":"division","code":"HUN-4903","countryCode":"HUN","name":"Szombathely","localName":"Szombathely","labelEnglish":"Szombathely","labelLocal":"Szombathely","labelBoth":"Szombathely","type":"Urban county","iso":"HU-SH","qid":"Q42007"},"geometry":{"type":"Polygon","coordinates":[[[16.6591,47.2866],[16.5273,47.2698],[16.6805,47.1594],[16.6591,47.2866]]]}},{"type":"Feature","id":"label-HUN-4903","properties":{"kind":"division-label","code":"HUN-4903","countryCode":"HUN","name":"Szombathely","localName":"Szombathely","labelEnglish":"Szombathely","labelLocal":"Szombathely","labelBoth":"Szombathely","type":"Urban county","iso":"HU-SH","qid":"Q42007"},"geometry":{"type":"Point","coordinates":[16.625,47.2308]}},{"type":"Feature","id":"HUN-4910","properties":{"kind":"division","code":"HUN-4910","countryCode":"HUN","name":"Zalaegerszeg","localName":"Zalaegerszeg","labelEnglish":"Zalaegerszeg","labelLocal":"Zalaegerszeg","labelBoth":"Zalaegerszeg","type":"Urban county","iso":"HU-ZE","qid":"Q60037"},"geometry":{"type":"Polygon","coordinates":[[[16.8103,46.7813],[16.896,46.8774],[16.7708,46.8999],[16.8103,46.7813]]]}},{"type":"Feature","id":"label-HUN-4910","properties":{"kind":"division-label","code":"HUN-4910","countryCode":"HUN","name":"Zalaegerszeg","localName":"Zalaegerszeg","labelEnglish":"Zalaegerszeg","labelLocal":"Zalaegerszeg","labelBoth":"Zalaegerszeg","type":"Urban county","iso":"HU-ZE","qid":"Q60037"},"geometry":{"type":"Point","coordinates":[16.8447,46.8452]}},{"type":"Feature","id":"HUN-4911","properties":{"kind":"division","code":"HUN-4911","countryCode":"HUN","name":"Nagykanizsa","localName":"Nagykanizsa","labelEnglish":"Nagykanizsa","labelLocal":"Nagykanizsa","labelBoth":"Nagykanizsa","type":"Urban county","iso":"HU-NK","qid":"Q14424"},"geometry":{"type":"Polygon","coordinates":[[[17.0686,46.4232],[16.995,46.5616],[16.9232,46.4016],[17.0539,46.3896],[17.0686,46.4232]]]}},{"type":"Feature","id":"label-HUN-4911","properties":{"kind":"division-label","code":"HUN-4911","countryCode":"HUN","name":"Nagykanizsa","localName":"Nagykanizsa","labelEnglish":"Nagykanizsa","labelLocal":"Nagykanizsa","labelBoth":"Nagykanizsa","type":"Urban county","iso":"HU-NK","qid":"Q14424"},"geometry":{"type":"Point","coordinates":[16.9898,46.4513]}},{"type":"Feature","id":"HUN-4909","properties":{"kind":"division","code":"HUN-4909","countryCode":"HUN","name":"Veszprém","localName":"Veszprém","labelEnglish":"Veszprém","labelLocal":"Veszprém","labelBoth":"Veszprém","type":"Urban county","iso":"HU-VM","qid":"Q146317"},"geometry":{"type":"Polygon","coordinates":[[[18.0065,47.0581],[17.9323,47.2281],[17.8797,47.0174],[18.0065,47.0581]]]}},{"type":"Feature","id":"label-HUN-4909","properties":{"kind":"division-label","code":"HUN-4909","countryCode":"HUN","name":"Veszprém","localName":"Veszprém","labelEnglish":"Veszprém","labelLocal":"Veszprém","labelBoth":"Veszprém","type":"Urban county","iso":"HU-VM","qid":"Q146317"},"geometry":{"type":"Point","coordinates":[17.9145,47.123]}},{"type":"Feature","id":"HUN-4912","properties":{"kind":"division","code":"HUN-4912","countryCode":"HUN","name":"Kaposvár","localName":"Kaposvár","labelEnglish":"Kaposvár","labelLocal":"Kaposvár","labelBoth":"Kaposvár","type":"Urban county","iso":"HU-KV","qid":"Q184998"},"geometry":{"type":"Polygon","coordinates":[[[17.7764,46.4391],[17.7429,46.2476],[17.8805,46.3284],[17.7764,46.4391]]]}},{"type":"Feature","id":"label-HUN-4912","properties":{"kind":"division-label","code":"HUN-4912","countryCode":"HUN","name":"Kaposvár","localName":"Kaposvár","labelEnglish":"Kaposvár","labelLocal":"Kaposvár","labelBoth":"Kaposvár","type":"Urban county","iso":"HU-KV","qid":"Q184998"},"geometry":{"type":"Point","coordinates":[17.7984,46.356]}},{"type":"Feature","id":"HUN-4913","properties":{"kind":"division","code":"HUN-4913","countryCode":"HUN","name":"Pécs","localName":"Pécs","labelEnglish":"Pécs","labelLocal":"Pécs","labelBoth":"Pécs","type":"Urban county","iso":"HU-PS","qid":"Q45779"},"geometry":{"type":"Polygon","coordinates":[[[18.3615,46.0566],[18.1355,46.1235],[18.2358,45.9848],[18.3615,46.0566]]]}},{"type":"Feature","id":"label-HUN-4913","properties":{"kind":"division-label","code":"HUN-4913","countryCode":"HUN","name":"Pécs","localName":"Pécs","labelEnglish":"Pécs","labelLocal":"Pécs","labelBoth":"Pécs","type":"Urban county","iso":"HU-PS","qid":"Q45779"},"geometry":{"type":"Point","coordinates":[18.2337,46.0699]}},{"type":"Feature","id":"HUN-4914","properties":{"kind":"division","code":"HUN-4914","countryCode":"HUN","name":"Szekszárd","localName":"Szekszárd","labelEnglish":"Szekszárd","labelLocal":"Szekszárd","labelBoth":"Szekszárd","type":"Urban county","iso":"HU-SS","qid":"Q189761"},"geometry":{"type":"Polygon","coordinates":[[[18.7693,46.361],[18.6271,46.369],[18.7005,46.2987],[18.7693,46.361]]]}},{"type":"Feature","id":"label-HUN-4914","properties":{"kind":"division-label","code":"HUN-4914","countryCode":"HUN","name":"Szekszárd","localName":"Szekszárd","labelEnglish":"Szekszárd","labelLocal":"Szekszárd","labelBoth":"Szekszárd","type":"Urban county","iso":"HU-SS","qid":"Q189761"},"geometry":{"type":"Point","coordinates":[18.6981,46.356]}},{"type":"Feature","id":"HUN-4908","properties":{"kind":"division","code":"HUN-4908","countryCode":"HUN","name":"Székesfehérvár","localName":"Székesfehérvár","labelEnglish":"Székesfehérvár","labelLocal":"Székesfehérvár","labelBoth":"Székesfehérvár","type":"Urban county","iso":"HU-SF","qid":"Q130212"},"geometry":{"type":"Polygon","coordinates":[[[18.4979,47.2757],[18.3289,47.2041],[18.4292,47.0657],[18.4979,47.2757]]]}},{"type":"Feature","id":"label-HUN-4908","properties":{"kind":"division-label","code":"HUN-4908","countryCode":"HUN","name":"Székesfehérvár","localName":"Székesfehérvár","labelEnglish":"Székesfehérvár","labelLocal":"Székesfehérvár","labelBoth":"Székesfehérvár","type":"Urban county","iso":"HU-SF","qid":"Q130212"},"geometry":{"type":"Point","coordinates":[18.4618,47.1977]}},{"type":"Feature","id":"HUN-4919","properties":{"kind":"division","code":"HUN-4919","countryCode":"HUN","name":"Békéscsaba","localName":"Békéscsaba","labelEnglish":"Békéscsaba","labelLocal":"Békéscsaba","labelBoth":"Békéscsaba","type":"Urban county","iso":"HU-BC","qid":"Q178878"},"geometry":{"type":"Polygon","coordinates":[[[21.1677,46.6701],[21.0597,46.8522],[21.0028,46.6657],[21.1677,46.6701]]]}},{"type":"Feature","id":"label-HUN-4919","properties":{"kind":"division-label","code":"HUN-4919","countryCode":"HUN","name":"Békéscsaba","localName":"Békéscsaba","labelEnglish":"Békéscsaba","labelLocal":"Békéscsaba","labelBoth":"Békéscsaba","type":"Urban county","iso":"HU-BC","qid":"Q178878"},"geometry":{"type":"Point","coordinates":[21.0968,46.7499]}},{"type":"Feature","id":"HUN-4924","properties":{"kind":"division","code":"HUN-4924","countryCode":"HUN","name":"Debrecen","localName":"Debrecen","labelEnglish":"Debrecen","labelLocal":"Debrecen","labelBoth":"Debrecen","type":"Urban county","iso":"HU-DE","qid":"Q79880"},"geometry":{"type":"Polygon","coordinates":[[[21.5464,47.6715],[21.5767,47.3906],[21.8628,47.5703],[21.5464,47.6715]]]}},{"type":"Feature","id":"label-HUN-4924","properties":{"kind":"division-label","code":"HUN-4924","countryCode":"HUN","name":"Debrecen","localName":"Debrecen","labelEnglish":"Debrecen","labelLocal":"Debrecen","labelBoth":"Debrecen","type":"Urban county","iso":"HU-DE","qid":"Q79880"},"geometry":{"type":"Point","coordinates":[21.6192,47.5252]}},{"type":"Feature","id":"HUN-4923","properties":{"kind":"division","code":"HUN-4923","countryCode":"HUN","name":"Nyíregyháza","localName":"Nyíregyháza","labelEnglish":"Nyíregyháza","labelLocal":"Nyíregyháza","labelBoth":"Nyíregyháza","type":"Urban county","iso":"HU-NY","qid":"Q171223"},"geometry":{"type":"Polygon","coordinates":[[[21.85,47.9903],[21.6199,47.874],[21.8374,47.8411],[21.85,47.9903]]]}},{"type":"Feature","id":"label-HUN-4923","properties":{"kind":"division-label","code":"HUN-4923","countryCode":"HUN","name":"Nyíregyháza","localName":"Nyíregyháza","labelEnglish":"Nyíregyháza","labelLocal":"Nyíregyháza","labelBoth":"Nyíregyháza","type":"Urban county","iso":"HU-NY","qid":"Q171223"},"geometry":{"type":"Point","coordinates":[21.7602,47.9357]}}]}