{"type":"FeatureCollection","features":[{"type":"Feature","id":"IDN-1185","properties":{"kind":"division","code":"IDN-1185","countryCode":"IDN","name":"East Kalimantan","localName":"East Kalimantan","labelEnglish":"East Kalimantan","labelLocal":"East Kalimantan","labelBoth":"East Kalimantan","type":"Province","iso":"ID-KI","qid":"Q3899"},"geometry":{"type":"Polygon","coordinates":[[[117.5671,4.1597],[117.2172,4.3534],[116.7117,4.3668],[116.3911,4.2947],[115.8441,4.3892],[115.6391,4.146],[115.5383,3.8978],[115.6006,3.4412],[115.4641,3.0308],[115.2421,3.0416],[115.0669,2.8282],[115.2061,2.5099],[114.7788,2.2472],[114.832,1.9025],[114.5006,1.436],[114.2074,1.4394],[114.1921,1.2144],[113.8645,0.9764],[113.9481,0.8622],[113.7764,0.5586],[114.0363,0.647],[114.3775,0.5886],[114.9765,0.7352],[115.076,0.533],[114.9531,0.2842],[115.0026,-0.1777],[115.3474,0.0023],[115.2772,-0.2201],[115.46,-0.886],[115.8051,-1.0853],[115.6775,-1.4259],[115.6312,-1.525],[115.8288,-2.0472],[115.874,-2.3507],[115.9945,-2.271],[116.5729,-2.363],[116.6055,-2.1936],[116.2894,-2.1694],[116.4631,-2.02],[116.3796,-1.7653],[116.5392,-1.4812],[117.0237,-1.2029],[117.2815,-0.8092],[117.615,-0.7861],[117.596,-0.4226],[117.4414,-0.5252],[117.5303,-0.0323],[117.47,0.1088],[117.8113,0.8118],[118.0692,0.9288],[118.7982,0.8049],[119.0029,0.9625],[118.7293,1.2539],[117.8626,1.8859],[118.0915,2.262],[117.8262,2.6074],[117.6172,3.0859],[117.3527,3.1828],[117.4465,3.4348],[117.0905,3.6458],[117.7485,3.6369],[117.7772,3.7991],[117.3731,4.1697],[117.5671,4.1597]]]}},{"type":"Feature","id":"label-IDN-1185","properties":{"kind":"division-label","code":"IDN-1185","countryCode":"IDN","name":"East Kalimantan","localName":"East Kalimantan","labelEnglish":"East Kalimantan","labelLocal":"East Kalimantan","labelBoth":"East Kalimantan","type":"Province","iso":"ID-KI","qid":"Q3899"},"geometry":{"type":"Point","coordinates":[116.354,1.28915]}},{"type":"Feature","id":"IDN-1235","properties":{"kind":"division","code":"IDN-1235","countryCode":"IDN","name":"East Nusa Tenggara","localName":"East Nusa Tenggara","labelEnglish":"East Nusa Tenggara","labelLocal":"East Nusa Tenggara","labelBoth":"East Nusa Tenggara","type":"Province","iso":"ID-NT","qid":"Q5061"},"geometry":{"type":"MultiPolygon","coordinates":[[[[124.4505,-9.1802],[124.2575,-9.5012],[124.03,-9.342],[123.6888,-9.6114],[123.5762,-10.0139],[123.7485,-10.0978],[123.4686,-10.3562],[123.8263,-10.3639],[124.1224,-10.1725],[124.4185,-10.1638],[124.9707,-9.6624],[125.0616,-9.4858],[124.9541,-9.2415],[125.1527,-9.1708],[124.9195,-8.962],[124.4505,-9.1802]]],[[[120.7925,-9.9609],[120.4783,-9.641],[119.946,-9.2883],[119.1687,-9.3855],[118.9416,-9.5705],[119.0374,-9.6759],[119.4773,-9.7486],[119.9763,-9.9924],[120.1556,-10.221],[120.45,-10.3103],[120.8267,-10.0912],[120.7925,-9.9609]]],[[[119.5593,-8.5182],[119.4153,-8.4433],[119.3772,-8.7224],[119.5593,-8.5182]]],[[[123.0264,-8.2888],[122.9507,-8.2031],[122.2884,-8.6339],[122.0081,-8.4275],[121.5095,-8.6021],[120.9761,-8.3375],[120.2129,-8.2927],[119.8037,-8.5968],[119.9199,-8.8708],[120.131,-8.7708],[120.5939,-8.7958],[120.9229,-8.9262],[121.3406,-8.9181],[121.396,-8.7941],[121.7937,-8.884],[122.1145,-8.7324],[122.4079,-8.7415],[122.8074,-8.6109],[122.8036,-8.4379],[123.0264,-8.2888]]],[[[123.3901,-10.5915],[123.3865,-10.433],[123.0492,-10.7114],[122.8125,-10.7784],[122.8418,-10.9211],[123.2092,-10.8131],[123.3901,-10.5915]]],[[[123.928,-8.2273],[123.7982,-8.1799],[123.3696,-8.3167],[123.2273,-8.5261],[123.5435,-8.5693],[123.928,-8.2273]]],[[[124.3081,-8.2205],[124.0188,-8.4299],[124.1648,-8.5283],[124.3081,-8.2205]]],[[[125.134,-8.2171],[125.0925,-8.1616],[124.4507,-8.149],[124.4182,-8.4646],[125.1233,-8.3523],[125.134,-8.2171]]]]}},{"type":"Feature","id":"label-IDN-1235","properties":{"kind":"division-label","code":"IDN-1235","countryCode":"IDN","name":"East Nusa Tenggara","localName":"East Nusa Tenggara","labelEnglish":"East Nusa Tenggara","labelLocal":"East Nusa Tenggara","labelBoth":"East Nusa Tenggara","type":"Province","iso":"ID-NT","qid":"Q5061"},"geometry":{"type":"Point","coordinates":[120.689,-8.58443]}},{"type":"Feature","id":"IDN-1228","properties":{"kind":"division","code":"IDN-1228","countryCode":"IDN","name":"West Kalimantan","localName":"West Kalimantan","labelEnglish":"West Kalimantan","labelLocal":"West Kalimantan","labelBoth":"West Kalimantan","type":"Province","iso":"ID-KB","qid":"Q3916"},"geometry":{"type":"MultiPolygon","coordinates":[[[[109.6453,2.0832],[109.341,1.9355],[109.096,1.5606],[108.8555,0.8322],[108.9209,0.3403],[109.3005,0.0105],[109.0462,-0.2459],[109.1233,-0.4997],[109.344,-0.5838],[109.2732,-0.8536],[109.4888,-0.8517],[109.9227,-1.1036],[110.0685,-1.4325],[109.9038,-1.8261],[110.075,-1.9225],[110.221,-2.5328],[110.2632,-3.0029],[110.5081,-2.8746],[110.6624,-3.0807],[110.9592,-2.8857],[111.1376,-2.733],[111.1377,-2.4048],[111.0123,-2.1274],[111.0174,-1.6603],[111.6514,-1.0155],[112.1185,-0.7354],[112.578,-0.7045],[113.1611,-0.4699],[113.4293,-0.1904],[113.4532,0.0659],[113.3245,0.2452],[113.5316,0.2614],[113.7764,0.5586],[113.9481,0.8622],[113.8645,0.9764],[114.1921,1.2144],[114.2074,1.4394],[113.9097,1.4425],[113.6495,1.2333],[113.089,1.4313],[113.0234,1.537],[112.4705,1.5677],[112.1801,1.449],[112.1001,1.1549],[111.8231,1.0085],[111.1976,1.0752],[110.5539,0.8514],[110.2635,0.9943],[110.1704,1.1745],[109.8428,1.4033],[109.5284,1.89],[109.6453,2.0832]]],[[[109.7598,-1.1039],[109.4523,-1.004],[109.4787,-1.2985],[109.7598,-1.1039]]]]}},{"type":"Feature","id":"label-IDN-1228","properties":{"kind":"division-label","code":"IDN-1228","countryCode":"IDN","name":"West Kalimantan","localName":"West Kalimantan","labelEnglish":"West Kalimantan","labelLocal":"West Kalimantan","labelBoth":"West Kalimantan","type":"Province","iso":"ID-KB","qid":"Q3916"},"geometry":{"type":"Point","coordinates":[111.304,-0.0636474]}},{"type":"Feature","id":"IDN-558","properties":{"kind":"division","code":"IDN-558","countryCode":"IDN","name":"Papua","localName":"Papua","labelEnglish":"Papua","labelLocal":"Papua","labelBoth":"Papua","type":"Province","iso":"ID-PA","qid":"Q5095"},"geometry":{"type":"MultiPolygon","coordinates":[[[[140.9745,-2.6005],[140.1657,-2.3254],[139.8648,-2.372],[138.8032,-1.9208],[138.6652,-1.7892],[137.7944,-1.4841],[137.1428,-1.787],[137.2263,-2.0744],[136.7586,-2.2487],[136.4038,-2.2197],[136.2664,-2.5603],[135.9646,-2.7758],[135.9099,-2.9858],[135.4705,-3.3631],[134.9847,-3.3297],[134.8185,-3.1363],[134.8513,-2.8998],[134.67,-2.8377],[134.4454,-3.0239],[134.2583,-3.3995],[135.2651,-3.76],[134.8735,-4.2546],[135.2278,-4.4612],[135.4295,-4.4304],[135.9705,-4.5196],[136.8221,-4.9283],[137.219,-5.0134],[138.0749,-5.4196],[138.0711,-5.7286],[138.2708,-5.887],[138.4661,-6.4021],[138.9315,-6.8425],[138.572,-6.9425],[138.762,-7.1139],[139.1746,-7.237],[138.6882,-7.1926],[139.093,-7.56],[138.994,-7.8655],[138.911,-7.9225],[138.9212,-8.0795],[138.8386,-8.1384],[138.9144,-8.2921],[139.2245,-8.0744],[139.3567,-8.1994],[139.9324,-8.1086],[140.977,-9.1061],[140.9772,-6.8966],[140.8492,-6.7028],[140.9769,-6.3351],[140.9769,-4.9885],[140.9745,-2.6005]]],[[[138.8973,-8.3372],[138.6888,-8.1813],[138.5584,-8.3666],[138.8973,-8.3372]]],[[[138.939,-7.5421],[138.8045,-7.3742],[138.2442,-7.4565],[138.0281,-7.61],[137.759,-8.0734],[137.6382,-8.4259],[138.4442,-8.3791],[138.6609,-8.169],[138.9041,-8.0759],[138.8838,-7.9325],[139.0755,-7.5763],[138.939,-7.5421]]],[[[136.8485,-1.7653],[136.1913,-1.6539],[135.4222,-1.6108],[136.2732,-1.9094],[136.8723,-1.8193],[136.8485,-1.7653]]],[[[136.3757,-1.0937],[136.1963,-1.0666],[135.8474,-0.6959],[135.3704,-0.6359],[135.6608,-0.8871],[135.741,-0.819],[135.906,-1.1894],[136.1428,-1.2234],[136.3757,-1.0937]]]]}},{"type":"Feature","id":"label-IDN-558","properties":{"kind":"division-label","code":"IDN-558","countryCode":"IDN","name":"Papua","localName":"Papua","labelEnglish":"Papua","labelLocal":"Papua","labelBoth":"Papua","type":"Province","iso":"ID-PA","qid":"Q5095"},"geometry":{"type":"Point","coordinates":[138.689,-4.10825]}},{"type":"Feature","id":"IDN-1233","properties":{"kind":"division","code":"IDN-1233","countryCode":"IDN","name":"East Java","localName":"East Java","labelEnglish":"East Java","labelLocal":"East Java","labelBoth":"East Java","type":"Province","iso":"ID-JI","qid":"Q3586"},"geometry":{"type":"MultiPolygon","coordinates":[[[[111.6727,-6.7337],[111.6083,-7.154],[111.4443,-7.3112],[111.2203,-7.2514],[111.1906,-7.7074],[111.2803,-7.9392],[110.9444,-8.2264],[111.6734,-8.3679],[111.792,-8.2565],[112.3416,-8.3327],[112.6727,-8.447],[113.1979,-8.2773],[113.98,-8.6202],[114.3026,-8.6119],[114.5972,-8.7756],[114.3587,-8.4091],[114.4673,-7.831],[114.0161,-7.6181],[113.8039,-7.7218],[113.2993,-7.7885],[112.7615,-7.5312],[112.6038,-6.9046],[112.0679,-6.8936],[111.6727,-6.7337]]],[[[114.0457,-6.9146],[113.9237,-6.8648],[112.842,-6.9089],[112.7264,-7.1588],[113.549,-7.2338],[114.1248,-6.9816],[114.0457,-6.9146]]]]}},{"type":"Feature","id":"label-IDN-1233","properties":{"kind":"division-label","code":"IDN-1233","countryCode":"IDN","name":"East Java","localName":"East Java","labelEnglish":"East Java","labelLocal":"East Java","labelBoth":"East Java","type":"Province","iso":"ID-JI","qid":"Q3586"},"geometry":{"type":"Point","coordinates":[112.616,-7.88129]}},{"type":"Feature","id":"IDN-554","properties":{"kind":"division","code":"IDN-554","countryCode":"IDN","name":"Maluku","localName":"Maluku","labelEnglish":"Maluku","labelLocal":"Maluku","labelBoth":"Maluku","type":"Province","iso":"ID-MA","qid":"Q5093"},"geometry":{"type":"MultiPolygon","coordinates":[[[[128.0906,-8.131],[127.7742,-8.1034],[128.0415,-8.2551],[128.0906,-8.131]]],[[[129.8412,-7.8779],[129.5942,-7.924],[129.7764,-8.0554],[129.8412,-7.8779]]],[[[126.8368,-7.7263],[126.627,-7.56],[126.3284,-7.6957],[125.9479,-7.6783],[125.812,-8.0076],[126.075,-7.8839],[126.4662,-7.9666],[126.8368,-7.7263]]],[[[131.6986,-7.2267],[131.5288,-7.1701],[131.2547,-7.4723],[131.0857,-7.8718],[131.3167,-8.018],[131.6433,-7.5991],[131.6986,-7.2267]]],[[[134.4844,-6.5756],[134.136,-6.1769],[134.055,-6.7752],[134.1851,-6.9186],[134.4844,-6.5756]]],[[[134.7581,-6.1579],[134.626,-5.933],[134.7581,-5.6713],[134.4912,-5.4482],[134.2881,-5.9239],[134.3335,-6.2214],[134.6078,-6.3696],[134.7581,-6.1579]]],[[[133.1843,-5.3103],[133.1101,-5.311],[132.8405,-5.985],[133.1133,-5.5956],[133.1843,-5.3103]]],[[[128.3308,-3.5119],[128.0345,-3.589],[127.986,-3.7716],[128.335,-3.6272],[128.3308,-3.5119]]],[[[127.2409,-3.471],[127.0935,-3.2008],[126.84,-3.0737],[126.4214,-3.0705],[125.9917,-3.2482],[126.1736,-3.6025],[126.7422,-3.8594],[127.2434,-3.6061],[127.2409,-3.471]]],[[[130.8732,-3.574],[130.6667,-3.4036],[130.5785,-3.1228],[130.345,-2.9776],[130.0466,-2.9921],[129.4435,-2.7849],[129.1218,-2.9577],[128.8652,-2.8621],[128.1755,-2.857],[128.1037,-3.067],[127.8423,-3.1733],[127.926,-3.5535],[128.1358,-3.0754],[128.4841,-3.4625],[128.6776,-3.4323],[128.8775,-3.2026],[128.9608,-3.3556],[129.4856,-3.4635],[129.5449,-3.2978],[129.8905,-3.3331],[129.9832,-3.4597],[130.8416,-3.865],[130.8732,-3.574]]]]}},{"type":"Feature","id":"label-IDN-554","properties":{"kind":"division-label","code":"IDN-554","countryCode":"IDN","name":"Maluku","localName":"Maluku","labelEnglish":"Maluku","labelLocal":"Maluku","labelBoth":"Maluku","type":"Province","iso":"ID-MA","qid":"Q5093"},"geometry":{"type":"Point","coordinates":[128.161,-8.24814]}},{"type":"Feature","id":"IDN-555","properties":{"kind":"division","code":"IDN-555","countryCode":"IDN","name":"West Nusa Tenggara","localName":"West Nusa Tenggara","labelEnglish":"West Nusa Tenggara","labelLocal":"West Nusa Tenggara","labelBoth":"West Nusa Tenggara","type":"Province","iso":"ID-NB","qid":"Q5062"},"geometry":{"type":"MultiPolygon","coordinates":[[[[116.6333,-8.2751],[116.3762,-8.2018],[116.0279,-8.445],[116.0603,-8.7139],[115.8286,-8.7918],[116.0021,-8.8989],[116.5654,-8.8956],[116.5004,-8.8027],[116.7432,-8.3918],[116.6333,-8.2751]]],[[[119.2036,-8.6109],[119.0415,-8.6298],[118.9883,-8.309],[118.4436,-8.2579],[118.304,-8.3683],[118.1152,-8.1139],[117.8953,-8.09],[117.7063,-8.2297],[118.2817,-8.6415],[117.8052,-8.72],[117.5581,-8.4054],[117.1951,-8.3576],[116.8381,-8.5079],[116.763,-9.0156],[117.0097,-9.1073],[117.7378,-8.9098],[118.1577,-8.8679],[118.3936,-8.6746],[118.465,-8.865],[118.8984,-8.6884],[119.1384,-8.7458],[119.2036,-8.6109]]]]}},{"type":"Feature","id":"label-IDN-555","properties":{"kind":"division-label","code":"IDN-555","countryCode":"IDN","name":"West Nusa Tenggara","localName":"West Nusa Tenggara","labelEnglish":"West Nusa Tenggara","labelLocal":"West Nusa Tenggara","labelBoth":"West Nusa Tenggara","type":"Province","iso":"ID-NB","qid":"Q5062"},"geometry":{"type":"Point","coordinates":[116.294,-8.57106]}},{"type":"Feature","id":"IDN-1236","properties":{"kind":"division","code":"IDN-1236","countryCode":"IDN","name":"South Sulawesi","localName":"South Sulawesi","labelEnglish":"South Sulawesi","labelLocal":"South Sulawesi","labelBoth":"South Sulawesi","type":"Province","iso":"ID-SN","qid":"Q5078"},"geometry":{"type":"MultiPolygon","coordinates":[[[[121.0864,-2.9102],[121.598,-2.9728],[121.7874,-2.6701],[121.4489,-2.3885],[120.8042,-2.2386],[120.4049,-1.8377],[119.8735,-1.9554],[119.6463,-2.1764],[119.7856,-2.695],[119.5152,-2.7587],[119.6392,-3.1209],[119.4211,-3.1934],[119.4909,-3.4865],[119.4567,-3.7145],[119.6268,-4.3145],[119.5252,-4.8831],[119.3528,-5.3556],[119.57,-5.6559],[120.3233,-5.5095],[120.4583,-5.6261],[120.2643,-5.15],[120.4441,-4.6266],[120.3623,-4.387],[120.3535,-3.9308],[120.4465,-3.7287],[120.3879,-3.2146],[120.2035,-2.9577],[120.7761,-2.6149],[121.0059,-2.6608],[121.0864,-2.9102]]],[[[120.5462,-5.9382],[120.4483,-5.8439],[120.4813,-6.4773],[120.5462,-5.9382]]]]}},{"type":"Feature","id":"label-IDN-1236","properties":{"kind":"division-label","code":"IDN-1236","countryCode":"IDN","name":"South Sulawesi","localName":"South Sulawesi","labelEnglish":"South Sulawesi","labelLocal":"South Sulawesi","labelBoth":"South Sulawesi","type":"Province","iso":"ID-SN","qid":"Q5078"},"geometry":{"type":"Point","coordinates":[119.99,-3.7444]}},{"type":"Feature","id":"IDN-1224","properties":{"kind":"division","code":"IDN-1224","countryCode":"IDN","name":"Central Java","localName":"Central Java","labelEnglish":"Central Java","labelLocal":"Central Java","labelBoth":"Central Java","type":"Province","iso":"ID-JT","qid":"Q3557"},"geometry":{"type":"Polygon","coordinates":[[[108.8951,-6.8142],[108.789,-7.0613],[108.5757,-7.1632],[108.799,-7.6647],[109.3688,-7.7135],[110.0427,-7.8891],[110.1365,-7.6768],[110.4377,-7.5601],[110.5066,-7.7831],[110.7866,-7.8736],[110.8436,-8.2008],[110.9444,-8.2264],[111.2803,-7.9392],[111.1906,-7.7074],[111.2203,-7.2514],[111.4443,-7.3112],[111.6083,-7.154],[111.6727,-6.7337],[111.1569,-6.6921],[110.9248,-6.4037],[110.6711,-6.4999],[110.4724,-6.9464],[109.8963,-6.9182],[109.532,-6.8351],[108.8951,-6.8142]]]}},{"type":"Feature","id":"label-IDN-1224","properties":{"kind":"division-label","code":"IDN-1224","countryCode":"IDN","name":"Central Java","localName":"Central Java","labelEnglish":"Central Java","labelLocal":"Central Java","labelBoth":"Central Java","type":"Province","iso":"ID-JT","qid":"Q3557"},"geometry":{"type":"Point","coordinates":[109.896,-7.2901]}},{"type":"Feature","id":"IDN-1223","properties":{"kind":"division","code":"IDN-1223","countryCode":"IDN","name":"West Java","localName":"West Java","labelEnglish":"West Java","labelLocal":"West Java","labelBoth":"West Java","type":"Province","iso":"ID-JB","qid":"Q3724"},"geometry":{"type":"Polygon","coordinates":[[[106.9883,-6.0794],[106.9239,-6.3815],[106.7629,-6.3014],[106.4624,-6.3379],[106.5061,-6.7835],[106.4046,-6.9913],[106.5405,-7.0546],[106.3807,-7.2472],[106.5227,-7.411],[107.4114,-7.4959],[107.6865,-7.6621],[108.3268,-7.8175],[108.799,-7.6647],[108.5757,-7.1632],[108.789,-7.0613],[108.8951,-6.8142],[108.6055,-6.7617],[108.3603,-6.2464],[108.0937,-6.3268],[107.8108,-6.1893],[107.4703,-6.1454],[107.3541,-5.976],[107.0444,-5.9143],[106.9883,-6.0794]]]}},{"type":"Feature","id":"label-IDN-1223","properties":{"kind":"division-label","code":"IDN-1223","countryCode":"IDN","name":"West Java","localName":"West Java","labelEnglish":"West Java","labelLocal":"West Java","labelBoth":"West Java","type":"Province","iso":"ID-JB","qid":"Q3724"},"geometry":{"type":"Point","coordinates":[107.638,-6.90763]}},{"type":"Feature","id":"IDN-1227","properties":{"kind":"division","code":"IDN-1227","countryCode":"IDN","name":"Jakarta","localName":"Jakarta","labelEnglish":"Jakarta","labelLocal":"Jakarta","labelBoth":"Jakarta","type":"Special district","iso":"ID-JK","qid":"Q3630"},"geometry":{"type":"Polygon","coordinates":[[[106.731,-6.0589],[106.7629,-6.3014],[106.9239,-6.3815],[106.9883,-6.0794],[106.731,-6.0589]]]}},{"type":"Feature","id":"label-IDN-1227","properties":{"kind":"division-label","code":"IDN-1227","countryCode":"IDN","name":"Jakarta","localName":"Jakarta","labelEnglish":"Jakarta","labelLocal":"Jakarta","labelBoth":"Jakarta","type":"Special district","iso":"ID-JK","qid":"Q3630"},"geometry":{"type":"Point","coordinates":[106.837,-6.22462]}},{"type":"Feature","id":"IDN-1226","properties":{"kind":"division","code":"IDN-1226","countryCode":"IDN","name":"Banten","localName":"Banten","labelEnglish":"Banten","labelLocal":"Banten","labelBoth":"Banten","type":"Province","iso":"ID-BT","qid":"Q3540"},"geometry":{"type":"Polygon","coordinates":[[[106.4046,-6.9913],[106.5061,-6.7835],[106.4624,-6.3379],[106.7629,-6.3014],[106.731,-6.0589],[106.0527,-5.881],[105.8879,-6.0706],[105.8241,-6.4346],[105.4536,-6.8088],[105.9596,-6.8176],[106.4046,-6.9913]]]}},{"type":"Feature","id":"label-IDN-1226","properties":{"kind":"division-label","code":"IDN-1226","countryCode":"IDN","name":"Banten","localName":"Banten","labelEnglish":"Banten","labelLocal":"Banten","labelBoth":"Banten","type":"Province","iso":"ID-BT","qid":"Q3540"},"geometry":{"type":"Point","coordinates":[106.167,-6.25794]}},{"type":"Feature","id":"IDN-540","properties":{"kind":"division","code":"IDN-540","countryCode":"IDN","name":"Yogyakarta","localName":"Yogyakarta","labelEnglish":"Yogyakarta","labelLocal":"Yogyakarta","labelBoth":"Yogyakarta","type":"Special region","iso":"ID-YO","qid":"Q3741"},"geometry":{"type":"Polygon","coordinates":[[[110.8436,-8.2008],[110.7866,-7.8736],[110.5066,-7.7831],[110.4377,-7.5601],[110.1365,-7.6768],[110.0427,-7.8891],[110.4767,-8.1119],[110.8436,-8.2008]]]}},{"type":"Feature","id":"label-IDN-540","properties":{"kind":"division-label","code":"IDN-540","countryCode":"IDN","name":"Yogyakarta","localName":"Yogyakarta","labelEnglish":"Yogyakarta","labelLocal":"Yogyakarta","labelBoth":"Yogyakarta","type":"Special region","iso":"ID-YO","qid":"Q3741"},"geometry":{"type":"Point","coordinates":[110.443,-7.83533]}},{"type":"Feature","id":"IDN-556","properties":{"kind":"division","code":"IDN-556","countryCode":"IDN","name":"Southeast Sulawesi","localName":"Southeast Sulawesi","labelEnglish":"Southeast Sulawesi","labelLocal":"Southeast Sulawesi","labelBoth":"Southeast Sulawesi","type":"Province","iso":"ID-SG","qid":"Q5075"},"geometry":{"type":"MultiPolygon","coordinates":[[[[122.3394,-3.2376],[122.2072,-3.1115],[121.598,-2.9728],[121.0864,-2.9102],[121.0667,-3.1938],[120.8938,-3.5392],[121.3543,-3.9684],[121.6277,-4.0871],[121.4846,-4.6564],[121.7044,-4.8352],[121.9917,-4.8557],[122.1078,-4.52],[122.5991,-4.3967],[122.8421,-4.4381],[122.9071,-4.196],[122.6751,-4.1227],[122.6672,-3.9189],[122.2005,-3.5566],[122.3394,-3.2376]]],[[[122.0674,-5.215],[121.9696,-5.067],[121.8068,-5.2599],[121.9683,-5.4679],[122.0674,-5.215]]],[[[122.78,-4.9166],[122.7355,-4.6437],[122.405,-4.7379],[122.4026,-5.0618],[122.2796,-5.3697],[122.5435,-5.4288],[122.78,-4.9166]]],[[[123.1499,-5.225],[122.968,-5.1977],[123.0521,-4.7403],[123.2044,-4.6117],[123.0195,-4.3902],[122.9089,-4.4745],[122.7322,-5.253],[122.5671,-5.5069],[122.8276,-5.6762],[122.8762,-5.4584],[123.2131,-5.3017],[123.1499,-5.225]]],[[[123.2044,-3.9929],[122.9507,-4.0471],[123.0866,-4.2345],[123.2044,-3.9929]]]]}},{"type":"Feature","id":"label-IDN-556","properties":{"kind":"division-label","code":"IDN-556","countryCode":"IDN","name":"Southeast Sulawesi","localName":"Southeast Sulawesi","labelEnglish":"Southeast Sulawesi","labelLocal":"Southeast Sulawesi","labelBoth":"Southeast Sulawesi","type":"Province","iso":"ID-SG","qid":"Q5075"},"geometry":{"type":"Point","coordinates":[122.119,-4.0746]}},{"type":"Feature","id":"IDN-1933","properties":{"kind":"division","code":"IDN-1933","countryCode":"IDN","name":"West Papua","localName":"West Papua","labelEnglish":"West Papua","labelLocal":"West Papua","labelBoth":"West Papua","type":"Province","iso":"ID-PB","qid":"Q5096"},"geometry":{"type":"MultiPolygon","coordinates":[[[[134.8735,-4.2546],[135.2651,-3.76],[134.2583,-3.3995],[134.4454,-3.0239],[134.67,-2.8377],[134.5563,-2.4648],[134.4639,-2.8621],[134.1934,-2.3791],[134.0871,-1.6828],[134.282,-1.3502],[134.0361,-0.9578],[134.1721,-0.8639],[133.9772,-0.7232],[133.3916,-0.7232],[133.1548,-0.532],[132.7092,-0.36],[132.4372,-0.3471],[132.0996,-0.4699],[131.8843,-0.6819],[131.243,-0.8194],[131.2542,-1.0803],[130.9603,-1.4462],[131.2057,-1.5236],[131.811,-1.5204],[132.0734,-2.1052],[132.3479,-2.2701],[132.5604,-2.1856],[132.6987,-2.3054],[133.2962,-2.2042],[133.792,-2.2602],[133.9866,-2.4062],[133.8169,-2.649],[133.411,-2.5665],[133.3123,-2.443],[133.0335,-2.4794],[132.7366,-2.81],[132.2019,-2.6764],[131.9779,-2.9146],[132.3257,-2.9465],[132.6921,-3.3381],[132.8117,-3.2817],[132.9318,-3.5541],[132.731,-3.6823],[132.9694,-4.112],[133.2694,-4.052],[133.5862,-3.5666],[133.6682,-3.1222],[133.708,-3.6101],[133.959,-3.8376],[134.3153,-4.0203],[134.3335,-3.8688],[134.8735,-4.2546]]],[[[130.3865,-1.8883],[130.3534,-1.6801],[129.7149,-1.8814],[130.2561,-2.0458],[130.3865,-1.8883]]],[[[131.0574,-1.0007],[130.8919,-0.8899],[130.6494,-0.9884],[130.7697,-1.2482],[130.9826,-1.3486],[131.0574,-1.0007]]],[[[130.9172,-0.7784],[130.4484,-0.8186],[130.8193,-0.8703],[130.9172,-0.7784]]],[[[131.2976,-0.2372],[131.1537,-0.0857],[130.8247,-0.0038],[130.2806,-0.105],[130.3108,-0.2576],[130.6882,-0.2912],[130.7331,-0.4415],[130.9517,-0.3464],[131.238,-0.3893],[131.2976,-0.2372]]]]}},{"type":"Feature","id":"label-IDN-1933","properties":{"kind":"division-label","code":"IDN-1933","countryCode":"IDN","name":"West Papua","localName":"West Papua","labelEnglish":"West Papua","labelLocal":"West Papua","labelBoth":"West Papua","type":"Province","iso":"ID-PB","qid":"Q5096"},"geometry":{"type":"Point","coordinates":[132.825,-1.32525]}},{"type":"Feature","id":"IDN-557","properties":{"kind":"division","code":"IDN-557","countryCode":"IDN","name":"Central Sulawesi","localName":"Central Sulawesi","labelEnglish":"Central Sulawesi","labelLocal":"Central Sulawesi","labelBoth":"Central Sulawesi","type":"Province","iso":"ID-ST","qid":"Q5065"},"geometry":{"type":"MultiPolygon","coordinates":[[[[121.3333,0.4623],[121.1604,0.6861],[121.3785,0.861],[122.1973,1.0277],[121.4807,1.1209],[121.4514,1.2976],[121.2649,1.2296],[120.9092,1.3537],[120.8032,1.0684],[120.5681,0.7821],[120.3464,0.8556],[120.0628,0.7429],[120.0322,0.5163],[119.7852,0.2395],[119.8882,0.0713],[119.792,-0.1068],[119.7337,-0.6339],[119.5662,-0.8337],[119.6018,-1.1507],[119.487,-1.2886],[119.6925,-1.4613],[119.8735,-1.9554],[120.4049,-1.8377],[120.8042,-2.2386],[121.4489,-2.3885],[121.7874,-2.6701],[121.598,-2.9728],[122.2072,-3.1115],[122.3394,-3.2376],[122.4647,-3.1769],[122.3125,-2.9269],[122.0156,-2.6935],[121.8229,-2.2873],[121.5746,-2.1625],[121.3119,-1.7829],[121.6921,-1.9081],[121.7986,-1.7179],[122.3688,-1.4928],[122.8117,-0.9241],[123.0608,-0.8805],[123.3112,-1.0514],[123.4544,-0.7582],[123.2395,-0.5705],[122.7346,-0.6484],[122.9602,-0.7306],[122.2077,-0.7647],[122.1053,-0.9262],[121.5007,-0.8593],[121.0733,-1.4213],[120.676,-1.3947],[120.4124,-0.905],[120.2439,-0.8876],[120.0892,-0.6573],[119.9956,-0.2092],[120.1284,0.1811],[120.3753,0.4777],[120.6795,0.5306],[120.8924,0.4233],[121.3333,0.4623]]],[[[123.5031,-1.2644],[123.2319,-1.3947],[123.201,-1.1552],[122.8987,-1.1843],[122.874,-1.5846],[123.1636,-1.3122],[123.1118,-1.5563],[123.5286,-1.433],[123.5031,-1.2644]]]]}},{"type":"Feature","id":"label-IDN-557","properties":{"kind":"division-label","code":"IDN-557","countryCode":"IDN","name":"Central Sulawesi","localName":"Central Sulawesi","labelEnglish":"Central Sulawesi","labelLocal":"Central Sulawesi","labelBoth":"Central Sulawesi","type":"Province","iso":"ID-ST","qid":"Q5065"},"geometry":{"type":"Point","coordinates":[120.153,-1.30097]}},{"type":"Feature","id":"IDN-538","properties":{"kind":"division","code":"IDN-538","countryCode":"IDN","name":"North Maluku","localName":"North Maluku","labelEnglish":"North Maluku","labelLocal":"North Maluku","labelBoth":"North Maluku","type":"Province","iso":"ID-MU","qid":"Q5094"},"geometry":{"type":"MultiPolygon","coordinates":[[[[126.0691,-2.3845],[125.9854,-1.9937],[125.8626,-2.0866],[125.966,-2.4021],[126.0691,-2.3845]]],[[[126.3291,-1.8193],[125.3469,-1.811],[125.4321,-1.9496],[126.2721,-1.8673],[126.3291,-1.8193]]],[[[125.3148,-1.779],[124.6328,-1.6311],[124.3849,-1.6679],[124.406,-2.0041],[124.8533,-1.8969],[125.3216,-1.8644],[125.3148,-1.779]]],[[[128.1452,-1.594],[127.6245,-1.3295],[127.4353,-1.4122],[127.3787,-1.6323],[127.5327,-1.7314],[128.0515,-1.7145],[128.1452,-1.594]]],[[[127.8889,-0.7647],[127.6065,-0.6291],[127.6831,-0.4601],[127.5169,-0.3019],[127.303,-0.5109],[127.7488,-0.8853],[127.8889,-0.7647]]],[[[127.2346,-0.4904],[127.2925,-0.2781],[127.1104,-0.2877],[127.2346,-0.4904]]],[[[127.666,-0.2092],[128.0488,-0.7128],[128.4333,-0.9088],[128.0427,-0.4153],[127.8924,-0.0172],[127.9602,0.4828],[128.8612,0.2436],[128.6843,0.5417],[128.3135,0.6682],[128.3154,0.9016],[128.7012,1.0709],[128.7195,1.5706],[128.4597,1.545],[128.0921,1.2573],[128.1961,1.1964],[127.7957,0.7991],[127.6375,1.0007],[127.8943,1.1566],[128.0353,1.538],[127.8517,1.8254],[128.0474,2.2038],[127.9172,2.1721],[127.5809,1.7518],[127.4059,1.2299],[127.5078,0.8862],[127.6245,0.8322],[127.5269,0.5606],[127.7137,0.2773],[127.666,-0.2092]]],[[[128.6864,2.484],[128.5664,2.6336],[128.1971,2.2662],[128.2886,2.0396],[128.4902,2.0543],[128.6864,2.484]]]]}},{"type":"Feature","id":"label-IDN-538","properties":{"kind":"division-label","code":"IDN-538","countryCode":"IDN","name":"North Maluku","localName":"North Maluku","labelEnglish":"North Maluku","labelLocal":"North Maluku","labelBoth":"North Maluku","type":"Province","iso":"ID-MU","qid":"Q5094"},"geometry":{"type":"Point","coordinates":[125.976,-2.28945]}},{"type":"Feature","id":"IDN-1796","properties":{"kind":"division","code":"IDN-1796","countryCode":"IDN","name":"Riau Islands","localName":"Riau Islands","labelEnglish":"Riau Islands","labelLocal":"Riau Islands","labelBoth":"Riau Islands","type":"Province","iso":"ID-KR","qid":"Q2223"},"geometry":{"type":"MultiPolygon","coordinates":[[[[104.1463,1.1605],[103.9026,1.0905],[104.0492,0.9842],[104.1463,1.1605]]],[[[104.6546,1.0964],[104.5869,1.2199],[104.2319,1.0933],[104.4525,1.0582],[104.5999,0.835],[104.6546,1.0964]]],[[[108.3962,3.8748],[108.2249,4.2448],[107.9846,4.012],[108.3176,3.6838],[108.3962,3.8748]]],[[[104.5485,-0.398],[104.3247,-0.3648],[104.3563,-0.6617],[104.5485,-0.398]]],[[[104.929,-0.2372],[104.5374,0.0213],[104.5414,-0.2713],[104.929,-0.2372]]]]}},{"type":"Feature","id":"label-IDN-1796","properties":{"kind":"division-label","code":"IDN-1796","countryCode":"IDN","name":"Riau Islands","localName":"Riau Islands","labelEnglish":"Riau Islands","labelLocal":"Riau Islands","labelBoth":"Riau Islands","type":"Province","iso":"ID-KR","qid":"Q2223"},"geometry":{"type":"Point","coordinates":[104.601,-0.142639]}},{"type":"Feature","id":"IDN-492","properties":{"kind":"division","code":"IDN-492","countryCode":"IDN","name":"Riau","localName":"Riau","labelEnglish":"Riau","labelLocal":"Riau","labelBoth":"Riau","type":"Province","iso":"ID-RI","qid":"Q2175"},"geometry":{"type":"MultiPolygon","coordinates":[[[[100.3137,2.5546],[100.3036,1.8812],[100.4409,1.5987],[100.071,1.3587],[100.2176,1.1737],[100.1734,0.7576],[100.2654,0.4505],[100.5098,0.4439],[100.8472,0.186],[100.749,-0.064],[100.8558,-0.3223],[101.5253,-0.9319],[101.7698,-1.0382],[102.0126,-0.8804],[102.2606,-0.8804],[102.5412,-1.0849],[102.8044,-0.793],[103.4387,-0.7462],[103.4368,-0.338],[103.5921,-0.0107],[103.7915,-0.0125],[103.76,0.2395],[103.3622,0.5363],[103.0747,0.4423],[102.8771,0.7264],[102.4639,0.7741],[102.2401,0.9821],[102.1182,1.3865],[101.7786,1.6443],[101.3776,1.7733],[101.3,2.0466],[101.0503,2.2915],[100.8128,2.2498],[100.8557,1.9992],[100.561,2.1568],[100.3137,2.5546]]],[[[103.0487,0.797],[102.489,1.1333],[102.5017,0.9729],[102.4065,0.8732],[102.5579,0.7803],[103.0487,0.797]]],[[[103.1265,0.9279],[102.8018,1.1633],[102.7907,1.0315],[103.1265,0.9279]]],[[[102.4734,1.242],[102.2175,1.4092],[102.2329,1.0995],[102.3338,0.9637],[102.4649,0.9634],[102.4734,1.242]]],[[[102.4959,1.3636],[102.4905,1.4897],[102.0078,1.6154],[102.1345,1.4557],[102.4959,1.3636]]],[[[101.7212,2.0581],[101.4409,2.0649],[101.3938,1.9306],[101.5773,1.7093],[101.7151,1.7782],[101.7212,2.0581]]]]}},{"type":"Feature","id":"label-IDN-492","properties":{"kind":"division-label","code":"IDN-492","countryCode":"IDN","name":"Riau","localName":"Riau","labelEnglish":"Riau","labelLocal":"Riau","labelBoth":"Riau","type":"Province","iso":"ID-RI","qid":"Q2175"},"geometry":{"type":"Point","coordinates":[101.745,0.396892]}},{"type":"Feature","id":"IDN-1837","properties":{"kind":"division","code":"IDN-1837","countryCode":"IDN","name":"Gorontalo","localName":"Gorontalo","labelEnglish":"Gorontalo","labelLocal":"Gorontalo","labelBoth":"Gorontalo","type":"Province","iso":"ID-GO","qid":"Q5067"},"geometry":{"type":"Polygon","coordinates":[[[122.1973,1.0277],[121.3785,0.861],[121.1604,0.6861],[121.3333,0.4623],[121.5283,0.5374],[121.8005,0.4265],[122.3244,0.4971],[123.0742,0.5163],[123.2388,0.3245],[123.4575,0.3117],[123.4394,0.611],[123.0972,0.9291],[122.8489,0.818],[122.6238,0.9664],[122.1973,1.0277]]]}},{"type":"Feature","id":"label-IDN-1837","properties":{"kind":"division-label","code":"IDN-1837","countryCode":"IDN","name":"Gorontalo","localName":"Gorontalo","labelEnglish":"Gorontalo","labelLocal":"Gorontalo","labelBoth":"Gorontalo","type":"Province","iso":"ID-GO","qid":"Q5067"},"geometry":{"type":"Point","coordinates":[122.331,0.760501]}},{"type":"Feature","id":"IDN-513","properties":{"kind":"division","code":"IDN-513","countryCode":"IDN","name":"North Sulawesi","localName":"North Sulawesi","labelEnglish":"North Sulawesi","labelLocal":"North Sulawesi","labelBoth":"North Sulawesi","type":"Province","iso":"ID-SA","qid":"Q5068"},"geometry":{"type":"MultiPolygon","coordinates":[[[[123.0972,0.9291],[123.4394,0.611],[123.4575,0.3117],[124.3218,0.3989],[124.6638,0.8056],[124.8987,0.973],[125.2492,1.4847],[125.0344,1.7335],[124.8504,1.4897],[124.5484,1.3598],[124.5938,1.1959],[123.8318,0.8322],[123.0972,0.9291]]],[[[126.8707,4.3314],[126.7337,4.5359],[126.6648,4.0341],[126.7589,3.993],[126.8707,4.3314]]]]}},{"type":"Feature","id":"label-IDN-513","properties":{"kind":"division-label","code":"IDN-513","countryCode":"IDN","name":"North Sulawesi","localName":"North Sulawesi","labelEnglish":"North Sulawesi","labelLocal":"North Sulawesi","labelBoth":"North Sulawesi","type":"Province","iso":"ID-SA","qid":"Q5068"},"geometry":{"type":"Point","coordinates":[124.446,0.853039]}},{"type":"Feature","id":"IDN-1237","properties":{"kind":"division","code":"IDN-1237","countryCode":"IDN","name":"West Sulawesi","localName":"West Sulawesi","labelEnglish":"West Sulawesi","labelLocal":"West Sulawesi","labelBoth":"West Sulawesi","type":"Province","iso":"ID-SR","qid":"Q5082"},"geometry":{"type":"Polygon","coordinates":[[[119.4909,-3.4865],[119.4211,-3.1934],[119.6392,-3.1209],[119.5152,-2.7587],[119.7856,-2.695],[119.6463,-2.1764],[119.8735,-1.9554],[119.6925,-1.4613],[119.487,-1.2886],[119.6018,-1.1507],[119.5662,-0.8337],[119.3284,-1.2145],[119.3364,-1.9701],[119.134,-2.2035],[119.1414,-2.442],[118.7717,-2.8621],[118.7642,-3.0909],[118.9268,-3.5661],[119.2976,-3.4279],[119.4909,-3.4865]]]}},{"type":"Feature","id":"label-IDN-1237","properties":{"kind":"division-label","code":"IDN-1237","countryCode":"IDN","name":"West Sulawesi","localName":"West Sulawesi","labelEnglish":"West Sulawesi","labelLocal":"West Sulawesi","labelBoth":"West Sulawesi","type":"Province","iso":"ID-SR","qid":"Q5082"},"geometry":{"type":"Point","coordinates":[119.316,-2.69615]}},{"type":"Feature","id":"IDN-1930","properties":{"kind":"division","code":"IDN-1930","countryCode":"IDN","name":"Jambi","localName":"Jambi","labelEnglish":"Jambi","labelLocal":"Jambi","labelBoth":"Jambi","type":"Province","iso":"ID-JA","qid":"Q2051"},"geometry":{"type":"Polygon","coordinates":[[[103.4387,-0.7462],[102.8044,-0.793],[102.5412,-1.0849],[102.2606,-0.8804],[102.0126,-0.8804],[101.7698,-1.0382],[101.6753,-1.4999],[101.4486,-1.7167],[101.1139,-1.7049],[101.3356,-2.297],[101.4358,-2.2362],[101.7367,-2.6363],[102.0668,-2.7824],[102.2602,-2.6395],[102.5964,-2.7098],[102.862,-2.3539],[103.2045,-2.3613],[103.2156,-2.186],[103.457,-2.4023],[103.535,-1.9679],[103.8864,-1.7948],[104.5316,-1.7341],[104.3772,-1.0317],[103.8391,-1.0328],[103.4387,-0.7462]]]}},{"type":"Feature","id":"label-IDN-1930","properties":{"kind":"division-label","code":"IDN-1930","countryCode":"IDN","name":"Jambi","localName":"Jambi","labelEnglish":"Jambi","labelLocal":"Jambi","labelBoth":"Jambi","type":"Province","iso":"ID-JA","qid":"Q2051"},"geometry":{"type":"Point","coordinates":[102.823,-1.65497]}},{"type":"Feature","id":"IDN-1230","properties":{"kind":"division","code":"IDN-1230","countryCode":"IDN","name":"South Sumatra","localName":"South Sumatra","labelEnglish":"South Sumatra","labelLocal":"South Sumatra","labelBoth":"South Sumatra","type":"Province","iso":"ID-SS","qid":"Q2271"},"geometry":{"type":"Polygon","coordinates":[[[104.5316,-1.7341],[103.8864,-1.7948],[103.535,-1.9679],[103.457,-2.4023],[103.2156,-2.186],[103.2045,-2.3613],[102.862,-2.3539],[102.5964,-2.7098],[102.2602,-2.6395],[102.0668,-2.7824],[102.2411,-3.0588],[102.4308,-3.0879],[102.6313,-3.373],[102.766,-3.279],[102.9749,-3.3956],[102.9931,-3.5841],[102.6299,-3.8137],[102.7685,-3.9614],[103.1416,-4.0468],[103.1859,-4.2425],[103.6158,-4.418],[103.7653,-4.8047],[103.8895,-4.9336],[104.2979,-4.8925],[104.3091,-4.4402],[104.9742,-4.186],[105.3099,-3.7556],[105.828,-4.158],[105.9525,-3.8338],[105.8196,-3.6725],[106.073,-3.2555],[106.0156,-2.9695],[105.7918,-2.8621],[105.6238,-2.4018],[104.8833,-2.2849],[104.7726,-1.9977],[104.4834,-1.8814],[104.5316,-1.7341]]]}},{"type":"Feature","id":"label-IDN-1230","properties":{"kind":"division-label","code":"IDN-1230","countryCode":"IDN","name":"South Sumatra","localName":"South Sumatra","labelEnglish":"South Sumatra","labelLocal":"South Sumatra","labelBoth":"South Sumatra","type":"Province","iso":"ID-SS","qid":"Q2271"},"geometry":{"type":"Point","coordinates":[104.073,-3.3824]}},{"type":"Feature","id":"IDN-1229","properties":{"kind":"division","code":"IDN-1229","countryCode":"IDN","name":"Lampung","localName":"Lampung","labelEnglish":"Lampung","labelLocal":"Lampung","labelBoth":"Lampung","type":"Province","iso":"ID-LA","qid":"Q2110"},"geometry":{"type":"Polygon","coordinates":[[[105.828,-4.158],[105.3099,-3.7556],[104.9742,-4.186],[104.3091,-4.4402],[104.2979,-4.8925],[103.8895,-4.9336],[103.7653,-4.8047],[103.6082,-4.9165],[104.2977,-5.6433],[104.7161,-5.9211],[104.5332,-5.5598],[104.6228,-5.4907],[105.1184,-5.7822],[105.3107,-5.466],[105.6021,-5.8098],[105.7826,-5.8285],[105.9063,-4.4693],[105.828,-4.158]]]}},{"type":"Feature","id":"label-IDN-1229","properties":{"kind":"division-label","code":"IDN-1229","countryCode":"IDN","name":"Lampung","localName":"Lampung","labelEnglish":"Lampung","labelLocal":"Lampung","labelBoth":"Lampung","type":"Province","iso":"ID-LA","qid":"Q2110"},"geometry":{"type":"Point","coordinates":[105.059,-4.919]}},{"type":"Feature","id":"IDN-1225","properties":{"kind":"division","code":"IDN-1225","countryCode":"IDN","name":"Bengkulu","localName":"Bengkulu","labelEnglish":"Bengkulu","labelLocal":"Bengkulu","labelBoth":"Bengkulu","type":"Province","iso":"ID-BE","qid":"Q1890"},"geometry":{"type":"Polygon","coordinates":[[[103.6082,-4.9165],[103.7653,-4.8047],[103.6158,-4.418],[103.1859,-4.2425],[103.1416,-4.0468],[102.7685,-3.9614],[102.6299,-3.8137],[102.9931,-3.5841],[102.9749,-3.3956],[102.766,-3.279],[102.6313,-3.373],[102.4308,-3.0879],[102.2411,-3.0588],[102.0668,-2.7824],[101.7367,-2.6363],[101.4358,-2.2362],[101.3356,-2.297],[101.0266,-2.48],[101.327,-2.7392],[101.6375,-3.2507],[102.2222,-3.6428],[102.3125,-3.9915],[103.4146,-4.8693],[103.6082,-4.9165]]]}},{"type":"Feature","id":"label-IDN-1225","properties":{"kind":"division-label","code":"IDN-1225","countryCode":"IDN","name":"Bengkulu","localName":"Bengkulu","labelEnglish":"Bengkulu","labelLocal":"Bengkulu","labelBoth":"Bengkulu","type":"Province","iso":"ID-BE","qid":"Q1890"},"geometry":{"type":"Point","coordinates":[102.368,-3.48606]}},{"type":"Feature","id":"IDN-539","properties":{"kind":"division","code":"IDN-539","countryCode":"IDN","name":"West Sumatra","localName":"West Sumatra","labelEnglish":"West Sumatra","labelLocal":"West Sumatra","labelBoth":"West Sumatra","type":"Province","iso":"ID-SB","qid":"Q2772"},"geometry":{"type":"MultiPolygon","coordinates":[[[[101.0266,-2.48],[101.3356,-2.297],[101.1139,-1.7049],[101.4486,-1.7167],[101.6753,-1.4999],[101.7698,-1.0382],[101.5253,-0.9319],[100.8558,-0.3223],[100.749,-0.064],[100.8472,0.186],[100.5098,0.4439],[100.2654,0.4505],[100.1734,0.7576],[99.7067,0.8872],[99.9147,0.5686],[99.3423,0.4736],[99.1512,0.2525],[99.3162,0.2426],[99.7472,-0.0298],[99.8138,-0.2946],[100.3014,-0.8163],[100.406,-1.2644],[100.5706,-1.4426],[100.8872,-2.0372],[100.8316,-2.1413],[101.0266,-2.48]]],[[[100.3986,-3.1835],[100.4675,-3.0153],[100.2273,-2.7726],[100.1895,-2.9666],[100.3986,-3.1835]]],[[[100.2068,-2.6935],[99.9841,-2.4846],[100.0156,-2.8342],[100.2068,-2.6935]]],[[[99.8233,-2.2929],[99.594,-2.0148],[99.6035,-2.2656],[99.8233,-2.2929]]],[[[99.2744,-1.6349],[98.8828,-0.9132],[98.6582,-0.9635],[98.5938,-1.1984],[98.8848,-1.6794],[99.1006,-1.7994],[99.2744,-1.6349]]]]}},{"type":"Feature","id":"label-IDN-539","properties":{"kind":"division-label","code":"IDN-539","countryCode":"IDN","name":"West Sumatra","localName":"West Sumatra","labelEnglish":"West Sumatra","labelLocal":"West Sumatra","labelBoth":"West Sumatra","type":"Province","iso":"ID-SB","qid":"Q2772"},"geometry":{"type":"Point","coordinates":[100.611,-0.642611]}},{"type":"Feature","id":"IDN-381","properties":{"kind":"division","code":"IDN-381","countryCode":"IDN","name":"North Sumatra","localName":"North Sumatra","labelEnglish":"North Sumatra","labelLocal":"North Sumatra","labelBoth":"North Sumatra","type":"Province","iso":"ID-SU","qid":"Q2140"},"geometry":{"type":"MultiPolygon","coordinates":[[[[99.1512,0.2525],[99.3423,0.4736],[99.9147,0.5686],[99.7067,0.8872],[100.1734,0.7576],[100.2176,1.1737],[100.071,1.3587],[100.4409,1.5987],[100.3036,1.8812],[100.3137,2.5546],[100.1258,2.5301],[99.9544,2.7038],[99.9795,2.9485],[99.7507,3.1805],[98.9575,3.6713],[98.6766,3.9145],[98.3057,4.0803],[98.2676,4.2879],[98.0627,4.2403],[98.001,3.9801],[97.7839,3.7448],[97.9896,3.3304],[97.864,3.2574],[97.9228,2.9093],[98.057,2.8121],[98.1013,2.1886],[98.5352,1.9365],[98.8191,1.6823],[98.7534,1.5356],[99.0899,0.622],[99.1512,0.2525]]],[[[98.502,-0.4605],[98.4512,-0.2584],[98.3167,-0.5351],[98.502,-0.4605]]],[[[97.9285,0.9961],[97.3498,1.5454],[97.0637,1.4152],[97.2517,1.2592],[97.3888,0.9521],[97.6138,0.8236],[97.7041,0.5727],[97.883,0.643],[97.9285,0.9961]]]]}},{"type":"Feature","id":"label-IDN-381","properties":{"kind":"division-label","code":"IDN-381","countryCode":"IDN","name":"North Sumatra","localName":"North Sumatra","labelEnglish":"North Sumatra","labelLocal":"North Sumatra","labelBoth":"North Sumatra","type":"Province","iso":"ID-SU","qid":"Q2140"},"geometry":{"type":"Point","coordinates":[99.2161,2.36304]}},{"type":"Feature","id":"IDN-1136","properties":{"kind":"division","code":"IDN-1136","countryCode":"IDN","name":"Aceh","localName":"Aceh","labelEnglish":"Aceh","labelLocal":"Aceh","labelBoth":"Aceh","type":"Autonomous Province","iso":"ID-AC","qid":"Q1823"},"geometry":{"type":"MultiPolygon","coordinates":[[[[98.1013,2.1886],[98.057,2.8121],[97.9228,2.9093],[97.864,3.2574],[97.9896,3.3304],[97.7839,3.7448],[98.001,3.9801],[98.0627,4.2403],[98.2676,4.2879],[98.2057,4.498],[97.9968,4.5465],[97.9092,4.8896],[97.4968,5.2519],[97.2684,5.1551],[96.9734,5.2734],[96.6506,5.2163],[96.1262,5.2818],[95.8875,5.5122],[95.4129,5.6496],[95.1973,5.5464],[95.199,5.2929],[95.4263,4.8273],[96.4303,3.8253],[96.7605,3.7487],[97.2708,3.2144],[97.4221,2.9284],[97.6027,2.8662],[97.7444,2.2811],[98.1013,2.1886]]],[[[96.4795,2.415],[95.9119,2.9062],[95.698,2.7788],[96.3281,2.3945],[96.4795,2.415]]]]}},{"type":"Feature","id":"label-IDN-1136","properties":{"kind":"division-label","code":"IDN-1136","countryCode":"IDN","name":"Aceh","localName":"Aceh","labelEnglish":"Aceh","labelLocal":"Aceh","labelBoth":"Aceh","type":"Autonomous Province","iso":"ID-AC","qid":"Q1823"},"geometry":{"type":"Point","coordinates":[96.9956,4.41533]}},{"type":"Feature","id":"IDN-1931","properties":{"kind":"division","code":"IDN-1931","countryCode":"IDN","name":"Central Kalimantan","localName":"Central Kalimantan","labelEnglish":"Central Kalimantan","labelLocal":"Central Kalimantan","labelBoth":"Central Kalimantan","type":"Province","iso":"ID-KT","qid":"Q3891"},"geometry":{"type":"Polygon","coordinates":[[[114.3107,-3.4339],[114.5045,-2.881],[114.7854,-2.6888],[114.9048,-2.2625],[115.3301,-2.0371],[115.4266,-1.4345],[115.6775,-1.4259],[115.8051,-1.0853],[115.46,-0.886],[115.2772,-0.2201],[115.3474,0.0023],[115.0026,-0.1777],[114.9531,0.2842],[115.076,0.533],[114.9765,0.7352],[114.3775,0.5886],[114.0363,0.647],[113.7764,0.5586],[113.5316,0.2614],[113.3245,0.2452],[113.4532,0.0659],[113.4293,-0.1904],[113.1611,-0.4699],[112.578,-0.7045],[112.1185,-0.7354],[111.6514,-1.0155],[111.0174,-1.6603],[111.0123,-2.1274],[111.1377,-2.4048],[111.1376,-2.733],[110.9592,-2.8857],[110.7542,-3.0261],[111.0608,-3.0611],[111.2962,-2.9365],[111.5843,-3.0089],[111.7368,-2.8127],[111.8325,-3.0616],[111.822,-3.5451],[112.3027,-3.3139],[112.618,-3.4238],[113.0215,-3.1625],[113.0352,-2.9229],[113.3511,-3.2724],[113.6204,-3.1853],[113.6325,-3.4568],[114.042,-3.3556],[114.3107,-3.4339]]]}},{"type":"Feature","id":"label-IDN-1931","properties":{"kind":"division-label","code":"IDN-1931","countryCode":"IDN","name":"Central Kalimantan","localName":"Central Kalimantan","labelEnglish":"Central Kalimantan","labelLocal":"Central Kalimantan","labelBoth":"Central Kalimantan","type":"Province","iso":"ID-KT","qid":"Q3891"},"geometry":{"type":"Point","coordinates":[113.286,-1.84217]}},{"type":"Feature","id":"IDN-1234","properties":{"kind":"division","code":"IDN-1234","countryCode":"IDN","name":"South Kalimantan","localName":"South Kalimantan","labelEnglish":"South Kalimantan","labelLocal":"South Kalimantan","labelBoth":"South Kalimantan","type":"Province","iso":"ID-KS","qid":"Q3906"},"geometry":{"type":"MultiPolygon","coordinates":[[[[116.5729,-2.363],[115.9945,-2.271],[115.874,-2.3507],[115.8288,-2.0472],[115.6312,-1.525],[115.6775,-1.4259],[115.4266,-1.4345],[115.3301,-2.0371],[114.9048,-2.2625],[114.7854,-2.6888],[114.5045,-2.881],[114.3107,-3.4339],[114.6111,-3.6839],[114.6248,-4.1705],[115.9679,-3.6088],[116.3931,-2.574],[116.5729,-2.363]]],[[[116.3037,-3.718],[116.2678,-3.2188],[116.1262,-3.3186],[116.013,-3.6505],[116.0915,-4.0668],[116.3065,-3.9045],[116.3037,-3.718]]]]}},{"type":"Feature","id":"label-IDN-1234","properties":{"kind":"division-label","code":"IDN-1234","countryCode":"IDN","name":"South Kalimantan","localName":"South Kalimantan","labelEnglish":"South Kalimantan","labelLocal":"South Kalimantan","labelBoth":"South Kalimantan","type":"Province","iso":"ID-KS","qid":"Q3906"},"geometry":{"type":"Point","coordinates":[115.451,-3.00713]}},{"type":"Feature","id":"IDN-1232","properties":{"kind":"division","code":"IDN-1232","countryCode":"IDN","name":"Bali","localName":"Bali","labelEnglish":"Bali","labelLocal":"Bali","labelBoth":"Bali","type":"Province","iso":"ID-BA","qid":"Q3125978"},"geometry":{"type":"Polygon","coordinates":[[[115.6192,-8.2888],[115.2155,-8.0595],[114.8576,-8.1931],[114.4524,-8.0951],[114.639,-8.3986],[114.927,-8.4675],[115.2355,-8.8198],[115.3226,-8.6238],[115.6048,-8.5011],[115.6192,-8.2888]]]}},{"type":"Feature","id":"label-IDN-1232","properties":{"kind":"division-label","code":"IDN-1232","countryCode":"IDN","name":"Bali","localName":"Bali","labelEnglish":"Bali","labelLocal":"Bali","labelBoth":"Bali","type":"Province","iso":"ID-BA","qid":"Q3125978"},"geometry":{"type":"Point","coordinates":[115.179,-8.3412]}},{"type":"Feature","id":"IDN-1231","properties":{"kind":"division","code":"IDN-1231","countryCode":"IDN","name":"Bangka Belitung Islands","localName":"Bangka Belitung Islands","labelEnglish":"Bangka Belitung Islands","labelLocal":"Bangka Belitung Islands","labelBoth":"Bangka Belitung Islands","type":"Province","iso":"ID-BB","qid":"Q1866"},"geometry":{"type":"MultiPolygon","coordinates":[[[[108.2937,-2.8484],[108.1978,-2.6782],[107.8343,-2.5251],[107.6703,-2.5615],[107.5811,-3.0107],[107.6314,-3.2409],[107.8705,-3.0517],[107.994,-3.2424],[108.2106,-3.1358],[108.2937,-2.8484]]],[[[106.7691,-2.5603],[106.354,-2.463],[106.0456,-1.594],[105.5941,-1.5256],[105.3499,-1.6487],[105.3757,-1.8219],[105.1543,-1.936],[105.3064,-2.135],[105.5658,-2.067],[105.7957,-2.1718],[105.9443,-2.4988],[105.9865,-2.8212],[106.7073,-3.0942],[106.613,-2.9426],[106.7691,-2.5603]]]]}},{"type":"Feature","id":"label-IDN-1231","properties":{"kind":"division-label","code":"IDN-1231","countryCode":"IDN","name":"Bangka Belitung Islands","localName":"Bangka Belitung Islands","labelEnglish":"Bangka Belitung Islands","labelLocal":"Bangka Belitung Islands","labelBoth":"Bangka Belitung Islands","type":"Province","iso":"ID-BB","qid":"Q1866"},"geometry":{"type":"Point","coordinates":[106.819,-2.95817]}}]}