{"type":"FeatureCollection","features":[{"type":"Feature","id":"IMN+00?","properties":{"kind":"division","code":"IMN+00?","countryCode":"IMN","name":"Isle of Man","localName":"Isle of Man","labelEnglish":"Isle of Man","labelLocal":"Isle of Man","labelBoth":"Isle of Man","type":null,"iso":"IM-X01~","qid":null},"geometry":{"type":"Polygon","coordinates":[[[-4.6121,54.057],[-4.3119,54.2872],[-4.531,54.3661],[-4.6121,54.057]]]}},{"type":"Feature","id":"label-IMN+00?","properties":{"kind":"division-label","code":"IMN+00?","countryCode":"IMN","name":"Isle of Man","localName":"Isle of Man","labelEnglish":"Isle of Man","labelLocal":"Isle of Man","labelBoth":"Isle of Man","type":null,"iso":"IM-X01~","qid":null},"geometry":{"type":"Point","coordinates":[-4.53251,54.2274]}}]}