{"type":"FeatureCollection","features":[{"type":"Feature","id":"IND-20012","properties":{"kind":"division","code":"IND-20012","countryCode":"IND","name":"Ladakh","localName":"Ladakh","labelEnglish":"Ladakh","labelLocal":"Ladakh","labelBoth":"Ladakh","type":"Union Territory","iso":"IN-LA","qid":"Q200667"},"geometry":{"type":"Polygon","coordinates":[[[77.8003,35.4954],[77.049,35.1104],[76.9211,34.9207],[76.5532,34.7258],[76.0234,34.6772],[75.7771,34.5038],[75.3481,34.5572],[75.3745,34.371],[75.8796,33.9637],[76.1664,33.8732],[76.2461,33.5741],[76.488,33.5022],[76.7398,33.1974],[77.3487,32.8672],[77.7211,33.0126],[78.0089,32.6103],[78.3666,32.7652],[78.381,32.528],[78.7133,32.6375],[78.9113,32.3547],[79.6207,32.7287],[79.4141,32.9721],[79.4201,33.2752],[79.098,33.2877],[78.8243,33.4611],[78.7301,34.0793],[78.9569,34.34],[78.2732,34.6589],[78.0012,35.2689],[78.0556,35.4529],[77.8003,35.4954]]]}},{"type":"Feature","id":"label-IND-20012","properties":{"kind":"division-label","code":"IND-20012","countryCode":"IND","name":"Ladakh","localName":"Ladakh","labelEnglish":"Ladakh","labelLocal":"Ladakh","labelBoth":"Ladakh","type":"Union Territory","iso":"IN-LA","qid":"Q200667"},"geometry":{"type":"Point","coordinates":[77.4806135651,34.0255867581]}},{"type":"Feature","id":"IND-3299","properties":{"kind":"division","code":"IND-3299","countryCode":"IND","name":"Arunachal Pradesh","localName":"Arunachal Pradesh","labelEnglish":"Arunachal Pradesh","labelLocal":"Arunachal Pradesh","labelBoth":"Arunachal Pradesh","type":"State","iso":"IN-AR","qid":"Q1162"},"geometry":{"type":"Polygon","coordinates":[[[97.3235,28.2175],[97.1156,28.3666],[96.3019,28.4207],[96.598,28.7099],[96.4576,28.9946],[96.1953,28.9411],[96.3164,29.1719],[96.142,29.3685],[95.7448,29.3404],[95.3674,29.0365],[94.7766,29.1667],[94.6304,29.3195],[94.2708,29.0979],[94.2502,28.9331],[93.9278,28.6828],[93.4462,28.6719],[93.2078,28.3405],[92.6548,28.1058],[92.575,27.8478],[92.2396,27.8653],[91.8649,27.73],[91.6283,27.8527],[91.5951,27.5464],[91.7271,27.4599],[91.9751,27.4724],[92.0058,27.1761],[92.0804,26.9216],[92.8148,27.0508],[93.0203,26.953],[93.6947,27.0059],[94.2431,27.526],[95.3132,27.8958],[95.9641,27.9933],[95.7759,27.7173],[95.9037,27.2761],[95.5459,27.2739],[95.1764,27.0332],[95.2469,26.6489],[95.3927,26.6918],[96.1426,27.2575],[96.7589,27.3417],[97.0588,27.0921],[96.8702,27.6191],[97.3335,27.8942],[97.3235,28.2175]]]}},{"type":"Feature","id":"label-IND-3299","properties":{"kind":"division-label","code":"IND-3299","countryCode":"IND","name":"Arunachal Pradesh","localName":"Arunachal Pradesh","labelEnglish":"Arunachal Pradesh","labelLocal":"Arunachal Pradesh","labelBoth":"Arunachal Pradesh","type":"State","iso":"IN-AR","qid":"Q1162"},"geometry":{"type":"Point","coordinates":[94.4673,28.4056]}},{"type":"Feature","id":"IND-3259","properties":{"kind":"division","code":"IND-3259","countryCode":"IND","name":"Sikkim","localName":"Sikkim","labelEnglish":"Sikkim","labelLocal":"Sikkim","labelBoth":"Sikkim","type":"State","iso":"IN-SK","qid":"Q1505"},"geometry":{"type":"Polygon","coordinates":[[[88.8923,27.3155],[88.741,27.5457],[88.8539,27.8437],[88.6105,28.1058],[88.1182,27.8609],[88.0047,27.2492],[88.3717,27.0846],[88.7331,27.149],[88.8761,27.2805],[88.8923,27.3155]]]}},{"type":"Feature","id":"label-IND-3259","properties":{"kind":"division-label","code":"IND-3259","countryCode":"IND","name":"Sikkim","localName":"Sikkim","labelEnglish":"Sikkim","labelLocal":"Sikkim","labelBoth":"Sikkim","type":"State","iso":"IN-SK","qid":"Q1505"},"geometry":{"type":"Point","coordinates":[88.4482,27.5709]}},{"type":"Feature","id":"IND-3257","properties":{"kind":"division","code":"IND-3257","countryCode":"IND","name":"West Bengal","localName":"West Bengal","labelEnglish":"West Bengal","labelLocal":"West Bengal","labelBoth":"West Bengal","type":"State","iso":"IN-WB","qid":"Q1356"},"geometry":{"type":"Polygon","coordinates":[[[88.7331,27.149],[88.3717,27.0846],[88.0047,27.2492],[87.9707,27.1027],[88.1691,26.744],[88.0871,26.5391],[88.3037,26.36],[87.8314,26.0106],[87.8054,25.8737],[88.0464,25.6689],[87.7438,25.4026],[87.7837,25.2141],[87.8773,24.5887],[87.6616,24.1862],[87.0797,23.8152],[86.8772,23.9131],[86.7998,23.7255],[86.4585,23.6386],[86.2143,23.4492],[86.1291,23.5784],[85.8289,23.4831],[85.8298,23.2608],[86.1425,23.0283],[86.4505,23.0042],[86.3991,22.785],[86.7494,22.5448],[86.8484,22.3101],[86.6865,22.218],[87.1907,21.9562],[87.4774,21.6136],[87.9705,21.8365],[88.161,22.1566],[88.1809,21.685],[88.5723,21.5579],[88.5671,21.8508],[88.7307,22.0372],[88.7625,21.5559],[89.0852,21.6747],[89.0604,22.1299],[88.8428,22.9646],[88.9547,23.1838],[88.71,23.2412],[88.7679,23.4673],[88.5401,23.65],[88.7142,23.9252],[88.7315,24.1898],[88.1388,24.4953],[88.0218,24.6456],[88.2025,24.9453],[88.3136,24.8683],[88.4315,25.173],[88.9242,25.1679],[88.9753,25.3026],[88.7723,25.502],[88.5303,25.5002],[88.0744,25.9081],[88.1638,26.1405],[88.4611,26.4539],[88.808,26.2334],[89.0397,26.2472],[89.3515,25.9969],[89.5491,25.9689],[89.6578,26.1872],[89.8289,26.3279],[89.8587,26.7221],[89.7547,26.701],[89.3689,26.8374],[89.0965,26.8214],[88.7331,27.149]]]}},{"type":"Feature","id":"label-IND-3257","properties":{"kind":"division-label","code":"IND-3257","countryCode":"IND","name":"West Bengal","localName":"West Bengal","labelEnglish":"West Bengal","labelLocal":"West Bengal","labelBoth":"West Bengal","type":"State","iso":"IN-WB","qid":"Q1356"},"geometry":{"type":"Point","coordinates":[87.7289,23.0523]}},{"type":"Feature","id":"IND-2477","properties":{"kind":"division","code":"IND-2477","countryCode":"IND","name":"Assam","localName":"Assam","labelEnglish":"Assam","labelLocal":"Assam","labelBoth":"Assam","type":"State","iso":"IN-AS","qid":"Q1164"},"geometry":{"type":"Polygon","coordinates":[[[89.8587,26.7221],[89.8289,26.3279],[89.6578,26.1872],[89.8344,25.9318],[89.8086,25.4395],[90.0021,25.5868],[89.9742,25.8016],[90.3737,26.0144],[90.5384,25.9113],[90.9745,25.9436],[91.2081,25.7362],[91.7182,25.9677],[92.2615,26.0554],[92.1675,25.7],[92.3824,25.7643],[92.7896,25.3489],[92.8055,25.2277],[92.3849,25.0048],[92.15,24.5422],[92.2985,24.2377],[92.4533,24.1323],[92.7463,24.4711],[93.0184,24.3991],[93.4492,25.3021],[93.3359,25.538],[93.8041,25.9427],[93.9892,25.9462],[94.0077,26.1844],[94.2696,26.5547],[95.1764,27.0332],[95.5459,27.2739],[95.9037,27.2761],[95.7759,27.7173],[95.9641,27.9933],[95.3132,27.8958],[94.2431,27.526],[93.6947,27.0059],[93.0203,26.953],[92.8148,27.0508],[92.0804,26.9216],[91.7021,26.8035],[91.4063,26.8695],[91.276,26.7741],[91.0128,26.7843],[90.9445,26.7789],[90.5878,26.7801],[90.3826,26.8918],[89.8587,26.7221]]]}},{"type":"Feature","id":"label-IND-2477","properties":{"kind":"division-label","code":"IND-2477","countryCode":"IND","name":"Assam","localName":"Assam","labelEnglish":"Assam","labelLocal":"Assam","labelBoth":"Assam","type":"State","iso":"IN-AS","qid":"Q1164"},"geometry":{"type":"Point","coordinates":[92.9929,26.3302]}},{"type":"Feature","id":"IND-3254","properties":{"kind":"division","code":"IND-3254","countryCode":"IND","name":"Uttarakhand","localName":"Uttarakhand","labelEnglish":"Uttarakhand","labelLocal":"Uttarakhand","labelBoth":"Uttarakhand","type":"State","iso":"IN-UT","qid":"Q1499"},"geometry":{"type":"Polygon","coordinates":[[[80.996,30.197],[80.7231,30.392],[80.1798,30.5595],[80.2314,30.7249],[79.8335,30.9615],[79.4016,31.0236],[79.0702,31.4614],[78.8926,31.2818],[78.9932,31.1308],[78.2842,31.2903],[77.9411,31.1729],[77.7058,30.7915],[77.813,30.5211],[77.5851,30.3829],[77.9461,30.2283],[77.7464,29.9773],[77.8315,29.6599],[78.1891,29.7067],[78.2283,29.9474],[78.6431,29.5376],[78.92,29.4222],[78.7215,29.284],[79.0559,29.1518],[79.4437,28.8496],[80.0731,28.8209],[80.2801,29.3102],[80.2137,29.4169],[80.4762,29.8061],[80.8839,30.2104],[80.996,30.197]]]}},{"type":"Feature","id":"label-IND-3254","properties":{"kind":"division-label","code":"IND-3254","countryCode":"IND","name":"Uttarakhand","localName":"Uttarakhand","labelEnglish":"Uttarakhand","labelLocal":"Uttarakhand","labelBoth":"Uttarakhand","type":"State","iso":"IN-UT","qid":"Q1499"},"geometry":{"type":"Point","coordinates":[79.2841,30.0576]}},{"type":"Feature","id":"IND-2479","properties":{"kind":"division","code":"IND-2479","countryCode":"IND","name":"Nagaland","localName":"Nagaland","labelEnglish":"Nagaland","labelLocal":"Nagaland","labelBoth":"Nagaland","type":"State","iso":"IN-NL","qid":"Q1599"},"geometry":{"type":"Polygon","coordinates":[[[95.2469,26.6489],[95.1764,27.0332],[94.2696,26.5547],[94.0077,26.1844],[93.9892,25.9462],[93.8041,25.9427],[93.3359,25.538],[93.4492,25.3021],[93.6055,25.2058],[93.8032,25.5436],[94.3253,25.512],[94.5739,25.6856],[94.6504,25.4467],[95.0088,25.7371],[95.1512,26.0499],[95.0406,26.4756],[95.2469,26.6489]]]}},{"type":"Feature","id":"label-IND-2479","properties":{"kind":"division-label","code":"IND-2479","countryCode":"IND","name":"Nagaland","localName":"Nagaland","labelEnglish":"Nagaland","labelLocal":"Nagaland","labelBoth":"Nagaland","type":"State","iso":"IN-NL","qid":"Q1599"},"geometry":{"type":"Point","coordinates":[94.5664,26.1094]}},{"type":"Feature","id":"IND-2478","properties":{"kind":"division","code":"IND-2478","countryCode":"IND","name":"Manipur","localName":"Manipur","labelEnglish":"Manipur","labelLocal":"Manipur","labelBoth":"Manipur","type":"State","iso":"IN-MN","qid":"Q1193"},"geometry":{"type":"Polygon","coordinates":[[[94.6504,25.4467],[94.5739,25.6856],[94.3253,25.512],[93.8032,25.5436],[93.6055,25.2058],[93.4492,25.3021],[93.0184,24.3991],[92.9955,24.0953],[93.3026,24.0358],[94.1289,23.8539],[94.29,24.3168],[94.7086,25.0259],[94.5501,25.2453],[94.6504,25.4467]]]}},{"type":"Feature","id":"label-IND-2478","properties":{"kind":"division-label","code":"IND-2478","countryCode":"IND","name":"Manipur","localName":"Manipur","labelEnglish":"Manipur","labelLocal":"Manipur","labelBoth":"Manipur","type":"State","iso":"IN-MN","qid":"Q1193"},"geometry":{"type":"Point","coordinates":[93.8457,24.7442]}},{"type":"Feature","id":"IND-3300","properties":{"kind":"division","code":"IND-3300","countryCode":"IND","name":"Mizoram","localName":"Mizoram","labelEnglish":"Mizoram","labelLocal":"Mizoram","labelBoth":"Mizoram","type":"State","iso":"IN-MZ","qid":"Q1502"},"geometry":{"type":"Polygon","coordinates":[[[93.3026,24.0358],[92.9955,24.0953],[93.0184,24.3991],[92.7463,24.4711],[92.4533,24.1323],[92.2985,24.2377],[92.2597,23.7026],[92.3522,22.9603],[92.4959,22.6956],[92.5759,21.9776],[92.6838,22.1543],[92.979,21.9954],[93.1659,22.3866],[93.0795,22.7727],[93.1382,23.0053],[93.3749,23.1297],[93.4324,23.6473],[93.3026,24.0358]]]}},{"type":"Feature","id":"label-IND-3300","properties":{"kind":"division-label","code":"IND-3300","countryCode":"IND","name":"Mizoram","localName":"Mizoram","labelEnglish":"Mizoram","labelLocal":"Mizoram","labelBoth":"Mizoram","type":"State","iso":"IN-MZ","qid":"Q1502"},"geometry":{"type":"Point","coordinates":[92.8409,23.2037]}},{"type":"Feature","id":"IND-3301","properties":{"kind":"division","code":"IND-3301","countryCode":"IND","name":"Tripura","localName":"Tripura","labelEnglish":"Tripura","labelLocal":"Tripura","labelBoth":"Tripura","type":"State","iso":"IN-TR","qid":"Q1363"},"geometry":{"type":"Polygon","coordinates":[[[92.2597,23.7026],[92.2985,24.2377],[92.15,24.5422],[91.9219,24.3445],[91.3084,23.9925],[91.1408,23.6121],[91.3005,23.1423],[91.3721,23.2619],[91.5861,22.9445],[91.7956,23.0895],[91.7437,23.2723],[92.0035,23.6474],[92.2597,23.7026]]]}},{"type":"Feature","id":"label-IND-3301","properties":{"kind":"division-label","code":"IND-3301","countryCode":"IND","name":"Tripura","localName":"Tripura","labelEnglish":"Tripura","labelLocal":"Tripura","labelBoth":"Tripura","type":"State","iso":"IN-TR","qid":"Q1363"},"geometry":{"type":"Point","coordinates":[91.7031,23.8519]}},{"type":"Feature","id":"IND-2489","properties":{"kind":"division","code":"IND-2489","countryCode":"IND","name":"Meghalaya","localName":"Meghalaya","labelEnglish":"Meghalaya","labelLocal":"Meghalaya","labelBoth":"Meghalaya","type":"State","iso":"IN-ML","qid":"Q1195"},"geometry":{"type":"Polygon","coordinates":[[[92.3849,25.0048],[92.8055,25.2277],[92.7896,25.3489],[92.3824,25.7643],[92.1675,25.7],[92.2615,26.0554],[91.7182,25.9677],[91.2081,25.7362],[90.9745,25.9436],[90.5384,25.9113],[90.3737,26.0144],[89.9742,25.8016],[90.0021,25.5868],[89.8086,25.4395],[89.7992,25.4029],[90.3646,25.15],[90.9348,25.1564],[91.471,25.1339],[92.0018,25.183],[92.3849,25.0048]]]}},{"type":"Feature","id":"label-IND-2489","properties":{"kind":"division-label","code":"IND-2489","countryCode":"IND","name":"Meghalaya","localName":"Meghalaya","labelEnglish":"Meghalaya","labelLocal":"Meghalaya","labelBoth":"Meghalaya","type":"State","iso":"IN-ML","qid":"Q1195"},"geometry":{"type":"Point","coordinates":[91.3031,25.4804]}},{"type":"Feature","id":"IND-3249","properties":{"kind":"division","code":"IND-3249","countryCode":"IND","name":"Punjab","localName":"Punjab","labelEnglish":"Punjab","labelLocal":"Punjab","labelBoth":"Punjab","type":"State","iso":"IN-PB","qid":"Q22424"},"geometry":{"type":"Polygon","coordinates":[[[75.2984,32.3324],[75.1742,32.0868],[74.8286,32.0254],[74.4894,31.7112],[74.6119,31.4402],[74.5064,31.1754],[74.6588,31.0838],[74.3298,30.8996],[73.8423,30.353],[73.9468,30.2041],[73.8871,29.9842],[74.5165,29.9472],[74.8234,29.985],[75.2382,29.7488],[75.4458,29.8062],[75.9569,29.7386],[76.2139,29.8587],[76.2288,30.1387],[76.7214,30.4106],[76.9049,30.3841],[76.8273,30.6807],[76.7038,30.7814],[76.8146,30.7891],[76.7682,30.9076],[76.3736,31.4192],[76.1585,31.3386],[75.8797,31.9724],[75.5822,32.0923],[75.9117,32.4314],[75.8474,32.5167],[75.5024,32.3006],[75.2984,32.3324]]]}},{"type":"Feature","id":"label-IND-3249","properties":{"kind":"division-label","code":"IND-3249","countryCode":"IND","name":"Punjab","localName":"Punjab","labelEnglish":"Punjab","labelLocal":"Punjab","labelBoth":"Punjab","type":"State","iso":"IN-PB","qid":"Q22424"},"geometry":{"type":"Point","coordinates":[75.3762,31.0245]}},{"type":"Feature","id":"IND-3250","properties":{"kind":"division","code":"IND-3250","countryCode":"IND","name":"Rajasthan","localName":"Rajasthan","labelEnglish":"Rajasthan","labelLocal":"Rajasthan","labelBoth":"Rajasthan","type":"State","iso":"IN-RJ","qid":"Q1437"},"geometry":{"type":"Polygon","coordinates":[[[73.9468,30.2041],[73.3703,29.9273],[73.2329,29.5366],[72.9015,29.0226],[72.3822,28.784],[71.8609,27.9502],[71.3114,27.8617],[70.8316,27.7015],[70.4562,28.0398],[70.189,27.8918],[70.0169,27.6006],[69.5756,27.1884],[69.4651,26.8078],[69.8156,26.5803],[70.1581,26.5301],[70.0646,25.9803],[70.2646,25.6973],[70.6323,25.7014],[70.6466,25.4314],[71.0566,24.6928],[71.2515,24.6368],[72.0509,24.7084],[72.747,24.3807],[73.0797,24.5091],[73.0793,24.2043],[73.3541,24.1047],[73.3617,23.7842],[74.3235,23.0361],[74.7159,23.1792],[74.5695,23.3679],[74.939,23.6874],[74.9682,24.0328],[74.735,24.2606],[74.7119,24.5239],[74.9654,24.694],[74.8243,24.9325],[75.0844,24.8889],[75.3237,25.0581],[75.2037,24.725],[75.7588,24.7774],[75.874,24.5011],[75.7344,24.424],[75.805,24.1191],[75.4903,23.9399],[75.6998,23.7932],[75.9734,23.9554],[76.1327,24.3294],[76.7666,24.1603],[76.8916,24.2409],[76.8062,24.5558],[77.0589,24.5616],[76.7806,24.8371],[76.861,25.0338],[77.3989,25.2122],[77.3277,25.4432],[76.9135,25.3093],[76.5514,25.4601],[76.4784,25.7198],[76.908,26.0986],[78.0794,26.6829],[78.2001,26.8236],[78.2465,26.9178],[77.7046,26.9298],[77.4998,27.0892],[77.6573,27.2027],[77.3456,27.5419],[77.2807,27.8094],[76.9105,27.6704],[76.9406,28.123],[76.8566,28.229],[76.5531,27.9712],[76.4535,28.1628],[76.1868,28.0745],[76.215,27.8415],[75.9357,27.9557],[76.0814,28.1746],[75.5936,28.6427],[75.3284,29.2962],[75.0796,29.2363],[74.8214,29.4029],[74.6128,29.3328],[74.5165,29.9472],[73.8871,29.9842],[73.9468,30.2041]]]}},{"type":"Feature","id":"label-IND-3250","properties":{"kind":"division-label","code":"IND-3250","countryCode":"IND","name":"Rajasthan","localName":"Rajasthan","labelEnglish":"Rajasthan","labelLocal":"Rajasthan","labelBoth":"Rajasthan","type":"State","iso":"IN-RJ","qid":"Q1437"},"geometry":{"type":"Point","coordinates":[73.8556,26.7468]}},{"type":"Feature","id":"IND-3264","properties":{"kind":"division","code":"IND-3264","countryCode":"IND","name":"Gujarat","localName":"Gujarat","labelEnglish":"Gujarat","labelLocal":"Gujarat","labelBoth":"Gujarat","type":null,"iso":"IN-GJ","qid":"Q1061"},"geometry":{"type":"Polygon","coordinates":[[[71.0566,24.6928],[71.0828,24.4115],[70.7555,24.2314],[70.5209,24.4249],[70.1097,24.3049],[69.972,24.1652],[69.5631,24.2768],[68.7259,24.2892],[68.7245,23.9652],[68.183,23.8421],[68.6226,23.1916],[69.2388,22.8419],[69.7158,22.7469],[69.8332,22.8585],[70.3988,22.9455],[70.1785,22.562],[69.6161,22.3559],[68.9446,22.2951],[69.1984,21.9797],[69.6297,21.616],[70.0544,21.1532],[70.5415,20.8078],[70.973,20.7096],[71.006,20.7366],[71.4623,20.8853],[72.1047,21.2051],[72.2957,21.6539],[72.1281,21.9835],[72.3065,22.2296],[72.8474,22.2404],[72.5422,22.1567],[72.6231,21.9666],[72.5321,21.7139],[72.9269,21.685],[72.6196,21.4874],[72.6061,21.2666],[72.8649,20.8973],[72.847,20.4683],[72.8181,20.3788],[72.7081,20.0726],[72.9472,20.1274],[73.0651,20.3373],[73.1663,20.1149],[73.3638,20.1783],[73.4535,20.7172],[73.63,20.5639],[73.909,20.7757],[73.6952,21.1226],[73.9602,21.3944],[74.2915,21.5139],[73.8208,21.5083],[73.8094,21.8365],[74.1288,21.9518],[74.0257,22.4796],[74.3764,22.651],[74.4581,22.8041],[74.3235,23.0361],[73.3617,23.7842],[73.3541,24.1047],[73.0793,24.2043],[73.0797,24.5091],[72.747,24.3807],[72.0509,24.7084],[71.2515,24.6368],[71.0566,24.6928]]]}},{"type":"Feature","id":"label-IND-3264","properties":{"kind":"division-label","code":"IND-3264","countryCode":"IND","name":"Gujarat","localName":"Gujarat","labelEnglish":"Gujarat","labelLocal":"Gujarat","labelBoth":"Gujarat","type":null,"iso":"IN-GJ","qid":"Q1061"},"geometry":{"type":"Point","coordinates":[71.3013,22.7501]}},{"type":"Feature","id":"IND-2429","properties":{"kind":"division","code":"IND-2429","countryCode":"IND","name":"Himachal Pradesh","localName":"Himachal Pradesh","labelEnglish":"Himachal Pradesh","labelLocal":"Himachal Pradesh","labelBoth":"Himachal Pradesh","type":"Union Territory","iso":"IN-HP","qid":"Q1177"},"geometry":{"type":"Polygon","coordinates":[[[78.381,32.528],[78.3666,32.7652],[78.0089,32.6103],[77.7211,33.0126],[77.3487,32.8672],[76.7398,33.1974],[76.2943,33.1479],[75.9724,32.911],[75.8474,32.5167],[75.9117,32.4314],[75.5822,32.0923],[75.8797,31.9724],[76.1585,31.3386],[76.3736,31.4192],[76.7682,30.9076],[77.1151,30.7221],[77.2013,30.5002],[77.5851,30.3829],[77.813,30.5211],[77.7058,30.7915],[77.9411,31.1729],[78.2842,31.2903],[78.9932,31.1308],[78.8926,31.2818],[78.7385,31.335],[78.8189,31.6074],[78.6709,31.7705],[78.7446,31.9642],[78.458,32.2297],[78.381,32.528]]]}},{"type":"Feature","id":"label-IND-2429","properties":{"kind":"division-label","code":"IND-2429","countryCode":"IND","name":"Himachal Pradesh","localName":"Himachal Pradesh","labelEnglish":"Himachal Pradesh","labelLocal":"Himachal Pradesh","labelBoth":"Himachal Pradesh","type":"Union Territory","iso":"IN-HP","qid":"Q1177"},"geometry":{"type":"Point","coordinates":[77.2875,31.6755]}},{"type":"Feature","id":"IND-2431","properties":{"kind":"division","code":"IND-2431","countryCode":"IND","name":"Jammu and Kashmir","localName":"Jammu and Kashmir","labelEnglish":"Jammu and Kashmir","labelLocal":"Jammu and Kashmir","labelBoth":"Jammu and Kashmir","type":"Union Territory","iso":"IN-JK","qid":"Q66278313"},"geometry":{"type":"Polygon","coordinates":[[[74.317,32.8231],[74.6853,32.8312],[74.725,32.4608],[75.0237,32.4663],[75.2984,32.3324],[75.5024,32.3006],[75.8474,32.5167],[75.9724,32.911],[76.2943,33.1479],[76.7398,33.1974],[76.488,33.5022],[76.2461,33.5741],[76.1664,33.8732],[75.8796,33.9637],[75.3745,34.371],[75.3481,34.5572],[75.2245,34.6386],[74.2858,34.7689],[73.9193,34.6425],[73.7749,34.371],[73.9983,34.1968],[73.9458,34.0098],[74.2723,33.9621],[73.9767,33.6484],[74.1416,33.5494],[74.0023,33.1777],[74.322,32.972],[74.317,32.8231]]]}},{"type":"Feature","id":"label-IND-2431","properties":{"kind":"division-label","code":"IND-2431","countryCode":"IND","name":"Jammu and Kashmir","localName":"Jammu and Kashmir","labelEnglish":"Jammu and Kashmir","labelLocal":"Jammu and Kashmir","labelBoth":"Jammu and Kashmir","type":"Union Territory","iso":"IN-JK","qid":"Q66278313"},"geometry":{"type":"Point","coordinates":[76.6395,33.9658]}},{"type":"Feature","id":"IND-3258","properties":{"kind":"division","code":"IND-3258","countryCode":"IND","name":"Bihar","localName":"Bihar","labelEnglish":"Bihar","labelLocal":"Bihar","labelBoth":"Bihar","type":"State","iso":"IN-BR","qid":"Q1165"},"geometry":{"type":"Polygon","coordinates":[[[87.6487,26.41],[87.3262,26.3533],[86.9352,26.5203],[86.7136,26.4146],[86.1464,26.6014],[85.8216,26.5717],[85.5986,26.8544],[85.3554,26.7599],[84.6402,27.0284],[84.577,27.329],[84.0796,27.5095],[83.922,27.4497],[83.8533,27.3462],[84.0706,26.9236],[84.383,26.6417],[84.0992,26.6496],[83.9201,26.474],[84.1776,26.4043],[83.9927,26.2411],[84.2615,25.9313],[84.6007,25.747],[84.1434,25.7362],[83.9043,25.5295],[83.3841,25.2359],[83.3602,24.8633],[83.5231,24.5297],[84.3054,24.5308],[84.472,24.3074],[84.7985,24.4966],[84.9615,24.3484],[85.6624,24.5689],[85.746,24.77],[86.0181,24.743],[86.4387,24.3404],[86.5857,24.5614],[87.05,24.597],[87.1173,24.9709],[87.5235,25.3238],[87.7837,25.2141],[87.7438,25.4026],[88.0464,25.6689],[87.8054,25.8737],[87.8314,26.0106],[88.3037,26.36],[88.0871,26.5391],[87.9755,26.3666],[87.6487,26.41]]]}},{"type":"Feature","id":"label-IND-3258","properties":{"kind":"division-label","code":"IND-3258","countryCode":"IND","name":"Bihar","localName":"Bihar","labelEnglish":"Bihar","labelLocal":"Bihar","labelBoth":"Bihar","type":"State","iso":"IN-BR","qid":"Q1165"},"geometry":{"type":"Point","coordinates":[85.8134,25.6853]}},{"type":"Feature","id":"IND-3253","properties":{"kind":"division","code":"IND-3253","countryCode":"IND","name":"Uttar Pradesh","localName":"Uttar Pradesh","labelEnglish":"Uttar Pradesh","labelLocal":"Uttar Pradesh","labelBoth":"Uttar Pradesh","type":"State","iso":"IN-UP","qid":"Q1498"},"geometry":{"type":"Polygon","coordinates":[[[82.6739,27.6965],[82.4019,27.6772],[82.0502,27.9056],[81.8832,27.8491],[81.3071,28.1238],[81.0471,28.3891],[80.5344,28.6796],[80.4934,28.5756],[80.0731,28.8209],[79.4437,28.8496],[79.0559,29.1518],[78.7215,29.284],[78.92,29.4222],[78.6431,29.5376],[78.2283,29.9474],[78.1891,29.7067],[77.8315,29.6599],[77.7464,29.9773],[77.9461,30.2283],[77.5851,30.3829],[77.2299,29.9766],[77.0582,29.5555],[77.1498,29.4034],[77.2008,28.8768],[77.3274,28.5197],[77.497,28.3933],[77.5293,27.9525],[77.2807,27.8094],[77.3456,27.5419],[77.6573,27.2027],[77.4998,27.0892],[77.7046,26.9298],[78.2465,26.9178],[78.2001,26.8236],[78.9261,26.7062],[79.0608,26.3551],[78.7145,25.6259],[78.3705,25.5527],[78.2619,25.4117],[78.3663,25.186],[78.1691,24.8655],[78.2288,24.5327],[78.3855,24.3012],[78.4894,24.4108],[78.7921,24.2174],[78.9783,24.4674],[78.7331,24.6354],[78.7321,24.8149],[78.5159,25.2662],[78.9012,25.5362],[78.8911,25.1754],[79.4247,25.2572],[79.8633,25.1532],[79.8521,25.2478],[80.2836,25.4145],[80.4585,25.117],[80.8589,25.1876],[80.7787,24.9715],[81.1848,24.9729],[81.2432,25.1695],[81.5852,25.0796],[82.4271,24.7186],[82.7721,24.6683],[82.6738,24.1803],[82.8009,23.9987],[83.2063,23.944],[83.3371,24.1402],[83.5231,24.5297],[83.3602,24.8633],[83.3841,25.2359],[83.9043,25.5295],[84.1434,25.7362],[84.6007,25.747],[84.2615,25.9313],[83.9927,26.2411],[84.1776,26.4043],[83.9201,26.474],[84.0992,26.6496],[84.383,26.6417],[84.0706,26.9236],[83.8533,27.3462],[83.361,27.4622],[82.7521,27.495],[82.6739,27.6965]]]}},{"type":"Feature","id":"label-IND-3253","properties":{"kind":"division-label","code":"IND-3253","countryCode":"IND","name":"Uttar Pradesh","localName":"Uttar Pradesh","labelEnglish":"Uttar Pradesh","labelLocal":"Uttar Pradesh","labelBoth":"Uttar Pradesh","type":"State","iso":"IN-UP","qid":"Q1498"},"geometry":{"type":"Point","coordinates":[80.9966,26.7201]}},{"type":"Feature","id":"IND-2441","properties":{"kind":"division","code":"IND-2441","countryCode":"IND","name":"Andhra Pradesh","localName":"Andhra Pradesh","labelEnglish":"Andhra Pradesh","labelLocal":"Andhra Pradesh","labelBoth":"Andhra Pradesh","type":"State","iso":"IN-AP","qid":"Q1159"},"geometry":{"type":"Polygon","coordinates":[[[80.2777,13.5125],[80.2881,13.5271],[80.1282,14.2565],[80.197,14.565],[80.0545,15.0141],[80.0906,15.3049],[80.2632,15.6745],[80.5539,15.8808],[80.9989,15.8467],[81.1554,15.9855],[81.2485,16.3201],[81.763,16.3226],[82.3074,16.5798],[82.2993,17.0303],[82.4749,17.206],[83.2389,17.593],[83.6139,18.0452],[84.0774,18.2716],[84.4237,18.6365],[84.7778,19.1162],[84.6945,19.1606],[84.3178,18.8092],[83.9024,18.8056],[83.6128,19.1298],[83.3942,18.8694],[83.0281,18.6409],[83.0392,18.3904],[82.5867,18.2444],[82.4491,18.5221],[82.2401,17.9929],[82.0424,18.0433],[81.759,17.9089],[81.4695,17.4205],[80.8931,17.1556],[80.5909,17.1398],[80.351,16.8621],[80.2205,17.0333],[79.8823,16.7032],[79.2656,16.5696],[79.1606,16.2193],[79.0217,16.2471],[78.7341,16.0303],[78.2444,16.0385],[78.0875,15.833],[77.4465,15.953],[77.1437,15.9607],[76.9686,15.5015],[77.1281,15.1323],[77.0272,15.007],[76.7643,15.0941],[76.7529,14.5656],[76.9309,14.4494],[76.9082,14.2579],[77.2568,14.334],[77.4678,14.1924],[77.2893,14.0107],[76.868,14.1538],[77.1332,13.7848],[77.384,13.8467],[77.4425,13.702],[77.9371,13.9633],[78.1841,13.6015],[78.3684,13.591],[78.3502,13.3761],[78.565,13.2179],[78.2296,12.7599],[78.4191,12.6326],[78.6447,12.992],[78.9442,13.0934],[79.1616,13.0449],[79.4408,13.3215],[79.8163,13.2949],[80.2602,13.4685],[80.2777,13.5125]]]}},{"type":"Feature","id":"label-IND-2441","properties":{"kind":"division-label","code":"IND-2441","countryCode":"IND","name":"Andhra Pradesh","localName":"Andhra Pradesh","labelEnglish":"Andhra Pradesh","labelLocal":"Andhra Pradesh","labelBoth":"Andhra Pradesh","type":"State","iso":"IN-AP","qid":"Q1159"},"geometry":{"type":"Point","coordinates":[79.208,16.4854]}},{"type":"Feature","id":"IND-2444","properties":{"kind":"division","code":"IND-2444","countryCode":"IND","name":"Odisha","localName":"Odisha","labelEnglish":"Odisha","labelLocal":"Odisha","labelBoth":"Odisha","type":"State","iso":"IN-OR","qid":"Q22048"},"geometry":{"type":"Polygon","coordinates":[[[87.4774,21.6136],[87.1907,21.9562],[86.6865,22.218],[86.0398,22.5567],[85.9741,22.1046],[85.7847,22.0119],[85.4252,22.1645],[85.2202,22.0291],[84.9852,22.1128],[85.0655,22.5032],[84.1478,22.3868],[83.9702,22.5393],[83.9965,22.4405],[83.6054,22.196],[83.1983,21.1726],[82.6682,21.1555],[82.4535,20.8469],[82.342,20.8608],[82.4156,20.067],[82.695,20.0005],[82.7133,19.8555],[82.3814,19.8859],[81.9396,20.1047],[81.8172,19.9243],[82.0291,19.7765],[82.225,19.0152],[82.1389,18.7473],[81.969,18.6857],[81.7406,18.3579],[81.5425,18.2625],[81.394,17.8067],[81.759,17.9089],[82.0424,18.0433],[82.2401,17.9929],[82.4491,18.5221],[82.5867,18.2444],[83.0392,18.3904],[83.0281,18.6409],[83.3942,18.8694],[83.6128,19.1298],[83.9024,18.8056],[84.3178,18.8092],[84.6945,19.1606],[84.7778,19.1162],[85.3914,19.6906],[85.1029,19.5296],[85.221,19.736],[85.5703,19.8756],[85.4499,19.6667],[86.3972,19.9829],[86.7175,20.2869],[86.7742,20.5119],[86.9949,20.6707],[86.8373,21.1747],[87.2009,21.552],[87.4774,21.6136]]]}},{"type":"Feature","id":"label-IND-2444","properties":{"kind":"division-label","code":"IND-2444","countryCode":"IND","name":"Odisha","localName":"Odisha","labelEnglish":"Odisha","labelLocal":"Odisha","labelBoth":"Odisha","type":"State","iso":"IN-OR","qid":"Q22048"},"geometry":{"type":"Point","coordinates":[84.4341,20.625]}},{"type":"Feature","id":"IND-2445","properties":{"kind":"division","code":"IND-2445","countryCode":"IND","name":"Dadra and Nagar Haveli and Daman and Diu","localName":"Dadra and Nagar Haveli and Daman and Diu","labelEnglish":"Dadra and Nagar Haveli and Daman and Diu","labelLocal":"Dadra and Nagar Haveli and Daman and Diu","labelBoth":"Dadra and Nagar Haveli and Daman and Diu","type":"Union Territory","iso":"IN-DH","qid":"Q77997266"},"geometry":{"type":"Polygon","coordinates":[[[73.1663,20.1149],[73.0651,20.3373],[72.9472,20.1274],[73.1663,20.1149]]]}},{"type":"Feature","id":"label-IND-2445","properties":{"kind":"division-label","code":"IND-2445","countryCode":"IND","name":"Dadra and Nagar Haveli and Daman and Diu","localName":"Dadra and Nagar Haveli and Daman and Diu","labelEnglish":"Dadra and Nagar Haveli and Daman and Diu","labelLocal":"Dadra and Nagar Haveli and Daman and Diu","labelBoth":"Dadra and Nagar Haveli and Daman and Diu","type":"Union Territory","iso":"IN-DH","qid":"Q77997266"},"geometry":{"type":"Point","coordinates":[73.029,20.1841]}},{"type":"Feature","id":"IND-2447","properties":{"kind":"division","code":"IND-2447","countryCode":"IND","name":"Maharashtra","localName":"Maharashtra","labelEnglish":"Maharashtra","labelLocal":"Maharashtra","labelBoth":"Maharashtra","type":"State","iso":"IN-MH","qid":"Q1191"},"geometry":{"type":"Polygon","coordinates":[[[73.7009,15.7232],[74.1006,15.6403],[74.3311,15.7619],[74.4696,16.1098],[74.2436,16.5396],[74.5466,16.5555],[74.8576,16.7579],[74.96,16.9511],[75.6167,16.9747],[75.6131,17.4716],[75.9365,17.3259],[76.3438,17.3519],[76.3222,17.6177],[76.513,17.7728],[76.676,17.7069],[77.3019,18.4603],[77.5512,18.3079],[77.7124,18.6895],[77.9121,18.8354],[77.752,19.0459],[77.9031,19.3278],[78.1679,19.2641],[78.3994,19.7361],[78.3292,19.8913],[78.78,19.7767],[79.1977,19.4619],[79.266,19.5896],[79.7354,19.6034],[79.9655,19.4019],[79.9169,18.8266],[80.2704,18.7137],[80.2718,18.9794],[80.576,19.392],[80.7245,19.2645],[80.8939,19.4844],[80.4251,19.8928],[80.4244,20.2341],[80.6224,20.3259],[80.4845,21.1677],[80.679,21.3512],[80.4099,21.3921],[80.1867,21.6395],[80.0053,21.5483],[79.5516,21.55],[79.4131,21.6898],[78.696,21.4748],[78.366,21.6254],[78.0292,21.4377],[77.4902,21.3929],[77.5518,21.6968],[77.333,21.7745],[76.7937,21.577],[76.6141,21.2025],[76.1868,21.0858],[76.0829,21.3681],[75.3119,21.3815],[75.048,21.5541],[74.5125,21.7269],[74.4077,22.023],[74.1288,21.9518],[73.8094,21.8365],[73.8208,21.5083],[74.2915,21.5139],[73.9602,21.3944],[73.6952,21.1226],[73.909,20.7757],[73.63,20.5639],[73.4535,20.7172],[73.3638,20.1783],[73.1663,20.1149],[72.9472,20.1274],[72.7081,20.0726],[72.6501,19.842],[72.818,19.1754],[72.7959,18.9849],[72.9883,18.9986],[72.8524,18.7699],[72.981,18.0806],[73.1232,17.7233],[73.2757,17.0786],[73.3073,16.5632],[73.447,16.0689],[73.7009,15.7232]]]}},{"type":"Feature","id":"label-IND-2447","properties":{"kind":"division-label","code":"IND-2447","countryCode":"IND","name":"Maharashtra","localName":"Maharashtra","labelEnglish":"Maharashtra","labelLocal":"Maharashtra","labelBoth":"Maharashtra","type":"State","iso":"IN-MH","qid":"Q1191"},"geometry":{"type":"Point","coordinates":[75.4647,19.4723]}},{"type":"Feature","id":"IND-3265","properties":{"kind":"division","code":"IND-3265","countryCode":"IND","name":"Goa","localName":"Goa","labelEnglish":"Goa","labelLocal":"Goa","labelBoth":"Goa","type":"State","iso":"IN-GA","qid":"Q1171"},"geometry":{"type":"Polygon","coordinates":[[[74.0912,14.8876],[74.2412,14.956],[74.2983,15.2729],[74.2268,15.6298],[74.1006,15.6403],[73.7009,15.7232],[73.8913,15.3432],[73.9131,15.0789],[74.0912,14.8876]]]}},{"type":"Feature","id":"label-IND-3265","properties":{"kind":"division-label","code":"IND-3265","countryCode":"IND","name":"Goa","localName":"Goa","labelEnglish":"Goa","labelLocal":"Goa","labelBoth":"Goa","type":"State","iso":"IN-GA","qid":"Q1171"},"geometry":{"type":"Point","coordinates":[73.9951,15.3133]}},{"type":"Feature","id":"IND-2446","properties":{"kind":"division","code":"IND-2446","countryCode":"IND","name":"Karnataka","localName":"Karnataka","labelEnglish":"Karnataka","labelLocal":"Karnataka","labelBoth":"Karnataka","type":"State","iso":"IN-KA","qid":"Q1185"},"geometry":{"type":"Polygon","coordinates":[[[74.8543,12.7653],[75.2709,12.6007],[75.3893,12.2947],[75.846,11.9511],[76.0558,11.9637],[76.4159,11.6668],[76.8208,11.6256],[76.9077,11.8002],[77.4339,11.8115],[77.7687,12.12],[77.4921,12.2055],[77.6094,12.6728],[77.8013,12.8566],[78.2296,12.7599],[78.565,13.2179],[78.3502,13.3761],[78.3684,13.591],[78.1841,13.6015],[77.9371,13.9633],[77.4425,13.702],[77.384,13.8467],[77.1332,13.7848],[76.868,14.1538],[77.2893,14.0107],[77.4678,14.1924],[77.2568,14.334],[76.9082,14.2579],[76.9309,14.4494],[76.7529,14.5656],[76.7643,15.0941],[77.0272,15.007],[77.1281,15.1323],[76.9686,15.5015],[77.1437,15.9607],[77.4465,15.953],[77.4933,16.3782],[77.2574,16.4494],[77.432,16.5936],[77.4652,17.0426],[77.3744,17.2226],[77.6858,17.5672],[77.4115,17.6308],[77.6198,17.9257],[77.5512,18.3079],[77.3019,18.4603],[76.676,17.7069],[76.513,17.7728],[76.3222,17.6177],[76.3438,17.3519],[75.9365,17.3259],[75.6131,17.4716],[75.6167,16.9747],[74.96,16.9511],[74.8576,16.7579],[74.5466,16.5555],[74.2436,16.5396],[74.4696,16.1098],[74.3311,15.7619],[74.1006,15.6403],[74.2268,15.6298],[74.2983,15.2729],[74.2412,14.956],[74.0912,14.8876],[74.3888,14.4627],[74.584,13.9039],[74.8543,12.7653]]]}},{"type":"Feature","id":"label-IND-2446","properties":{"kind":"division-label","code":"IND-2446","countryCode":"IND","name":"Karnataka","localName":"Karnataka","labelEnglish":"Karnataka","labelLocal":"Karnataka","labelBoth":"Karnataka","type":"State","iso":"IN-KA","qid":"Q1185"},"geometry":{"type":"Point","coordinates":[75.667,14.3681]}},{"type":"Feature","id":"IND-2442","properties":{"kind":"division","code":"IND-2442","countryCode":"IND","name":"Kerala","localName":"Kerala","labelEnglish":"Kerala","labelLocal":"Kerala","labelBoth":"Kerala","type":"State","iso":"IN-KL","qid":"Q1186"},"geometry":{"type":"Polygon","coordinates":[[[75.2222,12.022],[75.2229,12.1002],[75.3969,12.1429],[75.3042,12.0432],[75.8328,11.0978],[75.922,10.7656],[76.2427,9.9875],[76.3118,9.493],[76.5586,8.8907],[77.1103,8.2852],[77.2788,8.5264],[77.1649,9.001],[77.3986,9.5],[77.1877,9.6128],[77.277,10.2101],[77.1915,10.3513],[76.8415,10.3107],[76.8897,10.78],[76.6904,10.9334],[76.7665,11.0522],[76.5427,11.338],[76.2563,11.4784],[76.4159,11.6668],[76.0558,11.9637],[75.846,11.9511],[75.3893,12.2947],[75.2709,12.6007],[74.8543,12.7653],[75.2222,12.022]]]}},{"type":"Feature","id":"label-IND-2442","properties":{"kind":"division-label","code":"IND-2442","countryCode":"IND","name":"Kerala","localName":"Kerala","labelEnglish":"Kerala","labelLocal":"Kerala","labelBoth":"Kerala","type":"State","iso":"IN-KL","qid":"Q1186"},"geometry":{"type":"Point","coordinates":[76.5237,10.3666]}},{"type":"Feature","id":"IND-3262","properties":{"kind":"division","code":"IND-3262","countryCode":"IND","name":"Puducherry","localName":"Puducherry","labelEnglish":"Puducherry","labelLocal":"Puducherry","labelBoth":"Puducherry","type":"Union Territory","iso":"IN-PY","qid":"Q66743"},"geometry":{"type":"Polygon","coordinates":[[[75.3042,12.0432],[75.3969,12.1429],[75.2229,12.1002],[75.2222,12.022],[75.3042,12.0432]]]}},{"type":"Feature","id":"label-IND-3262","properties":{"kind":"division-label","code":"IND-3262","countryCode":"IND","name":"Puducherry","localName":"Puducherry","labelEnglish":"Puducherry","labelLocal":"Puducherry","labelBoth":"Puducherry","type":"Union Territory","iso":"IN-PY","qid":"Q66743"},"geometry":{"type":"Point","coordinates":[79.7758,10.9224]}},{"type":"Feature","id":"IND-3263","properties":{"kind":"division","code":"IND-3263","countryCode":"IND","name":"Tamil Nadu","localName":"Tamil Nadu","labelEnglish":"Tamil Nadu","labelLocal":"Tamil Nadu","labelBoth":"Tamil Nadu","type":"State","iso":"IN-TN","qid":"Q1445"},"geometry":{"type":"Polygon","coordinates":[[[79.8473,10.8096],[79.8467,10.9798],[79.752,11.577],[79.8109,11.833],[79.8496,11.9552],[80.156,12.4745],[80.3328,13.1981],[80.2602,13.4685],[79.8163,13.2949],[79.4408,13.3215],[79.1616,13.0449],[78.9442,13.0934],[78.6447,12.992],[78.4191,12.6326],[78.2296,12.7599],[77.8013,12.8566],[77.6094,12.6728],[77.4921,12.2055],[77.7687,12.12],[77.4339,11.8115],[76.9077,11.8002],[76.8208,11.6256],[76.4159,11.6668],[76.2563,11.4784],[76.5427,11.338],[76.7665,11.0522],[76.6904,10.9334],[76.8897,10.78],[76.8415,10.3107],[77.1915,10.3513],[77.277,10.2101],[77.1877,9.6128],[77.3986,9.5],[77.1649,9.001],[77.2788,8.5264],[77.1103,8.2852],[77.5109,8.076],[78.0628,8.3732],[78.2398,8.9656],[78.4499,9.1166],[79.0399,9.3147],[78.9133,9.4743],[79.2791,10.0358],[79.3981,10.3247],[79.8513,10.2822],[79.8473,10.8096]]]}},{"type":"Feature","id":"label-IND-3263","properties":{"kind":"division-label","code":"IND-3263","countryCode":"IND","name":"Tamil Nadu","localName":"Tamil Nadu","labelEnglish":"Tamil Nadu","labelLocal":"Tamil Nadu","labelBoth":"Tamil Nadu","type":"State","iso":"IN-TN","qid":"Q1445"},"geometry":{"type":"Point","coordinates":[78.2704,11.0159]}},{"type":"Feature","id":"IND-2443","properties":{"kind":"division","code":"IND-2443","countryCode":"IND","name":"Lakshadweep","localName":"Lakshadweep","labelEnglish":"Lakshadweep","labelLocal":"Lakshadweep","labelBoth":"Lakshadweep","type":"Union Territory","iso":"IN-LD","qid":"Q26927"},"geometry":{"type":"Polygon","coordinates":[[[73.0772,8.3153],[73.0632,8.2795],[73.0241,8.2554],[73.0447,8.2524],[73.0661,8.2705],[73.0772,8.3153]]]}},{"type":"Feature","id":"label-IND-2443","properties":{"kind":"division-label","code":"IND-2443","countryCode":"IND","name":"Lakshadweep","localName":"Lakshadweep","labelEnglish":"Lakshadweep","labelLocal":"Lakshadweep","labelBoth":"Lakshadweep","type":"Union Territory","iso":"IN-LD","qid":"Q26927"},"geometry":{"type":"Point","coordinates":[72.7811,11.2249]}},{"type":"Feature","id":"IND-2474","properties":{"kind":"division","code":"IND-2474","countryCode":"IND","name":"Andaman and Nicobar Islands","localName":"Andaman and Nicobar Islands","labelEnglish":"Andaman and Nicobar Islands","labelLocal":"Andaman and Nicobar Islands","labelBoth":"Andaman and Nicobar Islands","type":"Union Territory","iso":"IN-AN","qid":"Q40888"},"geometry":{"type":"MultiPolygon","coordinates":[[[[93.9203,7.0243],[93.814,7.2418],[93.6764,7.1819],[93.8342,6.7456],[93.9203,7.0243]]],[[[92.5851,10.7713],[92.3767,10.784],[92.513,10.508],[92.5851,10.7713]]],[[[93.0527,13.2839],[93.0425,13.5712],[92.864,13.2355],[92.7178,12.3625],[92.5603,11.7414],[92.717,11.4945],[92.7575,12.0775],[92.9906,12.5192],[92.937,13.0671],[93.0527,13.2839]]]]}},{"type":"Feature","id":"label-IND-2474","properties":{"kind":"division-label","code":"IND-2474","countryCode":"IND","name":"Andaman and Nicobar Islands","localName":"Andaman and Nicobar Islands","labelEnglish":"Andaman and Nicobar Islands","labelLocal":"Andaman and Nicobar Islands","labelBoth":"Andaman and Nicobar Islands","type":"Union Territory","iso":"IN-AN","qid":"Q40888"},"geometry":{"type":"Point","coordinates":[93.7895,6.83654]}},{"type":"Feature","id":"IND-3256","properties":{"kind":"division","code":"IND-3256","countryCode":"IND","name":"Jharkhand","localName":"Jharkhand","labelEnglish":"Jharkhand","labelLocal":"Jharkhand","labelBoth":"Jharkhand","type":"State","iso":"IN-JH","qid":"Q1184"},"geometry":{"type":"Polygon","coordinates":[[[83.3371,24.1402],[83.5218,24.0659],[83.7809,23.5865],[84.0145,23.554],[84.0289,23.1461],[84.3522,22.8856],[83.9702,22.5393],[84.1478,22.3868],[85.0655,22.5032],[84.9852,22.1128],[85.2202,22.0291],[85.4252,22.1645],[85.7847,22.0119],[85.9741,22.1046],[86.0398,22.5567],[86.6865,22.218],[86.8484,22.3101],[86.7494,22.5448],[86.3991,22.785],[86.4505,23.0042],[86.1425,23.0283],[85.8298,23.2608],[85.8289,23.4831],[86.1291,23.5784],[86.2143,23.4492],[86.4585,23.6386],[86.7998,23.7255],[86.8772,23.9131],[87.0797,23.8152],[87.6616,24.1862],[87.8773,24.5887],[87.7837,25.2141],[87.5235,25.3238],[87.1173,24.9709],[87.05,24.597],[86.5857,24.5614],[86.4387,24.3404],[86.0181,24.743],[85.746,24.77],[85.6624,24.5689],[84.9615,24.3484],[84.7985,24.4966],[84.472,24.3074],[84.3054,24.5308],[83.5231,24.5297],[83.3371,24.1402]]]}},{"type":"Feature","id":"label-IND-3256","properties":{"kind":"division-label","code":"IND-3256","countryCode":"IND","name":"Jharkhand","localName":"Jharkhand","labelEnglish":"Jharkhand","labelLocal":"Jharkhand","labelBoth":"Jharkhand","type":"State","iso":"IN-JH","qid":"Q1184"},"geometry":{"type":"Point","coordinates":[85.0584,23.5221]}},{"type":"Feature","id":"IND-2428","properties":{"kind":"division","code":"IND-2428","countryCode":"IND","name":"Delhi","localName":"Delhi","labelEnglish":"Delhi","labelLocal":"Delhi","labelBoth":"Delhi","type":"Union Territory","iso":"IN-DL","qid":"Q1353"},"geometry":{"type":"Polygon","coordinates":[[[77.2008,28.8768],[76.9365,28.8147],[76.8727,28.5194],[77.1936,28.4326],[77.3274,28.5197],[77.2008,28.8768]]]}},{"type":"Feature","id":"label-IND-2428","properties":{"kind":"division-label","code":"IND-2428","countryCode":"IND","name":"Delhi","localName":"Delhi","labelEnglish":"Delhi","labelLocal":"Delhi","labelBoth":"Delhi","type":"Union Territory","iso":"IN-DL","qid":"Q1353"},"geometry":{"type":"Point","coordinates":[77.0856,28.69]}},{"type":"Feature","id":"IND-2427","properties":{"kind":"division","code":"IND-2427","countryCode":"IND","name":"Chandigarh","localName":"Chandigarh","labelEnglish":"Chandigarh","labelLocal":"Chandigarh","labelBoth":"Chandigarh","type":"Union Territory","iso":"IN-CH","qid":"Q43433"},"geometry":{"type":"Polygon","coordinates":[[[76.8146,30.7891],[76.7038,30.7814],[76.8273,30.6807],[76.8146,30.7891]]]}},{"type":"Feature","id":"label-IND-2427","properties":{"kind":"division-label","code":"IND-2427","countryCode":"IND","name":"Chandigarh","localName":"Chandigarh","labelEnglish":"Chandigarh","labelLocal":"Chandigarh","labelBoth":"Chandigarh","type":"Union Territory","iso":"IN-CH","qid":"Q43433"},"geometry":{"type":"Point","coordinates":[76.7605,30.7452]}},{"type":"Feature","id":"IND-3261","properties":{"kind":"division","code":"IND-3261","countryCode":"IND","name":"Madhya Pradesh","localName":"Madhya Pradesh","labelEnglish":"Madhya Pradesh","labelLocal":"Madhya Pradesh","labelBoth":"Madhya Pradesh","type":"State","iso":"IN-MP","qid":"Q1188"},"geometry":{"type":"Polygon","coordinates":[[[82.8009,23.9987],[82.6738,24.1803],[82.7721,24.6683],[82.4271,24.7186],[81.5852,25.0796],[81.2432,25.1695],[81.1848,24.9729],[80.7787,24.9715],[80.8589,25.1876],[80.4585,25.117],[80.2836,25.4145],[79.8521,25.2478],[79.8633,25.1532],[79.4247,25.2572],[78.8911,25.1754],[78.9012,25.5362],[78.5159,25.2662],[78.7321,24.8149],[78.7331,24.6354],[78.9783,24.4674],[78.7921,24.2174],[78.4894,24.4108],[78.3855,24.3012],[78.2288,24.5327],[78.1691,24.8655],[78.3663,25.186],[78.2619,25.4117],[78.3705,25.5527],[78.7145,25.6259],[79.0608,26.3551],[78.9261,26.7062],[78.2001,26.8236],[78.0794,26.6829],[76.908,26.0986],[76.4784,25.7198],[76.5514,25.4601],[76.9135,25.3093],[77.3277,25.4432],[77.3989,25.2122],[76.861,25.0338],[76.7806,24.8371],[77.0589,24.5616],[76.8062,24.5558],[76.8916,24.2409],[76.7666,24.1603],[76.1327,24.3294],[75.9734,23.9554],[75.6998,23.7932],[75.4903,23.9399],[75.805,24.1191],[75.7344,24.424],[75.874,24.5011],[75.7588,24.7774],[75.2037,24.725],[75.3237,25.0581],[75.0844,24.8889],[74.8243,24.9325],[74.9654,24.694],[74.7119,24.5239],[74.735,24.2606],[74.9682,24.0328],[74.939,23.6874],[74.5695,23.3679],[74.7159,23.1792],[74.3235,23.0361],[74.4581,22.8041],[74.3764,22.651],[74.0257,22.4796],[74.1288,21.9518],[74.4077,22.023],[74.5125,21.7269],[75.048,21.5541],[75.3119,21.3815],[76.0829,21.3681],[76.1868,21.0858],[76.6141,21.2025],[76.7937,21.577],[77.333,21.7745],[77.5518,21.6968],[77.4902,21.3929],[78.0292,21.4377],[78.366,21.6254],[78.696,21.4748],[79.4131,21.6898],[79.5516,21.55],[80.0053,21.5483],[80.1867,21.6395],[80.4099,21.3921],[80.679,21.3512],[80.7305,21.7143],[80.9777,22.0528],[81.178,22.4784],[81.4178,22.4375],[81.7664,22.664],[81.9461,23.043],[82.1897,23.2887],[81.9275,23.4954],[81.5914,23.5612],[81.7782,23.8019],[82.5317,23.7754],[82.8009,23.9987]]]}},{"type":"Feature","id":"label-IND-3261","properties":{"kind":"division-label","code":"IND-3261","countryCode":"IND","name":"Madhya Pradesh","localName":"Madhya Pradesh","labelEnglish":"Madhya Pradesh","labelLocal":"Madhya Pradesh","labelBoth":"Madhya Pradesh","type":"State","iso":"IN-MP","qid":"Q1188"},"geometry":{"type":"Point","coordinates":[78.4214,22.9404]}},{"type":"Feature","id":"IND-3260","properties":{"kind":"division","code":"IND-3260","countryCode":"IND","name":"Chhattisgarh","localName":"Chhattisgarh","labelEnglish":"Chhattisgarh","labelLocal":"Chhattisgarh","labelBoth":"Chhattisgarh","type":"State","iso":"IN-CT","qid":"Q1168"},"geometry":{"type":"Polygon","coordinates":[[[83.3371,24.1402],[83.2063,23.944],[82.8009,23.9987],[82.5317,23.7754],[81.7782,23.8019],[81.5914,23.5612],[81.9275,23.4954],[82.1897,23.2887],[81.9461,23.043],[81.7664,22.664],[81.4178,22.4375],[81.178,22.4784],[80.9777,22.0528],[80.7305,21.7143],[80.679,21.3512],[80.4845,21.1677],[80.6224,20.3259],[80.4244,20.2341],[80.4251,19.8928],[80.8939,19.4844],[80.7245,19.2645],[80.576,19.392],[80.2718,18.9794],[80.2704,18.7137],[80.5026,18.6],[80.9375,18.0863],[80.9856,17.8405],[81.394,17.8067],[81.5425,18.2625],[81.7406,18.3579],[81.969,18.6857],[82.1389,18.7473],[82.225,19.0152],[82.0291,19.7765],[81.8172,19.9243],[81.9396,20.1047],[82.3814,19.8859],[82.7133,19.8555],[82.695,20.0005],[82.4156,20.067],[82.342,20.8608],[82.4535,20.8469],[82.6682,21.1555],[83.1983,21.1726],[83.6054,22.196],[83.9965,22.4405],[83.9702,22.5393],[84.3522,22.8856],[84.0289,23.1461],[84.0145,23.554],[83.7809,23.5865],[83.5218,24.0659],[83.3371,24.1402]]]}},{"type":"Feature","id":"label-IND-3260","properties":{"kind":"division-label","code":"IND-3260","countryCode":"IND","name":"Chhattisgarh","localName":"Chhattisgarh","labelEnglish":"Chhattisgarh","labelLocal":"Chhattisgarh","labelBoth":"Chhattisgarh","type":"State","iso":"IN-CT","qid":"Q1168"},"geometry":{"type":"Point","coordinates":[82.3069,21.8044]}},{"type":"Feature","id":"IND-2430","properties":{"kind":"division","code":"IND-2430","countryCode":"IND","name":"Haryana","localName":"Haryana","labelEnglish":"Haryana","labelLocal":"Haryana","labelBoth":"Haryana","type":"State","iso":"IN-HR","qid":"Q1174"},"geometry":{"type":"Polygon","coordinates":[[[77.5851,30.3829],[77.2013,30.5002],[77.1151,30.7221],[76.7682,30.9076],[76.8146,30.7891],[76.8273,30.6807],[76.9049,30.3841],[76.7214,30.4106],[76.2288,30.1387],[76.2139,29.8587],[75.9569,29.7386],[75.4458,29.8062],[75.2382,29.7488],[74.8234,29.985],[74.5165,29.9472],[74.6128,29.3328],[74.8214,29.4029],[75.0796,29.2363],[75.3284,29.2962],[75.5936,28.6427],[76.0814,28.1746],[75.9357,27.9557],[76.215,27.8415],[76.1868,28.0745],[76.4535,28.1628],[76.5531,27.9712],[76.8566,28.229],[76.9406,28.123],[76.9105,27.6704],[77.2807,27.8094],[77.5293,27.9525],[77.497,28.3933],[77.3274,28.5197],[77.1936,28.4326],[76.8727,28.5194],[76.9365,28.8147],[77.2008,28.8768],[77.1498,29.4034],[77.0582,29.5555],[77.2299,29.9766],[77.5851,30.3829]]]}},{"type":"Feature","id":"label-IND-2430","properties":{"kind":"division-label","code":"IND-2430","countryCode":"IND","name":"Haryana","localName":"Haryana","labelEnglish":"Haryana","labelLocal":"Haryana","labelBoth":"Haryana","type":"State","iso":"IN-HR","qid":"Q1174"},"geometry":{"type":"Point","coordinates":[76.271,29.1003]}},{"type":"Feature","id":"IND-20011","properties":{"kind":"division","code":"IND-20011","countryCode":"IND","name":"Telangana","localName":"Telangana","labelEnglish":"Telangana","labelLocal":"Telangana","labelBoth":"Telangana","type":"State","iso":"IN-TG","qid":"Q677037"},"geometry":{"type":"Polygon","coordinates":[[[77.5512,18.3079],[77.6198,17.9257],[77.4115,17.6308],[77.6858,17.5672],[77.3744,17.2226],[77.4652,17.0426],[77.432,16.5936],[77.2574,16.4494],[77.4933,16.3782],[77.4465,15.953],[78.0875,15.833],[78.2444,16.0385],[78.7341,16.0303],[79.0217,16.2471],[79.1606,16.2193],[79.2656,16.5696],[79.8823,16.7032],[80.2205,17.0333],[80.351,16.8621],[80.5909,17.1398],[80.8931,17.1556],[81.4695,17.4205],[81.759,17.9089],[81.394,17.8067],[80.9856,17.8405],[80.9375,18.0863],[80.5026,18.6],[80.2704,18.7137],[79.9169,18.8266],[79.9655,19.4019],[79.7354,19.6034],[79.266,19.5896],[79.1977,19.4619],[78.78,19.7767],[78.3292,19.8913],[78.3994,19.7361],[78.1679,19.2641],[77.9031,19.3278],[77.752,19.0459],[77.9121,18.8354],[77.7124,18.6895],[77.5512,18.3079]]]}},{"type":"Feature","id":"label-IND-20011","properties":{"kind":"division-label","code":"IND-20011","countryCode":"IND","name":"Telangana","localName":"Telangana","labelEnglish":"Telangana","labelLocal":"Telangana","labelBoth":"Telangana","type":"State","iso":"IN-TG","qid":"Q677037"},"geometry":{"type":"Point","coordinates":[78.468441094,17.4273126817]}}]}