{"type":"FeatureCollection","features":[{"type":"Feature","id":"IOA-1928","properties":{"kind":"division","code":"IOA-1928","countryCode":"IOA","name":"Cocos","localName":"Cocos","labelEnglish":"Cocos","labelLocal":"Cocos","labelBoth":"Cocos","type":"Province","iso":"-99-X15~","qid":"Q36004"},"geometry":{"type":"Polygon","coordinates":[[[96.8631,-12.1817],[96.8306,-12.1799],[96.8452,-12.1977],[96.8631,-12.1817]]]}},{"type":"Feature","id":"label-IOA-1928","properties":{"kind":"division-label","code":"IOA-1928","countryCode":"IOA","name":"Cocos","localName":"Cocos","labelEnglish":"Cocos","labelLocal":"Cocos","labelBoth":"Cocos","type":"Province","iso":"-99-X15~","qid":"Q36004"},"geometry":{"type":"Point","coordinates":[96.905,-12.1915]}},{"type":"Feature","id":"IOA-2652","properties":{"kind":"division","code":"IOA-2652","countryCode":"IOA","name":"Christmas Island","localName":"Christmas Island","labelEnglish":"Christmas Island","labelLocal":"Christmas Island","labelBoth":"Christmas Island","type":null,"iso":"-99-X14~","qid":"Q31063"},"geometry":{"type":"Polygon","coordinates":[[[105.7041,-10.4308],[105.585,-10.5164],[105.6946,-10.5649],[105.7041,-10.4308]]]}},{"type":"Feature","id":"label-IOA-2652","properties":{"kind":"division-label","code":"IOA-2652","countryCode":"IOA","name":"Christmas Island","localName":"Christmas Island","labelEnglish":"Christmas Island","labelLocal":"Christmas Island","labelBoth":"Christmas Island","type":null,"iso":"-99-X14~","qid":"Q31063"},"geometry":{"type":"Point","coordinates":[105.648,-10.4913]}}]}