{"type":"FeatureCollection","features":[{"type":"Feature","id":"IOT+00?","properties":{"kind":"division","code":"IOT+00?","countryCode":"IOT","name":"British Indian Ocean Territory","localName":"British Indian Ocean Territory","labelEnglish":"British Indian Ocean Territory","labelLocal":"British Indian Ocean Territory","labelBoth":"British Indian Ocean Territory","type":null,"iso":"IO-X01~","qid":null},"geometry":{"type":"Polygon","coordinates":[[[72.4675,-7.3839],[72.4329,-7.4254],[72.4329,-7.3161],[72.3709,-7.2702],[72.3792,-7.2968],[72.426,-7.3229],[72.4329,-7.4322],[72.4675,-7.3839]]]}},{"type":"Feature","id":"label-IOT+00?","properties":{"kind":"division-label","code":"IOT+00?","countryCode":"IOT","name":"British Indian Ocean Territory","localName":"British Indian Ocean Territory","labelEnglish":"British Indian Ocean Territory","labelLocal":"British Indian Ocean Territory","labelBoth":"British Indian Ocean Territory","type":null,"iso":"IO-X01~","qid":null},"geometry":{"type":"Point","coordinates":[71.7425,-5.28054]}}]}