{"type":"FeatureCollection","features":[{"type":"Feature","id":"IRL-729","properties":{"kind":"division","code":"IRL-729","countryCode":"IRL","name":"Donegal","localName":"Donegal","labelEnglish":"Donegal","labelLocal":"Donegal","labelBoth":"Donegal","type":"County","iso":"IE-DL","qid":"Q179424"},"geometry":{"type":"Polygon","coordinates":[[[-7.2471,55.0693],[-6.9428,55.2186],[-7.3844,55.3864],[-8.2785,55.1605],[-8.6726,54.6195],[-8.1208,54.6466],[-8.3001,54.478],[-8.1685,54.4635],[-7.708,54.6048],[-7.4158,54.9444],[-7.2471,55.0693]]]}},{"type":"Feature","id":"label-IRL-729","properties":{"kind":"division-label","code":"IRL-729","countryCode":"IRL","name":"Donegal","localName":"Donegal","labelEnglish":"Donegal","labelLocal":"Donegal","labelBoth":"Donegal","type":"County","iso":"IE-DL","qid":"Q179424"},"geometry":{"type":"Point","coordinates":[-8.02986,54.8924]}},{"type":"Feature","id":"IRL-730","properties":{"kind":"division","code":"IRL-730","countryCode":"IRL","name":"Leitrim","localName":"Leitrim","labelEnglish":"Leitrim","labelLocal":"Leitrim","labelBoth":"Leitrim","type":"County","iso":"IE-LM","qid":"Q107397"},"geometry":{"type":"Polygon","coordinates":[[[-8.1685,54.4635],[-8.3001,54.478],[-8.3817,54.4686],[-8.1572,54.1081],[-7.922,53.8116],[-7.5988,53.9331],[-8.0353,54.1883],[-7.9421,54.2989],[-8.1685,54.4635]]]}},{"type":"Feature","id":"label-IRL-730","properties":{"kind":"division-label","code":"IRL-730","countryCode":"IRL","name":"Leitrim","localName":"Leitrim","labelEnglish":"Leitrim","labelLocal":"Leitrim","labelBoth":"Leitrim","type":"County","iso":"IE-LM","qid":"Q107397"},"geometry":{"type":"Point","coordinates":[-7.99465,54.0513]}},{"type":"Feature","id":"IRL-79","properties":{"kind":"division","code":"IRL-79","countryCode":"IRL","name":"Cavan","localName":"Cavan","labelEnglish":"Cavan","labelLocal":"Cavan","labelBoth":"Cavan","type":"County","iso":"IE-CN","qid":"Q187402"},"geometry":{"type":"Polygon","coordinates":[[[-7.9421,54.2989],[-8.0353,54.1883],[-7.5988,53.9331],[-7.3888,53.779],[-7.3385,53.7954],[-6.7483,53.914],[-7.3165,54.1143],[-7.9421,54.2989]]]}},{"type":"Feature","id":"label-IRL-79","properties":{"kind":"division-label","code":"IRL-79","countryCode":"IRL","name":"Cavan","localName":"Cavan","labelEnglish":"Cavan","labelLocal":"Cavan","labelBoth":"Cavan","type":"County","iso":"IE-CN","qid":"Q187402"},"geometry":{"type":"Point","coordinates":[-7.27176,53.9623]}},{"type":"Feature","id":"IRL-3412","properties":{"kind":"division","code":"IRL-3412","countryCode":"IRL","name":"Monaghan","localName":"Monaghan","labelEnglish":"Monaghan","labelLocal":"Monaghan","labelBoth":"Monaghan","type":"Administrative County","iso":"IE-MN","qid":"Q184760"},"geometry":{"type":"Polygon","coordinates":[[[-6.87,54.326],[-7.1895,54.3357],[-7.3165,54.1143],[-6.7483,53.914],[-6.6844,53.9051],[-6.6052,54.0445],[-6.6484,54.1737],[-6.87,54.326]]]}},{"type":"Feature","id":"label-IRL-3412","properties":{"kind":"division-label","code":"IRL-3412","countryCode":"IRL","name":"Monaghan","localName":"Monaghan","labelEnglish":"Monaghan","labelLocal":"Monaghan","labelBoth":"Monaghan","type":"Administrative County","iso":"IE-MN","qid":"Q184760"},"geometry":{"type":"Point","coordinates":[-6.94174,54.2106]}},{"type":"Feature","id":"IRL-712","properties":{"kind":"division","code":"IRL-712","countryCode":"IRL","name":"Louth","localName":"Louth","labelEnglish":"Louth","labelLocal":"Louth","labelBoth":"Louth","type":"County","iso":"IE-LH","qid":"Q183539"},"geometry":{"type":"Polygon","coordinates":[[[-6.2699,54.0979],[-6.6052,54.0445],[-6.6844,53.9051],[-6.2458,53.7296],[-6.2699,54.0979]]]}},{"type":"Feature","id":"label-IRL-712","properties":{"kind":"division-label","code":"IRL-712","countryCode":"IRL","name":"Louth","localName":"Louth","labelEnglish":"Louth","labelLocal":"Louth","labelBoth":"Louth","type":"County","iso":"IE-LH","qid":"Q183539"},"geometry":{"type":"Point","coordinates":[-6.48625,53.9259]}},{"type":"Feature","id":"IRL-5575","properties":{"kind":"division","code":"IRL-5575","countryCode":"IRL","name":"Dublin","localName":"Dublin","labelEnglish":"Dublin","labelLocal":"Dublin","labelBoth":"Dublin","type":"County","iso":"IE-D","qid":"Q173500"},"geometry":{"type":"Polygon","coordinates":[[[-6.1498,53.3865],[-6.3475,53.3595],[-6.2727,53.3096],[-6.1805,53.3173],[-6.1498,53.3865]]]}},{"type":"Feature","id":"label-IRL-5575","properties":{"kind":"division-label","code":"IRL-5575","countryCode":"IRL","name":"Dublin","localName":"Dublin","labelEnglish":"Dublin","labelLocal":"Dublin","labelBoth":"Dublin","type":"County","iso":"IE-D","qid":"Q173500"},"geometry":{"type":"Point","coordinates":[-6.26188,53.3683]}},{"type":"Feature","id":"IRL-5576","properties":{"kind":"division","code":"IRL-5576","countryCode":"IRL","name":"Dún Laoghaire–Rathdown","localName":"Dún Laoghaire–Rathdown","labelEnglish":"Dún Laoghaire–Rathdown","labelLocal":"Dún Laoghaire–Rathdown","labelBoth":"Dún Laoghaire–Rathdown","type":"County","iso":"IE-D","qid":null},"geometry":{"type":"Polygon","coordinates":[[[-6.1805,53.3173],[-6.2727,53.3096],[-6.2856,53.2171],[-6.0889,53.2041],[-6.1805,53.3173]]]}},{"type":"Feature","id":"label-IRL-5576","properties":{"kind":"division-label","code":"IRL-5576","countryCode":"IRL","name":"Dún Laoghaire–Rathdown","localName":"Dún Laoghaire–Rathdown","labelEnglish":"Dún Laoghaire–Rathdown","labelLocal":"Dún Laoghaire–Rathdown","labelBoth":"Dún Laoghaire–Rathdown","type":"County","iso":"IE-D","qid":null},"geometry":{"type":"Point","coordinates":[-6.18788,53.26]}},{"type":"Feature","id":"IRL-719","properties":{"kind":"division","code":"IRL-719","countryCode":"IRL","name":"Wicklow","localName":"Wicklow","labelEnglish":"Wicklow","labelLocal":"Wicklow","labelBoth":"Wicklow","type":"County","iso":"IE-WW","qid":"Q182591"},"geometry":{"type":"Polygon","coordinates":[[[-6.0889,53.2041],[-6.2856,53.2171],[-6.468,53.224],[-6.731,52.9159],[-6.6091,52.7117],[-6.151,52.7416],[-5.9966,52.9649],[-6.0889,53.2041]]]}},{"type":"Feature","id":"label-IRL-719","properties":{"kind":"division-label","code":"IRL-719","countryCode":"IRL","name":"Wicklow","localName":"Wicklow","labelEnglish":"Wicklow","labelLocal":"Wicklow","labelBoth":"Wicklow","type":"County","iso":"IE-WW","qid":"Q182591"},"geometry":{"type":"Point","coordinates":[-6.38849,52.9947]}},{"type":"Feature","id":"IRL-718","properties":{"kind":"division","code":"IRL-718","countryCode":"IRL","name":"Wexford","localName":"Wexford","labelEnglish":"Wexford","labelLocal":"Wexford","labelBoth":"Wexford","type":"County","iso":"IE-WX","qid":"Q184599"},"geometry":{"type":"Polygon","coordinates":[[[-6.151,52.7416],[-6.6091,52.7117],[-6.9233,52.4659],[-6.9945,52.2775],[-6.3699,52.18],[-6.151,52.7416]]]}},{"type":"Feature","id":"label-IRL-718","properties":{"kind":"division-label","code":"IRL-718","countryCode":"IRL","name":"Wexford","localName":"Wexford","labelEnglish":"Wexford","labelLocal":"Wexford","labelBoth":"Wexford","type":"County","iso":"IE-WX","qid":"Q184599"},"geometry":{"type":"Point","coordinates":[-6.58517,52.4423]}},{"type":"Feature","id":"IRL-722","properties":{"kind":"division","code":"IRL-722","countryCode":"IRL","name":"Kilkenny","localName":"Kilkenny","labelEnglish":"Kilkenny","labelLocal":"Kilkenny","labelBoth":"Kilkenny","type":"County","iso":"IE-KK","qid":"Q180231"},"geometry":{"type":"Polygon","coordinates":[[[-6.9945,52.2775],[-6.9233,52.4659],[-7.0474,52.7932],[-7.1926,52.8867],[-7.6682,52.7798],[-7.6296,52.7315],[-7.3646,52.3356],[-7.153,52.2715],[-7.0341,52.2571],[-6.9919,52.2668],[-6.9945,52.2775]]]}},{"type":"Feature","id":"label-IRL-722","properties":{"kind":"division-label","code":"IRL-722","countryCode":"IRL","name":"Kilkenny","localName":"Kilkenny","labelEnglish":"Kilkenny","labelLocal":"Kilkenny","labelBoth":"Kilkenny","type":"County","iso":"IE-KK","qid":"Q180231"},"geometry":{"type":"Point","coordinates":[-7.2941,52.5758]}},{"type":"Feature","id":"IRL-1444","properties":{"kind":"division","code":"IRL-1444","countryCode":"IRL","name":"Waterford","localName":"Waterford","labelEnglish":"Waterford","labelLocal":"Waterford","labelBoth":"Waterford","type":"County","iso":"IE-WD","qid":"Q184594"},"geometry":{"type":"Polygon","coordinates":[[[-6.9919,52.2668],[-7.0341,52.2571],[-7.1004,52.207],[-7.153,52.2715],[-7.3646,52.3356],[-8.0991,52.2092],[-7.8518,51.9771],[-7.4355,52.1257],[-7.0172,52.1384],[-6.9919,52.2668]]]}},{"type":"Feature","id":"label-IRL-1444","properties":{"kind":"division-label","code":"IRL-1444","countryCode":"IRL","name":"Waterford","localName":"Waterford","labelEnglish":"Waterford","labelLocal":"Waterford","labelBoth":"Waterford","type":"County","iso":"IE-WD","qid":"Q184594"},"geometry":{"type":"Point","coordinates":[-7.59292,52.199]}},{"type":"Feature","id":"IRL-78","properties":{"kind":"division","code":"IRL-78","countryCode":"IRL","name":"Cork","localName":"Cork","labelEnglish":"Cork","labelLocal":"Cork","labelBoth":"Cork","type":"County","iso":"IE-CO","qid":"Q162475"},"geometry":{"type":"Polygon","coordinates":[[[-7.8518,51.9771],[-8.0991,52.2092],[-8.1846,52.2812],[-8.8033,52.3785],[-9.2166,52.294],[-9.1306,51.9796],[-9.4467,51.7899],[-9.8609,51.7548],[-10.0288,51.5965],[-9.5255,51.7269],[-9.8202,51.4457],[-8.6962,51.5766],[-8.3017,51.7582],[-8.3961,51.8768],[-8.5436,51.8681],[-8.4938,51.9239],[-8.3885,51.8935],[-8.0041,51.8299],[-7.8518,51.9771]]]}},{"type":"Feature","id":"label-IRL-78","properties":{"kind":"division-label","code":"IRL-78","countryCode":"IRL","name":"Cork","localName":"Cork","labelEnglish":"Cork","labelLocal":"Cork","labelBoth":"Cork","type":"County","iso":"IE-CO","qid":"Q162475"},"geometry":{"type":"Point","coordinates":[-8.83835,51.9396]}},{"type":"Feature","id":"IRL-5569","properties":{"kind":"division","code":"IRL-5569","countryCode":"IRL","name":"Cork","localName":"Cork","labelEnglish":"Cork","labelLocal":"Cork","labelBoth":"Cork","type":"City","iso":"IE-CO","qid":"Q162475"},"geometry":{"type":"Polygon","coordinates":[[[-8.3885,51.8935],[-8.4938,51.9239],[-8.5436,51.8681],[-8.3961,51.8768],[-8.3885,51.8935]]]}},{"type":"Feature","id":"label-IRL-5569","properties":{"kind":"division-label","code":"IRL-5569","countryCode":"IRL","name":"Cork","localName":"Cork","labelEnglish":"Cork","labelLocal":"Cork","labelBoth":"Cork","type":"City","iso":"IE-CO","qid":"Q162475"},"geometry":{"type":"Point","coordinates":[-8.47351,51.8868]}},{"type":"Feature","id":"IRL-725","properties":{"kind":"division","code":"IRL-725","countryCode":"IRL","name":"Kerry","localName":"Kerry","labelEnglish":"Kerry","labelLocal":"Kerry","labelBoth":"Kerry","type":"County","iso":"IE-KY","qid":"Q184469"},"geometry":{"type":"Polygon","coordinates":[[[-9.8609,51.7548],[-9.4467,51.7899],[-9.1306,51.9796],[-9.2166,52.294],[-9.3625,52.5754],[-9.9499,52.4121],[-10.4608,52.103],[-9.9084,52.1309],[-10.3819,51.8777],[-9.8609,51.7548]]]}},{"type":"Feature","id":"label-IRL-725","properties":{"kind":"division-label","code":"IRL-725","countryCode":"IRL","name":"Kerry","localName":"Kerry","labelEnglish":"Kerry","labelLocal":"Kerry","labelBoth":"Kerry","type":"County","iso":"IE-KY","qid":"Q184469"},"geometry":{"type":"Point","coordinates":[-9.5547,52.1195]}},{"type":"Feature","id":"IRL-726","properties":{"kind":"division","code":"IRL-726","countryCode":"IRL","name":"Limerick","localName":"Limerick","labelEnglish":"Limerick","labelLocal":"Limerick","labelBoth":"Limerick","type":"County","iso":"IE-LK","qid":"Q178283"},"geometry":{"type":"Polygon","coordinates":[[[-9.3625,52.5754],[-9.2166,52.294],[-8.8033,52.3785],[-8.1846,52.2812],[-8.3698,52.4376],[-8.1874,52.6654],[-8.477,52.7551],[-8.568,52.6765],[-8.5875,52.6236],[-8.6658,52.6529],[-8.7512,52.673],[-9.3625,52.5754]]]}},{"type":"Feature","id":"label-IRL-726","properties":{"kind":"division-label","code":"IRL-726","countryCode":"IRL","name":"Limerick","localName":"Limerick","labelEnglish":"Limerick","labelLocal":"Limerick","labelBoth":"Limerick","type":"County","iso":"IE-LK","qid":"Q178283"},"geometry":{"type":"Point","coordinates":[-8.75892,52.5242]}},{"type":"Feature","id":"IRL-76","properties":{"kind":"division","code":"IRL-76","countryCode":"IRL","name":"Clare","localName":"Clare","labelEnglish":"Clare","labelLocal":"Clare","labelBoth":"Clare","type":"County","iso":"IE-CE","qid":"Q181862"},"geometry":{"type":"Polygon","coordinates":[[[-8.7512,52.673],[-8.6658,52.6529],[-8.568,52.6765],[-8.477,52.7551],[-8.3094,52.9801],[-8.8771,52.9739],[-9.0041,53.1469],[-9.2722,53.1467],[-9.4986,52.7525],[-9.8241,52.5952],[-8.7512,52.673]]]}},{"type":"Feature","id":"label-IRL-76","properties":{"kind":"division-label","code":"IRL-76","countryCode":"IRL","name":"Clare","localName":"Clare","labelEnglish":"Clare","labelLocal":"Clare","labelBoth":"Clare","type":"County","iso":"IE-CE","qid":"Q181862"},"geometry":{"type":"Point","coordinates":[-9.10704,52.8909]}},{"type":"Feature","id":"IRL-713","properties":{"kind":"division","code":"IRL-713","countryCode":"IRL","name":"Galway","localName":"Galway","labelEnglish":"Galway","labelLocal":"Galway","labelBoth":"Galway","type":"County","iso":"IE-G","qid":"Q169923"},"geometry":{"type":"Polygon","coordinates":[[[-9.0041,53.1469],[-8.8771,52.9739],[-8.3094,52.9801],[-8.0765,53.1704],[-8.0457,53.2762],[-8.4749,53.7139],[-8.8171,53.6681],[-9.1874,53.4752],[-9.6968,53.6026],[-10.1803,53.5555],[-9.6123,53.2362],[-9.1199,53.2619],[-9.0403,53.3319],[-8.9426,53.2618],[-9.0041,53.1469]]]}},{"type":"Feature","id":"label-IRL-713","properties":{"kind":"division-label","code":"IRL-713","countryCode":"IRL","name":"Galway","localName":"Galway","labelEnglish":"Galway","labelLocal":"Galway","labelBoth":"Galway","type":"County","iso":"IE-G","qid":"Q169923"},"geometry":{"type":"Point","coordinates":[-8.61598,53.4045]}},{"type":"Feature","id":"IRL-5568","properties":{"kind":"division","code":"IRL-5568","countryCode":"IRL","name":"Galway","localName":"Galway","labelEnglish":"Galway","labelLocal":"Galway","labelBoth":"Galway","type":"City","iso":"IE-G","qid":"Q169923"},"geometry":{"type":"Polygon","coordinates":[[[-8.9426,53.2618],[-9.0403,53.3319],[-9.1199,53.2619],[-8.9426,53.2618]]]}},{"type":"Feature","id":"label-IRL-5568","properties":{"kind":"division-label","code":"IRL-5568","countryCode":"IRL","name":"Galway","localName":"Galway","labelEnglish":"Galway","labelLocal":"Galway","labelBoth":"Galway","type":"City","iso":"IE-G","qid":"Q169923"},"geometry":{"type":"Point","coordinates":[-9.03273,53.302]}},{"type":"Feature","id":"IRL-714","properties":{"kind":"division","code":"IRL-714","countryCode":"IRL","name":"Mayo","localName":"Mayo","labelEnglish":"Mayo","labelLocal":"Mayo","labelBoth":"Mayo","type":"County","iso":"IE-MO","qid":"Q178626"},"geometry":{"type":"Polygon","coordinates":[[[-9.6968,53.6026],[-9.1874,53.4752],[-8.8171,53.6681],[-8.5832,53.9582],[-9.1339,54.1651],[-9.2196,54.2806],[-9.844,54.3288],[-10.0109,54.2183],[-9.5664,53.7963],[-9.9084,53.7621],[-9.6968,53.6026]]]}},{"type":"Feature","id":"label-IRL-714","properties":{"kind":"division-label","code":"IRL-714","countryCode":"IRL","name":"Mayo","localName":"Mayo","labelEnglish":"Mayo","labelLocal":"Mayo","labelBoth":"Mayo","type":"County","iso":"IE-MO","qid":"Q178626"},"geometry":{"type":"Point","coordinates":[-9.23048,53.895]}},{"type":"Feature","id":"IRL-728","properties":{"kind":"division","code":"IRL-728","countryCode":"IRL","name":"Sligo","localName":"Sligo","labelEnglish":"Sligo","labelLocal":"Sligo","labelBoth":"Sligo","type":"County","iso":"IE-SO","qid":"Q179325"},"geometry":{"type":"Polygon","coordinates":[[[-9.1339,54.1651],[-8.5832,53.9582],[-8.1572,54.1081],[-8.3817,54.4686],[-8.4703,54.2766],[-9.0513,54.2895],[-9.1339,54.1651]]]}},{"type":"Feature","id":"label-IRL-728","properties":{"kind":"division-label","code":"IRL-728","countryCode":"IRL","name":"Sligo","localName":"Sligo","labelEnglish":"Sligo","labelLocal":"Sligo","labelBoth":"Sligo","type":"County","iso":"IE-SO","qid":"Q179325"},"geometry":{"type":"Point","coordinates":[-8.489,54.1277]}},{"type":"Feature","id":"IRL-715","properties":{"kind":"division","code":"IRL-715","countryCode":"IRL","name":"Meath","localName":"Meath","labelEnglish":"Meath","labelLocal":"Meath","labelBoth":"Meath","type":"County","iso":"IE-MH","qid":"Q183544"},"geometry":{"type":"Polygon","coordinates":[[[-6.2458,53.7296],[-6.6844,53.9051],[-6.7483,53.914],[-7.3385,53.7954],[-6.9476,53.649],[-7.1816,53.4276],[-7.0738,53.3757],[-6.4563,53.3884],[-6.198,53.6345],[-6.2458,53.7296]]]}},{"type":"Feature","id":"label-IRL-715","properties":{"kind":"division-label","code":"IRL-715","countryCode":"IRL","name":"Meath","localName":"Meath","labelEnglish":"Meath","labelLocal":"Meath","labelBoth":"Meath","type":"County","iso":"IE-MH","qid":"Q183544"},"geometry":{"type":"Point","coordinates":[-6.71387,53.6324]}},{"type":"Feature","id":"IRL-5574","properties":{"kind":"division","code":"IRL-5574","countryCode":"IRL","name":"Fingal","localName":"Fingal","labelEnglish":"Fingal","labelLocal":"Fingal","labelBoth":"Fingal","type":"County","iso":"IE-D","qid":"Q520000"},"geometry":{"type":"Polygon","coordinates":[[[-6.198,53.6345],[-6.4563,53.3884],[-6.4715,53.3697],[-6.3475,53.3595],[-6.1498,53.3865],[-6.198,53.6345]]]}},{"type":"Feature","id":"label-IRL-5574","properties":{"kind":"division-label","code":"IRL-5574","countryCode":"IRL","name":"Fingal","localName":"Fingal","labelEnglish":"Fingal","labelLocal":"Fingal","labelBoth":"Fingal","type":"County","iso":"IE-D","qid":"Q520000"},"geometry":{"type":"Point","coordinates":[-6.2769,53.4927]}},{"type":"Feature","id":"IRL-721","properties":{"kind":"division","code":"IRL-721","countryCode":"IRL","name":"Kildare","localName":"Kildare","labelEnglish":"Kildare","labelLocal":"Kildare","labelBoth":"Kildare","type":"County","iso":"IE-KE","qid":"Q173332"},"geometry":{"type":"Polygon","coordinates":[[[-6.731,52.9159],[-6.468,53.224],[-6.4715,53.3697],[-6.4563,53.3884],[-7.0738,53.3757],[-7.0921,53.167],[-6.931,52.8845],[-6.731,52.9159]]]}},{"type":"Feature","id":"label-IRL-721","properties":{"kind":"division-label","code":"IRL-721","countryCode":"IRL","name":"Kildare","localName":"Kildare","labelEnglish":"Kildare","labelLocal":"Kildare","labelBoth":"Kildare","type":"County","iso":"IE-KE","qid":"Q173332"},"geometry":{"type":"Point","coordinates":[-6.79999,53.1364]}},{"type":"Feature","id":"IRL-77","properties":{"kind":"division","code":"IRL-77","countryCode":"IRL","name":"Carlow","localName":"Carlow","labelEnglish":"Carlow","labelLocal":"Carlow","labelBoth":"Carlow","type":"County","iso":"IE-CW","qid":"Q181882"},"geometry":{"type":"Polygon","coordinates":[[[-6.731,52.9159],[-6.931,52.8845],[-7.0474,52.7932],[-6.9233,52.4659],[-6.6091,52.7117],[-6.731,52.9159]]]}},{"type":"Feature","id":"label-IRL-77","properties":{"kind":"division-label","code":"IRL-77","countryCode":"IRL","name":"Carlow","localName":"Carlow","labelEnglish":"Carlow","labelLocal":"Carlow","labelBoth":"Carlow","type":"County","iso":"IE-CW","qid":"Q181882"},"geometry":{"type":"Point","coordinates":[-6.79431,52.715]}},{"type":"Feature","id":"IRL-723","properties":{"kind":"division","code":"IRL-723","countryCode":"IRL","name":"Laois","localName":"Laois","labelEnglish":"Laois","labelLocal":"Laois","labelBoth":"Laois","type":"County","iso":"IE-LS","qid":"Q55299"},"geometry":{"type":"Polygon","coordinates":[[[-6.931,52.8845],[-7.0921,53.167],[-7.6251,53.1634],[-7.7285,52.9559],[-7.6682,52.7798],[-7.1926,52.8867],[-7.0474,52.7932],[-6.931,52.8845]]]}},{"type":"Feature","id":"label-IRL-723","properties":{"kind":"division-label","code":"IRL-723","countryCode":"IRL","name":"Laois","localName":"Laois","labelEnglish":"Laois","labelLocal":"Laois","labelBoth":"Laois","type":"County","iso":"IE-LS","qid":"Q55299"},"geometry":{"type":"Point","coordinates":[-7.32962,53.0116]}},{"type":"Feature","id":"IRL-5573","properties":{"kind":"division","code":"IRL-5573","countryCode":"IRL","name":"South Dublin","localName":"South Dublin","labelEnglish":"South Dublin","labelLocal":"South Dublin","labelBoth":"South Dublin","type":"County","iso":"IE-D","qid":null},"geometry":{"type":"Polygon","coordinates":[[[-6.468,53.224],[-6.2856,53.2171],[-6.2727,53.3096],[-6.3475,53.3595],[-6.4715,53.3697],[-6.468,53.224]]]}},{"type":"Feature","id":"label-IRL-5573","properties":{"kind":"division-label","code":"IRL-5573","countryCode":"IRL","name":"South Dublin","localName":"South Dublin","labelEnglish":"South Dublin","labelLocal":"South Dublin","labelBoth":"South Dublin","type":"County","iso":"IE-D","qid":null},"geometry":{"type":"Point","coordinates":[-6.40147,53.2831]}},{"type":"Feature","id":"IRL-716","properties":{"kind":"division","code":"IRL-716","countryCode":"IRL","name":"Offaly","localName":"Offaly","labelEnglish":"Offaly","labelLocal":"Offaly","labelBoth":"Offaly","type":"County","iso":"IE-OY","qid":"Q184445"},"geometry":{"type":"Polygon","coordinates":[[[-7.0738,53.3757],[-7.1816,53.4276],[-7.9441,53.3667],[-8.0457,53.2762],[-8.0765,53.1704],[-7.9657,52.8531],[-7.7285,52.9559],[-7.6251,53.1634],[-7.0921,53.167],[-7.0738,53.3757]]]}},{"type":"Feature","id":"label-IRL-716","properties":{"kind":"division-label","code":"IRL-716","countryCode":"IRL","name":"Offaly","localName":"Offaly","labelEnglish":"Offaly","labelLocal":"Offaly","labelBoth":"Offaly","type":"County","iso":"IE-OY","qid":"Q184445"},"geometry":{"type":"Point","coordinates":[-7.53214,53.2565]}},{"type":"Feature","id":"IRL-717","properties":{"kind":"division","code":"IRL-717","countryCode":"IRL","name":"Westmeath","localName":"Westmeath","labelEnglish":"Westmeath","labelLocal":"Westmeath","labelBoth":"Westmeath","type":"County","iso":"IE-WH","qid":"Q182633"},"geometry":{"type":"Polygon","coordinates":[[[-7.3385,53.7954],[-7.3888,53.779],[-7.6521,53.5446],[-7.963,53.5243],[-7.9441,53.3667],[-7.1816,53.4276],[-6.9476,53.649],[-7.3385,53.7954]]]}},{"type":"Feature","id":"label-IRL-717","properties":{"kind":"division-label","code":"IRL-717","countryCode":"IRL","name":"Westmeath","localName":"Westmeath","labelEnglish":"Westmeath","labelLocal":"Westmeath","labelBoth":"Westmeath","type":"County","iso":"IE-WH","qid":"Q182633"},"geometry":{"type":"Point","coordinates":[-7.4553,53.5252]}},{"type":"Feature","id":"IRL-731","properties":{"kind":"division","code":"IRL-731","countryCode":"IRL","name":"Longford","localName":"Longford","labelEnglish":"Longford","labelLocal":"Longford","labelBoth":"Longford","type":"County","iso":"IE-LD","qid":"Q186220"},"geometry":{"type":"Polygon","coordinates":[[[-7.3888,53.779],[-7.5988,53.9331],[-7.922,53.8116],[-7.963,53.5243],[-7.6521,53.5446],[-7.3888,53.779]]]}},{"type":"Feature","id":"label-IRL-731","properties":{"kind":"division-label","code":"IRL-731","countryCode":"IRL","name":"Longford","localName":"Longford","labelEnglish":"Longford","labelLocal":"Longford","labelBoth":"Longford","type":"County","iso":"IE-LD","qid":"Q186220"},"geometry":{"type":"Point","coordinates":[-7.70239,53.7166]}},{"type":"Feature","id":"IRL-727","properties":{"kind":"division","code":"IRL-727","countryCode":"IRL","name":"Roscommon","localName":"Roscommon","labelEnglish":"Roscommon","labelLocal":"Roscommon","labelBoth":"Roscommon","type":"County","iso":"IE-RN","qid":"Q179437"},"geometry":{"type":"Polygon","coordinates":[[[-7.9441,53.3667],[-7.963,53.5243],[-7.922,53.8116],[-8.1572,54.1081],[-8.5832,53.9582],[-8.8171,53.6681],[-8.4749,53.7139],[-8.0457,53.2762],[-7.9441,53.3667]]]}},{"type":"Feature","id":"label-IRL-727","properties":{"kind":"division-label","code":"IRL-727","countryCode":"IRL","name":"Roscommon","localName":"Roscommon","labelEnglish":"Roscommon","labelLocal":"Roscommon","labelBoth":"Roscommon","type":"County","iso":"IE-RN","qid":"Q179437"},"geometry":{"type":"Point","coordinates":[-8.21208,53.7738]}},{"type":"Feature","id":"IRL-724","properties":{"kind":"division","code":"IRL-724","countryCode":"IRL","name":"Tipperary","localName":"Tipperary","labelEnglish":"Tipperary","labelLocal":"Tipperary","labelBoth":"Tipperary","type":"County","iso":"IE-TA","qid":"Q184618"},"geometry":{"type":"Polygon","coordinates":[[[-7.7285,52.9559],[-7.9657,52.8531],[-8.0765,53.1704],[-8.3094,52.9801],[-8.477,52.7551],[-8.1874,52.6654],[-7.6982,52.5996],[-7.6296,52.7315],[-7.6682,52.7798],[-7.7285,52.9559]]]}},{"type":"Feature","id":"label-IRL-724","properties":{"kind":"division-label","code":"IRL-724","countryCode":"IRL","name":"Tipperary","localName":"Tipperary","labelEnglish":"Tipperary","labelLocal":"Tipperary","labelBoth":"Tipperary","type":"County","iso":"IE-TA","qid":"Q184618"},"geometry":{"type":"Point","coordinates":[-7.97632,52.7597]}},{"type":"Feature","id":"IRL-5572","properties":{"kind":"division","code":"IRL-5572","countryCode":"IRL","name":"Tipperary","localName":"Tipperary","labelEnglish":"Tipperary","labelLocal":"Tipperary","labelBoth":"Tipperary","type":"County","iso":"IE-TA","qid":"Q184618"},"geometry":{"type":"Polygon","coordinates":[[[-7.3646,52.3356],[-7.6296,52.7315],[-7.6982,52.5996],[-8.1874,52.6654],[-8.3698,52.4376],[-8.1846,52.2812],[-8.0991,52.2092],[-7.3646,52.3356]]]}},{"type":"Feature","id":"label-IRL-5572","properties":{"kind":"division-label","code":"IRL-5572","countryCode":"IRL","name":"Tipperary","localName":"Tipperary","labelEnglish":"Tipperary","labelLocal":"Tipperary","labelBoth":"Tipperary","type":"County","iso":"IE-TA","qid":"Q184618"},"geometry":{"type":"Point","coordinates":[-7.83145,52.4462]}},{"type":"Feature","id":"IRL-5571","properties":{"kind":"division","code":"IRL-5571","countryCode":"IRL","name":"Waterford","localName":"Waterford","labelEnglish":"Waterford","labelLocal":"Waterford","labelBoth":"Waterford","type":"City","iso":"IE-WD","qid":"Q184594"},"geometry":{"type":"Polygon","coordinates":[[[-7.153,52.2715],[-7.1004,52.207],[-7.0341,52.2571],[-7.153,52.2715]]]}},{"type":"Feature","id":"label-IRL-5571","properties":{"kind":"division-label","code":"IRL-5571","countryCode":"IRL","name":"Waterford","localName":"Waterford","labelEnglish":"Waterford","labelLocal":"Waterford","labelBoth":"Waterford","type":"City","iso":"IE-WD","qid":"Q184594"},"geometry":{"type":"Point","coordinates":[-7.07931,52.2284]}},{"type":"Feature","id":"IRL-5570","properties":{"kind":"division","code":"IRL-5570","countryCode":"IRL","name":"Limerick","localName":"Limerick","labelEnglish":"Limerick","labelLocal":"Limerick","labelBoth":"Limerick","type":"City","iso":"IE-LK","qid":"Q178283"},"geometry":{"type":"Polygon","coordinates":[[[-8.568,52.6765],[-8.6658,52.6529],[-8.5875,52.6236],[-8.568,52.6765]]]}},{"type":"Feature","id":"label-IRL-5570","properties":{"kind":"division-label","code":"IRL-5570","countryCode":"IRL","name":"Limerick","localName":"Limerick","labelEnglish":"Limerick","labelLocal":"Limerick","labelBoth":"Limerick","type":"City","iso":"IE-LK","qid":"Q178283"},"geometry":{"type":"Point","coordinates":[-8.60278,52.6485]}}]}