{"type":"FeatureCollection","features":[{"type":"Feature","id":"IRN-3237","properties":{"kind":"division","code":"IRN-3237","countryCode":"IRN","name":"West Azerbaijan","localName":"West Azerbaijan","labelEnglish":"West Azerbaijan","labelLocal":"West Azerbaijan","labelBoth":"West Azerbaijan","type":"Province","iso":"IR-02","qid":"Q134411"},"geometry":{"type":"Polygon","coordinates":[[[44.807,39.6399],[44.4583,39.6425],[44.4048,39.4344],[44.0474,39.3375],[44.275,38.8436],[44.2895,38.3823],[44.4592,38.3224],[44.205,37.9048],[44.5961,37.7164],[44.5659,37.4472],[44.7661,37.1419],[44.8312,36.7919],[45.0095,36.5162],[45.2389,36.403],[45.3596,35.9769],[45.5014,36.0054],[46.0464,36.4481],[46.8152,36.4578],[47.141,36.3412],[47.3323,36.5077],[47.1938,36.7568],[46.8229,36.7875],[46.6388,37.0589],[46.2929,36.8777],[45.9235,37.1092],[45.3947,37.2819],[45.1026,38.2337],[45.3282,38.5248],[45.4945,38.9819],[45.1144,39.3094],[45.0512,39.3871],[44.824,39.6305],[44.807,39.6399]]]}},{"type":"Feature","id":"label-IRN-3237","properties":{"kind":"division-label","code":"IRN-3237","countryCode":"IRN","name":"West Azerbaijan","localName":"West Azerbaijan","labelEnglish":"West Azerbaijan","labelLocal":"West Azerbaijan","labelBoth":"West Azerbaijan","type":"Province","iso":"IR-02","qid":"Q134411"},"geometry":{"type":"Point","coordinates":[45.6734,36.6666]}},{"type":"Feature","id":"IRN-3238","properties":{"kind":"division","code":"IRN-3238","countryCode":"IRN","name":"East Azerbaijan","localName":"East Azerbaijan","labelEnglish":"East Azerbaijan","labelLocal":"East Azerbaijan","labelBoth":"East Azerbaijan","type":"Province","iso":"IR-01","qid":"Q176081"},"geometry":{"type":"Polygon","coordinates":[[[46.514,38.8822],[46.1359,38.8637],[45.7681,38.9391],[45.5356,38.9685],[45.4945,38.9819],[45.3282,38.5248],[45.1026,38.2337],[45.3947,37.2819],[45.9235,37.1092],[46.2929,36.8777],[46.6388,37.0589],[46.8229,36.7875],[47.1938,36.7568],[47.6207,37.1666],[48.4553,37.2239],[47.9437,37.566],[47.9555,37.8322],[47.7128,38.2357],[47.2317,38.2524],[47.4238,38.5252],[47.6123,38.558],[47.5256,39.0831],[47.2382,38.9814],[46.9975,38.6888],[46.6452,38.6591],[46.6589,38.866],[46.9861,38.9434],[47.0136,39.187],[46.8664,39.1654],[46.514,38.8822]]]}},{"type":"Feature","id":"label-IRN-3238","properties":{"kind":"division-label","code":"IRN-3238","countryCode":"IRN","name":"East Azerbaijan","localName":"East Azerbaijan","labelEnglish":"East Azerbaijan","labelLocal":"East Azerbaijan","labelBoth":"East Azerbaijan","type":"Province","iso":"IR-01","qid":"Q176081"},"geometry":{"type":"Point","coordinates":[46.7723,37.8501]}},{"type":"Feature","id":"IRN-3230","properties":{"kind":"division","code":"IRN-3230","countryCode":"IRN","name":"Ardabil","localName":"Ardabil","labelEnglish":"Ardabil","labelLocal":"Ardabil","labelBoth":"Ardabil","type":"Province","iso":"IR-03","qid":"Q134228"},"geometry":{"type":"Polygon","coordinates":[[[47.9577,39.7073],[47.7882,39.6577],[47.625,39.5714],[47.2613,39.3664],[47.0136,39.187],[46.9861,38.9434],[46.6589,38.866],[46.6452,38.6591],[46.9975,38.6888],[47.2382,38.9814],[47.5256,39.0831],[47.6123,38.558],[47.4238,38.5252],[47.2317,38.2524],[47.7128,38.2357],[47.9555,37.8322],[47.9437,37.566],[48.4553,37.2239],[48.8825,37.2028],[48.8666,37.3521],[48.4561,37.8803],[48.7456,38.2774],[48.613,38.3956],[48.5356,38.4692],[48.2256,38.7132],[48.013,38.8216],[48.3016,39.0179],[48.1246,39.2976],[48.3284,39.3763],[47.9577,39.7073]]]}},{"type":"Feature","id":"label-IRN-3230","properties":{"kind":"division-label","code":"IRN-3230","countryCode":"IRN","name":"Ardabil","localName":"Ardabil","labelEnglish":"Ardabil","labelLocal":"Ardabil","labelBoth":"Ardabil","type":"Province","iso":"IR-03","qid":"Q134228"},"geometry":{"type":"Point","coordinates":[47.7241,38.9113]}},{"type":"Feature","id":"IRN-3240","properties":{"kind":"division","code":"IRN-3240","countryCode":"IRN","name":"Gilan","localName":"Gilan","labelEnglish":"Gilan","labelLocal":"Gilan","labelBoth":"Gilan","type":"Province","iso":"IR-19","qid":"Q928828"},"geometry":{"type":"Polygon","coordinates":[[[48.613,38.3956],[48.7456,38.2774],[48.4561,37.8803],[48.8666,37.3521],[48.8825,37.2028],[49.2458,36.8131],[49.4723,36.6243],[49.8053,36.562],[50.3046,36.6703],[50.5763,36.9892],[50.1488,37.4039],[49.4417,37.4949],[49.1325,37.6234],[48.9402,37.925],[48.8743,38.4341],[48.613,38.3956]]]}},{"type":"Feature","id":"label-IRN-3240","properties":{"kind":"division-label","code":"IRN-3240","countryCode":"IRN","name":"Gilan","localName":"Gilan","labelEnglish":"Gilan","labelLocal":"Gilan","labelBoth":"Gilan","type":"Province","iso":"IR-19","qid":"Q928828"},"geometry":{"type":"Point","coordinates":[49.5162,37.0503]}},{"type":"Feature","id":"IRN-3241","properties":{"kind":"division","code":"IRN-3241","countryCode":"IRN","name":"Kurdistan","localName":"Kurdistan","labelEnglish":"Kurdistan","labelLocal":"Kurdistan","labelBoth":"Kurdistan","type":"Province","iso":"IR-16","qid":"Q134386"},"geometry":{"type":"Polygon","coordinates":[[[45.5014,36.0054],[45.7187,35.8283],[46.2814,35.8283],[45.9959,35.6584],[46.1253,35.285],[46.3429,35.1548],[46.6796,34.7425],[47.4698,35.168],[47.8515,34.9512],[48.1515,35.0978],[47.7995,35.5872],[48.2257,35.6902],[47.9036,35.889],[47.9677,36.16],[47.8651,36.4034],[47.3323,36.5077],[47.141,36.3412],[46.8152,36.4578],[46.0464,36.4481],[45.5014,36.0054]]]}},{"type":"Feature","id":"label-IRN-3241","properties":{"kind":"division-label","code":"IRN-3241","countryCode":"IRN","name":"Kurdistan","localName":"Kurdistan","labelEnglish":"Kurdistan","labelLocal":"Kurdistan","labelBoth":"Kurdistan","type":"Province","iso":"IR-16","qid":"Q134386"},"geometry":{"type":"Point","coordinates":[46.8636,35.5778]}},{"type":"Feature","id":"IRN-3239","properties":{"kind":"division","code":"IRN-3239","countryCode":"IRN","name":"Kermanshah","localName":"Kermanshah","labelEnglish":"Kermanshah","labelLocal":"Kermanshah","labelBoth":"Kermanshah","type":"Province","iso":"IR-17","qid":"Q174010"},"geometry":{"type":"Polygon","coordinates":[[[46.1253,35.285],[46.1431,35.0995],[45.7962,34.9031],[45.4171,34.4444],[45.561,34.2646],[45.3804,33.9736],[45.7246,33.633],[45.822,34.0138],[46.3471,33.9574],[46.7388,33.8026],[47.1825,33.8249],[47.3862,34.0378],[47.694,34.3497],[47.9596,34.4101],[47.5807,34.7112],[47.8515,34.9512],[47.4698,35.168],[46.6796,34.7425],[46.3429,35.1548],[46.1253,35.285]]]}},{"type":"Feature","id":"label-IRN-3239","properties":{"kind":"division-label","code":"IRN-3239","countryCode":"IRN","name":"Kermanshah","localName":"Kermanshah","labelEnglish":"Kermanshah","labelLocal":"Kermanshah","labelBoth":"Kermanshah","type":"Province","iso":"IR-17","qid":"Q174010"},"geometry":{"type":"Point","coordinates":[46.6893,34.2796]}},{"type":"Feature","id":"IRN-3221","properties":{"kind":"division","code":"IRN-3221","countryCode":"IRN","name":"Ilam","localName":"Ilam","labelEnglish":"Ilam","labelLocal":"Ilam","labelBoth":"Ilam","type":"Province","iso":"IR-05","qid":"Q170570"},"geometry":{"type":"Polygon","coordinates":[[[45.7246,33.633],[45.9645,33.496],[46.1553,33.2602],[46.097,32.9543],[46.6006,32.8225],[47.121,32.461],[47.3433,32.4587],[47.5802,32.1035],[47.8988,32.6015],[47.4654,33.1595],[47.0294,33.3659],[46.8266,33.5614],[46.9636,33.7175],[47.3137,33.7996],[47.3862,34.0378],[47.1825,33.8249],[46.7388,33.8026],[46.3471,33.9574],[45.822,34.0138],[45.7246,33.633]]]}},{"type":"Feature","id":"label-IRN-3221","properties":{"kind":"division-label","code":"IRN-3221","countryCode":"IRN","name":"Ilam","localName":"Ilam","labelEnglish":"Ilam","labelLocal":"Ilam","labelBoth":"Ilam","type":"Province","iso":"IR-05","qid":"Q170570"},"geometry":{"type":"Point","coordinates":[46.8116,33.2369]}},{"type":"Feature","id":"IRN-3219","properties":{"kind":"division","code":"IRN-3219","countryCode":"IRN","name":"Khuzestan","localName":"Khuzestan","labelEnglish":"Khuzestan","labelLocal":"Khuzestan","labelBoth":"Khuzestan","type":"Province","iso":"IR-10","qid":"Q241119"},"geometry":{"type":"Polygon","coordinates":[[[47.6764,31.2365],[47.6729,30.9947],[48.0154,30.9763],[48.0136,30.4639],[48.397,30.221],[48.531,29.9613],[48.9348,30.0797],[48.9486,30.4011],[49.2451,30.1565],[49.6008,30.0301],[50.0506,30.2074],[50.4298,30.2188],[50.3956,30.6955],[49.9548,30.8664],[49.96,31.27],[50.2575,31.4879],[50.3476,31.6049],[49.7361,32.5063],[49.7428,32.6562],[49.4532,32.8088],[48.5674,33.0447],[48.0901,32.9713],[47.8988,32.6015],[47.5802,32.1035],[47.8313,31.7618],[47.6764,31.2365]]]}},{"type":"Feature","id":"label-IRN-3219","properties":{"kind":"division-label","code":"IRN-3219","countryCode":"IRN","name":"Khuzestan","localName":"Khuzestan","labelEnglish":"Khuzestan","labelLocal":"Khuzestan","labelBoth":"Khuzestan","type":"Province","iso":"IR-10","qid":"Q241119"},"geometry":{"type":"Point","coordinates":[48.7558,31.3484]}},{"type":"Feature","id":"IRN-3246","properties":{"kind":"division","code":"IRN-3246","countryCode":"IRN","name":"North Khorasan","localName":"North Khorasan","labelEnglish":"North Khorasan","labelLocal":"North Khorasan","labelBoth":"North Khorasan","type":"Province","iso":"IR-31","qid":"Q180075"},"geometry":{"type":"Polygon","coordinates":[[[57.7348,37.8983],[57.3524,37.9675],[57.1379,38.2624],[57.0384,38.1873],[56.4365,38.2551],[56.1667,38.0808],[56.248,37.5735],[55.8674,37.3544],[56.077,37.075],[56.0673,36.8821],[56.3179,36.6654],[56.6716,36.6426],[56.9735,36.9691],[57.7953,36.6681],[58.1855,36.6773],[58.2276,36.8986],[58.0134,37.0264],[58.18,37.4929],[58.0349,37.6547],[57.5864,37.6717],[57.7348,37.8983]]]}},{"type":"Feature","id":"label-IRN-3246","properties":{"kind":"division-label","code":"IRN-3246","countryCode":"IRN","name":"North Khorasan","localName":"North Khorasan","labelEnglish":"North Khorasan","labelLocal":"North Khorasan","labelBoth":"North Khorasan","type":"Province","iso":"IR-31","qid":"Q180075"},"geometry":{"type":"Point","coordinates":[57.0475,37.5789]}},{"type":"Feature","id":"IRN-3213","properties":{"kind":"division","code":"IRN-3213","countryCode":"IRN","name":"Golestan","localName":"Golestan","labelEnglish":"Golestan","labelLocal":"Golestan","labelBoth":"Golestan","type":"Province","iso":"IR-27","qid":"Q170041"},"geometry":{"type":"Polygon","coordinates":[[[56.1667,38.0808],[55.4231,38.0759],[54.8566,37.7611],[54.7837,37.5175],[54.1866,37.3237],[53.9137,37.3428],[54.0143,36.8211],[53.7054,36.8163],[54.1201,36.4848],[54.4638,36.4901],[55.0962,36.7931],[55.5043,36.7729],[55.8674,37.3544],[56.248,37.5735],[56.1667,38.0808]]]}},{"type":"Feature","id":"label-IRN-3213","properties":{"kind":"division-label","code":"IRN-3213","countryCode":"IRN","name":"Golestan","localName":"Golestan","labelEnglish":"Golestan","labelLocal":"Golestan","labelBoth":"Golestan","type":"Province","iso":"IR-27","qid":"Q170041"},"geometry":{"type":"Point","coordinates":[55.0042,37.312]}},{"type":"Feature","id":"IRN-3245","properties":{"kind":"division","code":"IRN-3245","countryCode":"IRN","name":"Razavi Khorasan","localName":"Razavi Khorasan","labelEnglish":"Razavi Khorasan","labelLocal":"Razavi Khorasan","labelBoth":"Razavi Khorasan","type":"Province","iso":"IR-30","qid":"Q587090"},"geometry":{"type":"Polygon","coordinates":[[[57.7348,37.8983],[57.5864,37.6717],[58.0349,37.6547],[58.18,37.4929],[58.0134,37.0264],[58.2276,36.8986],[58.1855,36.6773],[57.7953,36.6681],[56.9735,36.9691],[56.6716,36.6426],[56.7846,35.919],[57.0872,35.7004],[56.8251,35.2863],[56.2105,34.9061],[57.0166,35.1483],[57.3796,35.1773],[57.692,34.8669],[57.1989,34.5577],[57.0048,34.1426],[57.1058,33.6236],[57.5599,33.6532],[57.7822,32.9968],[58.1477,32.7486],[58.3876,33.1308],[58.832,33.4851],[58.6101,33.6667],[58.6934,34.1651],[58.9552,34.1224],[59.5049,34.278],[59.7879,34.0685],[60.4885,34.0809],[60.6437,34.3066],[60.8905,34.3189],[60.6997,34.5164],[61.0655,34.8147],[61.1083,35.278],[61.2697,35.6185],[61.2228,36.1175],[61.0755,36.6478],[60.3423,36.6371],[60.0192,37.0258],[59.3704,37.3194],[59.3517,37.4938],[58.8011,37.6947],[58.3718,37.6304],[57.7348,37.8983]]]}},{"type":"Feature","id":"label-IRN-3245","properties":{"kind":"division-label","code":"IRN-3245","countryCode":"IRN","name":"Razavi Khorasan","localName":"Razavi Khorasan","labelEnglish":"Razavi Khorasan","labelLocal":"Razavi Khorasan","labelBoth":"Razavi Khorasan","type":"Province","iso":"IR-30","qid":"Q587090"},"geometry":{"type":"Point","coordinates":[58.7976,35.584]}},{"type":"Feature","id":"IRN-3244","properties":{"kind":"division","code":"IRN-3244","countryCode":"IRN","name":"South Khorasan","localName":"South Khorasan","labelEnglish":"South Khorasan","labelLocal":"South Khorasan","labelBoth":"South Khorasan","type":"Province","iso":"IR-29","qid":"Q171551"},"geometry":{"type":"Polygon","coordinates":[[[60.4885,34.0809],[59.7879,34.0685],[59.5049,34.278],[58.9552,34.1224],[58.6934,34.1651],[58.6101,33.6667],[58.832,33.4851],[58.3876,33.1308],[58.1477,32.7486],[58.1739,32.146],[57.8347,31.6373],[58.9729,31.1979],[59.5154,30.6066],[60.2971,30.8028],[60.6255,30.6466],[60.8648,30.3924],[61.0348,30.4081],[61.018,30.9917],[61.1251,31.4489],[60.8217,31.4947],[60.8303,32.2489],[60.5676,33.1513],[60.9198,33.5126],[60.5118,33.6384],[60.4885,34.0809]]]}},{"type":"Feature","id":"label-IRN-3244","properties":{"kind":"division-label","code":"IRN-3244","countryCode":"IRN","name":"South Khorasan","localName":"South Khorasan","labelEnglish":"South Khorasan","labelLocal":"South Khorasan","labelBoth":"South Khorasan","type":"Province","iso":"IR-29","qid":"Q171551"},"geometry":{"type":"Point","coordinates":[59.489,32.4563]}},{"type":"Feature","id":"IRN-3247","properties":{"kind":"division","code":"IRN-3247","countryCode":"IRN","name":"Sistan and Baluchestan","localName":"Sistan and Baluchestan","labelEnglish":"Sistan and Baluchestan","labelLocal":"Sistan and Baluchestan","labelBoth":"Sistan and Baluchestan","type":"Province","iso":"IR-13","qid":"Q939575"},"geometry":{"type":"Polygon","coordinates":[[[61.6063,31.3887],[61.1251,31.4489],[61.018,30.9917],[61.0348,30.4081],[60.8648,30.3924],[60.6255,30.6466],[60.2971,30.8028],[59.5154,30.6066],[59.3013,29.6984],[59.4446,29.3517],[59.3273,29.0536],[59.3667,28.7109],[58.888,28.4714],[59.0429,28.3152],[58.8966,28.0917],[58.8901,27.6308],[58.7749,27.2294],[58.9494,26.7026],[58.8631,26.0102],[59.2511,25.4307],[59.9038,25.3299],[60.5497,25.4469],[60.6335,25.275],[61.4117,25.0594],[61.5882,25.2021],[61.6604,25.7692],[61.8571,26.2424],[62.2434,26.3506],[62.292,26.5012],[62.7536,26.6442],[63.1413,26.6254],[63.3196,27.1173],[63.167,27.2587],[62.8006,27.2252],[62.7393,28.2583],[61.8928,28.5426],[61.5665,28.871],[61.2792,29.4066],[60.8444,29.8582],[61.7852,30.8314],[61.8263,31.0346],[61.6063,31.3887]]]}},{"type":"Feature","id":"label-IRN-3247","properties":{"kind":"division-label","code":"IRN-3247","countryCode":"IRN","name":"Sistan and Baluchestan","localName":"Sistan and Baluchestan","labelEnglish":"Sistan and Baluchestan","labelLocal":"Sistan and Baluchestan","labelBoth":"Sistan and Baluchestan","type":"Province","iso":"IR-13","qid":"Q939575"},"geometry":{"type":"Point","coordinates":[61.0471,27.4268]}},{"type":"Feature","id":"IRN-3210","properties":{"kind":"division","code":"IRN-3210","countryCode":"IRN","name":"Bushehr","localName":"Bushehr","labelEnglish":"Bushehr","labelLocal":"Bushehr","labelBoth":"Bushehr","type":"Province","iso":"IR-06","qid":"Q132945"},"geometry":{"type":"Polygon","coordinates":[[[52.6788,27.3224],[52.9709,27.382],[52.5109,27.7614],[52.1974,28.1773],[52.0277,28.6324],[51.5788,29.3728],[51.1548,29.798],[50.7396,29.8699],[50.6015,30.1448],[50.4298,30.2188],[50.0506,30.2074],[50.1449,29.9381],[50.6553,29.4491],[50.6438,29.1435],[50.9324,29.0315],[50.813,28.9147],[51.0588,28.7359],[51.1419,28.4008],[51.3803,27.9914],[51.5851,27.8493],[52.0112,27.8327],[52.4231,27.6466],[52.6788,27.3224]]]}},{"type":"Feature","id":"label-IRN-3210","properties":{"kind":"division-label","code":"IRN-3210","countryCode":"IRN","name":"Bushehr","localName":"Bushehr","labelEnglish":"Bushehr","labelLocal":"Bushehr","labelBoth":"Bushehr","type":"Province","iso":"IR-06","qid":"Q132945"},"geometry":{"type":"Point","coordinates":[51.4225,28.8273]}},{"type":"Feature","id":"IRN-3228","properties":{"kind":"division","code":"IRN-3228","countryCode":"IRN","name":"Hormozgan","localName":"Hormozgan","labelEnglish":"Hormozgan","labelLocal":"Hormozgan","labelBoth":"Hormozgan","type":"Province","iso":"IR-23","qid":"Q633659"},"geometry":{"type":"MultiPolygon","coordinates":[[[[59.2511,25.4307],[58.8631,26.0102],[58.5493,26.0607],[58.5279,26.1895],[58.0699,26.2175],[58.1365,26.8465],[57.815,26.8469],[57.408,27.0461],[57.2879,27.7486],[57.0168,28.0038],[56.9814,28.2776],[56.3373,28.1234],[56.0592,28.3495],[56.0442,28.9022],[55.6683,28.754],[55.1297,28.9507],[55.1601,28.7021],[55.4874,28.3828],[55.425,28.0335],[55.5341,27.8221],[55.1952,27.7128],[54.9408,27.4864],[54.1584,27.4822],[53.8548,27.1394],[53.0715,27.2731],[52.9709,27.382],[52.6788,27.3224],[53.4121,26.9936],[53.7161,26.7086],[54.3081,26.715],[54.8015,26.4982],[55.2708,26.7925],[55.4841,26.7675],[55.6848,27.003],[56.353,27.2016],[56.8088,27.1396],[57.0249,26.851],[57.1646,26.0949],[57.3262,25.777],[57.9632,25.6932],[58.1704,25.5441],[58.419,25.612],[58.8137,25.5636],[59.0242,25.4032],[59.2511,25.4307]]],[[[56.2124,27.003],[55.3519,26.6474],[55.2984,26.5436],[56.0808,26.7853],[56.2124,27.003]]]]}},{"type":"Feature","id":"label-IRN-3228","properties":{"kind":"division-label","code":"IRN-3228","countryCode":"IRN","name":"Hormozgan","localName":"Hormozgan","labelEnglish":"Hormozgan","labelLocal":"Hormozgan","labelBoth":"Hormozgan","type":"Province","iso":"IR-23","qid":"Q633659"},"geometry":{"type":"Point","coordinates":[56.2505,27.6455]}},{"type":"Feature","id":"IRN-3214","properties":{"kind":"division","code":"IRN-3214","countryCode":"IRN","name":"Mazandaran","localName":"Mazandaran","labelEnglish":"Mazandaran","labelLocal":"Mazandaran","labelBoth":"Mazandaran","type":"Province","iso":"IR-21","qid":"Q308864"},"geometry":{"type":"Polygon","coordinates":[[[50.5763,36.9892],[50.3046,36.6703],[50.801,36.3187],[51.3569,36.1163],[51.7544,36.011],[51.9502,35.7998],[52.177,35.79],[52.3985,35.9762],[53.0347,35.8311],[53.4724,35.9113],[54.1201,36.4848],[53.7054,36.8163],[53.4924,36.8879],[51.909,36.5827],[51.0886,36.737],[50.5763,36.9892]]]}},{"type":"Feature","id":"label-IRN-3214","properties":{"kind":"division-label","code":"IRN-3214","countryCode":"IRN","name":"Mazandaran","localName":"Mazandaran","labelEnglish":"Mazandaran","labelLocal":"Mazandaran","labelBoth":"Mazandaran","type":"Province","iso":"IR-21","qid":"Q308864"},"geometry":{"type":"Point","coordinates":[52.2123,36.231]}},{"type":"Feature","id":"IRN-3215","properties":{"kind":"division","code":"IRN-3215","countryCode":"IRN","name":"Semnan","localName":"Semnan","labelEnglish":"Semnan","labelLocal":"Semnan","labelBoth":"Semnan","type":"Province","iso":"IR-12","qid":"Q168949"},"geometry":{"type":"Polygon","coordinates":[[[54.1201,36.4848],[53.4724,35.9113],[53.0347,35.8311],[53.0794,35.6181],[52.675,35.3362],[51.8534,35.5555],[51.8225,35.3153],[51.9806,35.1252],[51.8823,34.8755],[51.7889,34.542],[52.9001,34.325],[55.2867,34.3841],[55.3752,34.3419],[55.8509,34.4073],[56.2105,34.9061],[56.8251,35.2863],[57.0872,35.7004],[56.7846,35.919],[56.6716,36.6426],[56.3179,36.6654],[56.0673,36.8821],[56.077,37.075],[55.8674,37.3544],[55.5043,36.7729],[55.0962,36.7931],[54.4638,36.4901],[54.1201,36.4848]]]}},{"type":"Feature","id":"label-IRN-3215","properties":{"kind":"division-label","code":"IRN-3215","countryCode":"IRN","name":"Semnan","localName":"Semnan","labelEnglish":"Semnan","labelLocal":"Semnan","labelBoth":"Semnan","type":"Province","iso":"IR-12","qid":"Q168949"},"geometry":{"type":"Point","coordinates":[54.4381,35.4243]}},{"type":"Feature","id":"IRN-3234","properties":{"kind":"division","code":"IRN-3234","countryCode":"IRN","name":"Zanjan","localName":"Zanjan","labelEnglish":"Zanjan","labelLocal":"Zanjan","labelBoth":"Zanjan","type":"Province","iso":"IR-11","qid":"Q146726"},"geometry":{"type":"Polygon","coordinates":[[[48.8825,37.2028],[48.4553,37.2239],[47.6207,37.1666],[47.1938,36.7568],[47.3323,36.5077],[47.8651,36.4034],[47.9677,36.16],[47.9036,35.889],[48.2257,35.6902],[48.6909,35.5558],[48.8025,35.6358],[48.6192,35.8601],[49.3812,36.082],[49.299,36.3755],[49.0357,36.5934],[49.2458,36.8131],[48.8825,37.2028]]]}},{"type":"Feature","id":"label-IRN-3234","properties":{"kind":"division-label","code":"IRN-3234","countryCode":"IRN","name":"Zanjan","localName":"Zanjan","labelEnglish":"Zanjan","labelLocal":"Zanjan","labelBoth":"Zanjan","type":"Province","iso":"IR-11","qid":"Q146726"},"geometry":{"type":"Point","coordinates":[48.2959,36.3989]}},{"type":"Feature","id":"IRN-3235","properties":{"kind":"division","code":"IRN-3235","countryCode":"IRN","name":"Qazvin","localName":"Qazvin","labelEnglish":"Qazvin","labelLocal":"Qazvin","labelBoth":"Qazvin","type":"Province","iso":"IR-28","qid":"Q1105893"},"geometry":{"type":"Polygon","coordinates":[[[49.2458,36.8131],[49.0357,36.5934],[49.299,36.3755],[49.3812,36.082],[48.6192,35.8601],[48.8025,35.6358],[49.4405,35.4376],[50.2855,35.666],[50.2428,35.8108],[50.5345,35.9608],[50.6259,36.1648],[50.4208,36.2964],[50.801,36.3187],[50.3046,36.6703],[49.8053,36.562],[49.4723,36.6243],[49.2458,36.8131]]]}},{"type":"Feature","id":"label-IRN-3235","properties":{"kind":"division-label","code":"IRN-3235","countryCode":"IRN","name":"Qazvin","localName":"Qazvin","labelEnglish":"Qazvin","labelLocal":"Qazvin","labelBoth":"Qazvin","type":"Province","iso":"IR-28","qid":"Q1105893"},"geometry":{"type":"Point","coordinates":[49.6996,36.0552]}},{"type":"Feature","id":"IRN-3231","properties":{"kind":"division","code":"IRN-3231","countryCode":"IRN","name":"Markazi","localName":"Markazi","labelEnglish":"Markazi","labelLocal":"Markazi","labelBoth":"Markazi","type":"Province","iso":"IR-22","qid":"Q134417"},"geometry":{"type":"Polygon","coordinates":[[[51.033,34.1058],[50.4412,34.2248],[50.06,34.5771],[50.154,34.7815],[50.6937,34.916],[50.7847,35.2184],[50.7987,35.6048],[50.2855,35.666],[49.4405,35.4376],[49.4721,34.9716],[49.1404,34.9094],[49.1016,34.6015],[48.93,34.6243],[49.0958,34.1105],[48.971,33.9891],[48.9104,33.7625],[49.1809,33.68],[49.4637,33.8867],[49.7466,33.5754],[50.0015,33.4987],[50.2432,33.6349],[50.8989,33.8149],[51.033,34.1058]]]}},{"type":"Feature","id":"label-IRN-3231","properties":{"kind":"division-label","code":"IRN-3231","countryCode":"IRN","name":"Markazi","localName":"Markazi","labelEnglish":"Markazi","labelLocal":"Markazi","labelBoth":"Markazi","type":"Province","iso":"IR-22","qid":"Q134417"},"geometry":{"type":"Point","coordinates":[49.964,34.5595]}},{"type":"Feature","id":"IRN-3211","properties":{"kind":"division","code":"IRN-3211","countryCode":"IRN","name":"Isfahan","localName":"Isfahan","labelEnglish":"Isfahan","labelLocal":"Isfahan","labelBoth":"Isfahan","type":"Province","iso":"IR-04","qid":"Q1367759"},"geometry":{"type":"Polygon","coordinates":[[[50.0015,33.4987],[49.8446,33.1369],[49.4532,32.8088],[49.7428,32.6562],[49.7361,32.5063],[50.8143,32.6551],[50.9493,32.3274],[51.2453,32.1243],[51.2323,31.5347],[51.3108,31.164],[51.6411,30.7722],[51.8716,31.3201],[51.6512,31.5484],[52.1422,31.7125],[52.2306,31.555],[52.8707,31.5975],[52.8837,32.5052],[53.334,32.6741],[53.6507,32.6129],[54.709,32.9201],[54.9863,33.33],[55.3864,33.6655],[55.3752,34.3419],[55.2867,34.3841],[52.9001,34.325],[51.7889,34.542],[51.1584,34.4525],[51.033,34.1058],[50.8989,33.8149],[50.2432,33.6349],[50.0015,33.4987]]]}},{"type":"Feature","id":"label-IRN-3211","properties":{"kind":"division-label","code":"IRN-3211","countryCode":"IRN","name":"Isfahan","localName":"Isfahan","labelEnglish":"Isfahan","labelLocal":"Isfahan","labelBoth":"Isfahan","type":"Province","iso":"IR-04","qid":"Q1367759"},"geometry":{"type":"Point","coordinates":[52.4195,32.9837]}},{"type":"Feature","id":"IRN-3218","properties":{"kind":"division","code":"IRN-3218","countryCode":"IRN","name":"Chaharmahal and Bakhtiari","localName":"Chaharmahal and Bakhtiari","labelEnglish":"Chaharmahal and Bakhtiari","labelLocal":"Chaharmahal and Bakhtiari","labelBoth":"Chaharmahal and Bakhtiari","type":"Province","iso":"IR-08","qid":"Q171702"},"geometry":{"type":"Polygon","coordinates":[[[51.3108,31.164],[51.2323,31.5347],[51.2453,32.1243],[50.9493,32.3274],[50.8143,32.6551],[49.7361,32.5063],[50.3476,31.6049],[50.2575,31.4879],[50.5871,31.3897],[50.9591,31.1064],[51.3108,31.164]]]}},{"type":"Feature","id":"label-IRN-3218","properties":{"kind":"division-label","code":"IRN-3218","countryCode":"IRN","name":"Chaharmahal and Bakhtiari","localName":"Chaharmahal and Bakhtiari","labelEnglish":"Chaharmahal and Bakhtiari","labelLocal":"Chaharmahal and Bakhtiari","labelBoth":"Chaharmahal and Bakhtiari","type":"Province","iso":"IR-08","qid":"Q171702"},"geometry":{"type":"Point","coordinates":[50.5298,31.9975]}},{"type":"Feature","id":"IRN-3209","properties":{"kind":"division","code":"IRN-3209","countryCode":"IRN","name":"Kohgiluyeh and Boyer-Ahmad","localName":"Kohgiluyeh and Boyer-Ahmad","labelEnglish":"Kohgiluyeh and Boyer-Ahmad","labelLocal":"Kohgiluyeh and Boyer-Ahmad","labelBoth":"Kohgiluyeh and Boyer-Ahmad","type":"Province","iso":"IR-18","qid":"Q180068"},"geometry":{"type":"Polygon","coordinates":[[[51.3108,31.164],[50.9591,31.1064],[50.5871,31.3897],[50.2575,31.4879],[49.96,31.27],[49.9548,30.8664],[50.3956,30.6955],[50.4298,30.2188],[50.6015,30.1448],[51.1791,30.3007],[51.1334,30.6527],[51.5356,30.5295],[51.6411,30.7722],[51.3108,31.164]]]}},{"type":"Feature","id":"label-IRN-3209","properties":{"kind":"division-label","code":"IRN-3209","countryCode":"IRN","name":"Kohgiluyeh and Boyer-Ahmad","localName":"Kohgiluyeh and Boyer-Ahmad","labelEnglish":"Kohgiluyeh and Boyer-Ahmad","labelLocal":"Kohgiluyeh and Boyer-Ahmad","labelBoth":"Kohgiluyeh and Boyer-Ahmad","type":"Province","iso":"IR-18","qid":"Q180068"},"geometry":{"type":"Point","coordinates":[50.7947,30.6977]}},{"type":"Feature","id":"IRN-3212","properties":{"kind":"division","code":"IRN-3212","countryCode":"IRN","name":"Fars","localName":"Fars","labelEnglish":"Fars","labelLocal":"Fars","labelBoth":"Fars","type":"Province","iso":"IR-14","qid":"Q1004666"},"geometry":{"type":"Polygon","coordinates":[[[52.8707,31.5975],[52.2306,31.555],[52.1422,31.7125],[51.6512,31.5484],[51.8716,31.3201],[51.6411,30.7722],[51.5356,30.5295],[51.1334,30.6527],[51.1791,30.3007],[50.6015,30.1448],[50.7396,29.8699],[51.1548,29.798],[51.5788,29.3728],[52.0277,28.6324],[52.1974,28.1773],[52.5109,27.7614],[52.9709,27.382],[53.0715,27.2731],[53.8548,27.1394],[54.1584,27.4822],[54.9408,27.4864],[55.1952,27.7128],[55.5341,27.8221],[55.425,28.0335],[55.4874,28.3828],[55.1601,28.7021],[55.1297,28.9507],[54.9275,29.3897],[54.5955,29.4546],[54.4302,29.7932],[54.0718,29.9843],[54.0076,30.2632],[53.6384,30.7552],[53.4049,31.2615],[53.1252,31.5139],[52.8707,31.5975]]]}},{"type":"Feature","id":"label-IRN-3212","properties":{"kind":"division-label","code":"IRN-3212","countryCode":"IRN","name":"Fars","localName":"Fars","labelEnglish":"Fars","labelLocal":"Fars","labelBoth":"Fars","type":"Province","iso":"IR-14","qid":"Q1004666"},"geometry":{"type":"Point","coordinates":[53.0793,29.4007]}},{"type":"Feature","id":"IRN-3248","properties":{"kind":"division","code":"IRN-3248","countryCode":"IRN","name":"Kerman","localName":"Kerman","labelEnglish":"Kerman","labelLocal":"Kerman","labelBoth":"Kerman","type":"Province","iso":"IR-15","qid":"Q165352"},"geometry":{"type":"Polygon","coordinates":[[[55.1297,28.9507],[55.6683,28.754],[56.0442,28.9022],[56.0592,28.3495],[56.3373,28.1234],[56.9814,28.2776],[57.0168,28.0038],[57.2879,27.7486],[57.408,27.0461],[57.815,26.8469],[58.1365,26.8465],[58.0699,26.2175],[58.5279,26.1895],[58.5493,26.0607],[58.8631,26.0102],[58.9494,26.7026],[58.7749,27.2294],[58.8901,27.6308],[58.8966,28.0917],[59.0429,28.3152],[58.888,28.4714],[59.3667,28.7109],[59.3273,29.0536],[59.4446,29.3517],[59.3013,29.6984],[59.5154,30.6066],[58.9729,31.1979],[57.8347,31.6373],[56.6341,32.0492],[56.2878,31.8151],[55.7568,31.5763],[55.6845,31.1109],[54.5544,30.9578],[54.4006,30.6755],[54.6038,30.2974],[54.6167,29.848],[54.4302,29.7932],[54.5955,29.4546],[54.9275,29.3897],[55.1297,28.9507]]]}},{"type":"Feature","id":"label-IRN-3248","properties":{"kind":"division-label","code":"IRN-3248","countryCode":"IRN","name":"Kerman","localName":"Kerman","labelEnglish":"Kerman","labelLocal":"Kerman","labelBoth":"Kerman","type":"Province","iso":"IR-15","qid":"Q165352"},"geometry":{"type":"Point","coordinates":[56.9567,30.1234]}},{"type":"Feature","id":"IRN-3233","properties":{"kind":"division","code":"IRN-3233","countryCode":"IRN","name":"Hamadan","localName":"Hamadan","labelEnglish":"Hamadan","labelLocal":"Hamadan","labelBoth":"Hamadan","type":"Province","iso":"IR-24","qid":"Q187373"},"geometry":{"type":"Polygon","coordinates":[[[49.4405,35.4376],[48.8025,35.6358],[48.6909,35.5558],[48.2257,35.6902],[47.7995,35.5872],[48.1515,35.0978],[47.8515,34.9512],[47.5807,34.7112],[47.9596,34.4101],[47.694,34.3497],[48.212,34.0588],[48.698,34.0859],[48.971,33.9891],[49.0958,34.1105],[48.93,34.6243],[49.1016,34.6015],[49.1404,34.9094],[49.4721,34.9716],[49.4405,35.4376]]]}},{"type":"Feature","id":"label-IRN-3233","properties":{"kind":"division-label","code":"IRN-3233","countryCode":"IRN","name":"Hamadan","localName":"Hamadan","labelEnglish":"Hamadan","labelLocal":"Hamadan","labelBoth":"Hamadan","type":"Province","iso":"IR-24","qid":"Q187373"},"geometry":{"type":"Point","coordinates":[48.5738,34.8342]}},{"type":"Feature","id":"IRN-3220","properties":{"kind":"division","code":"IRN-3220","countryCode":"IRN","name":"Lorestan","localName":"Lorestan","labelEnglish":"Lorestan","labelLocal":"Lorestan","labelBoth":"Lorestan","type":"Province","iso":"IR-20","qid":"Q1131727"},"geometry":{"type":"Polygon","coordinates":[[[50.0015,33.4987],[49.7466,33.5754],[49.4637,33.8867],[49.1809,33.68],[48.9104,33.7625],[48.971,33.9891],[48.698,34.0859],[48.212,34.0588],[47.694,34.3497],[47.3862,34.0378],[47.3137,33.7996],[46.9636,33.7175],[46.8266,33.5614],[47.0294,33.3659],[47.4654,33.1595],[47.8988,32.6015],[48.0901,32.9713],[48.5674,33.0447],[49.4532,32.8088],[49.8446,33.1369],[50.0015,33.4987]]]}},{"type":"Feature","id":"label-IRN-3220","properties":{"kind":"division-label","code":"IRN-3220","countryCode":"IRN","name":"Lorestan","localName":"Lorestan","labelEnglish":"Lorestan","labelLocal":"Lorestan","labelBoth":"Lorestan","type":"Province","iso":"IR-20","qid":"Q1131727"},"geometry":{"type":"Point","coordinates":[48.4141,33.5323]}},{"type":"Feature","id":"IRN-3217","properties":{"kind":"division","code":"IRN-3217","countryCode":"IRN","name":"Yazd","localName":"Yazd","labelEnglish":"Yazd","labelLocal":"Yazd","labelBoth":"Yazd","type":"Province","iso":"IR-25","qid":"Q170568"},"geometry":{"type":"Polygon","coordinates":[[[55.3752,34.3419],[55.3864,33.6655],[54.9863,33.33],[54.709,32.9201],[53.6507,32.6129],[53.334,32.6741],[52.8837,32.5052],[52.8707,31.5975],[53.1252,31.5139],[53.4049,31.2615],[53.6384,30.7552],[54.0076,30.2632],[54.0718,29.9843],[54.4302,29.7932],[54.6167,29.848],[54.6038,30.2974],[54.4006,30.6755],[54.5544,30.9578],[55.6845,31.1109],[55.7568,31.5763],[56.2878,31.8151],[56.6341,32.0492],[57.8347,31.6373],[58.1739,32.146],[58.1477,32.7486],[57.7822,32.9968],[57.5599,33.6532],[57.1058,33.6236],[57.0048,34.1426],[57.1989,34.5577],[57.692,34.8669],[57.3796,35.1773],[57.0166,35.1483],[56.2105,34.9061],[55.8509,34.4073],[55.3752,34.3419]]]}},{"type":"Feature","id":"label-IRN-3217","properties":{"kind":"division-label","code":"IRN-3217","countryCode":"IRN","name":"Yazd","localName":"Yazd","labelEnglish":"Yazd","labelLocal":"Yazd","labelBoth":"Yazd","type":"Province","iso":"IR-25","qid":"Q170568"},"geometry":{"type":"Point","coordinates":[55.5242,32.7074]}},{"type":"Feature","id":"IRN-3232","properties":{"kind":"division","code":"IRN-3232","countryCode":"IRN","name":"Qom","localName":"Qom","labelEnglish":"Qom","labelLocal":"Qom","labelBoth":"Qom","type":"Province","iso":"IR-26","qid":"Q131664"},"geometry":{"type":"Polygon","coordinates":[[[51.7889,34.542],[51.8823,34.8755],[51.3124,35.154],[50.7847,35.2184],[50.6937,34.916],[50.154,34.7815],[50.06,34.5771],[50.4412,34.2248],[51.033,34.1058],[51.1584,34.4525],[51.7889,34.542]]]}},{"type":"Feature","id":"label-IRN-3232","properties":{"kind":"division-label","code":"IRN-3232","countryCode":"IRN","name":"Qom","localName":"Qom","labelEnglish":"Qom","labelLocal":"Qom","labelBoth":"Qom","type":"Province","iso":"IR-26","qid":"Q131664"},"geometry":{"type":"Point","coordinates":[50.978,34.6662]}},{"type":"Feature","id":"IRN-3216","properties":{"kind":"division","code":"IRN-3216","countryCode":"IRN","name":"Tehran","localName":"Tehran","labelEnglish":"Tehran","labelLocal":"Tehran","labelBoth":"Tehran","type":"Province","iso":"IR-07","qid":"Q590866"},"geometry":{"type":"Polygon","coordinates":[[[50.7847,35.2184],[51.3124,35.154],[51.8823,34.8755],[51.9806,35.1252],[51.8225,35.3153],[51.8534,35.5555],[52.675,35.3362],[53.0794,35.6181],[53.0347,35.8311],[52.3985,35.9762],[52.177,35.79],[51.9502,35.7998],[51.7544,36.011],[51.3569,36.1163],[50.7987,35.6048],[50.7847,35.2184]]]}},{"type":"Feature","id":"label-IRN-3216","properties":{"kind":"division-label","code":"IRN-3216","countryCode":"IRN","name":"Tehran","localName":"Tehran","labelEnglish":"Tehran","labelLocal":"Tehran","labelBoth":"Tehran","type":"Province","iso":"IR-07","qid":"Q590866"},"geometry":{"type":"Point","coordinates":[51.6548,35.5146]}},{"type":"Feature","id":"IRN-5490","properties":{"kind":"division","code":"IRN-5490","countryCode":"IRN","name":"Alborz","localName":"Alborz","labelEnglish":"Alborz","labelLocal":"Alborz","labelBoth":"Alborz","type":"Province","iso":"IR-07","qid":"Q392522"},"geometry":{"type":"Polygon","coordinates":[[[50.2855,35.666],[50.7987,35.6048],[51.3569,36.1163],[50.801,36.3187],[50.4208,36.2964],[50.6259,36.1648],[50.5345,35.9608],[50.2428,35.8108],[50.2855,35.666]]]}},{"type":"Feature","id":"label-IRN-5490","properties":{"kind":"division-label","code":"IRN-5490","countryCode":"IRN","name":"Alborz","localName":"Alborz","labelEnglish":"Alborz","labelLocal":"Alborz","labelBoth":"Alborz","type":"Province","iso":"IR-07","qid":"Q392522"},"geometry":{"type":"Point","coordinates":[50.7848,35.9651]}}]}