{"type":"FeatureCollection","features":[{"type":"Feature","id":"IRQ-3046","properties":{"kind":"division","code":"IRQ-3046","countryCode":"IRQ","name":"Duhok","localName":"Duhok","labelEnglish":"Duhok","labelLocal":"Duhok","labelBoth":"Duhok","type":"Province","iso":"IQ-DA","qid":"Q189541"},"geometry":{"type":"Polygon","coordinates":[[[43.3625,37.3039],[42.7222,37.3589],[42.3572,37.11],[42.3768,37.062],[42.5965,36.796],[42.8434,36.6925],[43.3047,36.9302],[43.6488,36.8265],[43.8282,37.0119],[44.069,37.3137],[43.8936,37.2249],[43.3625,37.3039]]]}},{"type":"Feature","id":"label-IRQ-3046","properties":{"kind":"division-label","code":"IRQ-3046","countryCode":"IRQ","name":"Duhok","localName":"Duhok","labelEnglish":"Duhok","labelLocal":"Duhok","labelBoth":"Duhok","type":"Province","iso":"IQ-DA","qid":"Q189541"},"geometry":{"type":"Point","coordinates":[43.2281,37.0875]}},{"type":"Feature","id":"IRQ-3050","properties":{"kind":"division","code":"IRQ-3050","countryCode":"IRQ","name":"Erbil","localName":"Erbil","labelEnglish":"Erbil","labelLocal":"Erbil","labelBoth":"Erbil","type":"Province","iso":"IQ-AR","qid":"Q213189"},"geometry":{"type":"Polygon","coordinates":[[[44.069,37.3137],[43.8282,37.0119],[44.2971,36.7258],[43.9987,36.6008],[43.3529,35.9991],[43.3343,35.7235],[43.3582,35.4582],[43.7419,35.5481],[43.7685,35.7179],[44.6273,35.8857],[44.9693,35.9109],[44.6274,36.1268],[44.5398,36.369],[45.0095,36.5162],[44.8312,36.7919],[44.7661,37.1419],[44.3066,36.9772],[44.069,37.3137]]]}},{"type":"Feature","id":"label-IRQ-3050","properties":{"kind":"division-label","code":"IRQ-3050","countryCode":"IRQ","name":"Erbil","localName":"Erbil","labelEnglish":"Erbil","labelLocal":"Erbil","labelBoth":"Erbil","type":"Province","iso":"IQ-AR","qid":"Q213189"},"geometry":{"type":"Point","coordinates":[44.1806,36.2371]}},{"type":"Feature","id":"IRQ-3222","properties":{"kind":"division","code":"IRQ-3222","countryCode":"IRQ","name":"Basra","localName":"Basra","labelEnglish":"Basra","labelLocal":"Basra","labelBoth":"Basra","type":"Province","iso":"IQ-BA","qid":"Q193551"},"geometry":{"type":"Polygon","coordinates":[[[47.948,29.994],[48.2092,30.0245],[48.531,29.9613],[48.397,30.221],[48.0136,30.4639],[48.0154,30.9763],[47.6729,30.9947],[47.6764,31.2365],[47.211,31.2449],[47.1261,31.1298],[47.0884,30.5738],[46.5747,30.5141],[46.7446,30.0893],[46.5615,29.1242],[46.8535,29.4446],[47.1105,29.9609],[47.3582,30.0921],[47.948,29.994]]]}},{"type":"Feature","id":"label-IRQ-3222","properties":{"kind":"division-label","code":"IRQ-3222","countryCode":"IRQ","name":"Basra","localName":"Basra","labelEnglish":"Basra","labelLocal":"Basra","labelBoth":"Basra","type":"Province","iso":"IQ-BA","qid":"Q193551"},"geometry":{"type":"Point","coordinates":[47.5605,30.6802]}},{"type":"Feature","id":"IRQ-3223","properties":{"kind":"division","code":"IRQ-3223","countryCode":"IRQ","name":"Al Muthanna","localName":"Al Muthanna","labelEnglish":"Al Muthanna","labelLocal":"Al Muthanna","labelBoth":"Al Muthanna","type":"Province","iso":"IQ-MU","qid":"Q212761"},"geometry":{"type":"Polygon","coordinates":[[[46.5615,29.1242],[46.7446,30.0893],[46.5747,30.5141],[46.3714,30.7335],[45.7198,30.8376],[45.7858,31.6515],[45.292,31.7276],[45.1101,31.6164],[44.9783,31.2626],[44.7269,31.4075],[44.6513,31.0549],[44.2364,30.6153],[44.0564,30.167],[43.824,29.814],[44.6918,29.2018],[46.4273,29.0761],[46.5324,29.0957],[46.5615,29.1242]]]}},{"type":"Feature","id":"label-IRQ-3223","properties":{"kind":"division-label","code":"IRQ-3223","countryCode":"IRQ","name":"Al Muthanna","localName":"Al Muthanna","labelEnglish":"Al Muthanna","labelLocal":"Al Muthanna","labelBoth":"Al Muthanna","type":"Province","iso":"IQ-MU","qid":"Q212761"},"geometry":{"type":"Point","coordinates":[45.2843,30.4381]}},{"type":"Feature","id":"IRQ-3242","properties":{"kind":"division","code":"IRQ-3242","countryCode":"IRQ","name":"Sulaymaniyah","localName":"Sulaymaniyah","labelEnglish":"Sulaymaniyah","labelLocal":"Sulaymaniyah","labelBoth":"Sulaymaniyah","type":"Province","iso":"IQ-SU","qid":"Q213182"},"geometry":{"type":"Polygon","coordinates":[[[45.0095,36.5162],[44.5398,36.369],[44.6274,36.1268],[44.9693,35.9109],[44.6273,35.8857],[44.8023,35.4706],[44.5621,35.1291],[44.966,34.8675],[45.1891,34.7746],[45.1862,34.5495],[45.4494,34.672],[45.7195,35.11],[45.7962,34.9031],[46.1431,35.0995],[46.1253,35.285],[45.9959,35.6584],[46.2814,35.8283],[45.7187,35.8283],[45.5014,36.0054],[45.3596,35.9769],[45.2389,36.403],[45.0095,36.5162]]]}},{"type":"Feature","id":"label-IRQ-3242","properties":{"kind":"division-label","code":"IRQ-3242","countryCode":"IRQ","name":"Sulaymaniyah","localName":"Sulaymaniyah","labelEnglish":"Sulaymaniyah","labelLocal":"Sulaymaniyah","labelBoth":"Sulaymaniyah","type":"Province","iso":"IQ-SU","qid":"Q213182"},"geometry":{"type":"Point","coordinates":[45.4331,35.332]}},{"type":"Feature","id":"IRQ-3243","properties":{"kind":"division","code":"IRQ-3243","countryCode":"IRQ","name":"Diyala","localName":"Diyala","labelEnglish":"Diyala","labelLocal":"Diyala","labelBoth":"Diyala","type":"Province","iso":"IQ-DI","qid":"Q217075"},"geometry":{"type":"Polygon","coordinates":[[[45.7962,34.9031],[45.7195,35.11],[45.4494,34.672],[45.1862,34.5495],[45.1891,34.7746],[44.966,34.8675],[44.5219,34.5773],[44.5206,34.2939],[44.29,34.0183],[44.4478,33.9354],[44.3931,33.5709],[44.2448,33.4333],[44.2778,33.3786],[44.5426,33.3692],[44.5048,33.176],[44.5401,33.006],[44.8347,33.1743],[45.4837,33.066],[45.9645,33.496],[45.7246,33.633],[45.3804,33.9736],[45.561,34.2646],[45.4171,34.4444],[45.7962,34.9031]]]}},{"type":"Feature","id":"label-IRQ-3243","properties":{"kind":"division-label","code":"IRQ-3243","countryCode":"IRQ","name":"Diyala","localName":"Diyala","labelEnglish":"Diyala","labelLocal":"Diyala","labelBoth":"Diyala","type":"Province","iso":"IQ-DI","qid":"Q217075"},"geometry":{"type":"Point","coordinates":[45.1046,33.9882]}},{"type":"Feature","id":"IRQ-3227","properties":{"kind":"division","code":"IRQ-3227","countryCode":"IRQ","name":"Wasit","localName":"Wasit","labelEnglish":"Wasit","labelLocal":"Wasit","labelBoth":"Wasit","type":"Province","iso":"IQ-WA","qid":"Q189747"},"geometry":{"type":"Polygon","coordinates":[[[45.9645,33.496],[45.4837,33.066],[44.8347,33.1743],[44.5401,33.006],[44.5648,32.8157],[44.9699,32.6919],[45.1984,32.3944],[45.3919,32.3351],[45.7257,31.9478],[46.3174,32.0054],[46.5768,31.9836],[46.4502,32.2219],[46.6006,32.8225],[46.097,32.9543],[46.1553,33.2602],[45.9645,33.496]]]}},{"type":"Feature","id":"label-IRQ-3227","properties":{"kind":"division-label","code":"IRQ-3227","countryCode":"IRQ","name":"Wasit","localName":"Wasit","labelEnglish":"Wasit","labelLocal":"Wasit","labelBoth":"Wasit","type":"Province","iso":"IQ-WA","qid":"Q189747"},"geometry":{"type":"Point","coordinates":[45.5635,32.6139]}},{"type":"Feature","id":"IRQ-3226","properties":{"kind":"division","code":"IRQ-3226","countryCode":"IRQ","name":"Maysan","localName":"Maysan","labelEnglish":"Maysan","labelLocal":"Maysan","labelBoth":"Maysan","type":"Province","iso":"IQ-MA","qid":"Q213170"},"geometry":{"type":"Polygon","coordinates":[[[46.6006,32.8225],[46.4502,32.2219],[46.5768,31.9836],[46.3174,32.0054],[46.605,31.396],[46.8459,31.1391],[47.1261,31.1298],[47.211,31.2449],[47.6764,31.2365],[47.8313,31.7618],[47.5802,32.1035],[47.3433,32.4587],[47.121,32.461],[46.6006,32.8225]]]}},{"type":"Feature","id":"label-IRQ-3226","properties":{"kind":"division-label","code":"IRQ-3226","countryCode":"IRQ","name":"Maysan","localName":"Maysan","labelEnglish":"Maysan","labelLocal":"Maysan","labelBoth":"Maysan","type":"Province","iso":"IQ-MA","qid":"Q213170"},"geometry":{"type":"Point","coordinates":[47.0739,31.8089]}},{"type":"Feature","id":"IRQ-3471","properties":{"kind":"division","code":"IRQ-3471","countryCode":"IRQ","name":"Al Anbar","localName":"Al Anbar","labelEnglish":"Al Anbar","labelLocal":"Al Anbar","labelBoth":"Al Anbar","type":"Province","iso":"IQ-AN","qid":"Q187334"},"geometry":{"type":"Polygon","coordinates":[[[39.1464,32.1181],[40.4241,31.9205],[42.0754,31.0799],[42.7834,30.551],[43.0381,31.048],[43.2393,31.6315],[43.4092,31.8503],[43.7547,32.0017],[43.6906,32.1685],[43.2107,32.571],[43.759,32.8168],[44.1296,32.7812],[44.0157,33.0894],[43.8203,33.2017],[44.2873,33.1892],[44.2778,33.3786],[44.2448,33.4333],[43.9712,33.6711],[43.4296,33.7653],[43.0632,34.0756],[42.9288,34.4959],[42.5398,34.5953],[42.4913,34.9727],[41.9842,34.9643],[41.1923,35.1589],[41.1957,34.7685],[40.988,34.4285],[40.1731,34.0723],[38.7745,33.3717],[39.0572,32.4966],[39.2358,32.3529],[39.1464,32.1181]]]}},{"type":"Feature","id":"label-IRQ-3471","properties":{"kind":"division-label","code":"IRQ-3471","countryCode":"IRQ","name":"Al Anbar","localName":"Al Anbar","labelEnglish":"Al Anbar","labelLocal":"Al Anbar","labelBoth":"Al Anbar","type":"Province","iso":"IQ-AN","qid":"Q187334"},"geometry":{"type":"Point","coordinates":[41.5307,33.2317]}},{"type":"Feature","id":"IRQ-3061","properties":{"kind":"division","code":"IRQ-3061","countryCode":"IRQ","name":"Najaf","localName":"Najaf","labelEnglish":"Najaf","labelLocal":"Najaf","labelBoth":"Najaf","type":"Province","iso":"IQ-NA","qid":"Q192882"},"geometry":{"type":"Polygon","coordinates":[[[43.824,29.814],[44.0564,30.167],[44.2364,30.6153],[44.6513,31.0549],[44.7269,31.4075],[44.5346,31.4753],[44.5149,32.0083],[44.6299,32.1595],[44.3737,32.145],[44.3195,32.3437],[43.6906,32.1685],[43.7547,32.0017],[43.4092,31.8503],[43.2393,31.6315],[43.0381,31.048],[42.7834,30.551],[43.824,29.814]]]}},{"type":"Feature","id":"label-IRQ-3061","properties":{"kind":"division-label","code":"IRQ-3061","countryCode":"IRQ","name":"Najaf","localName":"Najaf","labelEnglish":"Najaf","labelLocal":"Najaf","labelBoth":"Najaf","type":"Province","iso":"IQ-NA","qid":"Q192882"},"geometry":{"type":"Point","coordinates":[43.7551,30.9322]}},{"type":"Feature","id":"IRQ-3051","properties":{"kind":"division","code":"IRQ-3051","countryCode":"IRQ","name":"Nineveh","localName":"Nineveh","labelEnglish":"Nineveh","labelLocal":"Nineveh","labelBoth":"Nineveh","type":"Province","iso":"IQ-NI","qid":"Q189352"},"geometry":{"type":"Polygon","coordinates":[[[42.3768,37.062],[41.8438,36.6179],[41.4149,36.5274],[41.2406,36.043],[41.3085,35.5522],[41.1923,35.1589],[41.9842,34.9643],[42.4913,34.9727],[42.5164,35.0701],[43.0373,35.109],[42.8979,35.4983],[43.3343,35.7235],[43.3529,35.9991],[43.9987,36.6008],[44.2971,36.7258],[43.8282,37.0119],[43.6488,36.8265],[43.3047,36.9302],[42.8434,36.6925],[42.5965,36.796],[42.3768,37.062]]]}},{"type":"Feature","id":"label-IRQ-3051","properties":{"kind":"division-label","code":"IRQ-3051","countryCode":"IRQ","name":"Nineveh","localName":"Nineveh","labelEnglish":"Nineveh","labelLocal":"Nineveh","labelBoth":"Nineveh","type":"Province","iso":"IQ-NI","qid":"Q189352"},"geometry":{"type":"Point","coordinates":[42.7469,35.9228]}},{"type":"Feature","id":"IRQ-3052","properties":{"kind":"division","code":"IRQ-3052","countryCode":"IRQ","name":"Saladin","localName":"Saladin","labelEnglish":"Saladin","labelLocal":"Saladin","labelBoth":"Saladin","type":"Province","iso":"IQ-SD","qid":"Q190131"},"geometry":{"type":"Polygon","coordinates":[[[44.5621,35.1291],[44.2884,34.7045],[43.4939,35.1107],[43.3582,35.4582],[43.3343,35.7235],[42.8979,35.4983],[43.0373,35.109],[42.5164,35.0701],[42.4913,34.9727],[42.5398,34.5953],[42.9288,34.4959],[43.0632,34.0756],[43.4296,33.7653],[43.9712,33.6711],[44.2448,33.4333],[44.3931,33.5709],[44.4478,33.9354],[44.29,34.0183],[44.5206,34.2939],[44.5219,34.5773],[44.966,34.8675],[44.5621,35.1291]]]}},{"type":"Feature","id":"label-IRQ-3052","properties":{"kind":"division-label","code":"IRQ-3052","countryCode":"IRQ","name":"Saladin","localName":"Saladin","labelEnglish":"Saladin","labelLocal":"Saladin","labelBoth":"Saladin","type":"Province","iso":"IQ-SD","qid":"Q190131"},"geometry":{"type":"Point","coordinates":[43.7294,34.3421]}},{"type":"Feature","id":"IRQ-3049","properties":{"kind":"division","code":"IRQ-3049","countryCode":"IRQ","name":"Kirkuk","localName":"Kirkuk","labelEnglish":"Kirkuk","labelLocal":"Kirkuk","labelBoth":"Kirkuk","type":"Province","iso":"IQ-TS","qid":"Q193268"},"geometry":{"type":"Polygon","coordinates":[[[44.6273,35.8857],[43.7685,35.7179],[43.7419,35.5481],[43.3582,35.4582],[43.4939,35.1107],[44.2884,34.7045],[44.5621,35.1291],[44.8023,35.4706],[44.6273,35.8857]]]}},{"type":"Feature","id":"label-IRQ-3049","properties":{"kind":"division-label","code":"IRQ-3049","countryCode":"IRQ","name":"Kirkuk","localName":"Kirkuk","labelEnglish":"Kirkuk","labelLocal":"Kirkuk","labelBoth":"Kirkuk","type":"Province","iso":"IQ-TS","qid":"Q193268"},"geometry":{"type":"Point","coordinates":[44.0354,35.3281]}},{"type":"Feature","id":"IRQ-3063","properties":{"kind":"division","code":"IRQ-3063","countryCode":"IRQ","name":"Baghdad","localName":"Baghdad","labelEnglish":"Baghdad","labelLocal":"Baghdad","labelBoth":"Baghdad","type":"Province","iso":"IQ-BG","qid":"Q191075"},"geometry":{"type":"Polygon","coordinates":[[[44.5048,33.176],[44.5426,33.3692],[44.2778,33.3786],[44.2873,33.1892],[44.5048,33.176]]]}},{"type":"Feature","id":"label-IRQ-3063","properties":{"kind":"division-label","code":"IRQ-3063","countryCode":"IRQ","name":"Baghdad","localName":"Baghdad","labelEnglish":"Baghdad","labelLocal":"Baghdad","labelBoth":"Baghdad","type":"Province","iso":"IQ-BG","qid":"Q191075"},"geometry":{"type":"Point","coordinates":[44.3827,33.306]}},{"type":"Feature","id":"IRQ-3472","properties":{"kind":"division","code":"IRQ-3472","countryCode":"IRQ","name":"Babylon","localName":"Babylon","labelEnglish":"Babylon","labelLocal":"Babylon","labelBoth":"Babylon","type":"Province","iso":"IQ-BB","qid":"Q59202"},"geometry":{"type":"Polygon","coordinates":[[[44.5048,33.176],[44.2873,33.1892],[43.8203,33.2017],[44.0157,33.0894],[44.1296,32.7812],[44.3195,32.3437],[44.3737,32.145],[44.6299,32.1595],[44.758,32.1254],[45.1984,32.3944],[44.9699,32.6919],[44.5648,32.8157],[44.5401,33.006],[44.5048,33.176]]]}},{"type":"Feature","id":"label-IRQ-3472","properties":{"kind":"division-label","code":"IRQ-3472","countryCode":"IRQ","name":"Babylon","localName":"Babylon","labelEnglish":"Babylon","labelLocal":"Babylon","labelBoth":"Babylon","type":"Province","iso":"IQ-BB","qid":"Q59202"},"geometry":{"type":"Point","coordinates":[44.5099,32.6833]}},{"type":"Feature","id":"IRQ-3224","properties":{"kind":"division","code":"IRQ-3224","countryCode":"IRQ","name":"Al-Qādisiyyah","localName":"Al-Qādisiyyah","labelEnglish":"Al-Qādisiyyah","labelLocal":"Al-Qādisiyyah","labelBoth":"Al-Qādisiyyah","type":"Province","iso":"IQ-QA","qid":"Q62987"},"geometry":{"type":"Polygon","coordinates":[[[45.1984,32.3944],[44.758,32.1254],[44.6299,32.1595],[44.5149,32.0083],[44.5346,31.4753],[44.7269,31.4075],[44.9783,31.2626],[45.1101,31.6164],[45.292,31.7276],[45.7858,31.6515],[45.7257,31.9478],[45.3919,32.3351],[45.1984,32.3944]]]}},{"type":"Feature","id":"label-IRQ-3224","properties":{"kind":"division-label","code":"IRQ-3224","countryCode":"IRQ","name":"Al-Qādisiyyah","localName":"Al-Qādisiyyah","labelEnglish":"Al-Qādisiyyah","labelLocal":"Al-Qādisiyyah","labelBoth":"Al-Qādisiyyah","type":"Province","iso":"IQ-QA","qid":"Q62987"},"geometry":{"type":"Point","coordinates":[45.1075,31.6081]}},{"type":"Feature","id":"IRQ-3225","properties":{"kind":"division","code":"IRQ-3225","countryCode":"IRQ","name":"Dhi Qar","localName":"Dhi Qar","labelEnglish":"Dhi Qar","labelLocal":"Dhi Qar","labelBoth":"Dhi Qar","type":"Province","iso":"IQ-DQ","qid":"Q215649"},"geometry":{"type":"Polygon","coordinates":[[[45.7858,31.6515],[45.7198,30.8376],[46.3714,30.7335],[46.5747,30.5141],[47.0884,30.5738],[47.1261,31.1298],[46.8459,31.1391],[46.605,31.396],[46.3174,32.0054],[45.7257,31.9478],[45.7858,31.6515]]]}},{"type":"Feature","id":"label-IRQ-3225","properties":{"kind":"division-label","code":"IRQ-3225","countryCode":"IRQ","name":"Dhi Qar","localName":"Dhi Qar","labelEnglish":"Dhi Qar","labelLocal":"Dhi Qar","labelBoth":"Dhi Qar","type":"Province","iso":"IQ-DQ","qid":"Q215649"},"geometry":{"type":"Point","coordinates":[46.4203,31.191]}},{"type":"Feature","id":"IRQ-3062","properties":{"kind":"division","code":"IRQ-3062","countryCode":"IRQ","name":"Karbala","localName":"Karbala","labelEnglish":"Karbala","labelLocal":"Karbala","labelBoth":"Karbala","type":"Province","iso":"IQ-KA","qid":"Q214104"},"geometry":{"type":"Polygon","coordinates":[[[44.1296,32.7812],[43.759,32.8168],[43.2107,32.571],[43.6906,32.1685],[44.3195,32.3437],[44.1296,32.7812]]]}},{"type":"Feature","id":"label-IRQ-3062","properties":{"kind":"division-label","code":"IRQ-3062","countryCode":"IRQ","name":"Karbala","localName":"Karbala","labelEnglish":"Karbala","labelLocal":"Karbala","labelBoth":"Karbala","type":"Province","iso":"IQ-KA","qid":"Q214104"},"geometry":{"type":"Point","coordinates":[43.7651,32.502]}}]}