{"type":"FeatureCollection","features":[{"type":"Feature","id":"ISL-695","properties":{"kind":"division","code":"ISL-695","countryCode":"ISL","name":"Austurland","localName":"Austurland","labelEnglish":"Austurland","labelLocal":"Austurland","labelBoth":"Austurland","type":"Region","iso":"IS-7","qid":"Q220663"},"geometry":{"type":"Polygon","coordinates":[[[-14.6146,65.9863],[-15.6641,65.7479],[-16.0138,65.5758],[-16.2094,65.043],[-16.6121,64.9273],[-16.8766,64.472],[-17.3418,64.0394],[-17.3857,63.773],[-16.3505,63.9656],[-15.9921,64.1445],[-14.5449,64.4051],[-14.442,64.6757],[-13.9863,64.7402],[-13.6474,64.9866],[-13.6096,65.5142],[-14.3976,65.73],[-14.8441,65.7352],[-14.6146,65.9863]]]}},{"type":"Feature","id":"label-ISL-695","properties":{"kind":"division-label","code":"ISL-695","countryCode":"ISL","name":"Austurland","localName":"Austurland","labelEnglish":"Austurland","labelLocal":"Austurland","labelBoth":"Austurland","type":"Region","iso":"IS-7","qid":"Q220663"},"geometry":{"type":"Point","coordinates":[-15.2246,65.4363]}},{"type":"Feature","id":"ISL-705","properties":{"kind":"division","code":"ISL-705","countryCode":"ISL","name":"Southern","localName":"Southern","labelEnglish":"Southern","labelLocal":"Southern","labelBoth":"Southern","type":"Region","iso":"IS-8","qid":"Q204796"},"geometry":{"type":"Polygon","coordinates":[[[-17.3857,63.773],[-17.3418,64.0394],[-16.8766,64.472],[-18.4265,64.8806],[-19.7201,64.7523],[-19.9774,64.8016],[-20.045,64.6982],[-21.1492,64.364],[-21.6524,64],[-21.932,63.8482],[-21.1683,63.8756],[-20.1857,63.5444],[-18.732,63.3967],[-17.965,63.5225],[-17.7148,63.7812],[-17.3857,63.773]]]}},{"type":"Feature","id":"label-ISL-705","properties":{"kind":"division-label","code":"ISL-705","countryCode":"ISL","name":"Southern","localName":"Southern","labelEnglish":"Southern","labelLocal":"Southern","labelBoth":"Southern","type":"Region","iso":"IS-8","qid":"Q204796"},"geometry":{"type":"Point","coordinates":[-18.5336,64.0187]}},{"type":"Feature","id":"ISL-704","properties":{"kind":"division","code":"ISL-704","countryCode":"ISL","name":"Southern Peninsula","localName":"Southern Peninsula","labelEnglish":"Southern Peninsula","labelLocal":"Southern Peninsula","labelBoth":"Southern Peninsula","type":"Independent Town","iso":"IS-2","qid":"Q212768"},"geometry":{"type":"Polygon","coordinates":[[[-21.932,63.8482],[-21.6524,64],[-21.9303,64.0041],[-22.1242,64.0439],[-22.7175,63.8284],[-21.932,63.8482]]]}},{"type":"Feature","id":"label-ISL-704","properties":{"kind":"division-label","code":"ISL-704","countryCode":"ISL","name":"Southern Peninsula","localName":"Southern Peninsula","labelEnglish":"Southern Peninsula","labelLocal":"Southern Peninsula","labelBoth":"Southern Peninsula","type":"Independent Town","iso":"IS-2","qid":"Q212768"},"geometry":{"type":"Point","coordinates":[-22.1206,63.9429]}},{"type":"Feature","id":"ISL-5131","properties":{"kind":"division","code":"ISL-5131","countryCode":"ISL","name":"Reykjavík","localName":"Reykjavík","labelEnglish":"Reykjavík","labelLocal":"Reykjavík","labelBoth":"Reykjavík","type":"Region","iso":"IS-0","qid":"Q1764"},"geometry":{"type":"Polygon","coordinates":[[[-22.1242,64.0439],[-21.9303,64.0041],[-21.8756,64.2737],[-22.1242,64.0439]]]}},{"type":"Feature","id":"label-ISL-5131","properties":{"kind":"division-label","code":"ISL-5131","countryCode":"ISL","name":"Reykjavík","localName":"Reykjavík","labelEnglish":"Reykjavík","labelLocal":"Reykjavík","labelBoth":"Reykjavík","type":"Region","iso":"IS-0","qid":"Q1764"},"geometry":{"type":"Point","coordinates":[-21.8646,64.0828]}},{"type":"Feature","id":"ISL-709","properties":{"kind":"division","code":"ISL-709","countryCode":"ISL","name":"Capital","localName":"Capital","labelEnglish":"Capital","labelLocal":"Capital","labelBoth":"Capital","type":"Region","iso":"IS-1","qid":"Q203304"},"geometry":{"type":"Polygon","coordinates":[[[-21.8756,64.2737],[-21.9303,64.0041],[-21.6524,64],[-21.1492,64.364],[-21.4251,64.3761],[-21.8756,64.2737]]]}},{"type":"Feature","id":"label-ISL-709","properties":{"kind":"division-label","code":"ISL-709","countryCode":"ISL","name":"Capital","localName":"Capital","labelEnglish":"Capital","labelLocal":"Capital","labelBoth":"Capital","type":"Region","iso":"IS-1","qid":"Q203304"},"geometry":{"type":"Point","coordinates":[-21.536,64.2277]}},{"type":"Feature","id":"ISL-710","properties":{"kind":"division","code":"ISL-710","countryCode":"ISL","name":"Western","localName":"Western","labelEnglish":"Western","labelLocal":"Western","labelBoth":"Western","type":"Region","iso":"IS-3","qid":"Q221791"},"geometry":{"type":"Polygon","coordinates":[[[-21.4251,64.3761],[-21.1492,64.364],[-20.045,64.6982],[-19.9774,64.8016],[-19.81,64.9355],[-20.9842,64.9724],[-21.6953,65.4534],[-22.5577,65.1689],[-22.38,65.0588],[-23.638,64.8985],[-23.5935,64.811],[-22.3197,64.7539],[-21.9751,64.5037],[-22.1,64.315],[-21.4251,64.3761]]]}},{"type":"Feature","id":"label-ISL-710","properties":{"kind":"division-label","code":"ISL-710","countryCode":"ISL","name":"Western","localName":"Western","labelEnglish":"Western","labelLocal":"Western","labelBoth":"Western","type":"Region","iso":"IS-3","qid":"Q221791"},"geometry":{"type":"Point","coordinates":[-21.357,64.8183]}},{"type":"Feature","id":"ISL-690","properties":{"kind":"division","code":"ISL-690","countryCode":"ISL","name":"Westfjords","localName":"Westfjords","labelEnglish":"Westfjords","labelLocal":"Westfjords","labelBoth":"Westfjords","type":"Region","iso":"IS-4","qid":"Q727267"},"geometry":{"type":"Polygon","coordinates":[[[-21.6953,65.4534],[-20.9842,64.9724],[-21.0836,65.1684],[-21.483,65.5626],[-21.3185,65.9878],[-22.5745,66.4659],[-23.1353,66.4328],[-22.3813,65.9288],[-23.4614,66.2042],[-23.8131,66.0114],[-23.7292,65.7744],[-24.5399,65.508],[-23.8975,65.4046],[-23.183,65.5764],[-22.2538,65.4337],[-21.6953,65.4534]]]}},{"type":"Feature","id":"label-ISL-690","properties":{"kind":"division-label","code":"ISL-690","countryCode":"ISL","name":"Westfjords","localName":"Westfjords","labelEnglish":"Westfjords","labelLocal":"Westfjords","labelBoth":"Westfjords","type":"Region","iso":"IS-4","qid":"Q727267"},"geometry":{"type":"Point","coordinates":[-22.1562,65.7068]}},{"type":"Feature","id":"ISL-697","properties":{"kind":"division","code":"ISL-697","countryCode":"ISL","name":"Northwestern","localName":"Northwestern","labelEnglish":"Northwestern","labelLocal":"Northwestern","labelBoth":"Northwestern","type":"Region","iso":"IS-5","qid":"Q210866"},"geometry":{"type":"Polygon","coordinates":[[[-21.0836,65.1684],[-20.9842,64.9724],[-19.81,64.9355],[-19.9774,64.8016],[-19.7201,64.7523],[-18.4265,64.8806],[-18.3825,65.2184],[-18.9136,65.5861],[-18.8531,66.0114],[-19.0788,66.158],[-19.6504,65.765],[-20.092,66.1312],[-20.4278,66.0834],[-20.2633,65.7445],[-20.5009,65.4949],[-20.6885,65.693],[-21.0552,65.4523],[-21.0836,65.1684]]]}},{"type":"Feature","id":"label-ISL-697","properties":{"kind":"division-label","code":"ISL-697","countryCode":"ISL","name":"Northwestern","localName":"Northwestern","labelEnglish":"Northwestern","labelLocal":"Northwestern","labelBoth":"Northwestern","type":"Region","iso":"IS-5","qid":"Q210866"},"geometry":{"type":"Point","coordinates":[-19.7011,65.1515]}},{"type":"Feature","id":"ISL-702","properties":{"kind":"division","code":"ISL-702","countryCode":"ISL","name":"Northeastern","localName":"Northeastern","labelEnglish":"Northeastern","labelLocal":"Northeastern","labelBoth":"Northeastern","type":"Region","iso":"IS-6","qid":"Q241551"},"geometry":{"type":"Polygon","coordinates":[[[-19.0788,66.158],[-18.8531,66.0114],[-18.9136,65.5861],[-18.3825,65.2184],[-18.4265,64.8806],[-16.8766,64.472],[-16.6121,64.9273],[-16.2094,65.043],[-16.0138,65.5758],[-15.6641,65.7479],[-14.6146,65.9863],[-15.076,66.0496],[-14.8398,66.3918],[-15.3804,66.15],[-16.0229,66.5366],[-16.5433,66.507],[-16.487,66.1895],[-17.2174,66.1942],[-17.5981,65.9667],[-18.297,66.1796],[-18.348,65.9502],[-19.0788,66.158]]]}},{"type":"Feature","id":"label-ISL-702","properties":{"kind":"division-label","code":"ISL-702","countryCode":"ISL","name":"Northeastern","localName":"Northeastern","labelEnglish":"Northeastern","labelLocal":"Northeastern","labelBoth":"Northeastern","type":"Region","iso":"IS-6","qid":"Q241551"},"geometry":{"type":"Point","coordinates":[-17.1782,65.3752]}}]}