{"type":"FeatureCollection","features":[{"type":"Feature","id":"ISR-3053","properties":{"kind":"division","code":"ISR-3053","countryCode":"ISR","name":"Southern","localName":"Southern","labelEnglish":"Southern","labelLocal":"Southern","labelBoth":"Southern","type":"District","iso":"IL-D","qid":"Q188781"},"geometry":{"type":"Polygon","coordinates":[[[34.2484,31.2114],[34.8244,29.7417],[34.8867,29.4901],[34.9556,29.559],[35.2639,30.72],[35.3471,30.9227],[35.4571,31.4335],[35.4581,31.4919],[35.1649,31.3623],[34.8672,31.3964],[34.9532,31.6083],[34.8278,31.792],[34.6659,31.8739],[34.4812,31.5831],[34.2484,31.2114]]]}},{"type":"Feature","id":"label-ISR-3053","properties":{"kind":"division-label","code":"ISR-3053","countryCode":"ISR","name":"Southern","localName":"Southern","labelEnglish":"Southern","labelLocal":"Southern","labelBoth":"Southern","type":"District","iso":"IL-D","qid":"Q188781"},"geometry":{"type":"Point","coordinates":[34.8419,30.935]}},{"type":"Feature","id":"ISR-3056","properties":{"kind":"division","code":"ISR-3056","countryCode":"ISR","name":"Northern","localName":"Northern","labelEnglish":"Northern","labelLocal":"Northern","labelBoth":"Northern","type":"District","iso":"IL-Z","qid":"Q189942"},"geometry":{"type":"Polygon","coordinates":[[[35.561,32.3847],[35.5627,32.6442],[35.7576,32.7443],[35.8881,32.9449],[35.8211,33.4067],[35.4801,33.0874],[35.2888,33.0992],[35.1052,33.089],[35.0755,32.8931],[35.0249,32.6079],[35.2104,32.5419],[35.561,32.3847]]]}},{"type":"Feature","id":"label-ISR-3056","properties":{"kind":"division-label","code":"ISR-3056","countryCode":"ISR","name":"Northern","localName":"Northern","labelEnglish":"Northern","labelLocal":"Northern","labelBoth":"Northern","type":"District","iso":"IL-Z","qid":"Q189942"},"geometry":{"type":"Point","coordinates":[35.4202,32.8235]}},{"type":"Feature","id":"ISR-3054","properties":{"kind":"division","code":"ISR-3054","countryCode":"ISR","name":"Haifa","localName":"Haifa","labelEnglish":"Haifa","labelLocal":"Haifa","labelBoth":"Haifa","type":"District","iso":"IL-HA","qid":"Q185845"},"geometry":{"type":"Polygon","coordinates":[[[35.2104,32.5419],[35.0249,32.6079],[35.0755,32.8931],[34.9475,32.8142],[34.8678,32.4075],[35.0327,32.3822],[35.2104,32.5419]]]}},{"type":"Feature","id":"label-ISR-3054","properties":{"kind":"division-label","code":"ISR-3054","countryCode":"ISR","name":"Haifa","localName":"Haifa","labelEnglish":"Haifa","labelLocal":"Haifa","labelBoth":"Haifa","type":"District","iso":"IL-HA","qid":"Q185845"},"geometry":{"type":"Point","coordinates":[34.9727,32.5523]}},{"type":"Feature","id":"ISR-3055","properties":{"kind":"division","code":"ISR-3055","countryCode":"ISR","name":"Central","localName":"Central","labelEnglish":"Central","labelLocal":"Central","labelBoth":"Central","type":"District","iso":"IL-M","qid":"Q188785"},"geometry":{"type":"Polygon","coordinates":[[[35.0327,32.3822],[34.8678,32.4075],[34.8044,32.1925],[34.8843,32.0254],[34.7339,32.0133],[34.6659,31.8739],[34.8278,31.792],[34.9985,31.8538],[35.0327,32.3822]]]}},{"type":"Feature","id":"label-ISR-3055","properties":{"kind":"division-label","code":"ISR-3055","countryCode":"ISR","name":"Central","localName":"Central","labelEnglish":"Central","labelLocal":"Central","labelBoth":"Central","type":"District","iso":"IL-M","qid":"Q188785"},"geometry":{"type":"Point","coordinates":[34.8491,31.9068]}},{"type":"Feature","id":"ISR-3058","properties":{"kind":"division","code":"ISR-3058","countryCode":"ISR","name":"Jerusalem","localName":"Jerusalem","labelEnglish":"Jerusalem","labelLocal":"Jerusalem","labelBoth":"Jerusalem","type":"District","iso":"IL-JM","qid":"Q192232"},"geometry":{"type":"Polygon","coordinates":[[[34.9532,31.6083],[35.2649,31.8263],[34.9985,31.8538],[34.8278,31.792],[34.9532,31.6083]]]}},{"type":"Feature","id":"label-ISR-3058","properties":{"kind":"division-label","code":"ISR-3058","countryCode":"ISR","name":"Jerusalem","localName":"Jerusalem","labelEnglish":"Jerusalem","labelLocal":"Jerusalem","labelBoth":"Jerusalem","type":"District","iso":"IL-JM","qid":"Q192232"},"geometry":{"type":"Point","coordinates":[35.0176,31.7397]}},{"type":"Feature","id":"ISR-3057","properties":{"kind":"division","code":"ISR-3057","countryCode":"ISR","name":"Tel Aviv","localName":"Tel Aviv","labelEnglish":"Tel Aviv","labelLocal":"Tel Aviv","labelBoth":"Tel Aviv","type":"District","iso":"IL-TA","qid":"Q192811"},"geometry":{"type":"Polygon","coordinates":[[[34.7339,32.0133],[34.8843,32.0254],[34.8044,32.1925],[34.7339,32.0133]]]}},{"type":"Feature","id":"label-ISR-3057","properties":{"kind":"division-label","code":"ISR-3057","countryCode":"ISR","name":"Tel Aviv","localName":"Tel Aviv","labelEnglish":"Tel Aviv","labelLocal":"Tel Aviv","labelBoth":"Tel Aviv","type":"District","iso":"IL-TA","qid":"Q192811"},"geometry":{"type":"Point","coordinates":[34.8091,32.0966]}}]}