{"type":"FeatureCollection","features":[{"type":"Feature","id":"ITA-5442","properties":{"kind":"division","code":"ITA-5442","countryCode":"ITA","name":"Aosta","localName":"Aosta","labelEnglish":"Aosta","labelLocal":"Aosta","labelBoth":"Aosta","type":"Province","iso":"IT-AO","qid":"Q3367"},"geometry":{"type":"Polygon","coordinates":[[[7.0221,45.9253],[6.7839,45.765],[7.0754,45.4663],[7.8802,45.6027],[7.9163,45.7297],[7.8559,45.9193],[7.8496,45.9397],[7.0221,45.9253]]]}},{"type":"Feature","id":"label-ITA-5442","properties":{"kind":"division-label","code":"ITA-5442","countryCode":"ITA","name":"Aosta","localName":"Aosta","labelEnglish":"Aosta","labelLocal":"Aosta","labelBoth":"Aosta","type":"Province","iso":"IT-AO","qid":"Q3367"},"geometry":{"type":"Point","coordinates":[7.35059,45.7126]}},{"type":"Feature","id":"ITA-5437","properties":{"kind":"division","code":"ITA-5437","countryCode":"ITA","name":"Verbano-Cusio-Ossola","localName":"Verbano-Cusio-Ossola","labelEnglish":"Verbano-Cusio-Ossola","labelLocal":"Verbano-Cusio-Ossola","labelBoth":"Verbano-Cusio-Ossola","type":"Province","iso":"IT-VB","qid":"Q16312"},"geometry":{"type":"Polygon","coordinates":[[[7.8496,45.9397],[7.8559,45.9193],[8.1872,45.9477],[8.3499,45.7724],[8.5984,45.826],[8.729,46.1082],[8.4272,46.2514],[8.3859,46.4502],[8.0731,46.2536],[7.8496,45.9397]]]}},{"type":"Feature","id":"label-ITA-5437","properties":{"kind":"division-label","code":"ITA-5437","countryCode":"ITA","name":"Verbano-Cusio-Ossola","localName":"Verbano-Cusio-Ossola","labelEnglish":"Verbano-Cusio-Ossola","labelLocal":"Verbano-Cusio-Ossola","labelBoth":"Verbano-Cusio-Ossola","type":"Province","iso":"IT-VB","qid":"Q16312"},"geometry":{"type":"Point","coordinates":[8.34317,46.0739]}},{"type":"Feature","id":"ITA-5451","properties":{"kind":"division","code":"ITA-5451","countryCode":"ITA","name":"Varese","localName":"Varese","labelEnglish":"Varese","labelLocal":"Varese","labelBoth":"Varese","type":"Province","iso":"IT-VA","qid":"Q16299"},"geometry":{"type":"Polygon","coordinates":[[[8.729,46.1082],[8.5984,45.826],[8.7052,45.5568],[9.053,45.6232],[9.0587,45.6614],[8.9089,45.8283],[8.729,46.1082]]]}},{"type":"Feature","id":"label-ITA-5451","properties":{"kind":"division-label","code":"ITA-5451","countryCode":"ITA","name":"Varese","localName":"Varese","labelEnglish":"Varese","labelLocal":"Varese","labelBoth":"Varese","type":"Province","iso":"IT-VA","qid":"Q16299"},"geometry":{"type":"Point","coordinates":[8.75898,45.7876]}},{"type":"Feature","id":"ITA-5452","properties":{"kind":"division","code":"ITA-5452","countryCode":"ITA","name":"Como","localName":"Como","labelEnglish":"Como","labelLocal":"Como","labelBoth":"Como","type":"Province","iso":"IT-CO","qid":"Q16161"},"geometry":{"type":"Polygon","coordinates":[[[8.9089,45.8283],[9.0587,45.6614],[9.2472,45.7426],[9.4246,46.16],[9.2248,46.2312],[9.1638,46.173],[8.9089,45.8283]]]}},{"type":"Feature","id":"label-ITA-5452","properties":{"kind":"division-label","code":"ITA-5452","countryCode":"ITA","name":"Como","localName":"Como","labelEnglish":"Como","labelLocal":"Como","labelBoth":"Como","type":"Province","iso":"IT-CO","qid":"Q16161"},"geometry":{"type":"Point","coordinates":[9.1586,45.9389]}},{"type":"Feature","id":"ITA-5444","properties":{"kind":"division","code":"ITA-5444","countryCode":"ITA","name":"Sondrio","localName":"Sondrio","labelEnglish":"Sondrio","labelLocal":"Sondrio","labelBoth":"Sondrio","type":"Province","iso":"IT-SO","qid":"Q16282"},"geometry":{"type":"Polygon","coordinates":[[[9.2248,46.2312],[9.4246,46.16],[9.5269,46.0114],[10.1695,46.057],[10.5279,46.3426],[10.6247,46.4545],[10.4518,46.5467],[10.0878,46.6044],[9.964,46.3561],[9.5597,46.2927],[9.2632,46.4851],[9.2248,46.2312]]]}},{"type":"Feature","id":"label-ITA-5444","properties":{"kind":"division-label","code":"ITA-5444","countryCode":"ITA","name":"Sondrio","localName":"Sondrio","labelEnglish":"Sondrio","labelLocal":"Sondrio","labelBoth":"Sondrio","type":"Province","iso":"IT-SO","qid":"Q16282"},"geometry":{"type":"Point","coordinates":[9.81202,46.2035]}},{"type":"Feature","id":"ITA-5459","properties":{"kind":"division","code":"ITA-5459","countryCode":"ITA","name":"Trentino-South Tyrol","localName":"Trentino-South Tyrol","labelEnglish":"Trentino-South Tyrol","labelLocal":"Trentino-South Tyrol","labelBoth":"Trentino-South Tyrol","type":"Province","iso":"IT-BZ","qid":"Q1237"},"geometry":{"type":"Polygon","coordinates":[[[10.4518,46.5467],[10.6247,46.4545],[11.2145,46.4693],[11.191,46.2271],[11.8322,46.504],[12.4696,46.6758],[12.1112,46.993],[12.2039,47.067],[12.1331,47.0788],[11.7464,46.9725],[11.3138,46.9873],[10.9969,46.7691],[10.4538,46.8644],[10.4518,46.5467]]]}},{"type":"Feature","id":"label-ITA-5459","properties":{"kind":"division-label","code":"ITA-5459","countryCode":"ITA","name":"Trentino-South Tyrol","localName":"Trentino-South Tyrol","labelEnglish":"Trentino-South Tyrol","labelLocal":"Trentino-South Tyrol","labelBoth":"Trentino-South Tyrol","type":"Province","iso":"IT-BZ","qid":"Q1237"},"geometry":{"type":"Point","coordinates":[11.4411,46.707]}},{"type":"Feature","id":"ITA-5369","properties":{"kind":"division","code":"ITA-5369","countryCode":"ITA","name":"Imperia","localName":"Imperia","labelEnglish":"Imperia","labelLocal":"Imperia","labelBoth":"Imperia","type":"Province","iso":"IT-IM","qid":"Q16186"},"geometry":{"type":"Polygon","coordinates":[[[7.5023,43.7922],[8.1302,43.9403],[8.0021,44.1184],[7.6879,44.0908],[7.5023,43.7922]]]}},{"type":"Feature","id":"label-ITA-5369","properties":{"kind":"division-label","code":"ITA-5369","countryCode":"ITA","name":"Imperia","localName":"Imperia","labelEnglish":"Imperia","labelLocal":"Imperia","labelBoth":"Imperia","type":"Province","iso":"IT-IM","qid":"Q16186"},"geometry":{"type":"Point","coordinates":[7.81935,44.011]}},{"type":"Feature","id":"ITA-5441","properties":{"kind":"division","code":"ITA-5441","countryCode":"ITA","name":"Cuneo","localName":"Cuneo","labelEnglish":"Cuneo","labelLocal":"Cuneo","labelBoth":"Cuneo","type":"Province","iso":"IT-CN","qid":"Q15091"},"geometry":{"type":"Polygon","coordinates":[[[7.6879,44.0908],[8.0021,44.1184],[8.2498,44.5346],[8.2655,44.7028],[7.9434,44.8463],[7.0388,44.7121],[6.9383,44.658],[6.8784,44.3546],[7.3808,44.1229],[7.6879,44.0908]]]}},{"type":"Feature","id":"label-ITA-5441","properties":{"kind":"division-label","code":"ITA-5441","countryCode":"ITA","name":"Cuneo","localName":"Cuneo","labelEnglish":"Cuneo","labelLocal":"Cuneo","labelBoth":"Cuneo","type":"Province","iso":"IT-CN","qid":"Q15091"},"geometry":{"type":"Point","coordinates":[7.63034,44.4862]}},{"type":"Feature","id":"ITA-5434","properties":{"kind":"division","code":"ITA-5434","countryCode":"ITA","name":"Turin","localName":"Turin","labelEnglish":"Turin","labelLocal":"Turin","labelBoth":"Turin","type":"Province","iso":"IT-TO","qid":"Q16287"},"geometry":{"type":"Polygon","coordinates":[[[7.0388,44.7121],[7.9434,44.8463],[7.8935,45.0903],[8.129,45.123],[8.1519,45.1686],[8.027,45.4031],[7.8802,45.6027],[7.0754,45.4663],[7.1084,45.2592],[6.6294,45.1235],[7.0388,44.7121]]]}},{"type":"Feature","id":"label-ITA-5434","properties":{"kind":"division-label","code":"ITA-5434","countryCode":"ITA","name":"Turin","localName":"Turin","labelEnglish":"Turin","labelLocal":"Turin","labelBoth":"Turin","type":"Province","iso":"IT-TO","qid":"Q16287"},"geometry":{"type":"Point","coordinates":[7.47211,45.1609]}},{"type":"Feature","id":"ITA-5366","properties":{"kind":"division","code":"ITA-5366","countryCode":"ITA","name":"Rimini","localName":"Rimini","labelEnglish":"Rimini","labelLocal":"Rimini","labelBoth":"Rimini","type":"Province","iso":"IT-RN","qid":"Q16268"},"geometry":{"type":"Polygon","coordinates":[[[12.4907,43.965],[12.4915,43.9491],[12.4831,43.9292],[12.7538,43.9724],[12.458,44.1664],[12.1022,43.759],[12.2858,43.7689],[12.4211,43.8952],[12.39,43.9179],[12.3856,43.9245],[12.4166,43.9637],[12.4272,43.9694],[12.4907,43.965]]]}},{"type":"Feature","id":"label-ITA-5366","properties":{"kind":"division-label","code":"ITA-5366","countryCode":"ITA","name":"Rimini","localName":"Rimini","labelEnglish":"Rimini","labelLocal":"Rimini","labelBoth":"Rimini","type":"Province","iso":"IT-RN","qid":"Q16268"},"geometry":{"type":"Point","coordinates":[12.5607,43.9996]}},{"type":"Feature","id":"ITA-5428","properties":{"kind":"division","code":"ITA-5428","countryCode":"ITA","name":"Pesaro and Urbino","localName":"Pesaro and Urbino","labelEnglish":"Pesaro and Urbino","labelLocal":"Pesaro and Urbino","labelBoth":"Pesaro and Urbino","type":"Province","iso":"IT-PU","qid":"Q16241"},"geometry":{"type":"Polygon","coordinates":[[[12.478,43.9232],[12.4644,43.9001],[12.4413,43.8933],[12.4211,43.8952],[12.2858,43.7689],[12.2048,43.6168],[12.7582,43.4612],[13.1772,43.7515],[12.7538,43.9724],[12.4831,43.9292],[12.478,43.9232]]]}},{"type":"Feature","id":"label-ITA-5428","properties":{"kind":"division-label","code":"ITA-5428","countryCode":"ITA","name":"Pesaro and Urbino","localName":"Pesaro and Urbino","labelEnglish":"Pesaro and Urbino","labelLocal":"Pesaro and Urbino","labelBoth":"Pesaro and Urbino","type":"Province","iso":"IT-PU","qid":"Q16241"},"geometry":{"type":"Point","coordinates":[12.6409,43.7017]}},{"type":"Feature","id":"ITA-5467","properties":{"kind":"division","code":"ITA-5467","countryCode":"ITA","name":"Belluno","localName":"Belluno","labelEnglish":"Belluno","labelLocal":"Belluno","labelBoth":"Belluno","type":"Province","iso":"IT-BL","qid":"Q16126"},"geometry":{"type":"Polygon","coordinates":[[[12.4696,46.6758],[11.8322,46.504],[11.9694,46.1963],[11.6848,45.9843],[11.7997,45.8806],[12.4224,46.0431],[12.5001,46.4042],[12.7485,46.641],[12.6714,46.6525],[12.4696,46.6758]]]}},{"type":"Feature","id":"label-ITA-5467","properties":{"kind":"division-label","code":"ITA-5467","countryCode":"ITA","name":"Belluno","localName":"Belluno","labelEnglish":"Belluno","labelLocal":"Belluno","labelBoth":"Belluno","type":"Province","iso":"IT-BL","qid":"Q16126"},"geometry":{"type":"Point","coordinates":[12.1449,46.3169]}},{"type":"Feature","id":"ITA-5455","properties":{"kind":"division","code":"ITA-5455","countryCode":"ITA","name":"Udine","localName":"Udine","labelEnglish":"Udine","labelLocal":"Udine","labelBoth":"Udine","type":"Province","iso":"IT-UD","qid":"Q16294"},"geometry":{"type":"Polygon","coordinates":[[[12.7485,46.641],[12.5001,46.4042],[12.9657,46.3289],[12.9729,45.8426],[13.0956,45.6523],[13.4226,45.7241],[13.4618,46.0064],[13.5226,46.0753],[13.6411,46.1714],[13.6274,46.1817],[13.3956,46.3067],[13.6859,46.464],[13.701,46.5197],[12.7485,46.641]]]}},{"type":"Feature","id":"label-ITA-5455","properties":{"kind":"division-label","code":"ITA-5455","countryCode":"ITA","name":"Udine","localName":"Udine","labelEnglish":"Udine","labelLocal":"Udine","labelBoth":"Udine","type":"Province","iso":"IT-UD","qid":"Q16294"},"geometry":{"type":"Point","coordinates":[13.1961,46.0839]}},{"type":"Feature","id":"ITA-5457","properties":{"kind":"division","code":"ITA-5457","countryCode":"ITA","name":"Gorizia","localName":"Gorizia","labelEnglish":"Gorizia","labelLocal":"Gorizia","labelBoth":"Gorizia","type":"Province","iso":"IT-GO","qid":"Q16184"},"geometry":{"type":"Polygon","coordinates":[[[13.4618,46.0064],[13.4226,45.7241],[13.5833,45.7868],[13.5885,45.8065],[13.5742,45.819],[13.5993,45.9123],[13.6153,45.9459],[13.6007,45.9846],[13.4618,46.0064]]]}},{"type":"Feature","id":"label-ITA-5457","properties":{"kind":"division-label","code":"ITA-5457","countryCode":"ITA","name":"Gorizia","localName":"Gorizia","labelEnglish":"Gorizia","labelLocal":"Gorizia","labelBoth":"Gorizia","type":"Province","iso":"IT-GO","qid":"Q16184"},"geometry":{"type":"Point","coordinates":[13.4936,45.8602]}},{"type":"Feature","id":"ITA-5458","properties":{"kind":"division","code":"ITA-5458","countryCode":"ITA","name":"Trieste","localName":"Trieste","labelEnglish":"Trieste","labelLocal":"Trieste","labelBoth":"Trieste","type":"Province","iso":"IT-TS","qid":"Q16293"},"geometry":{"type":"Polygon","coordinates":[[[13.5885,45.8065],[13.5833,45.7868],[13.7118,45.5932],[13.8679,45.6022],[13.8936,45.6338],[13.6999,45.7705],[13.5885,45.8065]]]}},{"type":"Feature","id":"label-ITA-5458","properties":{"kind":"division-label","code":"ITA-5458","countryCode":"ITA","name":"Trieste","localName":"Trieste","labelEnglish":"Trieste","labelLocal":"Trieste","labelBoth":"Trieste","type":"Province","iso":"IT-TS","qid":"Q16293"},"geometry":{"type":"Point","coordinates":[13.7799,45.6866]}},{"type":"Feature","id":"ITA-5461","properties":{"kind":"division","code":"ITA-5461","countryCode":"ITA","name":"Venice","localName":"Venice","labelEnglish":"Venice","labelLocal":"Venice","labelBoth":"Venice","type":"Province","iso":"IT-VE","qid":"Q16310"},"geometry":{"type":"MultiPolygon","coordinates":[[[[13.0956,45.6523],[12.9729,45.8426],[12.6728,45.8021],[12.2311,45.5367],[12.0924,45.5984],[12.1491,45.2922],[13.0956,45.6523]]],[[[12.1994,45.2746],[11.9619,45.1432],[12.3213,45.1648],[12.1994,45.2746]]]]}},{"type":"Feature","id":"label-ITA-5461","properties":{"kind":"division-label","code":"ITA-5461","countryCode":"ITA","name":"Venice","localName":"Venice","labelEnglish":"Venice","labelLocal":"Venice","labelBoth":"Venice","type":"Province","iso":"IT-VE","qid":"Q16310"},"geometry":{"type":"Point","coordinates":[12.1647,45.4591]}},{"type":"Feature","id":"ITA-5463","properties":{"kind":"division","code":"ITA-5463","countryCode":"ITA","name":"Padua","localName":"Padua","labelEnglish":"Padua","labelLocal":"Padua","labelBoth":"Padua","type":"Province","iso":"IT-PD","qid":"Q16226"},"geometry":{"type":"Polygon","coordinates":[[[12.1491,45.2922],[12.0924,45.5984],[11.8218,45.6871],[11.4872,45.2659],[11.4186,45.1318],[11.9619,45.1432],[12.1994,45.2746],[12.1491,45.2922]]]}},{"type":"Feature","id":"label-ITA-5463","properties":{"kind":"division-label","code":"ITA-5463","countryCode":"ITA","name":"Padua","localName":"Padua","labelEnglish":"Padua","labelLocal":"Padua","labelBoth":"Padua","type":"Province","iso":"IT-PD","qid":"Q16226"},"geometry":{"type":"Point","coordinates":[11.8371,45.361]}},{"type":"Feature","id":"ITA-5462","properties":{"kind":"division","code":"ITA-5462","countryCode":"ITA","name":"Rovigo","localName":"Rovigo","labelEnglish":"Rovigo","labelLocal":"Rovigo","labelBoth":"Rovigo","type":"Province","iso":"IT-RO","qid":"Q16270"},"geometry":{"type":"Polygon","coordinates":[[[12.3213,45.1648],[11.9619,45.1432],[11.4186,45.1318],[11.2103,45.1043],[11.4215,44.9499],[12.272,44.9364],[12.3934,44.7935],[12.5339,44.97],[12.3213,45.1648]]]}},{"type":"Feature","id":"label-ITA-5462","properties":{"kind":"division-label","code":"ITA-5462","countryCode":"ITA","name":"Rovigo","localName":"Rovigo","labelEnglish":"Rovigo","labelLocal":"Rovigo","labelBoth":"Rovigo","type":"Province","iso":"IT-RO","qid":"Q16270"},"geometry":{"type":"Point","coordinates":[11.8695,45.0532]}},{"type":"Feature","id":"ITA-5363","properties":{"kind":"division","code":"ITA-5363","countryCode":"ITA","name":"Ferrara","localName":"Ferrara","labelEnglish":"Ferrara","labelLocal":"Ferrara","labelBoth":"Ferrara","type":"Province","iso":"IT-FE","qid":"Q16168"},"geometry":{"type":"Polygon","coordinates":[[[12.3934,44.7935],[12.272,44.9364],[11.4215,44.9499],[11.257,44.9473],[11.2933,44.8027],[11.7893,44.5544],[12.2696,44.6298],[12.3934,44.7935]]]}},{"type":"Feature","id":"label-ITA-5363","properties":{"kind":"division-label","code":"ITA-5363","countryCode":"ITA","name":"Ferrara","localName":"Ferrara","labelEnglish":"Ferrara","labelLocal":"Ferrara","labelBoth":"Ferrara","type":"Province","iso":"IT-FE","qid":"Q16168"},"geometry":{"type":"Point","coordinates":[11.9305,44.773]}},{"type":"Feature","id":"ITA-5364","properties":{"kind":"division","code":"ITA-5364","countryCode":"ITA","name":"Ravenna","localName":"Ravenna","labelEnglish":"Ravenna","labelLocal":"Ravenna","labelBoth":"Ravenna","type":"Province","iso":"IT-RA","qid":"Q16252"},"geometry":{"type":"Polygon","coordinates":[[[12.2696,44.6298],[11.7893,44.5544],[11.8203,44.3957],[11.5263,44.1622],[11.72,44.1317],[12.0316,44.3303],[12.3856,44.2285],[12.2696,44.6298]]]}},{"type":"Feature","id":"label-ITA-5364","properties":{"kind":"division-label","code":"ITA-5364","countryCode":"ITA","name":"Ravenna","localName":"Ravenna","labelEnglish":"Ravenna","labelLocal":"Ravenna","labelBoth":"Ravenna","type":"Province","iso":"IT-RA","qid":"Q16252"},"geometry":{"type":"Point","coordinates":[12.0852,44.4235]}},{"type":"Feature","id":"ITA-5365","properties":{"kind":"division","code":"ITA-5365","countryCode":"ITA","name":"Forlì-Cesena","localName":"Forlì-Cesena","labelEnglish":"Forlì-Cesena","labelLocal":"Forlì-Cesena","labelBoth":"Forlì-Cesena","type":"Province","iso":"IT-FC","qid":"Q16180"},"geometry":{"type":"Polygon","coordinates":[[[12.3856,44.2285],[12.0316,44.3303],[11.72,44.1317],[11.7163,43.8791],[12.1022,43.759],[12.458,44.1664],[12.3856,44.2285]]]}},{"type":"Feature","id":"label-ITA-5365","properties":{"kind":"division-label","code":"ITA-5365","countryCode":"ITA","name":"Forlì-Cesena","localName":"Forlì-Cesena","labelEnglish":"Forlì-Cesena","labelLocal":"Forlì-Cesena","labelBoth":"Forlì-Cesena","type":"Province","iso":"IT-FC","qid":"Q16180"},"geometry":{"type":"Point","coordinates":[12.0795,44.0569]}},{"type":"Feature","id":"ITA-5427","properties":{"kind":"division","code":"ITA-5427","countryCode":"ITA","name":"Ancona","localName":"Ancona","labelEnglish":"Ancona","labelLocal":"Ancona","labelBoth":"Ancona","type":"Province","iso":"IT-AN","qid":"Q16114"},"geometry":{"type":"Polygon","coordinates":[[[13.1772,43.7515],[12.7582,43.4612],[12.8517,43.2061],[13.0982,43.4309],[13.647,43.4753],[13.1772,43.7515]]]}},{"type":"Feature","id":"label-ITA-5427","properties":{"kind":"division-label","code":"ITA-5427","countryCode":"ITA","name":"Ancona","localName":"Ancona","labelEnglish":"Ancona","labelLocal":"Ancona","labelBoth":"Ancona","type":"Province","iso":"IT-AN","qid":"Q16114"},"geometry":{"type":"Point","coordinates":[13.1128,43.5383]}},{"type":"Feature","id":"ITA-5429","properties":{"kind":"division","code":"ITA-5429","countryCode":"ITA","name":"Macerata","localName":"Macerata","labelEnglish":"Macerata","labelLocal":"Macerata","labelBoth":"Macerata","type":"Province","iso":"IT-MC","qid":"Q16203"},"geometry":{"type":"Polygon","coordinates":[[[13.647,43.4753],[13.0982,43.4309],[12.8517,43.2061],[12.9131,42.9634],[13.2243,42.8477],[13.2418,42.892],[13.4525,43.1548],[13.745,43.2922],[13.647,43.4753]]]}},{"type":"Feature","id":"label-ITA-5429","properties":{"kind":"division-label","code":"ITA-5429","countryCode":"ITA","name":"Macerata","localName":"Macerata","labelEnglish":"Macerata","labelLocal":"Macerata","labelBoth":"Macerata","type":"Province","iso":"IT-MC","qid":"Q16203"},"geometry":{"type":"Point","coordinates":[13.2195,43.1918]}},{"type":"Feature","id":"ITA-5430","properties":{"kind":"division","code":"ITA-5430","countryCode":"ITA","name":"Fermo","localName":"Fermo","labelEnglish":"Fermo","labelLocal":"Fermo","labelBoth":"Fermo","type":"Province","iso":"IT-FM","qid":"Q16167"},"geometry":{"type":"Polygon","coordinates":[[[13.745,43.2922],[13.4525,43.1548],[13.2418,42.892],[13.8535,43.0674],[13.745,43.2922]]]}},{"type":"Feature","id":"label-ITA-5430","properties":{"kind":"division-label","code":"ITA-5430","countryCode":"ITA","name":"Fermo","localName":"Fermo","labelEnglish":"Fermo","labelLocal":"Fermo","labelBoth":"Fermo","type":"Province","iso":"IT-FM","qid":"Q16167"},"geometry":{"type":"Point","coordinates":[13.6263,43.1231]}},{"type":"Feature","id":"ITA-5431","properties":{"kind":"division","code":"ITA-5431","countryCode":"ITA","name":"Ascoli Piceno","localName":"Ascoli Piceno","labelEnglish":"Ascoli Piceno","labelLocal":"Ascoli Piceno","labelBoth":"Ascoli Piceno","type":"Province","iso":"IT-AP","qid":"Q16117"},"geometry":{"type":"Polygon","coordinates":[[[13.8535,43.0674],[13.2418,42.892],[13.2243,42.8477],[13.1945,42.7346],[13.3376,42.6877],[13.9055,42.9016],[13.8535,43.0674]]]}},{"type":"Feature","id":"label-ITA-5431","properties":{"kind":"division-label","code":"ITA-5431","countryCode":"ITA","name":"Ascoli Piceno","localName":"Ascoli Piceno","labelEnglish":"Ascoli Piceno","labelLocal":"Ascoli Piceno","labelBoth":"Ascoli Piceno","type":"Province","iso":"IT-AP","qid":"Q16117"},"geometry":{"type":"Point","coordinates":[13.5862,42.9054]}},{"type":"Feature","id":"ITA-5419","properties":{"kind":"division","code":"ITA-5419","countryCode":"ITA","name":"Teramo","localName":"Teramo","labelEnglish":"Teramo","labelLocal":"Teramo","labelBoth":"Teramo","type":"Province","iso":"IT-TE","qid":"Q16284"},"geometry":{"type":"Polygon","coordinates":[[[13.9055,42.9016],[13.3376,42.6877],[13.3759,42.6038],[13.7654,42.4201],[14.1513,42.5316],[13.9055,42.9016]]]}},{"type":"Feature","id":"label-ITA-5419","properties":{"kind":"division-label","code":"ITA-5419","countryCode":"ITA","name":"Teramo","localName":"Teramo","labelEnglish":"Teramo","labelLocal":"Teramo","labelBoth":"Teramo","type":"Province","iso":"IT-TE","qid":"Q16284"},"geometry":{"type":"Point","coordinates":[13.7294,42.6705]}},{"type":"Feature","id":"ITA-5418","properties":{"kind":"division","code":"ITA-5418","countryCode":"ITA","name":"Pescara","localName":"Pescara","labelEnglish":"Pescara","labelLocal":"Pescara","labelBoth":"Pescara","type":"Province","iso":"IT-PE","qid":"Q16242"},"geometry":{"type":"Polygon","coordinates":[[[14.1513,42.5316],[13.7654,42.4201],[13.7954,42.1512],[14.0854,42.0867],[14.2572,42.4461],[14.1513,42.5316]]]}},{"type":"Feature","id":"label-ITA-5418","properties":{"kind":"division-label","code":"ITA-5418","countryCode":"ITA","name":"Pescara","localName":"Pescara","labelEnglish":"Pescara","labelLocal":"Pescara","labelBoth":"Pescara","type":"Province","iso":"IT-PE","qid":"Q16242"},"geometry":{"type":"Point","coordinates":[13.8877,42.3126]}},{"type":"Feature","id":"ITA-5421","properties":{"kind":"division","code":"ITA-5421","countryCode":"ITA","name":"Chieti","localName":"Chieti","labelEnglish":"Chieti","labelLocal":"Chieti","labelBoth":"Chieti","type":"Province","iso":"IT-CH","qid":"Q16160"},"geometry":{"type":"Polygon","coordinates":[[[14.2572,42.4461],[14.0854,42.0867],[14.2294,41.8774],[14.4904,41.7761],[14.7634,42.0779],[14.2572,42.4461]]]}},{"type":"Feature","id":"label-ITA-5421","properties":{"kind":"division-label","code":"ITA-5421","countryCode":"ITA","name":"Chieti","localName":"Chieti","labelEnglish":"Chieti","labelLocal":"Chieti","labelBoth":"Chieti","type":"Province","iso":"IT-CH","qid":"Q16160"},"geometry":{"type":"Point","coordinates":[14.3997,42.1033]}},{"type":"Feature","id":"ITA-5401","properties":{"kind":"division","code":"ITA-5401","countryCode":"ITA","name":"Campobasso","localName":"Campobasso","labelEnglish":"Campobasso","labelLocal":"Campobasso","labelBoth":"Campobasso","type":"Province","iso":"IT-CB","qid":"Q16151"},"geometry":{"type":"Polygon","coordinates":[[[14.7634,42.0779],[14.4904,41.7761],[14.3827,41.442],[14.5138,41.389],[14.9953,41.4821],[15.1435,41.9312],[14.7634,42.0779]]]}},{"type":"Feature","id":"label-ITA-5401","properties":{"kind":"division-label","code":"ITA-5401","countryCode":"ITA","name":"Campobasso","localName":"Campobasso","labelEnglish":"Campobasso","labelLocal":"Campobasso","labelBoth":"Campobasso","type":"Province","iso":"IT-CB","qid":"Q16151"},"geometry":{"type":"Point","coordinates":[14.7413,41.6425]}},{"type":"Feature","id":"ITA-5404","properties":{"kind":"division","code":"ITA-5404","countryCode":"ITA","name":"Foggia","localName":"Foggia","labelEnglish":"Foggia","labelLocal":"Foggia","labelBoth":"Foggia","type":"Province","iso":"IT-FG","qid":"Q15129"},"geometry":{"type":"Polygon","coordinates":[[[15.1435,41.9312],[14.9953,41.4821],[15.1435,41.2746],[15.5586,41.0551],[15.8583,41.1368],[15.9717,41.4539],[15.9253,41.64],[16.1929,41.7909],[16.0271,41.9441],[15.1435,41.9312]]]}},{"type":"Feature","id":"label-ITA-5404","properties":{"kind":"division-label","code":"ITA-5404","countryCode":"ITA","name":"Foggia","localName":"Foggia","labelEnglish":"Foggia","labelLocal":"Foggia","labelBoth":"Foggia","type":"Province","iso":"IT-FG","qid":"Q15129"},"geometry":{"type":"Point","coordinates":[15.5111,41.5476]}},{"type":"Feature","id":"ITA-5405","properties":{"kind":"division","code":"ITA-5405","countryCode":"ITA","name":"Barletta-Andria-Trani","localName":"Barletta-Andria-Trani","labelEnglish":"Barletta-Andria-Trani","labelLocal":"Barletta-Andria-Trani","labelBoth":"Barletta-Andria-Trani","type":"Province","iso":"IT-BT","qid":"Q16124"},"geometry":{"type":"Polygon","coordinates":[[[15.9717,41.4539],[15.8583,41.1368],[16.1966,40.9114],[16.5442,41.2352],[15.9717,41.4539]]]}},{"type":"Feature","id":"label-ITA-5405","properties":{"kind":"division-label","code":"ITA-5405","countryCode":"ITA","name":"Barletta-Andria-Trani","localName":"Barletta-Andria-Trani","labelEnglish":"Barletta-Andria-Trani","labelLocal":"Barletta-Andria-Trani","labelBoth":"Barletta-Andria-Trani","type":"Province","iso":"IT-BT","qid":"Q16124"},"geometry":{"type":"Point","coordinates":[16.1413,41.1638]}},{"type":"Feature","id":"ITA-5403","properties":{"kind":"division","code":"ITA-5403","countryCode":"ITA","name":"Bari","localName":"Bari","labelEnglish":"Bari","labelLocal":"Bari","labelBoth":"Bari","type":"Province","iso":"IT-BA","qid":"Q16123"},"geometry":{"type":"Polygon","coordinates":[[[16.5442,41.2352],[16.1966,40.9114],[16.2454,40.8375],[16.7157,40.7154],[17.3537,40.7486],[17.3923,40.8937],[16.5442,41.2352]]]}},{"type":"Feature","id":"label-ITA-5403","properties":{"kind":"division-label","code":"ITA-5403","countryCode":"ITA","name":"Bari","localName":"Bari","labelEnglish":"Bari","labelLocal":"Bari","labelBoth":"Bari","type":"Province","iso":"IT-BA","qid":"Q16123"},"geometry":{"type":"Point","coordinates":[16.7706,40.928]}},{"type":"Feature","id":"ITA-5406","properties":{"kind":"division","code":"ITA-5406","countryCode":"ITA","name":"Brindisi","localName":"Brindisi","labelEnglish":"Brindisi","labelLocal":"Brindisi","labelBoth":"Brindisi","type":"Province","iso":"IT-BR","qid":"Q16148"},"geometry":{"type":"Polygon","coordinates":[[[17.3923,40.8937],[17.3537,40.7486],[17.4853,40.4875],[17.7985,40.3796],[18.0989,40.5179],[18.007,40.6507],[17.3923,40.8937]]]}},{"type":"Feature","id":"label-ITA-5406","properties":{"kind":"division-label","code":"ITA-5406","countryCode":"ITA","name":"Brindisi","localName":"Brindisi","labelEnglish":"Brindisi","labelLocal":"Brindisi","labelBoth":"Brindisi","type":"Province","iso":"IT-BR","qid":"Q16148"},"geometry":{"type":"Point","coordinates":[17.711,40.6195]}},{"type":"Feature","id":"ITA-5407","properties":{"kind":"division","code":"ITA-5407","countryCode":"ITA","name":"Lecce","localName":"Lecce","labelEnglish":"Lecce","labelLocal":"Lecce","labelBoth":"Lecce","type":"Province","iso":"IT-LE","qid":"Q16197"},"geometry":{"type":"Polygon","coordinates":[[[18.0989,40.5179],[17.7985,40.3796],[17.764,40.2934],[17.9128,40.2553],[18.0715,39.9115],[18.3683,39.7966],[18.5174,40.1142],[18.0989,40.5179]]]}},{"type":"Feature","id":"label-ITA-5407","properties":{"kind":"division-label","code":"ITA-5407","countryCode":"ITA","name":"Lecce","localName":"Lecce","labelEnglish":"Lecce","labelLocal":"Lecce","labelBoth":"Lecce","type":"Province","iso":"IT-LE","qid":"Q16197"},"geometry":{"type":"Point","coordinates":[18.2094,40.167]}},{"type":"Feature","id":"ITA-5408","properties":{"kind":"division","code":"ITA-5408","countryCode":"ITA","name":"Taranto","localName":"Taranto","labelEnglish":"Taranto","labelLocal":"Taranto","labelBoth":"Taranto","type":"Province","iso":"IT-TA","qid":"Q16283"},"geometry":{"type":"Polygon","coordinates":[[[17.764,40.2934],[17.7985,40.3796],[17.4853,40.4875],[17.3537,40.7486],[16.7157,40.7154],[16.8633,40.3909],[17.0496,40.5191],[17.5121,40.3037],[17.764,40.2934]]]}},{"type":"Feature","id":"label-ITA-5408","properties":{"kind":"division-label","code":"ITA-5408","countryCode":"ITA","name":"Taranto","localName":"Taranto","labelEnglish":"Taranto","labelLocal":"Taranto","labelBoth":"Taranto","type":"Province","iso":"IT-TA","qid":"Q16283"},"geometry":{"type":"Point","coordinates":[17.1095,40.6081]}},{"type":"Feature","id":"ITA-5389","properties":{"kind":"division","code":"ITA-5389","countryCode":"ITA","name":"Matera","localName":"Matera","labelEnglish":"Matera","labelLocal":"Matera","labelBoth":"Matera","type":"Province","iso":"IT-MT","qid":"Q16206"},"geometry":{"type":"Polygon","coordinates":[[[16.8633,40.3909],[16.7157,40.7154],[16.2454,40.8375],[16.1215,40.7961],[16.109,40.4032],[16.3746,40.3099],[16.3988,40.0555],[16.64,40.1187],[16.8633,40.3909]]]}},{"type":"Feature","id":"label-ITA-5389","properties":{"kind":"division-label","code":"ITA-5389","countryCode":"ITA","name":"Matera","localName":"Matera","labelEnglish":"Matera","labelLocal":"Matera","labelBoth":"Matera","type":"Province","iso":"IT-MT","qid":"Q16206"},"geometry":{"type":"Point","coordinates":[16.4876,40.4533]}},{"type":"Feature","id":"ITA-5391","properties":{"kind":"division","code":"ITA-5391","countryCode":"ITA","name":"Cosenza","localName":"Cosenza","labelEnglish":"Cosenza","labelLocal":"Cosenza","labelBoth":"Cosenza","type":"Province","iso":"IT-CS","qid":"Q16162"},"geometry":{"type":"Polygon","coordinates":[[[16.64,40.1187],[16.3988,40.0555],[16.3453,39.9326],[15.7458,39.9246],[15.9954,39.4388],[16.0969,39.0504],[16.4809,39.0647],[16.6132,39.1943],[17.0192,39.4792],[16.5156,39.6896],[16.64,40.1187]]]}},{"type":"Feature","id":"label-ITA-5391","properties":{"kind":"division-label","code":"ITA-5391","countryCode":"ITA","name":"Cosenza","localName":"Cosenza","labelEnglish":"Cosenza","labelLocal":"Cosenza","labelBoth":"Cosenza","type":"Province","iso":"IT-CS","qid":"Q16162"},"geometry":{"type":"Point","coordinates":[16.3123,39.5555]}},{"type":"Feature","id":"ITA-5392","properties":{"kind":"division","code":"ITA-5392","countryCode":"ITA","name":"Crotone","localName":"Crotone","labelEnglish":"Crotone","labelLocal":"Crotone","labelBoth":"Crotone","type":"Province","iso":"IT-KR","qid":"Q16165"},"geometry":{"type":"Polygon","coordinates":[[[17.0192,39.4792],[16.6132,39.1943],[16.8922,38.9296],[17.104,38.8991],[17.1587,39.4062],[17.0192,39.4792]]]}},{"type":"Feature","id":"label-ITA-5392","properties":{"kind":"division-label","code":"ITA-5392","countryCode":"ITA","name":"Crotone","localName":"Crotone","labelEnglish":"Crotone","labelLocal":"Crotone","labelBoth":"Crotone","type":"Province","iso":"IT-KR","qid":"Q16165"},"geometry":{"type":"Point","coordinates":[16.9491,39.1644]}},{"type":"Feature","id":"ITA-5393","properties":{"kind":"division","code":"ITA-5393","countryCode":"ITA","name":"Catanzaro","localName":"Catanzaro","labelEnglish":"Catanzaro","labelLocal":"Catanzaro","labelBoth":"Catanzaro","type":"Province","iso":"IT-CZ","qid":"Q16159"},"geometry":{"type":"Polygon","coordinates":[[[16.8922,38.9296],[16.6132,39.1943],[16.4809,39.0647],[16.0969,39.0504],[16.2137,38.8104],[16.4199,38.554],[16.5735,38.4673],[16.5388,38.7233],[16.8922,38.9296]]]}},{"type":"Feature","id":"label-ITA-5393","properties":{"kind":"division-label","code":"ITA-5393","countryCode":"ITA","name":"Catanzaro","localName":"Catanzaro","labelEnglish":"Catanzaro","labelLocal":"Catanzaro","labelBoth":"Catanzaro","type":"Province","iso":"IT-CZ","qid":"Q16159"},"geometry":{"type":"Point","coordinates":[16.4736,38.878]}},{"type":"Feature","id":"ITA-5395","properties":{"kind":"division","code":"ITA-5395","countryCode":"ITA","name":"Reggio Calabria","localName":"Reggio Calabria","labelEnglish":"Reggio Calabria","labelLocal":"Reggio Calabria","labelBoth":"Reggio Calabria","type":"Province","iso":"IT-RC","qid":"Q16253"},"geometry":{"type":"Polygon","coordinates":[[[16.5735,38.4673],[16.4199,38.554],[16.365,38.4317],[15.9144,38.5056],[15.6506,38.241],[15.6658,37.9669],[16.09,37.9492],[16.1694,38.1432],[16.5735,38.4673]]]}},{"type":"Feature","id":"label-ITA-5395","properties":{"kind":"division-label","code":"ITA-5395","countryCode":"ITA","name":"Reggio Calabria","localName":"Reggio Calabria","labelEnglish":"Reggio Calabria","labelLocal":"Reggio Calabria","labelBoth":"Reggio Calabria","type":"Province","iso":"IT-RC","qid":"Q16253"},"geometry":{"type":"Point","coordinates":[16.0152,38.2363]}},{"type":"Feature","id":"ITA-5394","properties":{"kind":"division","code":"ITA-5394","countryCode":"ITA","name":"Vibo Valentia","localName":"Vibo Valentia","labelEnglish":"Vibo Valentia","labelLocal":"Vibo Valentia","labelBoth":"Vibo Valentia","type":"Province","iso":"IT-VV","qid":"Q16315"},"geometry":{"type":"Polygon","coordinates":[[[15.9144,38.5056],[16.365,38.4317],[16.4199,38.554],[16.2137,38.8104],[15.8445,38.6604],[15.9144,38.5056]]]}},{"type":"Feature","id":"label-ITA-5394","properties":{"kind":"division-label","code":"ITA-5394","countryCode":"ITA","name":"Vibo Valentia","localName":"Vibo Valentia","labelEnglish":"Vibo Valentia","labelLocal":"Vibo Valentia","labelBoth":"Vibo Valentia","type":"Province","iso":"IT-VV","qid":"Q16315"},"geometry":{"type":"Point","coordinates":[16.1928,38.6431]}},{"type":"Feature","id":"ITA-5390","properties":{"kind":"division","code":"ITA-5390","countryCode":"ITA","name":"Potenza","localName":"Potenza","labelEnglish":"Potenza","labelLocal":"Potenza","labelBoth":"Potenza","type":"Province","iso":"IT-PZ","qid":"Q16249"},"geometry":{"type":"Polygon","coordinates":[[[15.7458,39.9246],[16.3453,39.9326],[16.3988,40.0555],[16.3746,40.3099],[16.109,40.4032],[16.1215,40.7961],[16.2454,40.8375],[16.1966,40.9114],[15.8583,41.1368],[15.5586,41.0551],[15.3443,40.8207],[15.7854,40.2689],[15.6467,40.0469],[15.7458,39.9246]]]}},{"type":"Feature","id":"label-ITA-5390","properties":{"kind":"division-label","code":"ITA-5390","countryCode":"ITA","name":"Potenza","localName":"Potenza","labelEnglish":"Potenza","labelLocal":"Potenza","labelBoth":"Potenza","type":"Province","iso":"IT-PZ","qid":"Q16249"},"geometry":{"type":"Point","coordinates":[15.9408,40.3331]}},{"type":"Feature","id":"ITA-5400","properties":{"kind":"division","code":"ITA-5400","countryCode":"ITA","name":"Salerno","localName":"Salerno","labelEnglish":"Salerno","labelLocal":"Salerno","labelBoth":"Salerno","type":"Province","iso":"IT-SA","qid":"Q16271"},"geometry":{"type":"Polygon","coordinates":[[[15.6467,40.0469],[15.7854,40.2689],[15.3443,40.8207],[15.2374,40.7235],[14.6055,40.8476],[14.4714,40.6247],[14.7522,40.6767],[14.9983,40.3976],[14.9111,40.2416],[15.3432,40.0041],[15.6467,40.0469]]]}},{"type":"Feature","id":"label-ITA-5400","properties":{"kind":"division-label","code":"ITA-5400","countryCode":"ITA","name":"Salerno","localName":"Salerno","labelEnglish":"Salerno","labelLocal":"Salerno","labelBoth":"Salerno","type":"Province","iso":"IT-SA","qid":"Q16271"},"geometry":{"type":"Point","coordinates":[15.2189,40.4362]}},{"type":"Feature","id":"ITA-5397","properties":{"kind":"division","code":"ITA-5397","countryCode":"ITA","name":"Naples","localName":"Naples","labelEnglish":"Naples","labelLocal":"Naples","labelBoth":"Naples","type":"Province","iso":"IT-NA","qid":"Q15123"},"geometry":{"type":"Polygon","coordinates":[[[14.4714,40.6247],[14.6055,40.8476],[14.572,41.0095],[14.5313,41.0134],[14.0101,40.9368],[14.4714,40.6247]]]}},{"type":"Feature","id":"label-ITA-5397","properties":{"kind":"division-label","code":"ITA-5397","countryCode":"ITA","name":"Naples","localName":"Naples","labelEnglish":"Naples","labelLocal":"Naples","labelBoth":"Naples","type":"Province","iso":"IT-NA","qid":"Q15123"},"geometry":{"type":"Point","coordinates":[14.4226,40.8773]}},{"type":"Feature","id":"ITA-5396","properties":{"kind":"division","code":"ITA-5396","countryCode":"ITA","name":"Caserta","localName":"Caserta","labelEnglish":"Caserta","labelLocal":"Caserta","labelBoth":"Caserta","type":"Province","iso":"IT-CE","qid":"Q16153"},"geometry":{"type":"Polygon","coordinates":[[[14.0101,40.9368],[14.5313,41.0134],[14.3596,41.1605],[14.5138,41.389],[14.3827,41.442],[13.9618,41.4707],[13.8726,41.3354],[13.7437,41.2376],[14.0101,40.9368]]]}},{"type":"Feature","id":"label-ITA-5396","properties":{"kind":"division-label","code":"ITA-5396","countryCode":"ITA","name":"Caserta","localName":"Caserta","labelEnglish":"Caserta","labelLocal":"Caserta","labelBoth":"Caserta","type":"Province","iso":"IT-CE","qid":"Q16153"},"geometry":{"type":"Point","coordinates":[14.1425,41.2156]}},{"type":"Feature","id":"ITA-5426","properties":{"kind":"division","code":"ITA-5426","countryCode":"ITA","name":"Latina","localName":"Latina","labelEnglish":"Latina","labelLocal":"Latina","labelBoth":"Latina","type":"Province","iso":"IT-LT","qid":"Q16196"},"geometry":{"type":"Polygon","coordinates":[[[13.7437,41.2376],[13.8726,41.3354],[13.6254,41.3191],[13.1752,41.5836],[12.9345,41.7096],[12.7744,41.4209],[13.0446,41.2275],[13.7437,41.2376]]]}},{"type":"Feature","id":"label-ITA-5426","properties":{"kind":"division-label","code":"ITA-5426","countryCode":"ITA","name":"Latina","localName":"Latina","labelEnglish":"Latina","labelLocal":"Latina","labelBoth":"Latina","type":"Province","iso":"IT-LT","qid":"Q16196"},"geometry":{"type":"Point","coordinates":[13.0878,41.3815]}},{"type":"Feature","id":"ITA-5422","properties":{"kind":"division","code":"ITA-5422","countryCode":"ITA","name":"Rome","localName":"Rome","labelEnglish":"Rome","labelLocal":"Rome","labelBoth":"Rome","type":"Province","iso":"IT-RM","qid":"Q15119"},"geometry":{"type":"Polygon","coordinates":[[[12.7744,41.4209],[12.9345,41.7096],[13.1752,41.5836],[13.0075,41.8149],[13.2979,41.947],[13.0296,42.1156],[12.5204,42.2958],[12.4348,42.1859],[11.7398,42.1599],[12.239,41.7363],[12.7744,41.4209]],[[12.453,41.9039],[12.454,41.9028],[12.4527,41.903],[12.453,41.9039]]]}},{"type":"Feature","id":"label-ITA-5422","properties":{"kind":"division-label","code":"ITA-5422","countryCode":"ITA","name":"Rome","localName":"Rome","labelEnglish":"Rome","labelLocal":"Rome","labelBoth":"Rome","type":"Province","iso":"IT-RM","qid":"Q15119"},"geometry":{"type":"Point","coordinates":[12.7308,41.965]}},{"type":"Feature","id":"ITA-5423","properties":{"kind":"division","code":"ITA-5423","countryCode":"ITA","name":"Viterbo","localName":"Viterbo","labelEnglish":"Viterbo","labelLocal":"Viterbo","labelBoth":"Viterbo","type":"Province","iso":"IT-VT","qid":"Q16318"},"geometry":{"type":"Polygon","coordinates":[[[11.7398,42.1599],[12.4348,42.1859],[12.5204,42.2958],[12.4651,42.3869],[11.889,42.8504],[11.7472,42.7985],[11.7869,42.6512],[11.4515,42.3744],[11.7398,42.1599]]]}},{"type":"Feature","id":"label-ITA-5423","properties":{"kind":"division-label","code":"ITA-5423","countryCode":"ITA","name":"Viterbo","localName":"Viterbo","labelEnglish":"Viterbo","labelLocal":"Viterbo","labelBoth":"Viterbo","type":"Province","iso":"IT-VT","qid":"Q16318"},"geometry":{"type":"Point","coordinates":[11.9706,42.4299]}},{"type":"Feature","id":"ITA-5379","properties":{"kind":"division","code":"ITA-5379","countryCode":"ITA","name":"Grosseto","localName":"Grosseto","labelEnglish":"Grosseto","labelLocal":"Grosseto","labelBoth":"Grosseto","type":"Province","iso":"IT-GR","qid":"Q16185"},"geometry":{"type":"Polygon","coordinates":[[[11.4515,42.3744],[11.7869,42.6512],[11.7472,42.7985],[11.361,43.0833],[10.9117,43.1626],[10.7173,43.1085],[10.7051,42.9409],[10.7313,42.8044],[11.4515,42.3744]]]}},{"type":"Feature","id":"label-ITA-5379","properties":{"kind":"division-label","code":"ITA-5379","countryCode":"ITA","name":"Grosseto","localName":"Grosseto","labelEnglish":"Grosseto","labelLocal":"Grosseto","labelBoth":"Grosseto","type":"Province","iso":"IT-GR","qid":"Q16185"},"geometry":{"type":"Point","coordinates":[11.2046,42.8194]}},{"type":"Feature","id":"ITA-5380","properties":{"kind":"division","code":"ITA-5380","countryCode":"ITA","name":"Livorno","localName":"Livorno","labelEnglish":"Livorno","labelLocal":"Livorno","labelBoth":"Livorno","type":"Province","iso":"IT-LI","qid":"Q16200"},"geometry":{"type":"Polygon","coordinates":[[[10.7051,42.9409],[10.7173,43.1085],[10.2934,43.5791],[10.7051,42.9409]]]}},{"type":"Feature","id":"label-ITA-5380","properties":{"kind":"division-label","code":"ITA-5380","countryCode":"ITA","name":"Livorno","localName":"Livorno","labelEnglish":"Livorno","labelLocal":"Livorno","labelBoth":"Livorno","type":"Province","iso":"IT-LI","qid":"Q16200"},"geometry":{"type":"Point","coordinates":[10.6186,43.0601]}},{"type":"Feature","id":"ITA-5381","properties":{"kind":"division","code":"ITA-5381","countryCode":"ITA","name":"Pisa","localName":"Pisa","labelEnglish":"Pisa","labelLocal":"Pisa","labelBoth":"Pisa","type":"Province","iso":"IT-PI","qid":"Q16244"},"geometry":{"type":"Polygon","coordinates":[[[10.2934,43.5791],[10.7173,43.1085],[10.9117,43.1626],[10.9521,43.4522],[10.7111,43.7863],[10.2618,43.8161],[10.2934,43.5791]]]}},{"type":"Feature","id":"label-ITA-5381","properties":{"kind":"division-label","code":"ITA-5381","countryCode":"ITA","name":"Pisa","localName":"Pisa","labelEnglish":"Pisa","labelLocal":"Pisa","labelBoth":"Pisa","type":"Province","iso":"IT-PI","qid":"Q16244"},"geometry":{"type":"Point","coordinates":[10.6759,43.5528]}},{"type":"Feature","id":"ITA-5383","properties":{"kind":"division","code":"ITA-5383","countryCode":"ITA","name":"Lucca","localName":"Lucca","labelEnglish":"Lucca","labelLocal":"Lucca","labelBoth":"Lucca","type":"Province","iso":"IT-LU","qid":"Q16202"},"geometry":{"type":"Polygon","coordinates":[[[10.2618,43.8161],[10.7111,43.7863],[10.7278,43.8141],[10.6105,44.1257],[10.4712,44.2246],[10.2539,44.2706],[10.1433,43.9751],[10.2618,43.8161]]]}},{"type":"Feature","id":"label-ITA-5383","properties":{"kind":"division-label","code":"ITA-5383","countryCode":"ITA","name":"Lucca","localName":"Lucca","labelEnglish":"Lucca","labelLocal":"Lucca","labelBoth":"Lucca","type":"Province","iso":"IT-LU","qid":"Q16202"},"geometry":{"type":"Point","coordinates":[10.4525,43.9882]}},{"type":"Feature","id":"ITA-5382","properties":{"kind":"division","code":"ITA-5382","countryCode":"ITA","name":"Massa-Carrara","localName":"Massa-Carrara","labelEnglish":"Massa-Carrara","labelLocal":"Massa-Carrara","labelBoth":"Massa-Carrara","type":"Province","iso":"IT-MS","qid":"Q16205"},"geometry":{"type":"Polygon","coordinates":[[[10.1433,43.9751],[10.2539,44.2706],[10.1357,44.3418],[9.8356,44.4763],[9.6898,44.3577],[10.0285,44.0493],[10.1433,43.9751]]]}},{"type":"Feature","id":"label-ITA-5382","properties":{"kind":"division-label","code":"ITA-5382","countryCode":"ITA","name":"Massa-Carrara","localName":"Massa-Carrara","labelEnglish":"Massa-Carrara","labelLocal":"Massa-Carrara","labelBoth":"Massa-Carrara","type":"Province","iso":"IT-MS","qid":"Q16205"},"geometry":{"type":"Point","coordinates":[10.0285,44.2345]}},{"type":"Feature","id":"ITA-5370","properties":{"kind":"division","code":"ITA-5370","countryCode":"ITA","name":"La Spezia","localName":"La Spezia","labelEnglish":"La Spezia","labelLocal":"La Spezia","labelBoth":"La Spezia","type":"Province","iso":"IT-SP","qid":"Q16188"},"geometry":{"type":"Polygon","coordinates":[[[10.0285,44.0493],[9.6898,44.3577],[9.4764,44.4125],[9.5112,44.2152],[10.0285,44.0493]]]}},{"type":"Feature","id":"label-ITA-5370","properties":{"kind":"division-label","code":"ITA-5370","countryCode":"ITA","name":"La Spezia","localName":"La Spezia","labelEnglish":"La Spezia","labelLocal":"La Spezia","labelBoth":"La Spezia","type":"Province","iso":"IT-SP","qid":"Q16188"},"geometry":{"type":"Point","coordinates":[9.69322,44.2108]}},{"type":"Feature","id":"ITA-5367","properties":{"kind":"division","code":"ITA-5367","countryCode":"ITA","name":"Liguria","localName":"Liguria","labelEnglish":"Liguria","labelLocal":"Liguria","labelBoth":"Liguria","type":"Province","iso":"IT-GE","qid":"Q1256"},"geometry":{"type":"Polygon","coordinates":[[[9.5112,44.2152],[9.4764,44.4125],[9.4913,44.551],[9.2031,44.6138],[8.9592,44.6826],[8.5642,44.5162],[8.6306,44.3819],[9.2306,44.3537],[9.5112,44.2152]]]}},{"type":"Feature","id":"label-ITA-5367","properties":{"kind":"division-label","code":"ITA-5367","countryCode":"ITA","name":"Liguria","localName":"Liguria","labelEnglish":"Liguria","labelLocal":"Liguria","labelBoth":"Liguria","type":"Province","iso":"IT-GE","qid":"Q1256"},"geometry":{"type":"Point","coordinates":[9.15064,44.4675]}},{"type":"Feature","id":"ITA-5368","properties":{"kind":"division","code":"ITA-5368","countryCode":"ITA","name":"Savona","localName":"Savona","labelEnglish":"Savona","labelLocal":"Savona","labelBoth":"Savona","type":"Province","iso":"IT-SV","qid":"Q16274"},"geometry":{"type":"Polygon","coordinates":[[[8.6306,44.3819],[8.5642,44.5162],[8.2655,44.5217],[8.2498,44.5346],[8.0021,44.1184],[8.1302,43.9403],[8.6306,44.3819]]]}},{"type":"Feature","id":"label-ITA-5368","properties":{"kind":"division-label","code":"ITA-5368","countryCode":"ITA","name":"Savona","localName":"Savona","labelEnglish":"Savona","labelLocal":"Savona","labelBoth":"Savona","type":"Province","iso":"IT-SV","qid":"Q16274"},"geometry":{"type":"Point","coordinates":[8.28916,44.2864]}},{"type":"Feature","id":"ITA-5409","properties":{"kind":"division","code":"ITA-5409","countryCode":"ITA","name":"Trapani","localName":"Trapani","labelEnglish":"Trapani","labelLocal":"Trapani","labelBoth":"Trapani","type":"Province","iso":"IT-TP","qid":"Q16288"},"geometry":{"type":"Polygon","coordinates":[[[12.8939,37.5733],[13.0275,37.7407],[12.9761,38.0442],[12.7254,38.1259],[12.4274,37.8093],[12.6594,37.5651],[12.8939,37.5733]]]}},{"type":"Feature","id":"label-ITA-5409","properties":{"kind":"division-label","code":"ITA-5409","countryCode":"ITA","name":"Trapani","localName":"Trapani","labelEnglish":"Trapani","labelLocal":"Trapani","labelBoth":"Trapani","type":"Province","iso":"IT-TP","qid":"Q16288"},"geometry":{"type":"Point","coordinates":[12.704,37.8515]}},{"type":"Feature","id":"ITA-5411","properties":{"kind":"division","code":"ITA-5411","countryCode":"ITA","name":"Messina","localName":"Messina","labelEnglish":"Messina","labelLocal":"Messina","labelBoth":"Messina","type":"Province","iso":"IT-ME","qid":"Q16208"},"geometry":{"type":"Polygon","coordinates":[[[14.1796,38.0257],[14.2799,37.8402],[14.7422,37.8182],[14.929,37.9566],[15.2599,37.8078],[15.5838,38.2404],[15.0879,38.1282],[14.9071,38.1877],[14.1796,38.0257]]]}},{"type":"Feature","id":"label-ITA-5411","properties":{"kind":"division-label","code":"ITA-5411","countryCode":"ITA","name":"Messina","localName":"Messina","labelEnglish":"Messina","labelLocal":"Messina","labelBoth":"Messina","type":"Province","iso":"IT-ME","qid":"Q16208"},"geometry":{"type":"Point","coordinates":[14.9117,38.0465]}},{"type":"Feature","id":"ITA-5410","properties":{"kind":"division","code":"ITA-5410","countryCode":"ITA","name":"Palermo","localName":"Palermo","labelEnglish":"Palermo","labelLocal":"Palermo","labelBoth":"Palermo","type":"Province","iso":"IT-PA","qid":"Q16227"},"geometry":{"type":"Polygon","coordinates":[[[12.9761,38.0442],[13.0275,37.7407],[13.3563,37.5393],[13.7324,37.683],[14.1349,37.6168],[14.2799,37.8402],[14.1796,38.0257],[13.7908,37.9736],[13.1009,38.1901],[12.9761,38.0442]]]}},{"type":"Feature","id":"label-ITA-5410","properties":{"kind":"division-label","code":"ITA-5410","countryCode":"ITA","name":"Palermo","localName":"Palermo","labelEnglish":"Palermo","labelLocal":"Palermo","labelBoth":"Palermo","type":"Province","iso":"IT-PA","qid":"Q16227"},"geometry":{"type":"Point","coordinates":[13.5583,37.889]}},{"type":"Feature","id":"ITA-5417","properties":{"kind":"division","code":"ITA-5417","countryCode":"ITA","name":"Agrigento","localName":"Agrigento","labelEnglish":"Agrigento","labelLocal":"Agrigento","labelBoth":"Agrigento","type":"Province","iso":"IT-AG","qid":"Q16112"},"geometry":{"type":"Polygon","coordinates":[[[14.0393,37.1145],[13.7384,37.4325],[13.7324,37.683],[13.3563,37.5393],[13.0275,37.7407],[12.8939,37.5733],[13.8944,37.1008],[14.0393,37.1145]]]}},{"type":"Feature","id":"label-ITA-5417","properties":{"kind":"division-label","code":"ITA-5417","countryCode":"ITA","name":"Agrigento","localName":"Agrigento","labelEnglish":"Agrigento","labelLocal":"Agrigento","labelBoth":"Agrigento","type":"Province","iso":"IT-AG","qid":"Q16112"},"geometry":{"type":"Point","coordinates":[13.4938,37.4522]}},{"type":"Feature","id":"ITA-5416","properties":{"kind":"division","code":"ITA-5416","countryCode":"ITA","name":"Caltanissetta","localName":"Caltanissetta","labelEnglish":"Caltanissetta","labelLocal":"Caltanissetta","labelBoth":"Caltanissetta","type":"Province","iso":"IT-CL","qid":"Q16150"},"geometry":{"type":"Polygon","coordinates":[[[14.3346,37.0006],[14.444,37.0529],[14.3525,37.306],[14.0901,37.346],[14.1349,37.6168],[13.7324,37.683],[13.7384,37.4325],[14.0393,37.1145],[14.3346,37.0006]]]}},{"type":"Feature","id":"label-ITA-5416","properties":{"kind":"division-label","code":"ITA-5416","countryCode":"ITA","name":"Caltanissetta","localName":"Caltanissetta","labelEnglish":"Caltanissetta","labelLocal":"Caltanissetta","labelBoth":"Caltanissetta","type":"Province","iso":"IT-CL","qid":"Q16150"},"geometry":{"type":"Point","coordinates":[14.1598,37.223]}},{"type":"Feature","id":"ITA-5415","properties":{"kind":"division","code":"ITA-5415","countryCode":"ITA","name":"Ragusa","localName":"Ragusa","labelEnglish":"Ragusa","labelLocal":"Ragusa","labelBoth":"Ragusa","type":"Province","iso":"IT-RG","qid":"Q16251"},"geometry":{"type":"Polygon","coordinates":[[[15.0003,36.7024],[14.7937,37.132],[14.444,37.0529],[14.3346,37.0006],[14.4873,36.7934],[15.0003,36.7024]]]}},{"type":"Feature","id":"label-ITA-5415","properties":{"kind":"division-label","code":"ITA-5415","countryCode":"ITA","name":"Ragusa","localName":"Ragusa","labelEnglish":"Ragusa","labelLocal":"Ragusa","labelBoth":"Ragusa","type":"Province","iso":"IT-RG","qid":"Q16251"},"geometry":{"type":"Point","coordinates":[14.6539,36.9079]}},{"type":"Feature","id":"ITA-5414","properties":{"kind":"division","code":"ITA-5414","countryCode":"ITA","name":"Syracuse","localName":"Syracuse","labelEnglish":"Syracuse","labelLocal":"Syracuse","labelBoth":"Syracuse","type":"Province","iso":"IT-SR","qid":"Q16277"},"geometry":{"type":"Polygon","coordinates":[[[15.0925,37.3588],[14.9011,37.4103],[14.7937,37.132],[15.0003,36.7024],[15.3324,37.0116],[15.0925,37.3588]]]}},{"type":"Feature","id":"label-ITA-5414","properties":{"kind":"division-label","code":"ITA-5414","countryCode":"ITA","name":"Syracuse","localName":"Syracuse","labelEnglish":"Syracuse","labelLocal":"Syracuse","labelBoth":"Syracuse","type":"Province","iso":"IT-SR","qid":"Q16277"},"geometry":{"type":"Point","coordinates":[15.0549,37.0869]}},{"type":"Feature","id":"ITA-5413","properties":{"kind":"division","code":"ITA-5413","countryCode":"ITA","name":"Catania","localName":"Catania","labelEnglish":"Catania","labelLocal":"Catania","labelBoth":"Catania","type":"Province","iso":"IT-CT","qid":"Q16154"},"geometry":{"type":"Polygon","coordinates":[[[15.2599,37.8078],[14.929,37.9566],[14.7422,37.8182],[14.7721,37.5024],[14.3525,37.306],[14.444,37.0529],[14.7937,37.132],[14.9011,37.4103],[15.0925,37.3588],[15.2599,37.8078]]]}},{"type":"Feature","id":"label-ITA-5413","properties":{"kind":"division-label","code":"ITA-5413","countryCode":"ITA","name":"Catania","localName":"Catania","labelEnglish":"Catania","labelLocal":"Catania","labelBoth":"Catania","type":"Province","iso":"IT-CT","qid":"Q16154"},"geometry":{"type":"Point","coordinates":[14.969,37.5882]}},{"type":"Feature","id":"ITA-5371","properties":{"kind":"division","code":"ITA-5371","countryCode":"ITA","name":"Carbonia-Iglesias","localName":"Carbonia-Iglesias","labelEnglish":"Carbonia-Iglesias","labelLocal":"Carbonia-Iglesias","labelBoth":"Carbonia-Iglesias","type":"Province","iso":"IT-CI","qid":"Q16152"},"geometry":{"type":"Polygon","coordinates":[[[8.6103,38.9549],[8.849,39.0874],[8.6993,39.3749],[8.3981,39.4465],[8.3718,39.2306],[8.6103,38.9549]]]}},{"type":"Feature","id":"label-ITA-5371","properties":{"kind":"division-label","code":"ITA-5371","countryCode":"ITA","name":"Carbonia-Iglesias","localName":"Carbonia-Iglesias","labelEnglish":"Carbonia-Iglesias","labelLocal":"Carbonia-Iglesias","labelBoth":"Carbonia-Iglesias","type":"Province","iso":"IT-CI","qid":"Q16152"},"geometry":{"type":"Point","coordinates":[8.57559,39.2402]}},{"type":"Feature","id":"ITA-5374","properties":{"kind":"division","code":"ITA-5374","countryCode":"ITA","name":"Sassari","localName":"Sassari","labelEnglish":"Sassari","labelLocal":"Sassari","labelBoth":"Sassari","type":"Province","iso":"IT-SS","qid":"Q16272"},"geometry":{"type":"Polygon","coordinates":[[[8.3921,40.4123],[8.6203,40.3188],[9.0279,40.3053],[9.1895,40.5368],[8.9666,40.9528],[8.8113,40.9408],[8.5205,40.827],[8.2332,40.9101],[8.1618,40.5638],[8.3921,40.4123]]]}},{"type":"Feature","id":"label-ITA-5374","properties":{"kind":"division-label","code":"ITA-5374","countryCode":"ITA","name":"Sassari","localName":"Sassari","labelEnglish":"Sassari","labelLocal":"Sassari","labelBoth":"Sassari","type":"Province","iso":"IT-SS","qid":"Q16272"},"geometry":{"type":"Point","coordinates":[8.68451,40.6361]}},{"type":"Feature","id":"ITA-5376","properties":{"kind":"division","code":"ITA-5376","countryCode":"ITA","name":"Nuoro","localName":"Nuoro","labelEnglish":"Nuoro","labelLocal":"Nuoro","labelBoth":"Nuoro","type":"Province","iso":"IT-NU","qid":"Q16220"},"geometry":{"type":"Polygon","coordinates":[[[9.7488,40.6603],[9.1895,40.5368],[9.0279,40.3053],[8.6203,40.3188],[9.0009,40.1997],[8.9578,39.9979],[9.1593,39.8296],[9.2804,39.9173],[9.6272,40.2245],[9.8267,40.5196],[9.7488,40.6603]]]}},{"type":"Feature","id":"label-ITA-5376","properties":{"kind":"division-label","code":"ITA-5376","countryCode":"ITA","name":"Nuoro","localName":"Nuoro","labelEnglish":"Nuoro","labelLocal":"Nuoro","labelBoth":"Nuoro","type":"Province","iso":"IT-NU","qid":"Q16220"},"geometry":{"type":"Point","coordinates":[9.40063,40.3324]}},{"type":"Feature","id":"ITA-5375","properties":{"kind":"division","code":"ITA-5375","countryCode":"ITA","name":"Olbia-Tempio","localName":"Olbia-Tempio","labelEnglish":"Olbia-Tempio","labelLocal":"Olbia-Tempio","labelBoth":"Olbia-Tempio","type":"Province","iso":"IT-OT","qid":"Q16224"},"geometry":{"type":"Polygon","coordinates":[[[8.8113,40.9408],[8.9666,40.9528],[9.1895,40.5368],[9.7488,40.6603],[9.5664,41.1193],[9.2306,41.2626],[8.8113,40.9408]]]}},{"type":"Feature","id":"label-ITA-5375","properties":{"kind":"division-label","code":"ITA-5375","countryCode":"ITA","name":"Olbia-Tempio","localName":"Olbia-Tempio","labelEnglish":"Olbia-Tempio","labelLocal":"Olbia-Tempio","labelBoth":"Olbia-Tempio","type":"Province","iso":"IT-OT","qid":"Q16224"},"geometry":{"type":"Point","coordinates":[9.28605,40.9282]}},{"type":"Feature","id":"ITA-5373","properties":{"kind":"division","code":"ITA-5373","countryCode":"ITA","name":"Oristano","localName":"Oristano","labelEnglish":"Oristano","labelLocal":"Oristano","labelBoth":"Oristano","type":"Province","iso":"IT-OR","qid":"Q16225"},"geometry":{"type":"Polygon","coordinates":[[[8.5485,39.6979],[9.0033,39.7605],[9.1593,39.8296],[8.9578,39.9979],[9.0009,40.1997],[8.6203,40.3188],[8.3921,40.4123],[8.49,40.1045],[8.3983,39.9053],[8.5485,39.6979]]]}},{"type":"Feature","id":"label-ITA-5373","properties":{"kind":"division-label","code":"ITA-5373","countryCode":"ITA","name":"Oristano","localName":"Oristano","labelEnglish":"Oristano","labelLocal":"Oristano","labelBoth":"Oristano","type":"Province","iso":"IT-OR","qid":"Q16225"},"geometry":{"type":"Point","coordinates":[8.73034,40.0001]}},{"type":"Feature","id":"ITA-5372","properties":{"kind":"division","code":"ITA-5372","countryCode":"ITA","name":"Medio Campidano","localName":"Medio Campidano","labelEnglish":"Medio Campidano","labelLocal":"Medio Campidano","labelBoth":"Medio Campidano","type":"Province","iso":"IT-VS","qid":"Q16207"},"geometry":{"type":"Polygon","coordinates":[[[8.3981,39.4465],[8.6993,39.3749],[8.93,39.3995],[9.0033,39.7605],[8.5485,39.6979],[8.3981,39.4465]]]}},{"type":"Feature","id":"label-ITA-5372","properties":{"kind":"division-label","code":"ITA-5372","countryCode":"ITA","name":"Medio Campidano","localName":"Medio Campidano","labelEnglish":"Medio Campidano","labelLocal":"Medio Campidano","labelBoth":"Medio Campidano","type":"Province","iso":"IT-VS","qid":"Q16207"},"geometry":{"type":"Point","coordinates":[8.73034,39.5132]}},{"type":"Feature","id":"ITA-5378","properties":{"kind":"division","code":"ITA-5378","countryCode":"ITA","name":"Cagliari","localName":"Cagliari","labelEnglish":"Cagliari","labelLocal":"Cagliari","labelBoth":"Cagliari","type":"Province","iso":"IT-CA","qid":"Q16149"},"geometry":{"type":"Polygon","coordinates":[[[9.6463,39.5491],[9.3994,39.6498],[9.2804,39.9173],[9.1593,39.8296],[9.0033,39.7605],[8.93,39.3995],[8.6993,39.3749],[8.849,39.0874],[8.6103,38.9549],[8.8533,38.878],[9.0789,39.2123],[9.5578,39.1397],[9.6463,39.5491]]]}},{"type":"Feature","id":"label-ITA-5378","properties":{"kind":"division-label","code":"ITA-5378","countryCode":"ITA","name":"Cagliari","localName":"Cagliari","labelEnglish":"Cagliari","labelLocal":"Cagliari","labelBoth":"Cagliari","type":"Province","iso":"IT-CA","qid":"Q16149"},"geometry":{"type":"Point","coordinates":[9.2574,39.4502]}},{"type":"Feature","id":"ITA-5377","properties":{"kind":"division","code":"ITA-5377","countryCode":"ITA","name":"Ogliastra","localName":"Ogliastra","labelEnglish":"Ogliastra","labelLocal":"Ogliastra","labelBoth":"Ogliastra","type":"Province","iso":"IT-OG","qid":"Q16223"},"geometry":{"type":"Polygon","coordinates":[[[9.6272,40.2245],[9.2804,39.9173],[9.3994,39.6498],[9.6463,39.5491],[9.7323,40.0839],[9.6272,40.2245]]]}},{"type":"Feature","id":"label-ITA-5377","properties":{"kind":"division-label","code":"ITA-5377","countryCode":"ITA","name":"Ogliastra","localName":"Ogliastra","labelEnglish":"Ogliastra","labelLocal":"Ogliastra","labelBoth":"Ogliastra","type":"Province","iso":"IT-OG","qid":"Q16223"},"geometry":{"type":"Point","coordinates":[9.52093,39.8913]}},{"type":"Feature","id":"ITA-5412","properties":{"kind":"division","code":"ITA-5412","countryCode":"ITA","name":"Enna","localName":"Enna","labelEnglish":"Enna","labelLocal":"Enna","labelBoth":"Enna","type":"Province","iso":"IT-EN","qid":"Q16166"},"geometry":{"type":"Polygon","coordinates":[[[14.7422,37.8182],[14.2799,37.8402],[14.1349,37.6168],[14.0901,37.346],[14.3525,37.306],[14.7721,37.5024],[14.7422,37.8182]]]}},{"type":"Feature","id":"label-ITA-5412","properties":{"kind":"division-label","code":"ITA-5412","countryCode":"ITA","name":"Enna","localName":"Enna","labelEnglish":"Enna","labelLocal":"Enna","labelBoth":"Enna","type":"Province","iso":"IT-EN","qid":"Q16166"},"geometry":{"type":"Point","coordinates":[14.4462,37.6598]}},{"type":"Feature","id":"ITA-5398","properties":{"kind":"division","code":"ITA-5398","countryCode":"ITA","name":"Benevento","localName":"Benevento","labelEnglish":"Benevento","labelLocal":"Benevento","labelBoth":"Benevento","type":"Province","iso":"IT-BN","qid":"Q16134"},"geometry":{"type":"Polygon","coordinates":[[[14.5138,41.389],[14.3596,41.1605],[14.5313,41.0134],[14.572,41.0095],[14.9937,41.1065],[15.1435,41.2746],[14.9953,41.4821],[14.5138,41.389]]]}},{"type":"Feature","id":"label-ITA-5398","properties":{"kind":"division-label","code":"ITA-5398","countryCode":"ITA","name":"Benevento","localName":"Benevento","labelEnglish":"Benevento","labelLocal":"Benevento","labelBoth":"Benevento","type":"Province","iso":"IT-BN","qid":"Q16134"},"geometry":{"type":"Point","coordinates":[14.7663,41.2325]}},{"type":"Feature","id":"ITA-5440","properties":{"kind":"division","code":"ITA-5440","countryCode":"ITA","name":"Asti","localName":"Asti","labelEnglish":"Asti","labelLocal":"Asti","labelBoth":"Asti","type":"Province","iso":"IT-AT","qid":"Q15099"},"geometry":{"type":"Polygon","coordinates":[[[7.9434,44.8463],[8.2655,44.7028],[8.2498,44.5346],[8.2655,44.5217],[8.4989,44.7674],[8.129,45.123],[7.8935,45.0903],[7.9434,44.8463]]]}},{"type":"Feature","id":"label-ITA-5440","properties":{"kind":"division-label","code":"ITA-5440","countryCode":"ITA","name":"Asti","localName":"Asti","labelEnglish":"Asti","labelLocal":"Asti","labelBoth":"Asti","type":"Province","iso":"IT-AT","qid":"Q15099"},"geometry":{"type":"Point","coordinates":[8.17036,44.9236]}},{"type":"Feature","id":"ITA-5443","properties":{"kind":"division","code":"ITA-5443","countryCode":"ITA","name":"Bergamo","localName":"Bergamo","labelEnglish":"Bergamo","labelLocal":"Bergamo","labelBoth":"Bergamo","type":"Province","iso":"IT-BG","qid":"Q16137"},"geometry":{"type":"Polygon","coordinates":[[[10.1695,46.057],[9.5269,46.0114],[9.4828,45.6718],[9.4964,45.6453],[9.5103,45.512],[9.8915,45.4267],[10.1695,46.057]]]}},{"type":"Feature","id":"label-ITA-5443","properties":{"kind":"division-label","code":"ITA-5443","countryCode":"ITA","name":"Bergamo","localName":"Bergamo","labelEnglish":"Bergamo","labelLocal":"Bergamo","labelBoth":"Bergamo","type":"Province","iso":"IT-BG","qid":"Q16137"},"geometry":{"type":"Point","coordinates":[9.77093,45.8097]}},{"type":"Feature","id":"ITA-5445","properties":{"kind":"division","code":"ITA-5445","countryCode":"ITA","name":"Brescia","localName":"Brescia","labelEnglish":"Brescia","labelLocal":"Brescia","labelBoth":"Brescia","type":"Province","iso":"IT-BS","qid":"Q16144"},"geometry":{"type":"Polygon","coordinates":[[[9.8915,45.4267],[10.3178,45.2047],[10.6618,45.419],[10.8449,45.8341],[10.5609,45.8004],[10.4591,45.985],[10.5279,46.3426],[10.1695,46.057],[9.8915,45.4267]]]}},{"type":"Feature","id":"label-ITA-5445","properties":{"kind":"division-label","code":"ITA-5445","countryCode":"ITA","name":"Brescia","localName":"Brescia","labelEnglish":"Brescia","labelLocal":"Brescia","labelBoth":"Brescia","type":"Province","iso":"IT-BS","qid":"Q16144"},"geometry":{"type":"Point","coordinates":[10.3574,45.631]}},{"type":"Feature","id":"ITA-5447","properties":{"kind":"division","code":"ITA-5447","countryCode":"ITA","name":"Cremona","localName":"Cremona","labelEnglish":"Cremona","labelLocal":"Cremona","labelBoth":"Cremona","type":"Province","iso":"IT-CR","qid":"Q16163"},"geometry":{"type":"Polygon","coordinates":[[[9.8915,45.4267],[9.5103,45.512],[9.4735,45.4512],[9.8829,45.1341],[10.0719,45.0375],[10.5015,44.9194],[10.3178,45.2047],[9.8915,45.4267]]]}},{"type":"Feature","id":"label-ITA-5447","properties":{"kind":"division-label","code":"ITA-5447","countryCode":"ITA","name":"Cremona","localName":"Cremona","labelEnglish":"Cremona","labelLocal":"Cremona","labelBoth":"Cremona","type":"Province","iso":"IT-CR","qid":"Q16163"},"geometry":{"type":"Point","coordinates":[9.99563,45.226]}},{"type":"Feature","id":"ITA-5446","properties":{"kind":"division","code":"ITA-5446","countryCode":"ITA","name":"Mantua","localName":"Mantua","labelEnglish":"Mantua","labelLocal":"Mantua","labelBoth":"Mantua","type":"Province","iso":"IT-MN","qid":"Q16204"},"geometry":{"type":"Polygon","coordinates":[[[10.3178,45.2047],[10.5015,44.9194],[10.8878,44.914],[11.257,44.9473],[11.4215,44.9499],[11.2103,45.1043],[10.6618,45.419],[10.3178,45.2047]]]}},{"type":"Feature","id":"label-ITA-5446","properties":{"kind":"division-label","code":"ITA-5446","countryCode":"ITA","name":"Mantua","localName":"Mantua","labelEnglish":"Mantua","labelLocal":"Mantua","labelBoth":"Mantua","type":"Province","iso":"IT-MN","qid":"Q16204"},"geometry":{"type":"Point","coordinates":[10.7355,45.1396]}},{"type":"Feature","id":"ITA-5450","properties":{"kind":"division","code":"ITA-5450","countryCode":"ITA","name":"Milan","localName":"Milan","labelEnglish":"Milan","labelLocal":"Milan","labelBoth":"Milan","type":"Province","iso":"IT-MI","qid":"Q15121"},"geometry":{"type":"Polygon","coordinates":[[[9.4964,45.6453],[9.053,45.6232],[8.7052,45.5568],[8.832,45.4082],[9.3388,45.3129],[9.4735,45.4512],[9.5103,45.512],[9.4964,45.6453]]]}},{"type":"Feature","id":"label-ITA-5450","properties":{"kind":"division-label","code":"ITA-5450","countryCode":"ITA","name":"Milan","localName":"Milan","labelEnglish":"Milan","labelLocal":"Milan","labelBoth":"Milan","type":"Province","iso":"IT-MI","qid":"Q15121"},"geometry":{"type":"Point","coordinates":[9.1154,45.442]}},{"type":"Feature","id":"ITA-5453","properties":{"kind":"division","code":"ITA-5453","countryCode":"ITA","name":"Lecco","localName":"Lecco","labelEnglish":"Lecco","labelLocal":"Lecco","labelBoth":"Lecco","type":"Province","iso":"IT-LC","qid":"Q16199"},"geometry":{"type":"Polygon","coordinates":[[[9.5269,46.0114],[9.4246,46.16],[9.2472,45.7426],[9.4828,45.6718],[9.5269,46.0114]]]}},{"type":"Feature","id":"label-ITA-5453","properties":{"kind":"division-label","code":"ITA-5453","countryCode":"ITA","name":"Lecco","localName":"Lecco","labelEnglish":"Lecco","labelLocal":"Lecco","labelBoth":"Lecco","type":"Province","iso":"IT-LC","qid":"Q16199"},"geometry":{"type":"Point","coordinates":[9.36921,45.7606]}},{"type":"Feature","id":"ITA-5454","properties":{"kind":"division","code":"ITA-5454","countryCode":"ITA","name":"Monza and Brianza","localName":"Monza and Brianza","labelEnglish":"Monza and Brianza","labelLocal":"Monza and Brianza","labelBoth":"Monza and Brianza","type":"Province","iso":"IT-MB","qid":"Q16210"},"geometry":{"type":"Polygon","coordinates":[[[9.4828,45.6718],[9.2472,45.7426],[9.0587,45.6614],[9.053,45.6232],[9.4964,45.6453],[9.4828,45.6718]]]}},{"type":"Feature","id":"label-ITA-5454","properties":{"kind":"division-label","code":"ITA-5454","countryCode":"ITA","name":"Monza and Brianza","localName":"Monza and Brianza","labelEnglish":"Monza and Brianza","labelLocal":"Monza and Brianza","labelBoth":"Monza and Brianza","type":"Province","iso":"IT-MB","qid":"Q16210"},"geometry":{"type":"Point","coordinates":[9.2774,45.6256]}},{"type":"Feature","id":"ITA-5448","properties":{"kind":"division","code":"ITA-5448","countryCode":"ITA","name":"Lodi","localName":"Lodi","labelEnglish":"Lodi","labelLocal":"Lodi","labelBoth":"Lodi","type":"Province","iso":"IT-LO","qid":"Q16201"},"geometry":{"type":"Polygon","coordinates":[[[9.4735,45.4512],[9.3388,45.3129],[9.546,45.1327],[9.8829,45.1341],[9.4735,45.4512]]]}},{"type":"Feature","id":"label-ITA-5448","properties":{"kind":"division-label","code":"ITA-5448","countryCode":"ITA","name":"Lodi","localName":"Lodi","labelEnglish":"Lodi","labelLocal":"Lodi","labelBoth":"Lodi","type":"Province","iso":"IT-LO","qid":"Q16201"},"geometry":{"type":"Point","coordinates":[9.54741,45.253]}},{"type":"Feature","id":"ITA-5388","properties":{"kind":"division","code":"ITA-5388","countryCode":"ITA","name":"Siena","localName":"Siena","labelEnglish":"Siena","labelLocal":"Siena","labelBoth":"Siena","type":"Province","iso":"IT-SI","qid":"Q16275"},"geometry":{"type":"Polygon","coordinates":[[[11.9527,43.1738],[11.3975,43.5482],[10.9521,43.4522],[10.9117,43.1626],[11.361,43.0833],[11.7472,42.7985],[11.889,42.8504],[11.9317,42.8717],[11.9527,43.1738]]]}},{"type":"Feature","id":"label-ITA-5388","properties":{"kind":"division-label","code":"ITA-5388","countryCode":"ITA","name":"Siena","localName":"Siena","labelEnglish":"Siena","labelLocal":"Siena","labelBoth":"Siena","type":"Province","iso":"IT-SI","qid":"Q16275"},"geometry":{"type":"Point","coordinates":[11.4207,43.2205]}},{"type":"Feature","id":"ITA-5387","properties":{"kind":"division","code":"ITA-5387","countryCode":"ITA","name":"Arezzo","localName":"Arezzo","labelEnglish":"Arezzo","labelLocal":"Arezzo","labelBoth":"Arezzo","type":"Province","iso":"IT-AR","qid":"Q16115"},"geometry":{"type":"Polygon","coordinates":[[[11.3975,43.5482],[11.9527,43.1738],[12.2132,43.291],[12.0371,43.4165],[12.2048,43.6168],[12.2858,43.7689],[12.1022,43.759],[11.7163,43.8791],[11.3975,43.5482]]]}},{"type":"Feature","id":"label-ITA-5387","properties":{"kind":"division-label","code":"ITA-5387","countryCode":"ITA","name":"Arezzo","localName":"Arezzo","labelEnglish":"Arezzo","labelLocal":"Arezzo","labelBoth":"Arezzo","type":"Province","iso":"IT-AR","qid":"Q16115"},"geometry":{"type":"Point","coordinates":[11.7758,43.5298]}},{"type":"Feature","id":"ITA-5386","properties":{"kind":"division","code":"ITA-5386","countryCode":"ITA","name":"Florence","localName":"Florence","labelEnglish":"Florence","labelLocal":"Florence","labelBoth":"Florence","type":"Province","iso":"IT-FI","qid":"Q16172"},"geometry":{"type":"Polygon","coordinates":[[[10.7111,43.7863],[10.9521,43.4522],[11.3975,43.5482],[11.7163,43.8791],[11.72,44.1317],[11.5263,44.1622],[11.2001,44.1047],[10.9641,43.8125],[10.7278,43.8141],[10.7111,43.7863]]]}},{"type":"Feature","id":"label-ITA-5386","properties":{"kind":"division-label","code":"ITA-5386","countryCode":"ITA","name":"Florence","localName":"Florence","labelEnglish":"Florence","labelLocal":"Florence","labelBoth":"Florence","type":"Province","iso":"IT-FI","qid":"Q16172"},"geometry":{"type":"Point","coordinates":[11.3233,43.7304]}},{"type":"Feature","id":"ITA-5436","properties":{"kind":"division","code":"ITA-5436","countryCode":"ITA","name":"Vercelli","localName":"Vercelli","labelEnglish":"Vercelli","labelLocal":"Vercelli","labelBoth":"Vercelli","type":"Province","iso":"IT-VC","qid":"Q15096"},"geometry":{"type":"Polygon","coordinates":[[[8.027,45.4031],[8.1519,45.1686],[8.5566,45.1648],[8.5126,45.3135],[8.3499,45.7724],[8.1872,45.9477],[7.8559,45.9193],[7.9163,45.7297],[8.1822,45.7419],[8.263,45.5043],[8.027,45.4031]]]}},{"type":"Feature","id":"label-ITA-5436","properties":{"kind":"division-label","code":"ITA-5436","countryCode":"ITA","name":"Vercelli","localName":"Vercelli","labelEnglish":"Vercelli","labelLocal":"Vercelli","labelBoth":"Vercelli","type":"Province","iso":"IT-VC","qid":"Q15096"},"geometry":{"type":"Point","coordinates":[8.15956,45.8416]}},{"type":"Feature","id":"ITA-5449","properties":{"kind":"division","code":"ITA-5449","countryCode":"ITA","name":"Pavia","localName":"Pavia","labelEnglish":"Pavia","labelLocal":"Pavia","labelBoth":"Pavia","type":"Province","iso":"IT-PV","qid":"Q16231"},"geometry":{"type":"Polygon","coordinates":[[[8.832,45.4082],[8.5126,45.3135],[8.5566,45.1648],[8.8779,45.0538],[9.2014,44.6821],[9.546,45.1327],[9.3388,45.3129],[8.832,45.4082]]]}},{"type":"Feature","id":"label-ITA-5449","properties":{"kind":"division-label","code":"ITA-5449","countryCode":"ITA","name":"Pavia","localName":"Pavia","labelEnglish":"Pavia","labelLocal":"Pavia","labelBoth":"Pavia","type":"Province","iso":"IT-PV","qid":"Q16231"},"geometry":{"type":"Point","coordinates":[9.2558,45.1396]}},{"type":"Feature","id":"ITA-5424","properties":{"kind":"division","code":"ITA-5424","countryCode":"ITA","name":"Rieti","localName":"Rieti","labelEnglish":"Rieti","labelLocal":"Rieti","labelBoth":"Rieti","type":"Province","iso":"IT-RI","qid":"Q16267"},"geometry":{"type":"Polygon","coordinates":[[[12.4651,42.3869],[12.5204,42.2958],[13.0296,42.1156],[13.317,42.1969],[13.1353,42.5383],[13.3759,42.6038],[13.3376,42.6877],[13.1945,42.7346],[12.902,42.6096],[12.4651,42.3869]]]}},{"type":"Feature","id":"label-ITA-5424","properties":{"kind":"division-label","code":"ITA-5424","countryCode":"ITA","name":"Rieti","localName":"Rieti","labelEnglish":"Rieti","labelLocal":"Rieti","labelBoth":"Rieti","type":"Province","iso":"IT-RI","qid":"Q16267"},"geometry":{"type":"Point","coordinates":[12.9445,42.3382]}},{"type":"Feature","id":"ITA-5438","properties":{"kind":"division","code":"ITA-5438","countryCode":"ITA","name":"Novara","localName":"Novara","labelEnglish":"Novara","labelLocal":"Novara","labelBoth":"Novara","type":"Province","iso":"IT-NO","qid":"Q16216"},"geometry":{"type":"Polygon","coordinates":[[[8.3499,45.7724],[8.5126,45.3135],[8.832,45.4082],[8.7052,45.5568],[8.5984,45.826],[8.3499,45.7724]]]}},{"type":"Feature","id":"label-ITA-5438","properties":{"kind":"division-label","code":"ITA-5438","countryCode":"ITA","name":"Novara","localName":"Novara","labelEnglish":"Novara","labelLocal":"Novara","labelBoth":"Novara","type":"Province","iso":"IT-NO","qid":"Q16216"},"geometry":{"type":"Point","coordinates":[8.53757,45.5878]}},{"type":"Feature","id":"ITA-5439","properties":{"kind":"division","code":"ITA-5439","countryCode":"ITA","name":"Alessandria","localName":"Alessandria","labelEnglish":"Alessandria","labelLocal":"Alessandria","labelBoth":"Alessandria","type":"Province","iso":"IT-AL","qid":"Q15097"},"geometry":{"type":"Polygon","coordinates":[[[8.5566,45.1648],[8.1519,45.1686],[8.129,45.123],[8.4989,44.7674],[8.2655,44.5217],[8.5642,44.5162],[8.9592,44.6826],[9.2031,44.6138],[9.2014,44.6821],[8.8779,45.0538],[8.5566,45.1648]]]}},{"type":"Feature","id":"label-ITA-5439","properties":{"kind":"division-label","code":"ITA-5439","countryCode":"ITA","name":"Alessandria","localName":"Alessandria","labelEnglish":"Alessandria","labelLocal":"Alessandria","labelBoth":"Alessandria","type":"Province","iso":"IT-AL","qid":"Q15097"},"geometry":{"type":"Point","coordinates":[8.74818,44.8102]}},{"type":"Feature","id":"ITA-5460","properties":{"kind":"division","code":"ITA-5460","countryCode":"ITA","name":"Trentino","localName":"Trentino","labelEnglish":"Trentino","labelLocal":"Trentino","labelBoth":"Trentino","type":"Province","iso":"IT-TN","qid":"Q16289"},"geometry":{"type":"Polygon","coordinates":[[[11.8322,46.504],[11.191,46.2271],[11.2145,46.4693],[10.6247,46.4545],[10.5279,46.3426],[10.4591,45.985],[10.5609,45.8004],[10.8449,45.8341],[11.1307,45.6996],[11.2787,45.919],[11.6848,45.9843],[11.9694,46.1963],[11.8322,46.504]]]}},{"type":"Feature","id":"label-ITA-5460","properties":{"kind":"division-label","code":"ITA-5460","countryCode":"ITA","name":"Trentino","localName":"Trentino","labelEnglish":"Trentino","labelLocal":"Trentino","labelBoth":"Trentino","type":"Province","iso":"IT-TN","qid":"Q16289"},"geometry":{"type":"Point","coordinates":[10.9947,46.0415]}},{"type":"Feature","id":"ITA-5465","properties":{"kind":"division","code":"ITA-5465","countryCode":"ITA","name":"Vicenza","localName":"Vicenza","labelEnglish":"Vicenza","labelLocal":"Vicenza","labelBoth":"Vicenza","type":"Province","iso":"IT-VI","qid":"Q16316"},"geometry":{"type":"Polygon","coordinates":[[[11.1307,45.6996],[11.4872,45.2659],[11.8218,45.6871],[11.7997,45.8806],[11.6848,45.9843],[11.2787,45.919],[11.1307,45.6996]]]}},{"type":"Feature","id":"label-ITA-5465","properties":{"kind":"division-label","code":"ITA-5465","countryCode":"ITA","name":"Vicenza","localName":"Vicenza","labelEnglish":"Vicenza","labelLocal":"Vicenza","labelBoth":"Vicenza","type":"Province","iso":"IT-VI","qid":"Q16316"},"geometry":{"type":"Point","coordinates":[11.4753,45.712]}},{"type":"Feature","id":"ITA-5464","properties":{"kind":"division","code":"ITA-5464","countryCode":"ITA","name":"Verona","localName":"Verona","labelEnglish":"Verona","labelLocal":"Verona","labelBoth":"Verona","type":"Province","iso":"IT-VR","qid":"Q16314"},"geometry":{"type":"Polygon","coordinates":[[[11.1307,45.6996],[10.8449,45.8341],[10.6618,45.419],[11.2103,45.1043],[11.4186,45.1318],[11.4872,45.2659],[11.1307,45.6996]]]}},{"type":"Feature","id":"label-ITA-5464","properties":{"kind":"division-label","code":"ITA-5464","countryCode":"ITA","name":"Verona","localName":"Verona","labelEnglish":"Verona","labelLocal":"Verona","labelBoth":"Verona","type":"Province","iso":"IT-VR","qid":"Q16314"},"geometry":{"type":"Point","coordinates":[11.0433,45.4528]}},{"type":"Feature","id":"ITA-5466","properties":{"kind":"division","code":"ITA-5466","countryCode":"ITA","name":"Treviso","localName":"Treviso","labelEnglish":"Treviso","labelLocal":"Treviso","labelBoth":"Treviso","type":"Province","iso":"IT-TV","qid":"Q16292"},"geometry":{"type":"Polygon","coordinates":[[[12.4224,46.0431],[11.7997,45.8806],[11.8218,45.6871],[12.0924,45.5984],[12.2311,45.5367],[12.6728,45.8021],[12.4224,46.0431]]]}},{"type":"Feature","id":"label-ITA-5466","properties":{"kind":"division-label","code":"ITA-5466","countryCode":"ITA","name":"Treviso","localName":"Treviso","labelEnglish":"Treviso","labelLocal":"Treviso","labelBoth":"Treviso","type":"Province","iso":"IT-TV","qid":"Q16292"},"geometry":{"type":"Point","coordinates":[12.2313,45.8092]}},{"type":"Feature","id":"ITA-5361","properties":{"kind":"division","code":"ITA-5361","countryCode":"ITA","name":"Piacenza","localName":"Piacenza","labelEnglish":"Piacenza","labelLocal":"Piacenza","labelBoth":"Piacenza","type":"Province","iso":"IT-PC","qid":"Q16243"},"geometry":{"type":"Polygon","coordinates":[[[10.0719,45.0375],[9.8829,45.1341],[9.546,45.1327],[9.2014,44.6821],[9.2031,44.6138],[9.4913,44.551],[10.007,44.8718],[10.0719,45.0375]]]}},{"type":"Feature","id":"label-ITA-5361","properties":{"kind":"division-label","code":"ITA-5361","countryCode":"ITA","name":"Piacenza","localName":"Piacenza","labelEnglish":"Piacenza","labelLocal":"Piacenza","labelBoth":"Piacenza","type":"Province","iso":"IT-PC","qid":"Q16243"},"geometry":{"type":"Point","coordinates":[9.58167,44.8704]}},{"type":"Feature","id":"ITA-5360","properties":{"kind":"division","code":"ITA-5360","countryCode":"ITA","name":"Parma","localName":"Parma","labelEnglish":"Parma","labelLocal":"Parma","labelBoth":"Parma","type":"Province","iso":"IT-PR","qid":"Q16228"},"geometry":{"type":"Polygon","coordinates":[[[10.0719,45.0375],[10.007,44.8718],[9.4913,44.551],[9.4764,44.4125],[9.6898,44.3577],[9.8356,44.4763],[10.1357,44.3418],[10.4005,44.5687],[10.5015,44.9194],[10.0719,45.0375]]]}},{"type":"Feature","id":"label-ITA-5360","properties":{"kind":"division-label","code":"ITA-5360","countryCode":"ITA","name":"Parma","localName":"Parma","labelEnglish":"Parma","labelLocal":"Parma","labelBoth":"Parma","type":"Province","iso":"IT-PR","qid":"Q16228"},"geometry":{"type":"Point","coordinates":[10.04,44.6355]}},{"type":"Feature","id":"ITA-5359","properties":{"kind":"division","code":"ITA-5359","countryCode":"ITA","name":"Reggio Emilia","localName":"Reggio Emilia","labelEnglish":"Reggio Emilia","labelLocal":"Reggio Emilia","labelBoth":"Reggio Emilia","type":"Province","iso":"IT-RE","qid":"Q16254"},"geometry":{"type":"Polygon","coordinates":[[[10.1357,44.3418],[10.2539,44.2706],[10.4712,44.2246],[10.7731,44.5585],[10.8878,44.914],[10.5015,44.9194],[10.4005,44.5687],[10.1357,44.3418]]]}},{"type":"Feature","id":"label-ITA-5359","properties":{"kind":"division-label","code":"ITA-5359","countryCode":"ITA","name":"Reggio Emilia","localName":"Reggio Emilia","labelEnglish":"Reggio Emilia","labelLocal":"Reggio Emilia","labelBoth":"Reggio Emilia","type":"Province","iso":"IT-RE","qid":"Q16254"},"geometry":{"type":"Point","coordinates":[10.6186,44.6699]}},{"type":"Feature","id":"ITA-5358","properties":{"kind":"division","code":"ITA-5358","countryCode":"ITA","name":"Modena","localName":"Modena","labelEnglish":"Modena","labelLocal":"Modena","labelBoth":"Modena","type":"Province","iso":"IT-MO","qid":"Q16209"},"geometry":{"type":"Polygon","coordinates":[[[10.4712,44.2246],[10.6105,44.1257],[10.8159,44.1135],[11.2933,44.8027],[11.257,44.9473],[10.8878,44.914],[10.7731,44.5585],[10.4712,44.2246]]]}},{"type":"Feature","id":"label-ITA-5358","properties":{"kind":"division-label","code":"ITA-5358","countryCode":"ITA","name":"Modena","localName":"Modena","labelEnglish":"Modena","labelLocal":"Modena","labelBoth":"Modena","type":"Province","iso":"IT-MO","qid":"Q16209"},"geometry":{"type":"Point","coordinates":[10.8516,44.4311]}},{"type":"Feature","id":"ITA-5362","properties":{"kind":"division","code":"ITA-5362","countryCode":"ITA","name":"Bologna","localName":"Bologna","labelEnglish":"Bologna","labelLocal":"Bologna","labelBoth":"Bologna","type":"Province","iso":"IT-BO","qid":"Q16139"},"geometry":{"type":"Polygon","coordinates":[[[11.2933,44.8027],[10.8159,44.1135],[11.0483,44.0924],[11.2001,44.1047],[11.5263,44.1622],[11.8203,44.3957],[11.7893,44.5544],[11.2933,44.8027]]]}},{"type":"Feature","id":"label-ITA-5362","properties":{"kind":"division-label","code":"ITA-5362","countryCode":"ITA","name":"Bologna","localName":"Bologna","labelEnglish":"Bologna","labelLocal":"Bologna","labelBoth":"Bologna","type":"Province","iso":"IT-BO","qid":"Q16139"},"geometry":{"type":"Point","coordinates":[11.4149,44.3949]}},{"type":"Feature","id":"ITA-5384","properties":{"kind":"division","code":"ITA-5384","countryCode":"ITA","name":"Pistoia","localName":"Pistoia","labelEnglish":"Pistoia","labelLocal":"Pistoia","labelBoth":"Pistoia","type":"Province","iso":"IT-PT","qid":"Q16245"},"geometry":{"type":"Polygon","coordinates":[[[10.6105,44.1257],[10.7278,43.8141],[10.9641,43.8125],[11.0483,44.0924],[10.8159,44.1135],[10.6105,44.1257]]]}},{"type":"Feature","id":"label-ITA-5384","properties":{"kind":"division-label","code":"ITA-5384","countryCode":"ITA","name":"Pistoia","localName":"Pistoia","labelEnglish":"Pistoia","labelLocal":"Pistoia","labelBoth":"Pistoia","type":"Province","iso":"IT-PT","qid":"Q16245"},"geometry":{"type":"Point","coordinates":[10.8592,43.9481]}},{"type":"Feature","id":"ITA-5433","properties":{"kind":"division","code":"ITA-5433","countryCode":"ITA","name":"Terni","localName":"Terni","labelEnglish":"Terni","labelLocal":"Terni","labelBoth":"Terni","type":"Province","iso":"IT-TR","qid":"Q16286"},"geometry":{"type":"Polygon","coordinates":[[[12.902,42.6096],[12.606,42.7355],[12.3502,42.6794],[12.3009,42.9148],[11.9317,42.8717],[11.889,42.8504],[12.4651,42.3869],[12.902,42.6096]]]}},{"type":"Feature","id":"label-ITA-5433","properties":{"kind":"division-label","code":"ITA-5433","countryCode":"ITA","name":"Terni","localName":"Terni","labelEnglish":"Terni","labelLocal":"Terni","labelBoth":"Terni","type":"Province","iso":"IT-TR","qid":"Q16286"},"geometry":{"type":"Point","coordinates":[12.4862,42.5788]}},{"type":"Feature","id":"ITA-5432","properties":{"kind":"division","code":"ITA-5432","countryCode":"ITA","name":"Perugia","localName":"Perugia","labelEnglish":"Perugia","labelLocal":"Perugia","labelBoth":"Perugia","type":"Province","iso":"IT-PG","qid":"Q16240"},"geometry":{"type":"Polygon","coordinates":[[[11.9317,42.8717],[12.3009,42.9148],[12.3502,42.6794],[12.606,42.7355],[12.902,42.6096],[13.1945,42.7346],[13.2243,42.8477],[12.9131,42.9634],[12.8517,43.2061],[12.7582,43.4612],[12.2048,43.6168],[12.0371,43.4165],[12.2132,43.291],[11.9527,43.1738],[11.9317,42.8717]]]}},{"type":"Feature","id":"label-ITA-5432","properties":{"kind":"division-label","code":"ITA-5432","countryCode":"ITA","name":"Perugia","localName":"Perugia","labelEnglish":"Perugia","labelLocal":"Perugia","labelBoth":"Perugia","type":"Province","iso":"IT-PG","qid":"Q16240"},"geometry":{"type":"Point","coordinates":[12.4925,43.1011]}},{"type":"Feature","id":"ITA-5425","properties":{"kind":"division","code":"ITA-5425","countryCode":"ITA","name":"Frosinone","localName":"Frosinone","labelEnglish":"Frosinone","labelLocal":"Frosinone","labelBoth":"Frosinone","type":"Province","iso":"IT-FR","qid":"Q16181"},"geometry":{"type":"Polygon","coordinates":[[[13.1752,41.5836],[13.6254,41.3191],[13.8726,41.3354],[13.9618,41.4707],[13.9457,41.6882],[13.3571,41.8308],[13.2979,41.947],[13.0075,41.8149],[13.1752,41.5836]]]}},{"type":"Feature","id":"label-ITA-5425","properties":{"kind":"division-label","code":"ITA-5425","countryCode":"ITA","name":"Frosinone","localName":"Frosinone","labelEnglish":"Frosinone","labelLocal":"Frosinone","labelBoth":"Frosinone","type":"Province","iso":"IT-FR","qid":"Q16181"},"geometry":{"type":"Point","coordinates":[13.5575,41.6106]}},{"type":"Feature","id":"ITA-5399","properties":{"kind":"division","code":"ITA-5399","countryCode":"ITA","name":"Avellino","localName":"Avellino","labelEnglish":"Avellino","labelLocal":"Avellino","labelBoth":"Avellino","type":"Province","iso":"IT-AV","qid":"Q16120"},"geometry":{"type":"Polygon","coordinates":[[[14.572,41.0095],[14.6055,40.8476],[15.2374,40.7235],[15.3443,40.8207],[15.5586,41.0551],[15.1435,41.2746],[14.9937,41.1065],[14.572,41.0095]]]}},{"type":"Feature","id":"label-ITA-5399","properties":{"kind":"division-label","code":"ITA-5399","countryCode":"ITA","name":"Avellino","localName":"Avellino","labelEnglish":"Avellino","labelLocal":"Avellino","labelBoth":"Avellino","type":"Province","iso":"IT-AV","qid":"Q16120"},"geometry":{"type":"Point","coordinates":[15.1044,40.9404]}},{"type":"Feature","id":"ITA-5420","properties":{"kind":"division","code":"ITA-5420","countryCode":"ITA","name":"L'Aquila","localName":"L'Aquila","labelEnglish":"L'Aquila","labelLocal":"L'Aquila","labelBoth":"L'Aquila","type":"Province","iso":"IT-AQ","qid":"Q16189"},"geometry":{"type":"Polygon","coordinates":[[[13.3759,42.6038],[13.1353,42.5383],[13.317,42.1969],[13.0296,42.1156],[13.2979,41.947],[13.3571,41.8308],[13.9457,41.6882],[14.2294,41.8774],[14.0854,42.0867],[13.7954,42.1512],[13.7654,42.4201],[13.3759,42.6038]]]}},{"type":"Feature","id":"label-ITA-5420","properties":{"kind":"division-label","code":"ITA-5420","countryCode":"ITA","name":"L'Aquila","localName":"L'Aquila","labelEnglish":"L'Aquila","labelLocal":"L'Aquila","labelBoth":"L'Aquila","type":"Province","iso":"IT-AQ","qid":"Q16189"},"geometry":{"type":"Point","coordinates":[13.6034,42.0575]}},{"type":"Feature","id":"ITA-5456","properties":{"kind":"division","code":"ITA-5456","countryCode":"ITA","name":"Pordenone","localName":"Pordenone","labelEnglish":"Pordenone","labelLocal":"Pordenone","labelBoth":"Pordenone","type":"Province","iso":"IT-PN","qid":"Q16247"},"geometry":{"type":"Polygon","coordinates":[[[12.5001,46.4042],[12.4224,46.0431],[12.6728,45.8021],[12.9729,45.8426],[12.9657,46.3289],[12.5001,46.4042]]]}},{"type":"Feature","id":"label-ITA-5456","properties":{"kind":"division-label","code":"ITA-5456","countryCode":"ITA","name":"Pordenone","localName":"Pordenone","labelEnglish":"Pordenone","labelLocal":"Pordenone","labelBoth":"Pordenone","type":"Province","iso":"IT-PN","qid":"Q16247"},"geometry":{"type":"Point","coordinates":[12.6981,46.2122]}},{"type":"Feature","id":"ITA-5402","properties":{"kind":"division","code":"ITA-5402","countryCode":"ITA","name":"Isernia","localName":"Isernia","labelEnglish":"Isernia","labelLocal":"Isernia","labelBoth":"Isernia","type":"Province","iso":"IT-IS","qid":"Q16187"},"geometry":{"type":"Polygon","coordinates":[[[14.4904,41.7761],[14.2294,41.8774],[13.9457,41.6882],[13.9618,41.4707],[14.3827,41.442],[14.4904,41.7761]]]}},{"type":"Feature","id":"label-ITA-5402","properties":{"kind":"division-label","code":"ITA-5402","countryCode":"ITA","name":"Isernia","localName":"Isernia","labelEnglish":"Isernia","labelLocal":"Isernia","labelBoth":"Isernia","type":"Province","iso":"IT-IS","qid":"Q16187"},"geometry":{"type":"Point","coordinates":[14.2393,41.645]}},{"type":"Feature","id":"ITA-5435","properties":{"kind":"division","code":"ITA-5435","countryCode":"ITA","name":"Biella","localName":"Biella","labelEnglish":"Biella","labelLocal":"Biella","labelBoth":"Biella","type":"Province","iso":"IT-BI","qid":"Q15094"},"geometry":{"type":"Polygon","coordinates":[[[8.027,45.4031],[8.263,45.5043],[8.1822,45.7419],[7.9163,45.7297],[7.8802,45.6027],[8.027,45.4031]]]}},{"type":"Feature","id":"label-ITA-5435","properties":{"kind":"division-label","code":"ITA-5435","countryCode":"ITA","name":"Biella","localName":"Biella","labelEnglish":"Biella","labelLocal":"Biella","labelBoth":"Biella","type":"Province","iso":"IT-BI","qid":"Q15094"},"geometry":{"type":"Point","coordinates":[8.08936,45.5932]}},{"type":"Feature","id":"ITA-5385","properties":{"kind":"division","code":"ITA-5385","countryCode":"ITA","name":"Prato","localName":"Prato","labelEnglish":"Prato","labelLocal":"Prato","labelBoth":"Prato","type":"Province","iso":"IT-PO","qid":"Q16250"},"geometry":{"type":"Polygon","coordinates":[[[11.2001,44.1047],[11.0483,44.0924],[10.9641,43.8125],[11.2001,44.1047]]]}},{"type":"Feature","id":"label-ITA-5385","properties":{"kind":"division-label","code":"ITA-5385","countryCode":"ITA","name":"Prato","localName":"Prato","labelEnglish":"Prato","labelLocal":"Prato","labelBoth":"Prato","type":"Province","iso":"IT-PO","qid":"Q16250"},"geometry":{"type":"Point","coordinates":[11.0826,43.8965]}}]}