{"type":"FeatureCollection","features":[{"type":"Feature","id":"JAM-1379","properties":{"kind":"division","code":"JAM-1379","countryCode":"JAM","name":"Saint Ann","localName":"Saint Ann","labelEnglish":"Saint Ann","labelLocal":"Saint Ann","labelBoth":"Saint Ann","type":"Parish","iso":"JM-06","qid":"Q1326284"},"geometry":{"type":"Polygon","coordinates":[[[-77.4653,18.4761],[-77.4912,18.1961],[-77.2109,18.1861],[-76.9964,18.242],[-77.0703,18.4134],[-77.4653,18.4761]]]}},{"type":"Feature","id":"label-JAM-1379","properties":{"kind":"division-label","code":"JAM-1379","countryCode":"JAM","name":"Saint Ann","localName":"Saint Ann","labelEnglish":"Saint Ann","labelLocal":"Saint Ann","labelBoth":"Saint Ann","type":"Parish","iso":"JM-06","qid":"Q1326284"},"geometry":{"type":"Point","coordinates":[-77.2438,18.3194]}},{"type":"Feature","id":"JAM-1375","properties":{"kind":"division","code":"JAM-1375","countryCode":"JAM","name":"Trelawny","localName":"Trelawny","labelEnglish":"Trelawny","labelLocal":"Trelawny","labelBoth":"Trelawny","type":"Parish","iso":"JM-07","qid":"Q1123340"},"geometry":{"type":"Polygon","coordinates":[[[-77.7355,18.5067],[-77.7814,18.2344],[-77.6403,18.2209],[-77.4912,18.1961],[-77.4653,18.4761],[-77.7355,18.5067]]]}},{"type":"Feature","id":"label-JAM-1375","properties":{"kind":"division-label","code":"JAM-1375","countryCode":"JAM","name":"Trelawny","localName":"Trelawny","labelEnglish":"Trelawny","labelLocal":"Trelawny","labelBoth":"Trelawny","type":"Parish","iso":"JM-07","qid":"Q1123340"},"geometry":{"type":"Point","coordinates":[-77.6163,18.36]}},{"type":"Feature","id":"JAM-1374","properties":{"kind":"division","code":"JAM-1374","countryCode":"JAM","name":"Saint James","localName":"Saint James","labelEnglish":"Saint James","labelLocal":"Saint James","labelBoth":"Saint James","type":"Parish","iso":"JM-08","qid":"Q1421939"},"geometry":{"type":"Polygon","coordinates":[[[-78.0002,18.4467],[-77.9214,18.2961],[-77.8959,18.1956],[-77.7814,18.2344],[-77.7355,18.5067],[-78.0002,18.4467]]]}},{"type":"Feature","id":"label-JAM-1374","properties":{"kind":"division-label","code":"JAM-1374","countryCode":"JAM","name":"Saint James","localName":"Saint James","labelEnglish":"Saint James","labelLocal":"Saint James","labelBoth":"Saint James","type":"Parish","iso":"JM-08","qid":"Q1421939"},"geometry":{"type":"Point","coordinates":[-77.8715,18.3637]}},{"type":"Feature","id":"JAM-1371","properties":{"kind":"division","code":"JAM-1371","countryCode":"JAM","name":"Hanover","localName":"Hanover","labelEnglish":"Hanover","labelLocal":"Hanover","labelBoth":"Hanover","type":"Parish","iso":"JM-09","qid":"Q1131779"},"geometry":{"type":"Polygon","coordinates":[[[-78.346,18.298],[-77.9214,18.2961],[-78.0002,18.4467],[-78.346,18.298]]]}},{"type":"Feature","id":"label-JAM-1371","properties":{"kind":"division-label","code":"JAM-1371","countryCode":"JAM","name":"Hanover","localName":"Hanover","labelEnglish":"Hanover","labelLocal":"Hanover","labelBoth":"Hanover","type":"Parish","iso":"JM-09","qid":"Q1131779"},"geometry":{"type":"Point","coordinates":[-78.1337,18.3953]}},{"type":"Feature","id":"JAM-1376","properties":{"kind":"division","code":"JAM-1376","countryCode":"JAM","name":"Westmoreland","localName":"Westmoreland","labelEnglish":"Westmoreland","labelLocal":"Westmoreland","labelBoth":"Westmoreland","type":"Parish","iso":"JM-10","qid":"Q1440250"},"geometry":{"type":"Polygon","coordinates":[[[-77.9646,18.0506],[-77.8959,18.1956],[-77.9214,18.2961],[-78.346,18.298],[-77.9646,18.0506]]]}},{"type":"Feature","id":"label-JAM-1376","properties":{"kind":"division-label","code":"JAM-1376","countryCode":"JAM","name":"Westmoreland","localName":"Westmoreland","labelEnglish":"Westmoreland","labelLocal":"Westmoreland","labelBoth":"Westmoreland","type":"Parish","iso":"JM-10","qid":"Q1440250"},"geometry":{"type":"Point","coordinates":[-78.1303,18.2678]}},{"type":"Feature","id":"JAM-1373","properties":{"kind":"division","code":"JAM-1373","countryCode":"JAM","name":"Saint Elizabeth","localName":"Saint Elizabeth","labelEnglish":"Saint Elizabeth","labelLocal":"Saint Elizabeth","labelBoth":"Saint Elizabeth","type":"Parish","iso":"JM-11","qid":"Q1473646"},"geometry":{"type":"Polygon","coordinates":[[[-77.5646,17.8571],[-77.6403,18.2209],[-77.7814,18.2344],[-77.8959,18.1956],[-77.9646,18.0506],[-77.5646,17.8571]]]}},{"type":"Feature","id":"label-JAM-1373","properties":{"kind":"division-label","code":"JAM-1373","countryCode":"JAM","name":"Saint Elizabeth","localName":"Saint Elizabeth","labelEnglish":"Saint Elizabeth","labelLocal":"Saint Elizabeth","labelBoth":"Saint Elizabeth","type":"Parish","iso":"JM-11","qid":"Q1473646"},"geometry":{"type":"Point","coordinates":[-77.7646,18.0537]}},{"type":"Feature","id":"JAM-1372","properties":{"kind":"division","code":"JAM-1372","countryCode":"JAM","name":"Manchester","localName":"Manchester","labelEnglish":"Manchester","labelLocal":"Manchester","labelBoth":"Manchester","type":"Parish","iso":"JM-12","qid":"Q920496"},"geometry":{"type":"Polygon","coordinates":[[[-77.3946,17.8534],[-77.4912,18.1961],[-77.6403,18.2209],[-77.5646,17.8571],[-77.3946,17.8534]]]}},{"type":"Feature","id":"label-JAM-1372","properties":{"kind":"division-label","code":"JAM-1372","countryCode":"JAM","name":"Manchester","localName":"Manchester","labelEnglish":"Manchester","labelLocal":"Manchester","labelBoth":"Manchester","type":"Parish","iso":"JM-12","qid":"Q920496"},"geometry":{"type":"Point","coordinates":[-77.4996,18.0219]}},{"type":"Feature","id":"JAM-1370","properties":{"kind":"division","code":"JAM-1370","countryCode":"JAM","name":"Clarendon","localName":"Clarendon","labelEnglish":"Clarendon","labelLocal":"Clarendon","labelBoth":"Clarendon","type":"Parish","iso":"JM-13","qid":"Q1095557"},"geometry":{"type":"Polygon","coordinates":[[[-77.1346,17.8851],[-77.2109,18.1861],[-77.4912,18.1961],[-77.3946,17.8534],[-77.2161,17.7167],[-77.1346,17.8851]]]}},{"type":"Feature","id":"label-JAM-1370","properties":{"kind":"division-label","code":"JAM-1370","countryCode":"JAM","name":"Clarendon","localName":"Clarendon","labelEnglish":"Clarendon","labelLocal":"Clarendon","labelBoth":"Clarendon","type":"Parish","iso":"JM-13","qid":"Q1095557"},"geometry":{"type":"Point","coordinates":[-77.3109,17.9947]}},{"type":"Feature","id":"JAM-1380","properties":{"kind":"division","code":"JAM-1380","countryCode":"JAM","name":"Saint Catherine","localName":"Saint Catherine","labelEnglish":"Saint Catherine","labelLocal":"Saint Catherine","labelBoth":"Saint Catherine","type":"Parish","iso":"JM-14","qid":"Q1473663"},"geometry":{"type":"Polygon","coordinates":[[[-76.85,17.9923],[-76.8728,18.1483],[-76.9964,18.242],[-77.2109,18.1861],[-77.1346,17.8851],[-76.85,17.9923]]]}},{"type":"Feature","id":"label-JAM-1380","properties":{"kind":"division-label","code":"JAM-1380","countryCode":"JAM","name":"Saint Catherine","localName":"Saint Catherine","labelEnglish":"Saint Catherine","labelLocal":"Saint Catherine","labelBoth":"Saint Catherine","type":"Parish","iso":"JM-14","qid":"Q1473663"},"geometry":{"type":"Point","coordinates":[-77.0292,17.8518]}},{"type":"Feature","id":"JAM-1382","properties":{"kind":"division","code":"JAM-1382","countryCode":"JAM","name":"Saint Andrew","localName":"Saint Andrew","labelEnglish":"Saint Andrew","labelLocal":"Saint Andrew","labelBoth":"Saint Andrew","type":"Parish","iso":"JM-02","qid":"Q2212935"},"geometry":{"type":"Polygon","coordinates":[[[-76.8125,17.9715],[-76.7307,17.9883],[-76.727,17.9538],[-76.6572,17.9297],[-76.6278,18.0736],[-76.7514,18.1386],[-76.8728,18.1483],[-76.85,17.9923],[-76.8125,17.9715]]]}},{"type":"Feature","id":"label-JAM-1382","properties":{"kind":"division-label","code":"JAM-1382","countryCode":"JAM","name":"Saint Andrew","localName":"Saint Andrew","labelEnglish":"Saint Andrew","labelLocal":"Saint Andrew","labelBoth":"Saint Andrew","type":"Parish","iso":"JM-02","qid":"Q2212935"},"geometry":{"type":"Point","coordinates":[-76.7685,18.0229]}},{"type":"Feature","id":"JAM-1377","properties":{"kind":"division","code":"JAM-1377","countryCode":"JAM","name":"Kingston","localName":"Kingston","labelEnglish":"Kingston","labelLocal":"Kingston","labelBoth":"Kingston","type":"Parish","iso":"JM-01","qid":"Q1473680"},"geometry":{"type":"Polygon","coordinates":[[[-76.727,17.9538],[-76.7307,17.9883],[-76.8125,17.9715],[-76.727,17.9538]]]}},{"type":"Feature","id":"label-JAM-1377","properties":{"kind":"division-label","code":"JAM-1377","countryCode":"JAM","name":"Kingston","localName":"Kingston","labelEnglish":"Kingston","labelLocal":"Kingston","labelBoth":"Kingston","type":"Parish","iso":"JM-01","qid":"Q1473680"},"geometry":{"type":"Point","coordinates":[-76.7653,17.9799]}},{"type":"Feature","id":"JAM-1383","properties":{"kind":"division","code":"JAM-1383","countryCode":"JAM","name":"Saint Thomas","localName":"Saint Thomas","labelEnglish":"Saint Thomas","labelLocal":"Saint Thomas","labelBoth":"Saint Thomas","type":"Parish","iso":"JM-03","qid":"Q1422332"},"geometry":{"type":"Polygon","coordinates":[[[-76.2568,17.9963],[-76.6278,18.0736],[-76.6572,17.9297],[-76.3074,17.8701],[-76.2568,17.9963]]]}},{"type":"Feature","id":"label-JAM-1383","properties":{"kind":"division-label","code":"JAM-1383","countryCode":"JAM","name":"Saint Thomas","localName":"Saint Thomas","labelEnglish":"Saint Thomas","labelLocal":"Saint Thomas","labelBoth":"Saint Thomas","type":"Parish","iso":"JM-03","qid":"Q1422332"},"geometry":{"type":"Point","coordinates":[-76.4226,17.951]}},{"type":"Feature","id":"JAM-1378","properties":{"kind":"division","code":"JAM-1378","countryCode":"JAM","name":"Portland","localName":"Portland","labelEnglish":"Portland","labelLocal":"Portland","labelBoth":"Portland","type":"Parish","iso":"JM-04","qid":"Q125148"},"geometry":{"type":"Polygon","coordinates":[[[-76.7015,18.2668],[-76.7514,18.1386],[-76.6278,18.0736],[-76.2568,17.9963],[-76.3511,18.156],[-76.7015,18.2668]]]}},{"type":"Feature","id":"label-JAM-1378","properties":{"kind":"division-label","code":"JAM-1378","countryCode":"JAM","name":"Portland","localName":"Portland","labelEnglish":"Portland","labelLocal":"Portland","labelBoth":"Portland","type":"Parish","iso":"JM-04","qid":"Q125148"},"geometry":{"type":"Point","coordinates":[-76.5041,18.1179]}},{"type":"Feature","id":"JAM-1381","properties":{"kind":"division","code":"JAM-1381","countryCode":"JAM","name":"Saint Mary","localName":"Saint Mary","labelEnglish":"Saint Mary","labelLocal":"Saint Mary","labelBoth":"Saint Mary","type":"Parish","iso":"JM-05","qid":"Q633565"},"geometry":{"type":"Polygon","coordinates":[[[-77.0703,18.4134],[-76.9964,18.242],[-76.8728,18.1483],[-76.7514,18.1386],[-76.7015,18.2668],[-77.0703,18.4134]]]}},{"type":"Feature","id":"label-JAM-1381","properties":{"kind":"division-label","code":"JAM-1381","countryCode":"JAM","name":"Saint Mary","localName":"Saint Mary","labelEnglish":"Saint Mary","labelLocal":"Saint Mary","labelBoth":"Saint Mary","type":"Parish","iso":"JM-05","qid":"Q633565"},"geometry":{"type":"Point","coordinates":[-76.8859,18.2655]}}]}