{"type":"FeatureCollection","features":[{"type":"Feature","id":"JEY+00?","properties":{"kind":"division","code":"JEY+00?","countryCode":"JEY","name":"Jersey","localName":"Jersey","labelEnglish":"Jersey","labelLocal":"Jersey","labelBoth":"Jersey","type":null,"iso":"JE-X01~","qid":"Q785"},"geometry":{"type":"Polygon","coordinates":[[[-2.0827,49.2602],[-2.2336,49.1845],[-2.0245,49.1713],[-2.0827,49.2602]]]}},{"type":"Feature","id":"label-JEY+00?","properties":{"kind":"division-label","code":"JEY+00?","countryCode":"JEY","name":"Jersey","localName":"Jersey","labelEnglish":"Jersey","labelLocal":"Jersey","labelBoth":"Jersey","type":null,"iso":"JE-X01~","qid":"Q785"},"geometry":{"type":"Point","coordinates":[-2.12454,49.2298]}}]}