{"type":"FeatureCollection","features":[{"type":"Feature","id":"JOR-854","properties":{"kind":"division","code":"JOR-854","countryCode":"JOR","name":"Irbid","localName":"Irbid","labelEnglish":"Irbid","labelLocal":"Irbid","labelBoth":"Irbid","type":"Province","iso":"JO-IR","qid":"Q721441"},"geometry":{"type":"Polygon","coordinates":[[[35.7576,32.7443],[35.5627,32.6442],[35.561,32.3847],[35.5596,32.1904],[35.6355,32.1838],[35.6489,32.3554],[35.9053,32.3389],[36.0172,32.346],[36.0819,32.5163],[35.7697,32.7481],[35.7576,32.7443]]]}},{"type":"Feature","id":"label-JOR-854","properties":{"kind":"division-label","code":"JOR-854","countryCode":"JOR","name":"Irbid","localName":"Irbid","labelEnglish":"Irbid","labelLocal":"Irbid","labelBoth":"Irbid","type":"Province","iso":"JO-IR","qid":"Q721441"},"geometry":{"type":"Point","coordinates":[35.8195,32.5559]}},{"type":"Feature","id":"JOR-858","properties":{"kind":"division","code":"JOR-858","countryCode":"JOR","name":"Madaba","localName":"Madaba","labelEnglish":"Madaba","labelLocal":"Madaba","labelBoth":"Madaba","type":"Province","iso":"JO-MD","qid":"Q750447"},"geometry":{"type":"Polygon","coordinates":[[[35.4571,31.4335],[35.818,31.4059],[35.8382,31.7842],[35.7083,31.7747],[35.5025,31.6854],[35.4581,31.4919],[35.4571,31.4335]]]}},{"type":"Feature","id":"label-JOR-858","properties":{"kind":"division-label","code":"JOR-858","countryCode":"JOR","name":"Madaba","localName":"Madaba","labelEnglish":"Madaba","labelLocal":"Madaba","labelBoth":"Madaba","type":"Province","iso":"JO-MD","qid":"Q750447"},"geometry":{"type":"Point","coordinates":[35.6722,31.5852]}},{"type":"Feature","id":"JOR-859","properties":{"kind":"division","code":"JOR-859","countryCode":"JOR","name":"Karak","localName":"Karak","labelEnglish":"Karak","labelLocal":"Karak","labelBoth":"Karak","type":"Province","iso":"JO-KA","qid":"Q735245"},"geometry":{"type":"Polygon","coordinates":[[[35.3471,30.9227],[35.8302,30.9149],[36.0238,30.7671],[36.1518,31.2486],[35.8492,31.2549],[35.818,31.4059],[35.4571,31.4335],[35.3471,30.9227]]]}},{"type":"Feature","id":"label-JOR-859","properties":{"kind":"division-label","code":"JOR-859","countryCode":"JOR","name":"Karak","localName":"Karak","labelEnglish":"Karak","labelLocal":"Karak","labelBoth":"Karak","type":"Province","iso":"JO-KA","qid":"Q735245"},"geometry":{"type":"Point","coordinates":[35.7693,31.1753]}},{"type":"Feature","id":"JOR-852","properties":{"kind":"division","code":"JOR-852","countryCode":"JOR","name":"Tafilah","localName":"Tafilah","labelEnglish":"Tafilah","labelLocal":"Tafilah","labelBoth":"Tafilah","type":"Province","iso":"JO-AT","qid":"Q750259"},"geometry":{"type":"Polygon","coordinates":[[[35.2639,30.72],[35.448,30.6085],[35.9477,30.6564],[36.0238,30.7671],[35.8302,30.9149],[35.3471,30.9227],[35.2639,30.72]]]}},{"type":"Feature","id":"label-JOR-852","properties":{"kind":"division-label","code":"JOR-852","countryCode":"JOR","name":"Tafilah","localName":"Tafilah","labelEnglish":"Tafilah","labelLocal":"Tafilah","labelBoth":"Tafilah","type":"Province","iso":"JO-AT","qid":"Q750259"},"geometry":{"type":"Point","coordinates":[35.6436,30.7879]}},{"type":"Feature","id":"JOR-849","properties":{"kind":"division","code":"JOR-849","countryCode":"JOR","name":"Aqaba","localName":"Aqaba","labelEnglish":"Aqaba","labelLocal":"Aqaba","labelBoth":"Aqaba","type":"Province","iso":"JO-AQ","qid":"Q260796"},"geometry":{"type":"Polygon","coordinates":[[[34.9556,29.559],[34.9494,29.3517],[35.7403,29.2317],[35.6235,29.7874],[35.2991,30.0271],[35.448,30.6085],[35.2639,30.72],[34.9556,29.559]]]}},{"type":"Feature","id":"label-JOR-849","properties":{"kind":"division-label","code":"JOR-849","countryCode":"JOR","name":"Aqaba","localName":"Aqaba","labelEnglish":"Aqaba","labelLocal":"Aqaba","labelBoth":"Aqaba","type":"Province","iso":"JO-AQ","qid":"Q260796"},"geometry":{"type":"Point","coordinates":[35.3449,29.6276]}},{"type":"Feature","id":"JOR-857","properties":{"kind":"division","code":"JOR-857","countryCode":"JOR","name":"Balqa","localName":"Balqa","labelEnglish":"Balqa","labelLocal":"Balqa","labelBoth":"Balqa","type":"Province","iso":"JO-BA","qid":"Q721431"},"geometry":{"type":"Polygon","coordinates":[[[35.5025,31.6854],[35.7083,31.7747],[35.9412,32.0458],[35.8959,32.0957],[35.6948,32.1562],[35.6355,32.1838],[35.5596,32.1904],[35.5025,31.6854]]]}},{"type":"Feature","id":"label-JOR-857","properties":{"kind":"division-label","code":"JOR-857","countryCode":"JOR","name":"Balqa","localName":"Balqa","labelEnglish":"Balqa","labelLocal":"Balqa","labelBoth":"Balqa","type":"Province","iso":"JO-BA","qid":"Q721431"},"geometry":{"type":"Point","coordinates":[35.7216,31.8345]}},{"type":"Feature","id":"JOR-850","properties":{"kind":"division","code":"JOR-850","countryCode":"JOR","name":"Mafraq","localName":"Mafraq","labelEnglish":"Mafraq","labelLocal":"Mafraq","labelBoth":"Mafraq","type":"Province","iso":"JO-MA","qid":"Q854871"},"geometry":{"type":"Polygon","coordinates":[[[37.4946,32.6901],[36.8194,32.3168],[36.5167,32.357],[36.0819,32.5163],[36.0172,32.346],[35.9907,32.1967],[37.7614,31.6961],[37.9865,31.7534],[38.9633,31.9944],[39.1464,32.1181],[39.2358,32.3529],[39.0572,32.4966],[38.7745,33.3717],[38.3157,33.1312],[37.4946,32.6901]]]}},{"type":"Feature","id":"label-JOR-850","properties":{"kind":"division-label","code":"JOR-850","countryCode":"JOR","name":"Mafraq","localName":"Mafraq","labelEnglish":"Mafraq","labelLocal":"Mafraq","labelBoth":"Mafraq","type":"Province","iso":"JO-MA","qid":"Q854871"},"geometry":{"type":"Point","coordinates":[37.6195,32.2481]}},{"type":"Feature","id":"JOR-853","properties":{"kind":"division","code":"JOR-853","countryCode":"JOR","name":"Ma'an","localName":"Ma'an","labelEnglish":"Ma'an","labelLocal":"Ma'an","labelBoth":"Ma'an","type":"Province","iso":"JO-MN","qid":"Q606340"},"geometry":{"type":"Polygon","coordinates":[[[37.2217,31.2473],[36.1518,31.2486],[36.0238,30.7671],[35.9477,30.6564],[35.448,30.6085],[35.2991,30.0271],[35.6235,29.7874],[35.7403,29.2317],[36.0695,29.2],[36.4771,29.4946],[36.7562,29.8655],[37.4702,29.9946],[37.6345,30.3128],[37.9811,30.4995],[37.2217,31.2473]]]}},{"type":"Feature","id":"label-JOR-853","properties":{"kind":"division-label","code":"JOR-853","countryCode":"JOR","name":"Ma'an","localName":"Ma'an","labelEnglish":"Ma'an","labelLocal":"Ma'an","labelBoth":"Ma'an","type":"Province","iso":"JO-MN","qid":"Q606340"},"geometry":{"type":"Point","coordinates":[36.6401,30.492]}},{"type":"Feature","id":"JOR-851","properties":{"kind":"division","code":"JOR-851","countryCode":"JOR","name":"Amman","localName":"Amman","labelEnglish":"Amman","labelLocal":"Amman","labelBoth":"Amman","type":"Province","iso":"JO-AM","qid":"Q472788"},"geometry":{"type":"Polygon","coordinates":[[[36.9979,31.5008],[36.4675,31.8269],[36.4075,32.0115],[36.0545,31.951],[35.9412,32.0458],[35.7083,31.7747],[35.8382,31.7842],[35.818,31.4059],[35.8492,31.2549],[36.1518,31.2486],[37.2217,31.2473],[36.9979,31.5008]]]}},{"type":"Feature","id":"label-JOR-851","properties":{"kind":"division-label","code":"JOR-851","countryCode":"JOR","name":"Amman","localName":"Amman","labelEnglish":"Amman","labelLocal":"Amman","labelBoth":"Amman","type":"Province","iso":"JO-AM","qid":"Q472788"},"geometry":{"type":"Point","coordinates":[36.4418,31.6211]}},{"type":"Feature","id":"JOR-860","properties":{"kind":"division","code":"JOR-860","countryCode":"JOR","name":"Zarqa","localName":"Zarqa","labelEnglish":"Zarqa","labelLocal":"Zarqa","labelBoth":"Zarqa","type":"Province","iso":"JO-AZ","qid":"Q721445"},"geometry":{"type":"Polygon","coordinates":[[[37.7614,31.6961],[35.9907,32.1967],[35.8959,32.0957],[35.9412,32.0458],[36.0545,31.951],[36.4075,32.0115],[36.4675,31.8269],[36.9979,31.5008],[37.7614,31.6961]]]}},{"type":"Feature","id":"label-JOR-860","properties":{"kind":"division-label","code":"JOR-860","countryCode":"JOR","name":"Zarqa","localName":"Zarqa","labelEnglish":"Zarqa","labelLocal":"Zarqa","labelBoth":"Zarqa","type":"Province","iso":"JO-AZ","qid":"Q721445"},"geometry":{"type":"Point","coordinates":[36.8284,31.8095]}},{"type":"Feature","id":"JOR-855","properties":{"kind":"division","code":"JOR-855","countryCode":"JOR","name":"Ajloun","localName":"Ajloun","labelEnglish":"Ajloun","labelLocal":"Ajloun","labelBoth":"Ajloun","type":"Province","iso":"JO-AJ","qid":"Q506658"},"geometry":{"type":"Polygon","coordinates":[[[35.6948,32.1562],[35.9053,32.3389],[35.6489,32.3554],[35.6355,32.1838],[35.6948,32.1562]]]}},{"type":"Feature","id":"label-JOR-855","properties":{"kind":"division-label","code":"JOR-855","countryCode":"JOR","name":"Ajloun","localName":"Ajloun","labelEnglish":"Ajloun","labelLocal":"Ajloun","labelBoth":"Ajloun","type":"Province","iso":"JO-AJ","qid":"Q506658"},"geometry":{"type":"Point","coordinates":[35.761,32.2932]}},{"type":"Feature","id":"JOR-856","properties":{"kind":"division","code":"JOR-856","countryCode":"JOR","name":"Jerash","localName":"Jerash","labelEnglish":"Jerash","labelLocal":"Jerash","labelBoth":"Jerash","type":"Province","iso":"JO-JA","qid":"Q750270"},"geometry":{"type":"Polygon","coordinates":[[[35.6948,32.1562],[35.8959,32.0957],[35.9907,32.1967],[36.0172,32.346],[35.9053,32.3389],[35.6948,32.1562]]]}},{"type":"Feature","id":"label-JOR-856","properties":{"kind":"division-label","code":"JOR-856","countryCode":"JOR","name":"Jerash","localName":"Jerash","labelEnglish":"Jerash","labelLocal":"Jerash","labelBoth":"Jerash","type":"Province","iso":"JO-JA","qid":"Q750270"},"geometry":{"type":"Point","coordinates":[35.856,32.2186]}}]}