{"type":"FeatureCollection","features":[{"type":"Feature","id":"JPN-3501","properties":{"kind":"division","code":"JPN-3501","countryCode":"JPN","name":"Kagoshima Prefecture","localName":"鹿児島県","labelEnglish":"Kagoshima Prefecture","labelLocal":"鹿児島県","labelBoth":"Kagoshima Prefecture · 鹿児島県","type":"Prefecture","iso":"JP-46","qid":"Q15701"},"geometry":{"type":"MultiPolygon","coordinates":[[[[131.1506,31.4713],[130.7124,32.0909],[130.3446,32.1618],[130.1799,32.0935],[130.1714,31.7901],[130.3362,31.6262],[130.2222,31.2463],[130.6398,31.1865],[130.5291,31.5133],[130.613,31.6824],[130.7953,31.3444],[130.6577,31.0032],[131.1321,31.2795],[131.1506,31.4713]]],[[[130.6746,30.3746],[130.499,30.468],[130.4377,30.239],[130.6746,30.3746]]],[[[131.052,30.8402],[130.8515,30.4701],[130.9622,30.3728],[131.052,30.8402]]]]}},{"type":"Feature","id":"label-JPN-3501","properties":{"kind":"division-label","code":"JPN-3501","countryCode":"JPN","name":"Kagoshima Prefecture","localName":"鹿児島県","labelEnglish":"Kagoshima Prefecture","labelLocal":"鹿児島県","labelBoth":"Kagoshima Prefecture · 鹿児島県","type":"Prefecture","iso":"JP-46","qid":"Q15701"},"geometry":{"type":"Point","coordinates":[129.601,29.4572]}},{"type":"Feature","id":"JPN-1835","properties":{"kind":"division","code":"JPN-1835","countryCode":"JPN","name":"Ōita Prefecture","localName":"大分県","labelEnglish":"Ōita Prefecture","labelLocal":"大分県","labelBoth":"Ōita Prefecture · 大分県","type":"Prefecture","iso":"JP-44","qid":"Q133924"},"geometry":{"type":"Polygon","coordinates":[[[131.2009,33.6127],[130.8413,33.352],[130.8347,33.0809],[131.1249,33.1424],[131.3239,32.8223],[131.8723,32.7316],[132.0255,32.9236],[131.8096,33.1276],[131.9026,33.266],[131.5104,33.2734],[131.7295,33.5802],[131.521,33.6764],[131.2009,33.6127]]]}},{"type":"Feature","id":"label-JPN-1835","properties":{"kind":"division-label","code":"JPN-1835","countryCode":"JPN","name":"Ōita Prefecture","localName":"大分県","labelEnglish":"Ōita Prefecture","labelLocal":"大分県","labelBoth":"Ōita Prefecture · 大分県","type":"Prefecture","iso":"JP-44","qid":"Q133924"},"geometry":{"type":"Point","coordinates":[131.449,33.2006]}},{"type":"Feature","id":"JPN-1829","properties":{"kind":"division","code":"JPN-1829","countryCode":"JPN","name":"Fukuoka Prefecture","localName":"福岡県","labelEnglish":"Fukuoka Prefecture","labelLocal":"福岡県","labelBoth":"Fukuoka Prefecture · 福岡県","type":"Prefecture","iso":"JP-40","qid":"Q123258"},"geometry":{"type":"Polygon","coordinates":[[[130.0363,33.4576],[130.5319,33.3379],[130.3494,33.142],[130.4292,32.9805],[130.8347,33.0809],[130.8413,33.352],[131.2009,33.6127],[130.9136,33.8912],[130.4889,33.8554],[130.3909,33.6049],[130.1595,33.6296],[130.0363,33.4576]]]}},{"type":"Feature","id":"label-JPN-1829","properties":{"kind":"division-label","code":"JPN-1829","countryCode":"JPN","name":"Fukuoka Prefecture","localName":"福岡県","labelEnglish":"Fukuoka Prefecture","labelLocal":"福岡県","labelBoth":"Fukuoka Prefecture · 福岡県","type":"Prefecture","iso":"JP-40","qid":"Q123258"},"geometry":{"type":"Point","coordinates":[130.616,33.4906]}},{"type":"Feature","id":"JPN-1827","properties":{"kind":"division","code":"JPN-1827","countryCode":"JPN","name":"Saga Prefecture","localName":"佐賀県","labelEnglish":"Saga Prefecture","labelLocal":"佐賀県","labelBoth":"Saga Prefecture · 佐賀県","type":"Prefecture","iso":"JP-41","qid":"Q160420"},"geometry":{"type":"Polygon","coordinates":[[[129.8145,33.3312],[130.0322,32.9875],[130.2041,32.9436],[130.3494,33.142],[130.5319,33.3379],[130.0363,33.4576],[129.8532,33.5525],[129.8145,33.3312]]]}},{"type":"Feature","id":"label-JPN-1827","properties":{"kind":"division-label","code":"JPN-1827","countryCode":"JPN","name":"Saga Prefecture","localName":"佐賀県","labelEnglish":"Saga Prefecture","labelLocal":"佐賀県","labelBoth":"Saga Prefecture · 佐賀県","type":"Prefecture","iso":"JP-41","qid":"Q160420"},"geometry":{"type":"Point","coordinates":[130.147,33.0097]}},{"type":"Feature","id":"JPN-3500","properties":{"kind":"division","code":"JPN-3500","countryCode":"JPN","name":"Nagasaki Prefecture","localName":"長崎県","labelEnglish":"Nagasaki Prefecture","labelLocal":"長崎県","labelBoth":"Nagasaki Prefecture · 長崎県","type":"Prefecture","iso":"JP-42","qid":"Q169376"},"geometry":{"type":"Polygon","coordinates":[[[130.2041,32.9436],[130.0322,32.9875],[129.8145,33.3312],[129.5641,33.2111],[129.9456,33.0158],[130.0031,32.8454],[129.6324,32.9791],[129.8344,32.6941],[130.1784,32.7929],[130.2041,32.9436]]]}},{"type":"Feature","id":"label-JPN-3500","properties":{"kind":"division-label","code":"JPN-3500","countryCode":"JPN","name":"Nagasaki Prefecture","localName":"長崎県","labelEnglish":"Nagasaki Prefecture","labelLocal":"長崎県","labelBoth":"Nagasaki Prefecture · 長崎県","type":"Prefecture","iso":"JP-42","qid":"Q169376"},"geometry":{"type":"Point","coordinates":[128.755,32.6745]}},{"type":"Feature","id":"JPN-1830","properties":{"kind":"division","code":"JPN-1830","countryCode":"JPN","name":"Kumamoto Prefecture","localName":"熊本県","labelEnglish":"Kumamoto Prefecture","labelLocal":"熊本県","labelBoth":"Kumamoto Prefecture · 熊本県","type":"Prefecture","iso":"JP-43","qid":"Q130308"},"geometry":{"type":"MultiPolygon","coordinates":[[[[130.3446,32.1618],[130.7124,32.0909],[131.0759,32.1556],[131,32.4601],[131.3239,32.8223],[131.1249,33.1424],[130.8347,33.0809],[130.4292,32.9805],[130.6683,32.6487],[130.3446,32.1618]]],[[[130.1605,32.5463],[130.033,32.5219],[129.9955,32.1907],[130.2034,32.3389],[130.1605,32.5463]]]]}},{"type":"Feature","id":"label-JPN-1830","properties":{"kind":"division-label","code":"JPN-1830","countryCode":"JPN","name":"Kumamoto Prefecture","localName":"熊本県","labelEnglish":"Kumamoto Prefecture","labelLocal":"熊本県","labelBoth":"Kumamoto Prefecture · 熊本県","type":"Prefecture","iso":"JP-43","qid":"Q130308"},"geometry":{"type":"Point","coordinates":[130.834,32.588]}},{"type":"Feature","id":"JPN-1831","properties":{"kind":"division","code":"JPN-1831","countryCode":"JPN","name":"Miyazaki Prefecture","localName":"宮崎県","labelEnglish":"Miyazaki Prefecture","labelLocal":"宮崎県","labelBoth":"Miyazaki Prefecture · 宮崎県","type":"Prefecture","iso":"JP-45","qid":"Q130300"},"geometry":{"type":"Polygon","coordinates":[[[131.8723,32.7316],[131.3239,32.8223],[131,32.4601],[131.0759,32.1556],[130.7124,32.0909],[131.1506,31.4713],[131.3382,31.3726],[131.4473,31.8769],[131.6821,32.5351],[131.8723,32.7316]]]}},{"type":"Feature","id":"label-JPN-1831","properties":{"kind":"division-label","code":"JPN-1831","countryCode":"JPN","name":"Miyazaki Prefecture","localName":"宮崎県","labelEnglish":"Miyazaki Prefecture","labelLocal":"宮崎県","labelBoth":"Miyazaki Prefecture · 宮崎県","type":"Prefecture","iso":"JP-45","qid":"Q130300"},"geometry":{"type":"Point","coordinates":[131.286,32.0981]}},{"type":"Feature","id":"JPN-1836","properties":{"kind":"division","code":"JPN-1836","countryCode":"JPN","name":"Tokushima Prefecture","localName":"徳島県","labelEnglish":"Tokushima Prefecture","labelLocal":"徳島県","labelBoth":"Tokushima Prefecture · 徳島県","type":"Prefecture","iso":"JP-36","qid":"Q160734"},"geometry":{"type":"Polygon","coordinates":[[[134.4424,34.2083],[133.6606,33.9979],[133.6479,33.8557],[134.0175,33.8108],[134.2957,33.5303],[134.7512,33.8349],[134.4424,34.2083]]]}},{"type":"Feature","id":"label-JPN-1836","properties":{"kind":"division-label","code":"JPN-1836","countryCode":"JPN","name":"Tokushima Prefecture","localName":"徳島県","labelEnglish":"Tokushima Prefecture","labelLocal":"徳島県","labelBoth":"Tokushima Prefecture · 徳島県","type":"Prefecture","iso":"JP-36","qid":"Q160734"},"geometry":{"type":"Point","coordinates":[134.2,33.8546]}},{"type":"Feature","id":"JPN-1833","properties":{"kind":"division","code":"JPN-1833","countryCode":"JPN","name":"Kagawa Prefecture","localName":"香川県","labelEnglish":"Kagawa Prefecture","labelLocal":"香川県","labelBoth":"Kagawa Prefecture · 香川県","type":"Prefecture","iso":"JP-37","qid":"Q161454"},"geometry":{"type":"Polygon","coordinates":[[[133.5919,34.0238],[133.6606,33.9979],[134.4424,34.2083],[134.153,34.3857],[133.6411,34.1846],[133.5919,34.0238]]]}},{"type":"Feature","id":"label-JPN-1833","properties":{"kind":"division-label","code":"JPN-1833","countryCode":"JPN","name":"Kagawa Prefecture","localName":"香川県","labelEnglish":"Kagawa Prefecture","labelLocal":"香川県","labelBoth":"Kagawa Prefecture · 香川県","type":"Prefecture","iso":"JP-37","qid":"Q161454"},"geometry":{"type":"Point","coordinates":[134.001,34.2162]}},{"type":"Feature","id":"JPN-1832","properties":{"kind":"division","code":"JPN-1832","countryCode":"JPN","name":"Ehime Prefecture","localName":"愛媛県","labelEnglish":"Ehime Prefecture","labelLocal":"愛媛県","labelBoth":"Ehime Prefecture · 愛媛県","type":"Prefecture","iso":"JP-38","qid":"Q123376"},"geometry":{"type":"Polygon","coordinates":[[[132.6399,32.9089],[133.1788,33.7716],[133.6479,33.8557],[133.6606,33.9979],[133.5919,34.0238],[133.0866,33.9493],[132.9424,34.1413],[132.6766,33.7156],[132.3811,33.4661],[132.4723,32.9337],[132.6399,32.9089]]]}},{"type":"Feature","id":"label-JPN-1832","properties":{"kind":"division-label","code":"JPN-1832","countryCode":"JPN","name":"Ehime Prefecture","localName":"愛媛県","labelEnglish":"Ehime Prefecture","labelLocal":"愛媛県","labelBoth":"Ehime Prefecture · 愛媛県","type":"Prefecture","iso":"JP-38","qid":"Q123376"},"geometry":{"type":"Point","coordinates":[132.916,33.8141]}},{"type":"Feature","id":"JPN-1834","properties":{"kind":"division","code":"JPN-1834","countryCode":"JPN","name":"Kōchi Prefecture","localName":"高知県","labelEnglish":"Kōchi Prefecture","labelLocal":"高知県","labelBoth":"Kōchi Prefecture · 高知県","type":"Prefecture","iso":"JP-39","qid":"Q134093"},"geometry":{"type":"Polygon","coordinates":[[[134.2957,33.5303],[134.0175,33.8108],[133.6479,33.8557],[133.1788,33.7716],[132.6399,32.9089],[132.8122,32.7403],[133.6077,33.5158],[133.9252,33.4937],[134.1903,33.2483],[134.2957,33.5303]]]}},{"type":"Feature","id":"label-JPN-1834","properties":{"kind":"division-label","code":"JPN-1834","countryCode":"JPN","name":"Kōchi Prefecture","localName":"高知県","labelEnglish":"Kōchi Prefecture","labelLocal":"高知県","labelBoth":"Kōchi Prefecture · 高知県","type":"Prefecture","iso":"JP-39","qid":"Q134093"},"geometry":{"type":"Point","coordinates":[133.442,33.6129]}},{"type":"Feature","id":"JPN-1824","properties":{"kind":"division","code":"JPN-1824","countryCode":"JPN","name":"Shimane Prefecture","localName":"島根県","labelEnglish":"Shimane Prefecture","labelLocal":"島根県","labelBoth":"Shimane Prefecture · 島根県","type":"Prefecture","iso":"JP-32","qid":"Q132751"},"geometry":{"type":"Polygon","coordinates":[[[131.6756,34.6721],[131.7714,34.3143],[132.0504,34.4578],[132.1533,34.7165],[132.5091,34.7895],[132.8392,35.0665],[133.1279,35.0673],[133.2998,35.2824],[133.2575,35.5362],[133.0913,35.6015],[132.6354,35.441],[132.6387,35.2946],[131.6756,34.6721]]]}},{"type":"Feature","id":"label-JPN-1824","properties":{"kind":"division-label","code":"JPN-1824","countryCode":"JPN","name":"Shimane Prefecture","localName":"島根県","labelEnglish":"Shimane Prefecture","labelLocal":"島根県","labelBoth":"Shimane Prefecture · 島根県","type":"Prefecture","iso":"JP-32","qid":"Q132751"},"geometry":{"type":"Point","coordinates":[132.603,35.0972]}},{"type":"Feature","id":"JPN-1826","properties":{"kind":"division","code":"JPN-1826","countryCode":"JPN","name":"Yamaguchi Prefecture","localName":"山口県","labelEnglish":"Yamaguchi Prefecture","labelLocal":"山口県","labelBoth":"Yamaguchi Prefecture · 山口県","type":"Prefecture","iso":"JP-35","qid":"Q127264"},"geometry":{"type":"Polygon","coordinates":[[[132.2404,34.1898],[132.0504,34.4578],[131.7714,34.3143],[131.6756,34.6721],[131.4143,34.424],[130.9551,34.4035],[130.8616,34.1127],[131.2722,33.9268],[131.7415,34.0562],[132.1501,33.8301],[132.2404,34.1898]]]}},{"type":"Feature","id":"label-JPN-1826","properties":{"kind":"division-label","code":"JPN-1826","countryCode":"JPN","name":"Yamaguchi Prefecture","localName":"山口県","labelEnglish":"Yamaguchi Prefecture","labelLocal":"山口県","labelBoth":"Yamaguchi Prefecture · 山口県","type":"Prefecture","iso":"JP-35","qid":"Q127264"},"geometry":{"type":"Point","coordinates":[131.645,34.2154]}},{"type":"Feature","id":"JPN-1825","properties":{"kind":"division","code":"JPN-1825","countryCode":"JPN","name":"Tottori Prefecture","localName":"鳥取県","labelEnglish":"Tottori Prefecture","labelLocal":"鳥取県","labelBoth":"Tottori Prefecture · 鳥取県","type":"Prefecture","iso":"JP-31","qid":"Q133935"},"geometry":{"type":"Polygon","coordinates":[[[133.2575,35.5362],[133.2998,35.2824],[133.1279,35.0673],[133.2643,35.0506],[133.5799,35.3152],[133.9291,35.3194],[134.1746,35.1616],[134.3957,35.2292],[134.3656,35.6],[133.4174,35.4565],[133.2575,35.5362]]]}},{"type":"Feature","id":"label-JPN-1825","properties":{"kind":"division-label","code":"JPN-1825","countryCode":"JPN","name":"Tottori Prefecture","localName":"鳥取県","labelEnglish":"Tottori Prefecture","labelLocal":"鳥取県","labelBoth":"Tottori Prefecture · 鳥取県","type":"Prefecture","iso":"JP-31","qid":"Q133935"},"geometry":{"type":"Point","coordinates":[133.819,35.3657]}},{"type":"Feature","id":"JPN-1849","properties":{"kind":"division","code":"JPN-1849","countryCode":"JPN","name":"Hyōgo Prefecture","localName":"兵庫県","labelEnglish":"Hyōgo Prefecture","labelLocal":"兵庫県","labelBoth":"Hyōgo Prefecture · 兵庫県","type":"Prefecture","iso":"JP-28","qid":"Q130290"},"geometry":{"type":"MultiPolygon","coordinates":[[[[134.3656,35.6],[134.3957,35.2292],[134.2636,35.001],[134.3046,34.7091],[134.7444,34.7665],[134.9603,34.6436],[135.4129,34.6921],[135.3633,34.9975],[135.4009,35.0768],[134.9209,35.3182],[135.0438,35.5027],[134.8633,35.6583],[134.3656,35.6]]],[[[135.0027,34.6084],[134.6572,34.2882],[134.9583,34.2704],[135.0027,34.6084]]]]}},{"type":"Feature","id":"label-JPN-1849","properties":{"kind":"division-label","code":"JPN-1849","countryCode":"JPN","name":"Hyōgo Prefecture","localName":"兵庫県","labelEnglish":"Hyōgo Prefecture","labelLocal":"兵庫県","labelBoth":"Hyōgo Prefecture · 兵庫県","type":"Prefecture","iso":"JP-28","qid":"Q130290"},"geometry":{"type":"Point","coordinates":[134.837,35.063]}},{"type":"Feature","id":"JPN-1850","properties":{"kind":"division","code":"JPN-1850","countryCode":"JPN","name":"Kyōto Prefecture","localName":"京都府","labelEnglish":"Kyōto Prefecture","labelLocal":"京都府","labelBoth":"Kyōto Prefecture · 京都府","type":"Urban Prefecture","iso":"JP-26","qid":"Q120730"},"geometry":{"type":"Polygon","coordinates":[[[134.8633,35.6583],[135.0438,35.5027],[134.9209,35.3182],[135.4009,35.0768],[135.3633,34.9975],[135.7063,34.7595],[136.0365,34.7153],[136.0031,34.7737],[135.8147,35.0056],[135.7429,35.3376],[135.4788,35.5437],[135.1882,35.565],[135.2268,35.7723],[134.8633,35.6583]]]}},{"type":"Feature","id":"label-JPN-1850","properties":{"kind":"division-label","code":"JPN-1850","countryCode":"JPN","name":"Kyōto Prefecture","localName":"京都府","labelEnglish":"Kyōto Prefecture","labelLocal":"京都府","labelBoth":"Kyōto Prefecture · 京都府","type":"Urban Prefecture","iso":"JP-26","qid":"Q120730"},"geometry":{"type":"Point","coordinates":[135.451,35.2117]}},{"type":"Feature","id":"JPN-1848","properties":{"kind":"division","code":"JPN-1848","countryCode":"JPN","name":"Fukui Prefecture","localName":"福井県","labelEnglish":"Fukui Prefecture","labelLocal":"福井県","labelBoth":"Fukui Prefecture · 福井県","type":"Prefecture","iso":"JP-18","qid":"Q133879"},"geometry":{"type":"Polygon","coordinates":[[[135.4788,35.5437],[135.7429,35.3376],[136.2573,35.6456],[136.337,35.7664],[136.7686,35.791],[136.7209,36.0748],[136.2267,36.2856],[135.9573,35.9731],[136.0995,35.7757],[135.8105,35.5269],[135.4788,35.5437]]]}},{"type":"Feature","id":"label-JPN-1848","properties":{"kind":"division-label","code":"JPN-1848","countryCode":"JPN","name":"Fukui Prefecture","localName":"福井県","labelEnglish":"Fukui Prefecture","labelLocal":"福井県","labelBoth":"Fukui Prefecture · 福井県","type":"Prefecture","iso":"JP-18","qid":"Q133879"},"geometry":{"type":"Point","coordinates":[136.316,35.9297]}},{"type":"Feature","id":"JPN-1842","properties":{"kind":"division","code":"JPN-1842","countryCode":"JPN","name":"Ishikawa Prefecture","localName":"石川県","labelEnglish":"Ishikawa Prefecture","labelLocal":"石川県","labelBoth":"Ishikawa Prefecture · 石川県","type":"Prefecture","iso":"JP-17","qid":"Q131281"},"geometry":{"type":"Polygon","coordinates":[[[136.2267,36.2856],[136.7209,36.0748],[136.7732,36.292],[136.7771,36.7189],[137.0444,36.9564],[136.8747,37.0696],[137.2302,37.2921],[137.2957,37.5315],[136.7491,37.3579],[136.7606,36.8706],[136.2267,36.2856]]]}},{"type":"Feature","id":"label-JPN-1842","properties":{"kind":"division-label","code":"JPN-1842","countryCode":"JPN","name":"Ishikawa Prefecture","localName":"石川県","labelEnglish":"Ishikawa Prefecture","labelLocal":"石川県","labelBoth":"Ishikawa Prefecture · 石川県","type":"Prefecture","iso":"JP-17","qid":"Q131281"},"geometry":{"type":"Point","coordinates":[136.677,36.5654]}},{"type":"Feature","id":"JPN-1846","properties":{"kind":"division","code":"JPN-1846","countryCode":"JPN","name":"Toyama Prefecture","localName":"富山県","labelEnglish":"Toyama Prefecture","labelLocal":"富山県","labelBoth":"Toyama Prefecture · 富山県","type":"Prefecture","iso":"JP-16","qid":"Q132929"},"geometry":{"type":"Polygon","coordinates":[[[137.0444,36.9564],[136.7771,36.7189],[136.7732,36.292],[137.1326,36.4252],[137.5654,36.377],[137.7327,36.7748],[137.6146,36.9751],[137.3333,36.7627],[137.0444,36.9564]]]}},{"type":"Feature","id":"label-JPN-1846","properties":{"kind":"division-label","code":"JPN-1846","countryCode":"JPN","name":"Toyama Prefecture","localName":"富山県","labelEnglish":"Toyama Prefecture","labelLocal":"富山県","labelBoth":"Toyama Prefecture · 富山県","type":"Prefecture","iso":"JP-16","qid":"Q132929"},"geometry":{"type":"Point","coordinates":[137.246,36.596]}},{"type":"Feature","id":"JPN-1867","properties":{"kind":"division","code":"JPN-1867","countryCode":"JPN","name":"Niigata Prefecture","localName":"新潟県","labelEnglish":"Niigata Prefecture","labelLocal":"新潟県","labelBoth":"Niigata Prefecture · 新潟県","type":"Prefecture","iso":"JP-15","qid":"Q132705"},"geometry":{"type":"MultiPolygon","coordinates":[[[[137.6146,36.9751],[137.7327,36.7748],[138.0442,36.8072],[138.5552,37.0006],[138.6795,36.7307],[139.08,37.0366],[139.2146,36.9457],[139.2088,37.4411],[139.5435,37.5039],[139.7246,37.8204],[139.6792,38.1876],[139.8622,38.3144],[139.5487,38.545],[139.4324,38.1691],[138.8577,37.8278],[138.5506,37.3779],[138.2449,37.1838],[137.6146,36.9751]]],[[[138.4592,38.0699],[138.3101,38.1681],[138.2651,37.7983],[138.4592,38.0699]]]]}},{"type":"Feature","id":"label-JPN-1867","properties":{"kind":"division-label","code":"JPN-1867","countryCode":"JPN","name":"Niigata Prefecture","localName":"新潟県","labelEnglish":"Niigata Prefecture","labelLocal":"新潟県","labelBoth":"Niigata Prefecture · 新潟県","type":"Prefecture","iso":"JP-15","qid":"Q132705"},"geometry":{"type":"Point","coordinates":[139.005,37.5471]}},{"type":"Feature","id":"JPN-1868","properties":{"kind":"division","code":"JPN-1868","countryCode":"JPN","name":"Yamagata Prefecture","localName":"山形県","labelEnglish":"Yamagata Prefecture","labelLocal":"山形県","labelBoth":"Yamagata Prefecture · 山形県","type":"Prefecture","iso":"JP-06","qid":"Q125863"},"geometry":{"type":"Polygon","coordinates":[[[139.5487,38.545],[139.8622,38.3144],[139.6792,38.1876],[139.7246,37.8204],[140.1043,37.7227],[140.2696,37.9642],[140.5879,38.4657],[140.5329,38.8817],[139.8809,39.1151],[139.5487,38.545]]]}},{"type":"Feature","id":"label-JPN-1868","properties":{"kind":"division-label","code":"JPN-1868","countryCode":"JPN","name":"Yamagata Prefecture","localName":"山形県","labelEnglish":"Yamagata Prefecture","labelLocal":"山形県","labelBoth":"Yamagata Prefecture · 山形県","type":"Prefecture","iso":"JP-06","qid":"Q125863"},"geometry":{"type":"Point","coordinates":[140.084,38.4024]}},{"type":"Feature","id":"JPN-1862","properties":{"kind":"division","code":"JPN-1862","countryCode":"JPN","name":"Akita Prefecture","localName":"秋田県","labelEnglish":"Akita Prefecture","labelLocal":"秋田県","labelBoth":"Akita Prefecture · 秋田県","type":"Prefecture","iso":"JP-05","qid":"Q81863"},"geometry":{"type":"Polygon","coordinates":[[[139.8809,39.1151],[140.5329,38.8817],[140.7594,38.9517],[140.6581,39.3923],[140.8138,39.6439],[140.9263,40.244],[140.8499,40.4995],[139.9438,40.4293],[139.978,40.1255],[139.7601,39.8581],[140.0276,39.8245],[140.0486,39.5047],[139.8809,39.1151]]]}},{"type":"Feature","id":"label-JPN-1862","properties":{"kind":"division-label","code":"JPN-1862","countryCode":"JPN","name":"Akita Prefecture","localName":"秋田県","labelEnglish":"Akita Prefecture","labelLocal":"秋田県","labelBoth":"Akita Prefecture · 秋田県","type":"Prefecture","iso":"JP-05","qid":"Q81863"},"geometry":{"type":"Point","coordinates":[140.334,39.7318]}},{"type":"Feature","id":"JPN-1863","properties":{"kind":"division","code":"JPN-1863","countryCode":"JPN","name":"Aomori Prefecture","localName":"青森県","labelEnglish":"Aomori Prefecture","labelLocal":"青森県","labelBoth":"Aomori Prefecture · 青森県","type":"Prefecture","iso":"JP-02","qid":"Q71699"},"geometry":{"type":"Polygon","coordinates":[[[139.9438,40.4293],[140.8499,40.4995],[140.9263,40.244],[141.681,40.451],[141.4056,40.8168],[141.4606,41.4302],[141.2761,41.3532],[140.9136,41.5469],[140.8145,41.1285],[141.1612,41.2785],[141.2779,41.1553],[141.1113,40.8726],[140.8823,41.0078],[140.673,40.8956],[140.5939,41.2202],[140.3423,41.2657],[140.2966,40.8738],[139.8568,40.5902],[139.9438,40.4293]]]}},{"type":"Feature","id":"label-JPN-1863","properties":{"kind":"division-label","code":"JPN-1863","countryCode":"JPN","name":"Aomori Prefecture","localName":"青森県","labelEnglish":"Aomori Prefecture","labelLocal":"青森県","labelBoth":"Aomori Prefecture · 青森県","type":"Prefecture","iso":"JP-02","qid":"Q71699"},"geometry":{"type":"Point","coordinates":[140.769,40.6385]}},{"type":"Feature","id":"JPN-1865","properties":{"kind":"division","code":"JPN-1865","countryCode":"JPN","name":"Iwate Prefecture","localName":"岩手県","labelEnglish":"Iwate Prefecture","labelLocal":"岩手県","labelBoth":"Iwate Prefecture · 岩手県","type":"Prefecture","iso":"JP-03","qid":"Q48326"},"geometry":{"type":"Polygon","coordinates":[[[141.681,40.451],[140.9263,40.244],[140.8138,39.6439],[140.6581,39.3923],[140.7594,38.9517],[141.4067,38.7854],[141.6403,38.9675],[141.8474,39.022],[142.0693,39.5405],[141.9496,39.9966],[141.681,40.451]]]}},{"type":"Feature","id":"label-JPN-1865","properties":{"kind":"division-label","code":"JPN-1865","countryCode":"JPN","name":"Iwate Prefecture","localName":"岩手県","labelEnglish":"Iwate Prefecture","labelLocal":"岩手県","labelBoth":"Iwate Prefecture · 岩手県","type":"Prefecture","iso":"JP-03","qid":"Q48326"},"geometry":{"type":"Point","coordinates":[141.364,39.5715]}},{"type":"Feature","id":"JPN-1866","properties":{"kind":"division","code":"JPN-1866","countryCode":"JPN","name":"Miyagi Prefecture","localName":"宮城県","labelEnglish":"Miyagi Prefecture","labelLocal":"宮城県","labelBoth":"Miyagi Prefecture · 宮城県","type":"Prefecture","iso":"JP-04","qid":"Q47896"},"geometry":{"type":"Polygon","coordinates":[[[141.6403,38.9675],[141.4067,38.7854],[140.7594,38.9517],[140.5329,38.8817],[140.5879,38.4657],[140.2696,37.9642],[140.8496,37.7988],[140.9332,37.8898],[141.0978,38.3715],[141.5254,38.2678],[141.4631,38.6614],[141.6403,38.9675]]]}},{"type":"Feature","id":"label-JPN-1866","properties":{"kind":"division-label","code":"JPN-1866","countryCode":"JPN","name":"Miyagi Prefecture","localName":"宮城県","labelEnglish":"Miyagi Prefecture","labelLocal":"宮城県","labelBoth":"Miyagi Prefecture · 宮城県","type":"Prefecture","iso":"JP-04","qid":"Q47896"},"geometry":{"type":"Point","coordinates":[140.972,38.5307]}},{"type":"Feature","id":"JPN-1864","properties":{"kind":"division","code":"JPN-1864","countryCode":"JPN","name":"Fukushima Prefecture","localName":"福島県","labelEnglish":"Fukushima Prefecture","labelLocal":"福島県","labelBoth":"Fukushima Prefecture · 福島県","type":"Prefecture","iso":"JP-07","qid":"Q71707"},"geometry":{"type":"Polygon","coordinates":[[[140.9332,37.8898],[140.8496,37.7988],[140.2696,37.9642],[140.1043,37.7227],[139.7246,37.8204],[139.5435,37.5039],[139.2088,37.4411],[139.2146,36.9457],[139.3596,36.902],[139.8613,37.1304],[140.2373,36.9248],[140.4812,36.7971],[140.7973,36.8465],[140.9603,36.9662],[141.0418,37.3771],[140.9332,37.8898]]]}},{"type":"Feature","id":"label-JPN-1864","properties":{"kind":"division-label","code":"JPN-1864","countryCode":"JPN","name":"Fukushima Prefecture","localName":"福島県","labelEnglish":"Fukushima Prefecture","labelLocal":"福島県","labelBoth":"Fukushima Prefecture · 福島県","type":"Prefecture","iso":"JP-07","qid":"Q71707"},"geometry":{"type":"Point","coordinates":[140.099,37.4153]}},{"type":"Feature","id":"JPN-1856","properties":{"kind":"division","code":"JPN-1856","countryCode":"JPN","name":"Ibaraki Prefecture","localName":"茨城県","labelEnglish":"Ibaraki Prefecture","labelLocal":"茨城県","labelBoth":"Ibaraki Prefecture · 茨城県","type":"Prefecture","iso":"JP-08","qid":"Q83273"},"geometry":{"type":"Polygon","coordinates":[[[140.7973,36.8465],[140.4812,36.7971],[140.2373,36.9248],[140.1572,36.3925],[139.6537,36.2031],[139.674,36.1522],[139.7528,36.0796],[140.1273,35.8544],[140.5515,35.8886],[140.8595,35.7354],[140.5641,36.2831],[140.7973,36.8465]]]}},{"type":"Feature","id":"label-JPN-1856","properties":{"kind":"division-label","code":"JPN-1856","countryCode":"JPN","name":"Ibaraki Prefecture","localName":"茨城県","labelEnglish":"Ibaraki Prefecture","labelLocal":"茨城県","labelBoth":"Ibaraki Prefecture · 茨城県","type":"Prefecture","iso":"JP-08","qid":"Q83273"},"geometry":{"type":"Point","coordinates":[140.257,36.2773]}},{"type":"Feature","id":"JPN-1855","properties":{"kind":"division","code":"JPN-1855","countryCode":"JPN","name":"Chiba Prefecture","localName":"千葉県","labelEnglish":"Chiba Prefecture","labelLocal":"千葉県","labelBoth":"Chiba Prefecture · 千葉県","type":"Prefecture","iso":"JP-12","qid":"Q80011"},"geometry":{"type":"Polygon","coordinates":[[[140.8595,35.7354],[140.5515,35.8886],[140.1273,35.8544],[139.7528,36.0796],[139.8639,35.7781],[139.8642,35.6321],[140.0796,35.6036],[139.7822,35.3142],[139.9264,34.9074],[140.3942,35.1966],[140.4835,35.566],[140.8595,35.7354]]]}},{"type":"Feature","id":"label-JPN-1855","properties":{"kind":"division-label","code":"JPN-1855","countryCode":"JPN","name":"Chiba Prefecture","localName":"千葉県","labelEnglish":"Chiba Prefecture","labelLocal":"千葉県","labelBoth":"Chiba Prefecture · 千葉県","type":"Prefecture","iso":"JP-12","qid":"Q80011"},"geometry":{"type":"Point","coordinates":[140.318,35.489]}},{"type":"Feature","id":"JPN-1860","properties":{"kind":"division","code":"JPN-1860","countryCode":"JPN","name":"Tokyo","localName":"東京都","labelEnglish":"Tokyo","labelLocal":"東京都","labelBoth":"Tokyo · 東京都","type":"Metropolis","iso":"JP-13","qid":"Q1490"},"geometry":{"type":"Polygon","coordinates":[[[139.8642,35.6321],[139.8639,35.7781],[139.3845,35.7549],[138.9228,35.8354],[139.1218,35.654],[139.4706,35.49],[139.7866,35.5115],[139.8642,35.6321]]]}},{"type":"Feature","id":"label-JPN-1860","properties":{"kind":"division-label","code":"JPN-1860","countryCode":"JPN","name":"Tokyo","localName":"東京都","labelEnglish":"Tokyo","labelLocal":"東京都","labelBoth":"Tokyo · 東京都","type":"Metropolis","iso":"JP-13","qid":"Q1490"},"geometry":{"type":"Point","coordinates":[139.407,35.6578]}},{"type":"Feature","id":"JPN-1857","properties":{"kind":"division","code":"JPN-1857","countryCode":"JPN","name":"Kanagawa Prefecture","localName":"神奈川県","labelEnglish":"Kanagawa Prefecture","labelLocal":"神奈川県","labelBoth":"Kanagawa Prefecture · 神奈川県","type":"Prefecture","iso":"JP-14","qid":"Q127513"},"geometry":{"type":"Polygon","coordinates":[[[139.7866,35.5115],[139.4706,35.49],[139.1218,35.654],[138.9003,35.3809],[139.0944,35.1175],[139.146,35.2352],[139.5442,35.3079],[139.6115,35.142],[139.7866,35.5115]]]}},{"type":"Feature","id":"label-JPN-1857","properties":{"kind":"division-label","code":"JPN-1857","countryCode":"JPN","name":"Kanagawa Prefecture","localName":"神奈川県","labelEnglish":"Kanagawa Prefecture","labelLocal":"神奈川県","labelBoth":"Kanagawa Prefecture · 神奈川県","type":"Prefecture","iso":"JP-14","qid":"Q127513"},"geometry":{"type":"Point","coordinates":[139.344,35.4378]}},{"type":"Feature","id":"JPN-1845","properties":{"kind":"division","code":"JPN-1845","countryCode":"JPN","name":"Shizuoka Prefecture","localName":"Shizuoka Prefecture","labelEnglish":"Shizuoka Prefecture","labelLocal":"Shizuoka Prefecture","labelBoth":"Shizuoka Prefecture","type":"Prefecture","iso":"JP-22","qid":"Q131320"},"geometry":{"type":"Polygon","coordinates":[[[139.0944,35.1175],[138.9003,35.3809],[138.534,35.4097],[138.5105,35.2075],[138.2359,35.3037],[138.1961,35.6279],[138.0855,35.337],[137.8056,35.1945],[137.4679,34.671],[138.216,34.7123],[138.5541,35.0961],[138.8033,35.1219],[138.8353,34.5959],[139.1409,34.8706],[139.0944,35.1175]]]}},{"type":"Feature","id":"label-JPN-1845","properties":{"kind":"division-label","code":"JPN-1845","countryCode":"JPN","name":"Shizuoka Prefecture","localName":"Shizuoka Prefecture","labelEnglish":"Shizuoka Prefecture","labelLocal":"Shizuoka Prefecture","labelBoth":"Shizuoka Prefecture","type":"Prefecture","iso":"JP-22","qid":"Q131320"},"geometry":{"type":"Point","coordinates":[138.306,35.0359]}},{"type":"Feature","id":"JPN-1840","properties":{"kind":"division","code":"JPN-1840","countryCode":"JPN","name":"Aichi Prefecture","localName":"愛知県","labelEnglish":"Aichi Prefecture","labelLocal":"愛知県","labelBoth":"Aichi Prefecture · 愛知県","type":"Prefecture","iso":"JP-23","qid":"Q80434"},"geometry":{"type":"Polygon","coordinates":[[[137.4679,34.671],[137.8056,35.1945],[137.5479,35.2704],[137.422,35.216],[136.7706,35.3521],[136.6734,35.1388],[136.7518,35.0262],[136.856,34.7398],[137.3243,34.7668],[137.0161,34.5788],[137.4679,34.671]]]}},{"type":"Feature","id":"label-JPN-1840","properties":{"kind":"division-label","code":"JPN-1840","countryCode":"JPN","name":"Aichi Prefecture","localName":"愛知県","labelEnglish":"Aichi Prefecture","labelLocal":"愛知県","labelBoth":"Aichi Prefecture · 愛知県","type":"Prefecture","iso":"JP-23","qid":"Q80434"},"geometry":{"type":"Point","coordinates":[137.214,34.9973]}},{"type":"Feature","id":"JPN-1843","properties":{"kind":"division","code":"JPN-1843","countryCode":"JPN","name":"Mie Prefecture","localName":"三重県","labelEnglish":"Mie Prefecture","labelLocal":"三重県","labelBoth":"Mie Prefecture · 三重県","type":"Prefecture","iso":"JP-24","qid":"Q128196"},"geometry":{"type":"Polygon","coordinates":[[[136.7518,35.0262],[136.6734,35.1388],[136.3988,35.2026],[136.3999,34.9495],[136.0031,34.7737],[136.0365,34.7153],[136.2025,34.5015],[136.0692,34.377],[136.1015,34.0185],[135.8477,33.8381],[135.9937,33.6863],[136.2185,34.0676],[136.4717,34.239],[136.9002,34.2825],[136.916,34.434],[136.5401,34.6157],[136.7518,35.0262]]]}},{"type":"Feature","id":"label-JPN-1843","properties":{"kind":"division-label","code":"JPN-1843","countryCode":"JPN","name":"Mie Prefecture","localName":"三重県","labelEnglish":"Mie Prefecture","labelLocal":"三重県","labelBoth":"Mie Prefecture · 三重県","type":"Prefecture","iso":"JP-24","qid":"Q128196"},"geometry":{"type":"Point","coordinates":[136.386,34.5679]}},{"type":"Feature","id":"JPN-1854","properties":{"kind":"division","code":"JPN-1854","countryCode":"JPN","name":"Wakayama Prefecture","localName":"和歌山県","labelEnglish":"Wakayama Prefecture","labelLocal":"和歌山県","labelBoth":"Wakayama Prefecture · 和歌山県","type":"Prefecture","iso":"JP-30","qid":"Q131314"},"geometry":{"type":"Polygon","coordinates":[[[135.9937,33.6863],[135.8477,33.8381],[135.5983,33.8901],[135.6468,34.3718],[135.0853,34.2992],[135.187,34.1359],[135.0655,33.8856],[135.4024,33.7011],[135.4448,33.5508],[135.7656,33.4815],[135.9937,33.6863]]]}},{"type":"Feature","id":"label-JPN-1854","properties":{"kind":"division-label","code":"JPN-1854","countryCode":"JPN","name":"Wakayama Prefecture","localName":"和歌山県","labelEnglish":"Wakayama Prefecture","labelLocal":"和歌山県","labelBoth":"Wakayama Prefecture · 和歌山県","type":"Prefecture","iso":"JP-30","qid":"Q131314"},"geometry":{"type":"Point","coordinates":[135.401,33.93]}},{"type":"Feature","id":"JPN-1852","properties":{"kind":"division","code":"JPN-1852","countryCode":"JPN","name":"Ōsaka Prefecture","localName":"大阪府","labelEnglish":"Ōsaka Prefecture","labelLocal":"大阪府","labelBoth":"Ōsaka Prefecture · 大阪府","type":"Urban Prefecture","iso":"JP-27","qid":"Q122723"},"geometry":{"type":"Polygon","coordinates":[[[135.0853,34.2992],[135.6468,34.3718],[135.7063,34.7595],[135.3633,34.9975],[135.4129,34.6921],[135.3197,34.4288],[135.0853,34.2992]]]}},{"type":"Feature","id":"label-JPN-1852","properties":{"kind":"division-label","code":"JPN-1852","countryCode":"JPN","name":"Ōsaka Prefecture","localName":"大阪府","labelEnglish":"Ōsaka Prefecture","labelLocal":"大阪府","labelBoth":"Ōsaka Prefecture · 大阪府","type":"Urban Prefecture","iso":"JP-27","qid":"Q122723"},"geometry":{"type":"Point","coordinates":[135.519,34.5993]}},{"type":"Feature","id":"JPN-1822","properties":{"kind":"division","code":"JPN-1822","countryCode":"JPN","name":"Okayama Prefecture","localName":"岡山県","labelEnglish":"Okayama Prefecture","labelLocal":"岡山県","labelBoth":"Okayama Prefecture · 岡山県","type":"Prefecture","iso":"JP-33","qid":"Q132936"},"geometry":{"type":"Polygon","coordinates":[[[134.3046,34.7091],[134.2636,35.001],[134.3957,35.2292],[134.1746,35.1616],[133.9291,35.3194],[133.5799,35.3152],[133.2643,35.0506],[133.443,34.4727],[133.9363,34.4512],[134.3046,34.7091]]]}},{"type":"Feature","id":"label-JPN-1822","properties":{"kind":"division-label","code":"JPN-1822","countryCode":"JPN","name":"Okayama Prefecture","localName":"岡山県","labelEnglish":"Okayama Prefecture","labelLocal":"岡山県","labelBoth":"Okayama Prefecture · 岡山県","type":"Prefecture","iso":"JP-33","qid":"Q132936"},"geometry":{"type":"Point","coordinates":[133.831,34.8521]}},{"type":"Feature","id":"JPN-1821","properties":{"kind":"division","code":"JPN-1821","countryCode":"JPN","name":"Hiroshima Prefecture","localName":"広島県","labelEnglish":"Hiroshima Prefecture","labelLocal":"広島県","labelBoth":"Hiroshima Prefecture · 広島県","type":"Prefecture","iso":"JP-34","qid":"Q617375"},"geometry":{"type":"Polygon","coordinates":[[[133.443,34.4727],[133.2643,35.0506],[133.1279,35.0673],[132.8392,35.0665],[132.5091,34.7895],[132.1533,34.7165],[132.0504,34.4578],[132.2404,34.1898],[132.3835,34.3657],[132.5662,34.192],[132.8362,34.3111],[133.2029,34.2889],[133.443,34.4727]]]}},{"type":"Feature","id":"label-JPN-1821","properties":{"kind":"division-label","code":"JPN-1821","countryCode":"JPN","name":"Hiroshima Prefecture","localName":"広島県","labelEnglish":"Hiroshima Prefecture","labelLocal":"広島県","labelBoth":"Hiroshima Prefecture · 広島県","type":"Prefecture","iso":"JP-34","qid":"Q617375"},"geometry":{"type":"Point","coordinates":[132.853,34.6067]}},{"type":"Feature","id":"JPN-1847","properties":{"kind":"division","code":"JPN-1847","countryCode":"JPN","name":"Hokkaidō","localName":"北海道","labelEnglish":"Hokkaidō","labelLocal":"北海道","labelBoth":"Hokkaidō · 北海道","type":"Circuit","iso":"JP-01","qid":"Q35581"},"geometry":{"type":"Polygon","coordinates":[[[145.7674,43.3873],[145.3617,43.3015],[145.0747,43.7537],[145.3415,44.3455],[144.8312,43.9422],[144.4304,43.9426],[144.2151,44.1115],[143.7283,44.1135],[142.9815,44.5865],[141.9605,45.5102],[141.6921,45.4023],[141.5864,45.1644],[141.7918,44.597],[141.6406,43.9379],[141.3374,43.7128],[141.4401,43.3617],[141.1691,43.1409],[140.8099,43.1925],[140.4872,43.3724],[140.3381,43.2105],[140.5271,43.0154],[140.2608,42.761],[139.877,42.6634],[139.7874,42.2468],[140.145,41.9827],[139.9837,41.5605],[140.209,41.4011],[140.709,41.8244],[141.19,41.7909],[140.7136,42.1335],[140.2918,42.2596],[140.3809,42.5051],[140.7337,42.5642],[140.9868,42.3398],[141.7261,42.6172],[143.2261,41.9323],[143.349,42.3192],[143.6388,42.6611],[144.1831,42.9764],[144.742,42.9242],[145.3025,43.1735],[145.5189,43.1664],[145.7674,43.3873]]]}},{"type":"Feature","id":"label-JPN-1847","properties":{"kind":"division-label","code":"JPN-1847","countryCode":"JPN","name":"Hokkaidō","localName":"北海道","labelEnglish":"Hokkaidō","labelLocal":"北海道","labelBoth":"Hokkaidō · 北海道","type":"Circuit","iso":"JP-01","qid":"Q35581"},"geometry":{"type":"Point","coordinates":[142.805,43.37]}},{"type":"Feature","id":"JPN-3502","properties":{"kind":"division","code":"JPN-3502","countryCode":"JPN","name":"Okinawa Prefecture","localName":"沖縄県","labelEnglish":"Okinawa Prefecture","labelLocal":"沖縄県","labelBoth":"Okinawa Prefecture · 沖縄県","type":"Prefecture","iso":"JP-47","qid":"Q766445"},"geometry":{"type":"MultiPolygon","coordinates":[[[[128.3377,26.7969],[128.2259,26.801],[127.7313,26.4399],[127.6517,26.0844],[127.8236,26.1868],[127.8389,26.4252],[128.2433,26.6333],[128.3377,26.7969]]],[[[129.7075,28.4621],[129.1458,28.2562],[129.3657,28.1232],[129.7075,28.4621]]]]}},{"type":"Feature","id":"label-JPN-3502","properties":{"kind":"division-label","code":"JPN-3502","countryCode":"JPN","name":"Okinawa Prefecture","localName":"沖縄県","labelEnglish":"Okinawa Prefecture","labelLocal":"沖縄県","labelBoth":"Okinawa Prefecture · 沖縄県","type":"Prefecture","iso":"JP-47","qid":"Q766445"},"geometry":{"type":"Point","coordinates":[123.802,24.3349]}},{"type":"Feature","id":"JPN-3503","properties":{"kind":"division","code":"JPN-3503","countryCode":"JPN","name":"Gunma Prefecture","localName":"群馬県","labelEnglish":"Gunma Prefecture","labelLocal":"群馬県","labelBoth":"Gunma Prefecture · 群馬県","type":"Prefecture","iso":"JP-10","qid":"Q129499"},"geometry":{"type":"Polygon","coordinates":[[[139.2146,36.9457],[139.08,37.0366],[138.6795,36.7307],[138.3768,36.4678],[138.5838,36.4169],[138.7009,35.9695],[139.1119,36.2709],[139.674,36.1522],[139.6537,36.2031],[139.3384,36.3686],[139.3596,36.902],[139.2146,36.9457]]]}},{"type":"Feature","id":"label-JPN-3503","properties":{"kind":"division-label","code":"JPN-3503","countryCode":"JPN","name":"Gunma Prefecture","localName":"群馬県","labelEnglish":"Gunma Prefecture","labelLocal":"群馬県","labelBoth":"Gunma Prefecture · 群馬県","type":"Prefecture","iso":"JP-10","qid":"Q129499"},"geometry":{"type":"Point","coordinates":[139.025,36.5592]}},{"type":"Feature","id":"JPN-1844","properties":{"kind":"division","code":"JPN-1844","countryCode":"JPN","name":"Nagano Prefecture","localName":"長野県","labelEnglish":"Nagano Prefecture","labelLocal":"長野県","labelBoth":"Nagano Prefecture · 長野県","type":"Prefecture","iso":"JP-20","qid":"Q127877"},"geometry":{"type":"Polygon","coordinates":[[[138.6795,36.7307],[138.5552,37.0006],[138.0442,36.8072],[137.7327,36.7748],[137.5654,36.377],[137.5773,36.0312],[137.3232,35.8016],[137.6057,35.394],[137.5479,35.2704],[137.8056,35.1945],[138.0855,35.337],[138.1961,35.6279],[138.3603,35.9578],[138.7157,35.8965],[138.7009,35.9695],[138.5838,36.4169],[138.3768,36.4678],[138.6795,36.7307]]]}},{"type":"Feature","id":"label-JPN-1844","properties":{"kind":"division-label","code":"JPN-1844","countryCode":"JPN","name":"Nagano Prefecture","localName":"長野県","labelEnglish":"Nagano Prefecture","labelLocal":"長野県","labelBoth":"Nagano Prefecture · 長野県","type":"Prefecture","iso":"JP-20","qid":"Q127877"},"geometry":{"type":"Point","coordinates":[138.019,36.0666]}},{"type":"Feature","id":"JPN-1859","properties":{"kind":"division","code":"JPN-1859","countryCode":"JPN","name":"Tochigi Prefecture","localName":"栃木県","labelEnglish":"Tochigi Prefecture","labelLocal":"栃木県","labelBoth":"Tochigi Prefecture · 栃木県","type":"Prefecture","iso":"JP-09","qid":"Q44843"},"geometry":{"type":"Polygon","coordinates":[[[139.3596,36.902],[139.3384,36.3686],[139.6537,36.2031],[140.1572,36.3925],[140.2373,36.9248],[139.8613,37.1304],[139.3596,36.902]]]}},{"type":"Feature","id":"label-JPN-1859","properties":{"kind":"division-label","code":"JPN-1859","countryCode":"JPN","name":"Tochigi Prefecture","localName":"栃木県","labelEnglish":"Tochigi Prefecture","labelLocal":"栃木県","labelBoth":"Tochigi Prefecture · 栃木県","type":"Prefecture","iso":"JP-09","qid":"Q44843"},"geometry":{"type":"Point","coordinates":[139.786,36.6593]}},{"type":"Feature","id":"JPN-1841","properties":{"kind":"division","code":"JPN-1841","countryCode":"JPN","name":"Gifu Prefecture","localName":"岐阜県","labelEnglish":"Gifu Prefecture","labelLocal":"岐阜県","labelBoth":"Gifu Prefecture · 岐阜県","type":"Prefecture","iso":"JP-21","qid":"Q131277"},"geometry":{"type":"Polygon","coordinates":[[[137.5654,36.377],[137.1326,36.4252],[136.7732,36.292],[136.7209,36.0748],[136.7686,35.791],[136.337,35.7664],[136.2573,35.6456],[136.3988,35.2026],[136.6734,35.1388],[136.7706,35.3521],[137.422,35.216],[137.5479,35.2704],[137.6057,35.394],[137.3232,35.8016],[137.5773,36.0312],[137.5654,36.377]]]}},{"type":"Feature","id":"label-JPN-1841","properties":{"kind":"division-label","code":"JPN-1841","countryCode":"JPN","name":"Gifu Prefecture","localName":"岐阜県","labelEnglish":"Gifu Prefecture","labelLocal":"岐阜県","labelBoth":"Gifu Prefecture · 岐阜県","type":"Prefecture","iso":"JP-21","qid":"Q131277"},"geometry":{"type":"Point","coordinates":[136.941,35.8522]}},{"type":"Feature","id":"JPN-1853","properties":{"kind":"division","code":"JPN-1853","countryCode":"JPN","name":"Shiga Prefecture","localName":"滋賀県","labelEnglish":"Shiga Prefecture","labelLocal":"滋賀県","labelBoth":"Shiga Prefecture · 滋賀県","type":"Prefecture","iso":"JP-25","qid":"Q131358"},"geometry":{"type":"Polygon","coordinates":[[[136.2573,35.6456],[135.7429,35.3376],[135.8147,35.0056],[136.0031,34.7737],[136.3999,34.9495],[136.3988,35.2026],[136.2573,35.6456]]]}},{"type":"Feature","id":"label-JPN-1853","properties":{"kind":"division-label","code":"JPN-1853","countryCode":"JPN","name":"Shiga Prefecture","localName":"滋賀県","labelEnglish":"Shiga Prefecture","labelLocal":"滋賀県","labelBoth":"Shiga Prefecture · 滋賀県","type":"Prefecture","iso":"JP-25","qid":"Q131358"},"geometry":{"type":"Point","coordinates":[136.093,35.1832]}},{"type":"Feature","id":"JPN-1858","properties":{"kind":"division","code":"JPN-1858","countryCode":"JPN","name":"Saitama Prefecture","localName":"埼玉県","labelEnglish":"Saitama Prefecture","labelLocal":"埼玉県","labelBoth":"Saitama Prefecture · 埼玉県","type":"Prefecture","iso":"JP-11","qid":"Q128186"},"geometry":{"type":"Polygon","coordinates":[[[139.674,36.1522],[139.1119,36.2709],[138.7009,35.9695],[138.7157,35.8965],[138.9228,35.8354],[139.3845,35.7549],[139.8639,35.7781],[139.7528,36.0796],[139.674,36.1522]]]}},{"type":"Feature","id":"label-JPN-1858","properties":{"kind":"division-label","code":"JPN-1858","countryCode":"JPN","name":"Saitama Prefecture","localName":"埼玉県","labelEnglish":"Saitama Prefecture","labelLocal":"埼玉県","labelBoth":"Saitama Prefecture · 埼玉県","type":"Prefecture","iso":"JP-11","qid":"Q128186"},"geometry":{"type":"Point","coordinates":[139.287,36.0173]}},{"type":"Feature","id":"JPN-1861","properties":{"kind":"division","code":"JPN-1861","countryCode":"JPN","name":"Yamanashi Prefecture","localName":"山梨県","labelEnglish":"Yamanashi Prefecture","labelLocal":"山梨県","labelBoth":"Yamanashi Prefecture · 山梨県","type":"Prefecture","iso":"JP-19","qid":"Q132720"},"geometry":{"type":"Polygon","coordinates":[[[138.7157,35.8965],[138.3603,35.9578],[138.1961,35.6279],[138.2359,35.3037],[138.5105,35.2075],[138.534,35.4097],[138.9003,35.3809],[139.1218,35.654],[138.9228,35.8354],[138.7157,35.8965]]]}},{"type":"Feature","id":"label-JPN-1861","properties":{"kind":"division-label","code":"JPN-1861","countryCode":"JPN","name":"Yamanashi Prefecture","localName":"山梨県","labelEnglish":"Yamanashi Prefecture","labelLocal":"山梨県","labelBoth":"Yamanashi Prefecture · 山梨県","type":"Prefecture","iso":"JP-19","qid":"Q132720"},"geometry":{"type":"Point","coordinates":[138.645,35.6149]}},{"type":"Feature","id":"JPN-1851","properties":{"kind":"division","code":"JPN-1851","countryCode":"JPN","name":"Nara Prefecture","localName":"奈良県","labelEnglish":"Nara Prefecture","labelLocal":"奈良県","labelBoth":"Nara Prefecture · 奈良県","type":"Prefecture","iso":"JP-29","qid":"Q131287"},"geometry":{"type":"Polygon","coordinates":[[[136.0365,34.7153],[135.7063,34.7595],[135.6468,34.3718],[135.5983,33.8901],[135.8477,33.8381],[136.1015,34.0185],[136.0692,34.377],[136.2025,34.5015],[136.0365,34.7153]]]}},{"type":"Feature","id":"label-JPN-1851","properties":{"kind":"division-label","code":"JPN-1851","countryCode":"JPN","name":"Nara Prefecture","localName":"奈良県","labelEnglish":"Nara Prefecture","labelLocal":"奈良県","labelBoth":"Nara Prefecture · 奈良県","type":"Prefecture","iso":"JP-29","qid":"Q131287"},"geometry":{"type":"Point","coordinates":[135.877,34.2815]}}]}