{"type":"FeatureCollection","features":[{"type":"Feature","id":"KAS+00?","properties":{"kind":"division","code":"KAS+00?","countryCode":"KAS","name":"Kashmir","localName":"Kashmir","labelEnglish":"Kashmir","labelLocal":"Kashmir","labelBoth":"Kashmir","type":null,"iso":"-99-X06~","qid":null},"geometry":{"type":"Polygon","coordinates":[[[77.049,35.1104],[77.8003,35.4954],[77.4128,35.4694],[76.7774,35.6461],[77.049,35.1104]]]}},{"type":"Feature","id":"label-KAS+00?","properties":{"kind":"division-label","code":"KAS+00?","countryCode":"KAS","name":"Kashmir","localName":"Kashmir","labelEnglish":"Kashmir","labelLocal":"Kashmir","labelBoth":"Kashmir","type":null,"iso":"-99-X06~","qid":null},"geometry":{"type":"Point","coordinates":[77.2889,35.3792]}}]}