{"type":"FeatureCollection","features":[{"type":"Feature","id":"KAZ-3206","properties":{"kind":"division","code":"KAZ-3206","countryCode":"KAZ","name":"East Kazakhstan","localName":"East Kazakhstan","labelEnglish":"East Kazakhstan","labelLocal":"East Kazakhstan","labelBoth":"East Kazakhstan","type":"Region","iso":"KZ-VOS","qid":"Q36156"},"geometry":{"type":"Polygon","coordinates":[[[87.3238,49.0853],[86.5918,49.5872],[86.6102,49.7955],[86.1773,49.4633],[85.5972,49.6193],[85.2631,49.5815],[84.9758,50.0752],[84.25,50.2599],[84.0886,50.6346],[83.8205,50.868],[83.434,50.9927],[82.7645,50.9067],[82.4758,50.714],[81.7635,50.7843],[81.4602,50.7303],[81.4008,50.9591],[81.0583,50.9471],[81.1472,51.136],[80.6828,51.302],[80.4344,51.2006],[80.439,50.9581],[79.9901,50.7881],[79.3043,51.6864],[78.758,51.2968],[78.1072,51.09],[78.6885,50.7011],[78.8202,50.3512],[78.4728,50.0272],[77.7329,50.2026],[77.1854,49.8752],[77.1692,49.645],[76.6301,49.3523],[77.0466,49.0532],[76.9717,48.8047],[77.3613,48.8165],[77.3472,48.613],[76.9266,48.3833],[77.248,48.2496],[77.2711,48.0196],[77.0718,47.6257],[77.16,47.4286],[76.8764,47.2447],[77.2643,47.089],[77.5809,47.1748],[78.2753,47.3043],[78.8046,47.0687],[79.3085,47.031],[79.4914,46.862],[80.0187,46.8795],[80.7795,46.592],[81.6048,46.3902],[82.2971,45.5545],[82.4889,45.9017],[83.0135,47.1946],[83.9053,46.974],[84.6635,46.9839],[84.7671,46.8181],[85.2051,47.0337],[85.4986,47.0518],[85.6704,47.3843],[85.5154,47.9203],[85.7837,48.4076],[86.5651,48.5273],[86.8873,49.1068],[87.3238,49.0853]]]}},{"type":"Feature","id":"label-KAZ-3206","properties":{"kind":"division-label","code":"KAZ-3206","countryCode":"KAZ","name":"East Kazakhstan","localName":"East Kazakhstan","labelEnglish":"East Kazakhstan","labelLocal":"East Kazakhstan","labelBoth":"East Kazakhstan","type":"Region","iso":"KZ-VOS","qid":"Q36156"},"geometry":{"type":"Point","coordinates":[81.9768,48.3405]}},{"type":"Feature","id":"KAZ-3207","properties":{"kind":"division","code":"KAZ-3207","countryCode":"KAZ","name":"Almaty","localName":"Almaty","labelEnglish":"Almaty","labelLocal":"Almaty","labelBoth":"Almaty","type":"Region","iso":"KZ-ALA","qid":"Q186466"},"geometry":{"type":"Polygon","coordinates":[[[82.2971,45.5545],[81.6048,46.3902],[80.7795,46.592],[80.0187,46.8795],[79.4914,46.862],[79.3085,47.031],[78.8046,47.0687],[78.2753,47.3043],[77.5809,47.1748],[77.5996,46.6758],[77.1597,46.5466],[77.0192,46.6469],[75.4028,46.6795],[74.7619,46.3995],[74.1843,45.9559],[74.0564,45.7768],[74.0941,45.2693],[73.8998,45.0776],[74.5396,44.6553],[74.6106,44.4129],[75.3265,44.0783],[75.018,43.5627],[75.4282,43.4685],[75.3654,43.1578],[75.8071,42.9368],[76.4321,42.8896],[76.9569,42.9885],[77.2119,42.9099],[78.4961,42.8756],[79.1483,42.791],[79.4257,42.4696],[79.9179,42.4244],[80.2103,42.1895],[80.14,42.623],[80.5545,42.8989],[80.3681,43.0285],[80.7879,43.128],[80.7127,43.4589],[80.3451,44.1031],[80.3558,44.6529],[79.9917,44.7936],[80.0617,45.019],[80.8539,45.1265],[81.7393,45.3381],[81.9501,45.1445],[82.5852,45.1768],[82.6157,45.4354],[82.2971,45.5545]],[[76.9618,43.1923],[76.8087,43.2713],[76.9963,43.4012],[76.9618,43.1923]]]}},{"type":"Feature","id":"label-KAZ-3207","properties":{"kind":"division-label","code":"KAZ-3207","countryCode":"KAZ","name":"Almaty","localName":"Almaty","labelEnglish":"Almaty","labelLocal":"Almaty","labelBoth":"Almaty","type":"Region","iso":"KZ-ALA","qid":"Q186466"},"geometry":{"type":"Point","coordinates":[78.2246,45.0707]}},{"type":"Feature","id":"KAZ-3252","properties":{"kind":"division","code":"KAZ-3252","countryCode":"KAZ","name":"Jambyl","localName":"Jambyl","labelEnglish":"Jambyl","labelLocal":"Jambyl","labelBoth":"Jambyl","type":"Region","iso":"KZ-ZHA","qid":"Q486657"},"geometry":{"type":"Polygon","coordinates":[[[73.5051,42.4216],[73.41,42.5897],[73.6341,43.0625],[74.1788,43.2617],[75.1786,42.8497],[75.6462,42.8061],[75.8071,42.9368],[75.3654,43.1578],[75.4282,43.4685],[75.018,43.5627],[75.3265,44.0783],[74.6106,44.4129],[74.5396,44.6553],[73.8998,45.0776],[74.0941,45.2693],[74.0564,45.7768],[74.1843,45.9559],[69.1708,45.9369],[69.5162,45.3888],[69.8047,44.6633],[69.9112,44.1705],[69.6424,43.5333],[69.6742,43.2641],[70.1032,43.1566],[70.2679,42.7603],[70.8888,42.3386],[71.0032,42.5635],[71.4046,42.7949],[71.8477,42.8341],[72.7258,42.6529],[73.5051,42.4216]]]}},{"type":"Feature","id":"label-KAZ-3252","properties":{"kind":"division-label","code":"KAZ-3252","countryCode":"KAZ","name":"Jambyl","localName":"Jambyl","labelEnglish":"Jambyl","labelLocal":"Jambyl","labelBoth":"Jambyl","type":"Region","iso":"KZ-ZHA","qid":"Q486657"},"geometry":{"type":"Point","coordinates":[72.4888,44.3152]}},{"type":"Feature","id":"KAZ-3251","properties":{"kind":"division","code":"KAZ-3251","countryCode":"KAZ","name":"Turkistan","localName":"Turkistan","labelEnglish":"Turkistan","labelLocal":"Turkistan","labelBoth":"Turkistan","type":"Region","iso":"KZ-YUZ","qid":"Q815330"},"geometry":{"type":"Polygon","coordinates":[[[70.8888,42.3386],[70.2679,42.7603],[70.1032,43.1566],[69.6742,43.2641],[69.6424,43.5333],[69.9112,44.1705],[69.8047,44.6633],[69.5162,45.3888],[69.1708,45.9369],[67.2757,45.9577],[67.4361,45.6984],[67.2922,45.2535],[67.5935,45.0717],[67.6073,44.3104],[68.2023,43.9731],[67.8353,43.4226],[67.9244,43.1604],[67.4346,42.9854],[66.1843,42.3529],[66.0132,42.3729],[66.0172,41.9976],[66.5041,41.9935],[66.6882,41.1992],[66.7579,41.1531],[67.9374,41.2004],[68.1174,41.0667],[67.9909,40.8111],[68.2665,40.6627],[68.593,40.5995],[68.6495,40.9517],[69.0392,41.2203],[69.0316,41.367],[69.6246,41.6683],[69.9124,41.7129],[70.4554,42.0937],[70.6102,42.0274],[70.9478,42.2481],[70.8888,42.3386]]]}},{"type":"Feature","id":"label-KAZ-3251","properties":{"kind":"division-label","code":"KAZ-3251","countryCode":"KAZ","name":"Turkistan","localName":"Turkistan","labelEnglish":"Turkistan","labelLocal":"Turkistan","labelBoth":"Turkistan","type":"Region","iso":"KZ-YUZ","qid":"Q815330"},"geometry":{"type":"Point","coordinates":[68.7533,42.7187]}},{"type":"Feature","id":"KAZ-3236","properties":{"kind":"division","code":"KAZ-3236","countryCode":"KAZ","name":"Mangystau","localName":"Mangystau","labelEnglish":"Mangystau","labelLocal":"Mangystau","labelBoth":"Mangystau","type":"Region","iso":"KZ-MAN","qid":"Q238931"},"geometry":{"type":"Polygon","coordinates":[[[52.4377,41.7489],[52.9787,42.1266],[53.4123,42.2582],[54.1953,42.3181],[54.9071,41.9321],[55.4295,41.2908],[55.9784,41.3217],[55.9768,43.6164],[55.9784,44.9962],[56.7076,45.1619],[56.4732,46.0845],[55.8316,46.2351],[55.4769,46.4804],[55.2466,46.346],[53.9491,46.1875],[53.5361,45.8257],[52.8619,45.7675],[52.7385,45.5256],[53.2673,45.3509],[52.5667,45.4007],[51.3972,45.3326],[50.9707,44.8472],[51.3193,44.5964],[51.1433,44.4848],[50.8949,44.6206],[50.2991,44.6553],[50.2302,44.3909],[50.8472,44.1893],[50.8528,44.0388],[51.3196,43.4425],[51.2757,43.1545],[51.6511,43.1914],[51.9328,42.8349],[52.1692,42.887],[52.7129,42.7308],[52.5991,42.3447],[52.402,42.0925],[52.4377,41.7489]]]}},{"type":"Feature","id":"label-KAZ-3236","properties":{"kind":"division-label","code":"KAZ-3236","countryCode":"KAZ","name":"Mangystau","localName":"Mangystau","labelEnglish":"Mangystau","labelLocal":"Mangystau","labelBoth":"Mangystau","type":"Region","iso":"KZ-MAN","qid":"Q238931"},"geometry":{"type":"Point","coordinates":[53.8538,44.0351]}},{"type":"Feature","id":"KAZ-3197","properties":{"kind":"division","code":"KAZ-3197","countryCode":"KAZ","name":"Kyzylorda","localName":"Kyzylorda","labelEnglish":"Kyzylorda","labelLocal":"Kyzylorda","labelBoth":"Kyzylorda","type":"Region","iso":"KZ-KZY","qid":"Q485322"},"geometry":{"type":"Polygon","coordinates":[[[59.0551,45.324],[61.0363,44.3828],[61.1617,44.1681],[62.0283,43.4809],[63.208,43.6275],[64.4267,43.547],[64.9565,43.6974],[65.5169,43.2972],[65.7952,42.8772],[66.1013,42.9903],[66.0132,42.3729],[66.1843,42.3529],[67.4346,42.9854],[67.9244,43.1604],[67.8353,43.4226],[68.2023,43.9731],[67.6073,44.3104],[67.5935,45.0717],[67.2922,45.2535],[67.4361,45.6984],[67.2757,45.9577],[66.9789,46.0561],[65.5531,46.2908],[65.0132,46.5174],[63.8186,46.8502],[63.2098,46.9612],[62.8421,47.1839],[62.4499,47.2482],[61.859,47.7765],[61.3271,47.7335],[60.7647,47.0999],[60.5378,47.112],[59.6684,46.5802],[59.1126,46.066],[59.0272,45.8181],[59.0551,45.324]],[[63.3839,45.5658],[62.9003,45.7477],[62.8125,46.0614],[63.0129,46.2967],[63.5574,46.3723],[63.8676,46.209],[63.8676,45.7477],[63.3839,45.5658]]]}},{"type":"Feature","id":"label-KAZ-3197","properties":{"kind":"division-label","code":"KAZ-3197","countryCode":"KAZ","name":"Kyzylorda","localName":"Kyzylorda","labelEnglish":"Kyzylorda","labelLocal":"Kyzylorda","labelBoth":"Kyzylorda","type":"Region","iso":"KZ-KZY","qid":"Q485322"},"geometry":{"type":"Point","coordinates":[63.6151,44.6012]}},{"type":"Feature","id":"KAZ-3195","properties":{"kind":"division","code":"KAZ-3195","countryCode":"KAZ","name":"Aktobe","localName":"Aktobe","labelEnglish":"Aktobe","labelLocal":"Aktobe","labelBoth":"Aktobe","type":"Region","iso":"KZ-AKT","qid":"Q485437"},"geometry":{"type":"Polygon","coordinates":[[[59.0551,45.324],[59.0272,45.8181],[59.1126,46.066],[59.6684,46.5802],[60.5378,47.112],[60.7647,47.0999],[61.3271,47.7335],[61.859,47.7765],[62.4499,47.2482],[62.8421,47.1839],[64.2036,47.8785],[63.9705,48.1512],[63.6615,48.4697],[63.0297,48.6919],[63.0309,48.863],[62.6645,48.8783],[62.3733,49.167],[62.2936,49.4438],[62.6106,49.8551],[62.9131,49.8972],[62.5342,50.439],[62.2939,51.0397],[62.0301,51.0652],[61.8733,51.2959],[61.6463,51.2632],[61.3721,50.7825],[60.7185,50.6527],[60.3004,50.6847],[60.0213,50.8541],[59.7747,50.5337],[58.9259,50.6781],[58.3084,51.15],[57.7688,51.1197],[57.6892,50.8967],[57.3527,50.886],[57.1682,51.0938],[56.508,51.0663],[56.0789,50.7248],[55.66,50.53],[55.0477,50.8842],[54.6382,51.0277],[54.6763,50.6025],[54.5455,50.5305],[54.3915,50.3583],[54.5512,50.0314],[54.1792,49.6127],[53.7645,49.4715],[53.6732,49.1844],[54.0533,49.0055],[54.0718,48.7168],[54.4426,48.6576],[54.8005,48.7412],[54.8729,48.0908],[55.0725,47.6458],[54.9975,47.1523],[55.4938,46.6596],[56.2712,46.4572],[56.4732,46.0845],[56.7076,45.1619],[58.5314,45.5587],[59.0551,45.324]]]}},{"type":"Feature","id":"label-KAZ-3195","properties":{"kind":"division-label","code":"KAZ-3195","countryCode":"KAZ","name":"Aktobe","localName":"Aktobe","labelEnglish":"Aktobe","labelLocal":"Aktobe","labelBoth":"Aktobe","type":"Region","iso":"KZ-AKT","qid":"Q485437"},"geometry":{"type":"Point","coordinates":[58.9373,48.0288]}},{"type":"Feature","id":"KAZ-3204","properties":{"kind":"division","code":"KAZ-3204","countryCode":"KAZ","name":"North Kazakhstan","localName":"North Kazakhstan","labelEnglish":"North Kazakhstan","labelLocal":"North Kazakhstan","labelBoth":"North Kazakhstan","type":"Region","iso":"KZ-SEV","qid":"Q485088"},"geometry":{"type":"Polygon","coordinates":[[[70.4686,55.2855],[70.197,55.1335],[69.6739,55.334],[68.7342,55.3517],[68.2624,55.194],[68.1661,54.9561],[66.0978,54.6372],[66.3719,54.1024],[66.0198,53.9939],[66.2308,53.7441],[66.1199,53.5797],[66.474,53.139],[66.1632,53.0793],[66.053,52.4021],[66.3102,52.2963],[67.148,52.2084],[67.4658,52.3826],[68.0263,52.2636],[68.2102,52.5162],[68.8536,52.7985],[68.9226,53.1115],[68.5824,53.4007],[69.2296,53.668],[69.4027,53.5751],[69.9293,53.6344],[70.1132,53.3629],[70.5357,53.2394],[70.6722,53.3951],[71.3134,53.2895],[71.6084,53.3798],[71.9238,52.9125],[72.8952,52.9947],[72.9626,52.7618],[73.9678,52.5677],[74.0316,52.8547],[73.5411,52.9413],[73.4507,53.4486],[73.2297,53.6624],[73.518,53.956],[73.0628,53.9791],[72.6242,54.135],[72.4556,53.9053],[72.2219,54.3332],[72.077,54.1483],[71.3206,54.201],[71.1823,54.1016],[71.1803,54.7274],[71.006,54.7742],[70.8204,55.2941],[70.4686,55.2855]]]}},{"type":"Feature","id":"label-KAZ-3204","properties":{"kind":"division-label","code":"KAZ-3204","countryCode":"KAZ","name":"North Kazakhstan","localName":"North Kazakhstan","labelEnglish":"North Kazakhstan","labelLocal":"North Kazakhstan","labelBoth":"North Kazakhstan","type":"Region","iso":"KZ-SEV","qid":"Q485088"},"geometry":{"type":"Point","coordinates":[69.0682,54.4528]}},{"type":"Feature","id":"KAZ-3196","properties":{"kind":"division","code":"KAZ-3196","countryCode":"KAZ","name":"Kostanay","localName":"Kostanay","labelEnglish":"Kostanay","labelLocal":"Kostanay","labelBoth":"Kostanay","type":"Region","iso":"KZ-KUS","qid":"Q485605"},"geometry":{"type":"Polygon","coordinates":[[[66.0978,54.6372],[65.4498,54.6275],[65.2129,54.343],[64.9106,54.4027],[63.9804,54.3037],[63.3286,54.1631],[62.5506,54.0268],[61.6005,53.9502],[61.1935,54.0183],[61.0076,53.6357],[61.3161,53.5452],[61.2029,53.2764],[62.0507,53.1248],[62.0942,52.9925],[61.478,53.0123],[61.0584,52.9222],[60.6768,52.6636],[61.0399,52.335],[60.6722,52.1443],[60.0298,51.9926],[60.4798,51.7843],[60.3551,51.6714],[60.9374,51.6112],[61.6463,51.2632],[61.8733,51.2959],[62.0301,51.0652],[62.2939,51.0397],[62.5342,50.439],[62.9131,49.8972],[62.6106,49.8551],[62.2936,49.4438],[62.3733,49.167],[62.6645,48.8783],[63.0309,48.863],[63.0297,48.6919],[63.6615,48.4697],[63.9705,48.1512],[64.2168,48.4022],[64.5472,48.5023],[64.7413,48.8405],[65.5242,48.8328],[66.1591,49.0024],[67.5252,49.834],[67.7556,50.1893],[68.2729,50.4119],[68.0967,50.5055],[67.3341,50.3325],[67.1246,50.6179],[66.477,50.6641],[66.0602,50.8975],[65.7209,50.7938],[65.5033,51.262],[65.6445,51.557],[65.444,51.7547],[65.8605,51.8941],[66.053,52.4021],[66.1632,53.0793],[66.474,53.139],[66.1199,53.5797],[66.2308,53.7441],[66.0198,53.9939],[66.3719,54.1024],[66.0978,54.6372]]]}},{"type":"Feature","id":"label-KAZ-3196","properties":{"kind":"division-label","code":"KAZ-3196","countryCode":"KAZ","name":"Kostanay","localName":"Kostanay","labelEnglish":"Kostanay","labelLocal":"Kostanay","labelBoth":"Kostanay","type":"Region","iso":"KZ-KUS","qid":"Q485605"},"geometry":{"type":"Point","coordinates":[64.1291,51.2854]}},{"type":"Feature","id":"KAZ-3205","properties":{"kind":"division","code":"KAZ-3205","countryCode":"KAZ","name":"Pavlodar","localName":"Pavlodar","labelEnglish":"Pavlodar","labelLocal":"Pavlodar","labelBoth":"Pavlodar","type":"Region","iso":"KZ-PAV","qid":"Q486144"},"geometry":{"type":"Polygon","coordinates":[[[77.7847,53.3274],[76.5257,53.9613],[76.8524,54.4612],[75.6912,54.1131],[75.0279,53.8079],[74.4535,53.685],[74.4091,53.4776],[73.9367,53.6395],[73.4507,53.4486],[73.5411,52.9413],[74.0316,52.8547],[73.9678,52.5677],[74.0524,51.9065],[73.8362,51.6234],[74.2736,51.5372],[73.7139,51.2565],[74.0944,51.0372],[73.9737,50.6442],[74.4501,50.6386],[74.9497,50.4305],[75.1619,50.2281],[75.0392,50.0027],[75.3755,50.1502],[76.7054,50.2681],[76.98,50.6353],[77.6238,50.461],[77.7329,50.2026],[78.4728,50.0272],[78.8202,50.3512],[78.6885,50.7011],[78.1072,51.09],[78.758,51.2968],[79.3043,51.6864],[78.4765,52.6379],[77.7847,53.3274]]]}},{"type":"Feature","id":"label-KAZ-3205","properties":{"kind":"division-label","code":"KAZ-3205","countryCode":"KAZ","name":"Pavlodar","localName":"Pavlodar","labelEnglish":"Pavlodar","labelLocal":"Pavlodar","labelBoth":"Pavlodar","type":"Region","iso":"KZ-PAV","qid":"Q486144"},"geometry":{"type":"Point","coordinates":[76.3751,52.2076]}},{"type":"Feature","id":"KAZ-3201","properties":{"kind":"division","code":"KAZ-3201","countryCode":"KAZ","name":"West Kazakhstan","localName":"West Kazakhstan","labelEnglish":"West Kazakhstan","labelLocal":"West Kazakhstan","labelBoth":"West Kazakhstan","type":"Region","iso":"KZ-ZAP","qid":"Q486007"},"geometry":{"type":"Polygon","coordinates":[[[54.5455,50.5305],[54.4786,50.8535],[53.9359,51.1856],[53.6739,51.2199],[53.3463,51.503],[52.5058,51.4789],[52.3349,51.7637],[51.8692,51.6731],[51.7823,51.4929],[51.3042,51.4716],[51.3719,51.6296],[50.767,51.7594],[50.3489,51.3226],[49.7791,51.1022],[49.4231,51.102],[49.4084,50.8483],[48.6734,50.5795],[48.8857,50.0199],[48.4176,49.8117],[47.6247,50.4408],[47.4345,50.3765],[47.3087,50.0448],[46.8999,49.8203],[46.7751,49.3325],[47.0286,49.2015],[46.6202,48.6696],[46.4793,48.4102],[47.1121,48.2422],[48.9075,48.0601],[49.4321,47.9381],[49.9109,48.041],[51.1557,48.6302],[51.8303,48.6146],[51.8113,48.5047],[52.5251,48.4057],[52.9134,48.9854],[53.3249,48.975],[53.6732,49.1844],[53.7645,49.4715],[54.1792,49.6127],[54.5512,50.0314],[54.3915,50.3583],[54.5455,50.5305]]]}},{"type":"Feature","id":"label-KAZ-3201","properties":{"kind":"division-label","code":"KAZ-3201","countryCode":"KAZ","name":"West Kazakhstan","localName":"West Kazakhstan","labelEnglish":"West Kazakhstan","labelLocal":"West Kazakhstan","labelBoth":"West Kazakhstan","type":"Region","iso":"KZ-ZAP","qid":"Q486007"},"geometry":{"type":"Point","coordinates":[50.5145,49.8909]}},{"type":"Feature","id":"KAZ-3198","properties":{"kind":"division","code":"KAZ-3198","countryCode":"KAZ","name":"Atyrau","localName":"Atyrau","labelEnglish":"Atyrau","labelLocal":"Atyrau","labelBoth":"Atyrau","type":"Region","iso":"KZ-ATY","qid":"Q427658"},"geometry":{"type":"Polygon","coordinates":[[[47.1121,48.2422],[47.0442,47.9862],[47.3597,47.6833],[47.4353,47.8344],[48.0445,47.7697],[48.5251,47.4102],[49.0063,46.7691],[48.4551,46.6608],[49.2271,46.3279],[49.313,46.5621],[49.8174,46.5404],[50.4158,46.8824],[51.2126,47.1209],[52.2389,46.8068],[52.4559,47.0012],[52.9199,46.9575],[53.1882,46.718],[53.1567,46.2723],[52.8619,45.7675],[53.5361,45.8257],[53.9491,46.1875],[55.2466,46.346],[55.4769,46.4804],[55.8316,46.2351],[56.4732,46.0845],[56.2712,46.4572],[55.4938,46.6596],[54.9975,47.1523],[55.0725,47.6458],[54.8729,48.0908],[54.8005,48.7412],[54.4426,48.6576],[54.0718,48.7168],[54.0533,49.0055],[53.6732,49.1844],[53.3249,48.975],[52.9134,48.9854],[52.5251,48.4057],[51.8113,48.5047],[51.8303,48.6146],[51.1557,48.6302],[49.9109,48.041],[49.4321,47.9381],[48.9075,48.0601],[47.1121,48.2422]]]}},{"type":"Feature","id":"label-KAZ-3198","properties":{"kind":"division-label","code":"KAZ-3198","countryCode":"KAZ","name":"Atyrau","localName":"Atyrau","labelEnglish":"Atyrau","labelLocal":"Atyrau","labelBoth":"Atyrau","type":"Region","iso":"KZ-ATY","qid":"Q427658"},"geometry":{"type":"Point","coordinates":[51.7585,47.7744]}},{"type":"Feature","id":"KAZ-3202","properties":{"kind":"division","code":"KAZ-3202","countryCode":"KAZ","name":"Akmola","localName":"Akmola","labelEnglish":"Akmola","labelLocal":"Akmola","labelBoth":"Akmola","type":"Region","iso":"KZ-AKM","qid":"Q485056"},"geometry":{"type":"Polygon","coordinates":[[[66.053,52.4021],[65.8605,51.8941],[65.444,51.7547],[65.6445,51.557],[65.5033,51.262],[65.7209,50.7938],[66.0602,50.8975],[66.477,50.6641],[67.1246,50.6179],[67.3341,50.3325],[68.0967,50.5055],[68.7781,50.7536],[68.9954,50.6993],[68.8209,50.187],[69.1563,50.1164],[69.5008,50.331],[69.751,50.188],[70.2471,50.2216],[70.291,49.9871],[70.8929,50.2169],[70.9503,50.4145],[71.6365,50.7615],[71.9403,50.6504],[71.8565,50.3979],[72.2755,50.415],[72.9004,50.8689],[73.071,50.8443],[73.6096,51.0973],[73.2692,51.2243],[73.7139,51.2565],[74.2736,51.5372],[73.8362,51.6234],[74.0524,51.9065],[73.9678,52.5677],[72.9626,52.7618],[72.8952,52.9947],[71.9238,52.9125],[71.6084,53.3798],[71.3134,53.2895],[70.6722,53.3951],[70.5357,53.2394],[70.1132,53.3629],[69.9293,53.6344],[69.4027,53.5751],[69.2296,53.668],[68.5824,53.4007],[68.9226,53.1115],[68.8536,52.7985],[68.2102,52.5162],[68.0263,52.2636],[67.4658,52.3826],[67.148,52.2084],[66.3102,52.2963],[66.053,52.4021]],[[71.4695,50.9747],[71.2501,51.1563],[71.5813,51.2061],[71.4695,50.9747]]]}},{"type":"Feature","id":"label-KAZ-3202","properties":{"kind":"division-label","code":"KAZ-3202","countryCode":"KAZ","name":"Akmola","localName":"Akmola","labelEnglish":"Akmola","labelLocal":"Akmola","labelBoth":"Akmola","type":"Region","iso":"KZ-AKM","qid":"Q485056"},"geometry":{"type":"Point","coordinates":[69.8519,51.928]}},{"type":"Feature","id":"KAZ-3203","properties":{"kind":"division","code":"KAZ-3203","countryCode":"KAZ","name":"Karaganda","localName":"Karaganda","labelEnglish":"Karaganda","labelLocal":"Karaganda","labelBoth":"Karaganda","type":"Region","iso":"KZ-KAR","qid":"Q485429"},"geometry":{"type":"Polygon","coordinates":[[[68.0967,50.5055],[68.2729,50.4119],[67.7556,50.1893],[67.5252,49.834],[66.1591,49.0024],[65.5242,48.8328],[64.7413,48.8405],[64.5472,48.5023],[64.2168,48.4022],[63.9705,48.1512],[64.2036,47.8785],[62.8421,47.1839],[63.2098,46.9612],[63.8186,46.8502],[65.0132,46.5174],[65.5531,46.2908],[66.9789,46.0561],[67.2757,45.9577],[69.1708,45.9369],[74.1843,45.9559],[74.7619,46.3995],[75.4028,46.6795],[77.0192,46.6469],[77.1597,46.5466],[77.5996,46.6758],[77.5809,47.1748],[77.2643,47.089],[76.8764,47.2447],[77.16,47.4286],[77.0718,47.6257],[77.2711,48.0196],[77.248,48.2496],[76.9266,48.3833],[77.3472,48.613],[77.3613,48.8165],[76.9717,48.8047],[77.0466,49.0532],[76.6301,49.3523],[77.1692,49.645],[77.1854,49.8752],[77.7329,50.2026],[77.6238,50.461],[76.98,50.6353],[76.7054,50.2681],[75.3755,50.1502],[75.0392,50.0027],[75.1619,50.2281],[74.9497,50.4305],[74.4501,50.6386],[73.9737,50.6442],[74.0944,51.0372],[73.7139,51.2565],[73.2692,51.2243],[73.6096,51.0973],[73.071,50.8443],[72.9004,50.8689],[72.2755,50.415],[71.8565,50.3979],[71.9403,50.6504],[71.6365,50.7615],[70.9503,50.4145],[70.8929,50.2169],[70.291,49.9871],[70.2471,50.2216],[69.751,50.188],[69.5008,50.331],[69.1563,50.1164],[68.8209,50.187],[68.9954,50.6993],[68.7781,50.7536],[68.0967,50.5055]]]}},{"type":"Feature","id":"label-KAZ-3203","properties":{"kind":"division-label","code":"KAZ-3203","countryCode":"KAZ","name":"Karaganda","localName":"Karaganda","labelEnglish":"Karaganda","labelLocal":"Karaganda","labelBoth":"Karaganda","type":"Region","iso":"KZ-KAR","qid":"Q485429"},"geometry":{"type":"Point","coordinates":[70.1925,48.0823]}},{"type":"Feature","id":"KAZ-4829","properties":{"kind":"division","code":"KAZ-4829","countryCode":"KAZ","name":"Almaty","localName":"Алматы қаласы","labelEnglish":"Almaty","labelLocal":"Алматы қаласы","labelBoth":"Almaty · Алматы қаласы","type":"City","iso":"KZ-ALA","qid":"Q35493"},"geometry":{"type":"Polygon","coordinates":[[[76.9618,43.1923],[76.9963,43.4012],[76.8087,43.2713],[76.9618,43.1923]]]}},{"type":"Feature","id":"label-KAZ-4829","properties":{"kind":"division-label","code":"KAZ-4829","countryCode":"KAZ","name":"Almaty","localName":"Алматы қаласы","labelEnglish":"Almaty","labelLocal":"Алматы қаласы","labelBoth":"Almaty · Алматы қаласы","type":"City","iso":"KZ-ALA","qid":"Q35493"},"geometry":{"type":"Point","coordinates":[76.9424,43.2709]}},{"type":"Feature","id":"KAZ-4830","properties":{"kind":"division","code":"KAZ-4830","countryCode":"KAZ","name":"Nur-Sultan","localName":"Астана қаласы","labelEnglish":"Nur-Sultan","labelLocal":"Астана қаласы","labelBoth":"Nur-Sultan · Астана қаласы","type":"City","iso":"KZ-AST","qid":"Q1520"},"geometry":{"type":"Polygon","coordinates":[[[71.4695,50.9747],[71.5813,51.2061],[71.2501,51.1563],[71.4695,50.9747]]]}},{"type":"Feature","id":"label-KAZ-4830","properties":{"kind":"division-label","code":"KAZ-4830","countryCode":"KAZ","name":"Nur-Sultan","localName":"Астана қаласы","labelEnglish":"Nur-Sultan","labelLocal":"Астана қаласы","labelBoth":"Nur-Sultan · Астана қаласы","type":"City","iso":"KZ-AST","qid":"Q1520"},"geometry":{"type":"Point","coordinates":[71.4538,51.1503]}}]}