{"type":"FeatureCollection","features":[{"type":"Feature","id":"KEN-890","properties":{"kind":"division","code":"KEN-890","countryCode":"KEN","name":"Rift Valley","localName":"Rift Valley","labelEnglish":"Rift Valley","labelLocal":"Rift Valley","labelBoth":"Rift Valley","type":"Province","iso":"KE-700","qid":"Q38587"},"geometry":{"type":"Polygon","coordinates":[[[35.9208,4.6193],[35.6106,4.62],[35.5708,4.9043],[35.4116,5.0304],[34.3812,4.6202],[33.9771,4.2197],[34.1652,3.7708],[34.4397,3.6677],[34.384,3.3883],[34.5456,3.0975],[34.9236,2.4773],[34.9223,2.2107],[34.9787,1.6759],[34.7807,1.3718],[34.7979,1.2319],[34.5669,1.103],[34.7971,0.8267],[35.1141,0.8593],[35.0871,0.6328],[34.845,0.5707],[34.9103,0.1787],[34.7586,-0.0075],[35.2134,-0.0373],[35.0015,-0.3811],[35.0724,-0.7808],[34.9756,-0.8947],[34.5732,-1.01],[34.7189,-1.4124],[35.2464,-1.7068],[37.4242,-2.9228],[37.68,-3.1921],[37.8244,-3.1739],[37.9179,-2.7799],[37.6002,-2.3619],[37.6895,-2.1718],[37.179,-1.9075],[36.8696,-1.4132],[36.6762,-1.2982],[36.5079,-1.2519],[36.5849,-0.9974],[36.5065,-0.6153],[36.2064,-0.2796],[36.2615,0.0005],[36.4713,0.1185],[36.5444,-0.1018],[37.0234,-0.2316],[37.0862,0.0192],[37.3582,0.2053],[37.3309,0.5282],[36.8789,0.5862],[36.9317,0.7595],[37.2941,0.7331],[37.5668,0.577],[38.057,0.7945],[38.0355,1.137],[37.8507,1.4997],[37.5618,1.4187],[37.2505,1.9223],[36.9666,2.0205],[36.7459,2.5194],[36.5322,2.4227],[36.381,2.8464],[36.1269,2.9877],[36.0455,3.2679],[36.0453,4.4437],[35.9208,4.6193]]]}},{"type":"Feature","id":"label-KEN-890","properties":{"kind":"division-label","code":"KEN-890","countryCode":"KEN","name":"Rift Valley","localName":"Rift Valley","labelEnglish":"Rift Valley","labelLocal":"Rift Valley","labelBoth":"Rift Valley","type":"Province","iso":"KE-700","qid":"Q38587"},"geometry":{"type":"Point","coordinates":[36.0169,1.15655]}},{"type":"Feature","id":"KEN-889","properties":{"kind":"division","code":"KEN-889","countryCode":"KEN","name":"Eastern","localName":"Eastern","labelEnglish":"Eastern","labelLocal":"Eastern","labelBoth":"Eastern","type":"National Capital Area","iso":"KE-400","qid":"Q328493"},"geometry":{"type":"Polygon","coordinates":[[[36.6489,4.4312],[36.0453,4.4437],[36.0455,3.2679],[36.1269,2.9877],[36.381,2.8464],[36.5322,2.4227],[36.7459,2.5194],[36.9666,2.0205],[37.2505,1.9223],[37.5618,1.4187],[37.8507,1.4997],[38.0355,1.137],[38.057,0.7945],[37.5668,0.577],[37.2941,0.7331],[36.9317,0.7595],[36.8789,0.5862],[37.3309,0.5282],[37.3582,0.2053],[37.0862,0.0192],[37.3165,-0.1594],[37.4802,-0.7466],[37.2555,-0.7653],[37.3212,-1.0895],[37.1315,-1.2371],[36.8696,-1.4132],[37.179,-1.9075],[37.6895,-2.1718],[37.6002,-2.3619],[37.9179,-2.7799],[38.1349,-2.69],[38.4441,-2.9849],[39.0421,-3.0181],[38.63,-2.4114],[38.7971,-2.3337],[38.9795,-1.9689],[38.9965,-1.1463],[38.4159,-0.0806],[38.7458,-0.0652],[38.6927,0.4475],[39.1585,0.7111],[39.445,0.9989],[39.2794,1.4416],[39.4508,1.5285],[39.1855,1.7384],[38.9432,2.1327],[38.8853,2.52],[39.1129,2.9092],[39.3233,3.0423],[39.2963,3.492],[39.0904,3.5183],[38.4969,3.6239],[38.1019,3.6126],[37.9767,3.7264],[36.8441,4.4322],[36.6489,4.4312]]]}},{"type":"Feature","id":"label-KEN-889","properties":{"kind":"division-label","code":"KEN-889","countryCode":"KEN","name":"Eastern","localName":"Eastern","labelEnglish":"Eastern","labelLocal":"Eastern","labelBoth":"Eastern","type":"National Capital Area","iso":"KE-400","qid":"Q328493"},"geometry":{"type":"Point","coordinates":[37.7915,2.60695]}},{"type":"Feature","id":"KEN-893","properties":{"kind":"division","code":"KEN-893","countryCode":"KEN","name":"North Eastern","localName":"North Eastern","labelEnglish":"North Eastern","labelLocal":"North Eastern","labelBoth":"North Eastern","type":"Province","iso":"KE-500","qid":"Q390213"},"geometry":{"type":"Polygon","coordinates":[[[41.885,3.9772],[41.1145,3.9623],[40.7637,4.2849],[39.8485,3.8673],[39.5363,3.405],[39.2963,3.492],[39.3233,3.0423],[39.1129,2.9092],[38.8853,2.52],[38.9432,2.1327],[39.1855,1.7384],[39.4508,1.5285],[39.2794,1.4416],[39.445,0.9989],[39.1585,0.7111],[38.6927,0.4475],[38.7458,-0.0652],[39.0571,-0.0379],[39.4304,-0.1887],[39.8115,-0.6896],[40.1134,-1.6262],[40.1682,-2.0781],[40.9965,-1.7111],[41.5359,-1.6763],[41.5229,-1.5728],[40.9798,-0.8708],[40.9685,1.2303],[40.9654,2.8141],[41.3427,3.2011],[41.885,3.9772]]]}},{"type":"Feature","id":"label-KEN-893","properties":{"kind":"division-label","code":"KEN-893","countryCode":"KEN","name":"North Eastern","localName":"North Eastern","labelEnglish":"North Eastern","labelLocal":"North Eastern","labelBoth":"North Eastern","type":"Province","iso":"KE-500","qid":"Q390213"},"geometry":{"type":"Point","coordinates":[40.2748,1.01482]}},{"type":"Feature","id":"KEN-1193","properties":{"kind":"division","code":"KEN-1193","countryCode":"KEN","name":"Coast","localName":"Coast","labelEnglish":"Coast","labelLocal":"Coast","labelBoth":"Coast","type":"Province","iso":"KE-300","qid":"Q185371"},"geometry":{"type":"Polygon","coordinates":[[[41.5359,-1.6763],[40.9965,-1.7111],[40.1682,-2.0781],[40.1134,-1.6262],[39.8115,-0.6896],[39.4304,-0.1887],[39.0571,-0.0379],[38.7458,-0.0652],[38.4159,-0.0806],[38.9965,-1.1463],[38.9795,-1.9689],[38.7971,-2.3337],[38.63,-2.4114],[39.0421,-3.0181],[38.4441,-2.9849],[38.1349,-2.69],[37.9179,-2.7799],[37.8244,-3.1739],[37.68,-3.1921],[37.5991,-3.5134],[38.4162,-4.12],[39.1906,-4.6775],[39.4063,-4.6152],[39.7864,-3.9172],[39.9714,-3.3761],[40.2251,-2.9937],[40.175,-2.7626],[40.3898,-2.5603],[40.6159,-2.5525],[40.9248,-2.2172],[40.8851,-2.0148],[41.2827,-1.9685],[41.5351,-1.6963],[41.5359,-1.6763]]]}},{"type":"Feature","id":"label-KEN-1193","properties":{"kind":"division-label","code":"KEN-1193","countryCode":"KEN","name":"Coast","localName":"Coast","labelEnglish":"Coast","labelLocal":"Coast","labelBoth":"Coast","type":"Province","iso":"KE-300","qid":"Q185371"},"geometry":{"type":"Point","coordinates":[39.5816,-2.51514]}},{"type":"Feature","id":"KEN-1197","properties":{"kind":"division","code":"KEN-1197","countryCode":"KEN","name":"Nyanza","localName":"Nyanza","labelEnglish":"Nyanza","labelLocal":"Nyanza","labelBoth":"Nyanza","type":"Province","iso":"KE-600","qid":"Q38589"},"geometry":{"type":"Polygon","coordinates":[[[34.7189,-1.4124],[34.5732,-1.01],[34.9756,-0.8947],[35.0724,-0.7808],[35.0015,-0.3811],[35.2134,-0.0373],[34.7586,-0.0075],[34.5374,-0.0204],[34.3543,0.3066],[34.0919,0.2067],[33.9525,-0.1157],[33.9042,-1.0026],[34.7189,-1.4124]]]}},{"type":"Feature","id":"label-KEN-1197","properties":{"kind":"division-label","code":"KEN-1197","countryCode":"KEN","name":"Nyanza","localName":"Nyanza","labelEnglish":"Nyanza","labelLocal":"Nyanza","labelBoth":"Nyanza","type":"Province","iso":"KE-600","qid":"Q38589"},"geometry":{"type":"Point","coordinates":[34.4239,-0.511452]}},{"type":"Feature","id":"KEN-891","properties":{"kind":"division","code":"KEN-891","countryCode":"KEN","name":"Western","localName":"Western","labelEnglish":"Western","labelLocal":"Western","labelBoth":"Western","type":"Province","iso":"KE-800","qid":"Q38585"},"geometry":{"type":"Polygon","coordinates":[[[34.5601,1.0931],[34.5075,1.1025],[34.4633,1],[34.2963,0.7467],[34.1316,0.5694],[33.9603,0.1987],[33.9525,-0.1157],[34.0919,0.2067],[34.3543,0.3066],[34.5374,-0.0204],[34.7586,-0.0075],[34.9103,0.1787],[34.845,0.5707],[35.0871,0.6328],[35.1141,0.8593],[34.7971,0.8267],[34.5669,1.103],[34.5601,1.0931]]]}},{"type":"Feature","id":"label-KEN-891","properties":{"kind":"division-label","code":"KEN-891","countryCode":"KEN","name":"Western","localName":"Western","labelEnglish":"Western","labelLocal":"Western","labelBoth":"Western","type":"Province","iso":"KE-800","qid":"Q38585"},"geometry":{"type":"Point","coordinates":[34.5306,0.537049]}},{"type":"Feature","id":"KEN-1196","properties":{"kind":"division","code":"KEN-1196","countryCode":"KEN","name":"Nairobi","localName":"Nairobi","labelEnglish":"Nairobi","labelLocal":"Nairobi","labelBoth":"Nairobi","type":"National Capital Area","iso":"KE-110","qid":"Q3870"},"geometry":{"type":"Polygon","coordinates":[[[37.1315,-1.2371],[36.9373,-1.1401],[36.6762,-1.2982],[36.8696,-1.4132],[37.1315,-1.2371]]]}},{"type":"Feature","id":"label-KEN-1196","properties":{"kind":"division-label","code":"KEN-1196","countryCode":"KEN","name":"Nairobi","localName":"Nairobi","labelEnglish":"Nairobi","labelLocal":"Nairobi","labelBoth":"Nairobi","type":"National Capital Area","iso":"KE-110","qid":"Q3870"},"geometry":{"type":"Point","coordinates":[36.9039,-1.29384]}},{"type":"Feature","id":"KEN-1195","properties":{"kind":"division","code":"KEN-1195","countryCode":"KEN","name":"Central","localName":"Central","labelEnglish":"Central","labelLocal":"Central","labelBoth":"Central","type":"Province","iso":"KE-200","qid":"Q318666"},"geometry":{"type":"Polygon","coordinates":[[[37.0862,0.0192],[37.0234,-0.2316],[36.5444,-0.1018],[36.4713,0.1185],[36.2615,0.0005],[36.2064,-0.2796],[36.5065,-0.6153],[36.5849,-0.9974],[36.5079,-1.2519],[36.6762,-1.2982],[36.9373,-1.1401],[37.1315,-1.2371],[37.3212,-1.0895],[37.2555,-0.7653],[37.4802,-0.7466],[37.3165,-0.1594],[37.0862,0.0192]]]}},{"type":"Feature","id":"label-KEN-1195","properties":{"kind":"division-label","code":"KEN-1195","countryCode":"KEN","name":"Central","localName":"Central","labelEnglish":"Central","labelLocal":"Central","labelBoth":"Central","type":"Province","iso":"KE-200","qid":"Q318666"},"geometry":{"type":"Point","coordinates":[36.8463,-0.709986]}}]}