{"type":"FeatureCollection","features":[{"type":"Feature","id":"KGZ-1117","properties":{"kind":"division","code":"KGZ-1117","countryCode":"KGZ","name":"Issyk-Kul","localName":"Issyk-Kul","labelEnglish":"Issyk-Kul","labelLocal":"Issyk-Kul","labelBoth":"Issyk-Kul","type":"Region","iso":"KG-Y","qid":"Q487413"},"geometry":{"type":"Polygon","coordinates":[[[80.2103,42.1895],[79.9179,42.4244],[79.4257,42.4696],[79.1483,42.791],[78.4961,42.8756],[77.2119,42.9099],[77.1251,42.8079],[76.4835,42.7753],[75.6371,42.4598],[75.9539,42.3753],[76.0264,42.0396],[76.6573,41.9381],[76.4762,41.7848],[76.661,41.6064],[77.3443,41.627],[77.3874,41.2664],[78.164,41.2459],[78.2313,41.1729],[78.3599,41.3775],[79.3041,41.7876],[80.1819,42.021],[80.2103,42.1895]]]}},{"type":"Feature","id":"label-KGZ-1117","properties":{"kind":"division-label","code":"KGZ-1117","countryCode":"KGZ","name":"Issyk-Kul","localName":"Issyk-Kul","labelEnglish":"Issyk-Kul","labelLocal":"Issyk-Kul","labelBoth":"Issyk-Kul","type":"Region","iso":"KG-Y","qid":"Q487413"},"geometry":{"type":"Point","coordinates":[77.9472,42.0387]}},{"type":"Feature","id":"KGZ-1118","properties":{"kind":"division","code":"KGZ-1118","countryCode":"KGZ","name":"Naryn","localName":"Naryn","labelEnglish":"Naryn","labelLocal":"Naryn","labelBoth":"Naryn","type":"Region","iso":"KG-N","qid":"Q486375"},"geometry":{"type":"Polygon","coordinates":[[[78.2313,41.1729],[78.164,41.2459],[77.3874,41.2664],[77.3443,41.627],[76.661,41.6064],[76.4762,41.7848],[76.6573,41.9381],[76.0264,42.0396],[75.9539,42.3753],[75.6371,42.4598],[74.8193,42.4236],[74.8824,42.3036],[74.3408,42.2379],[74.2798,41.9472],[73.8009,41.9576],[74.1046,41.7193],[74.0763,41.565],[74.752,41.6118],[74.3999,41.2144],[74.0766,41.153],[74.0417,40.972],[74.5817,40.5599],[74.8323,40.5081],[75.1939,40.4413],[75.5877,40.6119],[75.6818,40.2917],[76.2442,40.4412],[76.3135,40.3433],[76.6242,40.6275],[76.7668,40.9447],[77.0077,41.0442],[77.4749,40.982],[78.075,41.0395],[78.2313,41.1729]]]}},{"type":"Feature","id":"label-KGZ-1118","properties":{"kind":"division-label","code":"KGZ-1118","countryCode":"KGZ","name":"Naryn","localName":"Naryn","labelEnglish":"Naryn","labelLocal":"Naryn","labelBoth":"Naryn","type":"Region","iso":"KG-N","qid":"Q486375"},"geometry":{"type":"Point","coordinates":[75.9766,41.3438]}},{"type":"Feature","id":"KGZ-1122","properties":{"kind":"division","code":"KGZ-1122","countryCode":"KGZ","name":"Osh","localName":"Osh","labelEnglish":"Osh","labelLocal":"Osh","labelBoth":"Osh","type":"Region","iso":"KG-O","qid":"Q47282"},"geometry":{"type":"Polygon","coordinates":[[[74.8323,40.5081],[74.5817,40.5599],[74.0417,40.972],[73.8541,41.125],[73.4628,41.095],[73.135,40.8353],[72.5858,40.5087],[72.2283,40.4596],[72.0132,40.2621],[72.2121,40.2875],[72.2864,39.9511],[72.528,39.7393],[72.0855,39.6331],[71.7134,39.7384],[71.5097,39.585],[71.7329,39.2851],[72.0498,39.3689],[72.2287,39.1895],[72.6505,39.3938],[73.136,39.3535],[73.6326,39.4483],[73.9268,39.5929],[73.823,39.8057],[74.004,40.0608],[74.3699,40.1058],[74.8323,40.5081]]]}},{"type":"Feature","id":"label-KGZ-1122","properties":{"kind":"division-label","code":"KGZ-1122","countryCode":"KGZ","name":"Osh","localName":"Osh","labelEnglish":"Osh","labelLocal":"Osh","labelBoth":"Osh","type":"Region","iso":"KG-O","qid":"Q47282"},"geometry":{"type":"Point","coordinates":[73.177,40.1122]}},{"type":"Feature","id":"KGZ-1116","properties":{"kind":"division","code":"KGZ-1116","countryCode":"KGZ","name":"Chuy","localName":"Chuy","labelEnglish":"Chuy","labelLocal":"Chuy","labelBoth":"Chuy","type":"Region","iso":"KG-C","qid":"Q486370"},"geometry":{"type":"Polygon","coordinates":[[[75.8071,42.9368],[75.6462,42.8061],[75.1786,42.8497],[74.1788,43.2617],[73.6341,43.0625],[73.41,42.5897],[73.5051,42.4216],[73.5309,42.289],[73.1123,42.1393],[73.8009,41.9576],[74.2798,41.9472],[74.3408,42.2379],[74.8824,42.3036],[74.8193,42.4236],[75.6371,42.4598],[76.4835,42.7753],[77.1251,42.8079],[77.2119,42.9099],[76.9569,42.9885],[76.4321,42.8896],[75.8071,42.9368]],[[74.6298,42.8055],[74.5146,42.8586],[74.6209,42.9357],[74.6298,42.8055]]]}},{"type":"Feature","id":"label-KGZ-1116","properties":{"kind":"division-label","code":"KGZ-1116","countryCode":"KGZ","name":"Chuy","localName":"Chuy","labelEnglish":"Chuy","labelLocal":"Chuy","labelBoth":"Chuy","type":"Region","iso":"KG-C","qid":"Q486370"},"geometry":{"type":"Point","coordinates":[75.1456,42.6512]}},{"type":"Feature","id":"KGZ-1121","properties":{"kind":"division","code":"KGZ-1121","countryCode":"KGZ","name":"Talas","localName":"Talas","labelEnglish":"Talas","labelLocal":"Talas","labelBoth":"Talas","type":"Region","iso":"KG-T","qid":"Q109838"},"geometry":{"type":"Polygon","coordinates":[[[73.5051,42.4216],[72.7258,42.6529],[71.8477,42.8341],[71.4046,42.7949],[71.0032,42.5635],[70.8888,42.3386],[70.9478,42.2481],[71.2499,42.1984],[71.6272,42.2029],[72.1269,42.0698],[72.3833,42.2065],[72.8033,42.0658],[73.1123,42.1393],[73.5309,42.289],[73.5051,42.4216]]]}},{"type":"Feature","id":"label-KGZ-1121","properties":{"kind":"division-label","code":"KGZ-1121","countryCode":"KGZ","name":"Talas","localName":"Talas","labelEnglish":"Talas","labelLocal":"Talas","labelBoth":"Talas","type":"Region","iso":"KG-T","qid":"Q109838"},"geometry":{"type":"Point","coordinates":[72.2727,42.4795]}},{"type":"Feature","id":"KGZ-1120","properties":{"kind":"division","code":"KGZ-1120","countryCode":"KGZ","name":"Jalal-Abad","localName":"Jalal-Abad","labelEnglish":"Jalal-Abad","labelLocal":"Jalal-Abad","labelBoth":"Jalal-Abad","type":"Region","iso":"KG-J","qid":"Q487640"},"geometry":{"type":"Polygon","coordinates":[[[71.2499,42.1984],[70.1693,41.5783],[70.4708,41.4049],[70.6338,41.4675],[70.7704,41.2385],[71.1801,41.1081],[71.4215,41.1621],[71.7532,41.4473],[71.8716,41.1945],[72.1699,41.1687],[72.1955,41.0064],[72.6195,40.8801],[73.135,40.8353],[73.4628,41.095],[73.8541,41.125],[74.0417,40.972],[74.0766,41.153],[74.3999,41.2144],[74.752,41.6118],[74.0763,41.565],[74.1046,41.7193],[73.8009,41.9576],[73.1123,42.1393],[72.8033,42.0658],[72.3833,42.2065],[72.1269,42.0698],[71.6272,42.2029],[71.2499,42.1984]]]}},{"type":"Feature","id":"label-KGZ-1120","properties":{"kind":"division-label","code":"KGZ-1120","countryCode":"KGZ","name":"Jalal-Abad","localName":"Jalal-Abad","labelEnglish":"Jalal-Abad","labelLocal":"Jalal-Abad","labelBoth":"Jalal-Abad","type":"Region","iso":"KG-J","qid":"Q487640"},"geometry":{"type":"Point","coordinates":[72.4506,41.5886]}},{"type":"Feature","id":"KGZ-1119","properties":{"kind":"division","code":"KGZ-1119","countryCode":"KGZ","name":"Batken","localName":"Batken","labelEnglish":"Batken","labelLocal":"Batken","labelBoth":"Batken","type":"Region","iso":"KG-B","qid":"Q487631"},"geometry":{"type":"Polygon","coordinates":[[[72.0132,40.2621],[71.6731,40.1479],[71.2396,40.3211],[70.959,40.2384],[70.5255,40.0337],[69.9696,40.2116],[69.314,39.9869],[69.3003,39.5156],[69.6694,39.5778],[70.6556,39.4946],[70.7976,39.3853],[71.5097,39.585],[71.7134,39.7384],[72.0855,39.6331],[72.528,39.7393],[72.2864,39.9511],[72.2121,40.2875],[72.0132,40.2621]],[[71.0086,40.1578],[71.2373,40.0311],[71.1137,39.8745],[71.0086,40.1578]]]}},{"type":"Feature","id":"label-KGZ-1119","properties":{"kind":"division-label","code":"KGZ-1119","countryCode":"KGZ","name":"Batken","localName":"Batken","labelEnglish":"Batken","labelLocal":"Batken","labelBoth":"Batken","type":"Region","iso":"KG-B","qid":"Q487631"},"geometry":{"type":"Point","coordinates":[70.8882,39.7902]}},{"type":"Feature","id":"KGZ-1115","properties":{"kind":"division","code":"KGZ-1115","countryCode":"KGZ","name":"Bishkek","localName":"Bishkek","labelEnglish":"Bishkek","labelLocal":"Bishkek","labelBoth":"Bishkek","type":"Region","iso":"KG-GB","qid":"Q9361"},"geometry":{"type":"Polygon","coordinates":[[[74.6298,42.8055],[74.6209,42.9357],[74.5146,42.8586],[74.6298,42.8055]]]}},{"type":"Feature","id":"label-KGZ-1115","properties":{"kind":"division-label","code":"KGZ-1115","countryCode":"KGZ","name":"Bishkek","localName":"Bishkek","labelEnglish":"Bishkek","labelLocal":"Bishkek","labelBoth":"Bishkek","type":"Region","iso":"KG-GB","qid":"Q9361"},"geometry":{"type":"Point","coordinates":[74.5877,42.8424]}}]}