{"type":"FeatureCollection","features":[{"type":"Feature","id":"KHM-1795","properties":{"kind":"division","code":"KHM-1795","countryCode":"KHM","name":"Ratanakiri","localName":"Ratanakiri","labelEnglish":"Ratanakiri","labelLocal":"Ratanakiri","labelBoth":"Ratanakiri","type":"Province","iso":"KH-16","qid":"Q747846"},"geometry":{"type":"Polygon","coordinates":[[[107.5204,14.7046],[106.9461,14.3235],[106.622,14.4576],[106.6572,13.7864],[106.609,13.3356],[107.045,13.1716],[107.254,13.3701],[107.5749,13.2936],[107.5969,13.5351],[107.446,13.9216],[107.3199,14.1198],[107.5204,14.7046]]]}},{"type":"Feature","id":"label-KHM-1795","properties":{"kind":"division-label","code":"KHM-1795","countryCode":"KHM","name":"Ratanakiri","localName":"Ratanakiri","labelEnglish":"Ratanakiri","labelLocal":"Ratanakiri","labelBoth":"Ratanakiri","type":"Province","iso":"KH-16","qid":"Q747846"},"geometry":{"type":"Point","coordinates":[107.082,13.2418]}},{"type":"Feature","id":"KHM-1794","properties":{"kind":"division","code":"KHM-1794","countryCode":"KHM","name":"Mondulkiri","localName":"Mondulkiri","labelEnglish":"Mondulkiri","labelLocal":"Mondulkiri","labelBoth":"Mondulkiri","type":"Province","iso":"KH-11","qid":"Q652830"},"geometry":{"type":"Polygon","coordinates":[[[107.5401,12.7167],[107.4604,13.0216],[107.5616,13.262],[107.5749,13.2936],[107.254,13.3701],[107.045,13.1716],[106.609,13.3356],[106.3616,13.4222],[106.3489,13.1014],[106.6118,12.9162],[106.3711,12.522],[106.7365,12.2622],[106.7906,12.0674],[107.2278,12.3106],[107.393,12.2528],[107.5567,12.4727],[107.5401,12.7167]]]}},{"type":"Feature","id":"label-KHM-1794","properties":{"kind":"division-label","code":"KHM-1794","countryCode":"KHM","name":"Mondulkiri","localName":"Mondulkiri","labelEnglish":"Mondulkiri","labelLocal":"Mondulkiri","labelBoth":"Mondulkiri","type":"Province","iso":"KH-11","qid":"Q652830"},"geometry":{"type":"Point","coordinates":[106.961,12.6284]}},{"type":"Feature","id":"KHM-1793","properties":{"kind":"division","code":"KHM-1793","countryCode":"KHM","name":"Kratié","localName":"Kratié","labelEnglish":"Kratié","labelLocal":"Kratié","labelBoth":"Kratié","type":"Province","iso":"KH-10","qid":"Q785896"},"geometry":{"type":"Polygon","coordinates":[[[106.7906,12.0674],[106.7365,12.2622],[106.3711,12.522],[106.6118,12.9162],[106.3489,13.1014],[106.3616,13.4222],[106.1003,13.3433],[105.8693,13.1159],[105.5777,13.2698],[105.752,12.5076],[105.7594,12.266],[105.9737,12.2035],[106.1743,11.955],[106.3954,11.9658],[106.7906,12.0674]]]}},{"type":"Feature","id":"label-KHM-1793","properties":{"kind":"division-label","code":"KHM-1793","countryCode":"KHM","name":"Kratié","localName":"Kratié","labelEnglish":"Kratié","labelLocal":"Kratié","labelBoth":"Kratié","type":"Province","iso":"KH-10","qid":"Q785896"},"geometry":{"type":"Point","coordinates":[106.184,12.66]}},{"type":"Feature","id":"KHM-1784","properties":{"kind":"division","code":"KHM-1784","countryCode":"KHM","name":"Kampong Cham","localName":"Kampong Cham","labelEnglish":"Kampong Cham","labelLocal":"Kampong Cham","labelBoth":"Kampong Cham","type":"Province","iso":"KH-3","qid":"Q142258"},"geometry":{"type":"Polygon","coordinates":[[[106.4346,11.6784],[106.3954,11.9658],[106.1743,11.955],[105.9737,12.2035],[105.7594,12.266],[105.752,12.5076],[105.1373,12.3708],[105.2005,12.2165],[104.8874,12.2351],[104.8188,11.8918],[105.1545,11.7471],[105.3294,11.8688],[105.821,11.6415],[106.0154,11.7705],[106.4346,11.6784]]]}},{"type":"Feature","id":"label-KHM-1784","properties":{"kind":"division-label","code":"KHM-1784","countryCode":"KHM","name":"Kampong Cham","localName":"Kampong Cham","labelEnglish":"Kampong Cham","labelLocal":"Kampong Cham","labelBoth":"Kampong Cham","type":"Province","iso":"KH-3","qid":"Q142258"},"geometry":{"type":"Point","coordinates":[105.629,12.1206]}},{"type":"Feature","id":"KHM-1801","properties":{"kind":"division","code":"KHM-1801","countryCode":"KHM","name":"Svay Rieng","localName":"Svay Rieng","labelEnglish":"Svay Rieng","labelLocal":"Svay Rieng","labelBoth":"Svay Rieng","type":"Province","iso":"KH-20","qid":"Q751864"},"geometry":{"type":"Polygon","coordinates":[[[105.7932,11.5829],[105.7,11.5581],[105.6172,10.9708],[105.7529,11.0156],[106.1773,10.7669],[106.1704,10.9706],[105.8444,11.2899],[105.7932,11.5829]]]}},{"type":"Feature","id":"label-KHM-1801","properties":{"kind":"division-label","code":"KHM-1801","countryCode":"KHM","name":"Svay Rieng","localName":"Svay Rieng","labelEnglish":"Svay Rieng","labelLocal":"Svay Rieng","labelBoth":"Svay Rieng","type":"Province","iso":"KH-20","qid":"Q751864"},"geometry":{"type":"Point","coordinates":[105.888,11.0416]}},{"type":"Feature","id":"KHM-1790","properties":{"kind":"division","code":"KHM-1790","countryCode":"KHM","name":"Prey Veng","localName":"Prey Veng","labelEnglish":"Prey Veng","labelLocal":"Prey Veng","labelBoth":"Prey Veng","type":"Province","iso":"KH-14","qid":"Q856788"},"geometry":{"type":"Polygon","coordinates":[[[105.821,11.6415],[105.3294,11.8688],[105.1545,11.7471],[105.1124,11.5954],[105.295,11.4265],[105.2091,10.8916],[105.5236,10.9513],[105.6172,10.9708],[105.7,11.5581],[105.7932,11.5829],[105.821,11.6415]]]}},{"type":"Feature","id":"label-KHM-1790","properties":{"kind":"division-label","code":"KHM-1790","countryCode":"KHM","name":"Prey Veng","localName":"Prey Veng","labelEnglish":"Prey Veng","labelLocal":"Prey Veng","labelBoth":"Prey Veng","type":"Province","iso":"KH-14","qid":"Q856788"},"geometry":{"type":"Point","coordinates":[105.473,11.3561]}},{"type":"Feature","id":"KHM-1786","properties":{"kind":"division","code":"KHM-1786","countryCode":"KHM","name":"Kandal","localName":"Kandal","labelEnglish":"Kandal","labelLocal":"Kandal","labelBoth":"Kandal","type":"Province","iso":"KH-8","qid":"Q466031"},"geometry":{"type":"Polygon","coordinates":[[[105.2091,10.8916],[105.295,11.4265],[105.1124,11.5954],[105.1545,11.7471],[104.8188,11.8918],[104.761,11.8226],[104.6509,11.4456],[104.7441,11.3555],[104.9351,11.3289],[105.0385,10.9226],[105.2091,10.8916]],[[104.9235,11.4463],[104.7809,11.4588],[104.9162,11.6783],[104.9235,11.4463]]]}},{"type":"Feature","id":"label-KHM-1786","properties":{"kind":"division-label","code":"KHM-1786","countryCode":"KHM","name":"Kandal","localName":"Kandal","labelEnglish":"Kandal","labelLocal":"Kandal","labelBoth":"Kandal","type":"Province","iso":"KH-8","qid":"Q466031"},"geometry":{"type":"Point","coordinates":[104.973,11.5453]}},{"type":"Feature","id":"KHM-1802","properties":{"kind":"division","code":"KHM-1802","countryCode":"KHM","name":"Takéo","localName":"Takéo","labelEnglish":"Takéo","labelLocal":"Takéo","labelBoth":"Takéo","type":"Province","iso":"KH-21","qid":"Q613345"},"geometry":{"type":"Polygon","coordinates":[[[105.0385,10.9226],[104.9351,11.3289],[104.7441,11.3555],[104.6736,11.1001],[104.4376,11.1213],[104.7025,10.8891],[104.7006,10.5242],[104.7244,10.5213],[105.0662,10.7464],[105.0385,10.9226]]]}},{"type":"Feature","id":"label-KHM-1802","properties":{"kind":"division-label","code":"KHM-1802","countryCode":"KHM","name":"Takéo","localName":"Takéo","labelEnglish":"Takéo","labelLocal":"Takéo","labelBoth":"Takéo","type":"Province","iso":"KH-21","qid":"Q613345"},"geometry":{"type":"Point","coordinates":[104.751,10.9346]}},{"type":"Feature","id":"KHM-1797","properties":{"kind":"division","code":"KHM-1797","countryCode":"KHM","name":"Kampot","localName":"Kampot","labelEnglish":"Kampot","labelLocal":"Kampot","labelBoth":"Kampot","type":"Province","iso":"KH-7","qid":"Q748470"},"geometry":{"type":"Polygon","coordinates":[[[104.7006,10.5242],[104.7025,10.8891],[104.4376,11.1213],[104.1447,11.1609],[103.942,10.9889],[103.9169,10.616],[104.2686,10.5521],[104.3876,10.5544],[104.4242,10.4511],[104.4513,10.4197],[104.7006,10.5242]]]}},{"type":"Feature","id":"label-KHM-1797","properties":{"kind":"division-label","code":"KHM-1797","countryCode":"KHM","name":"Kampot","localName":"Kampot","labelEnglish":"Kampot","labelLocal":"Kampot","labelBoth":"Kampot","type":"Province","iso":"KH-7","qid":"Q748470"},"geometry":{"type":"Point","coordinates":[104.328,10.8503]}},{"type":"Feature","id":"KHM-1782","properties":{"kind":"division","code":"KHM-1782","countryCode":"KHM","name":"Oddar Meanchey","localName":"Oddar Meanchey","labelEnglish":"Oddar Meanchey","labelLocal":"Oddar Meanchey","labelBoth":"Oddar Meanchey","type":"Province","iso":"KH-22","qid":"Q629538"},"geometry":{"type":"Polygon","coordinates":[[[104.0451,14.357],[103.6715,14.4296],[103.2433,14.3419],[103.0169,14.2389],[103.4332,13.8872],[104.0738,14.2446],[104.0451,14.357]]]}},{"type":"Feature","id":"label-KHM-1782","properties":{"kind":"division-label","code":"KHM-1782","countryCode":"KHM","name":"Oddar Meanchey","localName":"Oddar Meanchey","labelEnglish":"Oddar Meanchey","labelLocal":"Oddar Meanchey","labelBoth":"Oddar Meanchey","type":"Province","iso":"KH-22","qid":"Q629538"},"geometry":{"type":"Point","coordinates":[103.55,14.1712]}},{"type":"Feature","id":"KHM-1791","properties":{"kind":"division","code":"KHM-1791","countryCode":"KHM","name":"Preah Vihear","localName":"Preah Vihear","labelEnglish":"Preah Vihear","labelLocal":"Preah Vihear","labelBoth":"Preah Vihear","type":"Province","iso":"KH-13","qid":"Q502151"},"geometry":{"type":"Polygon","coordinates":[[[104.9156,14.3932],[104.4585,14.357],[104.422,13.6038],[104.6802,13.5663],[104.5634,13.2837],[104.885,13.3387],[104.9973,13.1155],[105.5458,13.4687],[105.5739,13.8764],[105.8956,13.9248],[105.5332,14.1643],[105.3378,14.11],[105.1843,14.3457],[105.0473,14.2141],[104.9156,14.3932]]]}},{"type":"Feature","id":"label-KHM-1791","properties":{"kind":"division-label","code":"KHM-1791","countryCode":"KHM","name":"Preah Vihear","localName":"Preah Vihear","labelEnglish":"Preah Vihear","labelLocal":"Preah Vihear","labelBoth":"Preah Vihear","type":"Province","iso":"KH-13","qid":"Q502151"},"geometry":{"type":"Point","coordinates":[105.125,13.728]}},{"type":"Feature","id":"KHM-1781","properties":{"kind":"division","code":"KHM-1781","countryCode":"KHM","name":"Siem Reap","localName":"Siem Reap","labelEnglish":"Siem Reap","labelLocal":"Siem Reap","labelBoth":"Siem Reap","type":"Province","iso":"KH-17","qid":"Q652818"},"geometry":{"type":"Polygon","coordinates":[[[104.4585,14.357],[104.0457,14.3573],[104.0451,14.357],[104.0738,14.2446],[103.4332,13.8872],[103.4055,13.4282],[103.8087,13.1452],[104.1917,12.7491],[104.3835,12.9175],[104.5634,13.2837],[104.6802,13.5663],[104.422,13.6038],[104.4585,14.357]]]}},{"type":"Feature","id":"label-KHM-1781","properties":{"kind":"division-label","code":"KHM-1781","countryCode":"KHM","name":"Siem Reap","localName":"Siem Reap","labelEnglish":"Siem Reap","labelLocal":"Siem Reap","labelBoth":"Siem Reap","type":"Province","iso":"KH-17","qid":"Q652818"},"geometry":{"type":"Point","coordinates":[104.043,13.5711]}},{"type":"Feature","id":"KHM-1777","properties":{"kind":"division","code":"KHM-1777","countryCode":"KHM","name":"Banteay Meanchey","localName":"Banteay Meanchey","labelEnglish":"Banteay Meanchey","labelLocal":"Banteay Meanchey","labelBoth":"Banteay Meanchey","type":"Province","iso":"KH-1","qid":"Q3817"},"geometry":{"type":"Polygon","coordinates":[[[102.9139,14.1649],[102.6986,13.7618],[102.3295,13.4846],[102.9638,13.4082],[103.4055,13.4282],[103.4332,13.8872],[103.0169,14.2389],[102.9139,14.1649]]]}},{"type":"Feature","id":"label-KHM-1777","properties":{"kind":"division-label","code":"KHM-1777","countryCode":"KHM","name":"Banteay Meanchey","localName":"Banteay Meanchey","labelEnglish":"Banteay Meanchey","labelLocal":"Banteay Meanchey","labelBoth":"Banteay Meanchey","type":"Province","iso":"KH-1","qid":"Q3817"},"geometry":{"type":"Point","coordinates":[102.873,13.7359]}},{"type":"Feature","id":"KHM-1779","properties":{"kind":"division","code":"KHM-1779","countryCode":"KHM","name":"Koh Kong","localName":"Koh Kong","labelEnglish":"Koh Kong","labelLocal":"Koh Kong","labelBoth":"Koh Kong","type":"Province","iso":"KH-9","qid":"Q466000"},"geometry":{"type":"Polygon","coordinates":[[[102.9136,11.6459],[103.134,11.3161],[103.0956,10.934],[103.3523,10.8719],[103.4745,11.1337],[103.6746,11.0637],[103.6887,10.743],[103.942,10.9889],[104.1447,11.1609],[104.0732,11.5071],[103.809,11.6537],[103.8635,11.9084],[103.4913,12.1423],[103.1461,11.9795],[102.765,12.0446],[102.9136,11.6459]]]}},{"type":"Feature","id":"label-KHM-1779","properties":{"kind":"division-label","code":"KHM-1779","countryCode":"KHM","name":"Koh Kong","localName":"Koh Kong","labelEnglish":"Koh Kong","labelLocal":"Koh Kong","labelBoth":"Koh Kong","type":"Province","iso":"KH-9","qid":"Q466000"},"geometry":{"type":"Point","coordinates":[103.466,11.5609]}},{"type":"Feature","id":"KHM-1780","properties":{"kind":"division","code":"KHM-1780","countryCode":"KHM","name":"Pursat","localName":"Pursat","labelEnglish":"Pursat","labelLocal":"Pursat","labelBoth":"Pursat","type":"Province","iso":"KH-15","qid":"Q834464"},"geometry":{"type":"Polygon","coordinates":[[[102.765,12.0446],[103.1461,11.9795],[103.4913,12.1423],[103.8635,11.9084],[104.1985,12.1078],[104.4051,12.5513],[104.1917,12.7491],[103.8087,13.1452],[103.6795,13.0194],[103.6422,12.6775],[102.7638,12.4253],[102.765,12.0446]]]}},{"type":"Feature","id":"label-KHM-1780","properties":{"kind":"division-label","code":"KHM-1780","countryCode":"KHM","name":"Pursat","localName":"Pursat","labelEnglish":"Pursat","labelLocal":"Pursat","labelBoth":"Pursat","type":"Province","iso":"KH-15","qid":"Q834464"},"geometry":{"type":"Point","coordinates":[103.549,12.3391]}},{"type":"Feature","id":"KHM-1778","properties":{"kind":"division","code":"KHM-1778","countryCode":"KHM","name":"Battambang","localName":"Battambang","labelEnglish":"Battambang","labelLocal":"Battambang","labelBoth":"Battambang","type":"Province","iso":"KH-2","qid":"Q810923"},"geometry":{"type":"Polygon","coordinates":[[[102.7638,12.4253],[103.6422,12.6775],[103.6795,13.0194],[103.8087,13.1452],[103.4055,13.4282],[102.9638,13.4082],[102.3295,13.4846],[102.3292,13.2726],[102.4901,12.9952],[102.7405,13.043],[102.7582,12.8093],[102.4959,12.6542],[102.7638,12.4253]]]}},{"type":"Feature","id":"label-KHM-1778","properties":{"kind":"division-label","code":"KHM-1778","countryCode":"KHM","name":"Battambang","localName":"Battambang","labelEnglish":"Battambang","labelLocal":"Battambang","labelBoth":"Battambang","type":"Province","iso":"KH-2","qid":"Q810923"},"geometry":{"type":"Point","coordinates":[103.068,12.9675]}},{"type":"Feature","id":"KHM-1783","properties":{"kind":"division","code":"KHM-1783","countryCode":"KHM","name":"Pailin","localName":"Pailin","labelEnglish":"Pailin","labelLocal":"Pailin","labelBoth":"Pailin","type":"Municipality","iso":"KH-24","qid":"Q506646"},"geometry":{"type":"Polygon","coordinates":[[[102.4959,12.6542],[102.7582,12.8093],[102.7405,13.043],[102.4901,12.9952],[102.4952,12.746],[102.4959,12.6542]]]}},{"type":"Feature","id":"label-KHM-1783","properties":{"kind":"division-label","code":"KHM-1783","countryCode":"KHM","name":"Pailin","localName":"Pailin","labelEnglish":"Pailin","labelLocal":"Pailin","labelBoth":"Pailin","type":"Municipality","iso":"KH-24","qid":"Q506646"},"geometry":{"type":"Point","coordinates":[102.611,12.8901]}},{"type":"Feature","id":"KHM-1792","properties":{"kind":"division","code":"KHM-1792","countryCode":"KHM","name":"Stung Treng","localName":"Stung Treng","labelEnglish":"Stung Treng","labelLocal":"Stung Treng","labelBoth":"Stung Treng","type":"Province","iso":"KH-19","qid":"Q837889"},"geometry":{"type":"Polygon","coordinates":[[[106.622,14.4576],[106.5125,14.5904],[106.34,14.449],[105.974,14.3658],[106.1446,14.0724],[105.8956,13.9248],[105.5739,13.8764],[105.5458,13.4687],[105.5777,13.2698],[105.8693,13.1159],[106.1003,13.3433],[106.3616,13.4222],[106.609,13.3356],[106.6572,13.7864],[106.622,14.4576]]]}},{"type":"Feature","id":"label-KHM-1792","properties":{"kind":"division-label","code":"KHM-1792","countryCode":"KHM","name":"Stung Treng","localName":"Stung Treng","labelEnglish":"Stung Treng","labelLocal":"Stung Treng","labelBoth":"Stung Treng","type":"Province","iso":"KH-19","qid":"Q837889"},"geometry":{"type":"Point","coordinates":[106.095,13.6662]}},{"type":"Feature","id":"KHM-1800","properties":{"kind":"division","code":"KHM-1800","countryCode":"KHM","name":"Sihanoukville","localName":"Sihanoukville","labelEnglish":"Sihanoukville","labelLocal":"Sihanoukville","labelBoth":"Sihanoukville","type":"Municipality","iso":"KH-18","qid":"Q220966"},"geometry":{"type":"Polygon","coordinates":[[[103.9169,10.616],[103.942,10.9889],[103.6887,10.743],[103.5068,10.6354],[103.6239,10.5009],[103.9169,10.616]]]}},{"type":"Feature","id":"label-KHM-1800","properties":{"kind":"division-label","code":"KHM-1800","countryCode":"KHM","name":"Sihanoukville","localName":"Sihanoukville","labelEnglish":"Sihanoukville","labelLocal":"Sihanoukville","labelBoth":"Sihanoukville","type":"Municipality","iso":"KH-18","qid":"Q220966"},"geometry":{"type":"Point","coordinates":[103.775,10.4854]}},{"type":"Feature","id":"KHM-1798","properties":{"kind":"division","code":"KHM-1798","countryCode":"KHM","name":"Kep","localName":"Kep","labelEnglish":"Kep","labelLocal":"Kep","labelBoth":"Kep","type":"Province","iso":"KH-23","qid":"Q852089"},"geometry":{"type":"Polygon","coordinates":[[[104.4242,10.4511],[104.3876,10.5544],[104.2686,10.5521],[104.4242,10.4511]]]}},{"type":"Feature","id":"label-KHM-1798","properties":{"kind":"division-label","code":"KHM-1798","countryCode":"KHM","name":"Kep","localName":"Kep","labelEnglish":"Kep","labelLocal":"Kep","labelBoth":"Kep","type":"Province","iso":"KH-23","qid":"Q852089"},"geometry":{"type":"Point","coordinates":[104.346,10.5308]}},{"type":"Feature","id":"KHM-1785","properties":{"kind":"division","code":"KHM-1785","countryCode":"KHM","name":"Kampong Chhnang","localName":"Kampong Chhnang","labelEnglish":"Kampong Chhnang","labelLocal":"Kampong Chhnang","labelBoth":"Kampong Chhnang","type":"Province","iso":"KH-4","qid":"Q877468"},"geometry":{"type":"Polygon","coordinates":[[[104.1985,12.1078],[104.3242,11.8406],[104.5179,11.7361],[104.761,11.8226],[104.8188,11.8918],[104.8874,12.2351],[104.8304,12.5326],[104.4051,12.5513],[104.1985,12.1078]]]}},{"type":"Feature","id":"label-KHM-1785","properties":{"kind":"division-label","code":"KHM-1785","countryCode":"KHM","name":"Kampong Chhnang","localName":"Kampong Chhnang","labelEnglish":"Kampong Chhnang","labelLocal":"Kampong Chhnang","labelBoth":"Kampong Chhnang","type":"Province","iso":"KH-4","qid":"Q877468"},"geometry":{"type":"Point","coordinates":[104.548,12.1624]}},{"type":"Feature","id":"KHM-1788","properties":{"kind":"division","code":"KHM-1788","countryCode":"KHM","name":"Kampong Thom","localName":"Kampong Thom","labelEnglish":"Kampong Thom","labelLocal":"Kampong Thom","labelBoth":"Kampong Thom","type":"Province","iso":"KH-6","qid":"Q502148"},"geometry":{"type":"Polygon","coordinates":[[[104.4051,12.5513],[104.8304,12.5326],[104.8874,12.2351],[105.2005,12.2165],[105.1373,12.3708],[105.752,12.5076],[105.5777,13.2698],[105.5458,13.4687],[104.9973,13.1155],[104.885,13.3387],[104.5634,13.2837],[104.3835,12.9175],[104.1917,12.7491],[104.4051,12.5513]]]}},{"type":"Feature","id":"label-KHM-1788","properties":{"kind":"division-label","code":"KHM-1788","countryCode":"KHM","name":"Kampong Thom","localName":"Kampong Thom","labelEnglish":"Kampong Thom","labelLocal":"Kampong Thom","labelBoth":"Kampong Thom","type":"Province","iso":"KH-6","qid":"Q502148"},"geometry":{"type":"Point","coordinates":[104.972,12.6883]}},{"type":"Feature","id":"KHM-1787","properties":{"kind":"division","code":"KHM-1787","countryCode":"KHM","name":"Kam","localName":"Kam","labelEnglish":"Kam","labelLocal":"Kam","labelBoth":"Kam","type":"Province","iso":"KH-5","qid":"Q652867"},"geometry":{"type":"Polygon","coordinates":[[[103.8635,11.9084],[103.809,11.6537],[104.0732,11.5071],[104.1447,11.1609],[104.4376,11.1213],[104.6736,11.1001],[104.7441,11.3555],[104.6509,11.4456],[104.761,11.8226],[104.5179,11.7361],[104.3242,11.8406],[104.1985,12.1078],[103.8635,11.9084]]]}},{"type":"Feature","id":"label-KHM-1787","properties":{"kind":"division-label","code":"KHM-1787","countryCode":"KHM","name":"Kam","localName":"Kam","labelEnglish":"Kam","labelLocal":"Kam","labelBoth":"Kam","type":"Province","iso":"KH-5","qid":"Q652867"},"geometry":{"type":"Point","coordinates":[104.282,11.5221]}},{"type":"Feature","id":"KHM-1789","properties":{"kind":"division","code":"KHM-1789","countryCode":"KHM","name":"Phnom Penh","localName":"Phnom Penh","labelEnglish":"Phnom Penh","labelLocal":"Phnom Penh","labelBoth":"Phnom Penh","type":"Municipality","iso":"KH-12","qid":"Q1850"},"geometry":{"type":"Polygon","coordinates":[[[104.9235,11.4463],[104.9162,11.6783],[104.7809,11.4588],[104.9235,11.4463]]]}},{"type":"Feature","id":"label-KHM-1789","properties":{"kind":"division-label","code":"KHM-1789","countryCode":"KHM","name":"Phnom Penh","localName":"Phnom Penh","labelEnglish":"Phnom Penh","labelLocal":"Phnom Penh","labelBoth":"Phnom Penh","type":"Municipality","iso":"KH-12","qid":"Q1850"},"geometry":{"type":"Point","coordinates":[104.874,11.5733]}}]}