{"type":"FeatureCollection","features":[{"type":"Feature","id":"KIR+00?","properties":{"kind":"division","code":"KIR+00?","countryCode":"KIR","name":"Kiribati","localName":"Kiribati","labelEnglish":"Kiribati","labelLocal":"Kiribati","labelBoth":"Kiribati","type":null,"iso":"KI-X01~","qid":null},"geometry":{"type":"Polygon","coordinates":[[[-157.191,1.7639],[-157.3477,1.8608],[-157.4106,1.7819],[-157.191,1.7639]]]}},{"type":"Feature","id":"label-KIR+00?","properties":{"kind":"division-label","code":"KIR+00?","countryCode":"KIR","name":"Kiribati","localName":"Kiribati","labelEnglish":"Kiribati","labelLocal":"Kiribati","labelBoth":"Kiribati","type":null,"iso":"KI-X01~","qid":null},"geometry":{"type":"Point","coordinates":[169.546,-0.857764]}},{"type":"Feature","id":"KIR+99?","properties":{"kind":"division","code":"KIR+99?","countryCode":"KIR","name":"KIR+99?","localName":"KIR+99?","labelEnglish":"KIR+99?","labelLocal":"KIR+99?","labelBoth":"KIR+99?","type":null,"iso":"KI-X02~","qid":null},"geometry":{"type":"Polygon","coordinates":[[[-155.8993,-5.6168],[-155.9335,-5.6091],[-155.9064,-5.6353],[-155.8993,-5.6168]]]}},{"type":"Feature","id":"label-KIR+99?","properties":{"kind":"division-label","code":"KIR+99?","countryCode":"KIR","name":"KIR+99?","localName":"KIR+99?","labelEnglish":"KIR+99?","labelLocal":"KIR+99?","labelBoth":"KIR+99?","type":null,"iso":"KI-X02~","qid":null},"geometry":{"type":"Point","coordinates":[-174.511,-4.68967]}}]}