{"type":"FeatureCollection","features":[{"type":"Feature","id":"KNA-5108","properties":{"kind":"division","code":"KNA-5108","countryCode":"KNA","name":"Saint Paul Charlestown","localName":"Saint Paul Charlestown","labelEnglish":"Saint Paul Charlestown","labelLocal":"Saint Paul Charlestown","labelBoth":"Saint Paul Charlestown","type":"Parish","iso":"KN-10","qid":"Q1752127"},"geometry":{"type":"Polygon","coordinates":[[[-62.6216,17.1283],[-62.5786,17.1455],[-62.6264,17.1407],[-62.6216,17.1283]]]}},{"type":"Feature","id":"label-KNA-5108","properties":{"kind":"division-label","code":"KNA-5108","countryCode":"KNA","name":"Saint Paul Charlestown","localName":"Saint Paul Charlestown","labelEnglish":"Saint Paul Charlestown","labelLocal":"Saint Paul Charlestown","labelBoth":"Saint Paul Charlestown","type":"Parish","iso":"KN-10","qid":"Q1752127"},"geometry":{"type":"Point","coordinates":[-62.6162,17.135]}},{"type":"Feature","id":"KNA-5105","properties":{"kind":"division","code":"KNA-5105","countryCode":"KNA","name":"Saint John Figtree","localName":"Saint John Figtree","labelEnglish":"Saint John Figtree","labelLocal":"Saint John Figtree","labelBoth":"Saint John Figtree","type":"Parish","iso":"KN-07","qid":"Q657318"},"geometry":{"type":"Polygon","coordinates":[[[-62.5657,17.1005],[-62.5786,17.1455],[-62.6216,17.1283],[-62.5657,17.1005]]]}},{"type":"Feature","id":"label-KNA-5105","properties":{"kind":"division-label","code":"KNA-5105","countryCode":"KNA","name":"Saint John Figtree","localName":"Saint John Figtree","labelEnglish":"Saint John Figtree","labelLocal":"Saint John Figtree","labelBoth":"Saint John Figtree","type":"Parish","iso":"KN-07","qid":"Q657318"},"geometry":{"type":"Point","coordinates":[-62.5949,17.1162]}},{"type":"Feature","id":"KNA-5102","properties":{"kind":"division","code":"KNA-5102","countryCode":"KNA","name":"Saint George Gingerland","localName":"Saint George Gingerland","labelEnglish":"Saint George Gingerland","labelLocal":"Saint George Gingerland","labelBoth":"Saint George Gingerland","type":"Parish","iso":"KN-04","qid":"Q1472520"},"geometry":{"type":"Polygon","coordinates":[[[-62.537,17.1384],[-62.5786,17.1455],[-62.5657,17.1005],[-62.537,17.1384]]]}},{"type":"Feature","id":"label-KNA-5102","properties":{"kind":"division-label","code":"KNA-5102","countryCode":"KNA","name":"Saint George Gingerland","localName":"Saint George Gingerland","labelEnglish":"Saint George Gingerland","labelLocal":"Saint George Gingerland","labelBoth":"Saint George Gingerland","type":"Parish","iso":"KN-04","qid":"Q1472520"},"geometry":{"type":"Point","coordinates":[-62.5571,17.1301]}},{"type":"Feature","id":"KNA-5103","properties":{"kind":"division","code":"KNA-5103","countryCode":"KNA","name":"Saint James Windward","localName":"Saint James Windward","labelEnglish":"Saint James Windward","labelLocal":"Saint James Windward","labelBoth":"Saint James Windward","type":"Parish","iso":"KN-05","qid":"Q1342139"},"geometry":{"type":"Polygon","coordinates":[[[-62.6125,17.1891],[-62.5786,17.1455],[-62.537,17.1384],[-62.6125,17.1891]]]}},{"type":"Feature","id":"label-KNA-5103","properties":{"kind":"division-label","code":"KNA-5103","countryCode":"KNA","name":"Saint James Windward","localName":"Saint James Windward","labelEnglish":"Saint James Windward","labelLocal":"Saint James Windward","labelBoth":"Saint James Windward","type":"Parish","iso":"KN-05","qid":"Q1342139"},"geometry":{"type":"Point","coordinates":[-62.5718,17.1782]}},{"type":"Feature","id":"KNA-5110","properties":{"kind":"division","code":"KNA-5110","countryCode":"KNA","name":"Saint Thomas Lowland","localName":"Saint Thomas Lowland","labelEnglish":"Saint Thomas Lowland","labelLocal":"Saint Thomas Lowland","labelBoth":"Saint Thomas Lowland","type":"Parish","iso":"KN-12","qid":"Q1752122"},"geometry":{"type":"Polygon","coordinates":[[[-62.6264,17.1407],[-62.5786,17.1455],[-62.6125,17.1891],[-62.6264,17.1407]]]}},{"type":"Feature","id":"label-KNA-5110","properties":{"kind":"division-label","code":"KNA-5110","countryCode":"KNA","name":"Saint Thomas Lowland","localName":"Saint Thomas Lowland","labelEnglish":"Saint Thomas Lowland","labelLocal":"Saint Thomas Lowland","labelBoth":"Saint Thomas Lowland","type":"Parish","iso":"KN-12","qid":"Q1752122"},"geometry":{"type":"Point","coordinates":[-62.6064,17.1597]}},{"type":"Feature","id":"KNA-5107","properties":{"kind":"division","code":"KNA-5107","countryCode":"KNA","name":"Saint Paul Capisterre","localName":"Saint Paul Capisterre","labelEnglish":"Saint Paul Capisterre","labelLocal":"Saint Paul Capisterre","labelBoth":"Saint Paul Capisterre","type":"Parish","iso":"KN-09","qid":"Q952735"},"geometry":{"type":"Polygon","coordinates":[[[-62.8566,17.3804],[-62.8076,17.3667],[-62.8223,17.4101],[-62.8566,17.3804]]]}},{"type":"Feature","id":"label-KNA-5107","properties":{"kind":"division-label","code":"KNA-5107","countryCode":"KNA","name":"Saint Paul Capisterre","localName":"Saint Paul Capisterre","labelEnglish":"Saint Paul Capisterre","labelLocal":"Saint Paul Capisterre","labelBoth":"Saint Paul Capisterre","type":"Parish","iso":"KN-09","qid":"Q952735"},"geometry":{"type":"Point","coordinates":[-62.8337,17.3911]}},{"type":"Feature","id":"KNA-5100","properties":{"kind":"division","code":"KNA-5100","countryCode":"KNA","name":"Saint Anne Sandy Point","localName":"Saint Anne Sandy Point","labelEnglish":"Saint Anne Sandy Point","labelLocal":"Saint Anne Sandy Point","labelBoth":"Saint Anne Sandy Point","type":"Parish","iso":"KN-02","qid":"Q1473654"},"geometry":{"type":"Polygon","coordinates":[[[-62.8316,17.3301],[-62.8076,17.3667],[-62.8566,17.3804],[-62.8316,17.3301]]]}},{"type":"Feature","id":"label-KNA-5100","properties":{"kind":"division-label","code":"KNA-5100","countryCode":"KNA","name":"Saint Anne Sandy Point","localName":"Saint Anne Sandy Point","labelEnglish":"Saint Anne Sandy Point","labelLocal":"Saint Anne Sandy Point","labelBoth":"Saint Anne Sandy Point","type":"Parish","iso":"KN-02","qid":"Q1473654"},"geometry":{"type":"Point","coordinates":[-62.8369,17.3574]}},{"type":"Feature","id":"KNA-5111","properties":{"kind":"division","code":"KNA-5111","countryCode":"KNA","name":"Saint Thomas Middle Island","localName":"Saint Thomas Middle Island","labelEnglish":"Saint Thomas Middle Island","labelLocal":"Saint Thomas Middle Island","labelBoth":"Saint Thomas Middle Island","type":"Parish","iso":"KN-13","qid":"Q1752101"},"geometry":{"type":"Polygon","coordinates":[[[-62.7716,17.298],[-62.7544,17.331],[-62.7875,17.3498],[-62.8076,17.3667],[-62.8316,17.3301],[-62.7716,17.298]]]}},{"type":"Feature","id":"label-KNA-5111","properties":{"kind":"division-label","code":"KNA-5111","countryCode":"KNA","name":"Saint Thomas Middle Island","localName":"Saint Thomas Middle Island","labelEnglish":"Saint Thomas Middle Island","labelLocal":"Saint Thomas Middle Island","labelBoth":"Saint Thomas Middle Island","type":"Parish","iso":"KN-13","qid":"Q1752101"},"geometry":{"type":"Point","coordinates":[-62.7943,17.3279]}},{"type":"Feature","id":"KNA-5112","properties":{"kind":"division","code":"KNA-5112","countryCode":"KNA","name":"Trinity Palmetto Point","localName":"Trinity Palmetto Point","labelEnglish":"Trinity Palmetto Point","labelLocal":"Trinity Palmetto Point","labelBoth":"Trinity Palmetto Point","type":"Parish","iso":"KN-14","qid":"Q376738"},"geometry":{"type":"Polygon","coordinates":[[[-62.7238,17.2917],[-62.7343,17.3187],[-62.7382,17.3304],[-62.7453,17.331],[-62.7544,17.331],[-62.7716,17.298],[-62.7238,17.2917]]]}},{"type":"Feature","id":"label-KNA-5112","properties":{"kind":"division-label","code":"KNA-5112","countryCode":"KNA","name":"Trinity Palmetto Point","localName":"Trinity Palmetto Point","labelEnglish":"Trinity Palmetto Point","labelLocal":"Trinity Palmetto Point","labelBoth":"Trinity Palmetto Point","type":"Parish","iso":"KN-14","qid":"Q376738"},"geometry":{"type":"Point","coordinates":[-62.7483,17.3074]}},{"type":"Feature","id":"KNA-5101","properties":{"kind":"division","code":"KNA-5101","countryCode":"KNA","name":"Saint George Basseterre","localName":"Saint George Basseterre","labelEnglish":"Saint George Basseterre","labelLocal":"Saint George Basseterre","labelBoth":"Saint George Basseterre","type":"Parish","iso":"KN-03","qid":"Q1540744"},"geometry":{"type":"Polygon","coordinates":[[[-62.6812,17.2994],[-62.7343,17.3187],[-62.7238,17.2917],[-62.6812,17.2994]]]}},{"type":"Feature","id":"label-KNA-5101","properties":{"kind":"division-label","code":"KNA-5101","countryCode":"KNA","name":"Saint George Basseterre","localName":"Saint George Basseterre","labelEnglish":"Saint George Basseterre","labelLocal":"Saint George Basseterre","labelBoth":"Saint George Basseterre","type":"Parish","iso":"KN-03","qid":"Q1540744"},"geometry":{"type":"Point","coordinates":[-62.6868,17.2836]}},{"type":"Feature","id":"KNA-5109","properties":{"kind":"division","code":"KNA-5109","countryCode":"KNA","name":"Saint Peter Basseterre","localName":"Saint Peter Basseterre","labelEnglish":"Saint Peter Basseterre","labelLocal":"Saint Peter Basseterre","labelBoth":"Saint Peter Basseterre","type":"Parish","iso":"KN-11","qid":"Q1725609"},"geometry":{"type":"Polygon","coordinates":[[[-62.7036,17.3416],[-62.7382,17.3304],[-62.7343,17.3187],[-62.6812,17.2994],[-62.7036,17.3416]]]}},{"type":"Feature","id":"label-KNA-5109","properties":{"kind":"division-label","code":"KNA-5109","countryCode":"KNA","name":"Saint Peter Basseterre","localName":"Saint Peter Basseterre","labelEnglish":"Saint Peter Basseterre","labelLocal":"Saint Peter Basseterre","labelBoth":"Saint Peter Basseterre","type":"Parish","iso":"KN-11","qid":"Q1725609"},"geometry":{"type":"Point","coordinates":[-62.7065,17.3221]}},{"type":"Feature","id":"KNA-5106","properties":{"kind":"division","code":"KNA-5106","countryCode":"KNA","name":"Saint Mary Cayon","localName":"Saint Mary Cayon","labelEnglish":"Saint Mary Cayon","labelLocal":"Saint Mary Cayon","labelBoth":"Saint Mary Cayon","type":"Parish","iso":"KN-08","qid":"Q1538034"},"geometry":{"type":"Polygon","coordinates":[[[-62.7305,17.3646],[-62.7453,17.331],[-62.7382,17.3304],[-62.7036,17.3416],[-62.7305,17.3646]]]}},{"type":"Feature","id":"label-KNA-5106","properties":{"kind":"division-label","code":"KNA-5106","countryCode":"KNA","name":"Saint Mary Cayon","localName":"Saint Mary Cayon","labelEnglish":"Saint Mary Cayon","labelLocal":"Saint Mary Cayon","labelBoth":"Saint Mary Cayon","type":"Parish","iso":"KN-08","qid":"Q1538034"},"geometry":{"type":"Point","coordinates":[-62.7286,17.3459]}},{"type":"Feature","id":"KNA-5099","properties":{"kind":"division","code":"KNA-5099","countryCode":"KNA","name":"Christ Church Nichola Town","localName":"Christ Church Nichola Town","labelEnglish":"Christ Church Nichola Town","labelLocal":"Christ Church Nichola Town","labelBoth":"Christ Church Nichola Town","type":"Parish","iso":"KN-01","qid":"Q176164"},"geometry":{"type":"Polygon","coordinates":[[[-62.7694,17.387],[-62.7875,17.3498],[-62.7544,17.331],[-62.7453,17.331],[-62.7305,17.3646],[-62.7694,17.387]]]}},{"type":"Feature","id":"label-KNA-5099","properties":{"kind":"division-label","code":"KNA-5099","countryCode":"KNA","name":"Christ Church Nichola Town","localName":"Christ Church Nichola Town","labelEnglish":"Christ Church Nichola Town","labelLocal":"Christ Church Nichola Town","labelBoth":"Christ Church Nichola Town","type":"Parish","iso":"KN-01","qid":"Q176164"},"geometry":{"type":"Point","coordinates":[-62.7582,17.364]}},{"type":"Feature","id":"KNA-5104","properties":{"kind":"division","code":"KNA-5104","countryCode":"KNA","name":"Saint John Capisterre","localName":"Saint John Capisterre","labelEnglish":"Saint John Capisterre","labelLocal":"Saint John Capisterre","labelBoth":"Saint John Capisterre","type":"Parish","iso":"KN-06","qid":"Q668498"},"geometry":{"type":"Polygon","coordinates":[[[-62.8223,17.4101],[-62.8076,17.3667],[-62.7875,17.3498],[-62.7694,17.387],[-62.8223,17.4101]]]}},{"type":"Feature","id":"label-KNA-5104","properties":{"kind":"division-label","code":"KNA-5104","countryCode":"KNA","name":"Saint John Capisterre","localName":"Saint John Capisterre","labelEnglish":"Saint John Capisterre","labelLocal":"Saint John Capisterre","labelBoth":"Saint John Capisterre","type":"Parish","iso":"KN-06","qid":"Q668498"},"geometry":{"type":"Point","coordinates":[-62.7967,17.382]}}]}