{"type":"FeatureCollection","features":[{"type":"Feature","id":"KOR-2496","properties":{"kind":"division","code":"KOR-2496","countryCode":"KOR","name":"Gangwon","localName":"강원도","labelEnglish":"Gangwon","labelLocal":"강원도","labelBoth":"Gangwon · 강원도","type":"Province","iso":"KR-42","qid":"Q41071"},"geometry":{"type":"Polygon","coordinates":[[[128.3649,38.6243],[128.0399,38.3043],[127.1575,38.3072],[126.9661,38.213],[127.445,38.0655],[127.6258,37.8811],[127.5397,37.6046],[127.8311,37.5085],[127.607,37.1314],[128.1911,37.2028],[128.6503,37.0223],[129.1895,36.9968],[129.2779,36.6323],[129.4226,36.6166],[129.4712,36.7719],[129.3311,37.2822],[129.0642,37.6789],[128.6316,38.145],[128.3649,38.6243]]]}},{"type":"Feature","id":"label-KOR-2496","properties":{"kind":"division-label","code":"KOR-2496","countryCode":"KOR","name":"Gangwon","localName":"강원도","labelEnglish":"Gangwon","labelLocal":"강원도","labelBoth":"Gangwon · 강원도","type":"Province","iso":"KR-42","qid":"Q41071"},"geometry":{"type":"Point","coordinates":[128.22,37.7951]}},{"type":"Feature","id":"KOR-2498","properties":{"kind":"division","code":"KOR-2498","countryCode":"KOR","name":"Gyeonggi","localName":"경기도","labelEnglish":"Gyeonggi","labelLocal":"경기도","labelBoth":"Gyeonggi · 경기도","type":"Province","iso":"KR-41","qid":"Q20937"},"geometry":{"type":"Polygon","coordinates":[[[126.6675,37.8278],[126.6038,37.5493],[126.7958,37.443],[126.72,37.3771],[126.7552,37.0488],[126.9617,36.9051],[127.26,36.8789],[127.607,37.1314],[127.8311,37.5085],[127.5397,37.6046],[127.6258,37.8811],[127.445,38.0655],[126.9661,38.213],[126.9401,38.1742],[126.6675,37.8278]],[[127.1159,37.5506],[126.7937,37.5517],[127.0903,37.6808],[127.1159,37.5506]]]}},{"type":"Feature","id":"label-KOR-2498","properties":{"kind":"division-label","code":"KOR-2498","countryCode":"KOR","name":"Gyeonggi","localName":"경기도","labelEnglish":"Gyeonggi","labelLocal":"경기도","labelBoth":"Gyeonggi · 경기도","type":"Province","iso":"KR-41","qid":"Q20937"},"geometry":{"type":"Point","coordinates":[127.205,37.2562]}},{"type":"Feature","id":"KOR-2502","properties":{"kind":"division","code":"KOR-2502","countryCode":"KOR","name":"South Chungcheong","localName":"충청남도","labelEnglish":"South Chungcheong","labelLocal":"충청남도","labelBoth":"South Chungcheong · 충청남도","type":"Province","iso":"KR-44","qid":"Q41070"},"geometry":{"type":"Polygon","coordinates":[[[126.8121,36.0473],[127.3065,36.1212],[127.619,36.0295],[127.4823,36.3745],[127.3166,36.2332],[127.219,36.4562],[127.2465,36.646],[127.26,36.8789],[126.9617,36.9051],[126.5191,37.0554],[126.343,36.7404],[126.5733,36.3426],[126.4974,36.16],[126.8121,36.0473]]]}},{"type":"Feature","id":"label-KOR-2502","properties":{"kind":"division-label","code":"KOR-2502","countryCode":"KOR","name":"South Chungcheong","localName":"충청남도","labelEnglish":"South Chungcheong","labelLocal":"충청남도","labelBoth":"South Chungcheong · 충청남도","type":"Province","iso":"KR-44","qid":"Q41070"},"geometry":{"type":"Point","coordinates":[126.874,36.4602]}},{"type":"Feature","id":"KOR-2495","properties":{"kind":"division","code":"KOR-2495","countryCode":"KOR","name":"Incheon","localName":"인천광역시","labelEnglish":"Incheon","labelLocal":"인천광역시","labelBoth":"Incheon · 인천광역시","type":"Metropolitan City","iso":"KR-28","qid":"Q20934"},"geometry":{"type":"Polygon","coordinates":[[[126.72,37.3771],[126.7958,37.443],[126.6038,37.5493],[126.72,37.3771]]]}},{"type":"Feature","id":"label-KOR-2495","properties":{"kind":"division-label","code":"KOR-2495","countryCode":"KOR","name":"Incheon","localName":"인천광역시","labelEnglish":"Incheon","labelLocal":"인천광역시","labelBoth":"Incheon · 인천광역시","type":"Metropolitan City","iso":"KR-28","qid":"Q20934"},"geometry":{"type":"Point","coordinates":[126.507,37.4983]}},{"type":"Feature","id":"KOR-2499","properties":{"kind":"division","code":"KOR-2499","countryCode":"KOR","name":"North Jeolla","localName":"전라북도","labelEnglish":"North Jeolla","labelLocal":"전라북도","labelBoth":"North Jeolla · 전라북도","type":"Province","iso":"KR-45","qid":"Q41157"},"geometry":{"type":"Polygon","coordinates":[[[126.4369,35.3706],[126.7514,35.3398],[126.8669,35.462],[127.1267,35.2844],[127.6175,35.2766],[127.7066,35.7348],[127.9139,35.8871],[127.8776,36.0074],[127.619,36.0295],[127.3065,36.1212],[126.8121,36.0473],[126.5214,35.9705],[126.8062,35.8667],[126.4676,35.6396],[126.4369,35.3706]]]}},{"type":"Feature","id":"label-KOR-2499","properties":{"kind":"division-label","code":"KOR-2499","countryCode":"KOR","name":"North Jeolla","localName":"전라북도","labelEnglish":"North Jeolla","labelLocal":"전라북도","labelBoth":"North Jeolla · 전라북도","type":"Province","iso":"KR-45","qid":"Q41157"},"geometry":{"type":"Point","coordinates":[127.081,35.679]}},{"type":"Feature","id":"KOR-2506","properties":{"kind":"division","code":"KOR-2506","countryCode":"KOR","name":"South Jeolla","localName":"전라남도","labelEnglish":"South Jeolla","labelLocal":"전라남도","labelBoth":"South Jeolla · 전라남도","type":"Metropolitan City","iso":"KR-46","qid":"Q41161"},"geometry":{"type":"Polygon","coordinates":[[[127.805,34.9571],[127.6175,35.2766],[127.1267,35.2844],[126.8669,35.462],[126.7514,35.3398],[126.4369,35.3706],[126.4524,35.1003],[126.2686,35.1372],[126.6026,34.6329],[126.2903,34.7502],[126.4796,34.3488],[127.0103,34.6125],[127.3159,34.4449],[127.5036,34.5913],[127.3616,34.7733],[127.805,34.9571]],[[126.9856,35.2388],[126.9664,35.1501],[126.8229,35.2341],[126.9856,35.2388]]]}},{"type":"Feature","id":"label-KOR-2506","properties":{"kind":"division-label","code":"KOR-2506","countryCode":"KOR","name":"South Jeolla","localName":"전라남도","labelEnglish":"South Jeolla","labelLocal":"전라남도","labelBoth":"South Jeolla · 전라남도","type":"Metropolitan City","iso":"KR-46","qid":"Q41161"},"geometry":{"type":"Point","coordinates":[126.884,34.8166]}},{"type":"Feature","id":"KOR-2505","properties":{"kind":"division","code":"KOR-2505","countryCode":"KOR","name":"South Gyeongsang","localName":"경상남도","labelEnglish":"South Gyeongsang","labelLocal":"경상남도","labelBoth":"South Gyeongsang · 경상남도","type":"Province","iso":"KR-48","qid":"Q41151"},"geometry":{"type":"Polygon","coordinates":[[[128.9628,35.1334],[129.0931,35.2708],[129.1993,35.1636],[129.2688,35.3157],[129.0085,35.5795],[128.2196,35.6128],[127.9139,35.8871],[127.7066,35.7348],[127.6175,35.2766],[127.805,34.9571],[128.4353,34.8432],[128.4781,35.0991],[128.9628,35.1334]]]}},{"type":"Feature","id":"label-KOR-2505","properties":{"kind":"division-label","code":"KOR-2505","countryCode":"KOR","name":"South Gyeongsang","localName":"경상남도","labelEnglish":"South Gyeongsang","labelLocal":"경상남도","labelBoth":"South Gyeongsang · 경상남도","type":"Province","iso":"KR-48","qid":"Q41151"},"geometry":{"type":"Point","coordinates":[128.217,35.3192]}},{"type":"Feature","id":"KOR-2507","properties":{"kind":"division","code":"KOR-2507","countryCode":"KOR","name":"Busan","localName":"부산광역시","labelEnglish":"Busan","labelLocal":"부산광역시","labelBoth":"Busan · 부산광역시","type":"Metropolitan City","iso":"KR-26","qid":"Q16520"},"geometry":{"type":"Polygon","coordinates":[[[129.1993,35.1636],[129.0931,35.2708],[128.9628,35.1334],[129.1993,35.1636]]]}},{"type":"Feature","id":"label-KOR-2507","properties":{"kind":"division-label","code":"KOR-2507","countryCode":"KOR","name":"Busan","localName":"부산광역시","labelEnglish":"Busan","labelLocal":"부산광역시","labelBoth":"Busan · 부산광역시","type":"Metropolitan City","iso":"KR-26","qid":"Q16520"},"geometry":{"type":"Point","coordinates":[129.082,35.1928]}},{"type":"Feature","id":"KOR-2508","properties":{"kind":"division","code":"KOR-2508","countryCode":"KOR","name":"Ulsan","localName":"울산광역시","labelEnglish":"Ulsan","labelLocal":"울산광역시","labelBoth":"Ulsan · 울산광역시","type":"Metropolitan City","iso":"KR-31","qid":"Q41278"},"geometry":{"type":"Polygon","coordinates":[[[129.4591,35.6108],[129.0085,35.5795],[129.2688,35.3157],[129.4591,35.6108]]]}},{"type":"Feature","id":"label-KOR-2508","properties":{"kind":"division-label","code":"KOR-2508","countryCode":"KOR","name":"Ulsan","localName":"울산광역시","labelEnglish":"Ulsan","labelLocal":"울산광역시","labelBoth":"Ulsan · 울산광역시","type":"Metropolitan City","iso":"KR-31","qid":"Q41278"},"geometry":{"type":"Point","coordinates":[129.232,35.4997]}},{"type":"Feature","id":"KOR-2509","properties":{"kind":"division","code":"KOR-2509","countryCode":"KOR","name":"North Gyeongsang","localName":"경상북도","labelEnglish":"North Gyeongsang","labelLocal":"경상북도","labelBoth":"North Gyeongsang · 경상북도","type":"Metropolitan City","iso":"KR-47","qid":"Q41154"},"geometry":{"type":"Polygon","coordinates":[[[129.4226,36.6166],[129.2779,36.6323],[129.1895,36.9968],[128.6503,37.0223],[128.4254,36.789],[128.0571,36.7757],[127.8,36.542],[127.8369,36.2447],[128.0227,36.2159],[127.8776,36.0074],[127.9139,35.8871],[128.2196,35.6128],[129.0085,35.5795],[129.4591,35.6108],[129.5548,36.0825],[129.4331,35.9961],[129.4226,36.6166]],[[128.7413,35.8488],[128.4813,35.8277],[128.5767,35.9996],[128.7413,35.8488]]]}},{"type":"Feature","id":"label-KOR-2509","properties":{"kind":"division-label","code":"KOR-2509","countryCode":"KOR","name":"North Gyeongsang","localName":"경상북도","labelEnglish":"North Gyeongsang","labelLocal":"경상북도","labelBoth":"North Gyeongsang · 경상북도","type":"Metropolitan City","iso":"KR-47","qid":"Q41154"},"geometry":{"type":"Point","coordinates":[128.708,36.3396]}},{"type":"Feature","id":"KOR-2510","properties":{"kind":"division","code":"KOR-2510","countryCode":"KOR","name":"Jeju","localName":"제주특별자치도","labelEnglish":"Jeju","labelLocal":"제주특별자치도","labelBoth":"Jeju · 제주특별자치도","type":"Province","iso":"KR-49","qid":"Q41164"},"geometry":{"type":"Polygon","coordinates":[[[126.9461,33.478],[126.7924,33.5638],[126.3106,33.4645],[126.2861,33.2004],[126.8406,33.3102],[126.9461,33.478]]]}},{"type":"Feature","id":"label-KOR-2510","properties":{"kind":"division-label","code":"KOR-2510","countryCode":"KOR","name":"Jeju","localName":"제주특별자치도","labelEnglish":"Jeju","labelLocal":"제주특별자치도","labelBoth":"Jeju · 제주특별자치도","type":"Province","iso":"KR-49","qid":"Q41164"},"geometry":{"type":"Point","coordinates":[126.557,33.3741]}},{"type":"Feature","id":"KOR-2497","properties":{"kind":"division","code":"KOR-2497","countryCode":"KOR","name":"Seoul","localName":"서울특별시","labelEnglish":"Seoul","labelLocal":"서울특별시","labelBoth":"Seoul · 서울특별시","type":"Capital Metropolitan City","iso":"KR-11","qid":"Q8684"},"geometry":{"type":"Polygon","coordinates":[[[127.1159,37.5506],[127.0903,37.6808],[126.7937,37.5517],[127.1159,37.5506]]]}},{"type":"Feature","id":"label-KOR-2497","properties":{"kind":"division-label","code":"KOR-2497","countryCode":"KOR","name":"Seoul","localName":"서울특별시","labelEnglish":"Seoul","labelLocal":"서울특별시","labelBoth":"Seoul · 서울특별시","type":"Capital Metropolitan City","iso":"KR-11","qid":"Q8684"},"geometry":{"type":"Point","coordinates":[126.994,37.5408]}},{"type":"Feature","id":"KOR-2503","properties":{"kind":"division","code":"KOR-2503","countryCode":"KOR","name":"Daejeon","localName":"대전광역시","labelEnglish":"Daejeon","labelLocal":"대전광역시","labelBoth":"Daejeon · 대전광역시","type":"Metropolitan City","iso":"KR-30","qid":"Q20921"},"geometry":{"type":"Polygon","coordinates":[[[127.219,36.4562],[127.3166,36.2332],[127.4823,36.3745],[127.3526,36.4791],[127.219,36.4562]]]}},{"type":"Feature","id":"label-KOR-2503","properties":{"kind":"division-label","code":"KOR-2503","countryCode":"KOR","name":"Daejeon","localName":"대전광역시","labelEnglish":"Daejeon","labelLocal":"대전광역시","labelBoth":"Daejeon · 대전광역시","type":"Metropolitan City","iso":"KR-30","qid":"Q20921"},"geometry":{"type":"Point","coordinates":[127.401,36.3563]}},{"type":"Feature","id":"KOR-5129","properties":{"kind":"division","code":"KOR-5129","countryCode":"KOR","name":"Sejong","localName":"세종특별자치시","labelEnglish":"Sejong","labelLocal":"세종특별자치시","labelBoth":"Sejong · 세종특별자치시","type":"Special self-governing city","iso":"KR-50","qid":"Q20929"},"geometry":{"type":"Polygon","coordinates":[[[127.2465,36.646],[127.219,36.4562],[127.3526,36.4791],[127.2465,36.646]]]}},{"type":"Feature","id":"label-KOR-5129","properties":{"kind":"division-label","code":"KOR-5129","countryCode":"KOR","name":"Sejong","localName":"세종특별자치시","labelEnglish":"Sejong","labelLocal":"세종특별자치시","labelBoth":"Sejong · 세종특별자치시","type":"Special self-governing city","iso":"KR-50","qid":"Q20929"},"geometry":{"type":"Point","coordinates":[127.229,36.4974]}},{"type":"Feature","id":"KOR-2494","properties":{"kind":"division","code":"KOR-2494","countryCode":"KOR","name":"North Chungcheong","localName":"충청북도","labelEnglish":"North Chungcheong","labelLocal":"충청북도","labelBoth":"North Chungcheong · 충청북도","type":"Province","iso":"KR-43","qid":"Q41066"},"geometry":{"type":"Polygon","coordinates":[[[127.607,37.1314],[127.26,36.8789],[127.2465,36.646],[127.3526,36.4791],[127.4823,36.3745],[127.619,36.0295],[127.8776,36.0074],[128.0227,36.2159],[127.8369,36.2447],[127.8,36.542],[128.0571,36.7757],[128.4254,36.789],[128.6503,37.0223],[128.1911,37.2028],[127.607,37.1314]]]}},{"type":"Feature","id":"label-KOR-2494","properties":{"kind":"division-label","code":"KOR-2494","countryCode":"KOR","name":"North Chungcheong","localName":"충청북도","labelEnglish":"North Chungcheong","labelLocal":"충청북도","labelBoth":"North Chungcheong · 충청북도","type":"Province","iso":"KR-43","qid":"Q41066"},"geometry":{"type":"Point","coordinates":[127.668,36.7476]}},{"type":"Feature","id":"KOR-2500","properties":{"kind":"division","code":"KOR-2500","countryCode":"KOR","name":"Gwangju","localName":"광주광역시","labelEnglish":"Gwangju","labelLocal":"광주광역시","labelBoth":"Gwangju · 광주광역시","type":"Metropolitan City","iso":"KR-29","qid":"Q41283"},"geometry":{"type":"Polygon","coordinates":[[[126.9856,35.2388],[126.8229,35.2341],[126.9664,35.1501],[126.9856,35.2388]]]}},{"type":"Feature","id":"label-KOR-2500","properties":{"kind":"division-label","code":"KOR-2500","countryCode":"KOR","name":"Gwangju","localName":"광주광역시","labelEnglish":"Gwangju","labelLocal":"광주광역시","labelBoth":"Gwangju · 광주광역시","type":"Metropolitan City","iso":"KR-29","qid":"Q41283"},"geometry":{"type":"Point","coordinates":[126.929,35.1989]}},{"type":"Feature","id":"KOR-2504","properties":{"kind":"division","code":"KOR-2504","countryCode":"KOR","name":"Daegu","localName":"대구광역시","labelEnglish":"Daegu","labelLocal":"대구광역시","labelBoth":"Daegu · 대구광역시","type":"Metropolitan City","iso":"KR-27","qid":"Q20927"},"geometry":{"type":"Polygon","coordinates":[[[128.7413,35.8488],[128.5767,35.9996],[128.4813,35.8277],[128.7413,35.8488]]]}},{"type":"Feature","id":"label-KOR-2504","properties":{"kind":"division-label","code":"KOR-2504","countryCode":"KOR","name":"Daegu","localName":"대구광역시","labelEnglish":"Daegu","labelLocal":"대구광역시","labelBoth":"Daegu · 대구광역시","type":"Metropolitan City","iso":"KR-27","qid":"Q20927"},"geometry":{"type":"Point","coordinates":[128.631,35.9034]}}]}