{"type":"FeatureCollection","features":[{"type":"Feature","id":"KOS-5889","properties":{"kind":"division","code":"KOS-5889","countryCode":"KOS","name":"Dečani","localName":"Dečani","labelEnglish":"Dečani","labelLocal":"Dečani","labelBoth":"Dečani","type":"District","iso":"XK-X02~","qid":null},"geometry":{"type":"Polygon","coordinates":[[[20.065,42.5468],[20.1527,42.4934],[20.4393,42.5402],[20.1039,42.6531],[20.065,42.5468]]]}},{"type":"Feature","id":"label-KOS-5889","properties":{"kind":"division-label","code":"KOS-5889","countryCode":"KOS","name":"Dečani","localName":"Dečani","labelEnglish":"Dečani","labelLocal":"Dečani","labelBoth":"Dečani","type":"District","iso":"XK-X02~","qid":null},"geometry":{"type":"Point","coordinates":[20.2468,42.527]}},{"type":"Feature","id":"KOS-5890","properties":{"kind":"division","code":"KOS-5890","countryCode":"KOS","name":"Gjakova","localName":"Gjakova","labelEnglish":"Gjakova","labelLocal":"Gjakova","labelBoth":"Gjakova","type":"District","iso":"XK-X01~","qid":null},"geometry":{"type":"Polygon","coordinates":[[[20.1527,42.4934],[20.4737,42.2371],[20.5807,42.297],[20.541,42.5021],[20.5034,42.5248],[20.4393,42.5402],[20.1527,42.4934]]]}},{"type":"Feature","id":"label-KOS-5890","properties":{"kind":"division-label","code":"KOS-5890","countryCode":"KOS","name":"Gjakova","localName":"Gjakova","labelEnglish":"Gjakova","labelLocal":"Gjakova","labelBoth":"Gjakova","type":"District","iso":"XK-X01~","qid":null},"geometry":{"type":"Point","coordinates":[20.4124,42.3724]}},{"type":"Feature","id":"KOS-5909","properties":{"kind":"division","code":"KOS-5909","countryCode":"KOS","name":"Dragaš","localName":"Dragaš","labelEnglish":"Dragaš","labelLocal":"Dragaš","labelBoth":"Dragaš","type":"District","iso":"XK-X03~","qid":null},"geometry":{"type":"Polygon","coordinates":[[[20.5671,41.8732],[20.7144,41.8592],[20.7511,41.9102],[20.7514,41.9403],[20.7849,42.082],[20.5522,42.0738],[20.5671,41.8732]]]}},{"type":"Feature","id":"label-KOS-5909","properties":{"kind":"division-label","code":"KOS-5909","countryCode":"KOS","name":"Dragaš","localName":"Dragaš","labelEnglish":"Dragaš","labelLocal":"Dragaš","labelBoth":"Dragaš","type":"District","iso":"XK-X03~","qid":null},"geometry":{"type":"Point","coordinates":[20.6774,41.9926]}},{"type":"Feature","id":"KOS-5908","properties":{"kind":"division","code":"KOS-5908","countryCode":"KOS","name":"Plužine","localName":"Plužine","labelEnglish":"Plužine","labelLocal":"Plužine","labelBoth":"Plužine","type":"District","iso":"XK-X21~","qid":"Q4864476"},"geometry":{"type":"Polygon","coordinates":[[[20.5522,42.0738],[20.7849,42.082],[20.9042,42.1167],[20.9751,42.1347],[20.856,42.2325],[20.7059,42.3274],[20.5807,42.297],[20.4737,42.2371],[20.5522,42.0738]]]}},{"type":"Feature","id":"label-KOS-5908","properties":{"kind":"division-label","code":"KOS-5908","countryCode":"KOS","name":"Plužine","localName":"Plužine","labelEnglish":"Plužine","labelLocal":"Plužine","labelBoth":"Plužine","type":"District","iso":"XK-X21~","qid":"Q4864476"},"geometry":{"type":"Point","coordinates":[20.7289,42.1884]}},{"type":"Feature","id":"KOS-5904","properties":{"kind":"division","code":"KOS-5904","countryCode":"KOS","name":"Gnjilane","localName":"Gnjilane","labelEnglish":"Gnjilane","labelLocal":"Gnjilane","labelBoth":"Gnjilane","type":"District","iso":"XK-X05~","qid":null},"geometry":{"type":"Polygon","coordinates":[[[21.4815,42.2478],[21.5641,42.2463],[21.619,42.4492],[21.4649,42.5582],[21.2934,42.5566],[21.2496,42.4479],[21.2752,42.4017],[21.4815,42.2478]]]}},{"type":"Feature","id":"label-KOS-5904","properties":{"kind":"division-label","code":"KOS-5904","countryCode":"KOS","name":"Gnjilane","localName":"Gnjilane","labelEnglish":"Gnjilane","labelLocal":"Gnjilane","labelBoth":"Gnjilane","type":"District","iso":"XK-X05~","qid":null},"geometry":{"type":"Point","coordinates":[21.449,42.4503]}},{"type":"Feature","id":"KOS-5905","properties":{"kind":"division","code":"KOS-5905","countryCode":"KOS","name":"Viti/Vitina","localName":"Viti/Vitina","labelEnglish":"Viti/Vitina","labelLocal":"Viti/Vitina","labelBoth":"Viti/Vitina","type":"District","iso":"XK-X27~","qid":null},"geometry":{"type":"Polygon","coordinates":[[[21.4815,42.2478],[21.2752,42.4017],[21.2444,42.3171],[21.3606,42.2201],[21.472,42.2391],[21.4815,42.2478]]]}},{"type":"Feature","id":"label-KOS-5905","properties":{"kind":"division-label","code":"KOS-5905","countryCode":"KOS","name":"Viti/Vitina","localName":"Viti/Vitina","labelEnglish":"Viti/Vitina","labelLocal":"Viti/Vitina","labelBoth":"Viti/Vitina","type":"District","iso":"XK-X27~","qid":null},"geometry":{"type":"Point","coordinates":[21.3686,42.2996]}},{"type":"Feature","id":"KOS-5915","properties":{"kind":"division","code":"KOS-5915","countryCode":"KOS","name":"Kačanik","localName":"Kačanik","labelEnglish":"Kačanik","labelLocal":"Kačanik","labelBoth":"Kačanik","type":"District","iso":"XK-X07~","qid":null},"geometry":{"type":"Polygon","coordinates":[[[21.3606,42.2201],[21.2444,42.3171],[21.1111,42.2761],[21.0985,42.196],[21.2293,42.1038],[21.2457,42.0962],[21.3008,42.0984],[21.3606,42.2201]]]}},{"type":"Feature","id":"label-KOS-5915","properties":{"kind":"division-label","code":"KOS-5915","countryCode":"KOS","name":"Kačanik","localName":"Kačanik","labelEnglish":"Kačanik","labelLocal":"Kačanik","labelBoth":"Kačanik","type":"District","iso":"XK-X07~","qid":null},"geometry":{"type":"Point","coordinates":[21.2405,42.198]}},{"type":"Feature","id":"KOS-5914","properties":{"kind":"division","code":"KOS-5914","countryCode":"KOS","name":"Štrpce","localName":"Štrpce","labelEnglish":"Štrpce","labelLocal":"Štrpce","labelBoth":"Štrpce","type":"District","iso":"XK-X24~","qid":null},"geometry":{"type":"Polygon","coordinates":[[[21.0985,42.196],[21.1111,42.2761],[20.9657,42.2918],[20.856,42.2325],[20.9751,42.1347],[21.0409,42.16],[21.0985,42.196]]]}},{"type":"Feature","id":"label-KOS-5914","properties":{"kind":"division-label","code":"KOS-5914","countryCode":"KOS","name":"Štrpce","localName":"Štrpce","labelEnglish":"Štrpce","labelLocal":"Štrpce","labelBoth":"Štrpce","type":"District","iso":"XK-X24~","qid":null},"geometry":{"type":"Point","coordinates":[21.0064,42.2201]}},{"type":"Feature","id":"KOS-5893","properties":{"kind":"division","code":"KOS-5893","countryCode":"KOS","name":"Leposavić","localName":"Leposavić","labelEnglish":"Leposavić","labelLocal":"Leposavić","labelBoth":"Leposavić","type":"District","iso":"XK-X12~","qid":null},"geometry":{"type":"Polygon","coordinates":[[[20.8097,43.2596],[20.6438,43.0523],[20.8136,42.971],[20.9958,43.0544],[20.9934,43.1041],[20.9125,43.1388],[20.8097,43.2596]]]}},{"type":"Feature","id":"label-KOS-5893","properties":{"kind":"division-label","code":"KOS-5893","countryCode":"KOS","name":"Leposavić","localName":"Leposavić","labelEnglish":"Leposavić","labelLocal":"Leposavić","labelBoth":"Leposavić","type":"District","iso":"XK-X12~","qid":null},"geometry":{"type":"Point","coordinates":[20.7944,43.1033]}},{"type":"Feature","id":"KOS-5901","properties":{"kind":"division","code":"KOS-5901","countryCode":"KOS","name":"Podujevo/Podujeva","localName":"Podujevo/Podujeva","labelEnglish":"Podujevo/Podujeva","labelLocal":"Podujevo/Podujeva","labelBoth":"Podujevo/Podujeva","type":"District","iso":"XK-X19~","qid":null},"geometry":{"type":"Polygon","coordinates":[[[20.9934,43.1041],[20.9958,43.0544],[21.0557,42.9227],[21.0974,42.7947],[21.1111,42.7633],[21.3871,42.755],[21.4084,42.8417],[20.9934,43.1041]]]}},{"type":"Feature","id":"label-KOS-5901","properties":{"kind":"division-label","code":"KOS-5901","countryCode":"KOS","name":"Podujevo/Podujeva","localName":"Podujevo/Podujeva","labelEnglish":"Podujevo/Podujeva","labelLocal":"Podujevo/Podujeva","labelBoth":"Podujevo/Podujeva","type":"District","iso":"XK-X19~","qid":null},"geometry":{"type":"Point","coordinates":[21.1831,42.867]}},{"type":"Feature","id":"KOS-5897","properties":{"kind":"division","code":"KOS-5897","countryCode":"KOS","name":"Zubin Potok","localName":"Zubin Potok","labelEnglish":"Zubin Potok","labelLocal":"Zubin Potok","labelBoth":"Zubin Potok","type":"District","iso":"XK-X29~","qid":null},"geometry":{"type":"Polygon","coordinates":[[[20.6173,43.0221],[20.4944,42.8875],[20.6307,42.8231],[20.7444,42.83],[20.7906,42.8966],[20.6173,43.0221]]]}},{"type":"Feature","id":"label-KOS-5897","properties":{"kind":"division-label","code":"KOS-5897","countryCode":"KOS","name":"Zubin Potok","localName":"Zubin Potok","labelEnglish":"Zubin Potok","labelLocal":"Zubin Potok","labelBoth":"Zubin Potok","type":"District","iso":"XK-X29~","qid":null},"geometry":{"type":"Point","coordinates":[20.662,42.9245]}},{"type":"Feature","id":"KOS-5892","properties":{"kind":"division","code":"KOS-5892","countryCode":"KOS","name":"Zvečan","localName":"Zvečan","labelEnglish":"Zvečan","labelLocal":"Zvečan","labelBoth":"Zvečan","type":"District","iso":"XK-X30~","qid":null},"geometry":{"type":"Polygon","coordinates":[[[20.6173,43.0221],[20.7906,42.8966],[20.8136,42.971],[20.6438,43.0523],[20.6173,43.0221]]]}},{"type":"Feature","id":"label-KOS-5892","properties":{"kind":"division-label","code":"KOS-5892","countryCode":"KOS","name":"Zvečan","localName":"Zvečan","labelEnglish":"Zvečan","labelLocal":"Zvečan","labelBoth":"Zvečan","type":"District","iso":"XK-X30~","qid":null},"geometry":{"type":"Point","coordinates":[20.7736,42.9494]}},{"type":"Feature","id":"KOS-5887","properties":{"kind":"division","code":"KOS-5887","countryCode":"KOS","name":"Istok","localName":"Istok","labelEnglish":"Istok","labelLocal":"Istok","labelBoth":"Istok","type":"District","iso":"XK-X06~","qid":null},"geometry":{"type":"Polygon","coordinates":[[[20.3454,42.8274],[20.3192,42.8241],[20.4572,42.6684],[20.6237,42.6972],[20.6307,42.8231],[20.4944,42.8875],[20.3454,42.8274]]]}},{"type":"Feature","id":"label-KOS-5887","properties":{"kind":"division-label","code":"KOS-5887","countryCode":"KOS","name":"Istok","localName":"Istok","labelEnglish":"Istok","labelLocal":"Istok","labelBoth":"Istok","type":"District","iso":"XK-X06~","qid":null},"geometry":{"type":"Point","coordinates":[20.4919,42.7655]}},{"type":"Feature","id":"KOS-5902","properties":{"kind":"division","code":"KOS-5902","countryCode":"KOS","name":"Kosovo and Metohija","localName":"Kosovo and Metohija","labelEnglish":"Kosovo and Metohija","labelLocal":"Kosovo and Metohija","labelBoth":"Kosovo and Metohija","type":"District","iso":"XK-X20~","qid":"Q1255"},"geometry":{"type":"Polygon","coordinates":[[[21.3871,42.755],[21.1111,42.7633],[21.1008,42.653],[21.0829,42.5735],[21.3265,42.5814],[21.4239,42.6171],[21.4795,42.7323],[21.3871,42.755]]]}},{"type":"Feature","id":"label-KOS-5902","properties":{"kind":"division-label","code":"KOS-5902","countryCode":"KOS","name":"Kosovo and Metohija","localName":"Kosovo and Metohija","labelEnglish":"Kosovo and Metohija","labelLocal":"Kosovo and Metohija","labelBoth":"Kosovo and Metohija","type":"District","iso":"XK-X20~","qid":"Q1255"},"geometry":{"type":"Point","coordinates":[21.2515,42.6882]}},{"type":"Feature","id":"KOS-5907","properties":{"kind":"division","code":"KOS-5907","countryCode":"KOS","name":"Kosovo-Pomoravlje","localName":"Kosovo-Pomoravlje","labelEnglish":"Kosovo-Pomoravlje","labelLocal":"Kosovo-Pomoravlje","labelBoth":"Kosovo-Pomoravlje","type":"District","iso":"XK-X10~","qid":"Q124725"},"geometry":{"type":"Polygon","coordinates":[[[21.4795,42.7323],[21.4239,42.6171],[21.4649,42.5582],[21.619,42.4492],[21.7443,42.6794],[21.4795,42.7323]]]}},{"type":"Feature","id":"label-KOS-5907","properties":{"kind":"division-label","code":"KOS-5907","countryCode":"KOS","name":"Kosovo-Pomoravlje","localName":"Kosovo-Pomoravlje","labelEnglish":"Kosovo-Pomoravlje","labelLocal":"Kosovo-Pomoravlje","labelBoth":"Kosovo-Pomoravlje","type":"District","iso":"XK-X10~","qid":"Q124725"},"geometry":{"type":"Point","coordinates":[21.5916,42.5954]}},{"type":"Feature","id":"KOS-5886","properties":{"kind":"division","code":"KOS-5886","countryCode":"KOS","name":"Peja","localName":"Peja","labelEnglish":"Peja","labelLocal":"Peja","labelBoth":"Peja","type":"District","iso":"XK-X18~","qid":null},"geometry":{"type":"Polygon","coordinates":[[[20.3192,42.8241],[20.0556,42.7639],[20.037,42.7074],[20.1039,42.6531],[20.4393,42.5402],[20.5034,42.5248],[20.4572,42.6684],[20.3192,42.8241]]]}},{"type":"Feature","id":"label-KOS-5886","properties":{"kind":"division-label","code":"KOS-5886","countryCode":"KOS","name":"Peja","localName":"Peja","labelEnglish":"Peja","labelLocal":"Peja","labelBoth":"Peja","type":"District","iso":"XK-X18~","qid":null},"geometry":{"type":"Point","coordinates":[20.3112,42.6569]}},{"type":"Feature","id":"KOS-5891","properties":{"kind":"division","code":"KOS-5891","countryCode":"KOS","name":"Orahovac","localName":"Orahovac","labelEnglish":"Orahovac","labelLocal":"Orahovac","labelBoth":"Orahovac","type":"District","iso":"XK-X17~","qid":null},"geometry":{"type":"Polygon","coordinates":[[[20.5807,42.297],[20.7059,42.3274],[20.7162,42.3812],[20.541,42.5021],[20.5807,42.297]]]}},{"type":"Feature","id":"label-KOS-5891","properties":{"kind":"division-label","code":"KOS-5891","countryCode":"KOS","name":"Orahovac","localName":"Orahovac","labelEnglish":"Orahovac","labelLocal":"Orahovac","labelBoth":"Orahovac","type":"District","iso":"XK-X17~","qid":null},"geometry":{"type":"Point","coordinates":[20.609,42.3901]}},{"type":"Feature","id":"KOS-5896","properties":{"kind":"division","code":"KOS-5896","countryCode":"KOS","name":"Skenderaj/Srbica","localName":"Skenderaj/Srbica","labelEnglish":"Skenderaj/Srbica","labelLocal":"Skenderaj/Srbica","labelBoth":"Skenderaj/Srbica","type":"District","iso":"XK-X22~","qid":null},"geometry":{"type":"Polygon","coordinates":[[[20.6237,42.6972],[20.7592,42.6094],[20.9259,42.7108],[20.8342,42.8069],[20.7444,42.83],[20.6307,42.8231],[20.6237,42.6972]]]}},{"type":"Feature","id":"label-KOS-5896","properties":{"kind":"division-label","code":"KOS-5896","countryCode":"KOS","name":"Skenderaj/Srbica","localName":"Skenderaj/Srbica","labelEnglish":"Skenderaj/Srbica","labelLocal":"Skenderaj/Srbica","labelBoth":"Skenderaj/Srbica","type":"District","iso":"XK-X22~","qid":null},"geometry":{"type":"Point","coordinates":[20.7437,42.7169]}},{"type":"Feature","id":"KOS-5888","properties":{"kind":"division","code":"KOS-5888","countryCode":"KOS","name":"Klina","localName":"Klina","labelEnglish":"Klina","labelLocal":"Klina","labelBoth":"Klina","type":"District","iso":"XK-X08~","qid":null},"geometry":{"type":"Polygon","coordinates":[[[20.6237,42.6972],[20.4572,42.6684],[20.5034,42.5248],[20.541,42.5021],[20.7592,42.6094],[20.6237,42.6972]]]}},{"type":"Feature","id":"label-KOS-5888","properties":{"kind":"division-label","code":"KOS-5888","countryCode":"KOS","name":"Klina","localName":"Klina","labelEnglish":"Klina","labelLocal":"Klina","labelBoth":"Klina","type":"District","iso":"XK-X08~","qid":null},"geometry":{"type":"Point","coordinates":[20.5913,42.5999]}},{"type":"Feature","id":"KOS-5894","properties":{"kind":"division","code":"KOS-5894","countryCode":"KOS","name":"Kosovska Mitrovica","localName":"Kosovska Mitrovica","labelEnglish":"Kosovska Mitrovica","labelLocal":"Kosovska Mitrovica","labelBoth":"Kosovska Mitrovica","type":"District","iso":"XK-X11~","qid":"Q2017517"},"geometry":{"type":"Polygon","coordinates":[[[20.9958,43.0544],[20.8136,42.971],[20.7906,42.8966],[20.7444,42.83],[20.8342,42.8069],[21.0557,42.9227],[20.9958,43.0544]]]}},{"type":"Feature","id":"label-KOS-5894","properties":{"kind":"division-label","code":"KOS-5894","countryCode":"KOS","name":"Kosovska Mitrovica","localName":"Kosovska Mitrovica","labelEnglish":"Kosovska Mitrovica","labelLocal":"Kosovska Mitrovica","labelBoth":"Kosovska Mitrovica","type":"District","iso":"XK-X11~","qid":"Q2017517"},"geometry":{"type":"Point","coordinates":[20.9247,42.9377]}},{"type":"Feature","id":"KOS-5899","properties":{"kind":"division","code":"KOS-5899","countryCode":"KOS","name":"Glogovac","localName":"Glogovac","labelEnglish":"Glogovac","labelLocal":"Glogovac","labelBoth":"Glogovac","type":"District","iso":"XK-X04~","qid":null},"geometry":{"type":"Polygon","coordinates":[[[20.7592,42.6094],[20.8602,42.4971],[20.9752,42.5659],[20.9701,42.6248],[20.9707,42.6844],[20.9259,42.7108],[20.7592,42.6094]]]}},{"type":"Feature","id":"label-KOS-5899","properties":{"kind":"division-label","code":"KOS-5899","countryCode":"KOS","name":"Glogovac","localName":"Glogovac","labelEnglish":"Glogovac","labelLocal":"Glogovac","labelBoth":"Glogovac","type":"District","iso":"XK-X04~","qid":null},"geometry":{"type":"Point","coordinates":[20.8784,42.6021]}},{"type":"Feature","id":"KOS-5911","properties":{"kind":"division","code":"KOS-5911","countryCode":"KOS","name":"Mališevo","localName":"Mališevo","labelEnglish":"Mališevo","labelLocal":"Mališevo","labelBoth":"Mališevo","type":"District","iso":"XK-X14~","qid":null},"geometry":{"type":"Polygon","coordinates":[[[20.7592,42.6094],[20.541,42.5021],[20.7162,42.3812],[20.8521,42.4735],[20.8602,42.4971],[20.7592,42.6094]]]}},{"type":"Feature","id":"label-KOS-5911","properties":{"kind":"division-label","code":"KOS-5911","countryCode":"KOS","name":"Mališevo","localName":"Mališevo","labelEnglish":"Mališevo","labelLocal":"Mališevo","labelBoth":"Mališevo","type":"District","iso":"XK-X14~","qid":null},"geometry":{"type":"Point","coordinates":[20.7392,42.4806]}},{"type":"Feature","id":"KOS-5910","properties":{"kind":"division","code":"KOS-5910","countryCode":"KOS","name":"Suva Reka","localName":"Suva Reka","labelEnglish":"Suva Reka","labelLocal":"Suva Reka","labelBoth":"Suva Reka","type":"District","iso":"XK-X25~","qid":null},"geometry":{"type":"Polygon","coordinates":[[[20.7059,42.3274],[20.856,42.2325],[20.9657,42.2918],[20.947,42.3556],[20.8931,42.453],[20.8521,42.4735],[20.7162,42.3812],[20.7059,42.3274]]]}},{"type":"Feature","id":"label-KOS-5910","properties":{"kind":"division-label","code":"KOS-5910","countryCode":"KOS","name":"Suva Reka","localName":"Suva Reka","labelEnglish":"Suva Reka","labelLocal":"Suva Reka","labelBoth":"Suva Reka","type":"District","iso":"XK-X25~","qid":null},"geometry":{"type":"Point","coordinates":[20.8519,42.3371]}},{"type":"Feature","id":"KOS-5913","properties":{"kind":"division","code":"KOS-5913","countryCode":"KOS","name":"Uroševac/ferizaj","localName":"Uroševac/ferizaj","labelEnglish":"Uroševac/ferizaj","labelLocal":"Uroševac/ferizaj","labelBoth":"Uroševac/ferizaj","type":"District","iso":"XK-X26~","qid":null},"geometry":{"type":"Polygon","coordinates":[[[21.1111,42.2761],[21.2444,42.3171],[21.2752,42.4017],[21.2496,42.4479],[21.0957,42.4505],[20.947,42.3556],[20.9657,42.2918],[21.1111,42.2761]]]}},{"type":"Feature","id":"label-KOS-5913","properties":{"kind":"division-label","code":"KOS-5913","countryCode":"KOS","name":"Uroševac/ferizaj","localName":"Uroševac/ferizaj","labelEnglish":"Uroševac/ferizaj","labelLocal":"Uroševac/ferizaj","labelBoth":"Uroševac/ferizaj","type":"District","iso":"XK-X26~","qid":null},"geometry":{"type":"Point","coordinates":[21.1389,42.3481]}},{"type":"Feature","id":"KOS-5906","properties":{"kind":"division","code":"KOS-5906","countryCode":"KOS","name":"Novo Brdo","localName":"Novo Brdo","labelEnglish":"Novo Brdo","labelLocal":"Novo Brdo","labelBoth":"Novo Brdo","type":"District","iso":"XK-X15~","qid":null},"geometry":{"type":"Polygon","coordinates":[[[21.2934,42.5566],[21.4649,42.5582],[21.4239,42.6171],[21.3265,42.5814],[21.2934,42.5566]]]}},{"type":"Feature","id":"label-KOS-5906","properties":{"kind":"division-label","code":"KOS-5906","countryCode":"KOS","name":"Novo Brdo","localName":"Novo Brdo","labelEnglish":"Novo Brdo","labelLocal":"Novo Brdo","labelBoth":"Novo Brdo","type":"District","iso":"XK-X15~","qid":null},"geometry":{"type":"Point","coordinates":[21.3818,42.58]}},{"type":"Feature","id":"KOS-5900","properties":{"kind":"division","code":"KOS-5900","countryCode":"KOS","name":"Obiliq","localName":"Obiliq","labelEnglish":"Obiliq","labelLocal":"Obiliq","labelBoth":"Obiliq","type":"District","iso":"XK-X16~","qid":null},"geometry":{"type":"Polygon","coordinates":[[[21.0974,42.7947],[20.9707,42.6844],[20.9701,42.6248],[21.1008,42.653],[21.1111,42.7633],[21.0974,42.7947]]]}},{"type":"Feature","id":"label-KOS-5900","properties":{"kind":"division-label","code":"KOS-5900","countryCode":"KOS","name":"Obiliq","localName":"Obiliq","labelEnglish":"Obiliq","labelLocal":"Obiliq","labelBoth":"Obiliq","type":"District","iso":"XK-X16~","qid":null},"geometry":{"type":"Point","coordinates":[21.055,42.6794]}},{"type":"Feature","id":"KOS-5898","properties":{"kind":"division","code":"KOS-5898","countryCode":"KOS","name":"Kosovo Polje","localName":"Kosovo Polje","labelEnglish":"Kosovo Polje","labelLocal":"Kosovo Polje","labelBoth":"Kosovo Polje","type":"District","iso":"XK-X09~","qid":null},"geometry":{"type":"Polygon","coordinates":[[[21.1008,42.653],[20.9701,42.6248],[20.9752,42.5659],[21.0829,42.5735],[21.1008,42.653]]]}},{"type":"Feature","id":"label-KOS-5898","properties":{"kind":"division-label","code":"KOS-5898","countryCode":"KOS","name":"Kosovo Polje","localName":"Kosovo Polje","labelEnglish":"Kosovo Polje","labelLocal":"Kosovo Polje","labelBoth":"Kosovo Polje","type":"District","iso":"XK-X09~","qid":null},"geometry":{"type":"Point","coordinates":[21.0358,42.6041]}},{"type":"Feature","id":"KOS-5903","properties":{"kind":"division","code":"KOS-5903","countryCode":"KOS","name":"Lipljan","localName":"Lipljan","labelEnglish":"Lipljan","labelLocal":"Lipljan","labelBoth":"Lipljan","type":"District","iso":"XK-X13~","qid":null},"geometry":{"type":"Polygon","coordinates":[[[20.8602,42.4971],[20.8521,42.4735],[20.8931,42.453],[21.0957,42.4505],[21.2496,42.4479],[21.2934,42.5566],[21.3265,42.5814],[21.0829,42.5735],[20.9752,42.5659],[20.8602,42.4971]]]}},{"type":"Feature","id":"label-KOS-5903","properties":{"kind":"division-label","code":"KOS-5903","countryCode":"KOS","name":"Lipljan","localName":"Lipljan","labelEnglish":"Lipljan","labelLocal":"Lipljan","labelBoth":"Lipljan","type":"District","iso":"XK-X13~","qid":null},"geometry":{"type":"Point","coordinates":[21.108,42.5049]}},{"type":"Feature","id":"KOS-5912","properties":{"kind":"division","code":"KOS-5912","countryCode":"KOS","name":"Štimlje","localName":"Štimlje","labelEnglish":"Štimlje","labelLocal":"Štimlje","labelBoth":"Štimlje","type":"District","iso":"XK-X23~","qid":null},"geometry":{"type":"Polygon","coordinates":[[[21.0957,42.4505],[20.8931,42.453],[20.947,42.3556],[21.0957,42.4505]]]}},{"type":"Feature","id":"label-KOS-5912","properties":{"kind":"division-label","code":"KOS-5912","countryCode":"KOS","name":"Štimlje","localName":"Štimlje","labelEnglish":"Štimlje","labelLocal":"Štimlje","labelBoth":"Štimlje","type":"District","iso":"XK-X23~","qid":null},"geometry":{"type":"Point","coordinates":[21.0042,42.4144]}},{"type":"Feature","id":"KOS-5895","properties":{"kind":"division","code":"KOS-5895","countryCode":"KOS","name":"Vučitrn","localName":"Vučitrn","labelEnglish":"Vučitrn","labelLocal":"Vučitrn","labelBoth":"Vučitrn","type":"District","iso":"XK-X28~","qid":null},"geometry":{"type":"Polygon","coordinates":[[[21.0557,42.9227],[20.8342,42.8069],[20.9259,42.7108],[20.9707,42.6844],[21.0974,42.7947],[21.0557,42.9227]]]}},{"type":"Feature","id":"label-KOS-5895","properties":{"kind":"division-label","code":"KOS-5895","countryCode":"KOS","name":"Vučitrn","localName":"Vučitrn","labelEnglish":"Vučitrn","labelLocal":"Vučitrn","labelBoth":"Vučitrn","type":"District","iso":"XK-X28~","qid":null},"geometry":{"type":"Point","coordinates":[20.9843,42.792]}}]}