{"type":"FeatureCollection","features":[{"type":"Feature","id":"KWT-1667","properties":{"kind":"division","code":"KWT-1667","countryCode":"KWT","name":"Al Jahra","localName":"Al Jahra","labelEnglish":"Al Jahra","labelLocal":"Al Jahra","labelBoth":"Al Jahra","type":"Province","iso":"KW-JA","qid":"Q405701"},"geometry":{"type":"MultiPolygon","coordinates":[[[[47.948,29.994],[47.3582,30.0921],[47.1105,29.9609],[46.8535,29.4446],[46.5615,29.1242],[46.5324,29.0957],[47.4463,28.9762],[47.7468,29.049],[47.8417,29.2663],[47.8649,29.31],[47.8585,29.3232],[47.7047,29.3636],[47.9655,29.5763],[48.1809,29.5622],[48.0217,29.7797],[47.948,29.994]]],[[[48.3527,29.7098],[48.1887,29.9835],[48.0461,29.8004],[48.229,29.5999],[48.3527,29.7098]]]]}},{"type":"Feature","id":"label-KWT-1667","properties":{"kind":"division-label","code":"KWT-1667","countryCode":"KWT","name":"Al Jahra","localName":"Al Jahra","labelEnglish":"Al Jahra","labelLocal":"Al Jahra","labelBoth":"Al Jahra","type":"Province","iso":"KW-JA","qid":"Q405701"},"geometry":{"type":"Point","coordinates":[48.2027,29.7843]}},{"type":"Feature","id":"KWT-1665","properties":{"kind":"division","code":"KWT-1665","countryCode":"KWT","name":"Al Ahmadi","localName":"Al Ahmadi","labelEnglish":"Al Ahmadi","labelLocal":"Al Ahmadi","labelBoth":"Al Ahmadi","type":"Province","iso":"KW-AH","qid":"Q552354"},"geometry":{"type":"Polygon","coordinates":[[[47.4463,28.9762],[47.6681,28.5335],[48.4328,28.5405],[48.1061,29.2135],[48.0346,29.2087],[47.8417,29.2663],[47.7468,29.049],[47.4463,28.9762]]]}},{"type":"Feature","id":"label-KWT-1665","properties":{"kind":"division-label","code":"KWT-1665","countryCode":"KWT","name":"Al Ahmadi","localName":"Al Ahmadi","labelEnglish":"Al Ahmadi","labelLocal":"Al Ahmadi","labelBoth":"Al Ahmadi","type":"Province","iso":"KW-AH","qid":"Q552354"},"geometry":{"type":"Point","coordinates":[47.9393,28.8653]}},{"type":"Feature","id":"KWT-1666","properties":{"kind":"division","code":"KWT-1666","countryCode":"KWT","name":"Mubarak Al-Kabeer","localName":"Mubarak Al-Kabeer","labelEnglish":"Mubarak Al-Kabeer","labelLocal":"Mubarak Al-Kabeer","labelBoth":"Mubarak Al-Kabeer","type":"Province","iso":"KW-MU","qid":"Q913370"},"geometry":{"type":"Polygon","coordinates":[[[48.0938,29.3104],[48.0087,29.2954],[48.0346,29.2087],[48.1061,29.2135],[48.0938,29.3104]]]}},{"type":"Feature","id":"label-KWT-1666","properties":{"kind":"division-label","code":"KWT-1666","countryCode":"KWT","name":"Mubarak Al-Kabeer","localName":"Mubarak Al-Kabeer","labelEnglish":"Mubarak Al-Kabeer","labelLocal":"Mubarak Al-Kabeer","labelBoth":"Mubarak Al-Kabeer","type":"Province","iso":"KW-MU","qid":"Q913370"},"geometry":{"type":"Point","coordinates":[48.0548,29.2535]}},{"type":"Feature","id":"KWT-3506","properties":{"kind":"division","code":"KWT-3506","countryCode":"KWT","name":"Hawally","localName":"Hawally","labelEnglish":"Hawally","labelLocal":"Hawally","labelBoth":"Hawally","type":"Province","iso":"KW-HA","qid":"Q747432"},"geometry":{"type":"Polygon","coordinates":[[[48.0084,29.3692],[47.9918,29.3304],[48.0087,29.2954],[48.0938,29.3104],[48.0084,29.3692]]]}},{"type":"Feature","id":"label-KWT-3506","properties":{"kind":"division-label","code":"KWT-3506","countryCode":"KWT","name":"Hawally","localName":"Hawally","labelEnglish":"Hawally","labelLocal":"Hawally","labelBoth":"Hawally","type":"Province","iso":"KW-HA","qid":"Q747432"},"geometry":{"type":"Point","coordinates":[48.0306,29.3243]}},{"type":"Feature","id":"KWT-1663","properties":{"kind":"division","code":"KWT-1663","countryCode":"KWT","name":"Capital","localName":"Capital","labelEnglish":"Capital","labelLocal":"Capital","labelBoth":"Capital","type":"Province","iso":"KW-KU","qid":"Q1046645"},"geometry":{"type":"Polygon","coordinates":[[[47.8585,29.3232],[47.8649,29.31],[47.9918,29.3304],[48.0084,29.3692],[47.8585,29.3232]]]}},{"type":"Feature","id":"label-KWT-1663","properties":{"kind":"division-label","code":"KWT-1663","countryCode":"KWT","name":"Capital","localName":"Capital","labelEnglish":"Capital","labelLocal":"Capital","labelBoth":"Capital","type":"Province","iso":"KW-KU","qid":"Q1046645"},"geometry":{"type":"Point","coordinates":[48.3318,29.4497]}},{"type":"Feature","id":"KWT-1664","properties":{"kind":"division","code":"KWT-1664","countryCode":"KWT","name":"Al Farwaniyah","localName":"Al Farwaniyah","labelEnglish":"Al Farwaniyah","labelLocal":"Al Farwaniyah","labelBoth":"Al Farwaniyah","type":"Province","iso":"KW-FA","qid":"Q1072757"},"geometry":{"type":"Polygon","coordinates":[[[47.8649,29.31],[47.8417,29.2663],[48.0346,29.2087],[48.0087,29.2954],[47.9918,29.3304],[47.8649,29.31]]]}},{"type":"Feature","id":"label-KWT-1664","properties":{"kind":"division-label","code":"KWT-1664","countryCode":"KWT","name":"Al Farwaniyah","localName":"Al Farwaniyah","labelEnglish":"Al Farwaniyah","labelLocal":"Al Farwaniyah","labelBoth":"Al Farwaniyah","type":"Province","iso":"KW-FA","qid":"Q1072757"},"geometry":{"type":"Point","coordinates":[47.9381,29.2592]}}]}