{"type":"FeatureCollection","features":[{"type":"Feature","id":"LAO-3291","properties":{"kind":"division","code":"LAO-3291","countryCode":"LAO","name":"Phongsaly","localName":"Phongsaly","labelEnglish":"Phongsaly","labelLocal":"Phongsaly","labelBoth":"Phongsaly","type":"Province","iso":"LA-PH","qid":"Q334868"},"geometry":{"type":"Polygon","coordinates":[[[102.1187,22.3975],[101.6545,22.4461],[101.5182,22.2282],[101.8038,21.6259],[101.7225,21.3042],[101.8215,21.2211],[102.3094,20.9625],[102.5089,20.869],[102.9259,21.1406],[102.9741,21.5753],[102.8265,21.8213],[102.6507,21.6578],[102.591,21.9014],[102.1187,22.3975]]]}},{"type":"Feature","id":"label-LAO-3291","properties":{"kind":"division-label","code":"LAO-3291","countryCode":"LAO","name":"Phongsaly","localName":"Phongsaly","labelEnglish":"Phongsaly","labelLocal":"Phongsaly","labelBoth":"Phongsaly","type":"Province","iso":"LA-PH","qid":"Q334868"},"geometry":{"type":"Point","coordinates":[102.245,21.6153]}},{"type":"Feature","id":"LAO-3290","properties":{"kind":"division","code":"LAO-3290","countryCode":"LAO","name":"Oudomxay","localName":"Oudomxay","labelEnglish":"Oudomxay","labelLocal":"Oudomxay","labelBoth":"Oudomxay","type":"Province","iso":"LA-OU","qid":"Q465961"},"geometry":{"type":"Polygon","coordinates":[[[101.8215,21.2211],[101.7685,21.1605],[101.7309,20.9987],[101.4085,20.7318],[101.5607,20.6332],[101.4552,20.3557],[101.2286,20.3083],[101.244,20.136],[100.7417,19.957],[100.7632,19.8707],[101.5594,19.8235],[101.7076,19.9308],[102.1521,20.0916],[102.1432,20.4094],[102.3551,20.7409],[102.3094,20.9625],[101.8215,21.2211]]]}},{"type":"Feature","id":"label-LAO-3290","properties":{"kind":"division-label","code":"LAO-3290","countryCode":"LAO","name":"Oudomxay","localName":"Oudomxay","labelEnglish":"Oudomxay","labelLocal":"Oudomxay","labelBoth":"Oudomxay","type":"Province","iso":"LA-OU","qid":"Q465961"},"geometry":{"type":"Point","coordinates":[101.548,20.161]}},{"type":"Feature","id":"LAO-3272","properties":{"kind":"division","code":"LAO-3272","countryCode":"LAO","name":"Luang Namtha","localName":"Luang Namtha","labelEnglish":"Luang Namtha","labelLocal":"Luang Namtha","labelBoth":"Luang Namtha","type":"Province","iso":"LA-LM","qid":"Q948691"},"geometry":{"type":"Polygon","coordinates":[[[101.159,21.5527],[100.7254,21.3117],[100.5157,20.8865],[100.6078,20.8399],[100.832,20.4998],[101.2286,20.3083],[101.4552,20.3557],[101.5607,20.6332],[101.4085,20.7318],[101.7309,20.9987],[101.7685,21.1605],[101.4951,21.2428],[101.2753,21.1741],[101.159,21.5527]]]}},{"type":"Feature","id":"label-LAO-3272","properties":{"kind":"division-label","code":"LAO-3272","countryCode":"LAO","name":"Luang Namtha","localName":"Luang Namtha","labelEnglish":"Luang Namtha","labelLocal":"Luang Namtha","labelBoth":"Luang Namtha","type":"Province","iso":"LA-LM","qid":"Q948691"},"geometry":{"type":"Point","coordinates":[101.148,20.9099]}},{"type":"Feature","id":"LAO-3271","properties":{"kind":"division","code":"LAO-3271","countryCode":"LAO","name":"Bokeo","localName":"Bokeo","labelEnglish":"Bokeo","labelLocal":"Bokeo","labelBoth":"Bokeo","type":"Province","iso":"LA-BK","qid":"Q334884"},"geometry":{"type":"Polygon","coordinates":[[[100.6078,20.8399],[100.2113,20.6974],[100.0993,20.3178],[100.3065,20.3997],[100.5487,20.158],[100.4077,19.7943],[100.7632,19.8707],[100.7417,19.957],[101.244,20.136],[101.2286,20.3083],[100.832,20.4998],[100.6078,20.8399]]]}},{"type":"Feature","id":"label-LAO-3271","properties":{"kind":"division-label","code":"LAO-3271","countryCode":"LAO","name":"Bokeo","localName":"Bokeo","labelEnglish":"Bokeo","labelLocal":"Bokeo","labelBoth":"Bokeo","type":"Province","iso":"LA-BK","qid":"Q334884"},"geometry":{"type":"Point","coordinates":[100.672,20.3044]}},{"type":"Feature","id":"LAO-3278","properties":{"kind":"division","code":"LAO-3278","countryCode":"LAO","name":"Sainyabuli","localName":"Sainyabuli","labelEnglish":"Sainyabuli","labelLocal":"Sainyabuli","labelBoth":"Sainyabuli","type":"Province","iso":"LA-XA","qid":"Q465929"},"geometry":{"type":"Polygon","coordinates":[[[100.39,19.7244],[100.5748,19.5083],[100.8746,19.6129],[101.2462,19.5703],[101.2291,19.1436],[101.3179,19.0501],[101.2401,18.6736],[101.0741,18.3716],[101.1652,18.0534],[100.9559,17.7075],[100.9377,17.5555],[101.1323,17.4617],[101.5455,17.8137],[101.4208,18.2147],[101.7426,18.5022],[101.8617,18.7933],[101.8104,19.0499],[101.9063,19.4032],[101.7076,19.9308],[101.5594,19.8235],[100.7632,19.8707],[100.4077,19.7943],[100.39,19.7244]]]}},{"type":"Feature","id":"label-LAO-3278","properties":{"kind":"division-label","code":"LAO-3278","countryCode":"LAO","name":"Sainyabuli","localName":"Sainyabuli","labelEnglish":"Sainyabuli","labelLocal":"Sainyabuli","labelBoth":"Sainyabuli","type":"Province","iso":"LA-XA","qid":"Q465929"},"geometry":{"type":"Point","coordinates":[101.143,17.7502]}},{"type":"Feature","id":"LAO-3292","properties":{"kind":"division","code":"LAO-3292","countryCode":"LAO","name":"Bolikhamsai","localName":"Bolikhamsai","labelEnglish":"Bolikhamsai","labelLocal":"Bolikhamsai","labelBoth":"Bolikhamsai","type":"Province","iso":"LA-BL","qid":"Q2403514"},"geometry":{"type":"Polygon","coordinates":[[[103.2963,18.2952],[103.3866,18.4415],[104,18.3184],[104.2033,18.0186],[104.282,17.8615],[104.5497,18.2295],[104.8313,18.0038],[105.1322,17.9912],[105.2569,18.2475],[105.08,18.4544],[105.1695,18.6183],[104.722,18.792],[104.2596,19.1041],[104.1216,18.8259],[103.8855,18.8771],[103.4842,18.9304],[103.3683,18.5514],[102.8217,18.5107],[102.9039,18.2935],[103.0877,18.1387],[103.2963,18.2952]]]}},{"type":"Feature","id":"label-LAO-3292","properties":{"kind":"division-label","code":"LAO-3292","countryCode":"LAO","name":"Bolikhamsai","localName":"Bolikhamsai","labelEnglish":"Bolikhamsai","labelLocal":"Bolikhamsai","labelBoth":"Bolikhamsai","type":"Province","iso":"LA-BL","qid":"Q2403514"},"geometry":{"type":"Point","coordinates":[104.039,18.538]}},{"type":"Feature","id":"LAO-3293","properties":{"kind":"division","code":"LAO-3293","countryCode":"LAO","name":"Khammouane","localName":"Khammouane","labelEnglish":"Khammouane","labelLocal":"Khammouane","labelBoth":"Khammouane","type":"Province","iso":"LA-KH","qid":"Q506641"},"geometry":{"type":"Polygon","coordinates":[[[104.7463,16.9435],[104.8634,17.0858],[105.6546,17.1106],[106.404,17.0146],[105.7353,17.664],[105.6034,17.9692],[105.2569,18.2475],[105.1322,17.9912],[104.8313,18.0038],[104.5497,18.2295],[104.282,17.8615],[104.8164,17.3728],[104.7463,16.9435]]]}},{"type":"Feature","id":"label-LAO-3293","properties":{"kind":"division-label","code":"LAO-3293","countryCode":"LAO","name":"Khammouane","localName":"Khammouane","labelEnglish":"Khammouane","labelLocal":"Khammouane","labelBoth":"Khammouane","type":"Province","iso":"LA-KH","qid":"Q506641"},"geometry":{"type":"Point","coordinates":[105.343,17.6151]}},{"type":"Feature","id":"LAO-3282","properties":{"kind":"division","code":"LAO-3282","countryCode":"LAO","name":"Savannakhet","localName":"Savannakhet","labelEnglish":"Savannakhet","labelLocal":"Savannakhet","labelBoth":"Savannakhet","type":"Province","iso":"LA-SV","qid":"Q465940"},"geometry":{"type":"Polygon","coordinates":[[[104.7579,16.8189],[104.7545,16.5289],[104.988,16.294],[105.107,16.0959],[105.4232,16.005],[105.7901,15.8854],[106.1402,15.9909],[106.1211,16.1428],[106.6439,16.2167],[106.7515,16.4283],[106.5351,16.6835],[106.5336,16.9506],[106.404,17.0146],[105.6546,17.1106],[104.8634,17.0858],[104.7463,16.9435],[104.7579,16.8189]]]}},{"type":"Feature","id":"label-LAO-3282","properties":{"kind":"division-label","code":"LAO-3282","countryCode":"LAO","name":"Savannakhet","localName":"Savannakhet","labelEnglish":"Savannakhet","labelLocal":"Savannakhet","labelBoth":"Savannakhet","type":"Province","iso":"LA-SV","qid":"Q465940"},"geometry":{"type":"Point","coordinates":[105.771,16.4937]}},{"type":"Feature","id":"LAO-3281","properties":{"kind":"division","code":"LAO-3281","countryCode":"LAO","name":"Salavan","localName":"Salavan","labelEnglish":"Salavan","labelLocal":"Salavan","labelBoth":"Salavan","type":"Province","iso":"LA-SL","qid":"Q302656"},"geometry":{"type":"Polygon","coordinates":[[[105.4232,16.005],[105.412,15.7998],[105.6129,15.7215],[105.5922,15.4275],[106.0727,15.4599],[106.1607,15.2884],[106.3735,15.3999],[106.3512,15.513],[106.6791,15.5452],[106.6549,15.7527],[106.8176,16.0493],[107.136,16.1848],[107.068,16.2908],[106.8229,16.531],[106.7515,16.4283],[106.6439,16.2167],[106.1211,16.1428],[106.1402,15.9909],[105.7901,15.8854],[105.4232,16.005]]]}},{"type":"Feature","id":"label-LAO-3281","properties":{"kind":"division-label","code":"LAO-3281","countryCode":"LAO","name":"Salavan","localName":"Salavan","labelEnglish":"Salavan","labelLocal":"Salavan","labelBoth":"Salavan","type":"Province","iso":"LA-SL","qid":"Q302656"},"geometry":{"type":"Point","coordinates":[106.248,15.7614]}},{"type":"Feature","id":"LAO-3283","properties":{"kind":"division","code":"LAO-3283","countryCode":"LAO","name":"Vientiane Prefecture","localName":"Vientiane Prefecture","labelEnglish":"Vientiane Prefecture","labelLocal":"Vientiane Prefecture","labelBoth":"Vientiane Prefecture","type":"Municipality|Prefecture","iso":"LA-VI","qid":"Q390377"},"geometry":{"type":"Polygon","coordinates":[[[102.1074,18.2124],[102.6676,17.8501],[103.0877,18.1387],[102.9039,18.2935],[102.6194,18.2253],[102.0507,18.4174],[102.0555,18.1923],[102.1074,18.2124]]]}},{"type":"Feature","id":"label-LAO-3283","properties":{"kind":"division-label","code":"LAO-3283","countryCode":"LAO","name":"Vientiane Prefecture","localName":"Vientiane Prefecture","labelEnglish":"Vientiane Prefecture","labelLocal":"Vientiane Prefecture","labelBoth":"Vientiane Prefecture","type":"Municipality|Prefecture","iso":"LA-VI","qid":"Q390377"},"geometry":{"type":"Point","coordinates":[102.563,18.103]}},{"type":"Feature","id":"LAO-3284","properties":{"kind":"division","code":"LAO-3284","countryCode":"LAO","name":"Vientiane","localName":"Vientiane","labelEnglish":"Vientiane","labelLocal":"Vientiane","labelBoth":"Vientiane","type":"Province","iso":"LA-VI","qid":"Q720066"},"geometry":{"type":"Polygon","coordinates":[[[102.0555,18.1923],[102.0507,18.4174],[102.6194,18.2253],[102.9039,18.2935],[102.8217,18.5107],[103.3683,18.5514],[103.4842,18.9304],[103.8855,18.8771],[103.8858,19.0089],[103.5082,19.1493],[103.2632,19.122],[102.7459,19.3144],[102.5758,19.2243],[102.3709,19.3892],[102.097,19.3843],[101.8104,19.0499],[101.8617,18.7933],[101.7426,18.5022],[101.4208,18.2147],[101.5455,17.8137],[102.0555,18.1923]]]}},{"type":"Feature","id":"label-LAO-3284","properties":{"kind":"division-label","code":"LAO-3284","countryCode":"LAO","name":"Vientiane","localName":"Vientiane","labelEnglish":"Vientiane","labelLocal":"Vientiane","labelBoth":"Vientiane","type":"Province","iso":"LA-VI","qid":"Q720066"},"geometry":{"type":"Point","coordinates":[102.156,18.9186]}},{"type":"Feature","id":"LAO-3280","properties":{"kind":"division","code":"LAO-3280","countryCode":"LAO","name":"Champasak","localName":"Champasak","labelEnglish":"Champasak","labelLocal":"Champasak","labelBoth":"Champasak","type":"Province","iso":"LA-CH","qid":"Q334888"},"geometry":{"type":"Polygon","coordinates":[[[105.5922,15.4275],[105.4519,15.0948],[105.5931,14.9908],[105.416,14.4282],[105.1843,14.3457],[105.3378,14.11],[105.5332,14.1643],[105.8956,13.9248],[106.1446,14.0724],[105.974,14.3658],[106.34,14.449],[106.1733,14.8269],[106.3421,15.0056],[106.6108,14.7682],[106.8192,14.8946],[106.684,15.1382],[106.3735,15.3999],[106.1607,15.2884],[106.0727,15.4599],[105.5922,15.4275]]]}},{"type":"Feature","id":"label-LAO-3280","properties":{"kind":"division-label","code":"LAO-3280","countryCode":"LAO","name":"Champasak","localName":"Champasak","labelEnglish":"Champasak","labelLocal":"Champasak","labelBoth":"Champasak","type":"Province","iso":"LA-CH","qid":"Q334888"},"geometry":{"type":"Point","coordinates":[106.003,14.1093]}},{"type":"Feature","id":"LAO-3289","properties":{"kind":"division","code":"LAO-3289","countryCode":"LAO","name":"Luang Prabang","localName":"Luang Prabang","labelEnglish":"Luang Prabang","labelLocal":"Luang Prabang","labelBoth":"Luang Prabang","type":"Province","iso":"LA-LP","qid":"Q747881"},"geometry":{"type":"Polygon","coordinates":[[[102.9259,21.1406],[102.5089,20.869],[102.3094,20.9625],[102.3551,20.7409],[102.1432,20.4094],[102.1521,20.0916],[101.7076,19.9308],[101.9063,19.4032],[101.8104,19.0499],[102.097,19.3843],[102.3709,19.3892],[102.5758,19.2243],[102.7459,19.3144],[102.6711,19.5263],[103.1382,19.9151],[103.2356,20.3125],[103.2266,20.707],[103.3891,20.7943],[103.2258,20.8264],[102.9259,21.1406]]]}},{"type":"Feature","id":"label-LAO-3289","properties":{"kind":"division-label","code":"LAO-3289","countryCode":"LAO","name":"Luang Prabang","localName":"Luang Prabang","labelEnglish":"Luang Prabang","labelLocal":"Luang Prabang","labelBoth":"Luang Prabang","type":"Province","iso":"LA-LP","qid":"Q747881"},"geometry":{"type":"Point","coordinates":[102.549,20.0788]}},{"type":"Feature","id":"LAO-3288","properties":{"kind":"division","code":"LAO-3288","countryCode":"LAO","name":"Houaphanh","localName":"Houaphanh","labelEnglish":"Houaphanh","labelLocal":"Houaphanh","labelBoth":"Houaphanh","type":"Province","iso":"LA-HO","qid":"Q502997"},"geometry":{"type":"Polygon","coordinates":[[[104.6141,20.6426],[104.0567,20.9588],[103.6654,20.6583],[103.3891,20.7943],[103.2266,20.707],[103.2356,20.3125],[103.1382,19.9151],[103.4705,19.8684],[103.7951,20.0283],[103.9521,19.7826],[104.2092,19.8546],[104.2002,19.6986],[104.5058,19.6028],[104.9457,19.9924],[104.6809,20.341],[104.3598,20.4397],[104.6141,20.6426]]]}},{"type":"Feature","id":"label-LAO-3288","properties":{"kind":"division-label","code":"LAO-3288","countryCode":"LAO","name":"Houaphanh","localName":"Houaphanh","labelEnglish":"Houaphanh","labelLocal":"Houaphanh","labelBoth":"Houaphanh","type":"Province","iso":"LA-HO","qid":"Q502997"},"geometry":{"type":"Point","coordinates":[104.039,20.3729]}},{"type":"Feature","id":"LAO-3286","properties":{"kind":"division","code":"LAO-3286","countryCode":"LAO","name":"Xiangkhouang","localName":"Xiangkhouang","labelEnglish":"Xiangkhouang","labelLocal":"Xiangkhouang","labelBoth":"Xiangkhouang","type":"Province","iso":"LA-XI","qid":"Q465947"},"geometry":{"type":"Polygon","coordinates":[[[104.2002,19.6986],[104.2092,19.8546],[103.9521,19.7826],[103.7951,20.0283],[103.4705,19.8684],[103.1382,19.9151],[102.6711,19.5263],[102.7459,19.3144],[103.2632,19.122],[103.5082,19.1493],[103.8858,19.0089],[103.8855,18.8771],[104.1216,18.8259],[104.2596,19.1041],[103.8484,19.2999],[104.2002,19.6986]]]}},{"type":"Feature","id":"label-LAO-3286","properties":{"kind":"division-label","code":"LAO-3286","countryCode":"LAO","name":"Xiangkhouang","localName":"Xiangkhouang","labelEnglish":"Xiangkhouang","labelLocal":"Xiangkhouang","labelBoth":"Xiangkhouang","type":"Province","iso":"LA-XI","qid":"Q465947"},"geometry":{"type":"Point","coordinates":[103.46,19.5113]}},{"type":"Feature","id":"LAO-3295","properties":{"kind":"division","code":"LAO-3295","countryCode":"LAO","name":"Sekong","localName":"Sekong","labelEnglish":"Sekong","labelLocal":"Sekong","labelBoth":"Sekong","type":"Province","iso":"LA-XE","qid":"Q585707"},"geometry":{"type":"Polygon","coordinates":[[[107.136,16.1848],[106.8176,16.0493],[106.6549,15.7527],[106.6791,15.5452],[106.3512,15.513],[106.3735,15.3999],[106.684,15.1382],[106.7907,15.2547],[107.1686,15.2763],[107.5024,15.044],[107.6576,15.2824],[107.5764,15.4031],[107.1603,15.7587],[107.4333,16.0555],[107.136,16.1848]]]}},{"type":"Feature","id":"label-LAO-3295","properties":{"kind":"division-label","code":"LAO-3295","countryCode":"LAO","name":"Sekong","localName":"Sekong","labelEnglish":"Sekong","labelLocal":"Sekong","labelBoth":"Sekong","type":"Province","iso":"LA-XE","qid":"Q585707"},"geometry":{"type":"Point","coordinates":[106.982,15.6414]}},{"type":"Feature","id":"LAO-3294","properties":{"kind":"division","code":"LAO-3294","countryCode":"LAO","name":"Attapeu","localName":"Attapeu","labelEnglish":"Attapeu","labelLocal":"Attapeu","labelBoth":"Attapeu","type":"Province","iso":"LA-AT","qid":"Q503004"},"geometry":{"type":"Polygon","coordinates":[[[107.5024,15.044],[107.1686,15.2763],[106.7907,15.2547],[106.684,15.1382],[106.8192,14.8946],[106.6108,14.7682],[106.3421,15.0056],[106.1733,14.8269],[106.34,14.449],[106.5125,14.5904],[106.622,14.4576],[106.9461,14.3235],[107.5204,14.7046],[107.5024,15.044]]]}},{"type":"Feature","id":"label-LAO-3294","properties":{"kind":"division-label","code":"LAO-3294","countryCode":"LAO","name":"Attapeu","localName":"Attapeu","labelEnglish":"Attapeu","labelLocal":"Attapeu","labelBoth":"Attapeu","type":"Province","iso":"LA-AT","qid":"Q503004"},"geometry":{"type":"Point","coordinates":[106.866,14.7848]}}]}