{"type":"FeatureCollection","features":[{"type":"Feature","id":"LBN-3059","properties":{"kind":"division","code":"LBN-3059","countryCode":"LBN","name":"Nabatieh","localName":"Nabatieh","labelEnglish":"Nabatieh","labelLocal":"Nabatieh","labelBoth":"Nabatieh","type":"Province","iso":"LB-NA","qid":"Q458417"},"geometry":{"type":"Polygon","coordinates":[[[35.2888,33.0992],[35.4801,33.0874],[35.8211,33.4067],[35.8451,33.4187],[35.6349,33.4333],[35.2986,33.3692],[35.2888,33.0992]]]}},{"type":"Feature","id":"label-LBN-3059","properties":{"kind":"division-label","code":"LBN-3059","countryCode":"LBN","name":"Nabatieh","localName":"Nabatieh","labelEnglish":"Nabatieh","labelLocal":"Nabatieh","labelBoth":"Nabatieh","type":"Province","iso":"LB-NA","qid":"Q458417"},"geometry":{"type":"Point","coordinates":[35.5666,33.3303]}},{"type":"Feature","id":"LBN-3060","properties":{"kind":"division","code":"LBN-3060","countryCode":"LBN","name":"South","localName":"South","labelEnglish":"South","labelLocal":"South","labelBoth":"South","type":"Province","iso":"LB-JA","qid":"Q223643"},"geometry":{"type":"Polygon","coordinates":[[[35.2888,33.0992],[35.2986,33.3692],[35.6349,33.4333],[35.6136,33.5097],[35.3771,33.5895],[35.1052,33.089],[35.2888,33.0992]]]}},{"type":"Feature","id":"label-LBN-3060","properties":{"kind":"division-label","code":"LBN-3060","countryCode":"LBN","name":"South","localName":"South","labelEnglish":"South","labelLocal":"South","labelBoth":"South","type":"Province","iso":"LB-JA","qid":"Q223643"},"geometry":{"type":"Point","coordinates":[35.2966,33.2661]}},{"type":"Feature","id":"LBN-3022","properties":{"kind":"division","code":"LBN-3022","countryCode":"LBN","name":"Beqaa","localName":"Beqaa","labelEnglish":"Beqaa","labelLocal":"Beqaa","labelBoth":"Beqaa","type":"Province","iso":"LB-BI","qid":"Q319632"},"geometry":{"type":"Polygon","coordinates":[[[35.8701,33.4312],[35.9216,33.6403],[36.6036,34.2001],[36.3299,34.4986],[36.0113,34.1522],[35.6136,33.5097],[35.6349,33.4333],[35.8451,33.4187],[35.8701,33.4312]]]}},{"type":"Feature","id":"label-LBN-3022","properties":{"kind":"division-label","code":"LBN-3022","countryCode":"LBN","name":"Beqaa","localName":"Beqaa","labelEnglish":"Beqaa","labelLocal":"Beqaa","labelBoth":"Beqaa","type":"Province","iso":"LB-BI","qid":"Q319632"},"geometry":{"type":"Point","coordinates":[36.1086,34.0494]}},{"type":"Feature","id":"LBN-3023","properties":{"kind":"division","code":"LBN-3023","countryCode":"LBN","name":"North","localName":"North","labelEnglish":"North","labelLocal":"North","labelBoth":"North","type":"Province","iso":"LB-AS","qid":"Q390267"},"geometry":{"type":"Polygon","coordinates":[[[36.3299,34.4986],[36.1121,34.6295],[35.9699,34.6498],[35.645,34.2177],[36.0113,34.1522],[36.3299,34.4986]]]}},{"type":"Feature","id":"label-LBN-3023","properties":{"kind":"division-label","code":"LBN-3023","countryCode":"LBN","name":"North","localName":"North","labelEnglish":"North","labelLocal":"North","labelBoth":"North","type":"Province","iso":"LB-AS","qid":"Q390267"},"geometry":{"type":"Point","coordinates":[36.0424,34.3933]}},{"type":"Feature","id":"LBN-3025","properties":{"kind":"division","code":"LBN-3025","countryCode":"LBN","name":"Mount Lebanon","localName":"Mount Lebanon","labelEnglish":"Mount Lebanon","labelLocal":"Mount Lebanon","labelBoth":"Mount Lebanon","type":"Province","iso":"LB-JL","qid":"Q216945"},"geometry":{"type":"Polygon","coordinates":[[[35.5481,33.9062],[35.483,33.8652],[35.3771,33.5895],[35.6136,33.5097],[36.0113,34.1522],[35.645,34.2177],[35.5481,33.9062]]]}},{"type":"Feature","id":"label-LBN-3025","properties":{"kind":"division-label","code":"LBN-3025","countryCode":"LBN","name":"Mount Lebanon","localName":"Mount Lebanon","labelEnglish":"Mount Lebanon","labelLocal":"Mount Lebanon","labelBoth":"Mount Lebanon","type":"Province","iso":"LB-JL","qid":"Q216945"},"geometry":{"type":"Point","coordinates":[35.6942,33.9291]}},{"type":"Feature","id":"LBN-3024","properties":{"kind":"division","code":"LBN-3024","countryCode":"LBN","name":"Beirut","localName":"Beirut","labelEnglish":"Beirut","labelLocal":"Beirut","labelBoth":"Beirut","type":"Province","iso":"LB-BA","qid":"Q651688"},"geometry":{"type":"Polygon","coordinates":[[[35.483,33.8652],[35.5481,33.9062],[35.4705,33.9021],[35.483,33.8652]]]}},{"type":"Feature","id":"label-LBN-3024","properties":{"kind":"division-label","code":"LBN-3024","countryCode":"LBN","name":"Beirut","localName":"Beirut","labelEnglish":"Beirut","labelLocal":"Beirut","labelBoth":"Beirut","type":"Province","iso":"LB-BA","qid":"Q651688"},"geometry":{"type":"Point","coordinates":[35.5093,33.8849]}}]}