{"type":"FeatureCollection","features":[{"type":"Feature","id":"LBR-786","properties":{"kind":"division","code":"LBR-786","countryCode":"LBR","name":"Grand Cape Mount","localName":"Grand Cape Mount","labelEnglish":"Grand Cape Mount","labelLocal":"Grand Cape Mount","labelBoth":"Grand Cape Mount","type":"County","iso":"LR-CM","qid":"Q1047921"},"geometry":{"type":"Polygon","coordinates":[[[-11.4762,6.9194],[-11.3532,6.7012],[-11.0771,6.5925],[-10.9391,6.9931],[-10.5145,7.3105],[-10.6056,7.4884],[-10.864,7.5437],[-11.1442,7.3452],[-11.4762,6.9194]]]}},{"type":"Feature","id":"label-LBR-786","properties":{"kind":"division-label","code":"LBR-786","countryCode":"LBR","name":"Grand Cape Mount","localName":"Grand Cape Mount","labelEnglish":"Grand Cape Mount","labelLocal":"Grand Cape Mount","labelBoth":"Grand Cape Mount","type":"County","iso":"LR-CM","qid":"Q1047921"},"geometry":{"type":"Point","coordinates":[-10.9953,7.09577]}},{"type":"Feature","id":"LBR-1459","properties":{"kind":"division","code":"LBR-1459","countryCode":"LBR","name":"Gbarpolu","localName":"Gbarpolu","labelEnglish":"Gbarpolu","labelLocal":"Gbarpolu","labelBoth":"Gbarpolu","type":"County","iso":"LR-X1~","qid":"Q592251"},"geometry":{"type":"Polygon","coordinates":[[[-10.864,7.5437],[-10.6056,7.4884],[-10.5145,7.3105],[-10.9391,6.9931],[-10.7295,6.8163],[-10.4688,6.8773],[-10.1872,7.1379],[-10.0955,7.0421],[-9.8132,7.2118],[-9.6959,7.737],[-10.1081,7.8038],[-10.6162,8.0225],[-10.6152,7.769],[-10.864,7.5437]]]}},{"type":"Feature","id":"label-LBR-1459","properties":{"kind":"division-label","code":"LBR-1459","countryCode":"LBR","name":"Gbarpolu","localName":"Gbarpolu","labelEnglish":"Gbarpolu","labelLocal":"Gbarpolu","labelBoth":"Gbarpolu","type":"County","iso":"LR-X1~","qid":"Q592251"},"geometry":{"type":"Point","coordinates":[-10.1841,7.51706]}},{"type":"Feature","id":"LBR-787","properties":{"kind":"division","code":"LBR-787","countryCode":"LBR","name":"Lofa","localName":"Lofa","labelEnglish":"Lofa","labelLocal":"Lofa","labelBoth":"Lofa","type":"County","iso":"LR-LO","qid":"Q870130"},"geometry":{"type":"Polygon","coordinates":[[[-10.6162,8.0225],[-10.1081,7.8038],[-9.6959,7.737],[-9.8132,7.2118],[-9.4871,7.3732],[-9.3678,7.7575],[-9.5301,8.1855],[-9.4991,8.3435],[-9.8728,8.5004],[-10.2822,8.4846],[-10.3649,8.1482],[-10.6162,8.0225]]]}},{"type":"Feature","id":"label-LBR-787","properties":{"kind":"division-label","code":"LBR-787","countryCode":"LBR","name":"Lofa","localName":"Lofa","labelEnglish":"Lofa","labelLocal":"Lofa","labelBoth":"Lofa","type":"County","iso":"LR-LO","qid":"Q870130"},"geometry":{"type":"Point","coordinates":[-9.87553,8.12994]}},{"type":"Feature","id":"LBR-791","properties":{"kind":"division","code":"LBR-791","countryCode":"LBR","name":"Nimba","localName":"Nimba","labelEnglish":"Nimba","labelLocal":"Nimba","labelBoth":"Nimba","type":"County","iso":"LR-NI","qid":"Q868497"},"geometry":{"type":"Polygon","coordinates":[[[-8.4854,7.558],[-8.5674,7.6882],[-8.7276,7.622],[-8.8578,7.273],[-9.1061,7.203],[-9.1844,6.6262],[-9.1441,6.3551],[-9.0864,5.8319],[-8.9028,5.8752],[-8.9272,6.0144],[-8.6187,6.4928],[-8.4416,6.6553],[-8.2841,7.0179],[-8.4854,7.558]]]}},{"type":"Feature","id":"label-LBR-791","properties":{"kind":"division-label","code":"LBR-791","countryCode":"LBR","name":"Nimba","localName":"Nimba","labelEnglish":"Nimba","labelLocal":"Nimba","labelBoth":"Nimba","type":"County","iso":"LR-NI","qid":"Q868497"},"geometry":{"type":"Point","coordinates":[-8.73626,6.8643]}},{"type":"Feature","id":"LBR-793","properties":{"kind":"division","code":"LBR-793","countryCode":"LBR","name":"Grand Gedeh","localName":"Grand Gedeh","labelEnglish":"Grand Gedeh","labelLocal":"Grand Gedeh","labelBoth":"Grand Gedeh","type":"County","iso":"LR-GG","qid":"Q950841"},"geometry":{"type":"Polygon","coordinates":[[[-8.6187,6.4928],[-8.9272,6.0144],[-8.9028,5.8752],[-8.585,5.705],[-8.4522,5.782],[-8.4308,5.47],[-7.4099,5.5134],[-7.418,5.6278],[-7.4465,5.8459],[-7.7996,5.9745],[-7.9144,6.2717],[-8.1706,6.274],[-8.6187,6.4928]]]}},{"type":"Feature","id":"label-LBR-793","properties":{"kind":"division-label","code":"LBR-793","countryCode":"LBR","name":"Grand Gedeh","localName":"Grand Gedeh","labelEnglish":"Grand Gedeh","labelLocal":"Grand Gedeh","labelBoth":"Grand Gedeh","type":"County","iso":"LR-GG","qid":"Q950841"},"geometry":{"type":"Point","coordinates":[-8.16416,5.87286]}},{"type":"Feature","id":"LBR-1458","properties":{"kind":"division","code":"LBR-1458","countryCode":"LBR","name":"River Gee","localName":"River Gee","labelEnglish":"River Gee","labelLocal":"River Gee","labelBoth":"River Gee","type":"County","iso":"LR-X2~","qid":"Q1047875"},"geometry":{"type":"Polygon","coordinates":[[[-7.4099,5.5134],[-8.4308,5.47],[-8.3091,5.1701],[-8.025,5.1128],[-7.843,5.0651],[-7.8371,4.8643],[-7.606,4.8174],[-7.4099,5.5134]]]}},{"type":"Feature","id":"label-LBR-1458","properties":{"kind":"division-label","code":"LBR-1458","countryCode":"LBR","name":"River Gee","localName":"River Gee","labelEnglish":"River Gee","labelLocal":"River Gee","labelBoth":"River Gee","type":"County","iso":"LR-X2~","qid":"Q1047875"},"geometry":{"type":"Point","coordinates":[-7.91438,5.29303]}},{"type":"Feature","id":"LBR-781","properties":{"kind":"division","code":"LBR-781","countryCode":"LBR","name":"Maryland","localName":"Maryland","labelEnglish":"Maryland","labelLocal":"Maryland","labelBoth":"Maryland","type":"County","iso":"LR-MY","qid":"Q870138"},"geometry":{"type":"Polygon","coordinates":[[[-7.606,4.8174],[-7.8371,4.8643],[-7.843,5.0651],[-8.025,5.1128],[-8.1004,4.8865],[-7.8151,4.6167],[-7.844,4.4556],[-7.5407,4.3528],[-7.606,4.8174]]]}},{"type":"Feature","id":"label-LBR-781","properties":{"kind":"division-label","code":"LBR-781","countryCode":"LBR","name":"Maryland","localName":"Maryland","labelEnglish":"Maryland","labelLocal":"Maryland","labelBoth":"Maryland","type":"County","iso":"LR-MY","qid":"Q870138"},"geometry":{"type":"Point","coordinates":[-7.69738,4.64403]}},{"type":"Feature","id":"LBR-784","properties":{"kind":"division","code":"LBR-784","countryCode":"LBR","name":"Bong","localName":"Bong","labelEnglish":"Bong","labelLocal":"Bong","labelBoth":"Bong","type":"County","iso":"LR-BG","qid":"Q877578"},"geometry":{"type":"Polygon","coordinates":[[[-9.4871,7.3732],[-9.8132,7.2118],[-10.0955,7.0421],[-10.1872,7.1379],[-10.4688,6.8773],[-10.5061,6.8361],[-10.3569,6.762],[-9.7454,6.652],[-9.6501,6.4564],[-9.1844,6.6262],[-9.1061,7.203],[-9.2343,7.3813],[-9.4871,7.3732]]]}},{"type":"Feature","id":"label-LBR-784","properties":{"kind":"division-label","code":"LBR-784","countryCode":"LBR","name":"Bong","localName":"Bong","labelEnglish":"Bong","labelLocal":"Bong","labelBoth":"Bong","type":"County","iso":"LR-BG","qid":"Q877578"},"geometry":{"type":"Point","coordinates":[-9.80604,6.99958]}},{"type":"Feature","id":"LBR-783","properties":{"kind":"division","code":"LBR-783","countryCode":"LBR","name":"Bomi","localName":"Bomi","labelEnglish":"Bomi","labelLocal":"Bomi","labelBoth":"Bomi","type":"County","iso":"LR-BM","qid":"Q844127"},"geometry":{"type":"Polygon","coordinates":[[[-10.8066,6.4024],[-10.6082,6.5342],[-10.5061,6.8361],[-10.4688,6.8773],[-10.7295,6.8163],[-10.9391,6.9931],[-11.0771,6.5925],[-10.8066,6.4024]]]}},{"type":"Feature","id":"label-LBR-783","properties":{"kind":"division-label","code":"LBR-783","countryCode":"LBR","name":"Bomi","localName":"Bomi","labelEnglish":"Bomi","labelLocal":"Bomi","labelBoth":"Bomi","type":"County","iso":"LR-BM","qid":"Q844127"},"geometry":{"type":"Point","coordinates":[-10.7753,6.75329]}},{"type":"Feature","id":"LBR-788","properties":{"kind":"division","code":"LBR-788","countryCode":"LBR","name":"Montserrado","localName":"Montserrado","labelEnglish":"Montserrado","labelLocal":"Montserrado","labelBoth":"Montserrado","type":"County","iso":"LR-MO","qid":"Q862608"},"geometry":{"type":"Polygon","coordinates":[[[-10.6368,6.2219],[-10.3836,6.4522],[-10.3569,6.762],[-10.5061,6.8361],[-10.6082,6.5342],[-10.8066,6.4024],[-10.6368,6.2219]]]}},{"type":"Feature","id":"label-LBR-788","properties":{"kind":"division-label","code":"LBR-788","countryCode":"LBR","name":"Montserrado","localName":"Montserrado","labelEnglish":"Montserrado","labelLocal":"Montserrado","labelBoth":"Montserrado","type":"County","iso":"LR-MO","qid":"Q862608"},"geometry":{"type":"Point","coordinates":[-10.5806,6.43188]}},{"type":"Feature","id":"LBR-789","properties":{"kind":"division","code":"LBR-789","countryCode":"LBR","name":"Margibi","localName":"Margibi","labelEnglish":"Margibi","labelLocal":"Margibi","labelBoth":"Margibi","type":"County","iso":"LR-MG","qid":"Q1052737"},"geometry":{"type":"Polygon","coordinates":[[[-10.367,6.1511],[-10.1782,6.5514],[-9.8416,6.5416],[-9.7454,6.652],[-10.3569,6.762],[-10.3836,6.4522],[-10.6368,6.2219],[-10.367,6.1511]]]}},{"type":"Feature","id":"label-LBR-789","properties":{"kind":"division-label","code":"LBR-789","countryCode":"LBR","name":"Margibi","localName":"Margibi","labelEnglish":"Margibi","labelLocal":"Margibi","labelBoth":"Margibi","type":"County","iso":"LR-MG","qid":"Q1052737"},"geometry":{"type":"Point","coordinates":[-10.1783,6.62708]}},{"type":"Feature","id":"LBR-785","properties":{"kind":"division","code":"LBR-785","countryCode":"LBR","name":"Grand Bassa","localName":"Grand Bassa","labelEnglish":"Grand Bassa","labelLocal":"Grand Bassa","labelBoth":"Grand Bassa","type":"County","iso":"LR-GB","qid":"Q1047895"},"geometry":{"type":"Polygon","coordinates":[[[-9.7331,5.5812],[-9.6519,6.0323],[-9.4436,6.3239],[-9.1441,6.3551],[-9.1844,6.6262],[-9.6501,6.4564],[-9.7454,6.652],[-9.8416,6.5416],[-10.1782,6.5514],[-10.367,6.1511],[-9.7331,5.5812]]]}},{"type":"Feature","id":"label-LBR-785","properties":{"kind":"division-label","code":"LBR-785","countryCode":"LBR","name":"Grand Bassa","localName":"Grand Bassa","labelEnglish":"Grand Bassa","labelLocal":"Grand Bassa","labelBoth":"Grand Bassa","type":"County","iso":"LR-GB","qid":"Q1047895"},"geometry":{"type":"Point","coordinates":[-9.72887,6.11786]}},{"type":"Feature","id":"LBR-792","properties":{"kind":"division","code":"LBR-792","countryCode":"LBR","name":"River Cess","localName":"River Cess","labelEnglish":"River Cess","labelLocal":"River Cess","labelBoth":"River Cess","type":"County","iso":"LR-RI","qid":"Q955095"},"geometry":{"type":"Polygon","coordinates":[[[-9.4182,5.2712],[-9.3574,5.583],[-9.0864,5.8319],[-9.1441,6.3551],[-9.4436,6.3239],[-9.6519,6.0323],[-9.7331,5.5812],[-9.4182,5.2712]]]}},{"type":"Feature","id":"label-LBR-792","properties":{"kind":"division-label","code":"LBR-792","countryCode":"LBR","name":"River Cess","localName":"River Cess","labelEnglish":"River Cess","labelLocal":"River Cess","labelBoth":"River Cess","type":"County","iso":"LR-RI","qid":"Q955095"},"geometry":{"type":"Point","coordinates":[-9.39724,5.82919]}},{"type":"Feature","id":"LBR-782","properties":{"kind":"division","code":"LBR-782","countryCode":"LBR","name":"Sinoe","localName":"Sinoe","labelEnglish":"Sinoe","labelLocal":"Sinoe","labelBoth":"Sinoe","type":"County","iso":"LR-SI","qid":"Q1043644"},"geometry":{"type":"Polygon","coordinates":[[[-8.7036,4.8219],[-8.3091,5.1701],[-8.4308,5.47],[-8.4522,5.782],[-8.585,5.705],[-8.9028,5.8752],[-9.0864,5.8319],[-9.3574,5.583],[-9.4182,5.2712],[-8.7036,4.8219]]]}},{"type":"Feature","id":"label-LBR-782","properties":{"kind":"division-label","code":"LBR-782","countryCode":"LBR","name":"Sinoe","localName":"Sinoe","labelEnglish":"Sinoe","labelLocal":"Sinoe","labelBoth":"Sinoe","type":"County","iso":"LR-SI","qid":"Q1043644"},"geometry":{"type":"Point","coordinates":[-8.86819,5.39111]}},{"type":"Feature","id":"LBR-780","properties":{"kind":"division","code":"LBR-780","countryCode":"LBR","name":"Grand Kru","localName":"Grand Kru","labelEnglish":"Grand Kru","labelLocal":"Grand Kru","labelBoth":"Grand Kru","type":"County","iso":"LR-GK","qid":"Q574952"},"geometry":{"type":"Polygon","coordinates":[[[-7.844,4.4556],[-7.8151,4.6167],[-8.1004,4.8865],[-8.025,5.1128],[-8.3091,5.1701],[-8.7036,4.8219],[-8.2573,4.58],[-7.844,4.4556]]]}},{"type":"Feature","id":"label-LBR-780","properties":{"kind":"division-label","code":"LBR-780","countryCode":"LBR","name":"Grand Kru","localName":"Grand Kru","labelEnglish":"Grand Kru","labelLocal":"Grand Kru","labelBoth":"Grand Kru","type":"County","iso":"LR-GK","qid":"Q574952"},"geometry":{"type":"Point","coordinates":[-8.25622,4.87073]}}]}