{"type":"FeatureCollection","features":[{"type":"Feature","id":"LBY-2882","properties":{"kind":"division","code":"LBY-2882","countryCode":"LBY","name":"Ghadames","localName":"Ghadames","labelEnglish":"Ghadames","labelLocal":"Ghadames","labelBoth":"Ghadames","type":"Municipality|Governarate","iso":"LY-GD","qid":null},"geometry":{"type":"Polygon","coordinates":[[[11.1823,32.2622],[10.6059,31.9536],[10.5135,31.757],[10.264,31.6805],[10.1081,31.4118],[10.2702,30.9156],[9.8713,30.3552],[9.5197,30.2289],[9.3695,30.0228],[9.6677,29.6083],[9.8261,29.1285],[9.8273,28.6186],[10.1379,28.7173],[10.3749,28.614],[10.9099,28.8446],[11.0163,28.6416],[11.3239,28.5449],[11.9519,28.5951],[11.7293,29.087],[11.5899,30.5424],[11.963,31.0809],[11.853,31.2474],[11.8627,32.3076],[11.5261,32.4179],[11.1823,32.2622]]]}},{"type":"Feature","id":"label-LBY-2882","properties":{"kind":"division-label","code":"LBY-2882","countryCode":"LBY","name":"Ghadames","localName":"Ghadames","labelEnglish":"Ghadames","labelLocal":"Ghadames","labelBoth":"Ghadames","type":"Municipality|Governarate","iso":"LY-GD","qid":null},"geometry":{"type":"Point","coordinates":[10.6245,30.3343]}},{"type":"Feature","id":"LBY-2974","properties":{"kind":"division","code":"LBY-2974","countryCode":"LBY","name":"Nuqat al Khams","localName":"Nuqat al Khams","labelEnglish":"Nuqat al Khams","labelLocal":"Nuqat al Khams","labelBoth":"Nuqat al Khams","type":"Municipality|Governarate","iso":"LY-NQ","qid":"Q26161"},"geometry":{"type":"Polygon","coordinates":[[[11.5261,32.4179],[11.8627,32.3076],[12.0976,32.3544],[12.4621,32.6008],[12.5732,32.8126],[12.3483,32.8327],[11.5051,33.1812],[11.4499,32.638],[11.5261,32.4179]]]}},{"type":"Feature","id":"label-LBY-2974","properties":{"kind":"division-label","code":"LBY-2974","countryCode":"LBY","name":"Nuqat al Khams","localName":"Nuqat al Khams","labelEnglish":"Nuqat al Khams","labelLocal":"Nuqat al Khams","labelBoth":"Nuqat al Khams","type":"Municipality|Governarate","iso":"LY-NQ","qid":"Q26161"},"geometry":{"type":"Point","coordinates":[12.0109,32.6661]}},{"type":"Feature","id":"LBY-2965","properties":{"kind":"division","code":"LBY-2965","countryCode":"LBY","name":"Kufra","localName":"Kufra","labelEnglish":"Kufra","labelLocal":"Kufra","labelBoth":"Kufra","type":"Municipality|Governarate","iso":"LY-KF","qid":"Q48200"},"geometry":{"type":"Polygon","coordinates":[[[23.9813,19.4961],[23.9813,19.9954],[24.9805,20.0084],[24.9812,21.9954],[24.9812,22.8708],[24.9812,24.6217],[24.9812,27.0492],[23.0919,27.0147],[21.9228,27.0076],[20.7231,27.0218],[19.1698,27.0129],[19.1681,26.0038],[19.179,23.5181],[19.1858,21.8642],[20.8933,21.0209],[22.2521,20.3501],[23.9813,19.4961]]]}},{"type":"Feature","id":"label-LBY-2965","properties":{"kind":"division-label","code":"LBY-2965","countryCode":"LBY","name":"Kufra","localName":"Kufra","labelEnglish":"Kufra","labelLocal":"Kufra","labelBoth":"Kufra","type":"Municipality|Governarate","iso":"LY-KF","qid":"Q48200"},"geometry":{"type":"Point","coordinates":[22.0744,23.7231]}},{"type":"Feature","id":"LBY-2969","properties":{"kind":"division","code":"LBY-2969","countryCode":"LBY","name":"Murzuq","localName":"Murzuq","labelEnglish":"Murzuq","labelLocal":"Murzuq","labelBoth":"Murzuq","type":"Municipality|Governarate","iso":"LY-MQ","qid":"Q48239"},"geometry":{"type":"Polygon","coordinates":[[[19.1858,21.8642],[19.179,23.5181],[19.1681,26.0038],[18.515,26.1498],[18.2041,26.3765],[17.4098,26.0523],[16.9405,26.1634],[16.6207,26.4258],[16.52,26.7015],[16.2784,26.8462],[16.2797,27.0752],[14.8276,26.7579],[14.4244,26.3763],[13.9344,26.2469],[13.4819,26.118],[13.2054,25.8768],[12.6249,25.7209],[12.3636,25.7323],[12.1599,25.5759],[11.8584,25.5478],[11.5941,25.652],[11.3995,25.5514],[11.3326,25.3893],[11.334,24.7968],[11.4672,24.3263],[11.7101,24.0001],[11.9689,23.5174],[13.4823,23.1797],[14.2317,22.6179],[14.9799,22.9957],[15.9851,23.4447],[17.4348,22.7288],[18.9171,21.9968],[19.1858,21.8642]]]}},{"type":"Feature","id":"label-LBY-2969","properties":{"kind":"division-label","code":"LBY-2969","countryCode":"LBY","name":"Murzuq","localName":"Murzuq","labelEnglish":"Murzuq","labelLocal":"Murzuq","labelBoth":"Murzuq","type":"Municipality|Governarate","iso":"LY-MQ","qid":"Q48239"},"geometry":{"type":"Point","coordinates":[15.2592,24.9977]}},{"type":"Feature","id":"LBY-2987","properties":{"kind":"division","code":"LBY-2987","countryCode":"LBY","name":"Butnan","localName":"Butnan","labelEnglish":"Butnan","labelLocal":"Butnan","labelBoth":"Butnan","type":"Municipality|Governarate","iso":"LY-BU","qid":"Q25931"},"geometry":{"type":"Polygon","coordinates":[[[25.1509,31.6565],[24.9817,31.9679],[24.6703,32.0324],[24.0907,32.0058],[23.6697,32.1833],[23.2514,32.2167],[22.9566,31.2333],[22.9689,30.7994],[23.057,30.77],[23.0621,28.1393],[24.9812,28.0967],[24.9812,29.1814],[24.8116,29.8909],[24.6883,30.1442],[24.9949,30.7851],[24.8613,31.3804],[25.1509,31.6565]]]}},{"type":"Feature","id":"label-LBY-2987","properties":{"kind":"division-label","code":"LBY-2987","countryCode":"LBY","name":"Butnan","localName":"Butnan","labelEnglish":"Butnan","labelLocal":"Butnan","labelBoth":"Butnan","type":"Municipality|Governarate","iso":"LY-BU","qid":"Q25931"},"geometry":{"type":"Point","coordinates":[24.0559,30.069]}},{"type":"Feature","id":"LBY-2983","properties":{"kind":"division","code":"LBY-2983","countryCode":"LBY","name":"Ajdabiya","localName":"Ajdabiya","labelEnglish":"Ajdabiya","labelLocal":"Ajdabiya","labelBoth":"Ajdabiya","type":"Municipality|Governarate","iso":"LY-AJ","qid":"Q1640928"},"geometry":{"type":"Polygon","coordinates":[[[24.9812,28.0967],[23.0621,28.1393],[23.057,30.77],[22.9689,30.7994],[22.5118,30.8935],[22.2589,31.1452],[22.1125,31.1199],[21.7172,31.0656],[21.319,31.0351],[20.5937,31.007],[20.1416,31.2239],[20.0365,30.8191],[19.7489,30.5109],[19.3386,30.2988],[19.0568,30.2662],[18.7805,30.3759],[18.6993,29.5174],[18.5136,29.1647],[18.4993,28.5021],[19.1722,28.3474],[19.1698,27.0129],[20.7231,27.0218],[21.9228,27.0076],[23.0919,27.0147],[24.9812,27.0492],[24.9812,27.6665],[24.9812,28.0967]]]}},{"type":"Feature","id":"label-LBY-2983","properties":{"kind":"division-label","code":"LBY-2983","countryCode":"LBY","name":"Ajdabiya","localName":"Ajdabiya","labelEnglish":"Ajdabiya","labelLocal":"Ajdabiya","labelBoth":"Ajdabiya","type":"Municipality|Governarate","iso":"LY-AJ","qid":"Q1640928"},"geometry":{"type":"Point","coordinates":[21.74,29.0419]}},{"type":"Feature","id":"LBY-2967","properties":{"kind":"division","code":"LBY-2967","countryCode":"LBY","name":"Ash Shati","localName":"Ash Shati","labelEnglish":"Ash Shati","labelLocal":"Ash Shati","labelBoth":"Ash Shati","type":"Municipality|Governarate","iso":"LY-WS","qid":null},"geometry":{"type":"Polygon","coordinates":[[[9.9313,27.8186],[10.2726,27.667],[10.8918,27.5315],[11.164,27.3259],[11.3747,26.2175],[13.0124,27.2504],[13.1905,27.2922],[13.9832,27.1289],[14.4212,27.1727],[14.9213,27.5738],[15.5641,27.7411],[15.7959,27.7212],[15.894,27.9963],[15.5897,28.2148],[15.0176,28.1448],[14.9587,28.4077],[14.527,28.7195],[14.4198,29.2091],[13.992,29.5525],[13.659,29.422],[13.1045,28.7393],[12.6885,28.4303],[12.4924,28.5435],[11.9519,28.5951],[11.3239,28.5449],[11.0163,28.6416],[10.9099,28.8446],[10.3749,28.614],[10.1379,28.7173],[9.8273,28.6186],[9.777,28.2676],[9.9313,27.8186]]]}},{"type":"Feature","id":"label-LBY-2967","properties":{"kind":"division-label","code":"LBY-2967","countryCode":"LBY","name":"Ash Shati","localName":"Ash Shati","labelEnglish":"Ash Shati","labelLocal":"Ash Shati","labelBoth":"Ash Shati","type":"Municipality|Governarate","iso":"LY-WS","qid":null},"geometry":{"type":"Point","coordinates":[12.8352,27.8732]}},{"type":"Feature","id":"LBY-2968","properties":{"kind":"division","code":"LBY-2968","countryCode":"LBY","name":"Ghat","localName":"Ghat","labelEnglish":"Ghat","labelLocal":"Ghat","labelBoth":"Ghat","type":"Municipality|Governarate","iso":"LY-GT","qid":"Q48236"},"geometry":{"type":"Polygon","coordinates":[[[9.9313,27.8186],[9.7213,27.2919],[9.9106,26.8431],[9.8358,26.5042],[9.4826,26.3526],[9.4012,26.1134],[9.9695,25.3954],[10.032,24.8563],[10.3918,24.48],[10.7207,24.5523],[11.4672,24.3263],[11.334,24.7968],[11.3326,25.3893],[11.3995,25.5514],[11.3037,25.7492],[11.3747,26.2175],[11.164,27.3259],[10.8918,27.5315],[10.2726,27.667],[9.9313,27.8186]]]}},{"type":"Feature","id":"label-LBY-2968","properties":{"kind":"division-label","code":"LBY-2968","countryCode":"LBY","name":"Ghat","localName":"Ghat","labelEnglish":"Ghat","labelLocal":"Ghat","labelBoth":"Ghat","type":"Municipality|Governarate","iso":"LY-GT","qid":"Q48236"},"geometry":{"type":"Point","coordinates":[10.4298,25.9201]}},{"type":"Feature","id":"LBY-2985","properties":{"kind":"division","code":"LBY-2985","countryCode":"LBY","name":"Sirte","localName":"Sirte","labelEnglish":"Sirte","labelLocal":"Sirte","labelBoth":"Sirte","type":"Municipality|Governarate","iso":"LY-SR","qid":"Q26417"},"geometry":{"type":"Polygon","coordinates":[[[16.1374,31.2612],[16.1156,31.0493],[16.303,30.3094],[16.5312,29.6329],[16.4186,29.4088],[16.9812,29.4305],[17.3339,29.2826],[17.6654,29.3294],[17.9821,28.7331],[18.4993,28.5021],[18.5136,29.1647],[18.6993,29.5174],[18.7805,30.3759],[18.1753,30.7861],[17.3659,31.0866],[16.728,31.2238],[16.1374,31.2612]]]}},{"type":"Feature","id":"label-LBY-2985","properties":{"kind":"division-label","code":"LBY-2985","countryCode":"LBY","name":"Sirte","localName":"Sirte","labelEnglish":"Sirte","labelLocal":"Sirte","labelBoth":"Sirte","type":"Municipality|Governarate","iso":"LY-SR","qid":"Q26417"},"geometry":{"type":"Point","coordinates":[17.4523,30.2021]}},{"type":"Feature","id":"LBY-2970","properties":{"kind":"division","code":"LBY-2970","countryCode":"LBY","name":"Misrata","localName":"Misrata","labelEnglish":"Misrata","labelLocal":"Misrata","labelBoth":"Misrata","type":"Municipality|Governarate","iso":"LY-MI","qid":"Q32845"},"geometry":{"type":"Polygon","coordinates":[[[14.7558,32.4497],[14.6667,31.9678],[14.365,31.9771],[14.1221,32.1426],[13.3977,32.0508],[13.6324,31.5083],[13.9342,31.2432],[14.2117,30.721],[14.9501,30.4092],[14.9797,30.0171],[14.8542,29.862],[15.0519,29.702],[15.5999,29.56],[15.8797,29.3768],[16.1356,29.5],[16.4186,29.4088],[16.5312,29.6329],[16.303,30.3094],[16.1156,31.0493],[16.1374,31.2612],[15.7615,31.3881],[15.4904,31.6649],[15.3705,32.1591],[15.196,32.3898],[14.7558,32.4497]]]}},{"type":"Feature","id":"label-LBY-2970","properties":{"kind":"division-label","code":"LBY-2970","countryCode":"LBY","name":"Misrata","localName":"Misrata","labelEnglish":"Misrata","labelLocal":"Misrata","labelBoth":"Misrata","type":"Municipality|Governarate","iso":"LY-MI","qid":"Q32845"},"geometry":{"type":"Point","coordinates":[15.0186,32.2151]}},{"type":"Feature","id":"LBY-2966","properties":{"kind":"division","code":"LBY-2966","countryCode":"LBY","name":"Murqub","localName":"Murqub","labelEnglish":"Murqub","labelLocal":"Murqub","labelBoth":"Murqub","type":"Municipality|Governarate","iso":"LY-MB","qid":"Q209778"},"geometry":{"type":"Polygon","coordinates":[[[13.9544,32.7582],[13.4513,32.5286],[13.2364,32.3337],[13.2508,32.3174],[13.3977,32.0508],[14.1221,32.1426],[14.365,31.9771],[14.6667,31.9678],[14.7558,32.4497],[13.9544,32.7582]]]}},{"type":"Feature","id":"label-LBY-2966","properties":{"kind":"division-label","code":"LBY-2966","countryCode":"LBY","name":"Murqub","localName":"Murqub","labelEnglish":"Murqub","labelLocal":"Murqub","labelBoth":"Murqub","type":"Municipality|Governarate","iso":"LY-MB","qid":"Q209778"},"geometry":{"type":"Point","coordinates":[14.1357,32.5351]}},{"type":"Feature","id":"LBY-2978","properties":{"kind":"division","code":"LBY-2978","countryCode":"LBY","name":"Tripoli District","localName":"Tripoli District","labelEnglish":"Tripoli District","labelLocal":"Tripoli District","labelBoth":"Tripoli District","type":"Municipality|Governarate","iso":"LY-TN","qid":null},"geometry":{"type":"Polygon","coordinates":[[[13.1032,32.8774],[13.0763,32.7212],[13.2364,32.3337],[13.4513,32.5286],[13.9544,32.7582],[13.3517,32.9042],[13.1032,32.8774]]]}},{"type":"Feature","id":"label-LBY-2978","properties":{"kind":"division-label","code":"LBY-2978","countryCode":"LBY","name":"Tripoli District","localName":"Tripoli District","labelEnglish":"Tripoli District","labelLocal":"Tripoli District","labelBoth":"Tripoli District","type":"Municipality|Governarate","iso":"LY-TN","qid":null},"geometry":{"type":"Point","coordinates":[13.5154,32.6867]}},{"type":"Feature","id":"LBY-2975","properties":{"kind":"division","code":"LBY-2975","countryCode":"LBY","name":"Zawiya","localName":"Zawiya","labelEnglish":"Zawiya","labelLocal":"Zawiya","labelBoth":"Zawiya","type":"Municipality|Governarate","iso":"LY-ZA","qid":"Q26153"},"geometry":{"type":"Polygon","coordinates":[[[12.5732,32.8126],[12.4621,32.6008],[12.0976,32.3544],[11.8627,32.3076],[12.8196,32.2602],[13.0763,32.7212],[13.1032,32.8774],[12.5732,32.8126]]]}},{"type":"Feature","id":"label-LBY-2975","properties":{"kind":"division-label","code":"LBY-2975","countryCode":"LBY","name":"Zawiya","localName":"Zawiya","labelEnglish":"Zawiya","labelLocal":"Zawiya","labelBoth":"Zawiya","type":"Municipality|Governarate","iso":"LY-ZA","qid":"Q26153"},"geometry":{"type":"Point","coordinates":[12.4868,32.4551]}},{"type":"Feature","id":"LBY-2986","properties":{"kind":"division","code":"LBY-2986","countryCode":"LBY","name":"Al Qubbah","localName":"Al Qubbah","labelEnglish":"Al Qubbah","labelLocal":"Al Qubbah","labelBoth":"Al Qubbah","type":"Municipality|Governarate","iso":"LY-QB","qid":null},"geometry":{"type":"Polygon","coordinates":[[[21.9862,32.9131],[22.0332,32.5526],[21.9178,31.282],[22.1125,31.1199],[22.2589,31.1452],[22.5118,30.8935],[22.9689,30.7994],[22.9566,31.2333],[23.2514,32.2167],[23.0956,32.3236],[23.0864,32.6465],[21.9862,32.9131]]]}},{"type":"Feature","id":"label-LBY-2986","properties":{"kind":"division-label","code":"LBY-2986","countryCode":"LBY","name":"Al Qubbah","localName":"Al Qubbah","labelEnglish":"Al Qubbah","labelLocal":"Al Qubbah","labelBoth":"Al Qubbah","type":"Municipality|Governarate","iso":"LY-QB","qid":null},"geometry":{"type":"Point","coordinates":[22.5845,31.8165]}},{"type":"Feature","id":"LBY-2982","properties":{"kind":"division","code":"LBY-2982","countryCode":"LBY","name":"Jabal al Akhdar","localName":"Jabal al Akhdar","labelEnglish":"Jabal al Akhdar","labelLocal":"Jabal al Akhdar","labelBoth":"Jabal al Akhdar","type":"Municipality|Governarate","iso":"LY-JA","qid":"Q32841"},"geometry":{"type":"Polygon","coordinates":[[[21.357,32.7803],[21.3319,32.5117],[21.462,32.1316],[21.6321,31.9992],[21.6149,31.4733],[21.7172,31.0656],[22.1125,31.1199],[21.9178,31.282],[22.0332,32.5526],[21.9862,32.9131],[21.6087,32.9307],[21.357,32.7803]]]}},{"type":"Feature","id":"label-LBY-2982","properties":{"kind":"division-label","code":"LBY-2982","countryCode":"LBY","name":"Jabal al Akhdar","localName":"Jabal al Akhdar","labelEnglish":"Jabal al Akhdar","labelLocal":"Jabal al Akhdar","labelBoth":"Jabal al Akhdar","type":"Municipality|Governarate","iso":"LY-JA","qid":"Q32841"},"geometry":{"type":"Point","coordinates":[21.7222,32.0068]}},{"type":"Feature","id":"LBY-2981","properties":{"kind":"division","code":"LBY-2981","countryCode":"LBY","name":"Marj","localName":"Marj","labelEnglish":"Marj","labelLocal":"Marj","labelBoth":"Marj","type":"Municipality|Governarate","iso":"LY-MJ","qid":"Q26023"},"geometry":{"type":"Polygon","coordinates":[[[20.576,32.5627],[20.3093,32.0353],[20.5485,31.5797],[21.1464,31.5977],[21.319,31.0351],[21.7172,31.0656],[21.6149,31.4733],[21.6321,31.9992],[21.462,32.1316],[21.3319,32.5117],[21.357,32.7803],[21.0967,32.7811],[20.576,32.5627]]]}},{"type":"Feature","id":"label-LBY-2981","properties":{"kind":"division-label","code":"LBY-2981","countryCode":"LBY","name":"Marj","localName":"Marj","labelEnglish":"Marj","labelLocal":"Marj","labelBoth":"Marj","type":"Municipality|Governarate","iso":"LY-MJ","qid":"Q26023"},"geometry":{"type":"Point","coordinates":[21.0132,32.1682]}},{"type":"Feature","id":"LBY-2984","properties":{"kind":"division","code":"LBY-2984","countryCode":"LBY","name":"Benghazi","localName":"Benghazi","labelEnglish":"Benghazi","labelLocal":"Benghazi","labelBoth":"Benghazi","type":"Municipality|Governarate","iso":"LY-BA","qid":"Q40816"},"geometry":{"type":"Polygon","coordinates":[[[20.1416,31.2239],[20.5937,31.007],[21.319,31.0351],[21.1464,31.5977],[20.5485,31.5797],[20.3093,32.0353],[20.576,32.5627],[20.0715,32.1764],[19.9207,31.7177],[20.1416,31.2239]]]}},{"type":"Feature","id":"label-LBY-2984","properties":{"kind":"division-label","code":"LBY-2984","countryCode":"LBY","name":"Benghazi","localName":"Benghazi","labelEnglish":"Benghazi","labelLocal":"Benghazi","labelBoth":"Benghazi","type":"Municipality|Governarate","iso":"LY-BA","qid":"Q40816"},"geometry":{"type":"Point","coordinates":[20.6182,31.2887]}},{"type":"Feature","id":"LBY-2973","properties":{"kind":"division","code":"LBY-2973","countryCode":"LBY","name":"Jafara","localName":"Jafara","labelEnglish":"Jafara","labelLocal":"Jafara","labelBoth":"Jafara","type":"Municipality|Governarate","iso":"LY-JI","qid":"Q329060"},"geometry":{"type":"Polygon","coordinates":[[[13.2508,32.3174],[13.2364,32.3337],[13.0763,32.7212],[12.8196,32.2602],[13.2508,32.3174]]]}},{"type":"Feature","id":"label-LBY-2973","properties":{"kind":"division-label","code":"LBY-2973","countryCode":"LBY","name":"Jafara","localName":"Jafara","labelEnglish":"Jafara","labelLocal":"Jafara","labelBoth":"Jafara","type":"Municipality|Governarate","iso":"LY-JI","qid":"Q329060"},"geometry":{"type":"Point","coordinates":[13.0352,32.4889]}},{"type":"Feature","id":"LBY-2976","properties":{"kind":"division","code":"LBY-2976","countryCode":"LBY","name":"Mizdah","localName":"Mizdah","labelEnglish":"Mizdah","labelLocal":"Mizdah","labelBoth":"Mizdah","type":"Municipality|Governarate","iso":"LY-MZ","qid":null},"geometry":{"type":"Polygon","coordinates":[[[12.8196,32.2602],[11.8627,32.3076],[11.853,31.2474],[11.963,31.0809],[11.5899,30.5424],[11.7293,29.087],[11.9519,28.5951],[12.4924,28.5435],[12.6885,28.4303],[13.1045,28.7393],[13.659,29.422],[13.992,29.5525],[14.4198,29.2091],[14.7524,29.4053],[14.8542,29.862],[14.9797,30.0171],[14.9501,30.4092],[14.2117,30.721],[13.9342,31.2432],[13.6324,31.5083],[13.3977,32.0508],[13.2508,32.3174],[12.8196,32.2602]]]}},{"type":"Feature","id":"label-LBY-2976","properties":{"kind":"division-label","code":"LBY-2976","countryCode":"LBY","name":"Mizdah","localName":"Mizdah","labelEnglish":"Mizdah","labelLocal":"Mizdah","labelBoth":"Mizdah","type":"Municipality|Governarate","iso":"LY-MZ","qid":null},"geometry":{"type":"Point","coordinates":[13.2861,30.6105]}},{"type":"Feature","id":"LBY-2964","properties":{"kind":"division","code":"LBY-2964","countryCode":"LBY","name":"Jufra","localName":"Jufra","labelEnglish":"Jufra","labelLocal":"Jufra","labelBoth":"Jufra","type":"Municipality|Governarate","iso":"LY-JU","qid":"Q48247"},"geometry":{"type":"Polygon","coordinates":[[[14.4198,29.2091],[14.527,28.7195],[14.9587,28.4077],[15.0176,28.1448],[15.5897,28.2148],[15.894,27.9963],[15.7959,27.7212],[16.0232,27.3059],[16.2797,27.0752],[16.2784,26.8462],[16.52,26.7015],[16.6207,26.4258],[16.9405,26.1634],[17.4098,26.0523],[18.2041,26.3765],[18.515,26.1498],[19.1681,26.0038],[19.1698,27.0129],[19.1722,28.3474],[18.4993,28.5021],[17.9821,28.7331],[17.6654,29.3294],[17.3339,29.2826],[16.9812,29.4305],[16.4186,29.4088],[16.1356,29.5],[15.8797,29.3768],[15.5999,29.56],[15.0519,29.702],[14.8542,29.862],[14.7524,29.4053],[14.4198,29.2091]]]}},{"type":"Feature","id":"label-LBY-2964","properties":{"kind":"division-label","code":"LBY-2964","countryCode":"LBY","name":"Jufra","localName":"Jufra","labelEnglish":"Jufra","labelLocal":"Jufra","labelBoth":"Jufra","type":"Municipality|Governarate","iso":"LY-JU","qid":"Q48247"},"geometry":{"type":"Point","coordinates":[17.299,27.9396]}},{"type":"Feature","id":"LBY-2971","properties":{"kind":"division","code":"LBY-2971","countryCode":"LBY","name":"Sabha","localName":"Sabha","labelEnglish":"Sabha","labelLocal":"Sabha","labelBoth":"Sabha","type":"Municipality|Governarate","iso":"LY-SB","qid":"Q26132"},"geometry":{"type":"Polygon","coordinates":[[[15.7959,27.7212],[15.5641,27.7411],[14.9213,27.5738],[14.4212,27.1727],[13.9832,27.1289],[14.1462,26.6712],[13.9344,26.2469],[14.4244,26.3763],[14.8276,26.7579],[16.2797,27.0752],[16.0232,27.3059],[15.7959,27.7212]]]}},{"type":"Feature","id":"label-LBY-2971","properties":{"kind":"division-label","code":"LBY-2971","countryCode":"LBY","name":"Sabha","localName":"Sabha","labelEnglish":"Sabha","labelLocal":"Sabha","labelBoth":"Sabha","type":"Municipality|Governarate","iso":"LY-SB","qid":"Q26132"},"geometry":{"type":"Point","coordinates":[15.1065,27.2371]}},{"type":"Feature","id":"LBY-5488","properties":{"kind":"division","code":"LBY-5488","countryCode":"LBY","name":"Wadi al Hayaa","localName":"Wadi al Hayaa","labelEnglish":"Wadi al Hayaa","labelLocal":"Wadi al Hayaa","labelBoth":"Wadi al Hayaa","type":"Municipality|Governarate","iso":"LY-WD","qid":"Q48233"},"geometry":{"type":"Polygon","coordinates":[[[13.9832,27.1289],[13.1905,27.2922],[13.0124,27.2504],[11.3747,26.2175],[11.3037,25.7492],[11.3995,25.5514],[11.5941,25.652],[11.8584,25.5478],[12.1599,25.5759],[12.3636,25.7323],[12.6249,25.7209],[13.2054,25.8768],[13.4819,26.118],[13.9344,26.2469],[14.1462,26.6712],[13.9832,27.1289]]]}},{"type":"Feature","id":"label-LBY-5488","properties":{"kind":"division-label","code":"LBY-5488","countryCode":"LBY","name":"Wadi al Hayaa","localName":"Wadi al Hayaa","labelEnglish":"Wadi al Hayaa","labelLocal":"Wadi al Hayaa","labelBoth":"Wadi al Hayaa","type":"Municipality|Governarate","iso":"LY-WD","qid":"Q48233"},"geometry":{"type":"Point","coordinates":[12.679,26.3564]}}]}