{"type":"FeatureCollection","features":[{"type":"Feature","id":"LCA-5081","properties":{"kind":"division","code":"LCA-5081","countryCode":"LCA","name":"Gros Islet Quarter","localName":"Gros Islet Quarter","labelEnglish":"Gros Islet Quarter","labelLocal":"Gros Islet Quarter","labelBoth":"Gros Islet Quarter","type":"Quarter","iso":"LC-06","qid":"Q953557"},"geometry":{"type":"Polygon","coordinates":[[[-60.98,14.0435],[-60.9356,14.018],[-60.901,14.0734],[-60.98,14.0435]]]}},{"type":"Feature","id":"label-LCA-5081","properties":{"kind":"division-label","code":"LCA-5081","countryCode":"LCA","name":"Gros Islet Quarter","localName":"Gros Islet Quarter","labelEnglish":"Gros Islet Quarter","labelLocal":"Gros Islet Quarter","labelBoth":"Gros Islet Quarter","type":"Quarter","iso":"LC-06","qid":"Q953557"},"geometry":{"type":"Point","coordinates":[-60.9446,14.0664]}},{"type":"Feature","id":"LCA-5077","properties":{"kind":"division","code":"LCA-5077","countryCode":"LCA","name":"Castries Quarter","localName":"Castries Quarter","labelEnglish":"Castries Quarter","labelLocal":"Castries Quarter","labelBoth":"Castries Quarter","type":"Quarter","iso":"LC-02","qid":"Q1049867"},"geometry":{"type":"Polygon","coordinates":[[[-61.0266,13.9874],[-60.9806,13.8928],[-60.9606,13.879],[-60.9606,13.9003],[-60.9405,13.9793],[-60.9356,14.018],[-60.98,14.0435],[-61.0266,13.9874]]]}},{"type":"Feature","id":"label-LCA-5077","properties":{"kind":"division-label","code":"LCA-5077","countryCode":"LCA","name":"Castries Quarter","localName":"Castries Quarter","labelEnglish":"Castries Quarter","labelLocal":"Castries Quarter","labelBoth":"Castries Quarter","type":"Quarter","iso":"LC-02","qid":"Q1049867"},"geometry":{"type":"Point","coordinates":[-60.9749,14.0004]}},{"type":"Feature","id":"LCA-5076","properties":{"kind":"division","code":"LCA-5076","countryCode":"LCA","name":"Anse la Raye Quarter","localName":"Anse la Raye Quarter","labelEnglish":"Anse la Raye Quarter","labelLocal":"Anse la Raye Quarter","labelBoth":"Anse la Raye Quarter","type":"Quarter","iso":"LC-01","qid":"Q1676934"},"geometry":{"type":"Polygon","coordinates":[[[-61.0669,13.909],[-60.9806,13.8928],[-61.0266,13.9874],[-61.0669,13.909]]]}},{"type":"Feature","id":"label-LCA-5076","properties":{"kind":"division-label","code":"LCA-5076","countryCode":"LCA","name":"Anse la Raye Quarter","localName":"Anse la Raye Quarter","labelEnglish":"Anse la Raye Quarter","labelLocal":"Anse la Raye Quarter","labelBoth":"Anse la Raye Quarter","type":"Quarter","iso":"LC-01","qid":"Q1676934"},"geometry":{"type":"Point","coordinates":[-61.0189,13.935]}},{"type":"Feature","id":"LCA-5085","properties":{"kind":"division","code":"LCA-5085","countryCode":"LCA","name":"Soufrière Quarter","localName":"Soufrière Quarter","labelEnglish":"Soufrière Quarter","labelLocal":"Soufrière Quarter","labelBoth":"Soufrière Quarter","type":"Quarter","iso":"LC-10","qid":"Q1472841"},"geometry":{"type":"Polygon","coordinates":[[[-61.0681,13.7922],[-60.9816,13.8358],[-60.9752,13.8392],[-60.9643,13.8452],[-60.9606,13.879],[-60.9806,13.8928],[-61.0669,13.909],[-61.0681,13.7922]]]}},{"type":"Feature","id":"label-LCA-5085","properties":{"kind":"division-label","code":"LCA-5085","countryCode":"LCA","name":"Soufrière Quarter","localName":"Soufrière Quarter","labelEnglish":"Soufrière Quarter","labelLocal":"Soufrière Quarter","labelBoth":"Soufrière Quarter","type":"Quarter","iso":"LC-10","qid":"Q1472841"},"geometry":{"type":"Point","coordinates":[-61.0447,13.8545]}},{"type":"Feature","id":"LCA-5078","properties":{"kind":"division","code":"LCA-5078","countryCode":"LCA","name":"Choiseul Quarter","localName":"Choiseul Quarter","labelEnglish":"Choiseul Quarter","labelLocal":"Choiseul Quarter","labelBoth":"Choiseul Quarter","type":"Quarter","iso":"LC-03","qid":"Q1075816"},"geometry":{"type":"Polygon","coordinates":[[[-61.0189,13.7562],[-60.9809,13.8308],[-60.9816,13.8358],[-61.0681,13.7922],[-61.0189,13.7562]]]}},{"type":"Feature","id":"label-LCA-5078","properties":{"kind":"division-label","code":"LCA-5078","countryCode":"LCA","name":"Choiseul Quarter","localName":"Choiseul Quarter","labelEnglish":"Choiseul Quarter","labelLocal":"Choiseul Quarter","labelBoth":"Choiseul Quarter","type":"Quarter","iso":"LC-03","qid":"Q1075816"},"geometry":{"type":"Point","coordinates":[-61.0296,13.7912]}},{"type":"Feature","id":"LCA-5082","properties":{"kind":"division","code":"LCA-5082","countryCode":"LCA","name":"Laborie Quarter","localName":"Laborie Quarter","labelEnglish":"Laborie Quarter","labelLocal":"Laborie Quarter","labelBoth":"Laborie Quarter","type":"Quarter","iso":"LC-07","qid":"Q599347"},"geometry":{"type":"Polygon","coordinates":[[[-60.9671,13.7306],[-60.9809,13.8308],[-61.0189,13.7562],[-60.9671,13.7306]]]}},{"type":"Feature","id":"label-LCA-5082","properties":{"kind":"division-label","code":"LCA-5082","countryCode":"LCA","name":"Laborie Quarter","localName":"Laborie Quarter","labelEnglish":"Laborie Quarter","labelLocal":"Laborie Quarter","labelBoth":"Laborie Quarter","type":"Quarter","iso":"LC-07","qid":"Q599347"},"geometry":{"type":"Point","coordinates":[-60.9867,13.7676]}},{"type":"Feature","id":"LCA-5086","properties":{"kind":"division","code":"LCA-5086","countryCode":"LCA","name":"Vieux Fort Quarter","localName":"Vieux Fort Quarter","labelEnglish":"Vieux Fort Quarter","labelLocal":"Vieux Fort Quarter","labelBoth":"Vieux Fort Quarter","type":"Quarter","iso":"LC-11","qid":"Q1472864"},"geometry":{"type":"Polygon","coordinates":[[[-60.918,13.774],[-60.9752,13.8392],[-60.9816,13.8358],[-60.9809,13.8308],[-60.9671,13.7306],[-60.918,13.774]]]}},{"type":"Feature","id":"label-LCA-5086","properties":{"kind":"division-label","code":"LCA-5086","countryCode":"LCA","name":"Vieux Fort Quarter","localName":"Vieux Fort Quarter","labelEnglish":"Vieux Fort Quarter","labelLocal":"Vieux Fort Quarter","labelBoth":"Vieux Fort Quarter","type":"Quarter","iso":"LC-11","qid":"Q1472864"},"geometry":{"type":"Point","coordinates":[-60.9438,13.7762]}},{"type":"Feature","id":"LCA-5083","properties":{"kind":"division","code":"LCA-5083","countryCode":"LCA","name":"Micoud Quarter","localName":"Micoud Quarter","labelEnglish":"Micoud Quarter","labelLocal":"Micoud Quarter","labelBoth":"Micoud Quarter","type":"Quarter","iso":"LC-08","qid":"Q1240193"},"geometry":{"type":"Polygon","coordinates":[[[-60.8922,13.8332],[-60.9643,13.8452],[-60.9752,13.8392],[-60.918,13.774],[-60.8922,13.8332]]]}},{"type":"Feature","id":"label-LCA-5083","properties":{"kind":"division-label","code":"LCA-5083","countryCode":"LCA","name":"Micoud Quarter","localName":"Micoud Quarter","labelEnglish":"Micoud Quarter","labelLocal":"Micoud Quarter","labelBoth":"Micoud Quarter","type":"Quarter","iso":"LC-08","qid":"Q1240193"},"geometry":{"type":"Point","coordinates":[-60.918,13.8159]}},{"type":"Feature","id":"LCA-5084","properties":{"kind":"division","code":"LCA-5084","countryCode":"LCA","name":"Praslin Quarter","localName":"Praslin Quarter","labelEnglish":"Praslin Quarter","labelLocal":"Praslin Quarter","labelBoth":"Praslin Quarter","type":"Quarter","iso":"LC-09","qid":"Q1567791"},"geometry":{"type":"Polygon","coordinates":[[[-60.8902,13.9085],[-60.9606,13.9003],[-60.9606,13.879],[-60.9643,13.8452],[-60.8922,13.8332],[-60.8902,13.9085]]]}},{"type":"Feature","id":"label-LCA-5084","properties":{"kind":"division-label","code":"LCA-5084","countryCode":"LCA","name":"Praslin Quarter","localName":"Praslin Quarter","labelEnglish":"Praslin Quarter","labelLocal":"Praslin Quarter","labelBoth":"Praslin Quarter","type":"Quarter","iso":"LC-09","qid":"Q1567791"},"geometry":{"type":"Point","coordinates":[-60.918,13.8674]}},{"type":"Feature","id":"LCA-5080","properties":{"kind":"division","code":"LCA-5080","countryCode":"LCA","name":"Dennery Quarter","localName":"Dennery Quarter","labelEnglish":"Dennery Quarter","labelLocal":"Dennery Quarter","labelBoth":"Dennery Quarter","type":"Quarter","iso":"LC-05","qid":"Q1188890"},"geometry":{"type":"Polygon","coordinates":[[[-60.883,13.9806],[-60.9405,13.9793],[-60.9606,13.9003],[-60.8902,13.9085],[-60.883,13.9806]]]}},{"type":"Feature","id":"label-LCA-5080","properties":{"kind":"division-label","code":"LCA-5080","countryCode":"LCA","name":"Dennery Quarter","localName":"Dennery Quarter","labelEnglish":"Dennery Quarter","labelLocal":"Dennery Quarter","labelBoth":"Dennery Quarter","type":"Quarter","iso":"LC-05","qid":"Q1188890"},"geometry":{"type":"Point","coordinates":[-60.9052,13.9425]}},{"type":"Feature","id":"LCA-5079","properties":{"kind":"division","code":"LCA-5079","countryCode":"LCA","name":"Dauphin Quarter","localName":"Dauphin Quarter","labelEnglish":"Dauphin Quarter","labelLocal":"Dauphin Quarter","labelBoth":"Dauphin Quarter","type":"Quarter","iso":"LC-04","qid":"Q182988"},"geometry":{"type":"Polygon","coordinates":[[[-60.901,14.0734],[-60.9356,14.018],[-60.9405,13.9793],[-60.883,13.9806],[-60.901,14.0734]]]}},{"type":"Feature","id":"label-LCA-5079","properties":{"kind":"division-label","code":"LCA-5079","countryCode":"LCA","name":"Dauphin Quarter","localName":"Dauphin Quarter","labelEnglish":"Dauphin Quarter","labelLocal":"Dauphin Quarter","labelBoth":"Dauphin Quarter","type":"Quarter","iso":"LC-04","qid":"Q182988"},"geometry":{"type":"Point","coordinates":[-60.9062,14.0176]}}]}