{"type":"FeatureCollection","features":[{"type":"Feature","id":"LIE-4893","properties":{"kind":"division","code":"LIE-4893","countryCode":"LIE","name":"Triesen","localName":"Triesen","labelEnglish":"Triesen","labelLocal":"Triesen","labelBoth":"Triesen","type":null,"iso":"LI-09","qid":"Q49654"},"geometry":{"type":"Polygon","coordinates":[[[9.5883,47.063],[9.5828,47.0868],[9.5678,47.0885],[9.5605,47.089],[9.5272,47.1307],[9.5119,47.1294],[9.5029,47.0947],[9.5331,47.0555],[9.5812,47.0569],[9.5883,47.063]]]}},{"type":"Feature","id":"label-LIE-4893","properties":{"kind":"division-label","code":"LIE-4893","countryCode":"LIE","name":"Triesen","localName":"Triesen","labelEnglish":"Triesen","labelLocal":"Triesen","labelBoth":"Triesen","type":null,"iso":"LI-09","qid":"Q49654"},"geometry":{"type":"Point","coordinates":[9.5266,47.1001]}},{"type":"Feature","id":"LIE-4896","properties":{"kind":"division","code":"LIE-4896","countryCode":"LIE","name":"Schaan","localName":"Schaan","labelEnglish":"Schaan","labelLocal":"Schaan","labelBoth":"Schaan","type":null,"iso":"LI-07","qid":"Q49657"},"geometry":{"type":"MultiPolygon","coordinates":[[[[9.6051,47.0776],[9.5978,47.0907],[9.5828,47.0868],[9.5883,47.063],[9.6051,47.0776]]],[[[9.6095,47.1224],[9.5633,47.148],[9.5761,47.1085],[9.5917,47.1113],[9.6142,47.1107],[9.6095,47.1224]]],[[[9.552,47.1756],[9.5311,47.1947],[9.4864,47.1969],[9.4955,47.156],[9.5483,47.1608],[9.5521,47.1669],[9.552,47.1756]]]]}},{"type":"Feature","id":"label-LIE-4896","properties":{"kind":"division-label","code":"LIE-4896","countryCode":"LIE","name":"Schaan","localName":"Schaan","labelEnglish":"Schaan","labelLocal":"Schaan","labelBoth":"Schaan","type":null,"iso":"LI-07","qid":"Q49657"},"geometry":{"type":"Point","coordinates":[9.51381,47.1819]}},{"type":"Feature","id":"LIE-4892","properties":{"kind":"division","code":"LIE-4892","countryCode":"LIE","name":"Triesenberg","localName":"Triesenberg","labelEnglish":"Triesenberg","labelLocal":"Triesenberg","labelBoth":"Triesenberg","type":null,"iso":"LI-10","qid":"Q49651"},"geometry":{"type":"MultiPolygon","coordinates":[[[[9.6142,47.1107],[9.5917,47.1113],[9.5978,47.0907],[9.6051,47.0776],[9.6142,47.1107]]],[[[9.5605,47.089],[9.5678,47.0885],[9.5761,47.1085],[9.5633,47.148],[9.5483,47.1608],[9.5272,47.1307],[9.5605,47.089]]]]}},{"type":"Feature","id":"label-LIE-4892","properties":{"kind":"division-label","code":"LIE-4892","countryCode":"LIE","name":"Triesenberg","localName":"Triesenberg","labelEnglish":"Triesenberg","labelLocal":"Triesenberg","labelBoth":"Triesenberg","type":null,"iso":"LI-10","qid":"Q49651"},"geometry":{"type":"Point","coordinates":[9.54858,47.1284]}},{"type":"Feature","id":"LIE-4894","properties":{"kind":"division","code":"LIE-4894","countryCode":"LIE","name":"Balzers","localName":"Balzers","labelEnglish":"Balzers","labelLocal":"Balzers","labelBoth":"Balzers","type":null,"iso":"LI-01","qid":"Q49663"},"geometry":{"type":"MultiPolygon","coordinates":[[[[9.5671,47.1608],[9.5633,47.148],[9.6095,47.1224],[9.5671,47.1608]]],[[[9.5331,47.0555],[9.5029,47.0947],[9.477,47.0639],[9.5331,47.0555]]]]}},{"type":"Feature","id":"label-LIE-4894","properties":{"kind":"division-label","code":"LIE-4894","countryCode":"LIE","name":"Balzers","localName":"Balzers","labelEnglish":"Balzers","labelLocal":"Balzers","labelBoth":"Balzers","type":null,"iso":"LI-01","qid":"Q49663"},"geometry":{"type":"Point","coordinates":[9.50603,47.0701]}},{"type":"Feature","id":"LIE-4901","properties":{"kind":"division","code":"LIE-4901","countryCode":"LIE","name":"Planken","localName":"Planken","labelEnglish":"Planken","labelLocal":"Planken","labelBoth":"Planken","type":null,"iso":"LI-05","qid":"Q49660"},"geometry":{"type":"MultiPolygon","coordinates":[[[[9.5521,47.1669],[9.5483,47.1608],[9.5633,47.148],[9.5671,47.1608],[9.5521,47.1669]]],[[[9.5619,47.1906],[9.5311,47.1947],[9.552,47.1756],[9.5619,47.1906]]]]}},{"type":"Feature","id":"label-LIE-4901","properties":{"kind":"division-label","code":"LIE-4901","countryCode":"LIE","name":"Planken","localName":"Planken","labelEnglish":"Planken","labelLocal":"Planken","labelBoth":"Planken","type":null,"iso":"LI-05","qid":"Q49660"},"geometry":{"type":"Point","coordinates":[9.5494,47.1875]}},{"type":"Feature","id":"LIE-4902","properties":{"kind":"division","code":"LIE-4902","countryCode":"LIE","name":"Eschen","localName":"Eschen","labelEnglish":"Eschen","labelLocal":"Eschen","labelBoth":"Eschen","type":null,"iso":"LI-02","qid":"Q4540"},"geometry":{"type":"Polygon","coordinates":[[[9.5543,47.2116],[9.5199,47.2253],[9.5127,47.2247],[9.5311,47.1947],[9.5619,47.1906],[9.5543,47.2116]]]}},{"type":"Feature","id":"label-LIE-4902","properties":{"kind":"division-label","code":"LIE-4902","countryCode":"LIE","name":"Eschen","localName":"Eschen","labelEnglish":"Eschen","labelLocal":"Eschen","labelBoth":"Eschen","type":null,"iso":"LI-02","qid":"Q4540"},"geometry":{"type":"Point","coordinates":[9.53383,47.2058]}},{"type":"Feature","id":"LIE-4900","properties":{"kind":"division","code":"LIE-4900","countryCode":"LIE","name":"Mauren","localName":"Mauren","labelEnglish":"Mauren","labelLocal":"Mauren","labelBoth":"Mauren","type":null,"iso":"LI-04","qid":"Q49661"},"geometry":{"type":"Polygon","coordinates":[[[9.5431,47.2348],[9.5199,47.2253],[9.5543,47.2116],[9.5431,47.2348]]]}},{"type":"Feature","id":"label-LIE-4900","properties":{"kind":"division-label","code":"LIE-4900","countryCode":"LIE","name":"Mauren","localName":"Mauren","labelEnglish":"Mauren","labelLocal":"Mauren","labelBoth":"Mauren","type":null,"iso":"LI-04","qid":"Q49661"},"geometry":{"type":"Point","coordinates":[9.53828,47.2214]}},{"type":"Feature","id":"LIE-4899","properties":{"kind":"division","code":"LIE-4899","countryCode":"LIE","name":"Schellenberg","localName":"Schellenberg","labelEnglish":"Schellenberg","labelLocal":"Schellenberg","labelBoth":"Schellenberg","type":null,"iso":"LI-08","qid":"Q49655"},"geometry":{"type":"Polygon","coordinates":[[[9.5342,47.2512],[9.5199,47.2253],[9.5431,47.2348],[9.5342,47.2512]]]}},{"type":"Feature","id":"label-LIE-4899","properties":{"kind":"division-label","code":"LIE-4899","countryCode":"LIE","name":"Schellenberg","localName":"Schellenberg","labelEnglish":"Schellenberg","labelLocal":"Schellenberg","labelBoth":"Schellenberg","type":null,"iso":"LI-08","qid":"Q49655"},"geometry":{"type":"Point","coordinates":[9.53828,47.242]}},{"type":"Feature","id":"LIE-4898","properties":{"kind":"division","code":"LIE-4898","countryCode":"LIE","name":"Ruggell","localName":"Ruggell","labelEnglish":"Ruggell","labelLocal":"Ruggell","labelBoth":"Ruggell","type":null,"iso":"LI-06","qid":"Q49659"},"geometry":{"type":"Polygon","coordinates":[[[9.5212,47.2628],[9.497,47.2289],[9.5127,47.2247],[9.5199,47.2253],[9.5342,47.2512],[9.5212,47.2628]]]}},{"type":"Feature","id":"label-LIE-4898","properties":{"kind":"division-label","code":"LIE-4898","countryCode":"LIE","name":"Ruggell","localName":"Ruggell","labelEnglish":"Ruggell","labelLocal":"Ruggell","labelBoth":"Ruggell","type":null,"iso":"LI-06","qid":"Q49659"},"geometry":{"type":"Point","coordinates":[9.51882,47.2458]}},{"type":"Feature","id":"LIE-4895","properties":{"kind":"division","code":"LIE-4895","countryCode":"LIE","name":"Vaduz","localName":"Vaduz","labelEnglish":"Vaduz","labelLocal":"Vaduz","labelBoth":"Vaduz","type":null,"iso":"LI-11","qid":"Q1844"},"geometry":{"type":"MultiPolygon","coordinates":[[[[9.5119,47.1294],[9.5272,47.1307],[9.5483,47.1608],[9.4955,47.156],[9.5119,47.1294]]],[[[9.5678,47.0885],[9.5828,47.0868],[9.5978,47.0907],[9.5917,47.1113],[9.5761,47.1085],[9.5678,47.0885]]]]}},{"type":"Feature","id":"label-LIE-4895","properties":{"kind":"division-label","code":"LIE-4895","countryCode":"LIE","name":"Vaduz","localName":"Vaduz","labelEnglish":"Vaduz","labelLocal":"Vaduz","labelBoth":"Vaduz","type":null,"iso":"LI-11","qid":"Q1844"},"geometry":{"type":"Point","coordinates":[9.51826,47.1469]}},{"type":"Feature","id":"LIE-4897","properties":{"kind":"division","code":"LIE-4897","countryCode":"LIE","name":"Gamprin","localName":"Gamprin","labelEnglish":"Gamprin","labelLocal":"Gamprin","labelBoth":"Gamprin","type":null,"iso":"LI-03","qid":"Q49662"},"geometry":{"type":"Polygon","coordinates":[[[9.4864,47.1969],[9.5311,47.1947],[9.5127,47.2247],[9.497,47.2289],[9.4864,47.1969]]]}},{"type":"Feature","id":"label-LIE-4897","properties":{"kind":"division-label","code":"LIE-4897","countryCode":"LIE","name":"Gamprin","localName":"Gamprin","labelEnglish":"Gamprin","labelLocal":"Gamprin","labelBoth":"Gamprin","type":null,"iso":"LI-03","qid":"Q49662"},"geometry":{"type":"Point","coordinates":[9.50213,47.2052]}}]}