{"type":"FeatureCollection","features":[{"type":"Feature","id":"LKA-2454","properties":{"kind":"division","code":"LKA-2454","countryCode":"LKA","name":"Trincomalee","localName":"Trincomalee","labelEnglish":"Trincomalee","labelLocal":"Trincomalee","labelBoth":"Trincomalee","type":"District","iso":"LK-53","qid":"Q1493318"},"geometry":{"type":"Polygon","coordinates":[[[80.9229,8.9889],[80.7657,8.9368],[80.753,8.9051],[80.9126,8.8368],[80.9242,8.3369],[81.3103,8.2574],[81.4167,8.2539],[81.3657,8.4822],[80.9229,8.9889]]]}},{"type":"Feature","id":"label-LKA-2454","properties":{"kind":"division-label","code":"LKA-2454","countryCode":"LKA","name":"Trincomalee","localName":"Trincomalee","labelEnglish":"Trincomalee","labelLocal":"Trincomalee","labelBoth":"Trincomalee","type":"District","iso":"LK-53","qid":"Q1493318"},"geometry":{"type":"Point","coordinates":[81.0848,8.56202]}},{"type":"Feature","id":"LKA-2458","properties":{"kind":"division","code":"LKA-2458","countryCode":"LKA","name":"Mullaitivu","localName":"Mullaitivu","labelEnglish":"Mullaitivu","labelLocal":"Mullaitivu","labelBoth":"Mullaitivu","type":"District","iso":"LK-45","qid":"Q1587508"},"geometry":{"type":"Polygon","coordinates":[[[80.626,9.4548],[80.6148,9.4462],[80.1917,9.2372],[80.175,8.9503],[80.34,8.959],[80.6166,9.1257],[80.7657,8.9368],[80.9229,8.9889],[80.8239,9.2705],[80.626,9.4548]]]}},{"type":"Feature","id":"label-LKA-2458","properties":{"kind":"division-label","code":"LKA-2458","countryCode":"LKA","name":"Mullaitivu","localName":"Mullaitivu","labelEnglish":"Mullaitivu","labelLocal":"Mullaitivu","labelBoth":"Mullaitivu","type":"District","iso":"LK-45","qid":"Q1587508"},"geometry":{"type":"Point","coordinates":[80.5667,9.24043]}},{"type":"Feature","id":"LKA-2459","properties":{"kind":"division","code":"LKA-2459","countryCode":"LKA","name":"Jaffna","localName":"Jaffna","labelEnglish":"Jaffna","labelLocal":"Jaffna","labelBoth":"Jaffna","type":"District","iso":"LK-41","qid":"Q1520182"},"geometry":{"type":"MultiPolygon","coordinates":[[[[80.4417,9.5769],[80.4564,9.5287],[80.6148,9.4462],[80.626,9.4548],[80.4417,9.5769]]],[[[80.256,9.6156],[80.2907,9.6808],[80.1223,9.8189],[79.9097,9.7683],[80.256,9.6156]]]]}},{"type":"Feature","id":"label-LKA-2459","properties":{"kind":"division-label","code":"LKA-2459","countryCode":"LKA","name":"Jaffna","localName":"Jaffna","labelEnglish":"Jaffna","labelLocal":"Jaffna","labelBoth":"Jaffna","type":"District","iso":"LK-41","qid":"Q1520182"},"geometry":{"type":"Point","coordinates":[79.6933,9.50669]}},{"type":"Feature","id":"LKA-2460","properties":{"kind":"division","code":"LKA-2460","countryCode":"LKA","name":"Kilinochchi","localName":"Kilinochchi","labelEnglish":"Kilinochchi","labelLocal":"Kilinochchi","labelBoth":"Kilinochchi","type":"District","iso":"LK-42","qid":"Q1584007"},"geometry":{"type":"MultiPolygon","coordinates":[[[[80.2907,9.6808],[80.256,9.6156],[80.4564,9.5287],[80.4417,9.5769],[80.2907,9.6808]]],[[[80.1098,9.2095],[80.1917,9.2372],[80.6148,9.4462],[80.2722,9.5041],[80.053,9.3915],[80.1098,9.2095]]]]}},{"type":"Feature","id":"label-LKA-2460","properties":{"kind":"division-label","code":"LKA-2460","countryCode":"LKA","name":"Kilinochchi","localName":"Kilinochchi","labelEnglish":"Kilinochchi","labelLocal":"Kilinochchi","labelBoth":"Kilinochchi","type":"District","iso":"LK-42","qid":"Q1584007"},"geometry":{"type":"Point","coordinates":[80.3341,9.38429]}},{"type":"Feature","id":"LKA-2457","properties":{"kind":"division","code":"LKA-2457","countryCode":"LKA","name":"Mannar","localName":"Mannar","labelEnglish":"Mannar","labelLocal":"Mannar","labelBoth":"Mannar","type":"District","iso":"LK-43","qid":"Q178003"},"geometry":{"type":"Polygon","coordinates":[[[79.9128,8.572],[80.0325,8.5271],[80.2353,8.6803],[80.34,8.959],[80.175,8.9503],[80.1917,9.2372],[80.1098,9.2095],[79.9155,8.9385],[79.9128,8.572]]]}},{"type":"Feature","id":"label-LKA-2457","properties":{"kind":"division-label","code":"LKA-2457","countryCode":"LKA","name":"Mannar","localName":"Mannar","labelEnglish":"Mannar","labelLocal":"Mannar","labelBoth":"Mannar","type":"District","iso":"LK-43","qid":"Q178003"},"geometry":{"type":"Point","coordinates":[80.0854,8.84371]}},{"type":"Feature","id":"LKA-2462","properties":{"kind":"division","code":"LKA-2462","countryCode":"LKA","name":"Puttalam","localName":"Puttalam","labelEnglish":"Puttalam","labelLocal":"Puttalam","labelBoth":"Puttalam","type":"District","iso":"LK-62","qid":"Q1665318"},"geometry":{"type":"Polygon","coordinates":[[[79.8279,7.276],[79.9413,7.2744],[79.9021,7.5999],[80.1532,8.0678],[80.1025,8.1962],[80.0325,8.5271],[79.9128,8.572],[79.7319,8.0131],[79.8279,7.276]]]}},{"type":"Feature","id":"label-LKA-2462","properties":{"kind":"division-label","code":"LKA-2462","countryCode":"LKA","name":"Puttalam","localName":"Puttalam","labelEnglish":"Puttalam","labelLocal":"Puttalam","labelBoth":"Puttalam","type":"District","iso":"LK-62","qid":"Q1665318"},"geometry":{"type":"Point","coordinates":[79.9111,7.94944]}},{"type":"Feature","id":"LKA-2471","properties":{"kind":"division","code":"LKA-2471","countryCode":"LKA","name":"Gampaha","localName":"Gampaha","labelEnglish":"Gampaha","labelLocal":"Gampaha","labelBoth":"Gampaha","type":"District","iso":"LK-12","qid":"Q206344"},"geometry":{"type":"Polygon","coordinates":[[[79.8493,6.965],[80.1795,6.9778],[80.1936,7.2572],[79.9413,7.2744],[79.8279,7.276],[79.8493,6.965]]]}},{"type":"Feature","id":"label-LKA-2471","properties":{"kind":"division-label","code":"LKA-2471","countryCode":"LKA","name":"Gampaha","localName":"Gampaha","labelEnglish":"Gampaha","labelLocal":"Gampaha","labelBoth":"Gampaha","type":"District","iso":"LK-12","qid":"Q206344"},"geometry":{"type":"Point","coordinates":[80.0106,7.12599]}},{"type":"Feature","id":"LKA-2470","properties":{"kind":"division","code":"LKA-2470","countryCode":"LKA","name":"Colombo","localName":"Colombo","labelEnglish":"Colombo","labelLocal":"Colombo","labelBoth":"Colombo","type":"District","iso":"LK-11","qid":"Q606287"},"geometry":{"type":"Polygon","coordinates":[[[79.9004,6.712],[80.1796,6.8135],[80.2101,6.9176],[80.1795,6.9778],[79.8493,6.965],[79.9004,6.712]]]}},{"type":"Feature","id":"label-LKA-2470","properties":{"kind":"division-label","code":"LKA-2470","countryCode":"LKA","name":"Colombo","localName":"Colombo","labelEnglish":"Colombo","labelLocal":"Colombo","labelBoth":"Colombo","type":"District","iso":"LK-11","qid":"Q606287"},"geometry":{"type":"Point","coordinates":[80.0349,6.85989]}},{"type":"Feature","id":"LKA-2472","properties":{"kind":"division","code":"LKA-2472","countryCode":"LKA","name":"Kalutara","localName":"Kalutara","labelEnglish":"Kalutara","labelLocal":"Kalutara","labelBoth":"Kalutara","type":"District","iso":"LK-13","qid":"Q728935"},"geometry":{"type":"Polygon","coordinates":[[[79.9821,6.441],[80.3819,6.4258],[80.1796,6.8135],[79.9004,6.712],[79.9821,6.441]]]}},{"type":"Feature","id":"label-LKA-2472","properties":{"kind":"division-label","code":"LKA-2472","countryCode":"LKA","name":"Kalutara","localName":"Kalutara","labelEnglish":"Kalutara","labelLocal":"Kalutara","labelBoth":"Kalutara","type":"District","iso":"LK-13","qid":"Q728935"},"geometry":{"type":"Point","coordinates":[80.1374,6.58989]}},{"type":"Feature","id":"LKA-2464","properties":{"kind":"division","code":"LKA-2464","countryCode":"LKA","name":"Galle","localName":"Galle","labelEnglish":"Galle","labelLocal":"Galle","labelBoth":"Galle","type":"District","iso":"LK-31","qid":"Q647649"},"geometry":{"type":"Polygon","coordinates":[[[80.385,5.9638],[80.4953,6.3675],[80.3819,6.4258],[79.9821,6.441],[80.1852,6.0412],[80.385,5.9638]]]}},{"type":"Feature","id":"label-LKA-2464","properties":{"kind":"division-label","code":"LKA-2464","countryCode":"LKA","name":"Galle","localName":"Galle","labelEnglish":"Galle","labelLocal":"Galle","labelBoth":"Galle","type":"District","iso":"LK-31","qid":"Q647649"},"geometry":{"type":"Point","coordinates":[80.2387,6.19513]}},{"type":"Feature","id":"LKA-2466","properties":{"kind":"division","code":"LKA-2466","countryCode":"LKA","name":"Matara","localName":"Matara","labelEnglish":"Matara","labelLocal":"Matara","labelBoth":"Matara","type":"District","iso":"LK-32","qid":"Q1281285"},"geometry":{"type":"Polygon","coordinates":[[[80.7297,5.9756],[80.67,6.306],[80.4953,6.3675],[80.385,5.9638],[80.7297,5.9756]]]}},{"type":"Feature","id":"label-LKA-2466","properties":{"kind":"division-label","code":"LKA-2466","countryCode":"LKA","name":"Matara","localName":"Matara","labelEnglish":"Matara","labelLocal":"Matara","labelBoth":"Matara","type":"District","iso":"LK-32","qid":"Q1281285"},"geometry":{"type":"Point","coordinates":[80.5542,6.16548]}},{"type":"Feature","id":"LKA-2465","properties":{"kind":"division","code":"LKA-2465","countryCode":"LKA","name":"Hambantota","localName":"Hambantota","labelEnglish":"Hambantota","labelLocal":"Hambantota","labelBoth":"Hambantota","type":"District","iso":"LK-33","qid":"Q723006"},"geometry":{"type":"Polygon","coordinates":[[[81.7121,6.5103],[81.6081,6.5788],[81.2469,6.3428],[81.049,6.4217],[80.9198,6.2957],[80.67,6.306],[80.7297,5.9756],[81.3621,6.2254],[81.7121,6.5103]]]}},{"type":"Feature","id":"label-LKA-2465","properties":{"kind":"division-label","code":"LKA-2465","countryCode":"LKA","name":"Hambantota","localName":"Hambantota","labelEnglish":"Hambantota","labelLocal":"Hambantota","labelBoth":"Hambantota","type":"District","iso":"LK-33","qid":"Q723006"},"geometry":{"type":"Point","coordinates":[81.1619,6.2704]}},{"type":"Feature","id":"LKA-2451","properties":{"kind":"division","code":"LKA-2451","countryCode":"LKA","name":"Ampara","localName":"Ampara","labelEnglish":"Ampara","labelLocal":"Ampara","labelBoth":"Ampara","type":"District","iso":"LK-52","qid":"Q474395"},"geometry":{"type":"Polygon","coordinates":[[[81.77,7.4608],[81.4455,7.5513],[81.2412,7.7391],[80.989,7.7208],[80.9881,7.6149],[81.2015,7.5583],[81.2705,7.2768],[81.4578,7.4561],[81.6168,7.0596],[81.6081,6.5788],[81.7121,6.5103],[81.8903,7.0199],[81.77,7.4608]]]}},{"type":"Feature","id":"label-LKA-2451","properties":{"kind":"division-label","code":"LKA-2451","countryCode":"LKA","name":"Ampara","localName":"Ampara","labelEnglish":"Ampara","labelLocal":"Ampara","labelBoth":"Ampara","type":"District","iso":"LK-52","qid":"Q474395"},"geometry":{"type":"Point","coordinates":[81.7242,7.1632]}},{"type":"Feature","id":"LKA-2452","properties":{"kind":"division","code":"LKA-2452","countryCode":"LKA","name":"Batticaloa","localName":"Batticaloa","labelEnglish":"Batticaloa","labelLocal":"Batticaloa","labelBoth":"Batticaloa","type":"District","iso":"LK-51","qid":"Q810960"},"geometry":{"type":"Polygon","coordinates":[[[81.4167,8.2539],[81.3103,8.2574],[81.3399,7.9374],[81.2412,7.7391],[81.4455,7.5513],[81.77,7.4608],[81.6968,7.753],[81.4167,8.2539]]]}},{"type":"Feature","id":"label-LKA-2452","properties":{"kind":"division-label","code":"LKA-2452","countryCode":"LKA","name":"Batticaloa","localName":"Batticaloa","labelEnglish":"Batticaloa","labelLocal":"Batticaloa","labelBoth":"Batticaloa","type":"District","iso":"LK-51","qid":"Q810960"},"geometry":{"type":"Point","coordinates":[81.4613,7.85079]}},{"type":"Feature","id":"LKA-2463","properties":{"kind":"division","code":"LKA-2463","countryCode":"LKA","name":"Ratnapura","localName":"Ratnapura","labelEnglish":"Ratnapura","labelLocal":"Ratnapura","labelBoth":"Ratnapura","type":"District","iso":"LK-91","qid":"Q1587175"},"geometry":{"type":"Polygon","coordinates":[[[80.928,6.6875],[80.8095,6.7919],[80.496,6.8317],[80.2101,6.9176],[80.1796,6.8135],[80.3819,6.4258],[80.4953,6.3675],[80.67,6.306],[80.9198,6.2957],[80.8296,6.4945],[80.928,6.6875]]]}},{"type":"Feature","id":"label-LKA-2463","properties":{"kind":"division-label","code":"LKA-2463","countryCode":"LKA","name":"Ratnapura","localName":"Ratnapura","labelEnglish":"Ratnapura","labelLocal":"Ratnapura","labelBoth":"Ratnapura","type":"District","iso":"LK-91","qid":"Q1587175"},"geometry":{"type":"Point","coordinates":[80.5623,6.57933]}},{"type":"Feature","id":"LKA-2468","properties":{"kind":"division","code":"LKA-2468","countryCode":"LKA","name":"Monaragala","localName":"Monaragala","labelEnglish":"Monaragala","labelLocal":"Monaragala","labelBoth":"Monaragala","type":"District","iso":"LK-82","qid":"Q923420"},"geometry":{"type":"Polygon","coordinates":[[[80.9198,6.2957],[81.049,6.4217],[81.2469,6.3428],[81.6081,6.5788],[81.6168,7.0596],[81.4578,7.4561],[81.2705,7.2768],[81.2435,7.023],[80.928,6.6875],[80.8296,6.4945],[80.9198,6.2957]]]}},{"type":"Feature","id":"label-LKA-2468","properties":{"kind":"division-label","code":"LKA-2468","countryCode":"LKA","name":"Monaragala","localName":"Monaragala","labelEnglish":"Monaragala","labelLocal":"Monaragala","labelBoth":"Monaragala","type":"District","iso":"LK-82","qid":"Q923420"},"geometry":{"type":"Point","coordinates":[81.3431,6.7224]}},{"type":"Feature","id":"LKA-2469","properties":{"kind":"division","code":"LKA-2469","countryCode":"LKA","name":"Kegalle","localName":"Kegalle","labelEnglish":"Kegalle","labelLocal":"Kegalle","labelBoth":"Kegalle","type":"District","iso":"LK-92","qid":"Q1737803"},"geometry":{"type":"Polygon","coordinates":[[[80.2101,6.9176],[80.496,6.8317],[80.4634,7.0284],[80.4221,7.3572],[80.1936,7.2572],[80.1795,6.9778],[80.2101,6.9176]]]}},{"type":"Feature","id":"label-LKA-2469","properties":{"kind":"division-label","code":"LKA-2469","countryCode":"LKA","name":"Kegalle","localName":"Kegalle","labelEnglish":"Kegalle","labelLocal":"Kegalle","labelBoth":"Kegalle","type":"District","iso":"LK-92","qid":"Q1737803"},"geometry":{"type":"Point","coordinates":[80.3478,7.08797]}},{"type":"Feature","id":"LKA-2467","properties":{"kind":"division","code":"LKA-2467","countryCode":"LKA","name":"Badulla","localName":"Badulla","labelEnglish":"Badulla","labelLocal":"Badulla","labelBoth":"Badulla","type":"District","iso":"LK-81","qid":"Q799713"},"geometry":{"type":"Polygon","coordinates":[[[81.2705,7.2768],[81.2015,7.5583],[80.9881,7.6149],[80.9833,7.4861],[80.9512,7.1918],[80.8095,6.7919],[80.928,6.6875],[81.2435,7.023],[81.2705,7.2768]]]}},{"type":"Feature","id":"label-LKA-2467","properties":{"kind":"division-label","code":"LKA-2467","countryCode":"LKA","name":"Badulla","localName":"Badulla","labelEnglish":"Badulla","labelLocal":"Badulla","labelBoth":"Badulla","type":"District","iso":"LK-81","qid":"Q799713"},"geometry":{"type":"Point","coordinates":[81.0255,7.05184]}},{"type":"Feature","id":"LKA-2449","properties":{"kind":"division","code":"LKA-2449","countryCode":"LKA","name":"Matale","localName":"Matale","labelEnglish":"Matale","labelLocal":"Matale","labelBoth":"Matale","type":"District","iso":"LK-22","qid":"Q787421"},"geometry":{"type":"Polygon","coordinates":[[[80.7561,8.0123],[80.4991,7.815],[80.5656,7.4576],[80.9833,7.4861],[80.9881,7.6149],[80.989,7.7208],[80.7817,7.6783],[80.7561,8.0123]]]}},{"type":"Feature","id":"label-LKA-2449","properties":{"kind":"division-label","code":"LKA-2449","countryCode":"LKA","name":"Matale","localName":"Matale","labelEnglish":"Matale","labelLocal":"Matale","labelBoth":"Matale","type":"District","iso":"LK-22","qid":"Q787421"},"geometry":{"type":"Point","coordinates":[80.7391,7.60919]}},{"type":"Feature","id":"LKA-2453","properties":{"kind":"division","code":"LKA-2453","countryCode":"LKA","name":"Polonnaruwa","localName":"Polonnaruwa","labelEnglish":"Polonnaruwa","labelLocal":"Polonnaruwa","labelBoth":"Polonnaruwa","type":"District","iso":"LK-72","qid":"Q931057"},"geometry":{"type":"Polygon","coordinates":[[[80.7561,8.0123],[80.7817,7.6783],[80.989,7.7208],[81.2412,7.7391],[81.3399,7.9374],[81.3103,8.2574],[80.9242,8.3369],[80.7561,8.0123]]]}},{"type":"Feature","id":"label-LKA-2453","properties":{"kind":"division-label","code":"LKA-2453","countryCode":"LKA","name":"Polonnaruwa","localName":"Polonnaruwa","labelEnglish":"Polonnaruwa","labelLocal":"Polonnaruwa","labelBoth":"Polonnaruwa","type":"District","iso":"LK-72","qid":"Q931057"},"geometry":{"type":"Point","coordinates":[81.048,7.99997]}},{"type":"Feature","id":"LKA-2461","properties":{"kind":"division","code":"LKA-2461","countryCode":"LKA","name":"Kurunegala","localName":"Kurunegala","labelEnglish":"Kurunegala","labelLocal":"Kurunegala","labelBoth":"Kurunegala","type":"District","iso":"LK-61","qid":"Q745073"},"geometry":{"type":"Polygon","coordinates":[[[80.4221,7.3572],[80.5656,7.4576],[80.4991,7.815],[80.4202,8.0403],[80.1025,8.1962],[80.1532,8.0678],[79.9021,7.5999],[79.9413,7.2744],[80.1936,7.2572],[80.4221,7.3572]]]}},{"type":"Feature","id":"label-LKA-2461","properties":{"kind":"division-label","code":"LKA-2461","countryCode":"LKA","name":"Kurunegala","localName":"Kurunegala","labelEnglish":"Kurunegala","labelLocal":"Kurunegala","labelBoth":"Kurunegala","type":"District","iso":"LK-61","qid":"Q745073"},"geometry":{"type":"Point","coordinates":[80.2369,7.71298]}},{"type":"Feature","id":"LKA-2455","properties":{"kind":"division","code":"LKA-2455","countryCode":"LKA","name":"Anuradhapura","localName":"Anuradhapura","labelEnglish":"Anuradhapura","labelLocal":"Anuradhapura","labelBoth":"Anuradhapura","type":"District","iso":"LK-71","qid":"Q612614"},"geometry":{"type":"Polygon","coordinates":[[[80.9242,8.3369],[80.9126,8.8368],[80.753,8.9051],[80.338,8.5461],[80.2353,8.6803],[80.0325,8.5271],[80.1025,8.1962],[80.4202,8.0403],[80.4991,7.815],[80.7561,8.0123],[80.9242,8.3369]]]}},{"type":"Feature","id":"label-LKA-2455","properties":{"kind":"division-label","code":"LKA-2455","countryCode":"LKA","name":"Anuradhapura","localName":"Anuradhapura","labelEnglish":"Anuradhapura","labelLocal":"Anuradhapura","labelBoth":"Anuradhapura","type":"District","iso":"LK-71","qid":"Q612614"},"geometry":{"type":"Point","coordinates":[80.4711,8.29198]}},{"type":"Feature","id":"LKA-2450","properties":{"kind":"division","code":"LKA-2450","countryCode":"LKA","name":"Nuwara Eliya","localName":"Nuwara Eliya","labelEnglish":"Nuwara Eliya","labelLocal":"Nuwara Eliya","labelBoth":"Nuwara Eliya","type":"District","iso":"LK-23","qid":"Q1583950"},"geometry":{"type":"Polygon","coordinates":[[[80.496,6.8317],[80.8095,6.7919],[80.9512,7.1918],[80.7687,7.2056],[80.4634,7.0284],[80.496,6.8317]]]}},{"type":"Feature","id":"label-LKA-2450","properties":{"kind":"division-label","code":"LKA-2450","countryCode":"LKA","name":"Nuwara Eliya","localName":"Nuwara Eliya","labelEnglish":"Nuwara Eliya","labelLocal":"Nuwara Eliya","labelBoth":"Nuwara Eliya","type":"District","iso":"LK-23","qid":"Q1583950"},"geometry":{"type":"Point","coordinates":[80.6991,6.93625]}},{"type":"Feature","id":"LKA-2456","properties":{"kind":"division","code":"LKA-2456","countryCode":"LKA","name":"Vavuniya","localName":"Vavuniya","labelEnglish":"Vavuniya","labelLocal":"Vavuniya","labelBoth":"Vavuniya","type":"District","iso":"LK-44","qid":"Q527980"},"geometry":{"type":"Polygon","coordinates":[[[80.753,8.9051],[80.7657,8.9368],[80.6166,9.1257],[80.34,8.959],[80.2353,8.6803],[80.338,8.5461],[80.753,8.9051]]]}},{"type":"Feature","id":"label-LKA-2456","properties":{"kind":"division-label","code":"LKA-2456","countryCode":"LKA","name":"Vavuniya","localName":"Vavuniya","labelEnglish":"Vavuniya","labelLocal":"Vavuniya","labelBoth":"Vavuniya","type":"District","iso":"LK-44","qid":"Q527980"},"geometry":{"type":"Point","coordinates":[80.479,8.89756]}},{"type":"Feature","id":"LKA-2448","properties":{"kind":"division","code":"LKA-2448","countryCode":"LKA","name":"Kandy","localName":"Kandy","labelEnglish":"Kandy","labelLocal":"Kandy","labelBoth":"Kandy","type":"District","iso":"LK-21","qid":null},"geometry":{"type":"Polygon","coordinates":[[[80.4634,7.0284],[80.7687,7.2056],[80.9512,7.1918],[80.9833,7.4861],[80.5656,7.4576],[80.4221,7.3572],[80.4634,7.0284]]]}},{"type":"Feature","id":"label-LKA-2448","properties":{"kind":"division-label","code":"LKA-2448","countryCode":"LKA","name":"Kandy","localName":"Kandy","labelEnglish":"Kandy","labelLocal":"Kandy","labelBoth":"Kandy","type":"District","iso":"LK-21","qid":null},"geometry":{"type":"Point","coordinates":[80.718,7.30186]}}]}