{"type":"FeatureCollection","features":[{"type":"Feature","id":"LSO-1213","properties":{"kind":"division","code":"LSO-1213","countryCode":"LSO","name":"Mokhotlong","localName":"Mokhotlong","labelEnglish":"Mokhotlong","labelLocal":"Mokhotlong","labelBoth":"Mokhotlong","type":"District","iso":"LS-J","qid":"Q817340"},"geometry":{"type":"Polygon","coordinates":[[[28.859,-28.773],[28.8279,-28.7595],[28.7913,-28.8892],[28.5621,-29.2589],[28.7826,-29.4893],[29.2752,-29.5283],[29.4359,-29.3424],[29.3118,-29.0898],[28.859,-28.773]]]}},{"type":"Feature","id":"label-LSO-1213","properties":{"kind":"division-label","code":"LSO-1213","countryCode":"LSO","name":"Mokhotlong","localName":"Mokhotlong","labelEnglish":"Mokhotlong","labelLocal":"Mokhotlong","labelBoth":"Mokhotlong","type":"District","iso":"LS-J","qid":"Q817340"},"geometry":{"type":"Point","coordinates":[28.9988,-29.202]}},{"type":"Feature","id":"LSO-1211","properties":{"kind":"division","code":"LSO-1211","countryCode":"LSO","name":"Butha-Buthe","localName":"Butha-Buthe","labelEnglish":"Butha-Buthe","labelLocal":"Butha-Buthe","labelBoth":"Butha-Buthe","type":"District","iso":"LS-B","qid":"Q535632"},"geometry":{"type":"Polygon","coordinates":[[[28.8279,-28.7595],[28.6343,-28.5708],[28.2181,-28.7007],[28.6212,-29.0514],[28.7913,-28.8892],[28.8279,-28.7595]]]}},{"type":"Feature","id":"label-LSO-1211","properties":{"kind":"division-label","code":"LSO-1211","countryCode":"LSO","name":"Butha-Buthe","localName":"Butha-Buthe","labelEnglish":"Butha-Buthe","labelLocal":"Butha-Buthe","labelBoth":"Butha-Buthe","type":"District","iso":"LS-B","qid":"Q535632"},"geometry":{"type":"Point","coordinates":[28.5244,-28.8328]}},{"type":"Feature","id":"LSO-1212","properties":{"kind":"division","code":"LSO-1212","countryCode":"LSO","name":"Leribe","localName":"Leribe","labelEnglish":"Leribe","labelLocal":"Leribe","labelBoth":"Leribe","type":"District","iso":"LS-C","qid":"Q819987"},"geometry":{"type":"Polygon","coordinates":[[[28.2181,-28.7007],[27.7474,-28.9086],[27.6345,-29.091],[28.0002,-28.9374],[28.2645,-29.1192],[28.5621,-29.2589],[28.7913,-28.8892],[28.6212,-29.0514],[28.2181,-28.7007]]]}},{"type":"Feature","id":"label-LSO-1212","properties":{"kind":"division-label","code":"LSO-1212","countryCode":"LSO","name":"Leribe","localName":"Leribe","labelEnglish":"Leribe","labelLocal":"Leribe","labelBoth":"Leribe","type":"District","iso":"LS-C","qid":"Q819987"},"geometry":{"type":"Point","coordinates":[28.2108,-28.8926]}},{"type":"Feature","id":"LSO-1214","properties":{"kind":"division","code":"LSO-1214","countryCode":"LSO","name":"Qacha's Nek","localName":"Qacha's Nek","labelEnglish":"Qacha's Nek","labelLocal":"Qacha's Nek","labelBoth":"Qacha's Nek","type":"District","iso":"LS-H","qid":"Q850423"},"geometry":{"type":"Polygon","coordinates":[[[29.0158,-29.9786],[29.1136,-29.7529],[28.6974,-29.8794],[28.5399,-29.7762],[28.548,-29.9189],[28.2647,-30.0013],[28.3556,-30.1732],[29.0158,-29.9786]]]}},{"type":"Feature","id":"label-LSO-1214","properties":{"kind":"division-label","code":"LSO-1214","countryCode":"LSO","name":"Qacha's Nek","localName":"Qacha's Nek","labelEnglish":"Qacha's Nek","labelLocal":"Qacha's Nek","labelBoth":"Qacha's Nek","type":"District","iso":"LS-H","qid":"Q850423"},"geometry":{"type":"Point","coordinates":[28.6768,-29.9679]}},{"type":"Feature","id":"LSO-1215","properties":{"kind":"division","code":"LSO-1215","countryCode":"LSO","name":"Thaba-Tseka","localName":"Thaba-Tseka","labelEnglish":"Thaba-Tseka","labelLocal":"Thaba-Tseka","labelBoth":"Thaba-Tseka","type":"District","iso":"LS-K","qid":"Q817327"},"geometry":{"type":"Polygon","coordinates":[[[29.2752,-29.5283],[28.7826,-29.4893],[28.5621,-29.2589],[28.2645,-29.1192],[28.2034,-29.3322],[28.1841,-29.7095],[28.2819,-29.8944],[28.5399,-29.7762],[28.6974,-29.8794],[29.1136,-29.7529],[29.2752,-29.5283]]]}},{"type":"Feature","id":"label-LSO-1215","properties":{"kind":"division-label","code":"LSO-1215","countryCode":"LSO","name":"Thaba-Tseka","localName":"Thaba-Tseka","labelEnglish":"Thaba-Tseka","labelLocal":"Thaba-Tseka","labelBoth":"Thaba-Tseka","type":"District","iso":"LS-K","qid":"Q817327"},"geometry":{"type":"Point","coordinates":[28.6979,-29.6029]}},{"type":"Feature","id":"LSO-1202","properties":{"kind":"division","code":"LSO-1202","countryCode":"LSO","name":"Berea","localName":"Berea","labelEnglish":"Berea","labelLocal":"Berea","labelBoth":"Berea","type":"District","iso":"LS-D","qid":"Q737086"},"geometry":{"type":"Polygon","coordinates":[[[27.5107,-29.2708],[28.2034,-29.3322],[28.2645,-29.1192],[28.0002,-28.9374],[27.6345,-29.091],[27.5107,-29.2708]]]}},{"type":"Feature","id":"label-LSO-1202","properties":{"kind":"division-label","code":"LSO-1202","countryCode":"LSO","name":"Berea","localName":"Berea","labelEnglish":"Berea","labelLocal":"Berea","labelBoth":"Berea","type":"District","iso":"LS-D","qid":"Q737086"},"geometry":{"type":"Point","coordinates":[27.8982,-29.1918]}},{"type":"Feature","id":"LSO-1203","properties":{"kind":"division","code":"LSO-1203","countryCode":"LSO","name":"Maseru","localName":"Maseru","labelEnglish":"Maseru","labelLocal":"Maseru","labelBoth":"Maseru","type":"District","iso":"LS-A","qid":"Q844921"},"geometry":{"type":"Polygon","coordinates":[[[27.5107,-29.2708],[27.3003,-29.5201],[27.6665,-29.8261],[28.0781,-29.9048],[28.1289,-29.9042],[28.1841,-29.7095],[28.2034,-29.3322],[27.5107,-29.2708]]]}},{"type":"Feature","id":"label-LSO-1203","properties":{"kind":"division-label","code":"LSO-1203","countryCode":"LSO","name":"Maseru","localName":"Maseru","labelEnglish":"Maseru","labelLocal":"Maseru","labelBoth":"Maseru","type":"District","iso":"LS-A","qid":"Q844921"},"geometry":{"type":"Point","coordinates":[27.7516,-29.5571]}},{"type":"Feature","id":"LSO-3453","properties":{"kind":"division","code":"LSO-3453","countryCode":"LSO","name":"Mafeteng","localName":"Mafeteng","labelEnglish":"Mafeteng","labelLocal":"Mafeteng","labelBoth":"Mafeteng","type":"District","iso":"LS-E","qid":"Q817342"},"geometry":{"type":"MultiPolygon","coordinates":[[[[27.3003,-29.5201],[27.0149,-29.6256],[27.1714,-29.9215],[27.3901,-29.8634],[27.4642,-30.0337],[28.0781,-29.9048],[27.6665,-29.8261],[27.3003,-29.5201]]],[[[28.1841,-29.7095],[28.1289,-29.9042],[28.2819,-29.8944],[28.1841,-29.7095]]]]}},{"type":"Feature","id":"label-LSO-3453","properties":{"kind":"division-label","code":"LSO-3453","countryCode":"LSO","name":"Mafeteng","localName":"Mafeteng","labelEnglish":"Mafeteng","labelLocal":"Mafeteng","labelBoth":"Mafeteng","type":"District","iso":"LS-E","qid":"Q817342"},"geometry":{"type":"Point","coordinates":[28.1834,-29.8081]}},{"type":"Feature","id":"LSO-1204","properties":{"kind":"division","code":"LSO-1204","countryCode":"LSO","name":"Mohale's Hoek","localName":"Mohale's Hoek","labelEnglish":"Mohale's Hoek","labelLocal":"Mohale's Hoek","labelBoth":"Mohale's Hoek","type":"District","iso":"LS-F","qid":"Q839074"},"geometry":{"type":"Polygon","coordinates":[[[27.1714,-29.9215],[27.3777,-30.3123],[27.5334,-30.3934],[27.7353,-30.3348],[27.9442,-30.0664],[28.2647,-30.0013],[28.548,-29.9189],[28.5399,-29.7762],[28.2819,-29.8944],[28.1289,-29.9042],[28.0781,-29.9048],[27.4642,-30.0337],[27.3901,-29.8634],[27.1714,-29.9215]]]}},{"type":"Feature","id":"label-LSO-1204","properties":{"kind":"division-label","code":"LSO-1204","countryCode":"LSO","name":"Mohale's Hoek","localName":"Mohale's Hoek","labelEnglish":"Mohale's Hoek","labelLocal":"Mohale's Hoek","labelBoth":"Mohale's Hoek","type":"District","iso":"LS-F","qid":"Q839074"},"geometry":{"type":"Point","coordinates":[27.8628,-30.075]}},{"type":"Feature","id":"LSO-1205","properties":{"kind":"division","code":"LSO-1205","countryCode":"LSO","name":"Quthing","localName":"Quthing","labelEnglish":"Quthing","labelLocal":"Quthing","labelBoth":"Quthing","type":"District","iso":"LS-G","qid":"Q839060"},"geometry":{"type":"Polygon","coordinates":[[[28.3556,-30.1732],[28.2647,-30.0013],[27.9442,-30.0664],[27.7353,-30.3348],[27.5334,-30.3934],[27.7436,-30.6003],[28.0788,-30.6588],[28.216,-30.2674],[28.3556,-30.1732]]]}},{"type":"Feature","id":"label-LSO-1205","properties":{"kind":"division-label","code":"LSO-1205","countryCode":"LSO","name":"Quthing","localName":"Quthing","labelEnglish":"Quthing","labelLocal":"Quthing","labelBoth":"Quthing","type":"District","iso":"LS-G","qid":"Q839060"},"geometry":{"type":"Point","coordinates":[27.9441,-30.3539]}}]}