{"type":"FeatureCollection","features":[{"type":"Feature","id":"LTU-1074","properties":{"kind":"division","code":"LTU-1074","countryCode":"LTU","name":"Utena","localName":"Utena","labelEnglish":"Utena","labelLocal":"Utena","labelBoth":"Utena","type":"County","iso":"LT-UT","qid":"Q188659"},"geometry":{"type":"Polygon","coordinates":[[[26.5945,55.667],[26.2269,55.7969],[25.9613,55.9585],[25.8018,55.7739],[24.6893,55.7213],[24.6305,55.5226],[25.2506,55.1904],[25.3491,55.0267],[25.736,55.057],[25.7343,55.327],[26.7399,55.2428],[26.4455,55.3375],[26.5945,55.667]]]}},{"type":"Feature","id":"label-LTU-1074","properties":{"kind":"division-label","code":"LTU-1074","countryCode":"LTU","name":"Utena","localName":"Utena","labelEnglish":"Utena","labelLocal":"Utena","labelBoth":"Utena","type":"County","iso":"LT-UT","qid":"Q188659"},"geometry":{"type":"Point","coordinates":[25.622,55.5267]}},{"type":"Feature","id":"LTU-1075","properties":{"kind":"division","code":"LTU-1075","countryCode":"LTU","name":"Vilnius","localName":"Vilnius","labelEnglish":"Vilnius","labelLocal":"Vilnius","labelBoth":"Vilnius","type":"County","iso":"LT-VL","qid":"Q188061"},"geometry":{"type":"Polygon","coordinates":[[[26.7399,55.2428],[25.7343,55.327],[25.736,55.057],[25.3491,55.0267],[25.2506,55.1904],[24.6305,55.5226],[24.4156,55.3932],[24.8,54.8903],[24.4128,54.5439],[24.4299,54.4403],[24.996,54.4513],[24.851,54.145],[25.4721,54.2972],[25.7404,54.5685],[25.7827,54.8697],[26.1703,54.9933],[26.7399,55.2428]]]}},{"type":"Feature","id":"label-LTU-1075","properties":{"kind":"division-label","code":"LTU-1075","countryCode":"LTU","name":"Vilnius","localName":"Vilnius","labelEnglish":"Vilnius","labelLocal":"Vilnius","labelBoth":"Vilnius","type":"County","iso":"LT-VL","qid":"Q188061"},"geometry":{"type":"Point","coordinates":[25.1588,54.7338]}},{"type":"Feature","id":"LTU-1067","properties":{"kind":"division","code":"LTU-1067","countryCode":"LTU","name":"Alytus","localName":"Alytus","labelEnglish":"Alytus","labelLocal":"Alytus","labelBoth":"Alytus","type":"County","iso":"LT-AL","qid":"Q769940"},"geometry":{"type":"Polygon","coordinates":[[[24.851,54.145],[24.996,54.4513],[24.4299,54.4403],[24.4128,54.5439],[23.7563,54.4698],[23.336,54.2263],[23.4856,53.9393],[24.7887,53.9697],[24.851,54.145]]]}},{"type":"Feature","id":"label-LTU-1067","properties":{"kind":"division-label","code":"LTU-1067","countryCode":"LTU","name":"Alytus","localName":"Alytus","labelEnglish":"Alytus","labelLocal":"Alytus","labelBoth":"Alytus","type":"County","iso":"LT-AL","qid":"Q769940"},"geometry":{"type":"Point","coordinates":[24.167,54.2544]}},{"type":"Feature","id":"LTU-1071","properties":{"kind":"division","code":"LTU-1071","countryCode":"LTU","name":"Panevėžys","localName":"Panevėžys","labelEnglish":"Panevėžys","labelLocal":"Panevėžys","labelBoth":"Panevėžys","type":"County","iso":"LT-PN","qid":"Q188085"},"geometry":{"type":"Polygon","coordinates":[[[24.871,56.4426],[24.5728,56.3098],[24.1404,56.2576],[23.8671,55.5693],[24.4156,55.3932],[24.6305,55.5226],[24.6893,55.7213],[25.8018,55.7739],[25.9613,55.9585],[25.7955,56.0401],[25.6497,56.1438],[25.3491,56.1599],[24.871,56.4426]]]}},{"type":"Feature","id":"label-LTU-1071","properties":{"kind":"division-label","code":"LTU-1071","countryCode":"LTU","name":"Panevėžys","localName":"Panevėžys","labelEnglish":"Panevėžys","labelLocal":"Panevėžys","labelBoth":"Panevėžys","type":"County","iso":"LT-PN","qid":"Q188085"},"geometry":{"type":"Point","coordinates":[24.9143,56.0725]}},{"type":"Feature","id":"LTU-936","properties":{"kind":"division","code":"LTU-936","countryCode":"LTU","name":"Telšiai","localName":"Telšiai","labelEnglish":"Telšiai","labelLocal":"Telšiai","labelBoth":"Telšiai","type":"County","iso":"LT-TE","qid":"Q188963"},"geometry":{"type":"Polygon","coordinates":[[[22.5782,56.387],[21.9832,56.3884],[21.9653,56.3837],[21.9853,56.2244],[21.5834,55.9902],[21.8776,55.6018],[22.4571,55.6779],[22.6983,55.9493],[22.3746,56.1641],[22.5782,56.387]]]}},{"type":"Feature","id":"label-LTU-936","properties":{"kind":"division-label","code":"LTU-936","countryCode":"LTU","name":"Telšiai","localName":"Telšiai","labelEnglish":"Telšiai","labelLocal":"Telšiai","labelBoth":"Telšiai","type":"County","iso":"LT-TE","qid":"Q188963"},"geometry":{"type":"Point","coordinates":[22.1086,56.0398]}},{"type":"Feature","id":"LTU-935","properties":{"kind":"division","code":"LTU-935","countryCode":"LTU","name":"Klaipėda","localName":"Klaipėda","labelEnglish":"Klaipėda","labelLocal":"Klaipėda","labelBoth":"Klaipėda","type":"County","iso":"LT-KL","qid":"Q475207"},"geometry":{"type":"Polygon","coordinates":[[[21.0534,56.0726],[21.2676,55.2487],[22.0277,55.0444],[22.2699,55.0695],[21.9031,55.269],[21.8776,55.6018],[21.5834,55.9902],[21.9853,56.2244],[21.9653,56.3837],[21.7365,56.3237],[21.4855,56.2658],[21.0534,56.0726]]]}},{"type":"Feature","id":"label-LTU-935","properties":{"kind":"division-label","code":"LTU-935","countryCode":"LTU","name":"Klaipėda","localName":"Klaipėda","labelEnglish":"Klaipėda","labelLocal":"Klaipėda","labelBoth":"Klaipėda","type":"County","iso":"LT-KL","qid":"Q475207"},"geometry":{"type":"Point","coordinates":[21.3879,55.6254]}},{"type":"Feature","id":"LTU-1072","properties":{"kind":"division","code":"LTU-1072","countryCode":"LTU","name":"Šiauliai","localName":"Šiauliai","labelEnglish":"Šiauliai","labelLocal":"Šiauliai","labelBoth":"Šiauliai","type":"County","iso":"LT-SA","qid":"Q186410"},"geometry":{"type":"Polygon","coordinates":[[[23.1726,56.358],[22.8596,56.3971],[22.5782,56.387],[22.3746,56.1641],[22.6983,55.9493],[22.4571,55.6779],[22.6457,55.4743],[23.1142,55.5743],[23.8671,55.5693],[24.1404,56.2576],[23.9813,56.3124],[23.8711,56.3321],[23.378,56.3546],[23.1726,56.358]]]}},{"type":"Feature","id":"label-LTU-1072","properties":{"kind":"division-label","code":"LTU-1072","countryCode":"LTU","name":"Šiauliai","localName":"Šiauliai","labelEnglish":"Šiauliai","labelLocal":"Šiauliai","labelBoth":"Šiauliai","type":"County","iso":"LT-SA","qid":"Q186410"},"geometry":{"type":"Point","coordinates":[23.2677,55.9585]}},{"type":"Feature","id":"LTU-1070","properties":{"kind":"division","code":"LTU-1070","countryCode":"LTU","name":"Marijampolė","localName":"Marijampolė","labelEnglish":"Marijampolė","labelLocal":"Marijampolė","labelBoth":"Marijampolė","type":"County","iso":"LT-MR","qid":"Q853948"},"geometry":{"type":"Polygon","coordinates":[[[22.8113,54.3926],[23.336,54.2263],[23.7563,54.4698],[23.4123,55.0787],[22.5712,55.064],[22.8089,54.8938],[22.6804,54.4532],[22.7672,54.3563],[22.8113,54.3926]]]}},{"type":"Feature","id":"label-LTU-1070","properties":{"kind":"division-label","code":"LTU-1070","countryCode":"LTU","name":"Marijampolė","localName":"Marijampolė","labelEnglish":"Marijampolė","labelLocal":"Marijampolė","labelBoth":"Marijampolė","type":"County","iso":"LT-MR","qid":"Q853948"},"geometry":{"type":"Point","coordinates":[23.1751,54.6829]}},{"type":"Feature","id":"LTU-1073","properties":{"kind":"division","code":"LTU-1073","countryCode":"LTU","name":"Tauragė","localName":"Tauragė","labelEnglish":"Tauragė","labelLocal":"Tauragė","labelBoth":"Tauragė","type":"County","iso":"LT-TA","qid":"Q188960"},"geometry":{"type":"Polygon","coordinates":[[[22.5712,55.064],[23.4123,55.0787],[23.4577,55.2292],[22.8682,55.2934],[22.6457,55.4743],[22.4571,55.6779],[21.8776,55.6018],[21.9031,55.269],[22.2699,55.0695],[22.5712,55.064]]]}},{"type":"Feature","id":"label-LTU-1073","properties":{"kind":"division-label","code":"LTU-1073","countryCode":"LTU","name":"Tauragė","localName":"Tauragė","labelEnglish":"Tauragė","labelLocal":"Tauragė","labelBoth":"Tauragė","type":"County","iso":"LT-TA","qid":"Q188960"},"geometry":{"type":"Point","coordinates":[22.6458,55.2657]}},{"type":"Feature","id":"LTU-1069","properties":{"kind":"division","code":"LTU-1069","countryCode":"LTU","name":"Kaunas","localName":"Kaunas","labelEnglish":"Kaunas","labelLocal":"Kaunas","labelBoth":"Kaunas","type":"County","iso":"LT-KU","qid":"Q853861"},"geometry":{"type":"Polygon","coordinates":[[[24.4156,55.3932],[23.8671,55.5693],[23.1142,55.5743],[22.6457,55.4743],[22.8682,55.2934],[23.4577,55.2292],[23.4123,55.0787],[23.7563,54.4698],[24.4128,54.5439],[24.8,54.8903],[24.4156,55.3932]]]}},{"type":"Feature","id":"label-LTU-1069","properties":{"kind":"division-label","code":"LTU-1069","countryCode":"LTU","name":"Kaunas","localName":"Kaunas","labelEnglish":"Kaunas","labelLocal":"Kaunas","labelBoth":"Kaunas","type":"County","iso":"LT-KU","qid":"Q853861"},"geometry":{"type":"Point","coordinates":[23.9879,55.0673]}}]}