{"type":"FeatureCollection","features":[{"type":"Feature","id":"LUX-906","properties":{"kind":"division","code":"LUX-906","countryCode":"LUX","name":"Diekirch","localName":"Diekirch","labelEnglish":"Diekirch","labelLocal":"Diekirch","labelBoth":"Diekirch","type":"District","iso":"LU-D","qid":"Q208747"},"geometry":{"type":"Polygon","coordinates":[[[6.1175,50.1205],[6.023,50.1508],[5.7149,49.8819],[5.8564,49.7058],[6.2463,49.7906],[6.2956,49.8486],[6.1175,50.1205]]]}},{"type":"Feature","id":"label-LUX-906","properties":{"kind":"division-label","code":"LUX-906","countryCode":"LUX","name":"Diekirch","localName":"Diekirch","labelEnglish":"Diekirch","labelLocal":"Diekirch","labelBoth":"Diekirch","type":"District","iso":"LU-D","qid":"Q208747"},"geometry":{"type":"Point","coordinates":[6.00481,49.9763]}},{"type":"Feature","id":"LUX-907","properties":{"kind":"division","code":"LUX-907","countryCode":"LUX","name":"Grevenmacher","localName":"Grevenmacher","labelEnglish":"Grevenmacher","labelLocal":"Grevenmacher","labelBoth":"Grevenmacher","type":"District","iso":"LU-G","qid":"Q208284"},"geometry":{"type":"Polygon","coordinates":[[[6.2956,49.8486],[6.2463,49.7906],[6.2511,49.4895],[6.3453,49.4553],[6.3488,49.5253],[6.5001,49.7945],[6.2956,49.8486]]]}},{"type":"Feature","id":"label-LUX-907","properties":{"kind":"division-label","code":"LUX-907","countryCode":"LUX","name":"Grevenmacher","localName":"Grevenmacher","labelEnglish":"Grevenmacher","labelLocal":"Grevenmacher","labelBoth":"Grevenmacher","type":"District","iso":"LU-G","qid":"Q208284"},"geometry":{"type":"Point","coordinates":[6.33835,49.6474]}},{"type":"Feature","id":"LUX-908","properties":{"kind":"division","code":"LUX-908","countryCode":"LUX","name":"Luxembourg","localName":"Luxembourg","labelEnglish":"Luxembourg","labelLocal":"Luxembourg","labelBoth":"Luxembourg","type":"District","iso":"LU-L","qid":null},"geometry":{"type":"Polygon","coordinates":[[[5.7907,49.5378],[5.9281,49.4823],[6.2511,49.4895],[6.2463,49.7906],[5.8564,49.7058],[5.7907,49.5378]]]}},{"type":"Feature","id":"label-LUX-908","properties":{"kind":"division-label","code":"LUX-908","countryCode":"LUX","name":"Luxembourg","localName":"Luxembourg","labelEnglish":"Luxembourg","labelLocal":"Luxembourg","labelBoth":"Luxembourg","type":"District","iso":"LU-L","qid":null},"geometry":{"type":"Point","coordinates":[6.05114,49.6376]}}]}