{"type":"FeatureCollection","features":[{"type":"Feature","id":"LVA-5796","properties":{"kind":"division","code":"LVA-5796","countryCode":"LVA","name":"Valmiera","localName":"Valmiera","labelEnglish":"Valmiera","labelLocal":"Valmiera","labelBoth":"Valmiera","type":"Municipality","iso":"LV-084","qid":"Q108037"},"geometry":{"type":"Polygon","coordinates":[[[25.4197,58.0083],[25.0942,58.0673],[25.2456,57.8003],[25.4554,57.7893],[25.4197,58.0083]]]}},{"type":"Feature","id":"label-LVA-5796","properties":{"kind":"division-label","code":"LVA-5796","countryCode":"LVA","name":"Valmiera","localName":"Valmiera","labelEnglish":"Valmiera","labelLocal":"Valmiera","labelBoth":"Valmiera","type":"Municipality","iso":"LV-084","qid":"Q108037"},"geometry":{"type":"Point","coordinates":[25.2607,57.8851]}},{"type":"Feature","id":"LVA-5791","properties":{"kind":"division","code":"LVA-5791","countryCode":"LVA","name":"Valmiera","localName":"Valmiera","labelEnglish":"Valmiera","labelLocal":"Valmiera","labelBoth":"Valmiera","type":"Municipality","iso":"LV-060","qid":"Q108037"},"geometry":{"type":"Polygon","coordinates":[[[25.0349,58.0486],[24.8274,57.9819],[25.0175,57.7965],[25.2456,57.8003],[25.0942,58.0673],[25.0349,58.0486]]]}},{"type":"Feature","id":"label-LVA-5791","properties":{"kind":"division-label","code":"LVA-5791","countryCode":"LVA","name":"Valmiera","localName":"Valmiera","labelEnglish":"Valmiera","labelLocal":"Valmiera","labelBoth":"Valmiera","type":"Municipality","iso":"LV-060","qid":"Q108037"},"geometry":{"type":"Point","coordinates":[25.0276,57.9137]}},{"type":"Feature","id":"LVA-5755","properties":{"kind":"division","code":"LVA-5755","countryCode":"LVA","name":"Aloja","localName":"Aloja","labelEnglish":"Aloja","labelLocal":"Aloja","labelBoth":"Aloja","type":"Municipality","iso":"LV-005","qid":"Q2989420"},"geometry":{"type":"Polygon","coordinates":[[[24.8274,57.9819],[24.5824,57.946],[24.6492,57.7707],[24.8814,57.6247],[25.0937,57.6531],[25.0175,57.7965],[24.8274,57.9819]]]}},{"type":"Feature","id":"label-LVA-5755","properties":{"kind":"division-label","code":"LVA-5755","countryCode":"LVA","name":"Aloja","localName":"Aloja","labelEnglish":"Aloja","labelLocal":"Aloja","labelBoth":"Aloja","type":"Municipality","iso":"LV-005","qid":"Q2989420"},"geometry":{"type":"Point","coordinates":[24.8231,57.8074]}},{"type":"Feature","id":"LVA-5792","properties":{"kind":"division","code":"LVA-5792","countryCode":"LVA","name":"Valmiera","localName":"Valmiera","labelEnglish":"Valmiera","labelLocal":"Valmiera","labelBoth":"Valmiera","type":"Municipality","iso":"LV-064","qid":"Q108037"},"geometry":{"type":"Polygon","coordinates":[[[25.5518,57.9499],[25.4197,58.0083],[25.4554,57.7893],[25.5529,57.7924],[25.7038,57.9213],[25.5518,57.9499]]]}},{"type":"Feature","id":"label-LVA-5792","properties":{"kind":"division-label","code":"LVA-5792","countryCode":"LVA","name":"Valmiera","localName":"Valmiera","labelEnglish":"Valmiera","labelLocal":"Valmiera","labelBoth":"Valmiera","type":"Municipality","iso":"LV-064","qid":"Q108037"},"geometry":{"type":"Point","coordinates":[25.4406,57.926]}},{"type":"Feature","id":"LVA-5774","properties":{"kind":"division","code":"LVA-5774","countryCode":"LVA","name":"Salacgrīva","localName":"Salacgrīva","labelEnglish":"Salacgrīva","labelLocal":"Salacgrīva","labelBoth":"Salacgrīva","type":"Municipality","iso":"LV-085","qid":"Q2251931"},"geometry":{"type":"Polygon","coordinates":[[[24.5824,57.946],[24.3062,57.8682],[24.3949,57.4],[24.6492,57.7707],[24.5824,57.946]]]}},{"type":"Feature","id":"label-LVA-5774","properties":{"kind":"division-label","code":"LVA-5774","countryCode":"LVA","name":"Salacgrīva","localName":"Salacgrīva","labelEnglish":"Salacgrīva","labelLocal":"Salacgrīva","labelBoth":"Salacgrīva","type":"Municipality","iso":"LV-085","qid":"Q2251931"},"geometry":{"type":"Point","coordinates":[24.41,57.746]}},{"type":"Feature","id":"LVA-5782","properties":{"kind":"division","code":"LVA-5782","countryCode":"LVA","name":"Valmiera","localName":"Valmiera","labelEnglish":"Valmiera","labelLocal":"Valmiera","labelBoth":"Valmiera","type":"Municipality","iso":"LV-009","qid":"Q108037"},"geometry":{"type":"Polygon","coordinates":[[[26.4307,57.5618],[26.3513,57.5802],[26.3115,57.4993],[26.2762,57.331],[26.5942,57.3913],[26.7958,57.5713],[26.4307,57.5618]]]}},{"type":"Feature","id":"label-LVA-5782","properties":{"kind":"division-label","code":"LVA-5782","countryCode":"LVA","name":"Valmiera","localName":"Valmiera","labelEnglish":"Valmiera","labelLocal":"Valmiera","labelBoth":"Valmiera","type":"Municipality","iso":"LV-009","qid":"Q108037"},"geometry":{"type":"Point","coordinates":[26.4999,57.4556]}},{"type":"Feature","id":"LVA-1077","properties":{"kind":"division","code":"LVA-1077","countryCode":"LVA","name":"Valka","localName":"Valka","labelEnglish":"Valka","labelLocal":"Valka","labelBoth":"Valka","type":"Municipality","iso":"LV-101","qid":null},"geometry":{"type":"Polygon","coordinates":[[[26.3513,57.5802],[25.7038,57.9213],[25.5529,57.7924],[25.6887,57.7377],[25.9451,57.5301],[26.3115,57.4993],[26.3513,57.5802]]]}},{"type":"Feature","id":"label-LVA-1077","properties":{"kind":"division-label","code":"LVA-1077","countryCode":"LVA","name":"Valka","localName":"Valka","labelEnglish":"Valka","labelLocal":"Valka","labelBoth":"Valka","type":"Municipality","iso":"LV-101","qid":null},"geometry":{"type":"Point","coordinates":[26.0635,57.6587]}},{"type":"Feature","id":"LVA-1076","properties":{"kind":"division","code":"LVA-1076","countryCode":"LVA","name":"Alūksne","localName":"Alūksne","labelEnglish":"Alūksne","labelLocal":"Alūksne","labelBoth":"Alūksne","type":"Municipality","iso":"LV-007","qid":"Q3393445"},"geometry":{"type":"Polygon","coordinates":[[[27.3529,57.5276],[26.7958,57.5713],[26.5942,57.3913],[27.1566,57.2264],[27.4871,57.2739],[27.6944,57.3564],[27.3529,57.5276]]]}},{"type":"Feature","id":"label-LVA-1076","properties":{"kind":"division-label","code":"LVA-1076","countryCode":"LVA","name":"Alūksne","localName":"Alūksne","labelEnglish":"Alūksne","labelLocal":"Alūksne","labelBoth":"Alūksne","type":"Municipality","iso":"LV-007","qid":"Q3393445"},"geometry":{"type":"Point","coordinates":[27.1693,57.4151]}},{"type":"Feature","id":"LVA-5742","properties":{"kind":"division","code":"LVA-5742","countryCode":"LVA","name":"Viļaka","localName":"Viļaka","labelEnglish":"Viļaka","labelLocal":"Viļaka","labelBoth":"Viļaka","type":"Municipality","iso":"LV-108","qid":"Q1869075"},"geometry":{"type":"Polygon","coordinates":[[[27.6944,57.3564],[27.4871,57.2739],[27.6376,57.0184],[27.7458,57.0315],[27.6944,57.3564]]]}},{"type":"Feature","id":"label-LVA-5742","properties":{"kind":"division-label","code":"LVA-5742","countryCode":"LVA","name":"Viļaka","localName":"Viļaka","labelEnglish":"Viļaka","labelLocal":"Viļaka","labelBoth":"Viļaka","type":"Municipality","iso":"LV-108","qid":"Q1869075"},"geometry":{"type":"Point","coordinates":[27.6287,57.1775]}},{"type":"Feature","id":"LVA-5743","properties":{"kind":"division","code":"LVA-5743","countryCode":"LVA","name":"Baltinava","localName":"Baltinava","labelEnglish":"Baltinava","labelLocal":"Baltinava","labelBoth":"Baltinava","type":"Municipality","iso":"LV-014","qid":"Q2361012"},"geometry":{"type":"Polygon","coordinates":[[[27.7458,57.0315],[27.6376,57.0184],[27.4467,56.8527],[27.6444,56.8418],[27.7458,57.0315]]]}},{"type":"Feature","id":"label-LVA-5743","properties":{"kind":"division-label","code":"LVA-5743","countryCode":"LVA","name":"Baltinava","localName":"Baltinava","labelEnglish":"Baltinava","labelLocal":"Baltinava","labelBoth":"Baltinava","type":"Municipality","iso":"LV-014","qid":"Q2361012"},"geometry":{"type":"Point","coordinates":[27.6041,56.924]}},{"type":"Feature","id":"LVA-5744","properties":{"kind":"division","code":"LVA-5744","countryCode":"LVA","name":"Kārsava","localName":"Kārsava","labelEnglish":"Kārsava","labelLocal":"Kārsava","labelBoth":"Kārsava","type":"Municipality","iso":"LV-044","qid":"Q2395952"},"geometry":{"type":"Polygon","coordinates":[[[27.6444,56.8418],[27.4467,56.8527],[27.3399,56.7827],[27.5802,56.6194],[27.8655,56.7427],[27.6444,56.8418]]]}},{"type":"Feature","id":"label-LVA-5744","properties":{"kind":"division-label","code":"LVA-5744","countryCode":"LVA","name":"Kārsava","localName":"Kārsava","labelEnglish":"Kārsava","labelLocal":"Kārsava","labelBoth":"Kārsava","type":"Municipality","iso":"LV-044","qid":"Q2395952"},"geometry":{"type":"Point","coordinates":[27.6287,56.7645]}},{"type":"Feature","id":"LVA-5745","properties":{"kind":"division","code":"LVA-5745","countryCode":"LVA","name":"Cibla","localName":"Cibla","labelEnglish":"Cibla","labelLocal":"Cibla","labelBoth":"Cibla","type":"Municipality","iso":"LV-023","qid":"Q1955102"},"geometry":{"type":"Polygon","coordinates":[[[27.8655,56.7427],[27.5802,56.6194],[27.5611,56.5759],[28.0933,56.5016],[27.8655,56.7427]]]}},{"type":"Feature","id":"label-LVA-5745","properties":{"kind":"division-label","code":"LVA-5745","countryCode":"LVA","name":"Cibla","localName":"Cibla","labelEnglish":"Cibla","labelLocal":"Cibla","labelBoth":"Cibla","type":"Municipality","iso":"LV-023","qid":"Q1955102"},"geometry":{"type":"Point","coordinates":[27.8618,56.6132]}},{"type":"Feature","id":"LVA-1065","properties":{"kind":"division","code":"LVA-1065","countryCode":"LVA","name":"Ludza","localName":"Ludza","labelEnglish":"Ludza","labelLocal":"Ludza","labelBoth":"Ludza","type":"Municipality","iso":"LV-058","qid":"Q932445"},"geometry":{"type":"Polygon","coordinates":[[[28.0933,56.5016],[27.5611,56.5759],[27.6676,56.2402],[28.0704,56.2085],[28.1679,56.4271],[28.0933,56.5016]]]}},{"type":"Feature","id":"label-LVA-1065","properties":{"kind":"division-label","code":"LVA-1065","countryCode":"LVA","name":"Ludza","localName":"Ludza","labelEnglish":"Ludza","labelLocal":"Ludza","labelBoth":"Ludza","type":"Municipality","iso":"LV-058","qid":"Q932445"},"geometry":{"type":"Point","coordinates":[27.796,56.4059]}},{"type":"Feature","id":"LVA-5746","properties":{"kind":"division","code":"LVA-5746","countryCode":"LVA","name":"Zilupe","localName":"Zilupe","labelEnglish":"Zilupe","labelLocal":"Zilupe","labelBoth":"Zilupe","type":"Municipality","iso":"LV-110","qid":"Q3274762"},"geometry":{"type":"Polygon","coordinates":[[[28.1679,56.4271],[28.0704,56.2085],[28.0511,56.1407],[28.1489,56.1424],[28.1679,56.4271]]]}},{"type":"Feature","id":"label-LVA-5746","properties":{"kind":"division-label","code":"LVA-5746","countryCode":"LVA","name":"Zilupe","localName":"Zilupe","labelEnglish":"Zilupe","labelLocal":"Zilupe","labelBoth":"Zilupe","type":"Municipality","iso":"LV-110","qid":"Q3274762"},"geometry":{"type":"Point","coordinates":[28.1072,56.3391]}},{"type":"Feature","id":"LVA-5724","properties":{"kind":"division","code":"LVA-5724","countryCode":"LVA","name":"Nereta","localName":"Nereta","labelEnglish":"Nereta","labelLocal":"Nereta","labelBoth":"Nereta","type":"Municipality","iso":"LV-065","qid":"Q2161795"},"geometry":{"type":"Polygon","coordinates":[[[25.3491,56.1599],[25.2936,56.4079],[25.0135,56.4957],[24.871,56.4426],[25.3491,56.1599]]]}},{"type":"Feature","id":"label-LVA-5724","properties":{"kind":"division-label","code":"LVA-5724","countryCode":"LVA","name":"Nereta","localName":"Nereta","labelEnglish":"Nereta","labelLocal":"Nereta","labelBoth":"Nereta","type":"Municipality","iso":"LV-065","qid":"Q2161795"},"geometry":{"type":"Point","coordinates":[25.1056,56.3246]}},{"type":"Feature","id":"LVA-5733","properties":{"kind":"division","code":"LVA-5733","countryCode":"LVA","name":"Viesīte","localName":"Viesīte","labelEnglish":"Viesīte","labelLocal":"Viesīte","labelBoth":"Viesīte","type":"Municipality","iso":"LV-107","qid":"Q2093996"},"geometry":{"type":"Polygon","coordinates":[[[25.3491,56.1599],[25.6497,56.1438],[25.6938,56.2286],[25.7339,56.351],[25.5946,56.4671],[25.2936,56.4079],[25.3491,56.1599]]]}},{"type":"Feature","id":"label-LVA-5733","properties":{"kind":"division-label","code":"LVA-5733","countryCode":"LVA","name":"Viesīte","localName":"Viesīte","labelEnglish":"Viesīte","labelLocal":"Viesīte","labelBoth":"Viesīte","type":"Municipality","iso":"LV-107","qid":"Q2093996"},"geometry":{"type":"Point","coordinates":[25.5306,56.2901]}},{"type":"Feature","id":"LVA-5735","properties":{"kind":"division","code":"LVA-5735","countryCode":"LVA","name":"Vecumnieki","localName":"Vecumnieki","labelEnglish":"Vecumnieki","labelLocal":"Vecumnieki","labelBoth":"Vecumnieki","type":"Municipality","iso":"LV-105","qid":"Q2299436"},"geometry":{"type":"Polygon","coordinates":[[[24.871,56.4426],[25.0135,56.4957],[24.95,56.5786],[24.5219,56.7136],[24.3554,56.6616],[24.3806,56.5296],[24.5728,56.3098],[24.871,56.4426]]]}},{"type":"Feature","id":"label-LVA-5735","properties":{"kind":"division-label","code":"LVA-5735","countryCode":"LVA","name":"Vecumnieki","localName":"Vecumnieki","labelEnglish":"Vecumnieki","labelLocal":"Vecumnieki","labelBoth":"Vecumnieki","type":"Municipality","iso":"LV-105","qid":"Q2299436"},"geometry":{"type":"Point","coordinates":[24.6268,56.4823]}},{"type":"Feature","id":"LVA-1068","properties":{"kind":"division","code":"LVA-1068","countryCode":"LVA","name":"Saldus","localName":"Saldus","labelEnglish":"Saldus","labelLocal":"Saldus","labelBoth":"Saldus","type":"Municipality","iso":"LV-088","qid":"Q2299261"},"geometry":{"type":"Polygon","coordinates":[[[21.9832,56.3884],[22.5782,56.387],[22.8596,56.3971],[22.7121,56.5654],[22.4909,56.8515],[22.4549,56.9171],[22.1627,56.795],[21.9667,56.5066],[21.9832,56.3884]]]}},{"type":"Feature","id":"label-LVA-1068","properties":{"kind":"division-label","code":"LVA-1068","countryCode":"LVA","name":"Saldus","localName":"Saldus","labelEnglish":"Saldus","labelLocal":"Saldus","labelBoth":"Saldus","type":"Municipality","iso":"LV-088","qid":"Q2299261"},"geometry":{"type":"Point","coordinates":[22.4024,56.6408]}},{"type":"Feature","id":"LVA-5718","properties":{"kind":"division","code":"LVA-5718","countryCode":"LVA","name":"Rucava","localName":"Rucava","labelEnglish":"Rucava","labelLocal":"Rucava","labelBoth":"Rucava","type":"Municipality","iso":"LV-081","qid":"Q2124995"},"geometry":{"type":"Polygon","coordinates":[[[21.4855,56.2658],[21.3799,56.3282],[21.2263,56.3517],[20.971,56.2597],[21.0534,56.0726],[21.4855,56.2658]]]}},{"type":"Feature","id":"label-LVA-5718","properties":{"kind":"division-label","code":"LVA-5718","countryCode":"LVA","name":"Rucava","localName":"Rucava","labelEnglish":"Rucava","labelLocal":"Rucava","labelBoth":"Rucava","type":"Municipality","iso":"LV-081","qid":"Q2124995"},"geometry":{"type":"Point","coordinates":[21.2115,56.2259]}},{"type":"Feature","id":"LVA-5715","properties":{"kind":"division","code":"LVA-5715","countryCode":"LVA","name":"Priekule","localName":"Priekule","labelEnglish":"Priekule","labelLocal":"Priekule","labelBoth":"Priekule","type":"Municipality","iso":"LV-074","qid":"Q2304893"},"geometry":{"type":"Polygon","coordinates":[[[21.7365,56.3237],[21.7124,56.55],[21.5717,56.5606],[21.3543,56.503],[21.3799,56.3282],[21.4855,56.2658],[21.7365,56.3237]]]}},{"type":"Feature","id":"label-LVA-5715","properties":{"kind":"division-label","code":"LVA-5715","countryCode":"LVA","name":"Priekule","localName":"Priekule","labelEnglish":"Priekule","labelLocal":"Priekule","labelBoth":"Priekule","type":"Municipality","iso":"LV-074","qid":"Q2304893"},"geometry":{"type":"Point","coordinates":[21.555,56.4189]}},{"type":"Feature","id":"LVA-5713","properties":{"kind":"division","code":"LVA-5713","countryCode":"LVA","name":"Vaiņode","localName":"Vaiņode","labelEnglish":"Vaiņode","labelLocal":"Vaiņode","labelBoth":"Vaiņode","type":"Municipality","iso":"LV-100","qid":"Q511151"},"geometry":{"type":"Polygon","coordinates":[[[21.9653,56.3837],[21.9832,56.3884],[21.9667,56.5066],[21.7954,56.5733],[21.7124,56.55],[21.7365,56.3237],[21.9653,56.3837]]]}},{"type":"Feature","id":"label-LVA-5713","properties":{"kind":"division-label","code":"LVA-5713","countryCode":"LVA","name":"Vaiņode","localName":"Vaiņode","labelEnglish":"Vaiņode","labelLocal":"Vaiņode","labelBoth":"Vaiņode","type":"Municipality","iso":"LV-100","qid":"Q511151"},"geometry":{"type":"Point","coordinates":[21.8331,56.432]}},{"type":"Feature","id":"LVA-5740","properties":{"kind":"division","code":"LVA-5740","countryCode":"LVA","name":"Auce","localName":"Auce","labelEnglish":"Auce","labelLocal":"Auce","labelBoth":"Auce","type":"Municipality","iso":"LV-010","qid":"Q1934932"},"geometry":{"type":"Polygon","coordinates":[[[22.8596,56.3971],[23.1726,56.358],[23.1488,56.4331],[22.7981,56.5683],[22.7121,56.5654],[22.8596,56.3971]]]}},{"type":"Feature","id":"label-LVA-5740","properties":{"kind":"division-label","code":"LVA-5740","countryCode":"LVA","name":"Auce","localName":"Auce","labelEnglish":"Auce","labelLocal":"Auce","labelBoth":"Auce","type":"Municipality","iso":"LV-010","qid":"Q1934932"},"geometry":{"type":"Point","coordinates":[22.9664,56.4782]}},{"type":"Feature","id":"LVA-1079","properties":{"kind":"division","code":"LVA-1079","countryCode":"LVA","name":"Bauska","localName":"Bauska","labelEnglish":"Bauska","labelLocal":"Bauska","labelBoth":"Bauska","type":"Municipality","iso":"LV-016","qid":"Q2365998"},"geometry":{"type":"Polygon","coordinates":[[[24.5728,56.3098],[24.3806,56.5296],[24.0789,56.5355],[24.0177,56.502],[23.9813,56.3124],[24.1404,56.2576],[24.5728,56.3098]]]}},{"type":"Feature","id":"label-LVA-1079","properties":{"kind":"division-label","code":"LVA-1079","countryCode":"LVA","name":"Bauska","localName":"Bauska","labelEnglish":"Bauska","labelLocal":"Bauska","labelBoth":"Bauska","type":"Municipality","iso":"LV-016","qid":"Q2365998"},"geometry":{"type":"Point","coordinates":[24.269,56.4223]}},{"type":"Feature","id":"LVA-5739","properties":{"kind":"division","code":"LVA-5739","countryCode":"LVA","name":"Tērvete","localName":"Tērvete","labelEnglish":"Tērvete","labelLocal":"Tērvete","labelBoth":"Tērvete","type":"Municipality","iso":"LV-098","qid":"Q2269685"},"geometry":{"type":"Polygon","coordinates":[[[23.378,56.3546],[23.4151,56.4933],[23.1488,56.4331],[23.1726,56.358],[23.378,56.3546]]]}},{"type":"Feature","id":"label-LVA-5739","properties":{"kind":"division-label","code":"LVA-5739","countryCode":"LVA","name":"Tērvete","localName":"Tērvete","labelEnglish":"Tērvete","labelLocal":"Tērvete","labelBoth":"Tērvete","type":"Municipality","iso":"LV-098","qid":"Q2269685"},"geometry":{"type":"Point","coordinates":[23.314,56.425]}},{"type":"Feature","id":"LVA-1084","properties":{"kind":"division","code":"LVA-1084","countryCode":"LVA","name":"Jelgava","localName":"Jelgava","labelEnglish":"Jelgava","labelLocal":"Jelgava","labelBoth":"Jelgava","type":"Municipality","iso":"LV-JEL","qid":null},"geometry":{"type":"Polygon","coordinates":[[[23.378,56.3546],[23.8711,56.3321],[23.9923,56.5025],[23.7919,56.6469],[23.7076,56.5919],[23.618,56.6695],[23.7312,56.6905],[23.7563,56.7441],[23.7696,56.8],[23.5068,56.8946],[23.4866,56.8159],[23.4151,56.4933],[23.378,56.3546]]]}},{"type":"Feature","id":"label-LVA-1084","properties":{"kind":"division-label","code":"LVA-1084","countryCode":"LVA","name":"Jelgava","localName":"Jelgava","labelEnglish":"Jelgava","labelLocal":"Jelgava","labelBoth":"Jelgava","type":"Municipality","iso":"LV-JEL","qid":null},"geometry":{"type":"Point","coordinates":[23.6461,56.4939]}},{"type":"Feature","id":"LVA-5738","properties":{"kind":"division","code":"LVA-5738","countryCode":"LVA","name":"Rundāle","localName":"Rundāle","labelEnglish":"Rundāle","labelLocal":"Rundāle","labelBoth":"Rundāle","type":"Municipality","iso":"LV-083","qid":"Q2122124"},"geometry":{"type":"Polygon","coordinates":[[[23.9813,56.3124],[24.0177,56.502],[23.9923,56.5025],[23.8711,56.3321],[23.9813,56.3124]]]}},{"type":"Feature","id":"label-LVA-5738","properties":{"kind":"division-label","code":"LVA-5738","countryCode":"LVA","name":"Rundāle","localName":"Rundāle","labelEnglish":"Rundāle","labelLocal":"Rundāle","labelBoth":"Rundāle","type":"Municipality","iso":"LV-083","qid":"Q2122124"},"geometry":{"type":"Point","coordinates":[23.9643,56.4087]}},{"type":"Feature","id":"LVA-5734","properties":{"kind":"division","code":"LVA-5734","countryCode":"LVA","name":"Aknīste","localName":"Aknīste","labelEnglish":"Aknīste","labelLocal":"Aknīste","labelBoth":"Aknīste","type":"Municipality","iso":"LV-004","qid":"Q865658"},"geometry":{"type":"Polygon","coordinates":[[[25.7955,56.0401],[26.0255,56.0794],[25.6938,56.2286],[25.6497,56.1438],[25.7955,56.0401]]]}},{"type":"Feature","id":"label-LVA-5734","properties":{"kind":"division-label","code":"LVA-5734","countryCode":"LVA","name":"Aknīste","localName":"Aknīste","labelEnglish":"Aknīste","labelLocal":"Aknīste","labelBoth":"Aknīste","type":"Municipality","iso":"LV-004","qid":"Q865658"},"geometry":{"type":"Point","coordinates":[25.7883,56.1592]}},{"type":"Feature","id":"LVA-5749","properties":{"kind":"division","code":"LVA-5749","countryCode":"LVA","name":"Ilūkste","localName":"Ilūkste","labelEnglish":"Ilūkste","labelLocal":"Ilūkste","labelBoth":"Ilūkste","type":"Municipality","iso":"LV-036","qid":"Q2025473"},"geometry":{"type":"Polygon","coordinates":[[[25.9613,55.9585],[26.2269,55.7969],[26.3453,56.0935],[26.0255,56.0794],[25.7955,56.0401],[25.9613,55.9585]]]}},{"type":"Feature","id":"label-LVA-5749","properties":{"kind":"division-label","code":"LVA-5749","countryCode":"LVA","name":"Ilūkste","localName":"Ilūkste","labelEnglish":"Ilūkste","labelLocal":"Ilūkste","labelBoth":"Ilūkste","type":"Municipality","iso":"LV-036","qid":"Q2025473"},"geometry":{"type":"Point","coordinates":[26.1768,55.9997]}},{"type":"Feature","id":"LVA-1081","properties":{"kind":"division","code":"LVA-1081","countryCode":"LVA","name":"Daugavpils","localName":"Daugavpils","labelEnglish":"Daugavpils","labelLocal":"Daugavpils","labelBoth":"Daugavpils","type":"Municipality","iso":"LV-DGV","qid":null},"geometry":{"type":"Polygon","coordinates":[[[26.5945,55.667],[26.9794,55.8263],[26.9677,56.0078],[26.8885,56.1289],[26.6479,56.1353],[26.3354,56.1897],[26.3008,56.1833],[26.3453,56.0935],[26.2269,55.7969],[26.5945,55.667]],[[26.5184,55.8266],[26.4379,55.9146],[26.6098,55.9587],[26.5184,55.8266]]]}},{"type":"Feature","id":"label-LVA-1081","properties":{"kind":"division-label","code":"LVA-1081","countryCode":"LVA","name":"Daugavpils","localName":"Daugavpils","labelEnglish":"Daugavpils","labelLocal":"Daugavpils","labelBoth":"Daugavpils","type":"Municipality","iso":"LV-DGV","qid":null},"geometry":{"type":"Point","coordinates":[26.589,56.043]}},{"type":"Feature","id":"LVA-5747","properties":{"kind":"division","code":"LVA-5747","countryCode":"LVA","name":"Dagda","localName":"Dagda","labelEnglish":"Dagda","labelLocal":"Dagda","labelBoth":"Dagda","type":"Municipality","iso":"LV-024","qid":"Q2361131"},"geometry":{"type":"Polygon","coordinates":[[[28.0511,56.1407],[28.0704,56.2085],[27.6676,56.2402],[27.2959,56.203],[27.2639,56.0729],[27.7601,55.9754],[28.0511,56.1407]]]}},{"type":"Feature","id":"label-LVA-5747","properties":{"kind":"division-label","code":"LVA-5747","countryCode":"LVA","name":"Dagda","localName":"Dagda","labelEnglish":"Dagda","labelLocal":"Dagda","labelBoth":"Dagda","type":"Municipality","iso":"LV-024","qid":"Q2361131"},"geometry":{"type":"Point","coordinates":[27.6246,56.1183]}},{"type":"Feature","id":"LVA-1064","properties":{"kind":"division","code":"LVA-1064","countryCode":"LVA","name":"Krāslava","localName":"Krāslava","labelEnglish":"Krāslava","labelLocal":"Krāslava","labelBoth":"Krāslava","type":"Municipality","iso":"LV-047","qid":"Q1831695"},"geometry":{"type":"Polygon","coordinates":[[[27.7601,55.9754],[27.2639,56.0729],[26.9677,56.0078],[26.9794,55.8263],[27.5927,55.7942],[27.7601,55.9754]]]}},{"type":"Feature","id":"label-LVA-1064","properties":{"kind":"division-label","code":"LVA-1064","countryCode":"LVA","name":"Krāslava","localName":"Krāslava","labelEnglish":"Krāslava","labelLocal":"Krāslava","labelBoth":"Krāslava","type":"Municipality","iso":"LV-047","qid":"Q1831695"},"geometry":{"type":"Point","coordinates":[27.3415,55.9319]}},{"type":"Feature","id":"LVA-5717","properties":{"kind":"division","code":"LVA-5717","countryCode":"LVA","name":"Nīca","localName":"Nīca","labelEnglish":"Nīca","labelLocal":"Nīca","labelBoth":"Nīca","type":"Municipality","iso":"LV-066","qid":"Q1950456"},"geometry":{"type":"Polygon","coordinates":[[[20.971,56.2597],[21.2263,56.3517],[21.0632,56.494],[21.0358,56.4739],[21.0054,56.4459],[20.971,56.2597]]]}},{"type":"Feature","id":"label-LVA-5717","properties":{"kind":"division-label","code":"LVA-5717","countryCode":"LVA","name":"Nīca","localName":"Nīca","labelEnglish":"Nīca","labelLocal":"Nīca","labelBoth":"Nīca","type":"Municipality","iso":"LV-066","qid":"Q1950456"},"geometry":{"type":"Point","coordinates":[21.0871,56.3535]}},{"type":"Feature","id":"LVA-4848","properties":{"kind":"division","code":"LVA-4848","countryCode":"LVA","name":"Liepāja","localName":"Liepāja","labelEnglish":"Liepāja","labelLocal":"Liepāja","labelBoth":"Liepāja","type":"Republican City","iso":"LV-LPX","qid":"Q167668"},"geometry":{"type":"Polygon","coordinates":[[[21.0529,56.5111],[21.1032,56.5328],[21.0206,56.615],[21.0529,56.5111]]]}},{"type":"Feature","id":"label-LVA-4848","properties":{"kind":"division-label","code":"LVA-4848","countryCode":"LVA","name":"Liepāja","localName":"Liepāja","labelEnglish":"Liepāja","labelLocal":"Liepāja","labelBoth":"Liepāja","type":"Republican City","iso":"LV-LPX","qid":"Q167668"},"geometry":{"type":"Point","coordinates":[21.0399,56.5616]}},{"type":"Feature","id":"LVA-5716","properties":{"kind":"division","code":"LVA-5716","countryCode":"LVA","name":"Grobiņa","localName":"Grobiņa","labelEnglish":"Grobiņa","labelLocal":"Grobiņa","labelBoth":"Grobiņa","type":"Municipality","iso":"LV-032","qid":"Q2320320"},"geometry":{"type":"Polygon","coordinates":[[[21.0632,56.494],[21.2263,56.3517],[21.3799,56.3282],[21.3543,56.503],[21.2583,56.6566],[21.0462,56.6562],[21.0206,56.615],[21.1032,56.5328],[21.0529,56.5111],[21.0632,56.494]]]}},{"type":"Feature","id":"label-LVA-5716","properties":{"kind":"division-label","code":"LVA-5716","countryCode":"LVA","name":"Grobiņa","localName":"Grobiņa","labelEnglish":"Grobiņa","labelLocal":"Grobiņa","labelBoth":"Grobiņa","type":"Municipality","iso":"LV-032","qid":"Q2320320"},"geometry":{"type":"Point","coordinates":[21.2507,56.4778]}},{"type":"Feature","id":"LVA-5719","properties":{"kind":"division","code":"LVA-5719","countryCode":"LVA","name":"Pāvilosta","localName":"Pāvilosta","labelEnglish":"Pāvilosta","labelLocal":"Pāvilosta","labelBoth":"Pāvilosta","type":"Municipality","iso":"LV-071","qid":"Q1942469"},"geometry":{"type":"Polygon","coordinates":[[[21.0462,56.6562],[21.2583,56.6566],[21.3159,56.7397],[21.4364,56.8676],[21.4934,56.9038],[21.3958,56.9424],[21.3282,56.9736],[21.0462,56.6562]]]}},{"type":"Feature","id":"label-LVA-5719","properties":{"kind":"division-label","code":"LVA-5719","countryCode":"LVA","name":"Pāvilosta","localName":"Pāvilosta","labelEnglish":"Pāvilosta","labelLocal":"Pāvilosta","labelBoth":"Pāvilosta","type":"Municipality","iso":"LV-071","qid":"Q1942469"},"geometry":{"type":"Point","coordinates":[21.2474,56.8115]}},{"type":"Feature","id":"LVA-934","properties":{"kind":"division","code":"LVA-934","countryCode":"LVA","name":"Ventspils","localName":"Ventspils","labelEnglish":"Ventspils","labelLocal":"Ventspils","labelBoth":"Ventspils","type":"Municipality","iso":"LV-VEN","qid":null},"geometry":{"type":"Polygon","coordinates":[[[21.3282,56.9736],[21.3958,56.9424],[21.5738,57.0856],[22.2064,57.1779],[22.2596,57.3979],[22.1945,57.6576],[21.6217,57.4732],[21.6748,57.4009],[21.5115,57.3787],[21.3282,56.9736]]]}},{"type":"Feature","id":"label-LVA-934","properties":{"kind":"division-label","code":"LVA-934","countryCode":"LVA","name":"Ventspils","localName":"Ventspils","labelEnglish":"Ventspils","labelLocal":"Ventspils","labelBoth":"Ventspils","type":"Municipality","iso":"LV-VEN","qid":null},"geometry":{"type":"Point","coordinates":[21.8185,57.3367]}},{"type":"Feature","id":"LVA-4852","properties":{"kind":"division","code":"LVA-4852","countryCode":"LVA","name":"Ventspils","localName":"Ventspils","labelEnglish":"Ventspils","labelLocal":"Ventspils","labelBoth":"Ventspils","type":"Republican City","iso":"LV-VEN","qid":"Q104036"},"geometry":{"type":"Polygon","coordinates":[[[21.5115,57.3787],[21.6748,57.4009],[21.6217,57.4732],[21.5115,57.3787]]]}},{"type":"Feature","id":"label-LVA-4852","properties":{"kind":"division-label","code":"LVA-4852","countryCode":"LVA","name":"Ventspils","localName":"Ventspils","labelEnglish":"Ventspils","labelLocal":"Ventspils","labelBoth":"Ventspils","type":"Republican City","iso":"LV-VEN","qid":"Q104036"},"geometry":{"type":"Point","coordinates":[21.5869,57.396]}},{"type":"Feature","id":"LVA-5721","properties":{"kind":"division","code":"LVA-5721","countryCode":"LVA","name":"Dundaga","localName":"Dundaga","labelEnglish":"Dundaga","labelLocal":"Dundaga","labelBoth":"Dundaga","type":"Municipality","iso":"LV-027","qid":"Q2274832"},"geometry":{"type":"Polygon","coordinates":[[[22.1945,57.6576],[22.2596,57.3979],[22.6251,57.5027],[22.5872,57.665],[22.1945,57.6576]]]}},{"type":"Feature","id":"label-LVA-5721","properties":{"kind":"division-label","code":"LVA-5721","countryCode":"LVA","name":"Dundaga","localName":"Dundaga","labelEnglish":"Dundaga","labelLocal":"Dundaga","labelBoth":"Dundaga","type":"Municipality","iso":"LV-027","qid":"Q2274832"},"geometry":{"type":"Point","coordinates":[22.4057,57.5837]}},{"type":"Feature","id":"LVA-5722","properties":{"kind":"division","code":"LVA-5722","countryCode":"LVA","name":"Roja","localName":"Roja","labelEnglish":"Roja","labelLocal":"Roja","labelBoth":"Roja","type":"Municipality","iso":"LV-079","qid":"Q2302986"},"geometry":{"type":"Polygon","coordinates":[[[22.5872,57.665],[22.6251,57.5027],[22.9946,57.4119],[22.5872,57.665]]]}},{"type":"Feature","id":"label-LVA-5722","properties":{"kind":"division-label","code":"LVA-5722","countryCode":"LVA","name":"Roja","localName":"Roja","labelEnglish":"Roja","labelLocal":"Roja","labelBoth":"Roja","type":"Municipality","iso":"LV-079","qid":"Q2302986"},"geometry":{"type":"Point","coordinates":[22.7688,57.4888]}},{"type":"Feature","id":"LVA-1091","properties":{"kind":"division","code":"LVA-1091","countryCode":"LVA","name":"Talsi","localName":"Talsi","labelEnglish":"Talsi","labelLocal":"Talsi","labelBoth":"Talsi","type":"Municipality","iso":"LV-097","qid":"Q2302964"},"geometry":{"type":"Polygon","coordinates":[[[22.9946,57.4119],[22.6251,57.5027],[22.2596,57.3979],[22.2064,57.1779],[22.5082,57.0138],[22.9309,57.1446],[23.0804,57.2385],[23.0314,57.3945],[22.9946,57.4119]]]}},{"type":"Feature","id":"label-LVA-1091","properties":{"kind":"division-label","code":"LVA-1091","countryCode":"LVA","name":"Talsi","localName":"Talsi","labelEnglish":"Talsi","labelLocal":"Talsi","labelBoth":"Talsi","type":"Municipality","iso":"LV-097","qid":"Q2302964"},"geometry":{"type":"Point","coordinates":[22.6192,57.317]}},{"type":"Feature","id":"LVA-5723","properties":{"kind":"division","code":"LVA-5723","countryCode":"LVA","name":"Mērsrags","localName":"Mērsrags","labelEnglish":"Mērsrags","labelLocal":"Mērsrags","labelBoth":"Mērsrags","type":"Municipality","iso":"LV-063","qid":"Q2416186"},"geometry":{"type":"Polygon","coordinates":[[[23.0314,57.3945],[23.0804,57.2385],[23.1128,57.2653],[23.1602,57.3186],[23.0314,57.3945]]]}},{"type":"Feature","id":"label-LVA-5723","properties":{"kind":"division-label","code":"LVA-5723","countryCode":"LVA","name":"Mērsrags","localName":"Mērsrags","labelEnglish":"Mērsrags","labelLocal":"Mērsrags","labelBoth":"Mērsrags","type":"Municipality","iso":"LV-063","qid":"Q2416186"},"geometry":{"type":"Point","coordinates":[23.0567,57.3317]}},{"type":"Feature","id":"LVA-5759","properties":{"kind":"division","code":"LVA-5759","countryCode":"LVA","name":"Engure","localName":"Engure","labelEnglish":"Engure","labelLocal":"Engure","labelBoth":"Engure","type":"Municipality","iso":"LV-029","qid":"Q2079455"},"geometry":{"type":"Polygon","coordinates":[[[23.1602,57.3186],[23.1128,57.2653],[23.1416,56.9355],[23.4772,56.9365],[23.5786,56.9821],[23.1602,57.3186]]]}},{"type":"Feature","id":"label-LVA-5759","properties":{"kind":"division-label","code":"LVA-5759","countryCode":"LVA","name":"Engure","localName":"Engure","labelEnglish":"Engure","labelLocal":"Engure","labelBoth":"Engure","type":"Municipality","iso":"LV-029","qid":"Q2079455"},"geometry":{"type":"Point","coordinates":[23.3222,57.0017]}},{"type":"Feature","id":"LVA-5764","properties":{"kind":"division","code":"LVA-5764","countryCode":"LVA","name":"Jūrmala","localName":"Jūrmala","labelEnglish":"Jūrmala","labelLocal":"Jūrmala","labelBoth":"Jūrmala","type":"Republican City","iso":"LV-JUR","qid":"Q178382"},"geometry":{"type":"Polygon","coordinates":[[[23.5786,56.9821],[23.4772,56.9365],[23.492,56.9346],[23.9545,56.9914],[23.9269,57.0063],[23.5786,56.9821]]]}},{"type":"Feature","id":"label-LVA-5764","properties":{"kind":"division-label","code":"LVA-5764","countryCode":"LVA","name":"Jūrmala","localName":"Jūrmala","labelEnglish":"Jūrmala","labelLocal":"Jūrmala","labelBoth":"Jūrmala","type":"Republican City","iso":"LV-JUR","qid":"Q178382"},"geometry":{"type":"Point","coordinates":[23.7352,56.9608]}},{"type":"Feature","id":"LVA-1094","properties":{"kind":"division","code":"LVA-1094","countryCode":"LVA","name":"Riga","localName":"Riga","labelEnglish":"Riga","labelLocal":"Riga","labelBoth":"Riga","type":"Republican City","iso":"LV-RIX","qid":"Q1773"},"geometry":{"type":"Polygon","coordinates":[[[23.9269,57.0063],[23.9545,56.9914],[23.9427,56.9387],[24.0663,56.8861],[24.0881,56.8761],[24.197,56.8821],[24.2347,56.9304],[24.3202,56.969],[24.1624,57.0528],[24.113,57.0887],[23.9269,57.0063]]]}},{"type":"Feature","id":"label-LVA-1094","properties":{"kind":"division-label","code":"LVA-1094","countryCode":"LVA","name":"Riga","localName":"Riga","labelEnglish":"Riga","labelLocal":"Riga","labelBoth":"Riga","type":"Republican City","iso":"LV-RIX","qid":"Q1773"},"geometry":{"type":"Point","coordinates":[24.1235,56.9878]}},{"type":"Feature","id":"LVA-5758","properties":{"kind":"division","code":"LVA-5758","countryCode":"LVA","name":"Carnikava","localName":"Carnikava","labelEnglish":"Carnikava","labelLocal":"Carnikava","labelBoth":"Carnikava","type":"Municipality","iso":"LV-020","qid":"Q2453125"},"geometry":{"type":"Polygon","coordinates":[[[24.113,57.0887],[24.1624,57.0528],[24.2473,57.0601],[24.3488,57.1838],[24.3308,57.1998],[24.113,57.0887]]]}},{"type":"Feature","id":"label-LVA-5758","properties":{"kind":"division-label","code":"LVA-5758","countryCode":"LVA","name":"Carnikava","localName":"Carnikava","labelEnglish":"Carnikava","labelLocal":"Carnikava","labelBoth":"Carnikava","type":"Municipality","iso":"LV-020","qid":"Q2453125"},"geometry":{"type":"Point","coordinates":[24.2464,57.1203]}},{"type":"Feature","id":"LVA-5776","properties":{"kind":"division","code":"LVA-5776","countryCode":"LVA","name":"Saulkrasti","localName":"Saulkrasti","labelEnglish":"Saulkrasti","labelLocal":"Saulkrasti","labelBoth":"Saulkrasti","type":"Municipality","iso":"LV-089","qid":"Q371429"},"geometry":{"type":"Polygon","coordinates":[[[24.3308,57.1998],[24.3488,57.1838],[24.3724,57.1824],[24.4613,57.2948],[24.4048,57.3481],[24.3308,57.1998]]]}},{"type":"Feature","id":"label-LVA-5776","properties":{"kind":"division-label","code":"LVA-5776","countryCode":"LVA","name":"Saulkrasti","localName":"Saulkrasti","labelEnglish":"Saulkrasti","labelLocal":"Saulkrasti","labelBoth":"Saulkrasti","type":"Municipality","iso":"LV-089","qid":"Q371429"},"geometry":{"type":"Point","coordinates":[24.4305,57.2552]}},{"type":"Feature","id":"LVA-1086","properties":{"kind":"division","code":"LVA-1086","countryCode":"LVA","name":"Limbaži","localName":"Limbaži","labelEnglish":"Limbaži","labelLocal":"Limbaži","labelBoth":"Limbaži","type":"Municipality","iso":"LV-054","qid":"Q1579076"},"geometry":{"type":"Polygon","coordinates":[[[24.4048,57.3481],[24.4613,57.2948],[24.6816,57.2231],[24.8316,57.3955],[25.0796,57.5002],[24.8814,57.6247],[24.6492,57.7707],[24.3949,57.4],[24.4048,57.3481]]]}},{"type":"Feature","id":"label-LVA-1086","properties":{"kind":"division-label","code":"LVA-1086","countryCode":"LVA","name":"Limbaži","localName":"Limbaži","labelEnglish":"Limbaži","labelLocal":"Limbaži","labelBoth":"Limbaži","type":"Municipality","iso":"LV-054","qid":"Q1579076"},"geometry":{"type":"Point","coordinates":[24.6925,57.5879]}},{"type":"Feature","id":"LVA-5798","properties":{"kind":"division","code":"LVA-5798","countryCode":"LVA","name":"Valmiera","localName":"Valmiera","labelEnglish":"Valmiera","labelLocal":"Valmiera","labelBoth":"Valmiera","type":"Municipality","iso":"LV-094","qid":"Q108037"},"geometry":{"type":"Polygon","coordinates":[[[26.3115,57.4993],[25.9451,57.5301],[25.7763,57.4997],[25.6579,57.4646],[25.7451,57.2751],[25.7699,57.2787],[26.0586,57.2653],[26.2762,57.331],[26.3115,57.4993]]]}},{"type":"Feature","id":"label-LVA-5798","properties":{"kind":"division-label","code":"LVA-5798","countryCode":"LVA","name":"Valmiera","localName":"Valmiera","labelEnglish":"Valmiera","labelLocal":"Valmiera","labelBoth":"Valmiera","type":"Municipality","iso":"LV-094","qid":"Q108037"},"geometry":{"type":"Point","coordinates":[26.0091,57.4025]}},{"type":"Feature","id":"LVA-1063","properties":{"kind":"division","code":"LVA-1063","countryCode":"LVA","name":"Balvi","localName":"Balvi","labelEnglish":"Balvi","labelLocal":"Balvi","labelBoth":"Balvi","type":"Municipality","iso":"LV-015","qid":"Q2018672"},"geometry":{"type":"Polygon","coordinates":[[[27.4871,57.2739],[27.1566,57.2264],[27.0081,57.1145],[27.3255,57.0617],[26.9851,56.8782],[26.9533,56.8467],[26.9285,56.8311],[27.3399,56.7827],[27.4467,56.8527],[27.6376,57.0184],[27.4871,57.2739]]]}},{"type":"Feature","id":"label-LVA-1063","properties":{"kind":"division-label","code":"LVA-1063","countryCode":"LVA","name":"Balvi","localName":"Balvi","labelEnglish":"Balvi","labelLocal":"Balvi","labelBoth":"Balvi","type":"Municipality","iso":"LV-015","qid":"Q2018672"},"geometry":{"type":"Point","coordinates":[27.4348,57.0151]}},{"type":"Feature","id":"LVA-5795","properties":{"kind":"division","code":"LVA-5795","countryCode":"LVA","name":"Valmiera","localName":"Valmiera","labelEnglish":"Valmiera","labelLocal":"Valmiera","labelBoth":"Valmiera","type":"Municipality","iso":"LV-096","qid":"Q108037"},"geometry":{"type":"Polygon","coordinates":[[[25.5912,57.6141],[25.7763,57.4997],[25.9451,57.5301],[25.6887,57.7377],[25.5912,57.6141]]]}},{"type":"Feature","id":"label-LVA-5795","properties":{"kind":"division-label","code":"LVA-5795","countryCode":"LVA","name":"Valmiera","localName":"Valmiera","labelEnglish":"Valmiera","labelLocal":"Valmiera","labelBoth":"Valmiera","type":"Municipality","iso":"LV-096","qid":"Q108037"},"geometry":{"type":"Point","coordinates":[25.7924,57.6356]}},{"type":"Feature","id":"LVA-5783","properties":{"kind":"division","code":"LVA-5783","countryCode":"LVA","name":"Valmiera","localName":"Valmiera","labelEnglish":"Valmiera","labelLocal":"Valmiera","labelBoth":"Valmiera","type":"Municipality","iso":"LV-017","qid":"Q108037"},"geometry":{"type":"Polygon","coordinates":[[[25.7763,57.4997],[25.5912,57.6141],[25.4569,57.5373],[25.3771,57.5091],[25.3988,57.4412],[25.6579,57.4646],[25.7763,57.4997]]]}},{"type":"Feature","id":"label-LVA-5783","properties":{"kind":"division-label","code":"LVA-5783","countryCode":"LVA","name":"Valmiera","localName":"Valmiera","labelEnglish":"Valmiera","labelLocal":"Valmiera","labelBoth":"Valmiera","type":"Municipality","iso":"LV-017","qid":"Q108037"},"geometry":{"type":"Point","coordinates":[25.592,57.5293]}},{"type":"Feature","id":"LVA-5784","properties":{"kind":"division","code":"LVA-5784","countryCode":"LVA","name":"Valmiera","localName":"Valmiera","labelEnglish":"Valmiera","labelLocal":"Valmiera","labelBoth":"Valmiera","type":"Municipality","iso":"LV-019","qid":"Q108037"},"geometry":{"type":"Polygon","coordinates":[[[25.5529,57.7924],[25.4554,57.7893],[25.2456,57.8003],[25.0175,57.7965],[25.0937,57.6531],[25.3787,57.5498],[25.4569,57.5373],[25.5912,57.6141],[25.6887,57.7377],[25.5529,57.7924]]]}},{"type":"Feature","id":"label-LVA-5784","properties":{"kind":"division-label","code":"LVA-5784","countryCode":"LVA","name":"Valmiera","localName":"Valmiera","labelEnglish":"Valmiera","labelLocal":"Valmiera","labelBoth":"Valmiera","type":"Municipality","iso":"LV-019","qid":"Q108037"},"geometry":{"type":"Point","coordinates":[25.3393,57.6809]}},{"type":"Feature","id":"LVA-5788","properties":{"kind":"division","code":"LVA-5788","countryCode":"LVA","name":"Valmiera","localName":"Valmiera","labelEnglish":"Valmiera","labelLocal":"Valmiera","labelBoth":"Valmiera","type":"Municipality","iso":"LV-045","qid":"Q108037"},"geometry":{"type":"Polygon","coordinates":[[[24.8814,57.6247],[25.0796,57.5002],[25.3869,57.3861],[25.3988,57.4412],[25.3771,57.5091],[25.3787,57.5498],[25.0937,57.6531],[24.8814,57.6247]]]}},{"type":"Feature","id":"label-LVA-5788","properties":{"kind":"division-label","code":"LVA-5788","countryCode":"LVA","name":"Valmiera","localName":"Valmiera","labelEnglish":"Valmiera","labelLocal":"Valmiera","labelBoth":"Valmiera","type":"Municipality","iso":"LV-045","qid":"Q108037"},"geometry":{"type":"Point","coordinates":[25.2116,57.5415]}},{"type":"Feature","id":"LVA-1066","properties":{"kind":"division","code":"LVA-1066","countryCode":"LVA","name":"Rēzekne","localName":"Rēzekne","labelEnglish":"Rēzekne","labelLocal":"Rēzekne","labelBoth":"Rēzekne","type":"Municipality","iso":"LV-REZ","qid":"Q180379"},"geometry":{"type":"Polygon","coordinates":[[[26.9285,56.8311],[26.7726,56.681],[26.9254,56.4476],[27.038,56.1801],[27.2959,56.203],[27.6676,56.2402],[27.5611,56.5759],[27.5802,56.6194],[27.3399,56.7827],[26.9285,56.8311]],[[27.3391,56.4749],[27.2743,56.5155],[27.3637,56.5552],[27.3391,56.4749]]]}},{"type":"Feature","id":"label-LVA-1066","properties":{"kind":"division-label","code":"LVA-1066","countryCode":"LVA","name":"Rēzekne","localName":"Rēzekne","labelEnglish":"Rēzekne","labelLocal":"Rēzekne","labelBoth":"Rēzekne","type":"Municipality","iso":"LV-REZ","qid":"Q180379"},"geometry":{"type":"Point","coordinates":[27.2633,56.3554]}},{"type":"Feature","id":"LVA-5797","properties":{"kind":"division","code":"LVA-5797","countryCode":"LVA","name":"Valmiera","localName":"Valmiera","labelEnglish":"Valmiera","labelLocal":"Valmiera","labelBoth":"Valmiera","type":"Municipality","iso":"LV-104","qid":"Q108037"},"geometry":{"type":"Polygon","coordinates":[[[25.7451,57.2751],[25.601,57.2648],[25.5603,57.2226],[25.5634,57.1474],[25.504,56.9948],[25.8864,56.9642],[25.9231,57.0974],[25.7716,57.1991],[25.7699,57.2787],[25.7451,57.2751]]]}},{"type":"Feature","id":"label-LVA-5797","properties":{"kind":"division-label","code":"LVA-5797","countryCode":"LVA","name":"Valmiera","localName":"Valmiera","labelEnglish":"Valmiera","labelLocal":"Valmiera","labelBoth":"Valmiera","type":"Municipality","iso":"LV-104","qid":"Q108037"},"geometry":{"type":"Point","coordinates":[25.7024,57.108]}},{"type":"Feature","id":"LVA-5799","properties":{"kind":"division","code":"LVA-5799","countryCode":"LVA","name":"Valmiera","localName":"Valmiera","labelEnglish":"Valmiera","labelLocal":"Valmiera","labelBoth":"Valmiera","type":"Municipality","iso":"LV-076","qid":"Q108037"},"geometry":{"type":"MultiPolygon","coordinates":[[[[25.6579,57.4646],[25.601,57.2648],[25.7451,57.2751],[25.6579,57.4646]]],[[[26.0586,57.2653],[25.7699,57.2787],[25.7716,57.1991],[26.0134,57.2211],[26.0586,57.2653]]]]}},{"type":"Feature","id":"label-LVA-5799","properties":{"kind":"division-label","code":"LVA-5799","countryCode":"LVA","name":"Valmiera","localName":"Valmiera","labelEnglish":"Valmiera","labelLocal":"Valmiera","labelBoth":"Valmiera","type":"Municipality","iso":"LV-076","qid":"Q108037"},"geometry":{"type":"Point","coordinates":[25.641,57.3411]}},{"type":"Feature","id":"LVA-5794","properties":{"kind":"division","code":"LVA-5794","countryCode":"LVA","name":"Valmiera","localName":"Valmiera","labelEnglish":"Valmiera","labelLocal":"Valmiera","labelBoth":"Valmiera","type":"Municipality","iso":"LV-075","qid":"Q108037"},"geometry":{"type":"Polygon","coordinates":[[[25.6579,57.4646],[25.3988,57.4412],[25.3869,57.3861],[25.2315,57.3306],[25.5603,57.2226],[25.601,57.2648],[25.6579,57.4646]]]}},{"type":"Feature","id":"label-LVA-5794","properties":{"kind":"division-label","code":"LVA-5794","countryCode":"LVA","name":"Valmiera","localName":"Valmiera","labelEnglish":"Valmiera","labelLocal":"Valmiera","labelBoth":"Valmiera","type":"Municipality","iso":"LV-075","qid":"Q108037"},"geometry":{"type":"Point","coordinates":[25.4447,57.3657]}},{"type":"Feature","id":"LVA-5793","properties":{"kind":"division","code":"LVA-5793","countryCode":"LVA","name":"Valmiera","localName":"Valmiera","labelEnglish":"Valmiera","labelLocal":"Valmiera","labelBoth":"Valmiera","type":"Municipality","iso":"LV-070","qid":"Q108037"},"geometry":{"type":"Polygon","coordinates":[[[25.0796,57.5002],[24.8316,57.3955],[24.9331,57.2462],[25.0906,57.2476],[25.2315,57.2962],[25.2315,57.3306],[25.3869,57.3861],[25.0796,57.5002]]]}},{"type":"Feature","id":"label-LVA-5793","properties":{"kind":"division-label","code":"LVA-5793","countryCode":"LVA","name":"Valmiera","localName":"Valmiera","labelEnglish":"Valmiera","labelLocal":"Valmiera","labelBoth":"Valmiera","type":"Municipality","iso":"LV-070","qid":"Q108037"},"geometry":{"type":"Point","coordinates":[25.0767,57.3575]}},{"type":"Feature","id":"LVA-5768","properties":{"kind":"division","code":"LVA-5768","countryCode":"LVA","name":"Krimulda","localName":"Krimulda","labelEnglish":"Krimulda","labelLocal":"Krimulda","labelBoth":"Krimulda","type":"Municipality","iso":"LV-048","qid":"Q2302998"},"geometry":{"type":"Polygon","coordinates":[[[24.8316,57.3955],[24.6816,57.2231],[24.6659,57.1254],[24.7799,57.1352],[24.9004,57.2187],[24.9331,57.2462],[24.8316,57.3955]]]}},{"type":"Feature","id":"label-LVA-5768","properties":{"kind":"division-label","code":"LVA-5768","countryCode":"LVA","name":"Krimulda","localName":"Krimulda","labelEnglish":"Krimulda","labelLocal":"Krimulda","labelBoth":"Krimulda","type":"Municipality","iso":"LV-048","qid":"Q2302998"},"geometry":{"type":"Point","coordinates":[24.7863,57.2798]}},{"type":"Feature","id":"LVA-1083","properties":{"kind":"division","code":"LVA-1083","countryCode":"LVA","name":"Gulbene","localName":"Gulbene","labelEnglish":"Gulbene","labelLocal":"Gulbene","labelBoth":"Gulbene","type":"Municipality","iso":"LV-033","qid":"Q209187"},"geometry":{"type":"Polygon","coordinates":[[[26.2762,57.331],[26.0586,57.2653],[26.0134,57.2211],[26.1168,57.0781],[26.1832,57.0826],[26.3694,57.0446],[26.5682,56.9484],[26.86,56.983],[27.0081,57.1145],[27.1566,57.2264],[26.5942,57.3913],[26.2762,57.331]]]}},{"type":"Feature","id":"label-LVA-1083","properties":{"kind":"division-label","code":"LVA-1083","countryCode":"LVA","name":"Gulbene","localName":"Gulbene","labelEnglish":"Gulbene","labelLocal":"Gulbene","labelBoth":"Gulbene","type":"Municipality","iso":"LV-033","qid":"Q209187"},"geometry":{"type":"Point","coordinates":[26.5803,57.1723]}},{"type":"Feature","id":"LVA-5741","properties":{"kind":"division","code":"LVA-5741","countryCode":"LVA","name":"Rugāji","localName":"Rugāji","labelEnglish":"Rugāji","labelLocal":"Rugāji","labelBoth":"Rugāji","type":"Municipality","iso":"LV-082","qid":"Q1837354"},"geometry":{"type":"Polygon","coordinates":[[[26.86,56.983],[26.9851,56.8782],[27.3255,57.0617],[27.0081,57.1145],[26.86,56.983]]]}},{"type":"Feature","id":"label-LVA-5741","properties":{"kind":"division-label","code":"LVA-5741","countryCode":"LVA","name":"Rugāji","localName":"Rugāji","labelEnglish":"Rugāji","labelLocal":"Rugāji","labelBoth":"Rugāji","type":"Municipality","iso":"LV-082","qid":"Q1837354"},"geometry":{"type":"Point","coordinates":[27.1093,56.9853]}},{"type":"Feature","id":"LVA-5787","properties":{"kind":"division","code":"LVA-5787","countryCode":"LVA","name":"Valmiera","localName":"Valmiera","labelEnglish":"Valmiera","labelLocal":"Valmiera","labelBoth":"Valmiera","type":"Municipality","iso":"LV-039","qid":"Q108037"},"geometry":{"type":"Polygon","coordinates":[[[26.0134,57.2211],[25.7716,57.1991],[25.9231,57.0974],[26.1168,57.0781],[26.0134,57.2211]]]}},{"type":"Feature","id":"label-LVA-5787","properties":{"kind":"division-label","code":"LVA-5787","countryCode":"LVA","name":"Valmiera","localName":"Valmiera","labelEnglish":"Valmiera","labelLocal":"Valmiera","labelBoth":"Valmiera","type":"Municipality","iso":"LV-039","qid":"Q108037"},"geometry":{"type":"Point","coordinates":[26.0091,57.1448]}},{"type":"Feature","id":"LVA-5748","properties":{"kind":"division","code":"LVA-5748","countryCode":"LVA","name":"Aglona","localName":"Aglona","labelEnglish":"Aglona","labelLocal":"Aglona","labelBoth":"Aglona","type":"Municipality","iso":"LV-001","qid":"Q2045300"},"geometry":{"type":"Polygon","coordinates":[[[27.038,56.1801],[26.8885,56.1289],[26.9677,56.0078],[27.2639,56.0729],[27.2959,56.203],[27.038,56.1801]]]}},{"type":"Feature","id":"label-LVA-5748","properties":{"kind":"division-label","code":"LVA-5748","countryCode":"LVA","name":"Aglona","localName":"Aglona","labelEnglish":"Aglona","labelLocal":"Aglona","labelBoth":"Aglona","type":"Municipality","iso":"LV-001","qid":"Q2045300"},"geometry":{"type":"Point","coordinates":[27.0929,56.0979]}},{"type":"Feature","id":"LVA-5752","properties":{"kind":"division","code":"LVA-5752","countryCode":"LVA","name":"Riebiņi","localName":"Riebiņi","labelEnglish":"Riebiņi","labelLocal":"Riebiņi","labelBoth":"Riebiņi","type":"Municipality","iso":"LV-078","qid":"Q2106159"},"geometry":{"type":"Polygon","coordinates":[[[26.9254,56.4476],[26.7437,56.5588],[26.6278,56.5437],[26.5405,56.4897],[26.5764,56.4333],[26.8885,56.1289],[27.038,56.1801],[26.9254,56.4476]]]}},{"type":"Feature","id":"label-LVA-5752","properties":{"kind":"division-label","code":"LVA-5752","countryCode":"LVA","name":"Riebiņi","localName":"Riebiņi","labelEnglish":"Riebiņi","labelLocal":"Riebiņi","labelBoth":"Riebiņi","type":"Municipality","iso":"LV-078","qid":"Q2106159"},"geometry":{"type":"Point","coordinates":[26.8189,56.3637]}},{"type":"Feature","id":"LVA-5753","properties":{"kind":"division","code":"LVA-5753","countryCode":"LVA","name":"Viļāni","localName":"Viļāni","labelEnglish":"Viļāni","labelLocal":"Viļāni","labelBoth":"Viļāni","type":"Municipality","iso":"LV-109","qid":null},"geometry":{"type":"Polygon","coordinates":[[[26.7437,56.5588],[26.9254,56.4476],[26.7726,56.681],[26.7437,56.5588]]]}},{"type":"Feature","id":"label-LVA-5753","properties":{"kind":"division-label","code":"LVA-5753","countryCode":"LVA","name":"Viļāni","localName":"Viļāni","labelEnglish":"Viļāni","labelLocal":"Viļāni","labelBoth":"Viļāni","type":"Municipality","iso":"LV-109","qid":null},"geometry":{"type":"Point","coordinates":[26.8884,56.5518]}},{"type":"Feature","id":"LVA-5756","properties":{"kind":"division","code":"LVA-5756","countryCode":"LVA","name":"Babīte","localName":"Babīte","labelEnglish":"Babīte","labelLocal":"Babīte","labelBoth":"Babīte","type":"Municipality","iso":"LV-012","qid":"Q2079353"},"geometry":{"type":"Polygon","coordinates":[[[23.9545,56.9914],[23.492,56.9346],[23.5068,56.8946],[23.7696,56.8],[23.855,56.8264],[23.9427,56.9387],[23.9545,56.9914]]]}},{"type":"Feature","id":"label-LVA-5756","properties":{"kind":"division-label","code":"LVA-5756","countryCode":"LVA","name":"Babīte","localName":"Babīte","labelEnglish":"Babīte","labelLocal":"Babīte","labelBoth":"Babīte","type":"Municipality","iso":"LV-012","qid":"Q2079353"},"geometry":{"type":"Point","coordinates":[23.7639,56.8913]}},{"type":"Feature","id":"LVA-5760","properties":{"kind":"division","code":"LVA-5760","countryCode":"LVA","name":"Garkalne","localName":"Garkalne","labelEnglish":"Garkalne","labelLocal":"Garkalne","labelBoth":"Garkalne","type":"Municipality","iso":"LV-031","qid":"Q2171669"},"geometry":{"type":"Polygon","coordinates":[[[24.3202,56.969],[24.3717,56.9444],[24.5655,57.06],[24.5087,57.106],[24.2473,57.0601],[24.1624,57.0528],[24.3202,56.969]]]}},{"type":"Feature","id":"label-LVA-5760","properties":{"kind":"division-label","code":"LVA-5760","countryCode":"LVA","name":"Garkalne","localName":"Garkalne","labelEnglish":"Garkalne","labelLocal":"Garkalne","labelBoth":"Garkalne","type":"Municipality","iso":"LV-031","qid":"Q2171669"},"geometry":{"type":"Point","coordinates":[24.3875,57.0221]}},{"type":"Feature","id":"LVA-5767","properties":{"kind":"division","code":"LVA-5767","countryCode":"LVA","name":"Ķekava","localName":"Ķekava","labelEnglish":"Ķekava","labelLocal":"Ķekava","labelBoth":"Ķekava","type":"Municipality","iso":"LV-052","qid":"Q2268947"},"geometry":{"type":"Polygon","coordinates":[[[24.197,56.8821],[24.0881,56.8761],[23.9963,56.7305],[24.0081,56.71],[24.1882,56.7179],[24.5255,56.7524],[24.5127,56.8171],[24.444,56.8377],[24.197,56.8821]]]}},{"type":"Feature","id":"label-LVA-5767","properties":{"kind":"division-label","code":"LVA-5767","countryCode":"LVA","name":"Ķekava","localName":"Ķekava","labelEnglish":"Ķekava","labelLocal":"Ķekava","labelBoth":"Ķekava","type":"Municipality","iso":"LV-052","qid":"Q2268947"},"geometry":{"type":"Point","coordinates":[24.2628,56.8054]}},{"type":"Feature","id":"LVA-5771","properties":{"kind":"division","code":"LVA-5771","countryCode":"LVA","name":"Mārupe","localName":"Mārupe","labelEnglish":"Mārupe","labelLocal":"Mārupe","labelBoth":"Mārupe","type":"Municipality","iso":"LV-062","qid":"Q2232018"},"geometry":{"type":"Polygon","coordinates":[[[23.9427,56.9387],[23.855,56.8264],[24.0663,56.8861],[23.9427,56.9387]]]}},{"type":"Feature","id":"label-LVA-5771","properties":{"kind":"division-label","code":"LVA-5771","countryCode":"LVA","name":"Mārupe","localName":"Mārupe","labelEnglish":"Mārupe","labelLocal":"Mārupe","labelBoth":"Mārupe","type":"Municipality","iso":"LV-062","qid":"Q2232018"},"geometry":{"type":"Point","coordinates":[23.9438,56.8913]}},{"type":"Feature","id":"LVA-5772","properties":{"kind":"division","code":"LVA-5772","countryCode":"LVA","name":"Olaine","localName":"Olaine","labelEnglish":"Olaine","labelLocal":"Olaine","labelBoth":"Olaine","type":"Municipality","iso":"LV-068","qid":"Q2451375"},"geometry":{"type":"MultiPolygon","coordinates":[[[[24.0663,56.8861],[23.855,56.8264],[23.7696,56.8],[23.7563,56.7441],[23.9963,56.7305],[24.0881,56.8761],[24.0663,56.8861]]],[[[24.2305,56.6994],[24.1882,56.7179],[24.0081,56.71],[24.0339,56.6882],[24.2305,56.6994]]]]}},{"type":"Feature","id":"label-LVA-5772","properties":{"kind":"division-label","code":"LVA-5772","countryCode":"LVA","name":"Olaine","localName":"Olaine","labelEnglish":"Olaine","labelLocal":"Olaine","labelBoth":"Olaine","type":"Municipality","iso":"LV-068","qid":"Q2451375"},"geometry":{"type":"Point","coordinates":[23.9561,56.789]}},{"type":"Feature","id":"LVA-5775","properties":{"kind":"division","code":"LVA-5775","countryCode":"LVA","name":"Salaspils","localName":"Salaspils","labelEnglish":"Salaspils","labelLocal":"Salaspils","labelBoth":"Salaspils","type":"Municipality","iso":"LV-087","qid":"Q2140753"},"geometry":{"type":"Polygon","coordinates":[[[24.2347,56.9304],[24.197,56.8821],[24.444,56.8377],[24.4574,56.8868],[24.4056,56.9265],[24.2347,56.9304]]]}},{"type":"Feature","id":"label-LVA-5775","properties":{"kind":"division-label","code":"LVA-5775","countryCode":"LVA","name":"Salaspils","localName":"Salaspils","labelEnglish":"Salaspils","labelLocal":"Salaspils","labelBoth":"Salaspils","type":"Municipality","iso":"LV-087","qid":"Q2140753"},"geometry":{"type":"Point","coordinates":[24.365,56.8708]}},{"type":"Feature","id":"LVA-5780","properties":{"kind":"division","code":"LVA-5780","countryCode":"LVA","name":"Stopiņi","localName":"Stopiņi","labelEnglish":"Stopiņi","labelLocal":"Stopiņi","labelBoth":"Stopiņi","type":"Municipality","iso":"LV-095","qid":"Q2299214"},"geometry":{"type":"Polygon","coordinates":[[[24.2347,56.9304],[24.4056,56.9265],[24.3717,56.9444],[24.3202,56.969],[24.2347,56.9304]]]}},{"type":"Feature","id":"label-LVA-5780","properties":{"kind":"division-label","code":"LVA-5780","countryCode":"LVA","name":"Stopiņi","localName":"Stopiņi","labelEnglish":"Stopiņi","labelLocal":"Stopiņi","labelBoth":"Stopiņi","type":"Municipality","iso":"LV-095","qid":"Q2299214"},"geometry":{"type":"Point","coordinates":[24.3323,56.9362]}},{"type":"Feature","id":"LVA-5777","properties":{"kind":"division","code":"LVA-5777","countryCode":"LVA","name":"Sēja","localName":"Sēja","labelEnglish":"Sēja","labelLocal":"Sēja","labelBoth":"Sēja","type":"Municipality","iso":"LV-090","qid":"Q2299447"},"geometry":{"type":"Polygon","coordinates":[[[24.6816,57.2231],[24.4613,57.2948],[24.3724,57.1824],[24.5087,57.106],[24.6659,57.1254],[24.6816,57.2231]]]}},{"type":"Feature","id":"label-LVA-5777","properties":{"kind":"division-label","code":"LVA-5777","countryCode":"LVA","name":"Sēja","localName":"Sēja","labelEnglish":"Sēja","labelLocal":"Sēja","labelBoth":"Sēja","type":"Municipality","iso":"LV-090","qid":"Q2299447"},"geometry":{"type":"Point","coordinates":[24.5327,57.198]}},{"type":"Feature","id":"LVA-5770","properties":{"kind":"division","code":"LVA-5770","countryCode":"LVA","name":"Mālpils","localName":"Mālpils","labelEnglish":"Mālpils","labelLocal":"Mālpils","labelBoth":"Mālpils","type":"Municipality","iso":"LV-061","qid":"Q2304902"},"geometry":{"type":"Polygon","coordinates":[[[25.1475,56.9894],[24.8178,56.9895],[24.8074,56.9339],[25.1426,56.9508],[25.1475,56.9894]]]}},{"type":"Feature","id":"label-LVA-5770","properties":{"kind":"division-label","code":"LVA-5770","countryCode":"LVA","name":"Mālpils","localName":"Mālpils","labelEnglish":"Mālpils","labelLocal":"Mālpils","labelBoth":"Mālpils","type":"Municipality","iso":"LV-061","qid":"Q2304902"},"geometry":{"type":"Point","coordinates":[24.9581,57.0017]}},{"type":"Feature","id":"LVA-5778","properties":{"kind":"division","code":"LVA-5778","countryCode":"LVA","name":"Sigulda","localName":"Sigulda","labelEnglish":"Sigulda","labelLocal":"Sigulda","labelBoth":"Sigulda","type":"Municipality","iso":"LV-091","qid":"Q2299251"},"geometry":{"type":"Polygon","coordinates":[[[25.1475,56.9894],[25.1125,57.1098],[24.9004,57.2187],[24.7799,57.1352],[24.6301,57.061],[24.8178,56.9895],[25.1475,56.9894]]]}},{"type":"Feature","id":"label-LVA-5778","properties":{"kind":"division-label","code":"LVA-5778","countryCode":"LVA","name":"Sigulda","localName":"Sigulda","labelEnglish":"Sigulda","labelLocal":"Sigulda","labelBoth":"Sigulda","type":"Municipality","iso":"LV-091","qid":"Q2299251"},"geometry":{"type":"Point","coordinates":[24.8272,57.0998]}},{"type":"Feature","id":"LVA-1087","properties":{"kind":"division","code":"LVA-1087","countryCode":"LVA","name":"Madona","localName":"Madona","labelEnglish":"Madona","labelLocal":"Madona","labelBoth":"Madona","type":"Municipality","iso":"LV-059","qid":"Q2198472"},"geometry":{"type":"Polygon","coordinates":[[[26.9533,56.8467],[26.5682,56.9484],[26.3694,57.0446],[26.1709,56.9533],[26.1832,57.0826],[26.1168,57.0781],[25.9231,57.0974],[25.8864,56.9642],[25.7655,56.8282],[25.9321,56.6378],[26.3756,56.6359],[26.7726,56.681],[26.9285,56.8311],[26.9533,56.8467]]]}},{"type":"Feature","id":"label-LVA-1087","properties":{"kind":"division-label","code":"LVA-1087","countryCode":"LVA","name":"Madona","localName":"Madona","labelEnglish":"Madona","labelLocal":"Madona","labelBoth":"Madona","type":"Municipality","iso":"LV-059","qid":"Q2198472"},"geometry":{"type":"Point","coordinates":[26.2344,56.805]}},{"type":"Feature","id":"LVA-5790","properties":{"kind":"division","code":"LVA-5790","countryCode":"LVA","name":"Valmiera","localName":"Valmiera","labelEnglish":"Valmiera","labelLocal":"Valmiera","labelBoth":"Valmiera","type":"Municipality","iso":"LV-057","qid":"Q108037"},"geometry":{"type":"Polygon","coordinates":[[[26.9851,56.8782],[26.86,56.983],[26.5682,56.9484],[26.9533,56.8467],[26.9851,56.8782]]]}},{"type":"Feature","id":"label-LVA-5790","properties":{"kind":"division-label","code":"LVA-5790","countryCode":"LVA","name":"Valmiera","localName":"Valmiera","labelEnglish":"Valmiera","labelLocal":"Valmiera","labelBoth":"Valmiera","type":"Municipality","iso":"LV-057","qid":"Q108037"},"geometry":{"type":"Point","coordinates":[26.7126,56.9362]}},{"type":"Feature","id":"LVA-5800","properties":{"kind":"division","code":"LVA-5800","countryCode":"LVA","name":"Valmiera","localName":"Valmiera","labelEnglish":"Valmiera","labelLocal":"Valmiera","labelBoth":"Valmiera","type":"Municipality","iso":"LV-102","qid":"Q108037"},"geometry":{"type":"Polygon","coordinates":[[[26.7726,56.681],[26.3756,56.6359],[26.6278,56.5437],[26.7437,56.5588],[26.7726,56.681]]]}},{"type":"Feature","id":"label-LVA-5800","properties":{"kind":"division-label","code":"LVA-5800","countryCode":"LVA","name":"Valmiera","localName":"Valmiera","labelEnglish":"Valmiera","labelLocal":"Valmiera","labelBoth":"Valmiera","type":"Municipality","iso":"LV-102","qid":"Q108037"},"geometry":{"type":"Point","coordinates":[26.643,56.6336]}},{"type":"Feature","id":"LVA-5781","properties":{"kind":"division","code":"LVA-5781","countryCode":"LVA","name":"Valmiera","localName":"Valmiera","labelEnglish":"Valmiera","labelLocal":"Valmiera","labelBoth":"Valmiera","type":"Municipality","iso":"LV-008","qid":"Q108037"},"geometry":{"type":"Polygon","coordinates":[[[25.4882,56.9945],[25.504,56.9948],[25.5634,57.1474],[25.2315,57.2962],[25.0906,57.2476],[25.1125,57.1098],[25.1475,56.9894],[25.1426,56.9508],[25.4882,56.9945]]]}},{"type":"Feature","id":"label-LVA-5781","properties":{"kind":"division-label","code":"LVA-5781","countryCode":"LVA","name":"Valmiera","localName":"Valmiera","labelEnglish":"Valmiera","labelLocal":"Valmiera","labelBoth":"Valmiera","type":"Municipality","iso":"LV-008","qid":"Q108037"},"geometry":{"type":"Point","coordinates":[25.3384,57.0794]}},{"type":"Feature","id":"LVA-5786","properties":{"kind":"division","code":"LVA-5786","countryCode":"LVA","name":"Valmiera","localName":"Valmiera","labelEnglish":"Valmiera","labelLocal":"Valmiera","labelBoth":"Valmiera","type":"Municipality","iso":"LV-030","qid":"Q108037"},"geometry":{"type":"Polygon","coordinates":[[[25.4882,56.9945],[25.5054,56.8131],[25.6922,56.7705],[25.7655,56.8282],[25.8864,56.9642],[25.504,56.9948],[25.4882,56.9945]]]}},{"type":"Feature","id":"label-LVA-5786","properties":{"kind":"division-label","code":"LVA-5786","countryCode":"LVA","name":"Valmiera","localName":"Valmiera","labelEnglish":"Valmiera","labelLocal":"Valmiera","labelBoth":"Valmiera","type":"Municipality","iso":"LV-030","qid":"Q108037"},"geometry":{"type":"Point","coordinates":[25.6656,56.8954]}},{"type":"Feature","id":"LVA-5785","properties":{"kind":"division","code":"LVA-5785","countryCode":"LVA","name":"Valmiera","localName":"Valmiera","labelEnglish":"Valmiera","labelLocal":"Valmiera","labelBoth":"Valmiera","type":"Municipality","iso":"LV-021","qid":"Q108037"},"geometry":{"type":"Polygon","coordinates":[[[26.3694,57.0446],[26.1832,57.0826],[26.1709,56.9533],[26.3694,57.0446]]]}},{"type":"Feature","id":"label-LVA-5785","properties":{"kind":"division-label","code":"LVA-5785","countryCode":"LVA","name":"Valmiera","localName":"Valmiera","labelEnglish":"Valmiera","labelLocal":"Valmiera","labelBoth":"Valmiera","type":"Municipality","iso":"LV-021","qid":"Q108037"},"geometry":{"type":"Point","coordinates":[26.275,57.0099]}},{"type":"Feature","id":"LVA-1088","properties":{"kind":"division","code":"LVA-1088","countryCode":"LVA","name":"Ogre","localName":"Ogre","labelEnglish":"Ogre","labelLocal":"Ogre","labelBoth":"Ogre","type":"Municipality","iso":"LV-067","qid":"Q2321579"},"geometry":{"type":"Polygon","coordinates":[[[25.4882,56.9945],[25.1426,56.9508],[24.8074,56.9339],[24.6933,56.8955],[24.5877,56.8122],[24.9236,56.8007],[25.0975,56.7372],[25.1763,56.7033],[25.2784,56.6969],[25.5054,56.8131],[25.4882,56.9945]]]}},{"type":"Feature","id":"label-LVA-1088","properties":{"kind":"division-label","code":"LVA-1088","countryCode":"LVA","name":"Ogre","localName":"Ogre","labelEnglish":"Ogre","labelLocal":"Ogre","labelBoth":"Ogre","type":"Municipality","iso":"LV-067","qid":"Q2321579"},"geometry":{"type":"Point","coordinates":[25.1269,56.8577]}},{"type":"Feature","id":"LVA-5773","properties":{"kind":"division","code":"LVA-5773","countryCode":"LVA","name":"Ropaži","localName":"Ropaži","labelEnglish":"Ropaži","labelLocal":"Ropaži","labelBoth":"Ropaži","type":"Municipality","iso":"LV-080","qid":"Q11068461"},"geometry":{"type":"Polygon","coordinates":[[[24.8074,56.9339],[24.8178,56.9895],[24.6301,57.061],[24.5655,57.06],[24.3717,56.9444],[24.4056,56.9265],[24.4574,56.8868],[24.6933,56.8955],[24.8074,56.9339]]]}},{"type":"Feature","id":"label-LVA-5773","properties":{"kind":"division-label","code":"LVA-5773","countryCode":"LVA","name":"Ropaži","localName":"Ropaži","labelEnglish":"Ropaži","labelLocal":"Ropaži","labelBoth":"Ropaži","type":"Municipality","iso":"LV-080","qid":"Q11068461"},"geometry":{"type":"Point","coordinates":[24.5818,56.9649]}},{"type":"Feature","id":"LVA-5761","properties":{"kind":"division","code":"LVA-5761","countryCode":"LVA","name":"Ikskile","localName":"Ikskile","labelEnglish":"Ikskile","labelLocal":"Ikskile","labelBoth":"Ikskile","type":"Municipality","iso":"LV-035","qid":null},"geometry":{"type":"Polygon","coordinates":[[[24.5127,56.8171],[24.5877,56.8122],[24.6933,56.8955],[24.4574,56.8868],[24.444,56.8377],[24.5127,56.8171]]]}},{"type":"Feature","id":"label-LVA-5761","properties":{"kind":"division-label","code":"LVA-5761","countryCode":"LVA","name":"Ikskile","localName":"Ikskile","labelEnglish":"Ikskile","labelLocal":"Ikskile","labelBoth":"Ikskile","type":"Municipality","iso":"LV-035","qid":null},"geometry":{"type":"Point","coordinates":[24.5695,56.8545]}},{"type":"Feature","id":"LVA-5757","properties":{"kind":"division","code":"LVA-5757","countryCode":"LVA","name":"Baldone","localName":"Baldone","labelEnglish":"Baldone","labelLocal":"Baldone","labelBoth":"Baldone","type":"Municipality","iso":"LV-013","qid":"Q2030886"},"geometry":{"type":"Polygon","coordinates":[[[24.5255,56.7524],[24.1882,56.7179],[24.2305,56.6994],[24.3554,56.6616],[24.5219,56.7136],[24.5255,56.7524]]]}},{"type":"Feature","id":"label-LVA-5757","properties":{"kind":"division-label","code":"LVA-5757","countryCode":"LVA","name":"Baldone","localName":"Baldone","labelEnglish":"Baldone","labelLocal":"Baldone","labelBoth":"Baldone","type":"Municipality","iso":"LV-013","qid":"Q2030886"},"geometry":{"type":"Point","coordinates":[24.3555,56.7316]}},{"type":"Feature","id":"LVA-5766","properties":{"kind":"division","code":"LVA-5766","countryCode":"LVA","name":"Ķegums","localName":"Ķegums","labelEnglish":"Ķegums","labelLocal":"Ķegums","labelBoth":"Ķegums","type":"Municipality","iso":"LV-051","qid":"Q2072209"},"geometry":{"type":"Polygon","coordinates":[[[24.5219,56.7136],[24.95,56.5786],[25.0495,56.612],[25.0243,56.6246],[24.9236,56.8007],[24.5877,56.8122],[24.5127,56.8171],[24.5255,56.7524],[24.5219,56.7136]]]}},{"type":"Feature","id":"label-LVA-5766","properties":{"kind":"division-label","code":"LVA-5766","countryCode":"LVA","name":"Ķegums","localName":"Ķegums","labelEnglish":"Ķegums","labelLocal":"Ķegums","labelBoth":"Ķegums","type":"Municipality","iso":"LV-051","qid":"Q2072209"},"geometry":{"type":"Point","coordinates":[24.729,56.6541]}},{"type":"Feature","id":"LVA-5736","properties":{"kind":"division","code":"LVA-5736","countryCode":"LVA","name":"Iecava","localName":"Iecava","labelEnglish":"Iecava","labelLocal":"Iecava","labelBoth":"Iecava","type":"Municipality","iso":"LV-034","qid":"Q2337266"},"geometry":{"type":"Polygon","coordinates":[[[24.3554,56.6616],[24.2305,56.6994],[24.0339,56.6882],[24.0789,56.5355],[24.3806,56.5296],[24.3554,56.6616]]]}},{"type":"Feature","id":"label-LVA-5736","properties":{"kind":"division-label","code":"LVA-5736","countryCode":"LVA","name":"Iecava","localName":"Iecava","labelEnglish":"Iecava","labelLocal":"Iecava","labelBoth":"Iecava","type":"Municipality","iso":"LV-034","qid":"Q2337266"},"geometry":{"type":"Point","coordinates":[24.2055,56.6132]}},{"type":"Feature","id":"LVA-5728","properties":{"kind":"division","code":"LVA-5728","countryCode":"LVA","name":"Pļaviņas","localName":"Pļaviņas","labelEnglish":"Pļaviņas","labelLocal":"Pļaviņas","labelBoth":"Pļaviņas","type":"Municipality","iso":"LV-072","qid":"Q865649"},"geometry":{"type":"Polygon","coordinates":[[[25.7655,56.8282],[25.6922,56.7705],[25.4955,56.6118],[25.5698,56.5767],[25.7569,56.6123],[25.9321,56.6378],[25.7655,56.8282]]]}},{"type":"Feature","id":"label-LVA-5728","properties":{"kind":"division-label","code":"LVA-5728","countryCode":"LVA","name":"Pļaviņas","localName":"Pļaviņas","labelEnglish":"Pļaviņas","labelLocal":"Pļaviņas","labelBoth":"Pļaviņas","type":"Municipality","iso":"LV-072","qid":"Q865649"},"geometry":{"type":"Point","coordinates":[25.731,56.6868]}},{"type":"Feature","id":"LVA-5729","properties":{"kind":"division","code":"LVA-5729","countryCode":"LVA","name":"Koknese","localName":"Koknese","labelEnglish":"Koknese","labelLocal":"Koknese","labelBoth":"Koknese","type":"Municipality","iso":"LV-046","qid":"Q865682"},"geometry":{"type":"Polygon","coordinates":[[[25.5054,56.8131],[25.2784,56.6969],[25.2934,56.5911],[25.4955,56.6118],[25.6922,56.7705],[25.5054,56.8131]]]}},{"type":"Feature","id":"label-LVA-5729","properties":{"kind":"division-label","code":"LVA-5729","countryCode":"LVA","name":"Koknese","localName":"Koknese","labelEnglish":"Koknese","labelLocal":"Koknese","labelBoth":"Koknese","type":"Municipality","iso":"LV-046","qid":"Q865682"},"geometry":{"type":"Point","coordinates":[25.4447,56.7031]}},{"type":"Feature","id":"LVA-5730","properties":{"kind":"division","code":"LVA-5730","countryCode":"LVA","name":"Aizkraukle","localName":"Aizkraukle","labelEnglish":"Aizkraukle","labelLocal":"Aizkraukle","labelBoth":"Aizkraukle","type":"Municipality","iso":"LV-002","qid":"Q865676"},"geometry":{"type":"Polygon","coordinates":[[[25.2784,56.6969],[25.1763,56.7033],[25.1386,56.6191],[25.2934,56.5911],[25.2784,56.6969]]]}},{"type":"Feature","id":"label-LVA-5730","properties":{"kind":"division-label","code":"LVA-5730","countryCode":"LVA","name":"Aizkraukle","localName":"Aizkraukle","labelEnglish":"Aizkraukle","labelLocal":"Aizkraukle","labelBoth":"Aizkraukle","type":"Municipality","iso":"LV-002","qid":"Q865676"},"geometry":{"type":"Point","coordinates":[25.228,56.6459]}},{"type":"Feature","id":"LVA-5731","properties":{"kind":"division","code":"LVA-5731","countryCode":"LVA","name":"Skrīveri","localName":"Skrīveri","labelEnglish":"Skrīveri","labelLocal":"Skrīveri","labelBoth":"Skrīveri","type":"Municipality","iso":"LV-092","qid":"Q2286864"},"geometry":{"type":"Polygon","coordinates":[[[25.0975,56.7372],[25.0243,56.6246],[25.0495,56.612],[25.1386,56.6191],[25.1763,56.7033],[25.0975,56.7372]]]}},{"type":"Feature","id":"label-LVA-5731","properties":{"kind":"division-label","code":"LVA-5731","countryCode":"LVA","name":"Skrīveri","localName":"Skrīveri","labelEnglish":"Skrīveri","labelLocal":"Skrīveri","labelBoth":"Skrīveri","type":"Municipality","iso":"LV-092","qid":"Q2286864"},"geometry":{"type":"Point","coordinates":[25.0971,56.6786]}},{"type":"Feature","id":"LVA-5769","properties":{"kind":"division","code":"LVA-5769","countryCode":"LVA","name":"Lielvārde","localName":"Lielvārde","labelEnglish":"Lielvārde","labelLocal":"Lielvārde","labelBoth":"Lielvārde","type":"Municipality","iso":"LV-053","qid":"Q279004"},"geometry":{"type":"Polygon","coordinates":[[[25.0975,56.7372],[24.9236,56.8007],[25.0243,56.6246],[25.0975,56.7372]]]}},{"type":"Feature","id":"label-LVA-5769","properties":{"kind":"division-label","code":"LVA-5769","countryCode":"LVA","name":"Lielvārde","localName":"Lielvārde","labelEnglish":"Lielvārde","labelLocal":"Lielvārde","labelBoth":"Lielvārde","type":"Municipality","iso":"LV-053","qid":"Q279004"},"geometry":{"type":"Point","coordinates":[24.9523,56.7332]}},{"type":"Feature","id":"LVA-5732","properties":{"kind":"division","code":"LVA-5732","countryCode":"LVA","name":"Jaunjelgava","localName":"Jaunjelgava","labelEnglish":"Jaunjelgava","labelLocal":"Jaunjelgava","labelBoth":"Jaunjelgava","type":"Municipality","iso":"LV-038","qid":"Q2880128"},"geometry":{"type":"Polygon","coordinates":[[[24.95,56.5786],[25.0135,56.4957],[25.2936,56.4079],[25.5946,56.4671],[25.5698,56.5767],[25.4955,56.6118],[25.2934,56.5911],[25.1386,56.6191],[25.0495,56.612],[24.95,56.5786]]]}},{"type":"Feature","id":"label-LVA-5732","properties":{"kind":"division-label","code":"LVA-5732","countryCode":"LVA","name":"Jaunjelgava","localName":"Jaunjelgava","labelEnglish":"Jaunjelgava","labelLocal":"Jaunjelgava","labelBoth":"Jaunjelgava","type":"Municipality","iso":"LV-038","qid":"Q2880128"},"geometry":{"type":"Point","coordinates":[25.3016,56.5109]}},{"type":"Feature","id":"LVA-1089","properties":{"kind":"division","code":"LVA-1089","countryCode":"LVA","name":"Preiļi","localName":"Preiļi","labelEnglish":"Preiļi","labelLocal":"Preiļi","labelBoth":"Preiļi","type":"Municipality","iso":"LV-073","qid":"Q2277469"},"geometry":{"type":"Polygon","coordinates":[[[26.6479,56.1353],[26.8885,56.1289],[26.5764,56.4333],[26.6012,56.2823],[26.6479,56.1353]]]}},{"type":"Feature","id":"label-LVA-1089","properties":{"kind":"division-label","code":"LVA-1089","countryCode":"LVA","name":"Preiļi","localName":"Preiļi","labelEnglish":"Preiļi","labelLocal":"Preiļi","labelBoth":"Preiļi","type":"Municipality","iso":"LV-073","qid":"Q2277469"},"geometry":{"type":"Point","coordinates":[26.696,56.2674]}},{"type":"Feature","id":"LVA-5750","properties":{"kind":"division","code":"LVA-5750","countryCode":"LVA","name":"Līvāni","localName":"Līvāni","labelEnglish":"Līvāni","labelLocal":"Līvāni","labelBoth":"Līvāni","type":"Municipality","iso":"LV-056","qid":"Q2277489"},"geometry":{"type":"Polygon","coordinates":[[[26.3354,56.1897],[26.6012,56.2823],[26.5764,56.4333],[26.5405,56.4897],[26.0885,56.4064],[26.3008,56.1833],[26.3354,56.1897]]]}},{"type":"Feature","id":"label-LVA-5750","properties":{"kind":"division-label","code":"LVA-5750","countryCode":"LVA","name":"Līvāni","localName":"Līvāni","labelEnglish":"Līvāni","labelLocal":"Līvāni","labelBoth":"Līvāni","type":"Municipality","iso":"LV-056","qid":"Q2277489"},"geometry":{"type":"Point","coordinates":[26.324,56.3841]}},{"type":"Feature","id":"LVA-5751","properties":{"kind":"division","code":"LVA-5751","countryCode":"LVA","name":"Vārkava","localName":"Vārkava","labelEnglish":"Vārkava","labelLocal":"Vārkava","labelBoth":"Vārkava","type":"Municipality","iso":"LV-103","qid":"Q1023757"},"geometry":{"type":"Polygon","coordinates":[[[26.3354,56.1897],[26.6479,56.1353],[26.6012,56.2823],[26.3354,56.1897]]]}},{"type":"Feature","id":"label-LVA-5751","properties":{"kind":"division-label","code":"LVA-5751","countryCode":"LVA","name":"Vārkava","localName":"Vārkava","labelEnglish":"Vārkava","labelLocal":"Vārkava","labelBoth":"Vārkava","type":"Municipality","iso":"LV-103","qid":"Q1023757"},"geometry":{"type":"Point","coordinates":[26.5122,56.2165]}},{"type":"Feature","id":"LVA-5725","properties":{"kind":"division","code":"LVA-5725","countryCode":"LVA","name":"Jēkabpils","localName":"Jēkabpils","labelEnglish":"Jēkabpils","labelLocal":"Jēkabpils","labelBoth":"Jēkabpils","type":"Municipality","iso":"LV-JKB","qid":"Q191120"},"geometry":{"type":"Polygon","coordinates":[[[26.0885,56.4064],[25.8766,56.4953],[25.8207,56.4868],[25.7339,56.351],[25.6938,56.2286],[26.0255,56.0794],[26.3453,56.0935],[26.3008,56.1833],[26.0885,56.4064]]]}},{"type":"Feature","id":"label-LVA-5725","properties":{"kind":"division-label","code":"LVA-5725","countryCode":"LVA","name":"Jēkabpils","localName":"Jēkabpils","labelEnglish":"Jēkabpils","labelLocal":"Jēkabpils","labelBoth":"Jēkabpils","type":"Municipality","iso":"LV-JKB","qid":"Q191120"},"geometry":{"type":"Point","coordinates":[25.9607,56.3227]}},{"type":"Feature","id":"LVA-5726","properties":{"kind":"division","code":"LVA-5726","countryCode":"LVA","name":"Krustpils","localName":"Krustpils","labelEnglish":"Krustpils","labelLocal":"Krustpils","labelBoth":"Krustpils","type":"Municipality","iso":"LV-049","qid":"Q2277478"},"geometry":{"type":"Polygon","coordinates":[[[26.0885,56.4064],[26.5405,56.4897],[26.6278,56.5437],[26.3756,56.6359],[25.9321,56.6378],[25.7569,56.6123],[25.8264,56.5272],[25.8766,56.4953],[26.0885,56.4064]]]}},{"type":"Feature","id":"label-LVA-5726","properties":{"kind":"division-label","code":"LVA-5726","countryCode":"LVA","name":"Krustpils","localName":"Krustpils","labelEnglish":"Krustpils","labelLocal":"Krustpils","labelBoth":"Krustpils","type":"Municipality","iso":"LV-049","qid":"Q2277478"},"geometry":{"type":"Point","coordinates":[26.1972,56.5559]}},{"type":"Feature","id":"LVA-5727","properties":{"kind":"division","code":"LVA-5727","countryCode":"LVA","name":"Sala","localName":"Sala","labelEnglish":"Sala","labelLocal":"Sala","labelBoth":"Sala","type":"Municipality","iso":"LV-086","qid":"Q2375848"},"geometry":{"type":"Polygon","coordinates":[[[25.7569,56.6123],[25.5698,56.5767],[25.5946,56.4671],[25.7339,56.351],[25.8207,56.4868],[25.8264,56.5272],[25.7569,56.6123]]]}},{"type":"Feature","id":"label-LVA-5727","properties":{"kind":"division-label","code":"LVA-5727","countryCode":"LVA","name":"Sala","localName":"Sala","labelEnglish":"Sala","labelLocal":"Sala","labelBoth":"Sala","type":"Municipality","iso":"LV-086","qid":"Q2375848"},"geometry":{"type":"Point","coordinates":[25.7187,56.4905]}},{"type":"Feature","id":"LVA-5714","properties":{"kind":"division","code":"LVA-5714","countryCode":"LVA","name":"Aizpute","localName":"Aizpute","labelEnglish":"Aizpute","labelLocal":"Aizpute","labelBoth":"Aizpute","type":"Municipality","iso":"LV-003","qid":"Q2485015"},"geometry":{"type":"Polygon","coordinates":[[[21.4364,56.8676],[21.3159,56.7397],[21.5717,56.5606],[21.7124,56.55],[21.7954,56.5733],[21.823,56.6879],[21.4364,56.8676]]]}},{"type":"Feature","id":"label-LVA-5714","properties":{"kind":"division-label","code":"LVA-5714","countryCode":"LVA","name":"Aizpute","localName":"Aizpute","labelEnglish":"Aizpute","labelLocal":"Aizpute","labelBoth":"Aizpute","type":"Municipality","iso":"LV-003","qid":"Q2485015"},"geometry":{"type":"Point","coordinates":[21.5943,56.7232]}},{"type":"Feature","id":"LVA-5709","properties":{"kind":"division","code":"LVA-5709","countryCode":"LVA","name":"Kuldīga","localName":"Kuldīga","labelEnglish":"Kuldīga","labelLocal":"Kuldīga","labelBoth":"Kuldīga","type":"Municipality","iso":"LV-050","qid":"Q2337188"},"geometry":{"type":"Polygon","coordinates":[[[21.4364,56.8676],[21.823,56.6879],[22.1627,56.795],[22.4549,56.9171],[22.5082,57.0138],[22.2064,57.1779],[21.5738,57.0856],[21.4934,56.9038],[21.4364,56.8676]]]}},{"type":"Feature","id":"label-LVA-5709","properties":{"kind":"division-label","code":"LVA-5709","countryCode":"LVA","name":"Kuldīga","localName":"Kuldīga","labelEnglish":"Kuldīga","labelLocal":"Kuldīga","labelBoth":"Kuldīga","type":"Municipality","iso":"LV-050","qid":"Q2337188"},"geometry":{"type":"Point","coordinates":[21.9858,56.9626]}},{"type":"Feature","id":"LVA-5710","properties":{"kind":"division","code":"LVA-5710","countryCode":"LVA","name":"Alsunga","localName":"Alsunga","labelEnglish":"Alsunga","labelLocal":"Alsunga","labelBoth":"Alsunga","type":"Municipality","iso":"LV-006","qid":"Q1995769"},"geometry":{"type":"Polygon","coordinates":[[[21.4934,56.9038],[21.5738,57.0856],[21.3958,56.9424],[21.4934,56.9038]]]}},{"type":"Feature","id":"label-LVA-5710","properties":{"kind":"division-label","code":"LVA-5710","countryCode":"LVA","name":"Alsunga","localName":"Alsunga","labelEnglish":"Alsunga","labelLocal":"Alsunga","labelBoth":"Alsunga","type":"Municipality","iso":"LV-006","qid":"Q1995769"},"geometry":{"type":"Point","coordinates":[21.5583,56.9915]}},{"type":"Feature","id":"LVA-5712","properties":{"kind":"division","code":"LVA-5712","countryCode":"LVA","name":"Skrunda","localName":"Skrunda","labelEnglish":"Skrunda","labelLocal":"Skrunda","labelBoth":"Skrunda","type":"Municipality","iso":"LV-093","qid":"Q2299239"},"geometry":{"type":"Polygon","coordinates":[[[21.7954,56.5733],[21.9667,56.5066],[22.1627,56.795],[21.823,56.6879],[21.7954,56.5733]]]}},{"type":"Feature","id":"label-LVA-5712","properties":{"kind":"division-label","code":"LVA-5712","countryCode":"LVA","name":"Skrunda","localName":"Skrunda","labelEnglish":"Skrunda","labelLocal":"Skrunda","labelBoth":"Skrunda","type":"Municipality","iso":"LV-093","qid":"Q2299239"},"geometry":{"type":"Point","coordinates":[21.9901,56.6446]}},{"type":"Feature","id":"LVA-5765","properties":{"kind":"division","code":"LVA-5765","countryCode":"LVA","name":"Kandava","localName":"Kandava","labelEnglish":"Kandava","labelLocal":"Kandava","labelBoth":"Kandava","type":"Municipality","iso":"LV-043","qid":"Q2024643"},"geometry":{"type":"Polygon","coordinates":[[[22.4549,56.9171],[22.4909,56.8515],[22.7889,56.8039],[22.9432,56.855],[22.9309,57.1446],[22.5082,57.0138],[22.4549,56.9171]]]}},{"type":"Feature","id":"label-LVA-5765","properties":{"kind":"division-label","code":"LVA-5765","countryCode":"LVA","name":"Kandava","localName":"Kandava","labelEnglish":"Kandava","labelLocal":"Kandava","labelBoth":"Kandava","type":"Municipality","iso":"LV-043","qid":"Q2024643"},"geometry":{"type":"Point","coordinates":[22.6964,56.9403]}},{"type":"Feature","id":"LVA-1092","properties":{"kind":"division","code":"LVA-1092","countryCode":"LVA","name":"Tukums","localName":"Tukums","labelEnglish":"Tukums","labelLocal":"Tukums","labelBoth":"Tukums","type":"Municipality","iso":"LV-099","qid":"Q369007"},"geometry":{"type":"Polygon","coordinates":[[[23.492,56.9346],[23.4772,56.9365],[23.1416,56.9355],[23.1128,57.2653],[23.0804,57.2385],[22.9309,57.1446],[22.9432,56.855],[23.1233,56.6988],[23.4866,56.8159],[23.5068,56.8946],[23.492,56.9346]]]}},{"type":"Feature","id":"label-LVA-1092","properties":{"kind":"division-label","code":"LVA-1092","countryCode":"LVA","name":"Tukums","localName":"Tukums","labelEnglish":"Tukums","labelLocal":"Tukums","labelBoth":"Tukums","type":"Municipality","iso":"LV-099","qid":"Q369007"},"geometry":{"type":"Point","coordinates":[23.0121,56.9505]}},{"type":"Feature","id":"LVA-1082","properties":{"kind":"division","code":"LVA-1082","countryCode":"LVA","name":"Dobele","localName":"Dobele","labelEnglish":"Dobele","labelLocal":"Dobele","labelBoth":"Dobele","type":"Municipality","iso":"LV-026","qid":"Q519580"},"geometry":{"type":"Polygon","coordinates":[[[23.4866,56.8159],[23.1233,56.6988],[22.826,56.6981],[22.7981,56.5683],[23.1488,56.4331],[23.4151,56.4933],[23.4866,56.8159]]]}},{"type":"Feature","id":"label-LVA-1082","properties":{"kind":"division-label","code":"LVA-1082","countryCode":"LVA","name":"Dobele","localName":"Dobele","labelEnglish":"Dobele","labelLocal":"Dobele","labelBoth":"Dobele","type":"Municipality","iso":"LV-026","qid":"Q519580"},"geometry":{"type":"Point","coordinates":[23.2005,56.6172]}},{"type":"Feature","id":"LVA-5763","properties":{"kind":"division","code":"LVA-5763","countryCode":"LVA","name":"Jaunpils","localName":"Jaunpils","labelEnglish":"Jaunpils","labelLocal":"Jaunpils","labelBoth":"Jaunpils","type":"Municipality","iso":"LV-040","qid":"Q2072154"},"geometry":{"type":"Polygon","coordinates":[[[22.826,56.6981],[23.1233,56.6988],[22.9432,56.855],[22.7889,56.8039],[22.826,56.6981]]]}},{"type":"Feature","id":"label-LVA-5763","properties":{"kind":"division-label","code":"LVA-5763","countryCode":"LVA","name":"Jaunpils","localName":"Jaunpils","labelEnglish":"Jaunpils","labelLocal":"Jaunpils","labelBoth":"Jaunpils","type":"Municipality","iso":"LV-040","qid":"Q2072154"},"geometry":{"type":"Point","coordinates":[22.9132,56.7686]}},{"type":"Feature","id":"LVA-5711","properties":{"kind":"division","code":"LVA-5711","countryCode":"LVA","name":"Brocēni","localName":"Brocēni","labelEnglish":"Brocēni","labelLocal":"Brocēni","labelBoth":"Brocēni","type":"Municipality","iso":"LV-018","qid":"Q865717"},"geometry":{"type":"Polygon","coordinates":[[[22.7889,56.8039],[22.4909,56.8515],[22.7121,56.5654],[22.7981,56.5683],[22.826,56.6981],[22.7889,56.8039]]]}},{"type":"Feature","id":"label-LVA-5711","properties":{"kind":"division-label","code":"LVA-5711","countryCode":"LVA","name":"Brocēni","localName":"Brocēni","labelEnglish":"Brocēni","labelLocal":"Brocēni","labelBoth":"Brocēni","type":"Municipality","iso":"LV-018","qid":"Q865717"},"geometry":{"type":"Point","coordinates":[22.6412,56.7003]}},{"type":"Feature","id":"LVA-5737","properties":{"kind":"division","code":"LVA-5737","countryCode":"LVA","name":"Ozolnieki","localName":"Ozolnieki","labelEnglish":"Ozolnieki","labelLocal":"Ozolnieki","labelBoth":"Ozolnieki","type":"Municipality","iso":"LV-069","qid":"Q2304926"},"geometry":{"type":"Polygon","coordinates":[[[23.9963,56.7305],[23.7563,56.7441],[23.7312,56.6905],[23.7919,56.6469],[23.9923,56.5025],[24.0177,56.502],[24.0789,56.5355],[24.0339,56.6882],[24.0081,56.71],[23.9963,56.7305]]]}},{"type":"Feature","id":"label-LVA-5737","properties":{"kind":"division-label","code":"LVA-5737","countryCode":"LVA","name":"Ozolnieki","localName":"Ozolnieki","labelEnglish":"Ozolnieki","labelLocal":"Ozolnieki","labelBoth":"Ozolnieki","type":"Municipality","iso":"LV-069","qid":"Q2304926"},"geometry":{"type":"Point","coordinates":[23.9479,56.6377]}},{"type":"Feature","id":"LVA-4849","properties":{"kind":"division","code":"LVA-4849","countryCode":"LVA","name":"Jelgava","localName":"Jelgava","labelEnglish":"Jelgava","labelLocal":"Jelgava","labelBoth":"Jelgava","type":"Republican City","iso":"LV-JEL","qid":"Q179830"},"geometry":{"type":"Polygon","coordinates":[[[23.7312,56.6905],[23.618,56.6695],[23.7076,56.5919],[23.7919,56.6469],[23.7312,56.6905]]]}},{"type":"Feature","id":"label-LVA-4849","properties":{"kind":"division-label","code":"LVA-4849","countryCode":"LVA","name":"Jelgava","localName":"Jelgava","labelEnglish":"Jelgava","labelLocal":"Jelgava","labelBoth":"Jelgava","type":"Republican City","iso":"LV-JEL","qid":"Q179830"},"geometry":{"type":"Point","coordinates":[23.7011,56.6457]}},{"type":"Feature","id":"LVA-4850","properties":{"kind":"division","code":"LVA-4850","countryCode":"LVA","name":"Daugavpils","localName":"Daugavpils","labelEnglish":"Daugavpils","labelLocal":"Daugavpils","labelBoth":"Daugavpils","type":"Republican City","iso":"LV-DGV","qid":"Q80021"},"geometry":{"type":"Polygon","coordinates":[[[26.5184,55.8266],[26.6098,55.9587],[26.4379,55.9146],[26.5184,55.8266]]]}},{"type":"Feature","id":"label-LVA-4850","properties":{"kind":"division-label","code":"LVA-4850","countryCode":"LVA","name":"Daugavpils","localName":"Daugavpils","labelEnglish":"Daugavpils","labelLocal":"Daugavpils","labelBoth":"Daugavpils","type":"Republican City","iso":"LV-DGV","qid":"Q80021"},"geometry":{"type":"Point","coordinates":[26.5517,55.8814]}},{"type":"Feature","id":"LVA-4851","properties":{"kind":"division","code":"LVA-4851","countryCode":"LVA","name":"Rēzekne","localName":"Rēzekne","labelEnglish":"Rēzekne","labelLocal":"Rēzekne","labelBoth":"Rēzekne","type":"Republican City","iso":"LV-REZ","qid":"Q180379"},"geometry":{"type":"Polygon","coordinates":[[[27.3391,56.4749],[27.3637,56.5552],[27.2743,56.5155],[27.3391,56.4749]]]}},{"type":"Feature","id":"label-LVA-4851","properties":{"kind":"division-label","code":"LVA-4851","countryCode":"LVA","name":"Rēzekne","localName":"Rēzekne","labelEnglish":"Rēzekne","labelLocal":"Rēzekne","labelBoth":"Rēzekne","type":"Republican City","iso":"LV-REZ","qid":"Q180379"},"geometry":{"type":"Point","coordinates":[27.3335,56.516]}},{"type":"Feature","id":"LVA-5720","properties":{"kind":"division","code":"LVA-5720","countryCode":"LVA","name":"Durbe","localName":"Durbe","labelEnglish":"Durbe","labelLocal":"Durbe","labelBoth":"Durbe","type":"Municipality","iso":"LV-028","qid":"Q1962356"},"geometry":{"type":"Polygon","coordinates":[[[21.3159,56.7397],[21.2583,56.6566],[21.3543,56.503],[21.5717,56.5606],[21.3159,56.7397]]]}},{"type":"Feature","id":"label-LVA-5720","properties":{"kind":"division-label","code":"LVA-5720","countryCode":"LVA","name":"Durbe","localName":"Durbe","labelEnglish":"Durbe","labelLocal":"Durbe","labelBoth":"Durbe","type":"Municipality","iso":"LV-028","qid":"Q1962356"},"geometry":{"type":"Point","coordinates":[21.4069,56.6142]}},{"type":"Feature","id":"LVA-5762","properties":{"kind":"division","code":"LVA-5762","countryCode":"LVA","name":"Inčukalns","localName":"Inčukalns","labelEnglish":"Inčukalns","labelLocal":"Inčukalns","labelBoth":"Inčukalns","type":"Municipality","iso":"LV-037","qid":"Q2252820"},"geometry":{"type":"Polygon","coordinates":[[[24.6301,57.061],[24.7799,57.1352],[24.6659,57.1254],[24.5087,57.106],[24.5655,57.06],[24.6301,57.061]]]}},{"type":"Feature","id":"label-LVA-5762","properties":{"kind":"division-label","code":"LVA-5762","countryCode":"LVA","name":"Inčukalns","localName":"Inčukalns","labelEnglish":"Inčukalns","labelLocal":"Inčukalns","labelBoth":"Inčukalns","type":"Municipality","iso":"LV-037","qid":"Q2252820"},"geometry":{"type":"Point","coordinates":[24.635,57.0998]}},{"type":"Feature","id":"LVA-5754","properties":{"kind":"division","code":"LVA-5754","countryCode":"LVA","name":"Ādaži","localName":"Ādaži","labelEnglish":"Ādaži","labelLocal":"Ādaži","labelBoth":"Ādaži","type":"Municipality","iso":"LV-011","qid":"Q3019837"},"geometry":{"type":"Polygon","coordinates":[[[24.3488,57.1838],[24.2473,57.0601],[24.5087,57.106],[24.3724,57.1824],[24.3488,57.1838]]]}},{"type":"Feature","id":"label-LVA-5754","properties":{"kind":"division-label","code":"LVA-5754","countryCode":"LVA","name":"Ādaži","localName":"Ādaži","labelEnglish":"Ādaži","labelLocal":"Ādaži","labelBoth":"Ādaži","type":"Municipality","iso":"LV-011","qid":"Q3019837"},"geometry":{"type":"Point","coordinates":[24.3855,57.108]}},{"type":"Feature","id":"LVA-1093","properties":{"kind":"division","code":"LVA-1093","countryCode":"LVA","name":"Valmiera","localName":"Valmiera","labelEnglish":"Valmiera","labelLocal":"Valmiera","labelBoth":"Valmiera","type":"Republican City","iso":"LV-VMR","qid":"Q108037"},"geometry":{"type":"Polygon","coordinates":[[[25.4569,57.5373],[25.3787,57.5498],[25.3771,57.5091],[25.4569,57.5373]]]}},{"type":"Feature","id":"label-LVA-1093","properties":{"kind":"division-label","code":"LVA-1093","countryCode":"LVA","name":"Valmiera","localName":"Valmiera","labelEnglish":"Valmiera","labelLocal":"Valmiera","labelBoth":"Valmiera","type":"Republican City","iso":"LV-VMR","qid":"Q108037"},"geometry":{"type":"Point","coordinates":[25.4161,57.5374]}},{"type":"Feature","id":"LVA-1080","properties":{"kind":"division","code":"LVA-1080","countryCode":"LVA","name":"Cēsis","localName":"Cēsis","labelEnglish":"Cēsis","labelLocal":"Cēsis","labelBoth":"Cēsis","type":"Municipality","iso":"LV-022","qid":"Q1989164"},"geometry":{"type":"Polygon","coordinates":[[[25.2315,57.2962],[25.5634,57.1474],[25.5603,57.2226],[25.2315,57.3306],[25.2315,57.2962]]]}},{"type":"Feature","id":"label-LVA-1080","properties":{"kind":"division-label","code":"LVA-1080","countryCode":"LVA","name":"Cēsis","localName":"Cēsis","labelEnglish":"Cēsis","labelLocal":"Cēsis","labelBoth":"Cēsis","type":"Municipality","iso":"LV-022","qid":"Q1989164"},"geometry":{"type":"Point","coordinates":[25.4307,57.2396]}},{"type":"Feature","id":"LVA-5789","properties":{"kind":"division","code":"LVA-5789","countryCode":"LVA","name":"Valmiera","localName":"Valmiera","labelEnglish":"Valmiera","labelLocal":"Valmiera","labelBoth":"Valmiera","type":"Municipality","iso":"LV-055","qid":"Q108037"},"geometry":{"type":"Polygon","coordinates":[[[25.0906,57.2476],[24.9331,57.2462],[24.9004,57.2187],[25.1125,57.1098],[25.0906,57.2476]]]}},{"type":"Feature","id":"label-LVA-5789","properties":{"kind":"division-label","code":"LVA-5789","countryCode":"LVA","name":"Valmiera","localName":"Valmiera","labelEnglish":"Valmiera","labelLocal":"Valmiera","labelBoth":"Valmiera","type":"Municipality","iso":"LV-055","qid":"Q108037"},"geometry":{"type":"Point","coordinates":[25.0726,57.1775]}},{"type":"Feature","id":"LVA-1085","properties":{"kind":"division","code":"LVA-1085","countryCode":"LVA","name":"Jēkabpils","localName":"Jēkabpils","labelEnglish":"Jēkabpils","labelLocal":"Jēkabpils","labelBoth":"Jēkabpils","type":"Republican City","iso":"LV-JKB","qid":"Q191120"},"geometry":{"type":"Polygon","coordinates":[[[25.8207,56.4868],[25.8766,56.4953],[25.8264,56.5272],[25.8207,56.4868]]]}},{"type":"Feature","id":"label-LVA-1085","properties":{"kind":"division-label","code":"LVA-1085","countryCode":"LVA","name":"Jēkabpils","localName":"Jēkabpils","labelEnglish":"Jēkabpils","labelLocal":"Jēkabpils","labelBoth":"Jēkabpils","type":"Republican City","iso":"LV-JKB","qid":"Q191120"},"geometry":{"type":"Point","coordinates":[25.8619,56.5068]}}]}