{"type":"FeatureCollection","features":[{"type":"Feature","id":"MAC+00?","properties":{"kind":"division","code":"MAC+00?","countryCode":"MAC","name":"Macau","localName":"Macau","labelEnglish":"Macau","labelLocal":"Macau","labelBoth":"Macau","type":null,"iso":"MO-M","qid":"Q14773"},"geometry":{"type":"Polygon","coordinates":[[[113.5586,22.163],[113.5468,22.1054],[113.5859,22.1319],[113.5586,22.163]]]}},{"type":"Feature","id":"label-MAC+00?","properties":{"kind":"division-label","code":"MAC+00?","countryCode":"MAC","name":"Macau","localName":"Macau","labelEnglish":"Macau","labelLocal":"Macau","labelBoth":"Macau","type":null,"iso":"MO-M","qid":"Q14773"},"geometry":{"type":"Point","coordinates":[113.56,22.1349]}}]}