{"type":"FeatureCollection","features":[{"type":"Feature","id":"MAF-5145","properties":{"kind":"division","code":"MAF-5145","countryCode":"MAF","name":"Saint Martin","localName":"Saint Martin","labelEnglish":"Saint Martin","labelLocal":"Saint Martin","labelBoth":"Saint Martin","type":null,"iso":"MF-X00~","qid":"Q126125"},"geometry":{"type":"Polygon","coordinates":[[[-63.0176,18.0334],[-63.0176,18.1221],[-63.107,18.0621],[-63.0176,18.0334]]]}},{"type":"Feature","id":"label-MAF-5145","properties":{"kind":"division-label","code":"MAF-5145","countryCode":"MAF","name":"Saint Martin","localName":"Saint Martin","labelEnglish":"Saint Martin","labelLocal":"Saint Martin","labelBoth":"Saint Martin","type":null,"iso":"MF-X00~","qid":"Q126125"},"geometry":{"type":"Point","coordinates":[-63.078,18.0799]}}]}