{"type":"FeatureCollection","features":[{"type":"Feature","id":"MAR-3457","properties":{"kind":"division","code":"MAR-3457","countryCode":"MAR","name":"Guelmim-Es Semara","localName":"Guelmim-Es Semara","labelEnglish":"Guelmim-Es Semara","labelLocal":"Guelmim-Es Semara","labelBoth":"Guelmim-Es Semara","type":"Region","iso":"MA-14","qid":"Q529796"},"geometry":{"type":"Polygon","coordinates":[[[-12.0562,25.9953],[-11.7172,26.1036],[-11.3369,26.6329],[-11.3916,26.8829],[-10.9218,27.0098],[-10.5503,26.9903],[-10.2505,26.8604],[-9.7344,26.8604],[-9.4121,27.088],[-8.7939,27.1202],[-8.817,27.6615],[-8.6824,27.6614],[-8.6824,28.6659],[-7.6195,29.3894],[-7.1469,29.5092],[-6.7835,29.4463],[-6.3439,29.5721],[-6.5394,30.1055],[-6.5266,30.3524],[-6.7156,30.487],[-7.1772,30.3923],[-7.3247,30.1907],[-7.6273,30.219],[-8.1003,29.9813],[-8.6441,29.9633],[-8.6457,29.4423],[-9.7869,29.2803],[-10.0979,29.0789],[-10.3991,29.1612],[-10.5738,28.9904],[-11.0476,28.7617],[-11.4856,28.3256],[-11.7823,28.2101],[-11.5437,27.7901],[-12.034,27.4405],[-12.3125,26.844],[-12.5734,26.4246],[-12.445,25.9926],[-12.0562,25.9953]]]}},{"type":"Feature","id":"label-MAR-3457","properties":{"kind":"division-label","code":"MAR-3457","countryCode":"MAR","name":"Guelmim-Es Semara","localName":"Guelmim-Es Semara","labelEnglish":"Guelmim-Es Semara","labelLocal":"Guelmim-Es Semara","labelBoth":"Guelmim-Es Semara","type":"Region","iso":"MA-14","qid":"Q529796"},"geometry":{"type":"Point","coordinates":[-10.0502,28.1581]}},{"type":"Feature","id":"MAR-3456","properties":{"kind":"division","code":"MAR-3456","countryCode":"MAR","name":"Laâyoune-Boujdour-Sakia El Hamra","localName":"Laâyoune-Boujdour-Sakia El Hamra","labelEnglish":"Laâyoune-Boujdour-Sakia El Hamra","labelLocal":"Laâyoune-Boujdour-Sakia El Hamra","labelBoth":"Laâyoune-Boujdour-Sakia El Hamra","type":"Region","iso":"MA-15","qid":"Q818739"},"geometry":{"type":"Polygon","coordinates":[[[-12.0562,25.9953],[-12.445,25.9926],[-12.5734,26.4246],[-12.3125,26.844],[-12.034,27.4405],[-11.5437,27.7901],[-11.7823,28.2101],[-12.0614,28.089],[-12.9681,27.9146],[-13.1713,27.685],[-13.62,26.6889],[-14.4101,26.2601],[-14.7821,25.4469],[-14.836,24.9187],[-15.0122,24.5915],[-14.5912,24.4077],[-14.0591,24.4802],[-13.6435,24.4024],[-13.3143,24.5058],[-12.9469,24.4967],[-12.4301,24.8302],[-12.0562,25.9953]]]}},{"type":"Feature","id":"label-MAR-3456","properties":{"kind":"division-label","code":"MAR-3456","countryCode":"MAR","name":"Laâyoune-Boujdour-Sakia El Hamra","localName":"Laâyoune-Boujdour-Sakia El Hamra","labelEnglish":"Laâyoune-Boujdour-Sakia El Hamra","labelLocal":"Laâyoune-Boujdour-Sakia El Hamra","labelBoth":"Laâyoune-Boujdour-Sakia El Hamra","type":"Region","iso":"MA-15","qid":"Q818739"},"geometry":{"type":"Point","coordinates":[-13.278,25.9492]}},{"type":"Feature","id":"MAR-3469","properties":{"kind":"division","code":"MAR-3469","countryCode":"MAR","name":"Oued Ed-Dahab","localName":"Oued Ed-Dahab","labelEnglish":"Oued Ed-Dahab","labelLocal":"Oued Ed-Dahab","labelBoth":"Oued Ed-Dahab","type":"Region","iso":"MA-16","qid":"Q2410368"},"geometry":{"type":"Polygon","coordinates":[[[-12.9469,24.4967],[-13.3143,24.5058],[-13.6435,24.4024],[-14.0591,24.4802],[-14.5912,24.4077],[-15.0122,24.5915],[-15.1719,24.4941],[-15.7655,23.8568],[-16.2896,22.8998],[-16.5218,22.3149],[-16.7068,22.2755],[-16.9669,21.7812],[-17.0137,21.42],[-16.73,21.4698],[-15.75,21.4903],[-14.8398,21.4503],[-14.6699,21.5997],[-14.6299,21.8604],[-14.2202,22.3096],[-14.02,23.4103],[-13.77,23.7901],[-13.31,23.9806],[-12.9469,24.4967]]]}},{"type":"Feature","id":"label-MAR-3469","properties":{"kind":"division-label","code":"MAR-3469","countryCode":"MAR","name":"Oued Ed-Dahab","localName":"Oued Ed-Dahab","labelEnglish":"Oued Ed-Dahab","labelLocal":"Oued Ed-Dahab","labelBoth":"Oued Ed-Dahab","type":"Region","iso":"MA-16","qid":"Q2410368"},"geometry":{"type":"Point","coordinates":[-14.9815,23.0116]}},{"type":"Feature","id":"MAR-1445","properties":{"kind":"division","code":"MAR-1445","countryCode":"MAR","name":"Tangier-Tetouan","localName":"Tangier-Tetouan","labelEnglish":"Tangier-Tetouan","labelLocal":"Tangier-Tetouan","labelBoth":"Tangier-Tetouan","type":"Region","iso":"MA-01","qid":"Q389777"},"geometry":{"type":"Polygon","coordinates":[[[-5.3989,35.9245],[-5.908,35.7973],[-6.2492,35.0014],[-5.7817,34.9307],[-5.1902,34.7164],[-4.5795,34.9634],[-4.4954,35.1808],[-4.7705,35.241],[-5.2494,35.5846],[-5.3407,35.8474],[-5.3989,35.9245]]]}},{"type":"Feature","id":"label-MAR-1445","properties":{"kind":"division-label","code":"MAR-1445","countryCode":"MAR","name":"Tangier-Tetouan","localName":"Tangier-Tetouan","labelEnglish":"Tangier-Tetouan","labelLocal":"Tangier-Tetouan","labelBoth":"Tangier-Tetouan","type":"Region","iso":"MA-01","qid":"Q389777"},"geometry":{"type":"Point","coordinates":[-5.35664,35.2884]}},{"type":"Feature","id":"MAR-1454","properties":{"kind":"division","code":"MAR-1454","countryCode":"MAR","name":"Oriental","localName":"Oriental","labelEnglish":"Oriental","labelLocal":"Oriental","labelBoth":"Oriental","type":"Region","iso":"MA-04","qid":"Q648160"},"geometry":{"type":"Polygon","coordinates":[[[-2.9478,35.3298],[-3.4129,35.1979],[-3.8219,35.2068],[-3.8106,34.9309],[-3.5114,34.5935],[-3.2721,34.7733],[-2.9611,34.6105],[-3.1961,34.3637],[-3.0695,34.1457],[-3.2028,34.0253],[-3.1024,33.7851],[-3.2144,33.5126],[-2.983,33.342],[-3.0338,33.1486],[-3.5982,33.0872],[-3.9992,32.6173],[-3.6575,32.1412],[-3.2292,32.1543],[-3.1617,31.7325],[-2.8278,31.7946],[-2.9387,32.0486],[-2.5161,32.1322],[-1.2496,32.0817],[-1.2734,32.2294],[-1.0475,32.517],[-1.4233,32.7424],[-1.4995,33.0602],[-1.6742,33.238],[-1.6127,33.5215],[-1.7407,33.6866],[-1.6721,34.092],[-1.8711,34.5966],[-1.7695,34.7413],[-2.2226,35.0893],[-2.9051,35.1736],[-2.9129,35.2769],[-2.943,35.2679],[-2.9478,35.3298]]]}},{"type":"Feature","id":"label-MAR-1454","properties":{"kind":"division-label","code":"MAR-1454","countryCode":"MAR","name":"Oriental","localName":"Oriental","labelEnglish":"Oriental","labelLocal":"Oriental","labelBoth":"Oriental","type":"Region","iso":"MA-04","qid":"Q648160"},"geometry":{"type":"Point","coordinates":[-2.5158,33.6161]}},{"type":"Feature","id":"MAR-1452","properties":{"kind":"division","code":"MAR-1452","countryCode":"MAR","name":"Meknès-Tafilalet","localName":"Meknès-Tafilalet","labelEnglish":"Meknès-Tafilalet","labelLocal":"Meknès-Tafilalet","labelBoth":"Meknès-Tafilalet","type":"Region","iso":"MA-06","qid":"Q497006"},"geometry":{"type":"Polygon","coordinates":[[[-3.1617,31.7325],[-3.2292,32.1543],[-3.6575,32.1412],[-3.9992,32.6173],[-4.2793,32.6527],[-4.4935,32.8845],[-4.7194,32.9255],[-4.9941,33.4169],[-4.8979,33.5407],[-5.4205,34.2806],[-5.4687,34.1654],[-5.8851,34.1167],[-5.7245,33.788],[-5.8354,33.3277],[-6.3536,33.4683],[-6.4198,33.2383],[-6.1327,33.0118],[-6.0417,32.7931],[-5.4373,32.5079],[-5.4684,32.2621],[-5.8211,32.1021],[-5.8059,31.9302],[-5.5719,31.8748],[-5.7356,31.6384],[-5.4541,31.6089],[-5.2138,31.4124],[-5.361,30.8242],[-5.2191,30.4979],[-4.7707,30.2291],[-4.3724,30.5086],[-3.6455,30.7113],[-3.5547,30.9559],[-3.8192,31.3189],[-3.6595,31.6478],[-3.1617,31.7325]]]}},{"type":"Feature","id":"label-MAR-1452","properties":{"kind":"division-label","code":"MAR-1452","countryCode":"MAR","name":"Meknès-Tafilalet","localName":"Meknès-Tafilalet","labelEnglish":"Meknès-Tafilalet","labelLocal":"Meknès-Tafilalet","labelBoth":"Meknès-Tafilalet","type":"Region","iso":"MA-06","qid":"Q497006"},"geometry":{"type":"Point","coordinates":[-4.78602,31.7916]}},{"type":"Feature","id":"MAR-1455","properties":{"kind":"division","code":"MAR-1455","countryCode":"MAR","name":"Suss-Massa-Draa","localName":"Suss-Massa-Draa","labelEnglish":"Suss-Massa-Draa","labelLocal":"Suss-Massa-Draa","labelBoth":"Suss-Massa-Draa","type":"Region","iso":"MA-13","qid":"Q264529"},"geometry":{"type":"Polygon","coordinates":[[[-4.7707,30.2291],[-5.2191,30.4979],[-5.361,30.8242],[-5.2138,31.4124],[-5.4541,31.6089],[-5.7356,31.6384],[-5.5719,31.8748],[-5.8059,31.9302],[-6.0563,31.7528],[-6.9837,31.3731],[-7.1865,31.4472],[-7.8251,31.1401],[-8.0338,30.9464],[-9.0485,30.8554],[-9.8236,30.96],[-9.8867,30.6867],[-9.6116,30.4044],[-9.8202,29.8389],[-10.3991,29.1612],[-10.0979,29.0789],[-9.7869,29.2803],[-8.6457,29.4423],[-8.6441,29.9633],[-8.1003,29.9813],[-7.6273,30.219],[-7.3247,30.1907],[-7.1772,30.3923],[-6.7156,30.487],[-6.5266,30.3524],[-6.5394,30.1055],[-6.3439,29.5721],[-6.0008,29.5791],[-5.5395,29.5232],[-5.1761,29.9775],[-4.7707,30.2291]]]}},{"type":"Feature","id":"label-MAR-1455","properties":{"kind":"division-label","code":"MAR-1455","countryCode":"MAR","name":"Suss-Massa-Draa","localName":"Suss-Massa-Draa","labelEnglish":"Suss-Massa-Draa","labelLocal":"Suss-Massa-Draa","labelBoth":"Suss-Massa-Draa","type":"Region","iso":"MA-13","qid":"Q264529"},"geometry":{"type":"Point","coordinates":[-7.71517,30.6732]}},{"type":"Feature","id":"MAR-1447","properties":{"kind":"division","code":"MAR-1447","countryCode":"MAR","name":"Taza-Al Hoceïma-Taounate","localName":"Taza-Al Hoceïma-Taounate","labelEnglish":"Taza-Al Hoceïma-Taounate","labelLocal":"Taza-Al Hoceïma-Taounate","labelBoth":"Taza-Al Hoceïma-Taounate","type":"Region","iso":"MA-03","qid":"Q818390"},"geometry":{"type":"Polygon","coordinates":[[[-4.4954,35.1808],[-4.5795,34.9634],[-5.1902,34.7164],[-5.4907,34.37],[-5.4205,34.2806],[-4.9739,34.2913],[-4.4766,33.9038],[-4.2057,33.9146],[-4.0724,33.5718],[-3.8508,33.516],[-3.4989,33.9075],[-3.1024,33.7851],[-3.2028,34.0253],[-3.0695,34.1457],[-3.1961,34.3637],[-2.9611,34.6105],[-3.2721,34.7733],[-3.5114,34.5935],[-3.8106,34.9309],[-3.8219,35.2068],[-3.9193,35.2668],[-4.4954,35.1808]]]}},{"type":"Feature","id":"label-MAR-1447","properties":{"kind":"division-label","code":"MAR-1447","countryCode":"MAR","name":"Taza-Al Hoceïma-Taounate","localName":"Taza-Al Hoceïma-Taounate","labelEnglish":"Taza-Al Hoceïma-Taounate","labelLocal":"Taza-Al Hoceïma-Taounate","labelBoth":"Taza-Al Hoceïma-Taounate","type":"Region","iso":"MA-03","qid":"Q818390"},"geometry":{"type":"Point","coordinates":[-4.21989,34.5526]}},{"type":"Feature","id":"MAR-1448","properties":{"kind":"division","code":"MAR-1448","countryCode":"MAR","name":"Gharb-Chrarda-Béni Hssen","localName":"Gharb-Chrarda-Béni Hssen","labelEnglish":"Gharb-Chrarda-Béni Hssen","labelLocal":"Gharb-Chrarda-Béni Hssen","labelBoth":"Gharb-Chrarda-Béni Hssen","type":"Region","iso":"MA-02","qid":"Q477968"},"geometry":{"type":"Polygon","coordinates":[[[-6.7226,34.1824],[-5.8851,34.1167],[-5.4687,34.1654],[-5.4205,34.2806],[-5.4907,34.37],[-5.1902,34.7164],[-5.7817,34.9307],[-6.2492,35.0014],[-6.7226,34.1824]]]}},{"type":"Feature","id":"label-MAR-1448","properties":{"kind":"division-label","code":"MAR-1448","countryCode":"MAR","name":"Gharb-Chrarda-Béni Hssen","localName":"Gharb-Chrarda-Béni Hssen","labelEnglish":"Gharb-Chrarda-Béni Hssen","labelLocal":"Gharb-Chrarda-Béni Hssen","labelBoth":"Gharb-Chrarda-Béni Hssen","type":"Region","iso":"MA-02","qid":"Q477968"},"geometry":{"type":"Point","coordinates":[-5.9502,34.5356]}},{"type":"Feature","id":"MAR-1451","properties":{"kind":"division","code":"MAR-1451","countryCode":"MAR","name":"Rabat-Salé-Zemmour-Zaër","localName":"Rabat-Salé-Zemmour-Zaër","labelEnglish":"Rabat-Salé-Zemmour-Zaër","labelLocal":"Rabat-Salé-Zemmour-Zaër","labelBoth":"Rabat-Salé-Zemmour-Zaër","type":"Region","iso":"MA-07","qid":"Q477961"},"geometry":{"type":"Polygon","coordinates":[[[-7.117,33.8349],[-6.7881,33.5525],[-6.8071,33.2828],[-6.4198,33.2383],[-6.3536,33.4683],[-5.8354,33.3277],[-5.7245,33.788],[-5.8851,34.1167],[-6.7226,34.1824],[-7.117,33.8349]]]}},{"type":"Feature","id":"label-MAR-1451","properties":{"kind":"division-label","code":"MAR-1451","countryCode":"MAR","name":"Rabat-Salé-Zemmour-Zaër","localName":"Rabat-Salé-Zemmour-Zaër","labelEnglish":"Rabat-Salé-Zemmour-Zaër","labelLocal":"Rabat-Salé-Zemmour-Zaër","labelBoth":"Rabat-Salé-Zemmour-Zaër","type":"Region","iso":"MA-07","qid":"Q477961"},"geometry":{"type":"Point","coordinates":[-6.42079,33.6986]}},{"type":"Feature","id":"MAR-1449","properties":{"kind":"division","code":"MAR-1449","countryCode":"MAR","name":"Chaouia-Ouardigha","localName":"Chaouia-Ouardigha","labelEnglish":"Chaouia-Ouardigha","labelLocal":"Chaouia-Ouardigha","labelBoth":"Chaouia-Ouardigha","type":"Region","iso":"MA-09","qid":"Q390331"},"geometry":{"type":"Polygon","coordinates":[[[-7.3411,33.7311],[-7.4263,33.4723],[-7.886,33.5091],[-8.0116,33.4664],[-8.1179,33.1678],[-7.9902,32.834],[-7.6458,32.5045],[-7.1267,32.3466],[-6.9791,32.6389],[-6.2921,32.7018],[-6.0417,32.7931],[-6.1327,33.0118],[-6.4198,33.2383],[-6.8071,33.2828],[-6.7881,33.5525],[-7.117,33.8349],[-7.3411,33.7311]]]}},{"type":"Feature","id":"label-MAR-1449","properties":{"kind":"division-label","code":"MAR-1449","countryCode":"MAR","name":"Chaouia-Ouardigha","localName":"Chaouia-Ouardigha","labelEnglish":"Chaouia-Ouardigha","labelLocal":"Chaouia-Ouardigha","labelBoth":"Chaouia-Ouardigha","type":"Region","iso":"MA-09","qid":"Q390331"},"geometry":{"type":"Point","coordinates":[-7.0775,33.0977]}},{"type":"Feature","id":"MAR-1450","properties":{"kind":"division","code":"MAR-1450","countryCode":"MAR","name":"Grand Casablanca","localName":"Grand Casablanca","labelEnglish":"Grand Casablanca","labelLocal":"Grand Casablanca","labelBoth":"Grand Casablanca","type":"Region","iso":"MA-08","qid":"Q478222"},"geometry":{"type":"Polygon","coordinates":[[[-7.886,33.5091],[-7.4263,33.4723],[-7.3411,33.7311],[-7.886,33.5091]]]}},{"type":"Feature","id":"label-MAR-1450","properties":{"kind":"division-label","code":"MAR-1450","countryCode":"MAR","name":"Grand Casablanca","localName":"Grand Casablanca","labelEnglish":"Grand Casablanca","labelLocal":"Grand Casablanca","labelBoth":"Grand Casablanca","type":"Region","iso":"MA-08","qid":"Q478222"},"geometry":{"type":"Point","coordinates":[-7.55595,33.545]}},{"type":"Feature","id":"MAR-1457","properties":{"kind":"division","code":"MAR-1457","countryCode":"MAR","name":"Doukkala Abda","localName":"Doukkala Abda","labelEnglish":"Doukkala Abda","labelLocal":"Doukkala Abda","labelBoth":"Doukkala Abda","type":"Region","iso":"MA-10","qid":"Q390366"},"geometry":{"type":"Polygon","coordinates":[[[-9.4588,31.9446],[-9.0556,31.9089],[-8.969,31.7983],[-8.4495,31.7736],[-8.275,32.0561],[-8.4505,32.335],[-8.0915,32.5826],[-7.9902,32.834],[-8.1179,33.1678],[-8.0116,33.4664],[-8.5292,33.2687],[-8.8678,32.8819],[-9.2599,32.5769],[-9.27,32.2275],[-9.4588,31.9446]]]}},{"type":"Feature","id":"label-MAR-1457","properties":{"kind":"division-label","code":"MAR-1457","countryCode":"MAR","name":"Doukkala Abda","localName":"Doukkala Abda","labelEnglish":"Doukkala Abda","labelLocal":"Doukkala Abda","labelBoth":"Doukkala Abda","type":"Region","iso":"MA-10","qid":"Q390366"},"geometry":{"type":"Point","coordinates":[-8.7136,32.4059]}},{"type":"Feature","id":"MAR-1456","properties":{"kind":"division","code":"MAR-1456","countryCode":"MAR","name":"Marrakesh-Tensift-El Haouz","localName":"Marrakesh-Tensift-El Haouz","labelEnglish":"Marrakesh-Tensift-El Haouz","labelLocal":"Marrakesh-Tensift-El Haouz","labelBoth":"Marrakesh-Tensift-El Haouz","type":"Region","iso":"MA-11","qid":"Q477940"},"geometry":{"type":"Polygon","coordinates":[[[-9.8236,30.96],[-9.0485,30.8554],[-8.0338,30.9464],[-7.8251,31.1401],[-7.1865,31.4472],[-7.2844,31.6969],[-7.0276,31.8819],[-7.1267,32.3466],[-7.6458,32.5045],[-7.9902,32.834],[-8.0915,32.5826],[-8.4505,32.335],[-8.275,32.0561],[-8.4495,31.7736],[-8.969,31.7983],[-9.0556,31.9089],[-9.4588,31.9446],[-9.8475,31.4024],[-9.8236,30.96]]]}},{"type":"Feature","id":"label-MAR-1456","properties":{"kind":"division-label","code":"MAR-1456","countryCode":"MAR","name":"Marrakesh-Tensift-El Haouz","localName":"Marrakesh-Tensift-El Haouz","labelEnglish":"Marrakesh-Tensift-El Haouz","labelLocal":"Marrakesh-Tensift-El Haouz","labelBoth":"Marrakesh-Tensift-El Haouz","type":"Region","iso":"MA-11","qid":"Q477940"},"geometry":{"type":"Point","coordinates":[-8.43749,31.3472]}},{"type":"Feature","id":"MAR-1446","properties":{"kind":"division","code":"MAR-1446","countryCode":"MAR","name":"Fès-méknas-boulmane","localName":"Fès-méknas-boulmane","labelEnglish":"Fès-méknas-boulmane","labelLocal":"Fès-méknas-boulmane","labelBoth":"Fès-méknas-boulmane","type":"Region","iso":"MA-05","qid":"Q648249"},"geometry":{"type":"Polygon","coordinates":[[[-3.1024,33.7851],[-3.4989,33.9075],[-3.8508,33.516],[-4.0724,33.5718],[-4.2057,33.9146],[-4.4766,33.9038],[-4.9739,34.2913],[-5.4205,34.2806],[-4.8979,33.5407],[-4.9941,33.4169],[-4.7194,32.9255],[-4.4935,32.8845],[-4.2793,32.6527],[-3.9992,32.6173],[-3.5982,33.0872],[-3.0338,33.1486],[-2.983,33.342],[-3.2144,33.5126],[-3.1024,33.7851]]]}},{"type":"Feature","id":"label-MAR-1446","properties":{"kind":"division-label","code":"MAR-1446","countryCode":"MAR","name":"Fès-méknas-boulmane","localName":"Fès-méknas-boulmane","labelEnglish":"Fès-méknas-boulmane","labelLocal":"Fès-méknas-boulmane","labelBoth":"Fès-méknas-boulmane","type":"Region","iso":"MA-05","qid":"Q648249"},"geometry":{"type":"Point","coordinates":[-4.17332,33.2343]}},{"type":"Feature","id":"MAR-1453","properties":{"kind":"division","code":"MAR-1453","countryCode":"MAR","name":"Tadla-Azilal","localName":"Tadla-Azilal","labelEnglish":"Tadla-Azilal","labelLocal":"Tadla-Azilal","labelBoth":"Tadla-Azilal","type":"Region","iso":"MA-12","qid":"Q477942"},"geometry":{"type":"Polygon","coordinates":[[[-6.0417,32.7931],[-6.2921,32.7018],[-6.9791,32.6389],[-7.1267,32.3466],[-7.0276,31.8819],[-7.2844,31.6969],[-7.1865,31.4472],[-6.9837,31.3731],[-6.0563,31.7528],[-5.8059,31.9302],[-5.8211,32.1021],[-5.4684,32.2621],[-5.4373,32.5079],[-6.0417,32.7931]]]}},{"type":"Feature","id":"label-MAR-1453","properties":{"kind":"division-label","code":"MAR-1453","countryCode":"MAR","name":"Tadla-Azilal","localName":"Tadla-Azilal","labelEnglish":"Tadla-Azilal","labelLocal":"Tadla-Azilal","labelBoth":"Tadla-Azilal","type":"Region","iso":"MA-12","qid":"Q477942"},"geometry":{"type":"Point","coordinates":[-6.36087,32.1648]}}]}