{"type":"FeatureCollection","features":[{"type":"Feature","id":"MCO+00?","properties":{"kind":"division","code":"MCO+00?","countryCode":"MCO","name":"Monaco","localName":"Monaco","labelEnglish":"Monaco","labelLocal":"Monaco","labelBoth":"Monaco","type":null,"iso":"MC-X01~","qid":"Q55115"},"geometry":{"type":"Polygon","coordinates":[[[7.4375,43.7434],[7.407,43.7635],[7.3658,43.7227],[7.4375,43.7434]]]}},{"type":"Feature","id":"label-MCO+00?","properties":{"kind":"division-label","code":"MCO+00?","countryCode":"MCO","name":"Monaco","localName":"Monaco","labelEnglish":"Monaco","labelLocal":"Monaco","labelBoth":"Monaco","type":null,"iso":"MC-X01~","qid":"Q55115"},"geometry":{"type":"Point","coordinates":[7.39979,43.7461]}}]}