{"type":"FeatureCollection","features":[{"type":"Feature","id":"MDA-1613","properties":{"kind":"division","code":"MDA-1613","countryCode":"MDA","name":"Briceni","localName":"Briceni","labelEnglish":"Briceni","labelLocal":"Briceni","labelBoth":"Briceni","type":"District","iso":"MD-BR","qid":"Q753795"},"geometry":{"type":"Polygon","coordinates":[[[26.6179,48.259],[27.048,48.1214],[27.3115,48.3029],[27.2519,48.3783],[26.8428,48.3937],[26.6179,48.259]]]}},{"type":"Feature","id":"label-MDA-1613","properties":{"kind":"division-label","code":"MDA-1613","countryCode":"MDA","name":"Briceni","localName":"Briceni","labelEnglish":"Briceni","labelLocal":"Briceni","labelBoth":"Briceni","type":"District","iso":"MD-BR","qid":"Q753795"},"geometry":{"type":"Point","coordinates":[26.9644,48.2646]}},{"type":"Feature","id":"MDA-1615","properties":{"kind":"division","code":"MDA-1615","countryCode":"MDA","name":"Edineț","localName":"Edineț","labelEnglish":"Edineț","labelLocal":"Edineț","labelBoth":"Edineț","type":"District","iso":"MD-ED","qid":"Q878290"},"geometry":{"type":"Polygon","coordinates":[[[27.048,48.1214],[27.1783,47.9421],[27.5462,48.1204],[27.5099,48.2373],[27.3115,48.3029],[27.048,48.1214]]]}},{"type":"Feature","id":"label-MDA-1615","properties":{"kind":"division-label","code":"MDA-1615","countryCode":"MDA","name":"Edineț","localName":"Edineț","labelEnglish":"Edineț","labelLocal":"Edineț","labelBoth":"Edineț","type":"District","iso":"MD-ED","qid":"Q878290"},"geometry":{"type":"Point","coordinates":[27.2978,48.1332]}},{"type":"Feature","id":"MDA-1617","properties":{"kind":"division","code":"MDA-1617","countryCode":"MDA","name":"Rîșcani","localName":"Rîșcani","labelEnglish":"Rîșcani","labelLocal":"Rîșcani","labelBoth":"Rîșcani","type":"District","iso":"MD-RI","qid":"Q611656"},"geometry":{"type":"Polygon","coordinates":[[[27.2881,47.7507],[27.4835,47.8645],[27.8484,47.7846],[27.9528,47.8162],[27.951,47.848],[27.6883,48.0546],[27.5462,48.1204],[27.1783,47.9421],[27.2881,47.7507]]]}},{"type":"Feature","id":"label-MDA-1617","properties":{"kind":"division-label","code":"MDA-1617","countryCode":"MDA","name":"Rîșcani","localName":"Rîșcani","labelEnglish":"Rîșcani","labelLocal":"Rîșcani","labelBoth":"Rîșcani","type":"District","iso":"MD-RI","qid":"Q611656"},"geometry":{"type":"Point","coordinates":[27.5565,47.9614]}},{"type":"Feature","id":"MDA-1621","properties":{"kind":"division","code":"MDA-1621","countryCode":"MDA","name":"Glodeni","localName":"Glodeni","labelEnglish":"Glodeni","labelLocal":"Glodeni","labelBoth":"Glodeni","type":"District","iso":"MD-GL","qid":"Q860716"},"geometry":{"type":"Polygon","coordinates":[[[27.4294,47.5781],[27.8601,47.7507],[27.8484,47.7846],[27.4835,47.8645],[27.2881,47.7507],[27.4294,47.5781]]]}},{"type":"Feature","id":"label-MDA-1621","properties":{"kind":"division-label","code":"MDA-1621","countryCode":"MDA","name":"Glodeni","localName":"Glodeni","labelEnglish":"Glodeni","labelLocal":"Glodeni","labelBoth":"Glodeni","type":"District","iso":"MD-GL","qid":"Q860716"},"geometry":{"type":"Point","coordinates":[27.5658,47.7495]}},{"type":"Feature","id":"MDA-1620","properties":{"kind":"division","code":"MDA-1620","countryCode":"MDA","name":"Fălești","localName":"Fălești","labelEnglish":"Fălești","labelLocal":"Fălești","labelBoth":"Fălești","type":"District","iso":"MD-FA","qid":"Q878375"},"geometry":{"type":"Polygon","coordinates":[[[27.4313,47.5726],[27.5887,47.3674],[27.9758,47.463],[27.9646,47.7362],[27.8601,47.7507],[27.4294,47.5781],[27.4313,47.5726]]]}},{"type":"Feature","id":"label-MDA-1620","properties":{"kind":"division-label","code":"MDA-1620","countryCode":"MDA","name":"Fălești","localName":"Fălești","labelEnglish":"Fălești","labelLocal":"Fălești","labelBoth":"Fălești","type":"District","iso":"MD-FA","qid":"Q878375"},"geometry":{"type":"Point","coordinates":[27.7231,47.57]}},{"type":"Feature","id":"MDA-1623","properties":{"kind":"division","code":"MDA-1623","countryCode":"MDA","name":"Ungheni","localName":"Ungheni","labelEnglish":"Ungheni","labelLocal":"Ungheni","labelBoth":"Ungheni","type":"District","iso":"MD-UN","qid":"Q854443"},"geometry":{"type":"Polygon","coordinates":[[[27.5887,47.3674],[28.0381,47.0155],[28.091,47.2509],[28.2258,47.4194],[28.1513,47.458],[27.9758,47.463],[27.5887,47.3674]]]}},{"type":"Feature","id":"label-MDA-1623","properties":{"kind":"division-label","code":"MDA-1623","countryCode":"MDA","name":"Ungheni","localName":"Ungheni","labelEnglish":"Ungheni","labelLocal":"Ungheni","labelBoth":"Ungheni","type":"District","iso":"MD-UN","qid":"Q854443"},"geometry":{"type":"Point","coordinates":[27.9072,47.2556]}},{"type":"Feature","id":"MDA-1642","properties":{"kind":"division","code":"MDA-1642","countryCode":"MDA","name":"Nisporeni","localName":"Nisporeni","labelEnglish":"Nisporeni","labelLocal":"Nisporeni","labelBoth":"Nisporeni","type":"District","iso":"MD-NI","qid":"Q878266"},"geometry":{"type":"Polygon","coordinates":[[[28.105,46.9202],[28.4868,47.0491],[28.5046,47.0637],[28.3269,47.1572],[28.091,47.2509],[28.0381,47.0155],[28.105,46.9202]]]}},{"type":"Feature","id":"label-MDA-1642","properties":{"kind":"division-label","code":"MDA-1642","countryCode":"MDA","name":"Nisporeni","localName":"Nisporeni","labelEnglish":"Nisporeni","labelLocal":"Nisporeni","labelBoth":"Nisporeni","type":"District","iso":"MD-NI","qid":"Q878266"},"geometry":{"type":"Point","coordinates":[28.2369,47.0476]}},{"type":"Feature","id":"MDA-1639","properties":{"kind":"division","code":"MDA-1639","countryCode":"MDA","name":"Hîncești","localName":"Hîncești","labelEnglish":"Hîncești","labelLocal":"Hîncești","labelBoth":"Hîncești","type":"District","iso":"MD-HI","qid":"Q878297"},"geometry":{"type":"Polygon","coordinates":[[[28.1226,46.8423],[28.2451,46.6315],[28.5837,46.6685],[28.7356,46.8233],[28.4868,47.0491],[28.105,46.9202],[28.1226,46.8423]]]}},{"type":"Feature","id":"label-MDA-1639","properties":{"kind":"division-label","code":"MDA-1639","countryCode":"MDA","name":"Hîncești","localName":"Hîncești","labelEnglish":"Hîncești","labelLocal":"Hîncești","labelBoth":"Hîncești","type":"District","iso":"MD-HI","qid":"Q878297"},"geometry":{"type":"Point","coordinates":[28.416,46.8298]}},{"type":"Feature","id":"MDA-1641","properties":{"kind":"division","code":"MDA-1641","countryCode":"MDA","name":"Leova","localName":"Leova","labelEnglish":"Leova","labelLocal":"Leova","labelBoth":"Leova","type":"District","iso":"MD-LE","qid":"Q1826662"},"geometry":{"type":"Polygon","coordinates":[[[28.2451,46.6315],[28.2268,46.3955],[28.4721,46.4264],[28.5856,46.5026],[28.5837,46.6685],[28.2451,46.6315]]]}},{"type":"Feature","id":"label-MDA-1641","properties":{"kind":"division-label","code":"MDA-1641","countryCode":"MDA","name":"Leova","localName":"Leova","labelEnglish":"Leova","labelLocal":"Leova","labelBoth":"Leova","type":"District","iso":"MD-LE","qid":"Q1826662"},"geometry":{"type":"Point","coordinates":[28.4105,46.5654]}},{"type":"Feature","id":"MDA-1631","properties":{"kind":"division","code":"MDA-1631","countryCode":"MDA","name":"Cantemir","localName":"Cantemir","labelEnglish":"Cantemir","labelLocal":"Cantemir","labelBoth":"Cantemir","type":"District","iso":"MD-CT","qid":"Q684183"},"geometry":{"type":"Polygon","coordinates":[[[28.1105,46.1015],[28.4406,46.0969],[28.4721,46.4264],[28.2268,46.3955],[28.1105,46.1015]]]}},{"type":"Feature","id":"label-MDA-1631","properties":{"kind":"division-label","code":"MDA-1631","countryCode":"MDA","name":"Cantemir","localName":"Cantemir","labelEnglish":"Cantemir","labelLocal":"Cantemir","labelBoth":"Cantemir","type":"District","iso":"MD-CT","qid":"Q684183"},"geometry":{"type":"Point","coordinates":[28.3107,46.262]}},{"type":"Feature","id":"MDA-1624","properties":{"kind":"division","code":"MDA-1624","countryCode":"MDA","name":"Cahul","localName":"Cahul","labelEnglish":"Cahul","labelLocal":"Cahul","labelBoth":"Cahul","type":"District","iso":"MD-CA","qid":"Q2128882"},"geometry":{"type":"Polygon","coordinates":[[[28.1078,46.0961],[28.1995,45.4618],[28.2704,45.5215],[28.5037,45.5661],[28.5635,45.7355],[28.5149,45.8027],[28.3917,45.8655],[28.4587,46.0879],[28.4406,46.0969],[28.1105,46.1015],[28.1078,46.0961]]]}},{"type":"Feature","id":"label-MDA-1624","properties":{"kind":"division-label","code":"MDA-1624","countryCode":"MDA","name":"Cahul","localName":"Cahul","labelEnglish":"Cahul","labelLocal":"Cahul","labelBoth":"Cahul","type":"District","iso":"MD-CA","qid":"Q2128882"},"geometry":{"type":"Point","coordinates":[28.3144,45.64]}},{"type":"Feature","id":"MDA-1616","properties":{"kind":"division","code":"MDA-1616","countryCode":"MDA","name":"Ocnița","localName":"Ocnița","labelEnglish":"Ocnița","labelLocal":"Ocnița","labelBoth":"Ocnița","type":"District","iso":"MD-OC","qid":"Q266444"},"geometry":{"type":"Polygon","coordinates":[[[27.8854,48.3784],[27.5038,48.4724],[27.2519,48.3783],[27.3115,48.3029],[27.5099,48.2373],[27.8854,48.3784]]]}},{"type":"Feature","id":"label-MDA-1616","properties":{"kind":"division-label","code":"MDA-1616","countryCode":"MDA","name":"Ocnița","localName":"Ocnița","labelEnglish":"Ocnița","labelLocal":"Ocnița","labelBoth":"Ocnița","type":"District","iso":"MD-OC","qid":"Q266444"},"geometry":{"type":"Point","coordinates":[27.5685,48.4024]}},{"type":"Feature","id":"MDA-1614","properties":{"kind":"division","code":"MDA-1614","countryCode":"MDA","name":"Dondușeni","localName":"Dondușeni","labelEnglish":"Dondușeni","labelLocal":"Dondușeni","labelBoth":"Dondușeni","type":"District","iso":"MD-DO","qid":"Q1061128"},"geometry":{"type":"Polygon","coordinates":[[[27.8854,48.3784],[27.5099,48.2373],[27.5462,48.1204],[27.6883,48.0546],[27.952,48.1955],[28.0032,48.3259],[27.8854,48.3784]]]}},{"type":"Feature","id":"label-MDA-1614","properties":{"kind":"division-label","code":"MDA-1614","countryCode":"MDA","name":"Dondușeni","localName":"Dondușeni","labelEnglish":"Dondușeni","labelLocal":"Dondușeni","labelBoth":"Dondușeni","type":"District","iso":"MD-DO","qid":"Q1061128"},"geometry":{"type":"Point","coordinates":[27.7632,48.2339]}},{"type":"Feature","id":"MDA-1653","properties":{"kind":"division","code":"MDA-1653","countryCode":"MDA","name":"Soroca","localName":"Soroca","labelEnglish":"Soroca","labelLocal":"Soroca","labelBoth":"Soroca","type":"District","iso":"MD-SO","qid":"Q2129022"},"geometry":{"type":"Polygon","coordinates":[[[28.0032,48.3259],[27.952,48.1955],[28.0689,47.9851],[28.4666,47.9972],[28.4998,48.1089],[28.0032,48.3259]]]}},{"type":"Feature","id":"label-MDA-1653","properties":{"kind":"division-label","code":"MDA-1653","countryCode":"MDA","name":"Soroca","localName":"Soroca","labelEnglish":"Soroca","labelLocal":"Soroca","labelBoth":"Soroca","type":"District","iso":"MD-SO","qid":"Q2129022"},"geometry":{"type":"Point","coordinates":[28.2477,48.1034]}},{"type":"Feature","id":"MDA-1652","properties":{"kind":"division","code":"MDA-1652","countryCode":"MDA","name":"Camenca","localName":"Camenca","labelEnglish":"Camenca","labelLocal":"Camenca","labelBoth":"Camenca","type":"District","iso":"MD-CAM","qid":null},"geometry":{"type":"Polygon","coordinates":[[[28.8621,48.0005],[28.4998,48.1089],[28.4666,47.9972],[28.478,47.8886],[28.9421,47.8832],[28.9361,47.9422],[28.8621,48.0005]]]}},{"type":"Feature","id":"label-MDA-1652","properties":{"kind":"division-label","code":"MDA-1652","countryCode":"MDA","name":"Camenca","localName":"Camenca","labelEnglish":"Camenca","labelLocal":"Camenca","labelBoth":"Camenca","type":"District","iso":"MD-CAM","qid":null},"geometry":{"type":"Point","coordinates":[28.7044,48.0369]}},{"type":"Feature","id":"MDA-1645","properties":{"kind":"division","code":"MDA-1645","countryCode":"MDA","name":"Rezina","localName":"Rezina","labelEnglish":"Rezina","labelLocal":"Rezina","labelBoth":"Rezina","type":"District","iso":"MD-RE","qid":null},"geometry":{"type":"Polygon","coordinates":[[[28.9361,47.9422],[28.9421,47.8832],[29.0267,47.5295],[29.108,47.4694],[29.1372,47.484],[29.236,47.8707],[28.9361,47.9422]]]}},{"type":"Feature","id":"label-MDA-1645","properties":{"kind":"division-label","code":"MDA-1645","countryCode":"MDA","name":"Rezina","localName":"Rezina","labelEnglish":"Rezina","labelLocal":"Rezina","labelBoth":"Rezina","type":"District","iso":"MD-RE","qid":null},"geometry":{"type":"Point","coordinates":[29.084,47.7344]}},{"type":"Feature","id":"MDA-1628","properties":{"kind":"division","code":"MDA-1628","countryCode":"MDA","name":"Transnistria","localName":"Transnistria","labelEnglish":"Transnistria","labelLocal":"Transnistria","labelBoth":"Transnistria","type":"District","iso":"MD-SN","qid":null},"geometry":{"type":"Polygon","coordinates":[[[29.1372,47.484],[29.108,47.4694],[29.0217,47.3331],[29.151,47.2448],[29.1252,47.2742],[29.1745,47.2903],[29.1633,47.2308],[29.2922,47.1358],[29.3709,47.3044],[29.1372,47.484]]]}},{"type":"Feature","id":"label-MDA-1628","properties":{"kind":"division-label","code":"MDA-1628","countryCode":"MDA","name":"Transnistria","localName":"Transnistria","labelEnglish":"Transnistria","labelLocal":"Transnistria","labelBoth":"Transnistria","type":"District","iso":"MD-SN","qid":null},"geometry":{"type":"Point","coordinates":[29.1763,47.1532]}},{"type":"Feature","id":"MDA-1637","properties":{"kind":"division","code":"MDA-1637","countryCode":"MDA","name":"Grigoriopol","localName":"Grigoriopol","labelEnglish":"Grigoriopol","labelLocal":"Grigoriopol","labelBoth":"Grigoriopol","type":"Territorial Unit","iso":"MD-GRI","qid":null},"geometry":{"type":"Polygon","coordinates":[[[29.3709,47.3044],[29.2922,47.1358],[29.4617,46.951],[29.5606,46.9613],[29.5566,47.324],[29.3709,47.3044]]]}},{"type":"Feature","id":"label-MDA-1637","properties":{"kind":"division-label","code":"MDA-1637","countryCode":"MDA","name":"Grigoriopol","localName":"Grigoriopol","labelEnglish":"Grigoriopol","labelLocal":"Grigoriopol","labelBoth":"Grigoriopol","type":"Territorial Unit","iso":"MD-GRI","qid":null},"geometry":{"type":"Point","coordinates":[29.4396,47.1194]}},{"type":"Feature","id":"MDA-1650","properties":{"kind":"division","code":"MDA-1650","countryCode":"MDA","name":"Bender","localName":"Bender","labelEnglish":"Bender","labelLocal":"Bender","labelBoth":"Bender","type":"City","iso":"MD-BD","qid":"Q192176"},"geometry":{"type":"Polygon","coordinates":[[[29.5606,46.9613],[29.4617,46.951],[29.4504,46.8242],[29.5701,46.7238],[29.8988,46.5531],[29.9282,46.8098],[29.5606,46.9613]]]}},{"type":"Feature","id":"label-MDA-1650","properties":{"kind":"division-label","code":"MDA-1650","countryCode":"MDA","name":"Bender","localName":"Bender","labelEnglish":"Bender","labelLocal":"Bender","labelBoth":"Bender","type":"City","iso":"MD-BD","qid":"Q192176"},"geometry":{"type":"Point","coordinates":[29.6966,46.7897]}},{"type":"Feature","id":"MDA-1651","properties":{"kind":"division","code":"MDA-1651","countryCode":"MDA","name":"Ștefan Vodă","localName":"Ștefan Vodă","labelEnglish":"Ștefan Vodă","labelLocal":"Ștefan Vodă","labelBoth":"Ștefan Vodă","type":"District","iso":"MD-SV","qid":"Q2129061"},"geometry":{"type":"Polygon","coordinates":[[[29.8988,46.5531],[29.5701,46.7238],[29.4567,46.4844],[30.0811,46.3742],[29.8988,46.5531]]]}},{"type":"Feature","id":"label-MDA-1651","properties":{"kind":"division-label","code":"MDA-1651","countryCode":"MDA","name":"Ștefan Vodă","localName":"Ștefan Vodă","labelEnglish":"Ștefan Vodă","labelLocal":"Ștefan Vodă","labelBoth":"Ștefan Vodă","type":"District","iso":"MD-SV","qid":"Q2129061"},"geometry":{"type":"Point","coordinates":[29.7739,46.5031]}},{"type":"Feature","id":"MDA-1649","properties":{"kind":"division","code":"MDA-1649","countryCode":"MDA","name":"Căușeni","localName":"Căușeni","labelEnglish":"Căușeni","labelLocal":"Căușeni","labelBoth":"Căușeni","type":"District","iso":"MD-CS","qid":"Q2128869"},"geometry":{"type":"Polygon","coordinates":[[[29.1831,46.538],[29.4567,46.4844],[29.5701,46.7238],[29.4504,46.8242],[29.088,46.852],[28.9712,46.8036],[29.1831,46.538]]]}},{"type":"Feature","id":"label-MDA-1649","properties":{"kind":"division-label","code":"MDA-1649","countryCode":"MDA","name":"Căușeni","localName":"Căușeni","labelEnglish":"Căușeni","labelLocal":"Căușeni","labelBoth":"Căușeni","type":"District","iso":"MD-CS","qid":"Q2128869"},"geometry":{"type":"Point","coordinates":[29.3728,46.6185]}},{"type":"Feature","id":"MDA-1633","properties":{"kind":"division","code":"MDA-1633","countryCode":"MDA","name":"Cimișlia","localName":"Cimișlia","labelEnglish":"Cimișlia","labelLocal":"Cimișlia","labelBoth":"Cimișlia","type":"District","iso":"MD-CM","qid":"Q286646"},"geometry":{"type":"Polygon","coordinates":[[[29.1831,46.538],[28.9712,46.8036],[28.7356,46.8233],[28.5837,46.6685],[28.5856,46.5026],[28.7634,46.4174],[29.0559,46.4987],[29.1831,46.538]]]}},{"type":"Feature","id":"label-MDA-1633","properties":{"kind":"division-label","code":"MDA-1633","countryCode":"MDA","name":"Cimișlia","localName":"Cimișlia","labelEnglish":"Cimișlia","labelLocal":"Cimișlia","labelBoth":"Cimișlia","type":"District","iso":"MD-CM","qid":"Q286646"},"geometry":{"type":"Point","coordinates":[28.7794,46.5885]}},{"type":"Feature","id":"MDA-1630","properties":{"kind":"division","code":"MDA-1630","countryCode":"MDA","name":"Basarabeasca","localName":"Basarabeasca","labelEnglish":"Basarabeasca","labelLocal":"Basarabeasca","labelBoth":"Basarabeasca","type":"District","iso":"MD-BS","qid":"Q1980044"},"geometry":{"type":"Polygon","coordinates":[[[29.0559,46.4987],[28.7634,46.4174],[28.9162,46.1666],[28.9841,46.2212],[29.0559,46.4987]]]}},{"type":"Feature","id":"label-MDA-1630","properties":{"kind":"division-label","code":"MDA-1630","countryCode":"MDA","name":"Basarabeasca","localName":"Basarabeasca","labelEnglish":"Basarabeasca","labelLocal":"Basarabeasca","labelBoth":"Basarabeasca","type":"District","iso":"MD-BS","qid":"Q1980044"},"geometry":{"type":"Point","coordinates":[28.8846,46.3726]}},{"type":"Feature","id":"MDA-1625","properties":{"kind":"division","code":"MDA-1625","countryCode":"MDA","name":"Taraclia","localName":"Taraclia","labelEnglish":"Taraclia","labelLocal":"Taraclia","labelBoth":"Taraclia","type":"District","iso":"MD-TA","qid":"Q865884"},"geometry":{"type":"Polygon","coordinates":[[[28.9841,46.2212],[28.9162,46.1666],[28.6222,45.9667],[28.4587,46.0879],[28.3917,45.8655],[28.5149,45.8027],[28.5635,45.7355],[28.9569,46.0014],[28.9841,46.2212]]]}},{"type":"Feature","id":"label-MDA-1625","properties":{"kind":"division-label","code":"MDA-1625","countryCode":"MDA","name":"Taraclia","localName":"Taraclia","labelEnglish":"Taraclia","labelLocal":"Taraclia","labelBoth":"Taraclia","type":"District","iso":"MD-TA","qid":"Q865884"},"geometry":{"type":"Point","coordinates":[28.7033,45.8995]}},{"type":"Feature","id":"MDA-1626","properties":{"kind":"division","code":"MDA-1626","countryCode":"MDA","name":"Comrat","localName":"Comrat","labelEnglish":"Comrat","labelLocal":"Comrat","labelBoth":"Comrat","type":"Autonomous Territory","iso":"MD-GA","qid":null},"geometry":{"type":"Polygon","coordinates":[[[28.5856,46.5026],[28.4721,46.4264],[28.4406,46.0969],[28.4587,46.0879],[28.6222,45.9667],[28.9162,46.1666],[28.7634,46.4174],[28.5856,46.5026]]]}},{"type":"Feature","id":"label-MDA-1626","properties":{"kind":"division-label","code":"MDA-1626","countryCode":"MDA","name":"Comrat","localName":"Comrat","labelEnglish":"Comrat","labelLocal":"Comrat","labelBoth":"Comrat","type":"Autonomous Territory","iso":"MD-GA","qid":null},"geometry":{"type":"Point","coordinates":[28.6386,46.191]}},{"type":"Feature","id":"MDA-1634","properties":{"kind":"division","code":"MDA-1634","countryCode":"MDA","name":"Criuleni","localName":"Criuleni","labelEnglish":"Criuleni","labelLocal":"Criuleni","labelBoth":"Criuleni","type":"District","iso":"MD-CR","qid":"Q2128862"},"geometry":{"type":"Polygon","coordinates":[[[28.8425,47.0953],[28.9744,47.0104],[29.2922,47.1358],[29.1633,47.2308],[29.151,47.2448],[29.0217,47.3331],[28.7899,47.2025],[28.8425,47.0953]]]}},{"type":"Feature","id":"label-MDA-1634","properties":{"kind":"division-label","code":"MDA-1634","countryCode":"MDA","name":"Criuleni","localName":"Criuleni","labelEnglish":"Criuleni","labelLocal":"Criuleni","labelBoth":"Criuleni","type":"District","iso":"MD-CR","qid":"Q2128862"},"geometry":{"type":"Point","coordinates":[29.0355,47.1782]}},{"type":"Feature","id":"MDA-1647","properties":{"kind":"division","code":"MDA-1647","countryCode":"MDA","name":"Strășeni","localName":"Strășeni","labelEnglish":"Strășeni","labelLocal":"Strășeni","labelBoth":"Strășeni","type":"District","iso":"MD-ST","qid":"Q878308"},"geometry":{"type":"Polygon","coordinates":[[[28.7899,47.2025],[28.5796,47.3319],[28.3269,47.1572],[28.5046,47.0637],[28.7718,47.0532],[28.8425,47.0953],[28.7899,47.2025]]]}},{"type":"Feature","id":"label-MDA-1647","properties":{"kind":"division-label","code":"MDA-1647","countryCode":"MDA","name":"Strășeni","localName":"Strășeni","labelEnglish":"Strășeni","labelLocal":"Strășeni","labelBoth":"Strășeni","type":"District","iso":"MD-ST","qid":"Q878308"},"geometry":{"type":"Point","coordinates":[28.5847,47.1828]}},{"type":"Feature","id":"MDA-1629","properties":{"kind":"division","code":"MDA-1629","countryCode":"MDA","name":"Anenii Noi","localName":"Anenii Noi","labelEnglish":"Anenii Noi","labelLocal":"Anenii Noi","labelBoth":"Anenii Noi","type":"District","iso":"MD-AN","qid":"Q769224"},"geometry":{"type":"Polygon","coordinates":[[[29.2922,47.1358],[28.9744,47.0104],[28.9081,46.9611],[29.088,46.852],[29.4504,46.8242],[29.4617,46.951],[29.2922,47.1358]]]}},{"type":"Feature","id":"label-MDA-1629","properties":{"kind":"division-label","code":"MDA-1629","countryCode":"MDA","name":"Anenii Noi","localName":"Anenii Noi","labelEnglish":"Anenii Noi","labelLocal":"Anenii Noi","labelBoth":"Anenii Noi","type":"District","iso":"MD-AN","qid":"Q769224"},"geometry":{"type":"Point","coordinates":[29.1922,46.8817]}},{"type":"Feature","id":"MDA-1643","properties":{"kind":"division","code":"MDA-1643","countryCode":"MDA","name":"Orhei","localName":"Orhei","labelEnglish":"Orhei","labelLocal":"Orhei","labelBoth":"Orhei","type":"District","iso":"MD-OR","qid":"Q2112462"},"geometry":{"type":"Polygon","coordinates":[[[29.0217,47.3331],[29.108,47.4694],[29.0267,47.5295],[28.7093,47.5546],[28.5207,47.4176],[28.5796,47.3319],[28.7899,47.2025],[29.0217,47.3331]]]}},{"type":"Feature","id":"label-MDA-1643","properties":{"kind":"division-label","code":"MDA-1643","countryCode":"MDA","name":"Orhei","localName":"Orhei","labelEnglish":"Orhei","labelLocal":"Orhei","labelBoth":"Orhei","type":"District","iso":"MD-OR","qid":"Q2112462"},"geometry":{"type":"Point","coordinates":[28.8156,47.3961]}},{"type":"Feature","id":"MDA-1638","properties":{"kind":"division","code":"MDA-1638","countryCode":"MDA","name":"Transnistria","localName":"Transnistria","labelEnglish":"Transnistria","labelLocal":"Transnistria","labelBoth":"Transnistria","type":"District","iso":"MD-SN","qid":null},"geometry":{"type":"Polygon","coordinates":[[[29.1633,47.2308],[29.1745,47.2903],[29.1252,47.2742],[29.151,47.2448],[29.1633,47.2308]]]}},{"type":"Feature","id":"label-MDA-1638","properties":{"kind":"division-label","code":"MDA-1638","countryCode":"MDA","name":"Transnistria","localName":"Transnistria","labelEnglish":"Transnistria","labelLocal":"Transnistria","labelBoth":"Transnistria","type":"District","iso":"MD-SN","qid":null},"geometry":{"type":"Point","coordinates":[29.1574,47.2616]}},{"type":"Feature","id":"MDA-1627","properties":{"kind":"division","code":"MDA-1627","countryCode":"MDA","name":"Chișinău","localName":"Chișinău","labelEnglish":"Chișinău","labelLocal":"Chișinău","labelBoth":"Chișinău","type":"City","iso":"MD-CU","qid":"Q21197"},"geometry":{"type":"Polygon","coordinates":[[[28.8425,47.0953],[28.7718,47.0532],[28.9081,46.9611],[28.9744,47.0104],[28.8425,47.0953]]]}},{"type":"Feature","id":"label-MDA-1627","properties":{"kind":"division-label","code":"MDA-1627","countryCode":"MDA","name":"Chișinău","localName":"Chișinău","labelEnglish":"Chișinău","labelLocal":"Chișinău","labelBoth":"Chișinău","type":"City","iso":"MD-CU","qid":"Q21197"},"geometry":{"type":"Point","coordinates":[28.822,47.0348]}},{"type":"Feature","id":"MDA-1648","properties":{"kind":"division","code":"MDA-1648","countryCode":"MDA","name":"Telenești","localName":"Telenești","labelEnglish":"Telenești","labelLocal":"Telenești","labelBoth":"Telenești","type":"District","iso":"MD-TE","qid":"Q2129025"},"geometry":{"type":"Polygon","coordinates":[[[28.5341,47.7556],[28.4053,47.6879],[28.1513,47.458],[28.2258,47.4194],[28.5207,47.4176],[28.7093,47.5546],[28.637,47.717],[28.5341,47.7556]]]}},{"type":"Feature","id":"label-MDA-1648","properties":{"kind":"division-label","code":"MDA-1648","countryCode":"MDA","name":"Telenești","localName":"Telenești","labelEnglish":"Telenești","labelLocal":"Telenești","labelBoth":"Telenești","type":"District","iso":"MD-TE","qid":"Q2129025"},"geometry":{"type":"Point","coordinates":[28.4349,47.566]}},{"type":"Feature","id":"MDA-1646","properties":{"kind":"division","code":"MDA-1646","countryCode":"MDA","name":"Șoldănești","localName":"Șoldănești","labelEnglish":"Șoldănești","labelLocal":"Șoldănești","labelBoth":"Șoldănești","type":"District","iso":"MD-SD","qid":"Q865639"},"geometry":{"type":"Polygon","coordinates":[[[28.637,47.717],[28.9421,47.8832],[28.478,47.8886],[28.5341,47.7556],[28.637,47.717]]]}},{"type":"Feature","id":"label-MDA-1646","properties":{"kind":"division-label","code":"MDA-1646","countryCode":"MDA","name":"Șoldănești","localName":"Șoldănești","labelEnglish":"Șoldănești","labelLocal":"Șoldănești","labelBoth":"Șoldănești","type":"District","iso":"MD-SD","qid":"Q865639"},"geometry":{"type":"Point","coordinates":[28.6952,47.8423]}},{"type":"Feature","id":"MDA-1635","properties":{"kind":"division","code":"MDA-1635","countryCode":"MDA","name":"Florești","localName":"Florești","labelEnglish":"Florești","labelLocal":"Florești","labelBoth":"Florești","type":"District","iso":"MD-FL","qid":"Q865726"},"geometry":{"type":"Polygon","coordinates":[[[28.478,47.8886],[28.4666,47.9972],[28.0689,47.9851],[28.0684,47.9011],[28.4053,47.6879],[28.5341,47.7556],[28.478,47.8886]]]}},{"type":"Feature","id":"label-MDA-1635","properties":{"kind":"division-label","code":"MDA-1635","countryCode":"MDA","name":"Florești","localName":"Florești","labelEnglish":"Florești","labelLocal":"Florești","labelBoth":"Florești","type":"District","iso":"MD-FL","qid":"Q865726"},"geometry":{"type":"Point","coordinates":[28.2994,47.8707]}},{"type":"Feature","id":"MDA-1644","properties":{"kind":"division","code":"MDA-1644","countryCode":"MDA","name":"Rezina","localName":"Rezina","labelEnglish":"Rezina","labelLocal":"Rezina","labelBoth":"Rezina","type":"District","iso":"MD-RE","qid":"Q878317"},"geometry":{"type":"Polygon","coordinates":[[[28.7093,47.5546],[29.0267,47.5295],[28.9421,47.8832],[28.637,47.717],[28.7093,47.5546]]]}},{"type":"Feature","id":"label-MDA-1644","properties":{"kind":"division-label","code":"MDA-1644","countryCode":"MDA","name":"Rezina","localName":"Rezina","labelEnglish":"Rezina","labelLocal":"Rezina","labelBoth":"Rezina","type":"District","iso":"MD-RE","qid":"Q878317"},"geometry":{"type":"Point","coordinates":[28.819,47.6683]}},{"type":"Feature","id":"MDA-1640","properties":{"kind":"division","code":"MDA-1640","countryCode":"MDA","name":"Ialoveni","localName":"Ialoveni","labelEnglish":"Ialoveni","labelLocal":"Ialoveni","labelBoth":"Ialoveni","type":"District","iso":"MD-IA","qid":"Q2128964"},"geometry":{"type":"Polygon","coordinates":[[[28.4868,47.0491],[28.7356,46.8233],[28.9712,46.8036],[29.088,46.852],[28.9081,46.9611],[28.7718,47.0532],[28.5046,47.0637],[28.4868,47.0491]]]}},{"type":"Feature","id":"label-MDA-1640","properties":{"kind":"division-label","code":"MDA-1640","countryCode":"MDA","name":"Ialoveni","localName":"Ialoveni","labelEnglish":"Ialoveni","labelLocal":"Ialoveni","labelBoth":"Ialoveni","type":"District","iso":"MD-IA","qid":"Q2128964"},"geometry":{"type":"Point","coordinates":[28.7874,46.8905]}},{"type":"Feature","id":"MDA-1632","properties":{"kind":"division","code":"MDA-1632","countryCode":"MDA","name":"Călărași","localName":"Călărași","labelEnglish":"Călărași","labelLocal":"Călărași","labelBoth":"Călărași","type":"District","iso":"MD-CL","qid":"Q188948"},"geometry":{"type":"Polygon","coordinates":[[[28.5796,47.3319],[28.5207,47.4176],[28.2258,47.4194],[28.091,47.2509],[28.3269,47.1572],[28.5796,47.3319]]]}},{"type":"Feature","id":"label-MDA-1632","properties":{"kind":"division-label","code":"MDA-1632","countryCode":"MDA","name":"Călărași","localName":"Călărași","labelEnglish":"Călărași","labelLocal":"Călărași","labelBoth":"Călărași","type":"District","iso":"MD-CL","qid":"Q188948"},"geometry":{"type":"Point","coordinates":[28.3373,47.2892]}},{"type":"Feature","id":"MDA-1619","properties":{"kind":"division","code":"MDA-1619","countryCode":"MDA","name":"Drochia","localName":"Drochia","labelEnglish":"Drochia","labelLocal":"Drochia","labelBoth":"Drochia","type":"District","iso":"MD-DR","qid":"Q865594"},"geometry":{"type":"Polygon","coordinates":[[[28.0684,47.9011],[28.0689,47.9851],[27.952,48.1955],[27.6883,48.0546],[27.951,47.848],[28.0684,47.9011]]]}},{"type":"Feature","id":"label-MDA-1619","properties":{"kind":"division-label","code":"MDA-1619","countryCode":"MDA","name":"Drochia","localName":"Drochia","labelEnglish":"Drochia","labelLocal":"Drochia","labelBoth":"Drochia","type":"District","iso":"MD-DR","qid":"Q865594"},"geometry":{"type":"Point","coordinates":[27.8915,48.0267]}},{"type":"Feature","id":"MDA-1622","properties":{"kind":"division","code":"MDA-1622","countryCode":"MDA","name":"Sîngerei","localName":"Sîngerei","labelEnglish":"Sîngerei","labelLocal":"Sîngerei","labelBoth":"Sîngerei","type":"District","iso":"MD-SI","qid":"Q1796621"},"geometry":{"type":"Polygon","coordinates":[[[27.951,47.848],[27.9528,47.8162],[27.9646,47.7362],[27.9758,47.463],[28.1513,47.458],[28.4053,47.6879],[28.0684,47.9011],[27.951,47.848]]]}},{"type":"Feature","id":"label-MDA-1622","properties":{"kind":"division-label","code":"MDA-1622","countryCode":"MDA","name":"Sîngerei","localName":"Sîngerei","labelEnglish":"Sîngerei","labelLocal":"Sîngerei","labelBoth":"Sîngerei","type":"District","iso":"MD-SI","qid":"Q1796621"},"geometry":{"type":"Point","coordinates":[28.1728,47.6929]}},{"type":"Feature","id":"MDA-1618","properties":{"kind":"division","code":"MDA-1618","countryCode":"MDA","name":"Bălți","localName":"Bălți","labelEnglish":"Bălți","labelLocal":"Bălți","labelBoth":"Bălți","type":"City","iso":"MD-BA","qid":"Q37801"},"geometry":{"type":"Polygon","coordinates":[[[27.9528,47.8162],[27.8484,47.7846],[27.8601,47.7507],[27.9646,47.7362],[27.9528,47.8162]]]}},{"type":"Feature","id":"label-MDA-1618","properties":{"kind":"division-label","code":"MDA-1618","countryCode":"MDA","name":"Bălți","localName":"Bălți","labelEnglish":"Bălți","labelLocal":"Bălți","labelBoth":"Bălți","type":"City","iso":"MD-BA","qid":"Q37801"},"geometry":{"type":"Point","coordinates":[27.9516,47.7763]}}]}