{"type":"FeatureCollection","features":[{"type":"Feature","id":"MDG-5870","properties":{"kind":"division","code":"MDG-5870","countryCode":"MDG","name":"Boeny","localName":"Boeny","labelEnglish":"Boeny","labelLocal":"Boeny","labelBoth":"Boeny","type":"Autonomous Province","iso":"MG-M","qid":null},"geometry":{"type":"Polygon","coordinates":[[[44.8778,-16.2092],[45.0213,-16.5249],[45.4973,-16.9759],[46.0109,-16.9885],[46.2364,-17.239],[46.5872,-16.9509],[46.7045,-16.6094],[47.3514,-16.6252],[47.1885,-16.4623],[47.3389,-16.2994],[47.1885,-16.0113],[47.1476,-15.4465],[46.9714,-15.1984],[46.219,-15.7067],[45.6939,-15.7831],[45.6116,-15.9809],[45.2664,-15.9239],[44.8778,-16.2092]]]}},{"type":"Feature","id":"label-MDG-5870","properties":{"kind":"division-label","code":"MDG-5870","countryCode":"MDG","name":"Boeny","localName":"Boeny","labelEnglish":"Boeny","labelLocal":"Boeny","labelBoth":"Boeny","type":"Autonomous Province","iso":"MG-M","qid":null},"geometry":{"type":"Point","coordinates":[46.3149,-16.3187]}},{"type":"Feature","id":"MDG-5880","properties":{"kind":"division","code":"MDG-5880","countryCode":"MDG","name":"Sofia","localName":"Sofia","labelEnglish":"Sofia","labelLocal":"Sofia","labelBoth":"Sofia","type":"Autonomous Province","iso":"MG-M","qid":null},"geometry":{"type":"Polygon","coordinates":[[[47.1476,-15.4465],[47.1885,-16.0113],[47.3389,-16.2994],[47.9168,-16.5149],[47.9809,-16.2517],[48.2989,-16.2458],[48.5769,-16.4172],[48.6824,-16.7566],[48.9168,-16.6787],[49.2074,-16.1854],[49.0138,-16.1232],[49.106,-15.8854],[49.0248,-15.3504],[49.3606,-15.2419],[49.5859,-14.9411],[49.3939,-14.4933],[49.0969,-14.1955],[48.8269,-14.2454],[48.1792,-13.9895],[48.0311,-14.0636],[47.7095,-14.3696],[47.7529,-14.6005],[47.4824,-15.0803],[47.4588,-14.6616],[47.0579,-15.2162],[47.1476,-15.4465]]]}},{"type":"Feature","id":"label-MDG-5880","properties":{"kind":"division-label","code":"MDG-5880","countryCode":"MDG","name":"Sofia","localName":"Sofia","labelEnglish":"Sofia","labelLocal":"Sofia","labelBoth":"Sofia","type":"Autonomous Province","iso":"MG-M","qid":null},"geometry":{"type":"Point","coordinates":[48.4645,-15.2909]}},{"type":"Feature","id":"MDG-5872","properties":{"kind":"division","code":"MDG-5872","countryCode":"MDG","name":"Diana","localName":"Diana","labelEnglish":"Diana","labelLocal":"Diana","labelBoth":"Diana","type":"Autonomous Province","iso":"MG-D","qid":null},"geometry":{"type":"Polygon","coordinates":[[[48.0311,-14.0636],[48.1792,-13.9895],[48.8269,-14.2454],[49.0969,-14.1955],[49.3307,-13.9192],[49.4685,-12.9546],[49.6355,-12.6746],[49.26,-11.9436],[49.2015,-12.1467],[48.887,-12.5646],[48.9553,-12.8117],[48.7474,-13.4116],[48.4276,-13.5242],[48.3274,-13.78],[47.9656,-13.5208],[47.8758,-13.7843],[48.0311,-14.0636]]]}},{"type":"Feature","id":"label-MDG-5872","properties":{"kind":"division-label","code":"MDG-5872","countryCode":"MDG","name":"Diana","localName":"Diana","labelEnglish":"Diana","labelLocal":"Diana","labelBoth":"Diana","type":"Autonomous Province","iso":"MG-D","qid":null},"geometry":{"type":"Point","coordinates":[49.08,-13.5916]}},{"type":"Feature","id":"MDG-5879","properties":{"kind":"division","code":"MDG-5879","countryCode":"MDG","name":"Sava","localName":"Sava","labelEnglish":"Sava","labelLocal":"Sava","labelBoth":"Sava","type":"Autonomous Province","iso":"MG-D","qid":null},"geometry":{"type":"Polygon","coordinates":[[[49.6355,-12.6746],[49.4685,-12.9546],[49.3307,-13.9192],[49.0969,-14.1955],[49.3939,-14.4933],[49.5859,-14.9411],[49.9312,-15.0381],[50.1309,-15.9194],[50.2302,-15.971],[50.4834,-15.4435],[50.4766,-15.1951],[50.2323,-14.7382],[50.1429,-13.7831],[49.9727,-13.3313],[49.9421,-13.0339],[49.6355,-12.6746]]]}},{"type":"Feature","id":"label-MDG-5879","properties":{"kind":"division-label","code":"MDG-5879","countryCode":"MDG","name":"Sava","localName":"Sava","labelEnglish":"Sava","labelLocal":"Sava","labelBoth":"Sava","type":"Autonomous Province","iso":"MG-D","qid":null},"geometry":{"type":"Point","coordinates":[49.8621,-14.3074]}},{"type":"Feature","id":"MDG-5863","properties":{"kind":"division","code":"MDG-5863","countryCode":"MDG","name":"Toamasina","localName":"Toamasina","labelEnglish":"Toamasina","labelLocal":"Toamasina","labelBoth":"Toamasina","type":"Autonomous Province","iso":"MG-A","qid":"Q639418"},"geometry":{"type":"Polygon","coordinates":[[[50.1309,-15.9194],[49.9312,-15.0381],[49.5859,-14.9411],[49.3606,-15.2419],[49.0248,-15.3504],[49.106,-15.8854],[49.0138,-16.1232],[49.2074,-16.1854],[48.9168,-16.6787],[48.7294,-17.5647],[48.8797,-17.7526],[49.2932,-17.6775],[49.475,-17.5137],[49.4214,-17.3552],[49.6245,-16.8857],[49.8495,-16.5524],[49.8499,-16.2408],[49.6836,-16.0203],[49.6384,-15.5446],[49.9011,-15.4223],[50.1309,-15.9194]]]}},{"type":"Feature","id":"label-MDG-5863","properties":{"kind":"division-label","code":"MDG-5863","countryCode":"MDG","name":"Toamasina","localName":"Toamasina","labelEnglish":"Toamasina","labelLocal":"Toamasina","labelBoth":"Toamasina","type":"Autonomous Province","iso":"MG-A","qid":"Q639418"},"geometry":{"type":"Point","coordinates":[49.5586,-16.5763]}},{"type":"Feature","id":"MDG-5868","properties":{"kind":"division","code":"MDG-5868","countryCode":"MDG","name":"Toamasina","localName":"Toamasina","labelEnglish":"Toamasina","labelLocal":"Toamasina","labelBoth":"Toamasina","type":"Autonomous Province","iso":"MG-A","qid":"Q639418"},"geometry":{"type":"Polygon","coordinates":[[[49.475,-17.5137],[49.2932,-17.6775],[48.8797,-17.7526],[48.6543,-17.8779],[48.8171,-18.1535],[48.5666,-18.2537],[48.529,-18.592],[48.6668,-18.9678],[48.5666,-19.3311],[48.3912,-19.3812],[48.3035,-19.7946],[47.8499,-19.7956],[47.7178,-20.0752],[47.7811,-20.4509],[48.0657,-20.4423],[48.175,-20.2216],[48.6162,-20.4198],[48.8237,-19.9028],[49.0769,-19.0656],[49.3592,-18.424],[49.5096,-17.7277],[49.475,-17.5137]]]}},{"type":"Feature","id":"label-MDG-5868","properties":{"kind":"division-label","code":"MDG-5868","countryCode":"MDG","name":"Toamasina","localName":"Toamasina","labelEnglish":"Toamasina","labelLocal":"Toamasina","labelBoth":"Toamasina","type":"Autonomous Province","iso":"MG-A","qid":"Q639418"},"geometry":{"type":"Point","coordinates":[48.9044,-18.9143]}},{"type":"Feature","id":"MDG-5882","properties":{"kind":"division","code":"MDG-5882","countryCode":"MDG","name":"Vatovavy-Fitovinany","localName":"Vatovavy-Fitovinany","labelEnglish":"Vatovavy-Fitovinany","labelLocal":"Vatovavy-Fitovinany","labelBoth":"Vatovavy-Fitovinany","type":"Autonomous Province","iso":"MG-F","qid":null},"geometry":{"type":"Polygon","coordinates":[[[48.6162,-20.4198],[48.175,-20.2216],[48.0657,-20.4423],[47.7811,-20.4509],[47.6145,-20.5588],[47.4516,-20.9847],[47.3263,-22.037],[47.0633,-22.1748],[47.5268,-22.463],[47.8825,-22.5956],[48.2018,-21.7962],[48.6162,-20.4198]]]}},{"type":"Feature","id":"label-MDG-5882","properties":{"kind":"division-label","code":"MDG-5882","countryCode":"MDG","name":"Vatovavy-Fitovinany","localName":"Vatovavy-Fitovinany","labelEnglish":"Vatovavy-Fitovinany","labelLocal":"Vatovavy-Fitovinany","labelBoth":"Vatovavy-Fitovinany","type":"Autonomous Province","iso":"MG-F","qid":null},"geometry":{"type":"Point","coordinates":[47.921,-21.399]}},{"type":"Feature","id":"MDG-5867","properties":{"kind":"division","code":"MDG-5867","countryCode":"MDG","name":"Atsimo-Atsinanana","localName":"Atsimo-Atsinanana","labelEnglish":"Atsimo-Atsinanana","labelLocal":"Atsimo-Atsinanana","labelBoth":"Atsimo-Atsinanana","type":"Autonomous Province","iso":"MG-F","qid":null},"geometry":{"type":"Polygon","coordinates":[[[47.8825,-22.5956],[47.5268,-22.463],[47.0633,-22.1748],[46.9881,-22.2751],[47.1885,-22.7511],[47.2011,-23.1019],[46.8127,-23.0643],[46.8378,-23.6155],[46.4859,-23.6548],[46.4119,-23.801],[46.8694,-24.126],[47.2081,-23.9994],[47.4281,-24.1248],[47.5687,-23.8526],[47.8825,-22.5956]]]}},{"type":"Feature","id":"label-MDG-5867","properties":{"kind":"division-label","code":"MDG-5867","countryCode":"MDG","name":"Atsimo-Atsinanana","localName":"Atsimo-Atsinanana","labelEnglish":"Atsimo-Atsinanana","labelLocal":"Atsimo-Atsinanana","labelBoth":"Atsimo-Atsinanana","type":"Autonomous Province","iso":"MG-F","qid":null},"geometry":{"type":"Point","coordinates":[47.3774,-23.3142]}},{"type":"Feature","id":"MDG-5865","properties":{"kind":"division","code":"MDG-5865","countryCode":"MDG","name":"Anosy","localName":"Anosy","labelEnglish":"Anosy","labelLocal":"Anosy","labelBoth":"Anosy","type":"Autonomous Province","iso":"MG-U","qid":null},"geometry":{"type":"Polygon","coordinates":[[[47.4281,-24.1248],[47.2081,-23.9994],[46.8694,-24.126],[46.4119,-23.801],[46.4859,-23.6548],[46.4679,-23.1844],[46.2026,-22.8016],[45.8021,-22.6835],[45.4152,-22.8601],[45.3587,-23.1153],[45.2781,-23.5963],[45.466,-23.5838],[45.4785,-23.8845],[45.5182,-24.0092],[45.8481,-24.1041],[45.9608,-24.4548],[45.9483,-24.9559],[46.2376,-25.1982],[46.6537,-25.1839],[47.1262,-24.9343],[47.4281,-24.1248]]]}},{"type":"Feature","id":"label-MDG-5865","properties":{"kind":"division-label","code":"MDG-5865","countryCode":"MDG","name":"Anosy","localName":"Anosy","labelEnglish":"Anosy","labelLocal":"Anosy","labelBoth":"Anosy","type":"Autonomous Province","iso":"MG-U","qid":null},"geometry":{"type":"Point","coordinates":[46.2904,-24.22]}},{"type":"Feature","id":"MDG-5864","properties":{"kind":"division","code":"MDG-5864","countryCode":"MDG","name":"Androy","localName":"Androy","labelEnglish":"Androy","labelLocal":"Androy","labelBoth":"Androy","type":"Autonomous Province","iso":"MG-U","qid":null},"geometry":{"type":"Polygon","coordinates":[[[46.2376,-25.1982],[45.9483,-24.9559],[45.9608,-24.4548],[45.8481,-24.1041],[45.5182,-24.0092],[45.4785,-23.8845],[45.2906,-23.922],[45.1027,-24.4357],[45.0902,-24.8867],[44.7278,-25.3036],[45.1361,-25.5842],[45.4922,-25.5737],[46.2376,-25.1982]]]}},{"type":"Feature","id":"label-MDG-5864","properties":{"kind":"division-label","code":"MDG-5864","countryCode":"MDG","name":"Androy","localName":"Androy","labelEnglish":"Androy","labelLocal":"Androy","labelBoth":"Androy","type":"Autonomous Province","iso":"MG-U","qid":null},"geometry":{"type":"Point","coordinates":[45.5069,-24.8192]}},{"type":"Feature","id":"MDG-5866","properties":{"kind":"division","code":"MDG-5866","countryCode":"MDG","name":"Atsimo-Andrefana","localName":"Atsimo-Andrefana","labelEnglish":"Atsimo-Andrefana","labelLocal":"Atsimo-Andrefana","labelBoth":"Atsimo-Andrefana","type":"Autonomous Province","iso":"MG-U","qid":null},"geometry":{"type":"Polygon","coordinates":[[[44.7278,-25.3036],[45.0902,-24.8867],[45.1027,-24.4357],[45.2906,-23.922],[45.4785,-23.8845],[45.466,-23.5838],[45.2781,-23.5963],[45.3587,-23.1153],[45.0888,-23.0443],[45.0456,-22.668],[45.3178,-22.1461],[45.2318,-21.9092],[45.515,-21.6668],[45.5538,-21.4184],[45.7517,-21.244],[45.7777,-21.0351],[45.7905,-20.9291],[45.5725,-20.9722],[45.0589,-21.3606],[44.7457,-21.2729],[44.6026,-21.7709],[43.9959,-21.9027],[43.8948,-21.861],[43.5422,-21.3095],[43.4727,-21.6721],[43.3473,-21.7503],[43.2254,-22.2338],[43.3567,-22.8297],[43.5832,-23.0759],[43.758,-23.454],[43.6416,-23.6389],[43.7067,-24.4062],[43.8399,-24.5058],[44.0288,-24.999],[44.3695,-25.2568],[44.7278,-25.3036]]]}},{"type":"Feature","id":"label-MDG-5866","properties":{"kind":"division-label","code":"MDG-5866","countryCode":"MDG","name":"Atsimo-Andrefana","localName":"Atsimo-Andrefana","labelEnglish":"Atsimo-Andrefana","labelLocal":"Atsimo-Andrefana","labelBoth":"Atsimo-Andrefana","type":"Autonomous Province","iso":"MG-U","qid":null},"geometry":{"type":"Point","coordinates":[44.4011,-23.3142]}},{"type":"Feature","id":"MDG-5878","properties":{"kind":"division","code":"MDG-5878","countryCode":"MDG","name":"Menabe","localName":"Menabe","labelEnglish":"Menabe","labelLocal":"Menabe","labelBoth":"Menabe","type":"Autonomous Province","iso":"MG-U","qid":null},"geometry":{"type":"Polygon","coordinates":[[[43.5422,-21.3095],[43.8948,-21.861],[43.9959,-21.9027],[44.6026,-21.7709],[44.7457,-21.2729],[45.0589,-21.3606],[45.5725,-20.9722],[45.7905,-20.9291],[45.8438,-20.368],[45.7839,-19.8827],[45.8075,-19.4522],[45.5019,-18.9177],[45.6223,-18.594],[45.5748,-18.2877],[45.0372,-18.1904],[44.8172,-18.373],[45.1141,-19.2362],[44.8749,-19.2991],[44.2718,-19.1461],[44.4837,-19.5232],[44.3709,-19.774],[44.4793,-19.9128],[44.2547,-20.3761],[43.9015,-20.8829],[43.8128,-21.2243],[43.5422,-21.3095]]]}},{"type":"Feature","id":"label-MDG-5878","properties":{"kind":"division-label","code":"MDG-5878","countryCode":"MDG","name":"Menabe","localName":"Menabe","labelEnglish":"Menabe","labelLocal":"Menabe","labelBoth":"Menabe","type":"Autonomous Province","iso":"MG-U","qid":null},"geometry":{"type":"Point","coordinates":[45.0481,-20.3119]}},{"type":"Feature","id":"MDG-5876","properties":{"kind":"division","code":"MDG-5876","countryCode":"MDG","name":"Melaky","localName":"Melaky","labelEnglish":"Melaky","labelLocal":"Melaky","labelBoth":"Melaky","type":"Autonomous Province","iso":"MG-M","qid":null},"geometry":{"type":"Polygon","coordinates":[[[44.2718,-19.1461],[44.8749,-19.2991],[45.1141,-19.2362],[44.8172,-18.373],[45.0372,-18.1904],[45.5748,-18.2877],[45.7703,-18.2595],[45.97,-17.8106],[45.8731,-17.4269],[45.585,-17.4269],[45.4973,-16.9759],[45.0213,-16.5249],[44.8778,-16.2092],[44.4528,-16.1867],[44.4307,-16.7004],[43.9431,-17.4557],[44.0357,-17.7695],[44.0497,-18.4265],[44.2573,-18.8039],[44.2718,-19.1461]]]}},{"type":"Feature","id":"label-MDG-5876","properties":{"kind":"division-label","code":"MDG-5876","countryCode":"MDG","name":"Melaky","localName":"Melaky","labelEnglish":"Melaky","labelLocal":"Melaky","labelBoth":"Melaky","type":"Autonomous Province","iso":"MG-M","qid":null},"geometry":{"type":"Point","coordinates":[44.8928,-17.6203]}},{"type":"Feature","id":"MDG-5862","properties":{"kind":"division","code":"MDG-5862","countryCode":"MDG","name":"Antananarivo","localName":"Antananarivo","labelEnglish":"Antananarivo","labelLocal":"Antananarivo","labelBoth":"Antananarivo","type":"Autonomous Province","iso":"MG-T","qid":"Q489821"},"geometry":{"type":"Polygon","coordinates":[[[47.9028,-17.9003],[47.6741,-17.9481],[47.2697,-17.7493],[47.0455,-17.852],[46.8911,-17.7225],[46.5908,-17.7448],[46.7102,-18.1342],[47.1306,-18.7367],[47.3062,-18.7922],[47.4767,-19.1557],[47.5644,-19.4188],[47.8754,-19.5943],[47.9074,-19.0895],[48.0335,-18.3498],[47.9028,-17.9003]]]}},{"type":"Feature","id":"label-MDG-5862","properties":{"kind":"division-label","code":"MDG-5862","countryCode":"MDG","name":"Antananarivo","localName":"Antananarivo","labelEnglish":"Antananarivo","labelLocal":"Antananarivo","labelBoth":"Antananarivo","type":"Autonomous Province","iso":"MG-T","qid":"Q489821"},"geometry":{"type":"Point","coordinates":[47.481,-18.4743]}},{"type":"Feature","id":"MDG-5869","properties":{"kind":"division","code":"MDG-5869","countryCode":"MDG","name":"Betsiboka","localName":"Betsiboka","labelEnglish":"Betsiboka","labelLocal":"Betsiboka","labelBoth":"Betsiboka","type":"Autonomous Province","iso":"MG-M","qid":null},"geometry":{"type":"Polygon","coordinates":[[[46.5908,-17.7448],[46.8911,-17.7225],[47.0455,-17.852],[47.2697,-17.7493],[47.6741,-17.9481],[47.9028,-17.9003],[48.057,-17.6485],[48.2042,-17.1637],[47.9528,-16.7461],[47.9168,-16.5149],[47.3389,-16.2994],[47.1885,-16.4623],[47.3514,-16.6252],[46.7045,-16.6094],[46.5872,-16.9509],[46.2364,-17.239],[46.0109,-16.9885],[45.4973,-16.9759],[45.585,-17.4269],[45.8731,-17.4269],[45.97,-17.8106],[46.1759,-17.8819],[46.5908,-17.7448]]]}},{"type":"Feature","id":"label-MDG-5869","properties":{"kind":"division-label","code":"MDG-5869","countryCode":"MDG","name":"Betsiboka","localName":"Betsiboka","labelEnglish":"Betsiboka","labelLocal":"Betsiboka","labelBoth":"Betsiboka","type":"Autonomous Province","iso":"MG-M","qid":null},"geometry":{"type":"Point","coordinates":[47.1963,-17.232]}},{"type":"Feature","id":"MDG-5871","properties":{"kind":"division","code":"MDG-5871","countryCode":"MDG","name":"Antananarivo","localName":"Antananarivo","labelEnglish":"Antananarivo","labelLocal":"Antananarivo","labelBoth":"Antananarivo","type":"Autonomous Province","iso":"MG-T","qid":"Q489821"},"geometry":{"type":"Polygon","coordinates":[[[46.5908,-17.7448],[46.1759,-17.8819],[45.97,-17.8106],[45.7703,-18.2595],[45.5748,-18.2877],[45.6223,-18.594],[45.5019,-18.9177],[45.8075,-19.4522],[46.1613,-19.4438],[46.7626,-18.7047],[47.1306,-18.7367],[46.7102,-18.1342],[46.5908,-17.7448]]]}},{"type":"Feature","id":"label-MDG-5871","properties":{"kind":"division-label","code":"MDG-5871","countryCode":"MDG","name":"Antananarivo","localName":"Antananarivo","labelEnglish":"Antananarivo","labelLocal":"Antananarivo","labelBoth":"Antananarivo","type":"Autonomous Province","iso":"MG-T","qid":"Q489821"},"geometry":{"type":"Point","coordinates":[46.1092,-18.6296]}},{"type":"Feature","id":"MDG-5881","properties":{"kind":"division","code":"MDG-5881","countryCode":"MDG","name":"Antananarivo","localName":"Antananarivo","labelEnglish":"Antananarivo","labelLocal":"Antananarivo","labelBoth":"Antananarivo","type":"Autonomous Province","iso":"MG-T","qid":"Q489821"},"geometry":{"type":"Polygon","coordinates":[[[45.7839,-19.8827],[46.2896,-20.0477],[46.3865,-20.2469],[46.7994,-20.2799],[47.3517,-20.0409],[47.7178,-20.0752],[47.8499,-19.7956],[47.8754,-19.5943],[47.5644,-19.4188],[47.4767,-19.1557],[47.3389,-19.3186],[46.7877,-19.2559],[46.5747,-19.4188],[46.1613,-19.4438],[45.8075,-19.4522],[45.7839,-19.8827]]]}},{"type":"Feature","id":"label-MDG-5881","properties":{"kind":"division-label","code":"MDG-5881","countryCode":"MDG","name":"Antananarivo","localName":"Antananarivo","labelEnglish":"Antananarivo","labelLocal":"Antananarivo","labelBoth":"Antananarivo","type":"Autonomous Province","iso":"MG-T","qid":"Q489821"},"geometry":{"type":"Point","coordinates":[46.8857,-19.7425]}},{"type":"Feature","id":"MDG-5861","properties":{"kind":"division","code":"MDG-5861","countryCode":"MDG","name":"Amoron'i Mania","localName":"Amoron'i Mania","labelEnglish":"Amoron'i Mania","labelLocal":"Amoron'i Mania","labelBoth":"Amoron'i Mania","type":"Autonomous Province","iso":"MG-F","qid":null},"geometry":{"type":"Polygon","coordinates":[[[45.7839,-19.8827],[45.8438,-20.368],[45.7905,-20.9291],[45.7777,-21.0351],[46.5872,-20.7467],[46.7125,-20.9597],[46.9756,-21.0474],[47.2136,-20.8845],[47.4516,-20.9847],[47.6145,-20.5588],[47.7811,-20.4509],[47.7178,-20.0752],[47.3517,-20.0409],[46.7994,-20.2799],[46.3865,-20.2469],[46.2896,-20.0477],[45.7839,-19.8827]]]}},{"type":"Feature","id":"label-MDG-5861","properties":{"kind":"division-label","code":"MDG-5861","countryCode":"MDG","name":"Amoron'i Mania","localName":"Amoron'i Mania","labelEnglish":"Amoron'i Mania","labelLocal":"Amoron'i Mania","labelBoth":"Amoron'i Mania","type":"Autonomous Province","iso":"MG-F","qid":null},"geometry":{"type":"Point","coordinates":[46.7822,-20.5449]}},{"type":"Feature","id":"MDG-5860","properties":{"kind":"division","code":"MDG-5860","countryCode":"MDG","name":"Toamasina","localName":"Toamasina","labelEnglish":"Toamasina","labelLocal":"Toamasina","labelBoth":"Toamasina","type":"Autonomous Province","iso":"MG-A","qid":"Q639418"},"geometry":{"type":"Polygon","coordinates":[[[47.8754,-19.5943],[47.8499,-19.7956],[48.3035,-19.7946],[48.3912,-19.3812],[48.5666,-19.3311],[48.6668,-18.9678],[48.529,-18.592],[48.5666,-18.2537],[48.8171,-18.1535],[48.6543,-17.8779],[48.8797,-17.7526],[48.7294,-17.5647],[48.9168,-16.6787],[48.6824,-16.7566],[48.5769,-16.4172],[48.2989,-16.2458],[47.9809,-16.2517],[47.9168,-16.5149],[47.9528,-16.7461],[48.2042,-17.1637],[48.057,-17.6485],[47.9028,-17.9003],[48.0335,-18.3498],[47.9074,-19.0895],[47.8754,-19.5943]]]}},{"type":"Feature","id":"label-MDG-5860","properties":{"kind":"division-label","code":"MDG-5860","countryCode":"MDG","name":"Toamasina","localName":"Toamasina","labelEnglish":"Toamasina","labelLocal":"Toamasina","labelBoth":"Toamasina","type":"Autonomous Province","iso":"MG-A","qid":"Q639418"},"geometry":{"type":"Point","coordinates":[48.3868,-17.8014]}},{"type":"Feature","id":"MDG-5874","properties":{"kind":"division","code":"MDG-5874","countryCode":"MDG","name":"Ihorombe","localName":"Ihorombe","labelEnglish":"Ihorombe","labelLocal":"Ihorombe","labelBoth":"Ihorombe","type":"Autonomous Province","iso":"MG-F","qid":null},"geometry":{"type":"Polygon","coordinates":[[[46.9881,-22.2751],[46.5371,-22.2124],[46.3993,-21.9118],[45.515,-21.6668],[45.2318,-21.9092],[45.3178,-22.1461],[45.0456,-22.668],[45.0888,-23.0443],[45.3587,-23.1153],[45.4152,-22.8601],[45.8021,-22.6835],[46.2026,-22.8016],[46.4679,-23.1844],[46.4859,-23.6548],[46.8378,-23.6155],[46.8127,-23.0643],[47.2011,-23.1019],[47.1885,-22.7511],[46.9881,-22.2751]]]}},{"type":"Feature","id":"label-MDG-5874","properties":{"kind":"division-label","code":"MDG-5874","countryCode":"MDG","name":"Ihorombe","localName":"Ihorombe","labelEnglish":"Ihorombe","labelLocal":"Ihorombe","labelBoth":"Ihorombe","type":"Autonomous Province","iso":"MG-F","qid":null},"geometry":{"type":"Point","coordinates":[46.2128,-22.4083]}},{"type":"Feature","id":"MDG-5873","properties":{"kind":"division","code":"MDG-5873","countryCode":"MDG","name":"Haute Matsiatra","localName":"Haute Matsiatra","labelEnglish":"Haute Matsiatra","labelLocal":"Haute Matsiatra","labelBoth":"Haute Matsiatra","type":"Autonomous Province","iso":"MG-F","qid":null},"geometry":{"type":"Polygon","coordinates":[[[45.515,-21.6668],[46.3993,-21.9118],[46.5371,-22.2124],[46.9881,-22.2751],[47.0633,-22.1748],[47.3263,-22.037],[47.4516,-20.9847],[47.2136,-20.8845],[46.9756,-21.0474],[46.7125,-20.9597],[46.5872,-20.7467],[45.7777,-21.0351],[45.7517,-21.244],[45.5538,-21.4184],[45.515,-21.6668]]]}},{"type":"Feature","id":"label-MDG-5873","properties":{"kind":"division-label","code":"MDG-5873","countryCode":"MDG","name":"Haute Matsiatra","localName":"Haute Matsiatra","labelEnglish":"Haute Matsiatra","labelLocal":"Haute Matsiatra","labelBoth":"Haute Matsiatra","type":"Autonomous Province","iso":"MG-F","qid":null},"geometry":{"type":"Point","coordinates":[46.5733,-21.4423]}},{"type":"Feature","id":"MDG-5875","properties":{"kind":"division","code":"MDG-5875","countryCode":"MDG","name":"Antananarivo","localName":"Antananarivo","labelEnglish":"Antananarivo","labelLocal":"Antananarivo","labelBoth":"Antananarivo","type":"Autonomous Province","iso":"MG-T","qid":"Q489821"},"geometry":{"type":"Polygon","coordinates":[[[47.1306,-18.7367],[46.7626,-18.7047],[46.1613,-19.4438],[46.5747,-19.4188],[46.7877,-19.2559],[47.3389,-19.3186],[47.4767,-19.1557],[47.3062,-18.7922],[47.1306,-18.7367]]]}},{"type":"Feature","id":"label-MDG-5875","properties":{"kind":"division-label","code":"MDG-5875","countryCode":"MDG","name":"Antananarivo","localName":"Antananarivo","labelEnglish":"Antananarivo","labelLocal":"Antananarivo","labelBoth":"Antananarivo","type":"Autonomous Province","iso":"MG-T","qid":"Q489821"},"geometry":{"type":"Point","coordinates":[46.7662,-18.9938]}}]}