{"type":"FeatureCollection","features":[{"type":"Feature","id":"MDV-5243","properties":{"kind":"division","code":"MDV-5243","countryCode":"MDV","name":"Addu Atoll","localName":"Addu Atoll","labelEnglish":"Addu Atoll","labelLocal":"Addu Atoll","labelBoth":"Addu Atoll","type":"City","iso":"MV-01","qid":"Q353375"},"geometry":{"type":"Polygon","coordinates":[[[73.0975,-0.5997],[73.1112,-0.6413],[73.1116,-0.6171],[73.0975,-0.5997]]]}},{"type":"Feature","id":"label-MDV-5243","properties":{"kind":"division-label","code":"MDV-5243","countryCode":"MDV","name":"Addu Atoll","localName":"Addu Atoll","labelEnglish":"Addu Atoll","labelLocal":"Addu Atoll","labelBoth":"Addu Atoll","type":"City","iso":"MV-01","qid":"Q353375"},"geometry":{"type":"Point","coordinates":[73.1092,-0.624137]}},{"type":"Feature","id":"MDV-5242","properties":{"kind":"division","code":"MDV-5242","countryCode":"MDV","name":"Gnaviyani Atoll","localName":"Gnaviyani Atoll","labelEnglish":"Gnaviyani Atoll","labelLocal":"Gnaviyani Atoll","labelBoth":"Gnaviyani Atoll","type":"Atoll","iso":"MV-29","qid":"Q1811116"},"geometry":{"type":"Polygon","coordinates":[[[73.4351,-0.2836],[73.4352,-0.2936],[73.4445,-0.3043],[73.4351,-0.2836]]]}},{"type":"Feature","id":"label-MDV-5242","properties":{"kind":"division-label","code":"MDV-5242","countryCode":"MDV","name":"Gnaviyani Atoll","localName":"Gnaviyani Atoll","labelEnglish":"Gnaviyani Atoll","labelLocal":"Gnaviyani Atoll","labelBoth":"Gnaviyani Atoll","type":"Atoll","iso":"MV-29","qid":"Q1811116"},"geometry":{"type":"Point","coordinates":[73.4348,-0.28897]}},{"type":"Feature","id":"MDV-5241","properties":{"kind":"division","code":"MDV-5241","countryCode":"MDV","name":"Gaafu Dhaalu Atoll","localName":"Gaafu Dhaalu Atoll","labelEnglish":"Gaafu Dhaalu Atoll","labelLocal":"Gaafu Dhaalu Atoll","labelBoth":"Gaafu Dhaalu Atoll","type":"Atoll","iso":"MV-28","qid":"Q2640183"},"geometry":{"type":"Polygon","coordinates":[[[73.0955,0.228],[73.0989,0.2164],[73.1043,0.2196],[73.0955,0.228]]]}},{"type":"Feature","id":"label-MDV-5241","properties":{"kind":"division-label","code":"MDV-5241","countryCode":"MDV","name":"Gaafu Dhaalu Atoll","localName":"Gaafu Dhaalu Atoll","labelEnglish":"Gaafu Dhaalu Atoll","labelLocal":"Gaafu Dhaalu Atoll","labelBoth":"Gaafu Dhaalu Atoll","type":"Atoll","iso":"MV-28","qid":"Q2640183"},"geometry":{"type":"Point","coordinates":[73.106,0.22176]}},{"type":"Feature","id":"MDV-5240","properties":{"kind":"division","code":"MDV-5240","countryCode":"MDV","name":"Gaafu Alif Atoll","localName":"Gaafu Alif Atoll","labelEnglish":"Gaafu Alif Atoll","labelLocal":"Gaafu Alif Atoll","labelBoth":"Gaafu Alif Atoll","type":"Atoll","iso":"MV-27","qid":"Q1116203"},"geometry":{"type":"Polygon","coordinates":[[[73.5134,0.3878],[73.5066,0.3878],[73.5086,0.3806],[73.5134,0.3878]]]}},{"type":"Feature","id":"label-MDV-5240","properties":{"kind":"division-label","code":"MDV-5240","countryCode":"MDV","name":"Gaafu Alif Atoll","localName":"Gaafu Alif Atoll","labelEnglish":"Gaafu Alif Atoll","labelLocal":"Gaafu Alif Atoll","labelBoth":"Gaafu Alif Atoll","type":"Atoll","iso":"MV-27","qid":"Q1116203"},"geometry":{"type":"Point","coordinates":[73.3741,0.764412]}},{"type":"Feature","id":"MDV-5232","properties":{"kind":"division","code":"MDV-5232","countryCode":"MDV","name":"Alif Dhaal Atoll","localName":"Alif Dhaal Atoll","labelEnglish":"Alif Dhaal Atoll","labelLocal":"Alif Dhaal Atoll","labelBoth":"Alif Dhaal Atoll","type":"Atoll","iso":"MV-00","qid":"Q2316922"},"geometry":{"type":"Polygon","coordinates":[[[72.9284,3.5519],[72.9199,3.5522],[72.9116,3.5417],[72.9284,3.5519]]]}},{"type":"Feature","id":"label-MDV-5232","properties":{"kind":"division-label","code":"MDV-5232","countryCode":"MDV","name":"Alif Dhaal Atoll","localName":"Alif Dhaal Atoll","labelEnglish":"Alif Dhaal Atoll","labelLocal":"Alif Dhaal Atoll","labelBoth":"Alif Dhaal Atoll","type":"Atoll","iso":"MV-00","qid":"Q2316922"},"geometry":{"type":"Point","coordinates":[72.9528,3.77293]}},{"type":"Feature","id":"MDV-5230","properties":{"kind":"division","code":"MDV-5230","countryCode":"MDV","name":"Kaafu Atoll","localName":"Kaafu Atoll","labelEnglish":"Kaafu Atoll","labelLocal":"Kaafu Atoll","labelBoth":"Kaafu Atoll","type":"Atoll","iso":"MV-26","qid":"Q1468407"},"geometry":{"type":"Polygon","coordinates":[[[73.4773,3.9421],[73.4692,3.937],[73.47,3.9351],[73.4773,3.9421]]]}},{"type":"Feature","id":"label-MDV-5230","properties":{"kind":"division-label","code":"MDV-5230","countryCode":"MDV","name":"Kaafu Atoll","localName":"Kaafu Atoll","labelEnglish":"Kaafu Atoll","labelLocal":"Kaafu Atoll","labelBoth":"Kaafu Atoll","type":"Atoll","iso":"MV-26","qid":"Q1468407"},"geometry":{"type":"Point","coordinates":[73.6135,4.35708]}},{"type":"Feature","id":"MDV-5231","properties":{"kind":"division","code":"MDV-5231","countryCode":"MDV","name":"Alif Alif Atoll","localName":"Alif Alif Atoll","labelEnglish":"Alif Alif Atoll","labelLocal":"Alif Alif Atoll","labelBoth":"Alif Alif Atoll","type":"Atoll","iso":"MV-02","qid":"Q775323"},"geometry":{"type":"Polygon","coordinates":[[[72.957,4.4383],[72.9434,4.4316],[72.9561,4.4221],[72.957,4.4383]]]}},{"type":"Feature","id":"label-MDV-5231","properties":{"kind":"division-label","code":"MDV-5231","countryCode":"MDV","name":"Alif Alif Atoll","localName":"Alif Alif Atoll","labelEnglish":"Alif Alif Atoll","labelLocal":"Alif Alif Atoll","labelBoth":"Alif Alif Atoll","type":"Atoll","iso":"MV-02","qid":"Q775323"},"geometry":{"type":"Point","coordinates":[72.9528,4.26451]}},{"type":"Feature","id":"MDV-5228","properties":{"kind":"division","code":"MDV-5228","countryCode":"MDV","name":"Baa Atoll","localName":"Baa Atoll","labelEnglish":"Baa Atoll","labelLocal":"Baa Atoll","labelBoth":"Baa Atoll","type":"Atoll","iso":"MV-20","qid":"Q949513"},"geometry":{"type":"Polygon","coordinates":[[[72.9793,4.8955],[72.9727,4.8944],[72.9695,4.8805],[72.9793,4.8955]]]}},{"type":"Feature","id":"label-MDV-5228","properties":{"kind":"division-label","code":"MDV-5228","countryCode":"MDV","name":"Baa Atoll","localName":"Baa Atoll","labelEnglish":"Baa Atoll","labelLocal":"Baa Atoll","labelBoth":"Baa Atoll","type":"Atoll","iso":"MV-20","qid":"Q949513"},"geometry":{"type":"Point","coordinates":[72.9751,4.88218]}},{"type":"Feature","id":"MDV-5229","properties":{"kind":"division","code":"MDV-5229","countryCode":"MDV","name":"Lhaviyani Atoll","localName":"Lhaviyani Atoll","labelEnglish":"Lhaviyani Atoll","labelLocal":"Lhaviyani Atoll","labelBoth":"Lhaviyani Atoll","type":"Atoll","iso":"MV-03","qid":"Q1390048"},"geometry":{"type":"Polygon","coordinates":[[[73.6296,5.4185],[73.6325,5.3861],[73.6367,5.4029],[73.6296,5.4185]]]}},{"type":"Feature","id":"label-MDV-5229","properties":{"kind":"division-label","code":"MDV-5229","countryCode":"MDV","name":"Lhaviyani Atoll","localName":"Lhaviyani Atoll","labelEnglish":"Lhaviyani Atoll","labelLocal":"Lhaviyani Atoll","labelBoth":"Lhaviyani Atoll","type":"Atoll","iso":"MV-03","qid":"Q1390048"},"geometry":{"type":"Point","coordinates":[73.5816,5.2748]}},{"type":"Feature","id":"MDV-5226","properties":{"kind":"division","code":"MDV-5226","countryCode":"MDV","name":"Raa Atoll","localName":"Raa Atoll","labelEnglish":"Raa Atoll","labelLocal":"Raa Atoll","labelBoth":"Raa Atoll","type":"Atoll","iso":"MV-13","qid":"Q1457965"},"geometry":{"type":"Polygon","coordinates":[[[72.9317,5.9691],[72.9258,5.9633],[72.9302,5.9569],[72.9317,5.9691]]]}},{"type":"Feature","id":"label-MDV-5226","properties":{"kind":"division-label","code":"MDV-5226","countryCode":"MDV","name":"Raa Atoll","localName":"Raa Atoll","labelEnglish":"Raa Atoll","labelLocal":"Raa Atoll","labelBoth":"Raa Atoll","type":"Atoll","iso":"MV-13","qid":"Q1457965"},"geometry":{"type":"Point","coordinates":[72.9751,5.80628]}},{"type":"Feature","id":"MDV-5225","properties":{"kind":"division","code":"MDV-5225","countryCode":"MDV","name":"Shaviyani Atoll","localName":"Shaviyani Atoll","labelEnglish":"Shaviyani Atoll","labelLocal":"Shaviyani Atoll","labelBoth":"Shaviyani Atoll","type":"Atoll","iso":"MV-24","qid":"Q2190334"},"geometry":{"type":"Polygon","coordinates":[[[73.2417,6.2397],[73.2363,6.2321],[73.2439,6.2316],[73.2417,6.2397]]]}},{"type":"Feature","id":"label-MDV-5225","properties":{"kind":"division-label","code":"MDV-5225","countryCode":"MDV","name":"Shaviyani Atoll","localName":"Shaviyani Atoll","labelEnglish":"Shaviyani Atoll","labelLocal":"Shaviyani Atoll","labelBoth":"Shaviyani Atoll","type":"Atoll","iso":"MV-24","qid":"Q2190334"},"geometry":{"type":"Point","coordinates":[73.2145,6.28509]}},{"type":"Feature","id":"MDV-5239","properties":{"kind":"division","code":"MDV-5239","countryCode":"MDV","name":"Laamu Atoll","localName":"Laamu Atoll","labelEnglish":"Laamu Atoll","labelLocal":"Laamu Atoll","labelBoth":"Laamu Atoll","type":"Atoll","iso":"MV-05","qid":"Q1996432"},"geometry":{"type":"Polygon","coordinates":[[[73.5531,1.9324],[73.5409,1.8924],[73.5488,1.9114],[73.5531,1.9324]]]}},{"type":"Feature","id":"label-MDV-5239","properties":{"kind":"division-label","code":"MDV-5239","countryCode":"MDV","name":"Laamu Atoll","localName":"Laamu Atoll","labelEnglish":"Laamu Atoll","labelLocal":"Laamu Atoll","labelBoth":"Laamu Atoll","type":"Atoll","iso":"MV-05","qid":"Q1996432"},"geometry":{"type":"Point","coordinates":[73.5114,1.83216]}},{"type":"Feature","id":"MDV-5238","properties":{"kind":"division","code":"MDV-5238","countryCode":"MDV","name":"Thaa Atoll","localName":"Thaa Atoll","labelEnglish":"Thaa Atoll","labelLocal":"Thaa Atoll","labelBoth":"Thaa Atoll","type":"Atoll","iso":"MV-08","qid":"Q2709118"},"geometry":{"type":"Polygon","coordinates":[[[73.3543,2.4372],[73.3626,2.3849],[73.3662,2.4115],[73.3543,2.4372]]]}},{"type":"Feature","id":"label-MDV-5238","properties":{"kind":"division-label","code":"MDV-5238","countryCode":"MDV","name":"Thaa Atoll","localName":"Thaa Atoll","labelEnglish":"Thaa Atoll","labelLocal":"Thaa Atoll","labelBoth":"Thaa Atoll","type":"Atoll","iso":"MV-08","qid":"Q2709118"},"geometry":{"type":"Point","coordinates":[73.1252,2.19286]}},{"type":"Feature","id":"MDV-5237","properties":{"kind":"division","code":"MDV-5237","countryCode":"MDV","name":"Dhaalu Atoll","localName":"Dhaalu Atoll","labelEnglish":"Dhaalu Atoll","labelLocal":"Dhaalu Atoll","labelBoth":"Dhaalu Atoll","type":"Atoll","iso":"MV-17","qid":"Q2290784"},"geometry":{"type":"Polygon","coordinates":[[[73.0223,2.7417],[73.028,2.7382],[73.0322,2.7451],[73.0223,2.7417]]]}},{"type":"Feature","id":"label-MDV-5237","properties":{"kind":"division-label","code":"MDV-5237","countryCode":"MDV","name":"Dhaalu Atoll","localName":"Dhaalu Atoll","labelEnglish":"Dhaalu Atoll","labelLocal":"Dhaalu Atoll","labelBoth":"Dhaalu Atoll","type":"Atoll","iso":"MV-17","qid":"Q2290784"},"geometry":{"type":"Point","coordinates":[72.9017,2.67806]}},{"type":"Feature","id":"MDV-5236","properties":{"kind":"division","code":"MDV-5236","countryCode":"MDV","name":"Meemu Atoll","localName":"Meemu Atoll","labelEnglish":"Meemu Atoll","labelLocal":"Meemu Atoll","labelBoth":"Meemu Atoll","type":"Atoll","iso":"MV-12","qid":"Q2210716"},"geometry":{"type":"Polygon","coordinates":[[[73.3993,2.7857],[73.3919,2.7815],[73.3906,2.7754],[73.3993,2.7857]]]}},{"type":"Feature","id":"label-MDV-5236","properties":{"kind":"division-label","code":"MDV-5236","countryCode":"MDV","name":"Meemu Atoll","localName":"Meemu Atoll","labelEnglish":"Meemu Atoll","labelLocal":"Meemu Atoll","labelBoth":"Meemu Atoll","type":"Atoll","iso":"MV-12","qid":"Q2210716"},"geometry":{"type":"Point","coordinates":[73.5688,2.94938]}},{"type":"Feature","id":"MDV-5233","properties":{"kind":"division","code":"MDV-5233","countryCode":"MDV","name":"Faafu Atoll","localName":"Faafu Atoll","labelEnglish":"Faafu Atoll","labelLocal":"Faafu Atoll","labelBoth":"Faafu Atoll","type":"Atoll","iso":"MV-14","qid":"Q2469227"},"geometry":{"type":"Polygon","coordinates":[[[73.0317,3.253],[73.029,3.2469],[73.0357,3.2478],[73.0317,3.253]]]}},{"type":"Feature","id":"label-MDV-5233","properties":{"kind":"division-label","code":"MDV-5233","countryCode":"MDV","name":"Faafu Atoll","localName":"Faafu Atoll","labelEnglish":"Faafu Atoll","labelLocal":"Faafu Atoll","labelBoth":"Faafu Atoll","type":"Atoll","iso":"MV-14","qid":"Q2469227"},"geometry":{"type":"Point","coordinates":[72.8315,3.30689]}},{"type":"Feature","id":"MDV-5235","properties":{"kind":"division","code":"MDV-5235","countryCode":"MDV","name":"Vaavu Atoll","localName":"Vaavu Atoll","labelEnglish":"Vaavu Atoll","labelLocal":"Vaavu Atoll","labelBoth":"Vaavu Atoll","type":"Atoll","iso":"MV-04","qid":"Q2709111"},"geometry":{"type":"Polygon","coordinates":[[[73.7476,3.4511],[73.7485,3.4482],[73.7532,3.4464],[73.7476,3.4511]]]}},{"type":"Feature","id":"label-MDV-5235","properties":{"kind":"division-label","code":"MDV-5235","countryCode":"MDV","name":"Vaavu Atoll","localName":"Vaavu Atoll","labelEnglish":"Vaavu Atoll","labelLocal":"Vaavu Atoll","labelBoth":"Vaavu Atoll","type":"Atoll","iso":"MV-04","qid":"Q2709111"},"geometry":{"type":"Point","coordinates":[73.5082,3.49522]}},{"type":"Feature","id":"MDV-5234","properties":{"kind":"division","code":"MDV-5234","countryCode":"MDV","name":"Malé","localName":"Malé","labelEnglish":"Malé","labelLocal":"Malé","labelBoth":"Malé","type":"Capital","iso":"MV-12","qid":"Q9347"},"geometry":{"type":"Polygon","coordinates":[[[73.5462,4.243],[73.512,4.1863],[73.4321,4.19],[73.5109,4.1621],[73.5462,4.243]]]}},{"type":"Feature","id":"label-MDV-5234","properties":{"kind":"division-label","code":"MDV-5234","countryCode":"MDV","name":"Malé","localName":"Malé","labelEnglish":"Malé","labelLocal":"Malé","labelBoth":"Malé","type":"Capital","iso":"MV-12","qid":"Q9347"},"geometry":{"type":"Point","coordinates":[73.5188,4.17219]}},{"type":"Feature","id":"MDV-5227","properties":{"kind":"division","code":"MDV-5227","countryCode":"MDV","name":"Noonu Atoll","localName":"Noonu Atoll","labelEnglish":"Noonu Atoll","labelLocal":"Noonu Atoll","labelBoth":"Noonu Atoll","type":"Atoll","iso":"MV-25","qid":"Q2406322"},"geometry":{"type":"Polygon","coordinates":[[[73.3928,5.7377],[73.3826,5.7221],[73.3807,5.7146],[73.3928,5.7377]]]}},{"type":"Feature","id":"label-MDV-5227","properties":{"kind":"division-label","code":"MDV-5227","countryCode":"MDV","name":"Noonu Atoll","localName":"Noonu Atoll","labelEnglish":"Noonu Atoll","labelLocal":"Noonu Atoll","labelBoth":"Noonu Atoll","type":"Atoll","iso":"MV-25","qid":"Q2406322"},"geometry":{"type":"Point","coordinates":[73.3837,5.78713]}},{"type":"Feature","id":"MDV-5224","properties":{"kind":"division","code":"MDV-5224","countryCode":"MDV","name":"Haa Dhaalu Atoll","localName":"Haa Dhaalu Atoll","labelEnglish":"Haa Dhaalu Atoll","labelLocal":"Haa Dhaalu Atoll","labelBoth":"Haa Dhaalu Atoll","type":"Atoll","iso":"MV-23","qid":"Q2360368"},"geometry":{"type":"Polygon","coordinates":[[[73.1595,6.7865],[73.136,6.7412],[73.1448,6.7355],[73.1595,6.7865]]]}},{"type":"Feature","id":"label-MDV-5224","properties":{"kind":"division-label","code":"MDV-5224","countryCode":"MDV","name":"Haa Dhaalu Atoll","localName":"Haa Dhaalu Atoll","labelEnglish":"Haa Dhaalu Atoll","labelLocal":"Haa Dhaalu Atoll","labelBoth":"Haa Dhaalu Atoll","type":"Atoll","iso":"MV-23","qid":"Q2360368"},"geometry":{"type":"Point","coordinates":[73.0473,6.62205]}},{"type":"Feature","id":"MDV-5223","properties":{"kind":"division","code":"MDV-5223","countryCode":"MDV","name":"Haa Alif Atoll","localName":"Haa Alif Atoll","labelEnglish":"Haa Alif Atoll","labelLocal":"Haa Alif Atoll","labelBoth":"Haa Alif Atoll","type":"Atoll","iso":"MV-07","qid":"Q2360912"},"geometry":{"type":"Polygon","coordinates":[[[73.214,6.9186],[73.2049,6.9118],[73.2039,6.885],[73.214,6.9186]]]}},{"type":"Feature","id":"label-MDV-5223","properties":{"kind":"division-label","code":"MDV-5223","countryCode":"MDV","name":"Haa Alif Atoll","localName":"Haa Alif Atoll","labelEnglish":"Haa Alif Atoll","labelLocal":"Haa Alif Atoll","labelBoth":"Haa Alif Atoll","type":"Atoll","iso":"MV-07","qid":"Q2360912"},"geometry":{"type":"Point","coordinates":[72.9797,7.02774]}}]}