{"type":"FeatureCollection","features":[{"type":"Feature","id":"MEX-2712","properties":{"kind":"division","code":"MEX-2712","countryCode":"MEX","name":"Sonora","localName":"Sonora","labelEnglish":"Sonora","labelLocal":"Sonora","labelBoth":"Sonora","type":"State","iso":"MX-SON","qid":"Q46422"},"geometry":{"type":"MultiPolygon","coordinates":[[[[-114.8194,32.4994],[-115.0397,32.2772],[-114.9336,31.9088],[-114.159,31.4945],[-113.9395,31.6004],[-113.6596,31.4975],[-113.5489,31.2957],[-113.0487,31.1567],[-113.1288,30.8124],[-112.8707,30.4285],[-112.6863,29.9078],[-112.2395,29.3153],[-112.1522,28.9874],[-111.7084,28.4601],[-111.4735,28.381],[-111.2507,28.052],[-110.8863,27.8389],[-110.6156,27.8122],[-110.5244,27.3001],[-110.2876,27.1484],[-109.9822,27.1151],[-109.7684,26.7065],[-109.5289,26.7514],[-109.1393,26.3318],[-108.5074,26.8016],[-108.4665,26.9799],[-108.6775,27.1834],[-108.6537,27.5091],[-109.0207,27.9071],[-109.0692,28.2764],[-108.5402,28.3201],[-108.7078,29.4008],[-108.6133,29.4076],[-108.5368,30.0386],[-108.5835,30.5066],[-109.0432,30.8285],[-108.9683,31.3274],[-109.0474,31.3274],[-111.0671,31.3336],[-112.3247,31.728],[-114.8194,32.4994]]],[[[-112.2747,28.7684],[-112.1956,29.0213],[-112.4387,29.2021],[-112.583,28.8754],[-112.2747,28.7684]]]]}},{"type":"Feature","id":"label-MEX-2712","properties":{"kind":"division-label","code":"MEX-2712","countryCode":"MEX","name":"Sonora","localName":"Sonora","labelEnglish":"Sonora","labelLocal":"Sonora","labelBoth":"Sonora","type":"State","iso":"MX-SON","qid":"Q46422"},"geometry":{"type":"Point","coordinates":[-110.485,29.5293]}},{"type":"Feature","id":"MEX-2706","properties":{"kind":"division","code":"MEX-2706","countryCode":"MEX","name":"Baja California","localName":"Baja California","labelEnglish":"Baja California","labelLocal":"Baja California","labelBoth":"Baja California","type":"State","iso":"MX-BCN","qid":"Q58731"},"geometry":{"type":"MultiPolygon","coordinates":[[[[-114.7243,32.7128],[-117.1251,32.5317],[-116.8423,31.9865],[-116.6197,31.8576],[-116.6756,31.5526],[-116.3094,31.1485],[-116.3354,30.9563],[-116.068,30.8132],[-116.0493,30.4796],[-115.8373,30.3465],[-115.6976,29.7558],[-115.1871,29.4286],[-114.972,29.3778],[-114.0426,28.4584],[-114.0628,28.0005],[-112.7636,27.9994],[-112.8463,28.4411],[-113.103,28.5046],[-113.2604,28.8401],[-113.5249,28.8916],[-113.6231,29.2527],[-114.2085,29.7448],[-114.3922,29.783],[-114.6603,30.1833],[-114.7203,30.9411],[-114.8887,31.1629],[-114.7806,31.6558],[-114.9336,31.9088],[-115.0397,32.2772],[-114.8194,32.4994],[-114.7243,32.7128]]],[[[-115.195,28.3414],[-115.3581,28.0826],[-115.1817,28.0276],[-115.195,28.3414]]],[[[-113.1382,29.0649],[-113.1828,29.2897],[-113.5109,29.5493],[-113.5891,29.4096],[-113.1382,29.0649]]]]}},{"type":"Feature","id":"label-MEX-2706","properties":{"kind":"division-label","code":"MEX-2706","countryCode":"MEX","name":"Baja California","localName":"Baja California","labelEnglish":"Baja California","labelLocal":"Baja California","labelBoth":"Baja California","type":"State","iso":"MX-BCN","qid":"Q58731"},"geometry":{"type":"Point","coordinates":[-115.209,30.3399]}},{"type":"Feature","id":"MEX-2709","properties":{"kind":"division","code":"MEX-2709","countryCode":"MEX","name":"Chihuahua","localName":"Chihuahua","labelEnglish":"Chihuahua","labelLocal":"Chihuahua","labelBoth":"Chihuahua","type":"State","iso":"MX-CHH","qid":"Q655"},"geometry":{"type":"Polygon","coordinates":[[[-106.5061,31.7703],[-108.2151,31.7778],[-108.2148,31.3274],[-108.9683,31.3274],[-109.0432,30.8285],[-108.5835,30.5066],[-108.5368,30.0386],[-108.6133,29.4076],[-108.7078,29.4008],[-108.5402,28.3201],[-109.0692,28.2764],[-109.0207,27.9071],[-108.6537,27.5091],[-108.6775,27.1834],[-108.4665,26.9799],[-108.3743,27.0774],[-108.0213,26.92],[-107.8351,26.5996],[-107.7589,26.195],[-107.4141,26.1298],[-107.2594,25.8693],[-106.9369,25.6416],[-106.5445,25.7799],[-106.3735,26.1676],[-106.4322,26.3618],[-106.2272,26.4292],[-106.0275,26.8386],[-105.3275,26.4595],[-105.1168,26.5524],[-104.5198,26.3715],[-104.2346,26.7232],[-103.9415,26.7604],[-103.6273,26.6439],[-103.9635,27.9189],[-103.3115,29.026],[-104.0573,29.339],[-104.5308,29.6679],[-104.6816,30.1929],[-105.0085,30.677],[-105.3638,30.8504],[-106.5061,31.7703]]]}},{"type":"Feature","id":"label-MEX-2709","properties":{"kind":"division-label","code":"MEX-2709","countryCode":"MEX","name":"Chihuahua","localName":"Chihuahua","labelEnglish":"Chihuahua","labelLocal":"Chihuahua","labelBoth":"Chihuahua","type":"State","iso":"MX-CHH","qid":"Q655"},"geometry":{"type":"Point","coordinates":[-106.232,28.973]}},{"type":"Feature","id":"MEX-2708","properties":{"kind":"division","code":"MEX-2708","countryCode":"MEX","name":"Coahuila","localName":"Coahuila","labelEnglish":"Coahuila","labelLocal":"Coahuila","labelBoth":"Coahuila","type":"State","iso":"MX-COA","qid":"Q53079"},"geometry":{"type":"Polygon","coordinates":[[[-99.807,27.7714],[-100.0749,28.1544],[-100.2843,28.2965],[-100.669,29.1162],[-101.4051,29.7784],[-102.1093,29.8021],[-102.321,29.8939],[-102.6835,29.7437],[-102.8994,29.2761],[-103.148,28.9851],[-103.3115,29.026],[-103.9635,27.9189],[-103.6273,26.6439],[-103.2849,26.3637],[-103.3202,25.6987],[-103.5092,25.2978],[-103.2515,24.923],[-102.8431,24.7283],[-102.6682,25.0789],[-102.1734,25.163],[-101.8607,25.0756],[-100.8284,24.565],[-100.7706,25.1473],[-100.1993,25.2759],[-100.5723,25.4139],[-100.8463,25.7853],[-100.8477,25.9569],[-101.2157,26.373],[-100.7526,26.7319],[-100.587,26.7646],[-100.5534,27.0326],[-100.802,27.2119],[-100.4352,27.3797],[-100.1819,27.7935],[-99.9672,27.6402],[-99.807,27.7714]]]}},{"type":"Feature","id":"label-MEX-2708","properties":{"kind":"division-label","code":"MEX-2708","countryCode":"MEX","name":"Coahuila","localName":"Coahuila","labelEnglish":"Coahuila","labelLocal":"Coahuila","labelBoth":"Coahuila","type":"State","iso":"MX-COA","qid":"Q53079"},"geometry":{"type":"Point","coordinates":[-101.885,27.4473]}},{"type":"Feature","id":"MEX-2716","properties":{"kind":"division","code":"MEX-2716","countryCode":"MEX","name":"Tamaulipas","localName":"Tamaulipas","labelEnglish":"Tamaulipas","labelLocal":"Tamaulipas","labelBoth":"Tamaulipas","type":"State","iso":"MX-TAM","qid":"Q80007"},"geometry":{"type":"Polygon","coordinates":[[[-99.7107,27.6701],[-99.7779,27.4819],[-99.6529,26.6839],[-99.4132,26.6241],[-99.3918,26.3656],[-99.1732,26.2793],[-99.1331,26.0567],[-98.5557,25.9713],[-98.5543,25.4769],[-98.4457,25.4246],[-98.8687,25.0988],[-99.1851,24.9955],[-99.294,24.8267],[-99.7368,24.5697],[-99.6063,24.5125],[-99.6165,24.1377],[-99.4637,23.9574],[-99.5997,23.7668],[-99.8401,23.7408],[-99.906,23.3751],[-100.0573,23.2411],[-99.9147,23.0178],[-99.9874,22.7773],[-99.5277,22.6255],[-99.3792,22.6834],[-99.2484,22.4589],[-98.8124,22.3625],[-98.6162,22.4186],[-98.0928,22.3726],[-97.7819,22.2733],[-97.891,22.5961],[-97.7423,22.9721],[-97.7685,23.2601],[-97.6514,24.5159],[-97.459,25.1794],[-97.1652,25.7233],[-97.1393,25.9658],[-97.4254,25.8549],[-97.802,26.0637],[-98.2227,26.0754],[-98.7959,26.3683],[-99.0855,26.4076],[-99.2483,26.8271],[-99.4617,27.057],[-99.5072,27.5738],[-99.7107,27.6701]]]}},{"type":"Feature","id":"label-MEX-2716","properties":{"kind":"division-label","code":"MEX-2716","countryCode":"MEX","name":"Tamaulipas","localName":"Tamaulipas","labelEnglish":"Tamaulipas","labelLocal":"Tamaulipas","labelBoth":"Tamaulipas","type":"State","iso":"MX-TAM","qid":"Q80007"},"geometry":{"type":"Point","coordinates":[-98.5197,24.0808]}},{"type":"Feature","id":"MEX-2714","properties":{"kind":"division","code":"MEX-2714","countryCode":"MEX","name":"Nuevo León","localName":"Nuevo León","labelEnglish":"Nuevo León","labelLocal":"Nuevo León","labelBoth":"Nuevo León","type":"State","iso":"MX-NLE","qid":"Q15282"},"geometry":{"type":"Polygon","coordinates":[[[-99.807,27.7714],[-99.9672,27.6402],[-100.1819,27.7935],[-100.4352,27.3797],[-100.802,27.2119],[-100.5534,27.0326],[-100.587,26.7646],[-100.7526,26.7319],[-101.2157,26.373],[-100.8477,25.9569],[-100.8463,25.7853],[-100.5723,25.4139],[-100.1993,25.2759],[-100.7706,25.1473],[-100.8284,24.565],[-100.6103,24.2833],[-100.4876,23.8215],[-100.4393,23.229],[-100.0573,23.2411],[-99.906,23.3751],[-99.8401,23.7408],[-99.5997,23.7668],[-99.4637,23.9574],[-99.6165,24.1377],[-99.6063,24.5125],[-99.7368,24.5697],[-99.294,24.8267],[-99.1851,24.9955],[-98.8687,25.0988],[-98.4457,25.4246],[-98.5543,25.4769],[-98.5557,25.9713],[-99.1331,26.0567],[-99.1732,26.2793],[-99.3918,26.3656],[-99.4132,26.6241],[-99.6529,26.6839],[-99.7779,27.4819],[-99.7107,27.6701],[-99.807,27.7714]]]}},{"type":"Feature","id":"label-MEX-2714","properties":{"kind":"division-label","code":"MEX-2714","countryCode":"MEX","name":"Nuevo León","localName":"Nuevo León","labelEnglish":"Nuevo León","labelLocal":"Nuevo León","labelBoth":"Nuevo León","type":"State","iso":"MX-NLE","qid":"Q15282"},"geometry":{"type":"Point","coordinates":[-99.8307,25.6178]}},{"type":"Feature","id":"MEX-2736","properties":{"kind":"division","code":"MEX-2736","countryCode":"MEX","name":"Quintana Roo","localName":"Quintana Roo","labelEnglish":"Quintana Roo","labelLocal":"Quintana Roo","labelBoth":"Quintana Roo","type":"State","iso":"MX-ROO","qid":"Q80245"},"geometry":{"type":"MultiPolygon","coordinates":[[[[-88.6141,18.247],[-88.4892,18.4845],[-88.3038,18.4814],[-88.0363,18.875],[-88.0778,18.4986],[-87.8446,18.1967],[-87.7234,18.6812],[-87.433,19.492],[-87.7421,19.6149],[-87.4746,19.8756],[-87.444,20.1911],[-86.8753,20.855],[-86.7416,21.1641],[-86.828,21.4333],[-87.1342,21.6195],[-87.2382,21.443],[-87.5398,21.4993],[-87.534,20.9557],[-87.6749,20.6479],[-88.0139,20.4347],[-88.1607,20.4592],[-88.4453,20.1837],[-88.9112,19.9487],[-89.3688,19.8201],[-89.4154,19.651],[-89.0135,19.2178],[-89.1088,18.6908],[-89.0357,18.2027],[-89.1463,17.9515],[-88.8803,17.8885],[-88.6141,18.247]]],[[[-86.749,20.5922],[-86.9368,20.5472],[-86.9953,20.2608],[-86.749,20.5922]]]]}},{"type":"Feature","id":"label-MEX-2736","properties":{"kind":"division-label","code":"MEX-2736","countryCode":"MEX","name":"Quintana Roo","localName":"Quintana Roo","labelEnglish":"Quintana Roo","labelLocal":"Quintana Roo","labelBoth":"Quintana Roo","type":"State","iso":"MX-ROO","qid":"Q80245"},"geometry":{"type":"Point","coordinates":[-88.344,19.3861]}},{"type":"Feature","id":"MEX-2722","properties":{"kind":"division","code":"MEX-2722","countryCode":"MEX","name":"Campeche","localName":"Campeche","labelEnglish":"Campeche","labelLocal":"Campeche","labelBoth":"Campeche","type":"State","iso":"MX-CAM","qid":"Q80908"},"geometry":{"type":"Polygon","coordinates":[[[-89.1463,17.9515],[-89.0357,18.2027],[-89.1088,18.6908],[-89.0135,19.2178],[-89.4154,19.651],[-89.63,20.0191],[-90.0184,20.4675],[-90.392,20.5472],[-90.3811,20.824],[-90.4899,20.5341],[-90.4778,19.9221],[-90.7095,19.6875],[-90.7301,19.3759],[-90.9355,19.1631],[-91.4312,18.8801],[-91.2655,18.7357],[-91.5929,18.4431],[-92.0316,18.5604],[-92.0601,18.7016],[-92.4861,18.6485],[-92.3576,18.457],[-92.1491,18.4619],[-92.1556,18.1688],[-91.8593,17.9536],[-91.5687,18.1036],[-90.9917,17.9682],[-90.9909,17.802],[-89.1605,17.8143],[-89.1463,17.9515]]]}},{"type":"Feature","id":"label-MEX-2722","properties":{"kind":"division-label","code":"MEX-2722","countryCode":"MEX","name":"Campeche","localName":"Campeche","labelEnglish":"Campeche","labelLocal":"Campeche","labelBoth":"Campeche","type":"State","iso":"MX-CAM","qid":"Q80908"},"geometry":{"type":"Point","coordinates":[-90.2807,18.6624]}},{"type":"Feature","id":"MEX-2725","properties":{"kind":"division","code":"MEX-2725","countryCode":"MEX","name":"Tabasco","localName":"Tabasco","labelEnglish":"Tabasco","labelLocal":"Tabasco","labelBoth":"Tabasco","type":"State","iso":"MX-TAB","qid":"Q80914"},"geometry":{"type":"Polygon","coordinates":[[[-90.9909,17.802],[-90.9917,17.9682],[-91.5687,18.1036],[-91.8593,17.9536],[-92.1556,18.1688],[-92.1491,18.4619],[-92.3576,18.457],[-92.4861,18.6485],[-92.8557,18.466],[-93.5803,18.4163],[-93.7674,18.2812],[-94.1371,18.2074],[-94.0767,17.882],[-93.7338,17.6715],[-93.5895,17.3755],[-93.3134,17.9639],[-92.9979,17.9329],[-92.9897,17.5613],[-92.6954,17.3835],[-92.3681,17.6969],[-91.9956,17.9047],[-91.8188,17.8854],[-91.4333,17.2545],[-90.992,17.2519],[-90.9909,17.802]]]}},{"type":"Feature","id":"label-MEX-2725","properties":{"kind":"division-label","code":"MEX-2725","countryCode":"MEX","name":"Tabasco","localName":"Tabasco","labelEnglish":"Tabasco","labelLocal":"Tabasco","labelBoth":"Tabasco","type":"State","iso":"MX-TAB","qid":"Q80914"},"geometry":{"type":"Point","coordinates":[-92.8274,18.1252]}},{"type":"Feature","id":"MEX-2735","properties":{"kind":"division","code":"MEX-2735","countryCode":"MEX","name":"Chiapas","localName":"Chiapas","labelEnglish":"Chiapas","labelLocal":"Chiapas","labelBoth":"Chiapas","type":"State","iso":"MX-CHP","qid":"Q60123"},"geometry":{"type":"Polygon","coordinates":[[[-91.4333,17.2545],[-91.8188,17.8854],[-91.9956,17.9047],[-92.3681,17.6969],[-92.6954,17.3835],[-92.9897,17.5613],[-92.9979,17.9329],[-93.3134,17.9639],[-93.5895,17.3755],[-93.8734,17.1502],[-94.1251,16.5088],[-94.0836,16.1489],[-92.8404,15.182],[-92.2463,14.5463],[-92.0738,15.0737],[-92.2034,15.2372],[-92.1059,15.4545],[-91.7238,16.0688],[-90.9948,16.0699],[-90.4482,16.0793],[-90.4478,16.0797],[-90.3799,16.3673],[-90.7353,16.7466],[-91.0669,16.9182],[-91.4333,17.2545]]]}},{"type":"Feature","id":"label-MEX-2735","properties":{"kind":"division-label","code":"MEX-2735","countryCode":"MEX","name":"Chiapas","localName":"Chiapas","labelEnglish":"Chiapas","labelLocal":"Chiapas","labelBoth":"Chiapas","type":"State","iso":"MX-CHP","qid":"Q60123"},"geometry":{"type":"Point","coordinates":[-92.581,16.527]}},{"type":"Feature","id":"MEX-2718","properties":{"kind":"division","code":"MEX-2718","countryCode":"MEX","name":"Colima","localName":"Colima","labelEnglish":"Colima","labelLocal":"Colima","labelBoth":"Colima","type":"State","iso":"MX-COL","qid":"Q61309"},"geometry":{"type":"Polygon","coordinates":[[[-103.742,18.6904],[-103.4778,18.9664],[-103.4965,19.3161],[-103.6353,19.4871],[-103.8335,19.3976],[-104.0506,19.5023],[-104.2145,19.3204],[-104.5926,19.1496],[-103.98,18.8749],[-103.742,18.6904]]]}},{"type":"Feature","id":"label-MEX-2718","properties":{"kind":"division-label","code":"MEX-2718","countryCode":"MEX","name":"Colima","localName":"Colima","labelEnglish":"Colima","labelLocal":"Colima","labelBoth":"Colima","type":"State","iso":"MX-COL","qid":"Q61309"},"geometry":{"type":"Point","coordinates":[-103.915,19.1325]}},{"type":"Feature","id":"MEX-2721","properties":{"kind":"division","code":"MEX-2721","countryCode":"MEX","name":"Nayarit","localName":"Nayarit","labelEnglish":"Nayarit","labelLocal":"Nayarit","labelBoth":"Nayarit","type":"State","iso":"MX-NAY","qid":"Q79920"},"geometry":{"type":"Polygon","coordinates":[[[-105.2908,20.6852],[-105.0946,20.9181],[-104.7973,21.0176],[-104.2856,20.708],[-104.2241,21.1693],[-103.9447,21.3752],[-104.2103,21.5192],[-104.0984,21.7845],[-104.3987,22.0854],[-104.3297,22.2644],[-104.3114,22.3191],[-104.3346,22.4749],[-104.5874,22.4596],[-104.7743,22.6762],[-104.9707,22.5417],[-104.8886,22.7903],[-105.1315,23.017],[-105.3886,23.0333],[-105.5717,22.7907],[-105.466,22.4949],[-105.7241,22.5095],[-105.6323,21.9557],[-105.4141,21.6011],[-105.2001,21.4929],[-105.2343,21.061],[-105.4783,20.7515],[-105.2908,20.6852]]]}},{"type":"Feature","id":"label-MEX-2721","properties":{"kind":"division-label","code":"MEX-2721","countryCode":"MEX","name":"Nayarit","localName":"Nayarit","labelEnglish":"Nayarit","labelLocal":"Nayarit","labelBoth":"Nayarit","type":"State","iso":"MX-NAY","qid":"Q79920"},"geometry":{"type":"Point","coordinates":[-104.824,21.7934]}},{"type":"Feature","id":"MEX-2707","properties":{"kind":"division","code":"MEX-2707","countryCode":"MEX","name":"Baja California Sur","localName":"Baja California Sur","labelEnglish":"Baja California Sur","labelLocal":"Baja California Sur","labelBoth":"Baja California Sur","type":"State","iso":"MX-BCS","qid":"Q46508"},"geometry":{"type":"MultiPolygon","coordinates":[[[[-112.1035,24.6172],[-112.2062,24.8174],[-112.1378,25.2653],[-112.3046,24.7922],[-112.1035,24.6172]]],[[[-114.0713,28.0004],[-114.0983,28.0003],[-114.1475,28.0002],[-114.207,28],[-114.1029,27.6019],[-114.3253,27.8747],[-114.4991,27.7741],[-115.0559,27.8603],[-114.4875,27.2381],[-113.8164,26.949],[-113.6371,26.7255],[-113.1637,26.7891],[-113.0607,26.5991],[-112.3435,26.1781],[-112.0631,25.6253],[-112.1449,24.8741],[-111.8031,24.5465],[-111.0397,24.1042],[-110.5773,23.6816],[-110.3074,23.541],[-110.0984,23.0176],[-109.8954,22.8742],[-109.5317,23.1082],[-109.4256,23.2972],[-109.4765,23.5602],[-109.6798,23.6482],[-109.8283,24.0628],[-110.2326,24.3432],[-110.3504,24.1145],[-110.5624,24.2125],[-110.7386,24.5546],[-110.657,24.8069],[-111.0254,25.4472],[-111.3071,25.7792],[-111.3183,26.0737],[-111.5601,26.6957],[-112.0172,26.9785],[-112.3731,27.5641],[-112.598,27.6543],[-112.7636,27.9994],[-114.0628,28.0005],[-114.0713,28.0004]]]]}},{"type":"Feature","id":"label-MEX-2707","properties":{"kind":"division-label","code":"MEX-2707","countryCode":"MEX","name":"Baja California Sur","localName":"Baja California Sur","labelEnglish":"Baja California Sur","labelLocal":"Baja California Sur","labelBoth":"Baja California Sur","type":"State","iso":"MX-BCS","qid":"Q46508"},"geometry":{"type":"Point","coordinates":[-111.452,25.0656]}},{"type":"Feature","id":"MEX-2711","properties":{"kind":"division","code":"MEX-2711","countryCode":"MEX","name":"Sinaloa","localName":"Sinaloa","labelEnglish":"Sinaloa","labelLocal":"Sinaloa","labelBoth":"Sinaloa","type":"State","iso":"MX-SIN","qid":"Q80252"},"geometry":{"type":"Polygon","coordinates":[[[-105.7241,22.5095],[-105.466,22.4949],[-105.5717,22.7907],[-105.3886,23.0333],[-105.6878,23.2972],[-105.8974,23.7135],[-105.9484,24.0733],[-106.1956,24.3898],[-106.5959,24.368],[-106.7564,24.7035],[-107.0364,24.9197],[-107.0961,25.4203],[-106.9369,25.6416],[-107.2594,25.8693],[-107.4141,26.1298],[-107.7589,26.195],[-107.8351,26.5996],[-108.0213,26.92],[-108.3743,27.0774],[-108.4665,26.9799],[-108.5074,26.8016],[-109.1393,26.3318],[-109.1563,26.3081],[-109.2314,26.2634],[-109.2836,26.2406],[-109.2929,26.2369],[-109.4405,25.7934],[-109.1313,25.5834],[-108.9009,25.7007],[-109.0347,25.4652],[-108.7797,25.4333],[-108.2838,25.1068],[-107.9952,24.6484],[-107.6241,24.4585],[-107.0359,23.9808],[-106.4298,23.2304],[-105.7241,22.5095]]]}},{"type":"Feature","id":"label-MEX-2711","properties":{"kind":"division-label","code":"MEX-2711","countryCode":"MEX","name":"Sinaloa","localName":"Sinaloa","labelEnglish":"Sinaloa","labelLocal":"Sinaloa","labelBoth":"Sinaloa","type":"State","iso":"MX-SIN","qid":"Q80252"},"geometry":{"type":"Point","coordinates":[-108.001,25.6041]}},{"type":"Feature","id":"MEX-2737","properties":{"kind":"division","code":"MEX-2737","countryCode":"MEX","name":"Yucatán","localName":"Yucatán","labelEnglish":"Yucatán","labelLocal":"Yucatán","labelBoth":"Yucatán","type":"State","iso":"MX-YUC","qid":"Q60176"},"geometry":{"type":"Polygon","coordinates":[[[-90.3811,20.824],[-90.392,20.5472],[-90.0184,20.4675],[-89.63,20.0191],[-89.4154,19.651],[-89.3688,19.8201],[-88.9112,19.9487],[-88.4453,20.1837],[-88.1607,20.4592],[-88.0139,20.4347],[-87.6749,20.6479],[-87.534,20.9557],[-87.5398,21.4993],[-88.1295,21.616],[-88.4478,21.5751],[-89.1232,21.3635],[-89.786,21.2846],[-90.3324,21.0325],[-90.3811,20.824]]]}},{"type":"Feature","id":"label-MEX-2737","properties":{"kind":"division-label","code":"MEX-2737","countryCode":"MEX","name":"Yucatán","localName":"Yucatán","labelEnglish":"Yucatán","labelLocal":"Yucatán","labelBoth":"Yucatán","type":"State","iso":"MX-YUC","qid":"Q60176"},"geometry":{"type":"Point","coordinates":[-88.9836,20.663]}},{"type":"Feature","id":"MEX-2734","properties":{"kind":"division","code":"MEX-2734","countryCode":"MEX","name":"Veracruz","localName":"Veracruz","labelEnglish":"Veracruz","labelLocal":"Veracruz","labelBoth":"Veracruz","type":"State","iso":"MX-VER","qid":"Q60130"},"geometry":{"type":"Polygon","coordinates":[[[-97.7819,22.2733],[-98.0928,22.3726],[-98.6162,22.4186],[-98.3737,22.2649],[-98.4664,21.7743],[-98.624,21.6849],[-98.5151,21.3988],[-98.4932,21.2634],[-98.1299,21.0722],[-98.2357,20.829],[-98.3932,20.877],[-98.5685,20.4723],[-98.3358,20.435],[-98.1108,20.6884],[-98.0002,20.4845],[-97.8647,20.8246],[-97.5586,20.5042],[-97.7741,20.2732],[-97.5431,20.1367],[-97.4035,20.2596],[-97.1529,20.1458],[-97.3105,19.8902],[-97.4075,19.446],[-96.982,19.288],[-97.2641,19.1604],[-97.3104,18.6845],[-97.1093,18.5001],[-96.8002,18.5505],[-96.7281,18.4102],[-96.6641,18.6689],[-96.411,18.5393],[-96.2289,18.201],[-95.8377,18.1204],[-95.9103,17.7836],[-95.797,17.5375],[-95.6123,17.5154],[-95.2084,17.7323],[-95.2547,17.5826],[-94.9385,17.2165],[-93.8734,17.1502],[-93.5895,17.3755],[-93.7338,17.6715],[-94.0767,17.882],[-94.1371,18.2074],[-94.5809,18.1898],[-94.8079,18.5236],[-95.2084,18.7086],[-95.8074,18.7521],[-95.9772,19.0583],[-96.2783,19.3146],[-96.4561,19.8688],[-97.1505,20.647],[-97.4968,21.4006],[-97.6576,21.6365],[-97.6105,21.8358],[-97.7819,22.2733]]]}},{"type":"Feature","id":"label-MEX-2734","properties":{"kind":"division-label","code":"MEX-2734","countryCode":"MEX","name":"Veracruz","localName":"Veracruz","labelEnglish":"Veracruz","labelLocal":"Veracruz","labelBoth":"Veracruz","type":"State","iso":"MX-VER","qid":"Q60130"},"geometry":{"type":"Point","coordinates":[-96.5953,19.0926]}},{"type":"Feature","id":"MEX-2719","properties":{"kind":"division","code":"MEX-2719","countryCode":"MEX","name":"Jalisco","localName":"Jalisco","labelEnglish":"Jalisco","labelLocal":"Jalisco","labelBoth":"Jalisco","type":"State","iso":"MX-JAL","qid":"Q13160"},"geometry":{"type":"Polygon","coordinates":[[[-104.5926,19.1496],[-104.2145,19.3204],[-104.0506,19.5023],[-103.8335,19.3976],[-103.6353,19.4871],[-103.4965,19.3161],[-103.4778,18.9664],[-103.1668,18.9636],[-102.5486,19.3869],[-102.7457,19.4756],[-102.7726,19.9571],[-103.0775,20.1048],[-102.4983,20.3147],[-102.0997,20.3868],[-101.9769,20.6286],[-102.0851,20.7293],[-101.855,21.1484],[-101.5727,21.3476],[-101.6369,21.5167],[-101.5205,21.8409],[-101.8454,22.0175],[-102.2312,21.6777],[-102.7605,21.7488],[-102.6405,21.5683],[-102.8083,21.2929],[-103.045,21.2883],[-103.0596,21.0445],[-103.6371,21.2546],[-103.6663,21.4879],[-103.5268,21.8172],[-103.1561,21.9984],[-103.055,22.306],[-103.3728,22.5168],[-103.4886,22.1349],[-103.6783,22.1369],[-103.608,22.5244],[-103.9832,22.7716],[-103.9588,22.3648],[-104.3297,22.2644],[-104.3987,22.0854],[-104.0984,21.7845],[-104.2103,21.5192],[-103.9447,21.3752],[-104.2241,21.1693],[-104.2856,20.708],[-104.7973,21.0176],[-105.0946,20.9181],[-105.2908,20.6852],[-105.3287,20.5137],[-105.6987,20.4069],[-105.5256,20.0319],[-105.0171,19.3685],[-104.5926,19.1496]]]}},{"type":"Feature","id":"label-MEX-2719","properties":{"kind":"division-label","code":"MEX-2719","countryCode":"MEX","name":"Jalisco","localName":"Jalisco","labelEnglish":"Jalisco","labelLocal":"Jalisco","labelBoth":"Jalisco","type":"State","iso":"MX-JAL","qid":"Q13160"},"geometry":{"type":"Point","coordinates":[-103.602,20.3026]}},{"type":"Feature","id":"MEX-2720","properties":{"kind":"division","code":"MEX-2720","countryCode":"MEX","name":"Michoacán","localName":"Michoacán","labelEnglish":"Michoacán","labelLocal":"Michoacán","labelBoth":"Michoacán","type":"State","iso":"MX-MIC","qid":"Q79861"},"geometry":{"type":"Polygon","coordinates":[[[-102.1689,17.9212],[-102.1591,18.1624],[-101.9307,18.2082],[-101.8388,18.5765],[-101.4918,18.4771],[-101.2571,18.5371],[-100.6943,18.4073],[-100.7889,18.7823],[-100.6236,18.8706],[-100.1586,19.4198],[-100.1228,19.938],[-100.286,20.2134],[-100.396,19.9643],[-101.0172,19.9513],[-100.9989,20.09],[-101.4197,20.0536],[-101.3769,20.2697],[-101.6191,20.3099],[-101.9051,20.2033],[-102.0997,20.3868],[-102.4983,20.3147],[-103.0775,20.1048],[-102.7726,19.9571],[-102.7457,19.4756],[-102.5486,19.3869],[-103.1668,18.9636],[-103.4778,18.9664],[-103.742,18.6904],[-103.4984,18.3335],[-102.7423,18.067],[-102.1689,17.9212]]]}},{"type":"Feature","id":"label-MEX-2720","properties":{"kind":"division-label","code":"MEX-2720","countryCode":"MEX","name":"Michoacán","localName":"Michoacán","labelEnglish":"Michoacán","labelLocal":"Michoacán","labelBoth":"Michoacán","type":"State","iso":"MX-MIC","qid":"Q79861"},"geometry":{"type":"Point","coordinates":[-101.936,19.2458]}},{"type":"Feature","id":"MEX-2729","properties":{"kind":"division","code":"MEX-2729","countryCode":"MEX","name":"Guerrero","localName":"Guerrero","labelEnglish":"Guerrero","labelLocal":"Guerrero","labelBoth":"Guerrero","type":"State","iso":"MX-GRO","qid":"Q60158"},"geometry":{"type":"Polygon","coordinates":[[[-98.5545,16.3183],[-98.3219,16.4372],[-98.2402,16.7026],[-98.0729,16.7791],[-98.003,17.0259],[-98.3308,17.3372],[-98.3478,17.8922],[-98.7884,18.0342],[-99.0497,18.3499],[-99.1967,18.5579],[-99.3314,18.4529],[-99.4955,18.6741],[-100.0712,18.6096],[-100.2748,18.392],[-100.4552,18.8436],[-100.6236,18.8706],[-100.7889,18.7823],[-100.6943,18.4073],[-101.2571,18.5371],[-101.4918,18.4771],[-101.8388,18.5765],[-101.9307,18.2082],[-102.1591,18.1624],[-102.1689,17.9212],[-101.8111,17.8903],[-101.6445,17.6683],[-101.1822,17.4125],[-101.059,17.2642],[-99.9917,16.9097],[-99.7412,16.7306],[-98.8565,16.5282],[-98.5545,16.3183]]]}},{"type":"Feature","id":"label-MEX-2729","properties":{"kind":"division-label","code":"MEX-2729","countryCode":"MEX","name":"Guerrero","localName":"Guerrero","labelEnglish":"Guerrero","labelLocal":"Guerrero","labelBoth":"Guerrero","type":"State","iso":"MX-GRO","qid":"Q60158"},"geometry":{"type":"Point","coordinates":[-100.091,17.7608]}},{"type":"Feature","id":"MEX-2723","properties":{"kind":"division","code":"MEX-2723","countryCode":"MEX","name":"Oaxaca","localName":"Oaxaca","labelEnglish":"Oaxaca","labelLocal":"Oaxaca","labelBoth":"Oaxaca","type":"State","iso":"MX-OAX","qid":"Q34110"},"geometry":{"type":"Polygon","coordinates":[[[-94.1149,16.0572],[-94.094,16.099],[-94.0836,16.1489],[-94.1251,16.5088],[-93.8734,17.1502],[-94.9385,17.2165],[-95.2547,17.5826],[-95.2084,17.7323],[-95.6123,17.5154],[-95.797,17.5375],[-95.9103,17.7836],[-95.8377,18.1204],[-96.2289,18.201],[-96.411,18.5393],[-96.6641,18.6689],[-96.7281,18.4102],[-97.0257,18.1223],[-97.3136,18.1446],[-97.493,17.9937],[-97.6425,18.2022],[-97.7325,18.0048],[-98.1731,18.0175],[-98.3478,17.8922],[-98.3308,17.3372],[-98.003,17.0259],[-98.0729,16.7791],[-98.2402,16.7026],[-98.3219,16.4372],[-98.5545,16.3183],[-98.1721,16.2092],[-97.7727,15.9795],[-97.266,15.9359],[-96.556,15.659],[-96.2366,15.6833],[-95.4345,15.9754],[-94.8521,16.4289],[-94.701,16.1956],[-94.1149,16.0572]]]}},{"type":"Feature","id":"label-MEX-2723","properties":{"kind":"division-label","code":"MEX-2723","countryCode":"MEX","name":"Oaxaca","localName":"Oaxaca","labelEnglish":"Oaxaca","labelLocal":"Oaxaca","labelBoth":"Oaxaca","type":"State","iso":"MX-OAX","qid":"Q34110"},"geometry":{"type":"Point","coordinates":[-96.2087,16.94]}},{"type":"Feature","id":"MEX+99?","properties":{"kind":"division","code":"MEX+99?","countryCode":"MEX","name":"MEX+99?","localName":"MEX+99?","labelEnglish":"MEX+99?","labelLocal":"MEX+99?","labelBoth":"MEX+99?","type":null,"iso":"MX-X01~","qid":null},"geometry":{"type":"Polygon","coordinates":[[[-89.6642,22.3711],[-89.6102,22.4611],[-89.6552,22.472],[-89.6642,22.3711]]]}},{"type":"Feature","id":"label-MEX+99?","properties":{"kind":"division-label","code":"MEX+99?","countryCode":"MEX","name":"MEX+99?","localName":"MEX+99?","labelEnglish":"MEX+99?","labelLocal":"MEX+99?","labelBoth":"MEX+99?","type":null,"iso":"MX-X01~","qid":null},"geometry":{"type":"Point","coordinates":[-89.6633,22.3858]}},{"type":"Feature","id":"MEX-2731","properties":{"kind":"division","code":"MEX-2731","countryCode":"MEX","name":"State of Mexico","localName":"State of Mexico","labelEnglish":"State of Mexico","labelLocal":"State of Mexico","labelBoth":"State of Mexico","type":"State","iso":"MX-MEX","qid":"Q82112"},"geometry":{"type":"Polygon","coordinates":[[[-98.6409,19.4619],[-98.6595,19.5855],[-98.6051,19.741],[-99.0177,20.0421],[-99.3866,19.7563],[-99.8441,20.3089],[-100.1228,19.938],[-100.1586,19.4198],[-100.6236,18.8706],[-100.4552,18.8436],[-100.2748,18.392],[-100.0712,18.6096],[-99.4955,18.6741],[-99.2851,19.1424],[-99.1237,19.5711],[-98.964,19.0891],[-98.6464,19.0236],[-98.6409,19.4619]]]}},{"type":"Feature","id":"label-MEX-2731","properties":{"kind":"division-label","code":"MEX-2731","countryCode":"MEX","name":"State of Mexico","localName":"State of Mexico","labelEnglish":"State of Mexico","labelLocal":"State of Mexico","labelBoth":"State of Mexico","type":"State","iso":"MX-MEX","qid":"Q82112"},"geometry":{"type":"Point","coordinates":[-99.7416,19.3275]}},{"type":"Feature","id":"MEX-2724","properties":{"kind":"division","code":"MEX-2724","countryCode":"MEX","name":"Puebla","localName":"Puebla","labelEnglish":"Puebla","labelLocal":"Puebla","labelBoth":"Puebla","type":"State","iso":"MX-PUE","qid":"Q79923"},"geometry":{"type":"Polygon","coordinates":[[[-98.6464,19.0236],[-98.8072,18.4948],[-99.0497,18.3499],[-98.7884,18.0342],[-98.3478,17.8922],[-98.1731,18.0175],[-97.7325,18.0048],[-97.6425,18.2022],[-97.493,17.9937],[-97.3136,18.1446],[-97.0257,18.1223],[-96.7281,18.4102],[-96.8002,18.5505],[-97.1093,18.5001],[-97.3104,18.6845],[-97.2641,19.1604],[-96.982,19.288],[-97.4075,19.446],[-97.3105,19.8902],[-97.1529,20.1458],[-97.4035,20.2596],[-97.5431,20.1367],[-97.7741,20.2732],[-97.5586,20.5042],[-97.8647,20.8246],[-98.0002,20.4845],[-98.2459,20.2024],[-98.101,20.0862],[-98.245,19.8713],[-98.1431,19.6728],[-97.6212,19.3646],[-97.9291,19.1585],[-98.1935,19.1065],[-98.4659,19.4383],[-98.6409,19.4619],[-98.6464,19.0236]]]}},{"type":"Feature","id":"label-MEX-2724","properties":{"kind":"division-label","code":"MEX-2724","countryCode":"MEX","name":"Puebla","localName":"Puebla","labelEnglish":"Puebla","labelLocal":"Puebla","labelBoth":"Puebla","type":"State","iso":"MX-PUE","qid":"Q79923"},"geometry":{"type":"Point","coordinates":[-97.8889,18.549]}},{"type":"Feature","id":"MEX-2732","properties":{"kind":"division","code":"MEX-2732","countryCode":"MEX","name":"Morelos","localName":"Morelos","labelEnglish":"Morelos","labelLocal":"Morelos","labelBoth":"Morelos","type":"State","iso":"MX-MOR","qid":"Q66117"},"geometry":{"type":"Polygon","coordinates":[[[-98.6464,19.0236],[-98.964,19.0891],[-99.2851,19.1424],[-99.4955,18.6741],[-99.3314,18.4529],[-99.1967,18.5579],[-99.0497,18.3499],[-98.8072,18.4948],[-98.6464,19.0236]]]}},{"type":"Feature","id":"label-MEX-2732","properties":{"kind":"division-label","code":"MEX-2732","countryCode":"MEX","name":"Morelos","localName":"Morelos","labelEnglish":"Morelos","labelLocal":"Morelos","labelBoth":"Morelos","type":"State","iso":"MX-MOR","qid":"Q66117"},"geometry":{"type":"Point","coordinates":[-99.0785,18.742]}},{"type":"Feature","id":"MEX-2733","properties":{"kind":"division","code":"MEX-2733","countryCode":"MEX","name":"Querétaro","localName":"Querétaro","labelEnglish":"Querétaro","labelLocal":"Querétaro","labelBoth":"Querétaro","type":"State","iso":"MX-QUE","qid":"Q79754"},"geometry":{"type":"Polygon","coordinates":[[[-99.0434,21.2683],[-99.1975,21.6455],[-99.3812,21.4326],[-99.7906,21.4191],[-99.7075,21.2469],[-100.0525,21.1582],[-100.1058,20.9167],[-100.4597,20.9675],[-100.5652,20.7398],[-100.4846,20.4356],[-100.286,20.2134],[-100.1228,19.938],[-99.8441,20.3089],[-99.8195,20.5125],[-99.49,20.6611],[-99.3641,21.1112],[-99.0434,21.2683]]]}},{"type":"Feature","id":"label-MEX-2733","properties":{"kind":"division-label","code":"MEX-2733","countryCode":"MEX","name":"Querétaro","localName":"Querétaro","labelEnglish":"Querétaro","labelLocal":"Querétaro","labelBoth":"Querétaro","type":"State","iso":"MX-QUE","qid":"Q79754"},"geometry":{"type":"Point","coordinates":[-99.9663,20.7392]}},{"type":"Feature","id":"MEX-2730","properties":{"kind":"division","code":"MEX-2730","countryCode":"MEX","name":"Hidalgo","localName":"Hidalgo","labelEnglish":"Hidalgo","labelLocal":"Hidalgo","labelBoth":"Hidalgo","type":"State","iso":"MX-HID","qid":"Q80903"},"geometry":{"type":"Polygon","coordinates":[[[-99.0434,21.2683],[-99.3641,21.1112],[-99.49,20.6611],[-99.8195,20.5125],[-99.8441,20.3089],[-99.3866,19.7563],[-99.0177,20.0421],[-98.6051,19.741],[-98.6595,19.5855],[-98.1431,19.6728],[-98.245,19.8713],[-98.101,20.0862],[-98.2459,20.2024],[-98.0002,20.4845],[-98.1108,20.6884],[-98.3358,20.435],[-98.5685,20.4723],[-98.3932,20.877],[-98.2357,20.829],[-98.1299,21.0722],[-98.4932,21.2634],[-98.5151,21.3988],[-98.5923,21.2122],[-99.0434,21.2683]]]}},{"type":"Feature","id":"label-MEX-2730","properties":{"kind":"division-label","code":"MEX-2730","countryCode":"MEX","name":"Hidalgo","localName":"Hidalgo","labelEnglish":"Hidalgo","labelLocal":"Hidalgo","labelBoth":"Hidalgo","type":"State","iso":"MX-HID","qid":"Q80903"},"geometry":{"type":"Point","coordinates":[-98.9221,20.5354]}},{"type":"Feature","id":"MEX-2728","properties":{"kind":"division","code":"MEX-2728","countryCode":"MEX","name":"Guanajuato","localName":"Guanajuato","labelEnglish":"Guanajuato","labelLocal":"Guanajuato","labelBoth":"Guanajuato","type":"State","iso":"MX-GUA","qid":"Q46475"},"geometry":{"type":"Polygon","coordinates":[[[-99.7906,21.4191],[-100.404,21.6777],[-100.6273,21.4918],[-100.9615,21.7504],[-101.5205,21.8409],[-101.6369,21.5167],[-101.5727,21.3476],[-101.855,21.1484],[-102.0851,20.7293],[-101.9769,20.6286],[-102.0997,20.3868],[-101.9051,20.2033],[-101.6191,20.3099],[-101.3769,20.2697],[-101.4197,20.0536],[-100.9989,20.09],[-101.0172,19.9513],[-100.396,19.9643],[-100.286,20.2134],[-100.4846,20.4356],[-100.5652,20.7398],[-100.4597,20.9675],[-100.1058,20.9167],[-100.0525,21.1582],[-99.7075,21.2469],[-99.7906,21.4191]]]}},{"type":"Feature","id":"label-MEX-2728","properties":{"kind":"division-label","code":"MEX-2728","countryCode":"MEX","name":"Guanajuato","localName":"Guanajuato","labelEnglish":"Guanajuato","labelLocal":"Guanajuato","labelBoth":"Guanajuato","type":"State","iso":"MX-GUA","qid":"Q46475"},"geometry":{"type":"Point","coordinates":[-100.904,20.8141]}},{"type":"Feature","id":"MEX-2715","properties":{"kind":"division","code":"MEX-2715","countryCode":"MEX","name":"San Luis Potosí","localName":"San Luis Potosí","labelEnglish":"San Luis Potosí","labelLocal":"San Luis Potosí","labelBoth":"San Luis Potosí","type":"State","iso":"MX-SLP","qid":"Q78980"},"geometry":{"type":"Polygon","coordinates":[[[-100.8284,24.565],[-101.2455,23.9927],[-102.2997,23.2309],[-102.1169,22.757],[-101.8327,22.4821],[-101.3519,22.5896],[-101.3224,22.1016],[-101.5205,21.8409],[-100.9615,21.7504],[-100.6273,21.4918],[-100.404,21.6777],[-99.7906,21.4191],[-99.3812,21.4326],[-99.1975,21.6455],[-99.0434,21.2683],[-98.5923,21.2122],[-98.5151,21.3988],[-98.624,21.6849],[-98.4664,21.7743],[-98.3737,22.2649],[-98.6162,22.4186],[-98.8124,22.3625],[-99.2484,22.4589],[-99.3792,22.6834],[-99.5277,22.6255],[-99.9874,22.7773],[-99.9147,23.0178],[-100.0573,23.2411],[-100.4393,23.229],[-100.4876,23.8215],[-100.6103,24.2833],[-100.8284,24.565]]]}},{"type":"Feature","id":"label-MEX-2715","properties":{"kind":"division-label","code":"MEX-2715","countryCode":"MEX","name":"San Luis Potosí","localName":"San Luis Potosí","labelEnglish":"San Luis Potosí","labelLocal":"San Luis Potosí","labelBoth":"San Luis Potosí","type":"State","iso":"MX-SLP","qid":"Q78980"},"geometry":{"type":"Point","coordinates":[-100.324,22.4465]}},{"type":"Feature","id":"MEX-2713","properties":{"kind":"division","code":"MEX-2713","countryCode":"MEX","name":"Zacatecas","localName":"Zacatecas","labelEnglish":"Zacatecas","labelLocal":"Zacatecas","labelBoth":"Zacatecas","type":"State","iso":"MX-ZAC","qid":"Q80269"},"geometry":{"type":"Polygon","coordinates":[[[-100.8284,24.565],[-101.8607,25.0756],[-102.1734,25.163],[-102.6682,25.0789],[-102.4917,24.824],[-102.4902,24.4742],[-102.8009,24.41],[-103.2466,24.4911],[-103.8468,24.0707],[-103.8072,23.692],[-104.109,23.4353],[-104.2088,22.6437],[-104.3114,22.3191],[-104.3297,22.2644],[-103.9588,22.3648],[-103.9832,22.7716],[-103.608,22.5244],[-103.6783,22.1369],[-103.4886,22.1349],[-103.3728,22.5168],[-103.055,22.306],[-103.1561,21.9984],[-103.5268,21.8172],[-103.6663,21.4879],[-103.6371,21.2546],[-103.0596,21.0445],[-103.045,21.2883],[-102.8083,21.2929],[-102.6405,21.5683],[-102.7605,21.7488],[-102.8418,21.933],[-102.6478,22.2129],[-102.2916,22.4648],[-101.9989,22.2753],[-101.8454,22.0175],[-101.5205,21.8409],[-101.3224,22.1016],[-101.3519,22.5896],[-101.8327,22.4821],[-102.1169,22.757],[-102.2997,23.2309],[-101.2455,23.9927],[-100.8284,24.565]]]}},{"type":"Feature","id":"label-MEX-2713","properties":{"kind":"division-label","code":"MEX-2713","countryCode":"MEX","name":"Zacatecas","localName":"Zacatecas","labelEnglish":"Zacatecas","labelLocal":"Zacatecas","labelBoth":"Zacatecas","type":"State","iso":"MX-ZAC","qid":"Q80269"},"geometry":{"type":"Point","coordinates":[-102.579,23.3785]}},{"type":"Feature","id":"MEX-2717","properties":{"kind":"division","code":"MEX-2717","countryCode":"MEX","name":"Aguascalientes","localName":"Aguascalientes","labelEnglish":"Aguascalientes","labelLocal":"Aguascalientes","labelBoth":"Aguascalientes","type":"State","iso":"MX-AGU","qid":"Q79952"},"geometry":{"type":"Polygon","coordinates":[[[-101.8454,22.0175],[-101.9989,22.2753],[-102.2916,22.4648],[-102.6478,22.2129],[-102.8418,21.933],[-102.7605,21.7488],[-102.2312,21.6777],[-101.8454,22.0175]]]}},{"type":"Feature","id":"label-MEX-2717","properties":{"kind":"division-label","code":"MEX-2717","countryCode":"MEX","name":"Aguascalientes","localName":"Aguascalientes","labelEnglish":"Aguascalientes","labelLocal":"Aguascalientes","labelBoth":"Aguascalientes","type":"State","iso":"MX-AGU","qid":"Q79952"},"geometry":{"type":"Point","coordinates":[-102.351,22.0375]}},{"type":"Feature","id":"MEX-2710","properties":{"kind":"division","code":"MEX-2710","countryCode":"MEX","name":"Durango","localName":"Durango","labelEnglish":"Durango","labelLocal":"Durango","labelBoth":"Durango","type":"State","iso":"MX-DUR","qid":"Q79918"},"geometry":{"type":"Polygon","coordinates":[[[-106.9369,25.6416],[-107.0961,25.4203],[-107.0364,24.9197],[-106.7564,24.7035],[-106.5959,24.368],[-106.1956,24.3898],[-105.9484,24.0733],[-105.8974,23.7135],[-105.6878,23.2972],[-105.3886,23.0333],[-105.1315,23.017],[-104.8886,22.7903],[-104.9707,22.5417],[-104.7743,22.6762],[-104.5874,22.4596],[-104.3346,22.4749],[-104.3114,22.3191],[-104.2088,22.6437],[-104.109,23.4353],[-103.8072,23.692],[-103.8468,24.0707],[-103.2466,24.4911],[-102.8009,24.41],[-102.4902,24.4742],[-102.4917,24.824],[-102.6682,25.0789],[-102.8431,24.7283],[-103.2515,24.923],[-103.5092,25.2978],[-103.3202,25.6987],[-103.2849,26.3637],[-103.6273,26.6439],[-103.9415,26.7604],[-104.2346,26.7232],[-104.5198,26.3715],[-105.1168,26.5524],[-105.3275,26.4595],[-106.0275,26.8386],[-106.2272,26.4292],[-106.4322,26.3618],[-106.3735,26.1676],[-106.5445,25.7799],[-106.9369,25.6416]]]}},{"type":"Feature","id":"label-MEX-2710","properties":{"kind":"division-label","code":"MEX-2710","countryCode":"MEX","name":"Durango","localName":"Durango","labelEnglish":"Durango","labelLocal":"Durango","labelBoth":"Durango","type":"State","iso":"MX-DUR","qid":"Q79918"},"geometry":{"type":"Point","coordinates":[-104.808,24.566]}},{"type":"Feature","id":"MEX-2726","properties":{"kind":"division","code":"MEX-2726","countryCode":"MEX","name":"Tlaxcala","localName":"Tlaxcala","labelEnglish":"Tlaxcala","labelLocal":"Tlaxcala","labelBoth":"Tlaxcala","type":"State","iso":"MX-TLA","qid":"Q82681"},"geometry":{"type":"Polygon","coordinates":[[[-98.1431,19.6728],[-98.6595,19.5855],[-98.6409,19.4619],[-98.4659,19.4383],[-98.1935,19.1065],[-97.9291,19.1585],[-97.6212,19.3646],[-98.1431,19.6728]]]}},{"type":"Feature","id":"label-MEX-2726","properties":{"kind":"division-label","code":"MEX-2726","countryCode":"MEX","name":"Tlaxcala","localName":"Tlaxcala","labelEnglish":"Tlaxcala","labelLocal":"Tlaxcala","labelBoth":"Tlaxcala","type":"State","iso":"MX-TLA","qid":"Q82681"},"geometry":{"type":"Point","coordinates":[-98.161,19.3956]}},{"type":"Feature","id":"MEX-2727","properties":{"kind":"division","code":"MEX-2727","countryCode":"MEX","name":"Mexico","localName":"Mexico","labelEnglish":"Mexico","labelLocal":"Mexico","labelBoth":"Mexico","type":"Federal District","iso":"MX-DIF","qid":"Q1489"},"geometry":{"type":"Polygon","coordinates":[[[-98.964,19.0891],[-99.1237,19.5711],[-99.2851,19.1424],[-98.964,19.0891]]]}},{"type":"Feature","id":"label-MEX-2727","properties":{"kind":"division-label","code":"MEX-2727","countryCode":"MEX","name":"Mexico","localName":"Mexico","labelEnglish":"Mexico","labelLocal":"Mexico","labelBoth":"Mexico","type":"Federal District","iso":"MX-DIF","qid":"Q1489"},"geometry":{"type":"Point","coordinates":[-99.1369,19.3266]}}]}