{"type":"FeatureCollection","features":[{"type":"Feature","id":"MHL-4968","properties":{"kind":"division","code":"MHL-4968","countryCode":"MHL","name":"Ralik Chain","localName":"Ralik Chain","labelEnglish":"Ralik Chain","labelLocal":"Ralik Chain","labelBoth":"Ralik Chain","type":null,"iso":"MH-L","qid":null},"geometry":{"type":"Polygon","coordinates":[[[169.5903,5.8009],[169.635,5.829],[169.6555,5.9429],[169.6175,5.8183],[169.5903,5.8009]]]}},{"type":"Feature","id":"label-MHL-4968","properties":{"kind":"division-label","code":"MHL-4968","countryCode":"MHL","name":"Ralik Chain","localName":"Ralik Chain","labelEnglish":"Ralik Chain","labelLocal":"Ralik Chain","labelBoth":"Ralik Chain","type":null,"iso":"MH-L","qid":null},"geometry":{"type":"Point","coordinates":[168.959,7.59556]}},{"type":"Feature","id":"MHL-4969","properties":{"kind":"division","code":"MHL-4969","countryCode":"MHL","name":"Ratak Chain","localName":"Ratak Chain","labelEnglish":"Ratak Chain","labelLocal":"Ratak Chain","labelBoth":"Ratak Chain","type":null,"iso":"MH-T","qid":"Q700048"},"geometry":{"type":"Polygon","coordinates":[[[171.3936,7.1099],[171.2022,7.0725],[171.2632,7.0677],[171.3936,7.1099]]]}},{"type":"Feature","id":"label-MHL-4969","properties":{"kind":"division-label","code":"MHL-4969","countryCode":"MHL","name":"Ratak Chain","localName":"Ratak Chain","labelEnglish":"Ratak Chain","labelLocal":"Ratak Chain","labelBoth":"Ratak Chain","type":null,"iso":"MH-T","qid":"Q700048"},"geometry":{"type":"Point","coordinates":[170.243,9.45915]}}]}