{"type":"FeatureCollection","features":[{"type":"Feature","id":"MKD-4845","properties":{"kind":"division","code":"MKD-4845","countryCode":"MKD","name":"Struga","localName":"Struga","labelEnglish":"Struga","labelLocal":"Struga","labelBoth":"Struga","type":"Statistical Region","iso":"MK-72","qid":"Q749618"},"geometry":{"type":"Polygon","coordinates":[[[20.539,41.4029],[20.4781,41.3216],[20.4954,41.2503],[20.6223,41.2459],[20.5127,41.2101],[20.5974,41.0863],[20.6539,41.0753],[20.6873,41.4226],[20.6848,41.4249],[20.6784,41.4255],[20.539,41.4029]]]}},{"type":"Feature","id":"label-MKD-4845","properties":{"kind":"division-label","code":"MKD-4845","countryCode":"MKD","name":"Struga","localName":"Struga","labelEnglish":"Struga","labelLocal":"Struga","labelBoth":"Struga","type":"Statistical Region","iso":"MK-72","qid":"Q749618"},"geometry":{"type":"Point","coordinates":[20.602,41.1813]}},{"type":"Feature","id":"MKD-2951","properties":{"kind":"division","code":"MKD-2951","countryCode":"MKD","name":"Centar Župa","localName":"Centar Župa","labelEnglish":"Centar Župa","labelLocal":"Centar Župa","labelBoth":"Centar Župa","type":"Statistical Region","iso":"MK-78","qid":"Q1779085"},"geometry":{"type":"Polygon","coordinates":[[[20.539,41.4029],[20.6784,41.4255],[20.4816,41.4683],[20.539,41.4029]]]}},{"type":"Feature","id":"label-MKD-2951","properties":{"kind":"division-label","code":"MKD-2951","countryCode":"MKD","name":"Centar Župa","localName":"Centar Župa","labelEnglish":"Centar Župa","labelLocal":"Centar Župa","labelBoth":"Centar Župa","type":"Statistical Region","iso":"MK-78","qid":"Q1779085"},"geometry":{"type":"Point","coordinates":[20.5799,41.4644]}},{"type":"Feature","id":"MKD-2952","properties":{"kind":"division","code":"MKD-2952","countryCode":"MKD","name":"Debar","localName":"Debar","labelEnglish":"Debar","labelLocal":"Debar","labelBoth":"Debar","type":"Statistical Region","iso":"MK-21","qid":"Q1344996"},"geometry":{"type":"Polygon","coordinates":[[[20.4816,41.4683],[20.6784,41.4255],[20.6848,41.4249],[20.7289,41.4788],[20.5347,41.5873],[20.4816,41.4683]]]}},{"type":"Feature","id":"label-MKD-2952","properties":{"kind":"division-label","code":"MKD-2952","countryCode":"MKD","name":"Debar","localName":"Debar","labelEnglish":"Debar","labelLocal":"Debar","labelBoth":"Debar","type":"Statistical Region","iso":"MK-21","qid":"Q1344996"},"geometry":{"type":"Point","coordinates":[20.5863,41.541]}},{"type":"Feature","id":"MKD-2955","properties":{"kind":"division","code":"MKD-2955","countryCode":"MKD","name":"Mavrovo and Rostuša","localName":"Mavrovo and Rostuša","labelEnglish":"Mavrovo and Rostuša","labelLocal":"Mavrovo and Rostuša","labelBoth":"Mavrovo and Rostuša","type":"Statistical Region","iso":"MK-50","qid":"Q1323332"},"geometry":{"type":"Polygon","coordinates":[[[20.5347,41.5873],[20.7289,41.4788],[20.8095,41.6147],[20.8974,41.6645],[20.5501,41.8001],[20.5347,41.5873]]]}},{"type":"Feature","id":"label-MKD-2955","properties":{"kind":"division-label","code":"MKD-2955","countryCode":"MKD","name":"Mavrovo and Rostuša","localName":"Mavrovo and Rostuša","labelEnglish":"Mavrovo and Rostuša","labelLocal":"Mavrovo and Rostuša","labelBoth":"Mavrovo and Rostuša","type":"Statistical Region","iso":"MK-50","qid":"Q1323332"},"geometry":{"type":"Point","coordinates":[20.6986,41.6315]}},{"type":"Feature","id":"MKD-2962","properties":{"kind":"division","code":"MKD-2962","countryCode":"MKD","name":"Gostivar","localName":"Gostivar","labelEnglish":"Gostivar","labelLocal":"Gostivar","labelBoth":"Gostivar","type":"Statistical Region","iso":"MK-19","qid":"Q521112"},"geometry":{"type":"Polygon","coordinates":[[[20.5501,41.8001],[20.8974,41.6645],[20.985,41.6245],[21.0529,41.6476],[21.0791,41.7773],[20.9559,41.8495],[20.7144,41.8592],[20.5671,41.8732],[20.5408,41.8449],[20.5501,41.8001]]]}},{"type":"Feature","id":"label-MKD-2962","properties":{"kind":"division-label","code":"MKD-2962","countryCode":"MKD","name":"Gostivar","localName":"Gostivar","labelEnglish":"Gostivar","labelLocal":"Gostivar","labelBoth":"Gostivar","type":"Statistical Region","iso":"MK-19","qid":"Q521112"},"geometry":{"type":"Point","coordinates":[20.8095,41.7855]}},{"type":"Feature","id":"MKD-2895","properties":{"kind":"division","code":"MKD-2895","countryCode":"MKD","name":"Vevčani","localName":"Vevčani","labelEnglish":"Vevčani","labelLocal":"Vevčani","labelBoth":"Vevčani","type":"Statistical Region","iso":"MK-12","qid":"Q2029825"},"geometry":{"type":"Polygon","coordinates":[[[20.5127,41.2101],[20.6223,41.2459],[20.4954,41.2503],[20.5127,41.2101]]]}},{"type":"Feature","id":"label-MKD-2895","properties":{"kind":"division-label","code":"MKD-2895","countryCode":"MKD","name":"Vevčani","localName":"Vevčani","labelEnglish":"Vevčani","labelLocal":"Vevčani","labelBoth":"Vevčani","type":"Statistical Region","iso":"MK-12","qid":"Q2029825"},"geometry":{"type":"Point","coordinates":[20.5689,41.2362]}},{"type":"Feature","id":"MKD-2898","properties":{"kind":"division","code":"MKD-2898","countryCode":"MKD","name":"Ohrid","localName":"Ohrid","labelEnglish":"Ohrid","labelLocal":"Ohrid","labelBoth":"Ohrid","type":"Statistical Region","iso":"MK-58","qid":"Q1125333"},"geometry":{"type":"Polygon","coordinates":[[[20.6641,41.0591],[20.8365,40.9239],[21.0394,41.2119],[21.0315,41.225],[20.6641,41.0591]]]}},{"type":"Feature","id":"label-MKD-2898","properties":{"kind":"division-label","code":"MKD-2898","countryCode":"MKD","name":"Ohrid","localName":"Ohrid","labelEnglish":"Ohrid","labelLocal":"Ohrid","labelBoth":"Ohrid","type":"Statistical Region","iso":"MK-58","qid":"Q1125333"},"geometry":{"type":"Point","coordinates":[20.8501,41.0273]}},{"type":"Feature","id":"MKD-2899","properties":{"kind":"division","code":"MKD-2899","countryCode":"MKD","name":"Debarca","localName":"Debarca","labelEnglish":"Debarca","labelLocal":"Debarca","labelBoth":"Debarca","type":"Statistical Region","iso":"MK-22","qid":"Q1323340"},"geometry":{"type":"Polygon","coordinates":[[[20.6641,41.0591],[21.0315,41.225],[20.9555,41.3242],[20.6873,41.4226],[20.6539,41.0753],[20.6641,41.0591]]]}},{"type":"Feature","id":"label-MKD-2899","properties":{"kind":"division-label","code":"MKD-2899","countryCode":"MKD","name":"Debarca","localName":"Debarca","labelEnglish":"Debarca","labelLocal":"Debarca","labelBoth":"Debarca","type":"Statistical Region","iso":"MK-22","qid":"Q1323340"},"geometry":{"type":"Point","coordinates":[20.8594,41.3337]}},{"type":"Feature","id":"MKD-2894","properties":{"kind":"division","code":"MKD-2894","countryCode":"MKD","name":"Resen","localName":"Resen","labelEnglish":"Resen","labelLocal":"Resen","labelBoth":"Resen","type":"Statistical Region","iso":"MK-66","qid":"Q740591"},"geometry":{"type":"Polygon","coordinates":[[[20.9653,40.8494],[21.2458,40.8632],[21.097,41.1258],[21.0394,41.2119],[20.8365,40.9239],[20.9653,40.8494]]]}},{"type":"Feature","id":"label-MKD-2894","properties":{"kind":"division-label","code":"MKD-2894","countryCode":"MKD","name":"Resen","localName":"Resen","labelEnglish":"Resen","labelLocal":"Resen","labelBoth":"Resen","type":"Statistical Region","iso":"MK-66","qid":"Q740591"},"geometry":{"type":"Point","coordinates":[21.0472,41.027]}},{"type":"Feature","id":"MKD-2999","properties":{"kind":"division","code":"MKD-2999","countryCode":"MKD","name":"Novo Selo","localName":"Novo Selo","labelEnglish":"Novo Selo","labelLocal":"Novo Selo","labelBoth":"Novo Selo","type":"Statistical Region","iso":"MK-56","qid":"Q1946579"},"geometry":{"type":"Polygon","coordinates":[[[22.917,41.3358],[22.9436,41.5232],[22.8581,41.5171],[22.7862,41.3973],[22.7968,41.337],[22.917,41.3358]]]}},{"type":"Feature","id":"label-MKD-2999","properties":{"kind":"division-label","code":"MKD-2999","countryCode":"MKD","name":"Novo Selo","localName":"Novo Selo","labelEnglish":"Novo Selo","labelLocal":"Novo Selo","labelBoth":"Novo Selo","type":"Statistical Region","iso":"MK-56","qid":"Q1946579"},"geometry":{"type":"Point","coordinates":[22.8701,41.4278]}},{"type":"Feature","id":"MKD-3000","properties":{"kind":"division","code":"MKD-3000","countryCode":"MKD","name":"Dojran","localName":"Dojran","labelEnglish":"Dojran","labelLocal":"Dojran","labelBoth":"Dojran","type":"Statistical Region","iso":"MK-26","qid":"Q1996413"},"geometry":{"type":"Polygon","coordinates":[[[22.742,41.287],[22.5664,41.2415],[22.6572,41.177],[22.742,41.287]]]}},{"type":"Feature","id":"label-MKD-3000","properties":{"kind":"division-label","code":"MKD-3000","countryCode":"MKD","name":"Dojran","localName":"Dojran","labelEnglish":"Dojran","labelLocal":"Dojran","labelBoth":"Dojran","type":"Statistical Region","iso":"MK-26","qid":"Q1996413"},"geometry":{"type":"Point","coordinates":[22.6539,41.2492]}},{"type":"Feature","id":"MKD-2994","properties":{"kind":"division","code":"MKD-2994","countryCode":"MKD","name":"Valandovo","localName":"Valandovo","labelEnglish":"Valandovo","labelLocal":"Valandovo","labelBoth":"Valandovo","type":"Statistical Region","iso":"MK-10","qid":"Q2018965"},"geometry":{"type":"Polygon","coordinates":[[[22.7623,41.3225],[22.4458,41.446],[22.33,41.4247],[22.3365,41.378],[22.5046,41.213],[22.5664,41.2415],[22.742,41.287],[22.7623,41.3225]]]}},{"type":"Feature","id":"label-MKD-2994","properties":{"kind":"division-label","code":"MKD-2994","countryCode":"MKD","name":"Valandovo","localName":"Valandovo","labelEnglish":"Valandovo","labelLocal":"Valandovo","labelBoth":"Valandovo","type":"Statistical Region","iso":"MK-10","qid":"Q2018965"},"geometry":{"type":"Point","coordinates":[22.5432,41.2911]}},{"type":"Feature","id":"MKD-2993","properties":{"kind":"division","code":"MKD-2993","countryCode":"MKD","name":"Strumica","localName":"Strumica","labelEnglish":"Strumica","labelLocal":"Strumica","labelBoth":"Strumica","type":"Statistical Region","iso":"MK-73","qid":"Q2308287"},"geometry":{"type":"Polygon","coordinates":[[[22.7968,41.337],[22.7862,41.3973],[22.6743,41.4729],[22.5089,41.4666],[22.4458,41.446],[22.7623,41.3225],[22.7968,41.337]]]}},{"type":"Feature","id":"label-MKD-2993","properties":{"kind":"division-label","code":"MKD-2993","countryCode":"MKD","name":"Strumica","localName":"Strumica","labelEnglish":"Strumica","labelLocal":"Strumica","labelBoth":"Strumica","type":"Statistical Region","iso":"MK-73","qid":"Q2308287"},"geometry":{"type":"Point","coordinates":[22.6211,41.3841]}},{"type":"Feature","id":"MKD-2996","properties":{"kind":"division","code":"MKD-2996","countryCode":"MKD","name":"Bogdanci","localName":"Bogdanci","labelEnglish":"Bogdanci","labelLocal":"Bogdanci","labelBoth":"Bogdanci","type":"Statistical Region","iso":"MK-05","qid":"Q1992752"},"geometry":{"type":"Polygon","coordinates":[[[22.6572,41.177],[22.5664,41.2415],[22.5046,41.213],[22.5866,41.1241],[22.6572,41.177]]]}},{"type":"Feature","id":"label-MKD-2996","properties":{"kind":"division-label","code":"MKD-2996","countryCode":"MKD","name":"Bogdanci","localName":"Bogdanci","labelEnglish":"Bogdanci","labelLocal":"Bogdanci","labelBoth":"Bogdanci","type":"Statistical Region","iso":"MK-05","qid":"Q1992752"},"geometry":{"type":"Point","coordinates":[22.5841,41.1772]}},{"type":"Feature","id":"MKD-2998","properties":{"kind":"division","code":"MKD-2998","countryCode":"MKD","name":"Gevgelija","localName":"Gevgelija","labelEnglish":"Gevgelija","labelLocal":"Gevgelija","labelBoth":"Gevgelija","type":"Statistical Region","iso":"MK-18","qid":"Q2018974"},"geometry":{"type":"Polygon","coordinates":[[[22.5866,41.1241],[22.5046,41.213],[22.3365,41.378],[22.282,41.3059],[22.2136,41.1607],[22.5866,41.1241]]]}},{"type":"Feature","id":"label-MKD-2998","properties":{"kind":"division-label","code":"MKD-2998","countryCode":"MKD","name":"Gevgelija","localName":"Gevgelija","labelEnglish":"Gevgelija","labelLocal":"Gevgelija","labelBoth":"Gevgelija","type":"Statistical Region","iso":"MK-18","qid":"Q2018974"},"geometry":{"type":"Point","coordinates":[22.3973,41.243]}},{"type":"Feature","id":"MKD-2936","properties":{"kind":"division","code":"MKD-2936","countryCode":"MKD","name":"Kavadarci","localName":"Kavadarci","labelEnglish":"Kavadarci","labelLocal":"Kavadarci","labelBoth":"Kavadarci","type":"Statistical Region","iso":"MK-36","qid":"Q1155055"},"geometry":{"type":"Polygon","coordinates":[[[22.2136,41.1607],[22.282,41.3059],[22.0848,41.3493],[21.9838,41.503],[21.8098,41.4565],[21.772,41.4413],[21.9255,41.1068],[22.2136,41.1607]]]}},{"type":"Feature","id":"label-MKD-2936","properties":{"kind":"division-label","code":"MKD-2936","countryCode":"MKD","name":"Kavadarci","localName":"Kavadarci","labelEnglish":"Kavadarci","labelLocal":"Kavadarci","labelBoth":"Kavadarci","type":"Statistical Region","iso":"MK-36","qid":"Q1155055"},"geometry":{"type":"Point","coordinates":[22.0373,41.3234]}},{"type":"Feature","id":"MKD-2947","properties":{"kind":"division","code":"MKD-2947","countryCode":"MKD","name":"Novaci","localName":"Novaci","labelEnglish":"Novaci","labelLocal":"Novaci","labelBoth":"Novaci","type":"Statistical Region","iso":"MK-55","qid":"Q2088022"},"geometry":{"type":"Polygon","coordinates":[[[21.7571,40.9225],[21.8963,41.0647],[21.5993,41.1547],[21.43,41.084],[21.5057,40.9009],[21.7571,40.9225]]]}},{"type":"Feature","id":"label-MKD-2947","properties":{"kind":"division-label","code":"MKD-2947","countryCode":"MKD","name":"Novaci","localName":"Novaci","labelEnglish":"Novaci","labelLocal":"Novaci","labelBoth":"Novaci","type":"Statistical Region","iso":"MK-55","qid":"Q2088022"},"geometry":{"type":"Point","coordinates":[21.6586,41.0253]}},{"type":"Feature","id":"MKD-2903","properties":{"kind":"division","code":"MKD-2903","countryCode":"MKD","name":"Prilep","localName":"Prilep","labelEnglish":"Prilep","labelLocal":"Prilep","labelBoth":"Prilep","type":"Statistical Region","iso":"MK-62","qid":"Q6312454"},"geometry":{"type":"Polygon","coordinates":[[[21.9255,41.1068],[21.772,41.4413],[21.6026,41.4435],[21.4102,41.3508],[21.3646,41.2462],[21.5993,41.1547],[21.8963,41.0647],[21.9255,41.1068]]]}},{"type":"Feature","id":"label-MKD-2903","properties":{"kind":"division-label","code":"MKD-2903","countryCode":"MKD","name":"Prilep","localName":"Prilep","labelEnglish":"Prilep","labelLocal":"Prilep","labelBoth":"Prilep","type":"Statistical Region","iso":"MK-62","qid":"Q6312454"},"geometry":{"type":"Point","coordinates":[21.6444,41.2806]}},{"type":"Feature","id":"MKD-2896","properties":{"kind":"division","code":"MKD-2896","countryCode":"MKD","name":"Bitola","localName":"Bitola","labelEnglish":"Bitola","labelLocal":"Bitola","labelBoth":"Bitola","type":"Statistical Region","iso":"MK-04","qid":"Q159380"},"geometry":{"type":"Polygon","coordinates":[[[21.5057,40.9009],[21.43,41.084],[21.314,41.2103],[21.2899,41.2188],[21.097,41.1258],[21.2458,40.8632],[21.5057,40.9009]]]}},{"type":"Feature","id":"label-MKD-2896","properties":{"kind":"division-label","code":"MKD-2896","countryCode":"MKD","name":"Bitola","localName":"Bitola","labelEnglish":"Bitola","labelLocal":"Bitola","labelBoth":"Bitola","type":"Statistical Region","iso":"MK-04","qid":"Q159380"},"geometry":{"type":"Point","coordinates":[21.2925,41.0402]}},{"type":"Feature","id":"MKD-2920","properties":{"kind":"division","code":"MKD-2920","countryCode":"MKD","name":"Lipkovo","localName":"Lipkovo","labelEnglish":"Lipkovo","labelLocal":"Lipkovo","labelBoth":"Lipkovo","type":"Statistical Region","iso":"MK-48","qid":"Q2041236"},"geometry":{"type":"Polygon","coordinates":[[[21.4815,42.2478],[21.472,42.2391],[21.4863,42.1418],[21.511,42.1017],[21.5409,42.0702],[21.6037,42.0594],[21.6769,42.2349],[21.5641,42.2463],[21.4815,42.2478]]]}},{"type":"Feature","id":"label-MKD-2920","properties":{"kind":"division-label","code":"MKD-2920","countryCode":"MKD","name":"Lipkovo","localName":"Lipkovo","labelEnglish":"Lipkovo","labelLocal":"Lipkovo","labelBoth":"Lipkovo","type":"Statistical Region","iso":"MK-48","qid":"Q2041236"},"geometry":{"type":"Point","coordinates":[21.579,42.1401]}},{"type":"Feature","id":"MKD-2926","properties":{"kind":"division","code":"MKD-2926","countryCode":"MKD","name":"Čučer-Sandevo","localName":"Čučer-Sandevo","labelEnglish":"Čučer-Sandevo","labelLocal":"Čučer-Sandevo","labelBoth":"Čučer-Sandevo","type":"Statistical Region","iso":"MK-82","qid":"Q629720"},"geometry":{"type":"Polygon","coordinates":[[[21.472,42.2391],[21.3606,42.2201],[21.3008,42.0984],[21.3592,42.0291],[21.3817,42.0218],[21.3886,42.0287],[21.4231,42.0316],[21.4863,42.1418],[21.472,42.2391]]]}},{"type":"Feature","id":"label-MKD-2926","properties":{"kind":"division-label","code":"MKD-2926","countryCode":"MKD","name":"Čučer-Sandevo","localName":"Čučer-Sandevo","labelEnglish":"Čučer-Sandevo","labelLocal":"Čučer-Sandevo","labelBoth":"Čučer-Sandevo","type":"Statistical Region","iso":"MK-82","qid":"Q629720"},"geometry":{"type":"Point","coordinates":[21.3885,42.1353]}},{"type":"Feature","id":"MKD-2948","properties":{"kind":"division","code":"MKD-2948","countryCode":"MKD","name":"Gjorče Petrov","localName":"Gjorče Petrov","labelEnglish":"Gjorče Petrov","labelLocal":"Gjorče Petrov","labelBoth":"Gjorče Petrov","type":"Municipality","iso":"MK-29","qid":"Q924278"},"geometry":{"type":"Polygon","coordinates":[[[21.3008,42.0984],[21.2457,42.0962],[21.3586,41.9848],[21.3592,42.0291],[21.3008,42.0984]]]}},{"type":"Feature","id":"label-MKD-2948","properties":{"kind":"division-label","code":"MKD-2948","countryCode":"MKD","name":"Gjorče Petrov","localName":"Gjorče Petrov","labelEnglish":"Gjorče Petrov","labelLocal":"Gjorče Petrov","labelBoth":"Gjorče Petrov","type":"Municipality","iso":"MK-29","qid":"Q924278"},"geometry":{"type":"Point","coordinates":[21.3002,42.064]}},{"type":"Feature","id":"MKD-2908","properties":{"kind":"division","code":"MKD-2908","countryCode":"MKD","name":"Saraj","localName":"Saraj","labelEnglish":"Saraj","labelLocal":"Saraj","labelBoth":"Saraj","type":"Municipality","iso":"MK-68","qid":"Q1309481"},"geometry":{"type":"Polygon","coordinates":[[[21.2293,42.1038],[21.1384,41.9898],[21.2171,41.8777],[21.3599,41.9484],[21.3586,41.9848],[21.2457,42.0962],[21.2293,42.1038]]]}},{"type":"Feature","id":"label-MKD-2908","properties":{"kind":"division-label","code":"MKD-2908","countryCode":"MKD","name":"Saraj","localName":"Saraj","labelEnglish":"Saraj","labelLocal":"Saraj","labelBoth":"Saraj","type":"Municipality","iso":"MK-68","qid":"Q1309481"},"geometry":{"type":"Point","coordinates":[21.2491,41.975]}},{"type":"Feature","id":"MKD-2963","properties":{"kind":"division","code":"MKD-2963","countryCode":"MKD","name":"Jegunovce","localName":"Jegunovce","labelEnglish":"Jegunovce","labelLocal":"Jegunovce","labelBoth":"Jegunovce","type":"Municipality","iso":"MK-35","qid":"Q431908"},"geometry":{"type":"Polygon","coordinates":[[[21.0985,42.196],[21.0409,42.16],[21.0294,42.0138],[21.0314,42.0074],[21.1384,41.9898],[21.2293,42.1038],[21.0985,42.196]]]}},{"type":"Feature","id":"label-MKD-2963","properties":{"kind":"division-label","code":"MKD-2963","countryCode":"MKD","name":"Jegunovce","localName":"Jegunovce","labelEnglish":"Jegunovce","labelLocal":"Jegunovce","labelBoth":"Jegunovce","type":"Municipality","iso":"MK-35","qid":"Q431908"},"geometry":{"type":"Point","coordinates":[21.129,42.0311]}},{"type":"Feature","id":"MKD-2957","properties":{"kind":"division","code":"MKD-2957","countryCode":"MKD","name":"Tearce","localName":"Tearce","labelEnglish":"Tearce","labelLocal":"Tearce","labelBoth":"Tearce","type":"Municipality","iso":"MK-75","qid":"Q2282274"},"geometry":{"type":"Polygon","coordinates":[[[20.9751,42.1347],[20.9042,42.1167],[21.0294,42.0138],[21.0409,42.16],[20.9751,42.1347]]]}},{"type":"Feature","id":"label-MKD-2957","properties":{"kind":"division-label","code":"MKD-2957","countryCode":"MKD","name":"Tearce","localName":"Tearce","labelEnglish":"Tearce","labelLocal":"Tearce","labelBoth":"Tearce","type":"Municipality","iso":"MK-75","qid":"Q2282274"},"geometry":{"type":"Point","coordinates":[21.0174,42.082]}},{"type":"Feature","id":"MKD-2958","properties":{"kind":"division","code":"MKD-2958","countryCode":"MKD","name":"Tetovo","localName":"Tetovo","labelEnglish":"Tetovo","labelLocal":"Tetovo","labelBoth":"Tetovo","type":"Statistical Region","iso":"MK-76","qid":"Q3245456"},"geometry":{"type":"Polygon","coordinates":[[[20.7849,42.082],[20.7514,41.9403],[20.9579,41.9525],[21.02,41.9527],[21.0314,42.0074],[21.0294,42.0138],[20.9042,42.1167],[20.7849,42.082]]]}},{"type":"Feature","id":"label-MKD-2958","properties":{"kind":"division-label","code":"MKD-2958","countryCode":"MKD","name":"Tetovo","localName":"Tetovo","labelEnglish":"Tetovo","labelLocal":"Tetovo","labelBoth":"Tetovo","type":"Statistical Region","iso":"MK-76","qid":"Q3245456"},"geometry":{"type":"Point","coordinates":[20.8947,42.0484]}},{"type":"Feature","id":"MKD-2960","properties":{"kind":"division","code":"MKD-2960","countryCode":"MKD","name":"Bogovinje","localName":"Bogovinje","labelEnglish":"Bogovinje","labelLocal":"Bogovinje","labelBoth":"Bogovinje","type":"Statistical Region","iso":"MK-06","qid":"Q9035785"},"geometry":{"type":"Polygon","coordinates":[[[20.7511,41.9102],[20.9483,41.8733],[20.9579,41.9525],[20.7514,41.9403],[20.7511,41.9102]]]}},{"type":"Feature","id":"label-MKD-2960","properties":{"kind":"division-label","code":"MKD-2960","countryCode":"MKD","name":"Bogovinje","localName":"Bogovinje","labelEnglish":"Bogovinje","labelLocal":"Bogovinje","labelBoth":"Bogovinje","type":"Statistical Region","iso":"MK-06","qid":"Q9035785"},"geometry":{"type":"Point","coordinates":[20.869,41.945]}},{"type":"Feature","id":"MKD-2959","properties":{"kind":"division","code":"MKD-2959","countryCode":"MKD","name":"Vrapčište","localName":"Vrapčište","labelEnglish":"Vrapčište","labelLocal":"Vrapčište","labelBoth":"Vrapčište","type":"Statistical Region","iso":"MK-16","qid":"Q1996740"},"geometry":{"type":"Polygon","coordinates":[[[20.7144,41.8592],[20.9559,41.8495],[20.9483,41.8733],[20.7511,41.9102],[20.7144,41.8592]]]}},{"type":"Feature","id":"label-MKD-2959","properties":{"kind":"division-label","code":"MKD-2959","countryCode":"MKD","name":"Vrapčište","localName":"Vrapčište","labelEnglish":"Vrapčište","labelLocal":"Vrapčište","labelBoth":"Vrapčište","type":"Statistical Region","iso":"MK-16","qid":"Q1996740"},"geometry":{"type":"Point","coordinates":[20.8349,41.8584]}},{"type":"Feature","id":"MKD-2906","properties":{"kind":"division","code":"MKD-2906","countryCode":"MKD","name":"Kriva Palanka","localName":"Kriva Palanka","labelEnglish":"Kriva Palanka","labelLocal":"Kriva Palanka","labelBoth":"Kriva Palanka","type":"Statistical Region","iso":"MK-44","qid":"Q1422453"},"geometry":{"type":"Polygon","coordinates":[[[22.345,42.3134],[22.1381,42.3191],[22.2034,42.1203],[22.3466,42.0945],[22.417,42.0996],[22.5069,42.1489],[22.345,42.3134]]]}},{"type":"Feature","id":"label-MKD-2906","properties":{"kind":"division-label","code":"MKD-2906","countryCode":"MKD","name":"Kriva Palanka","localName":"Kriva Palanka","labelEnglish":"Kriva Palanka","labelLocal":"Kriva Palanka","labelBoth":"Kriva Palanka","type":"Statistical Region","iso":"MK-44","qid":"Q1422453"},"geometry":{"type":"Point","coordinates":[22.2641,42.2421]}},{"type":"Feature","id":"MKD-4846","properties":{"kind":"division","code":"MKD-4846","countryCode":"MKD","name":"Rankovce","localName":"Rankovce","labelEnglish":"Rankovce","labelLocal":"Rankovce","labelBoth":"Rankovce","type":"Statistical Region","iso":"MK-65","qid":"Q1475001"},"geometry":{"type":"Polygon","coordinates":[[[22.1381,42.3191],[22.0454,42.3024],[22.0237,42.1635],[22.2034,42.1203],[22.1381,42.3191]]]}},{"type":"Feature","id":"label-MKD-4846","properties":{"kind":"division-label","code":"MKD-4846","countryCode":"MKD","name":"Rankovce","localName":"Rankovce","labelEnglish":"Rankovce","labelLocal":"Rankovce","labelBoth":"Rankovce","type":"Statistical Region","iso":"MK-65","qid":"Q1475001"},"geometry":{"type":"Point","coordinates":[22.1049,42.1895]}},{"type":"Feature","id":"MKD-2910","properties":{"kind":"division","code":"MKD-2910","countryCode":"MKD","name":"Staro Nagoričane","localName":"Staro Nagoričane","labelEnglish":"Staro Nagoričane","labelLocal":"Staro Nagoričane","labelBoth":"Staro Nagoričane","type":"Statistical Region","iso":"MK-71","qid":"Q2128903"},"geometry":{"type":"Polygon","coordinates":[[[22.0454,42.3024],[21.7195,42.261],[21.946,42.0974],[22.0237,42.1635],[22.0454,42.3024]]]}},{"type":"Feature","id":"label-MKD-2910","properties":{"kind":"division-label","code":"MKD-2910","countryCode":"MKD","name":"Staro Nagoričane","localName":"Staro Nagoričane","labelEnglish":"Staro Nagoričane","labelLocal":"Staro Nagoričane","labelBoth":"Staro Nagoričane","type":"Statistical Region","iso":"MK-71","qid":"Q2128903"},"geometry":{"type":"Point","coordinates":[21.8853,42.2098]}},{"type":"Feature","id":"MKD-2943","properties":{"kind":"division","code":"MKD-2943","countryCode":"MKD","name":"Kumanovo","localName":"Kumanovo","labelEnglish":"Kumanovo","labelLocal":"Kumanovo","labelBoth":"Kumanovo","type":"Statistical Region","iso":"MK-47","qid":"Q2352376"},"geometry":{"type":"Polygon","coordinates":[[[21.6769,42.2349],[21.6037,42.0594],[21.6335,42.04],[21.6867,41.9838],[21.8129,41.9419],[21.9858,41.9996],[21.946,42.0974],[21.7195,42.261],[21.6769,42.2349]]]}},{"type":"Feature","id":"label-MKD-2943","properties":{"kind":"division-label","code":"MKD-2943","countryCode":"MKD","name":"Kumanovo","localName":"Kumanovo","labelEnglish":"Kumanovo","labelLocal":"Kumanovo","labelBoth":"Kumanovo","type":"Statistical Region","iso":"MK-47","qid":"Q2352376"},"geometry":{"type":"Point","coordinates":[21.7923,42.0293]}},{"type":"Feature","id":"MKD-3005","properties":{"kind":"division","code":"MKD-3005","countryCode":"MKD","name":"Delčevo","localName":"Delčevo","labelEnglish":"Delčevo","labelLocal":"Delčevo","labelBoth":"Delčevo","type":"Statistical Region","iso":"MK-23","qid":"Q1323322"},"geometry":{"type":"Polygon","coordinates":[[[22.6272,42.0791],[22.6059,41.9825],[22.6744,41.8072],[22.7576,41.7885],[22.8821,41.8716],[22.8456,42.0074],[22.6272,42.0791]]]}},{"type":"Feature","id":"label-MKD-3005","properties":{"kind":"division-label","code":"MKD-3005","countryCode":"MKD","name":"Delčevo","localName":"Delčevo","labelEnglish":"Delčevo","labelLocal":"Delčevo","labelBoth":"Delčevo","type":"Statistical Region","iso":"MK-23","qid":"Q1323322"},"geometry":{"type":"Point","coordinates":[22.7429,41.9187]}},{"type":"Feature","id":"MKD-3006","properties":{"kind":"division","code":"MKD-3006","countryCode":"MKD","name":"Makedonska Kamenica","localName":"Makedonska Kamenica","labelEnglish":"Makedonska Kamenica","labelLocal":"Makedonska Kamenica","labelBoth":"Makedonska Kamenica","type":"Statistical Region","iso":"MK-51","qid":"Q2041219"},"geometry":{"type":"Polygon","coordinates":[[[22.5069,42.1489],[22.417,42.0996],[22.5177,41.9452],[22.6059,41.9825],[22.6272,42.0791],[22.5069,42.1489]]]}},{"type":"Feature","id":"label-MKD-3006","properties":{"kind":"division-label","code":"MKD-3006","countryCode":"MKD","name":"Makedonska Kamenica","localName":"Makedonska Kamenica","labelEnglish":"Makedonska Kamenica","labelLocal":"Makedonska Kamenica","labelBoth":"Makedonska Kamenica","type":"Statistical Region","iso":"MK-51","qid":"Q2041219"},"geometry":{"type":"Point","coordinates":[22.5221,42.0394]}},{"type":"Feature","id":"MKD-3004","properties":{"kind":"division","code":"MKD-3004","countryCode":"MKD","name":"Berovo","localName":"Berovo","labelEnglish":"Berovo","labelLocal":"Berovo","labelBoth":"Berovo","type":"Statistical Region","iso":"MK-03","qid":"Q793727"},"geometry":{"type":"Polygon","coordinates":[[[22.9854,41.6772],[22.7576,41.7885],[22.6744,41.8072],[22.6209,41.7271],[22.6292,41.6341],[22.7281,41.5694],[22.8581,41.5171],[22.9436,41.5232],[22.9854,41.6772]]]}},{"type":"Feature","id":"label-MKD-3004","properties":{"kind":"division-label","code":"MKD-3004","countryCode":"MKD","name":"Berovo","localName":"Berovo","labelEnglish":"Berovo","labelLocal":"Berovo","labelBoth":"Berovo","type":"Statistical Region","iso":"MK-03","qid":"Q793727"},"geometry":{"type":"Point","coordinates":[22.8027,41.6344]}},{"type":"Feature","id":"MKD-3007","properties":{"kind":"division","code":"MKD-3007","countryCode":"MKD","name":"Pehčevo","localName":"Pehčevo","labelEnglish":"Pehčevo","labelLocal":"Pehčevo","labelBoth":"Pehčevo","type":"Statistical Region","iso":"MK-60","qid":"Q426114"},"geometry":{"type":"Polygon","coordinates":[[[22.8821,41.8716],[22.7576,41.7885],[22.9854,41.6772],[22.8821,41.8716]]]}},{"type":"Feature","id":"label-MKD-3007","properties":{"kind":"division-label","code":"MKD-3007","countryCode":"MKD","name":"Pehčevo","localName":"Pehčevo","labelEnglish":"Pehčevo","labelLocal":"Pehčevo","labelBoth":"Pehčevo","type":"Statistical Region","iso":"MK-60","qid":"Q426114"},"geometry":{"type":"Point","coordinates":[22.8833,41.7917]}},{"type":"Feature","id":"MKD-2918","properties":{"kind":"division","code":"MKD-2918","countryCode":"MKD","name":"Želino","localName":"Želino","labelEnglish":"Želino","labelLocal":"Želino","labelBoth":"Želino","type":"Statistical Region","iso":"MK-30","qid":"Q1996410"},"geometry":{"type":"Polygon","coordinates":[[[21.02,41.9527],[21.1838,41.839],[21.2338,41.8172],[21.2171,41.8777],[21.1384,41.9898],[21.0314,42.0074],[21.02,41.9527]]]}},{"type":"Feature","id":"label-MKD-2918","properties":{"kind":"division-label","code":"MKD-2918","countryCode":"MKD","name":"Želino","localName":"Želino","labelEnglish":"Želino","labelLocal":"Želino","labelBoth":"Želino","type":"Statistical Region","iso":"MK-30","qid":"Q1996410"},"geometry":{"type":"Point","coordinates":[21.1277,41.9157]}},{"type":"Feature","id":"MKD-2961","properties":{"kind":"division","code":"MKD-2961","countryCode":"MKD","name":"Brvenica","localName":"Brvenica","labelEnglish":"Brvenica","labelLocal":"Brvenica","labelBoth":"Brvenica","type":"Statistical Region","iso":"MK-08","qid":"Q1057563"},"geometry":{"type":"Polygon","coordinates":[[[21.02,41.9527],[20.9579,41.9525],[20.9483,41.8733],[20.9559,41.8495],[21.0791,41.7773],[21.1838,41.839],[21.02,41.9527]]]}},{"type":"Feature","id":"label-MKD-2961","properties":{"kind":"division-label","code":"MKD-2961","countryCode":"MKD","name":"Brvenica","localName":"Brvenica","labelEnglish":"Brvenica","labelLocal":"Brvenica","labelBoth":"Brvenica","type":"Statistical Region","iso":"MK-08","qid":"Q1057563"},"geometry":{"type":"Point","coordinates":[21.066,41.8465]}},{"type":"Feature","id":"MKD-2944","properties":{"kind":"division","code":"MKD-2944","countryCode":"MKD","name":"Makedonski Brod","localName":"Makedonski Brod","labelEnglish":"Makedonski Brod","labelLocal":"Makedonski Brod","labelBoth":"Makedonski Brod","type":"Statistical Region","iso":"MK-52","qid":"Q2364199"},"geometry":{"type":"Polygon","coordinates":[[[21.1838,41.839],[21.0791,41.7773],[21.0529,41.6476],[21.1015,41.5798],[21.0762,41.4667],[21.1952,41.4291],[21.2597,41.4721],[21.3743,41.5929],[21.3953,41.6635],[21.3464,41.728],[21.2338,41.8172],[21.1838,41.839]]]}},{"type":"Feature","id":"label-MKD-2944","properties":{"kind":"division-label","code":"MKD-2944","countryCode":"MKD","name":"Makedonski Brod","localName":"Makedonski Brod","labelEnglish":"Makedonski Brod","labelLocal":"Makedonski Brod","labelBoth":"Makedonski Brod","type":"Statistical Region","iso":"MK-52","qid":"Q2364199"},"geometry":{"type":"Point","coordinates":[21.2133,41.6303]}},{"type":"Feature","id":"MKD-2956","properties":{"kind":"division","code":"MKD-2956","countryCode":"MKD","name":"Oslomej","localName":"Oslomej","labelEnglish":"Oslomej","labelLocal":"Oslomej","labelBoth":"Oslomej","type":"Statistical Region","iso":"MK-57","qid":"Q2001785"},"geometry":{"type":"Polygon","coordinates":[[[21.0529,41.6476],[20.985,41.6245],[20.9673,41.5499],[21.0053,41.5042],[21.1015,41.5798],[21.0529,41.6476]]]}},{"type":"Feature","id":"label-MKD-2956","properties":{"kind":"division-label","code":"MKD-2956","countryCode":"MKD","name":"Oslomej","localName":"Oslomej","labelEnglish":"Oslomej","labelLocal":"Oslomej","labelBoth":"Oslomej","type":"Statistical Region","iso":"MK-57","qid":"Q2001785"},"geometry":{"type":"Point","coordinates":[21.0347,41.5771]}},{"type":"Feature","id":"MKD-2909","properties":{"kind":"division","code":"MKD-2909","countryCode":"MKD","name":"Sopište","localName":"Sopište","labelEnglish":"Sopište","labelLocal":"Sopište","labelBoth":"Sopište","type":"Statistical Region","iso":"MK-70","qid":"Q2282240"},"geometry":{"type":"Polygon","coordinates":[[[21.2338,41.8172],[21.3464,41.728],[21.4474,41.9255],[21.4285,41.9454],[21.3599,41.9484],[21.2171,41.8777],[21.2338,41.8172]]]}},{"type":"Feature","id":"label-MKD-2909","properties":{"kind":"division-label","code":"MKD-2909","countryCode":"MKD","name":"Sopište","localName":"Sopište","labelEnglish":"Sopište","labelLocal":"Sopište","labelBoth":"Sopište","type":"Statistical Region","iso":"MK-70","qid":"Q2282240"},"geometry":{"type":"Point","coordinates":[21.332,41.8337]}},{"type":"Feature","id":"MKD-2935","properties":{"kind":"division","code":"MKD-2935","countryCode":"MKD","name":"Karpoš","localName":"Karpoš","labelEnglish":"Karpoš","labelLocal":"Karpoš","labelBoth":"Karpoš","type":"Municipality","iso":"MK-38","qid":"Q1463246"},"geometry":{"type":"Polygon","coordinates":[[[21.3599,41.9484],[21.4285,41.9454],[21.4278,41.9551],[21.4273,41.9867],[21.428,42.0029],[21.3992,42.0027],[21.3817,42.0218],[21.3592,42.0291],[21.3586,41.9848],[21.3599,41.9484]]]}},{"type":"Feature","id":"label-MKD-2935","properties":{"kind":"division-label","code":"MKD-2935","countryCode":"MKD","name":"Karpoš","localName":"Karpoš","labelEnglish":"Karpoš","labelLocal":"Karpoš","labelBoth":"Karpoš","type":"Municipality","iso":"MK-38","qid":"Q1463246"},"geometry":{"type":"Point","coordinates":[21.3888,41.9774]}},{"type":"Feature","id":"MKD-5883","properties":{"kind":"division","code":"MKD-5883","countryCode":"MKD","name":"Šuto Orizari","localName":"Šuto Orizari","labelEnglish":"Šuto Orizari","labelLocal":"Šuto Orizari","labelBoth":"Šuto Orizari","type":"Municipality","iso":"MK-84","qid":"Q1020859"},"geometry":{"type":"Polygon","coordinates":[[[21.4231,42.0316],[21.3886,42.0287],[21.4146,42.008],[21.4231,42.0316]]]}},{"type":"Feature","id":"label-MKD-5883","properties":{"kind":"division-label","code":"MKD-5883","countryCode":"MKD","name":"Šuto Orizari","localName":"Šuto Orizari","labelEnglish":"Šuto Orizari","labelLocal":"Šuto Orizari","labelBoth":"Šuto Orizari","type":"Municipality","iso":"MK-84","qid":"Q1020859"},"geometry":{"type":"Point","coordinates":[21.4069,42.0341]}},{"type":"Feature","id":"MKD-2921","properties":{"kind":"division","code":"MKD-2921","countryCode":"MKD","name":"Butel","localName":"Butel","labelEnglish":"Butel","labelLocal":"Butel","labelBoth":"Butel","type":"Municipality","iso":"MK-09","qid":"Q935620"},"geometry":{"type":"Polygon","coordinates":[[[21.4231,42.0316],[21.4146,42.008],[21.3886,42.0287],[21.3817,42.0218],[21.3992,42.0027],[21.428,42.0029],[21.4459,41.9971],[21.511,42.1017],[21.4863,42.1418],[21.4231,42.0316]]]}},{"type":"Feature","id":"label-MKD-2921","properties":{"kind":"division-label","code":"MKD-2921","countryCode":"MKD","name":"Butel","localName":"Butel","labelEnglish":"Butel","labelLocal":"Butel","labelBoth":"Butel","type":"Municipality","iso":"MK-09","qid":"Q935620"},"geometry":{"type":"Point","coordinates":[21.4665,42.0738]}},{"type":"Feature","id":"MKD-2913","properties":{"kind":"division","code":"MKD-2913","countryCode":"MKD","name":"Čair","localName":"Čair","labelEnglish":"Čair","labelLocal":"Čair","labelBoth":"Čair","type":"Municipality","iso":"MK-79","qid":"Q1419314"},"geometry":{"type":"Polygon","coordinates":[[[21.4459,41.9971],[21.428,42.0029],[21.4273,41.9867],[21.4383,41.9828],[21.4443,41.9828],[21.4459,41.9971]]]}},{"type":"Feature","id":"label-MKD-2913","properties":{"kind":"division-label","code":"MKD-2913","countryCode":"MKD","name":"Čair","localName":"Čair","labelEnglish":"Čair","labelLocal":"Čair","labelBoth":"Čair","type":"Municipality","iso":"MK-79","qid":"Q1419314"},"geometry":{"type":"Point","coordinates":[21.4367,41.9946]}},{"type":"Feature","id":"MKD-2923","properties":{"kind":"division","code":"MKD-2923","countryCode":"MKD","name":"Centar","localName":"Centar","labelEnglish":"Centar","labelLocal":"Centar","labelBoth":"Centar","type":"Municipality","iso":"MK-77","qid":"Q1463152"},"geometry":{"type":"Polygon","coordinates":[[[21.4383,41.9828],[21.4273,41.9867],[21.4278,41.9551],[21.4345,41.9718],[21.4383,41.9828]]]}},{"type":"Feature","id":"label-MKD-2923","properties":{"kind":"division-label","code":"MKD-2923","countryCode":"MKD","name":"Centar","localName":"Centar","labelEnglish":"Centar","labelLocal":"Centar","labelBoth":"Centar","type":"Municipality","iso":"MK-77","qid":"Q1463152"},"geometry":{"type":"Point","coordinates":[21.4226,41.9752]}},{"type":"Feature","id":"MKD-2950","properties":{"kind":"division","code":"MKD-2950","countryCode":"MKD","name":"Zajas","localName":"Zajas","labelEnglish":"Zajas","labelLocal":"Zajas","labelBoth":"Zajas","type":"Statistical Region","iso":"MK-31","qid":"Q2018939"},"geometry":{"type":"Polygon","coordinates":[[[20.985,41.6245],[20.8974,41.6645],[20.8095,41.6147],[20.8969,41.5213],[20.9673,41.5499],[20.985,41.6245]]]}},{"type":"Feature","id":"label-MKD-2950","properties":{"kind":"division-label","code":"MKD-2950","countryCode":"MKD","name":"Zajas","localName":"Zajas","labelEnglish":"Zajas","labelLocal":"Zajas","labelBoth":"Zajas","type":"Statistical Region","iso":"MK-31","qid":"Q2018939"},"geometry":{"type":"Point","coordinates":[20.8849,41.6012]}},{"type":"Feature","id":"MKD-2928","properties":{"kind":"division","code":"MKD-2928","countryCode":"MKD","name":"Dolneni","localName":"Dolneni","labelEnglish":"Dolneni","labelLocal":"Dolneni","labelBoth":"Dolneni","type":"Statistical Region","iso":"MK-27","qid":"Q1992691"},"geometry":{"type":"Polygon","coordinates":[[[21.3743,41.5929],[21.2597,41.4721],[21.3104,41.3753],[21.4102,41.3508],[21.6026,41.4435],[21.3743,41.5929]]]}},{"type":"Feature","id":"label-MKD-2928","properties":{"kind":"division-label","code":"MKD-2928","countryCode":"MKD","name":"Dolneni","localName":"Dolneni","labelEnglish":"Dolneni","labelLocal":"Dolneni","labelBoth":"Dolneni","type":"Statistical Region","iso":"MK-27","qid":"Q1992691"},"geometry":{"type":"Point","coordinates":[21.4307,41.4684]}},{"type":"Feature","id":"MKD-2941","properties":{"kind":"division","code":"MKD-2941","countryCode":"MKD","name":"Krivogaštani","localName":"Krivogaštani","labelEnglish":"Krivogaštani","labelLocal":"Krivogaštani","labelBoth":"Krivogaštani","type":"Statistical Region","iso":"MK-45","qid":"Q2018930"},"geometry":{"type":"Polygon","coordinates":[[[21.4102,41.3508],[21.3104,41.3753],[21.3346,41.263],[21.3646,41.2462],[21.4102,41.3508]]]}},{"type":"Feature","id":"label-MKD-2941","properties":{"kind":"division-label","code":"MKD-2941","countryCode":"MKD","name":"Krivogaštani","localName":"Krivogaštani","labelEnglish":"Krivogaštani","labelLocal":"Krivogaštani","labelBoth":"Krivogaštani","type":"Statistical Region","iso":"MK-45","qid":"Q2018930"},"geometry":{"type":"Point","coordinates":[21.3682,41.3012]}},{"type":"Feature","id":"MKD-2945","properties":{"kind":"division","code":"MKD-2945","countryCode":"MKD","name":"Mogila","localName":"Mogila","labelEnglish":"Mogila","labelLocal":"Mogila","labelBoth":"Mogila","type":"Statistical Region","iso":"MK-53","qid":"Q1839369"},"geometry":{"type":"Polygon","coordinates":[[[21.3646,41.2462],[21.3346,41.263],[21.314,41.2103],[21.43,41.084],[21.5993,41.1547],[21.3646,41.2462]]]}},{"type":"Feature","id":"label-MKD-2945","properties":{"kind":"division-label","code":"MKD-2945","countryCode":"MKD","name":"Mogila","localName":"Mogila","labelEnglish":"Mogila","labelLocal":"Mogila","labelBoth":"Mogila","type":"Statistical Region","iso":"MK-53","qid":"Q1839369"},"geometry":{"type":"Point","coordinates":[21.4512,41.147]}},{"type":"Feature","id":"MKD-2922","properties":{"kind":"division","code":"MKD-2922","countryCode":"MKD","name":"Čaška","localName":"Čaška","labelEnglish":"Čaška","labelLocal":"Čaška","labelBoth":"Čaška","type":"Statistical Region","iso":"MK-80","qid":"Q1994547"},"geometry":{"type":"Polygon","coordinates":[[[21.3743,41.5929],[21.6026,41.4435],[21.772,41.4413],[21.8098,41.4565],[21.8161,41.4879],[21.7734,41.6019],[21.5709,41.7403],[21.4831,41.7446],[21.3953,41.6635],[21.3743,41.5929]]]}},{"type":"Feature","id":"label-MKD-2922","properties":{"kind":"division-label","code":"MKD-2922","countryCode":"MKD","name":"Čaška","localName":"Čaška","labelEnglish":"Čaška","labelLocal":"Čaška","labelBoth":"Čaška","type":"Statistical Region","iso":"MK-80","qid":"Q1994547"},"geometry":{"type":"Point","coordinates":[21.5939,41.5807]}},{"type":"Feature","id":"MKD-2907","properties":{"kind":"division","code":"MKD-2907","countryCode":"MKD","name":"Rosoman","localName":"Rosoman","labelEnglish":"Rosoman","labelLocal":"Rosoman","labelBoth":"Rosoman","type":"Statistical Region","iso":"MK-67","qid":"Q2088585"},"geometry":{"type":"Polygon","coordinates":[[[21.8098,41.4565],[21.9838,41.503],[21.9834,41.5525],[21.8161,41.4879],[21.8098,41.4565]]]}},{"type":"Feature","id":"label-MKD-2907","properties":{"kind":"division-label","code":"MKD-2907","countryCode":"MKD","name":"Rosoman","localName":"Rosoman","labelEnglish":"Rosoman","labelLocal":"Rosoman","labelBoth":"Rosoman","type":"Statistical Region","iso":"MK-67","qid":"Q2088585"},"geometry":{"type":"Point","coordinates":[21.8972,41.477]}},{"type":"Feature","id":"MKD-2946","properties":{"kind":"division","code":"MKD-2946","countryCode":"MKD","name":"Negotino","localName":"Negotino","labelEnglish":"Negotino","labelLocal":"Negotino","labelBoth":"Negotino","type":"Statistical Region","iso":"MK-54","qid":"Q3246545"},"geometry":{"type":"Polygon","coordinates":[[[21.9838,41.503],[22.0848,41.3493],[22.3001,41.4893],[22.2603,41.5436],[22.0108,41.6535],[21.9834,41.5525],[21.9838,41.503]]]}},{"type":"Feature","id":"label-MKD-2946","properties":{"kind":"division-label","code":"MKD-2946","countryCode":"MKD","name":"Negotino","localName":"Negotino","labelEnglish":"Negotino","labelLocal":"Negotino","labelBoth":"Negotino","type":"Statistical Region","iso":"MK-54","qid":"Q3246545"},"geometry":{"type":"Point","coordinates":[22.1394,41.3722]}},{"type":"Feature","id":"MKD-2953","properties":{"kind":"division","code":"MKD-2953","countryCode":"MKD","name":"Drugovo","localName":"Drugovo","labelEnglish":"Drugovo","labelLocal":"Drugovo","labelBoth":"Drugovo","type":"Statistical Region","iso":"MK-28","qid":"Q1996439"},"geometry":{"type":"Polygon","coordinates":[[[20.8095,41.6147],[20.7289,41.4788],[20.6848,41.4249],[20.6873,41.4226],[20.9555,41.3242],[21.1391,41.3849],[21.1335,41.405],[21.0712,41.4287],[20.9755,41.4693],[20.8969,41.5213],[20.8095,41.6147]]]}},{"type":"Feature","id":"label-MKD-2953","properties":{"kind":"division-label","code":"MKD-2953","countryCode":"MKD","name":"Drugovo","localName":"Drugovo","labelEnglish":"Drugovo","labelLocal":"Drugovo","labelBoth":"Drugovo","type":"Statistical Region","iso":"MK-28","qid":"Q1996439"},"geometry":{"type":"Point","coordinates":[20.9119,41.4293]}},{"type":"Feature","id":"MKD-2929","properties":{"kind":"division","code":"MKD-2929","countryCode":"MKD","name":"Gazi Baba","localName":"Gazi Baba","labelEnglish":"Gazi Baba","labelLocal":"Gazi Baba","labelBoth":"Gazi Baba","type":"Municipality","iso":"MK-17","qid":"Q2019836"},"geometry":{"type":"Polygon","coordinates":[[[21.4459,41.9971],[21.4443,41.9828],[21.5543,41.9279],[21.572,41.9101],[21.5829,41.9197],[21.54,41.9874],[21.5409,42.0702],[21.511,42.1017],[21.4459,41.9971]]]}},{"type":"Feature","id":"label-MKD-2929","properties":{"kind":"division-label","code":"MKD-2929","countryCode":"MKD","name":"Gazi Baba","localName":"Gazi Baba","labelEnglish":"Gazi Baba","labelLocal":"Gazi Baba","labelBoth":"Gazi Baba","type":"Municipality","iso":"MK-17","qid":"Q2019836"},"geometry":{"type":"Point","coordinates":[21.5136,42.0259]}},{"type":"Feature","id":"MKD-2942","properties":{"kind":"division","code":"MKD-2942","countryCode":"MKD","name":"Kruševo","localName":"Kruševo","labelEnglish":"Kruševo","labelLocal":"Kruševo","labelBoth":"Kruševo","type":"Statistical Region","iso":"MK-46","qid":"Q2476159"},"geometry":{"type":"Polygon","coordinates":[[[21.2597,41.4721],[21.1952,41.4291],[21.1335,41.405],[21.1391,41.3849],[21.2899,41.2188],[21.314,41.2103],[21.3346,41.263],[21.3104,41.3753],[21.2597,41.4721]]]}},{"type":"Feature","id":"label-MKD-2942","properties":{"kind":"division-label","code":"MKD-2942","countryCode":"MKD","name":"Kruševo","localName":"Kruševo","labelEnglish":"Kruševo","labelLocal":"Kruševo","labelBoth":"Kruševo","type":"Statistical Region","iso":"MK-46","qid":"Q2476159"},"geometry":{"type":"Point","coordinates":[21.2328,41.3734]}},{"type":"Feature","id":"MKD-2897","properties":{"kind":"division","code":"MKD-2897","countryCode":"MKD","name":"Demir Hisar","localName":"Demir Hisar","labelEnglish":"Demir Hisar","labelLocal":"Demir Hisar","labelBoth":"Demir Hisar","type":"Statistical Region","iso":"MK-25","qid":"Q856278"},"geometry":{"type":"Polygon","coordinates":[[[21.1391,41.3849],[20.9555,41.3242],[21.0315,41.225],[21.0394,41.2119],[21.097,41.1258],[21.2899,41.2188],[21.1391,41.3849]]]}},{"type":"Feature","id":"label-MKD-2897","properties":{"kind":"division-label","code":"MKD-2897","countryCode":"MKD","name":"Demir Hisar","localName":"Demir Hisar","labelEnglish":"Demir Hisar","labelLocal":"Demir Hisar","labelBoth":"Demir Hisar","type":"Statistical Region","iso":"MK-25","qid":"Q856278"},"geometry":{"type":"Point","coordinates":[21.1238,41.2587]}},{"type":"Feature","id":"MKD-2937","properties":{"kind":"division","code":"MKD-2937","countryCode":"MKD","name":"Aerodrom","localName":"Aerodrom","labelEnglish":"Aerodrom","labelLocal":"Aerodrom","labelBoth":"Aerodrom","type":"Municipality","iso":"MK-01","qid":"Q1992708"},"geometry":{"type":"Polygon","coordinates":[[[21.4345,41.9718],[21.5361,41.9187],[21.5543,41.9279],[21.4443,41.9828],[21.4383,41.9828],[21.4345,41.9718]]]}},{"type":"Feature","id":"label-MKD-2937","properties":{"kind":"division-label","code":"MKD-2937","countryCode":"MKD","name":"Aerodrom","localName":"Aerodrom","labelEnglish":"Aerodrom","labelLocal":"Aerodrom","labelBoth":"Aerodrom","type":"Municipality","iso":"MK-01","qid":"Q1992708"},"geometry":{"type":"Point","coordinates":[21.4932,41.9517]}},{"type":"Feature","id":"MKD-2912","properties":{"kind":"division","code":"MKD-2912","countryCode":"MKD","name":"Studeničani","localName":"Studeničani","labelEnglish":"Studeničani","labelLocal":"Studeničani","labelBoth":"Studeničani","type":"Statistical Region","iso":"MK-74","qid":"Q2088034"},"geometry":{"type":"Polygon","coordinates":[[[21.3464,41.728],[21.3953,41.6635],[21.4831,41.7446],[21.5864,41.8949],[21.572,41.9101],[21.5543,41.9279],[21.5361,41.9187],[21.4474,41.9255],[21.3464,41.728]]]}},{"type":"Feature","id":"label-MKD-2912","properties":{"kind":"division-label","code":"MKD-2912","countryCode":"MKD","name":"Studeničani","localName":"Studeničani","labelEnglish":"Studeničani","labelLocal":"Studeničani","labelBoth":"Studeničani","type":"Statistical Region","iso":"MK-74","qid":"Q2088034"},"geometry":{"type":"Point","coordinates":[21.4592,41.8317]}},{"type":"Feature","id":"MKD-2938","properties":{"kind":"division","code":"MKD-2938","countryCode":"MKD","name":"Kisela Voda","localName":"Kisela Voda","labelEnglish":"Kisela Voda","labelLocal":"Kisela Voda","labelBoth":"Kisela Voda","type":"Municipality","iso":"MK-39","qid":"Q1386136"},"geometry":{"type":"Polygon","coordinates":[[[21.4474,41.9255],[21.5361,41.9187],[21.4345,41.9718],[21.4278,41.9551],[21.4285,41.9454],[21.4474,41.9255]]]}},{"type":"Feature","id":"label-MKD-2938","properties":{"kind":"division-label","code":"MKD-2938","countryCode":"MKD","name":"Kisela Voda","localName":"Kisela Voda","labelEnglish":"Kisela Voda","labelLocal":"Kisela Voda","labelBoth":"Kisela Voda","type":"Municipality","iso":"MK-39","qid":"Q1386136"},"geometry":{"type":"Point","coordinates":[21.4817,41.9346]}},{"type":"Feature","id":"MKD-2904","properties":{"kind":"division","code":"MKD-2904","countryCode":"MKD","name":"Probištip","localName":"Probištip","labelEnglish":"Probištip","labelLocal":"Probištip","labelBoth":"Probištip","type":"Statistical Region","iso":"MK-63","qid":"Q2270414"},"geometry":{"type":"Polygon","coordinates":[[[22.2563,41.9482],[22.3368,42.0261],[22.0248,42.0002],[22.0986,41.8675],[22.1472,41.8597],[22.2245,41.8492],[22.2563,41.9482]]]}},{"type":"Feature","id":"label-MKD-2904","properties":{"kind":"division-label","code":"MKD-2904","countryCode":"MKD","name":"Probištip","localName":"Probištip","labelEnglish":"Probištip","labelLocal":"Probištip","labelBoth":"Probištip","type":"Statistical Region","iso":"MK-63","qid":"Q2270414"},"geometry":{"type":"Point","coordinates":[22.174,41.9372]}},{"type":"Feature","id":"MKD-2925","properties":{"kind":"division","code":"MKD-2925","countryCode":"MKD","name":"Češinovo-Obleševo","localName":"Češinovo-Obleševo","labelEnglish":"Češinovo-Obleševo","labelLocal":"Češinovo-Obleševo","labelBoth":"Češinovo-Obleševo","type":"Statistical Region","iso":"MK-81","qid":"Q281898"},"geometry":{"type":"Polygon","coordinates":[[[22.2563,41.9482],[22.2245,41.8492],[22.391,41.7922],[22.3565,41.8467],[22.2563,41.9482]]]}},{"type":"Feature","id":"label-MKD-2925","properties":{"kind":"division-label","code":"MKD-2925","countryCode":"MKD","name":"Češinovo-Obleševo","localName":"Češinovo-Obleševo","labelEnglish":"Češinovo-Obleševo","labelLocal":"Češinovo-Obleševo","labelBoth":"Češinovo-Obleševo","type":"Statistical Region","iso":"MK-81","qid":"Q281898"},"geometry":{"type":"Point","coordinates":[22.2896,41.8644]}},{"type":"Feature","id":"MKD-2919","properties":{"kind":"division","code":"MKD-2919","countryCode":"MKD","name":"Aračinovo","localName":"Aračinovo","labelEnglish":"Aračinovo","labelLocal":"Aračinovo","labelBoth":"Aračinovo","type":"Statistical Region","iso":"MK-02","qid":"Q597345"},"geometry":{"type":"Polygon","coordinates":[[[21.54,41.9874],[21.6335,42.04],[21.6037,42.0594],[21.5409,42.0702],[21.54,41.9874]]]}},{"type":"Feature","id":"label-MKD-2919","properties":{"kind":"division-label","code":"MKD-2919","countryCode":"MKD","name":"Aračinovo","localName":"Aračinovo","labelEnglish":"Aračinovo","labelLocal":"Aračinovo","labelBoth":"Aračinovo","type":"Statistical Region","iso":"MK-02","qid":"Q597345"},"geometry":{"type":"Point","coordinates":[21.5862,42.0185]}},{"type":"Feature","id":"MKD-2917","properties":{"kind":"division","code":"MKD-2917","countryCode":"MKD","name":"Zelenikovo","localName":"Zelenikovo","labelEnglish":"Zelenikovo","labelLocal":"Zelenikovo","labelBoth":"Zelenikovo","type":"Statistical Region","iso":"MK-32","qid":"Q9050283"},"geometry":{"type":"Polygon","coordinates":[[[21.4831,41.7446],[21.5709,41.7403],[21.6272,41.8199],[21.5864,41.8949],[21.4831,41.7446]]]}},{"type":"Feature","id":"label-MKD-2917","properties":{"kind":"division-label","code":"MKD-2917","countryCode":"MKD","name":"Zelenikovo","localName":"Zelenikovo","labelEnglish":"Zelenikovo","labelLocal":"Zelenikovo","labelBoth":"Zelenikovo","type":"Statistical Region","iso":"MK-32","qid":"Q9050283"},"geometry":{"type":"Point","coordinates":[21.5518,41.8091]}},{"type":"Feature","id":"MKD-2954","properties":{"kind":"division","code":"MKD-2954","countryCode":"MKD","name":"Kičevo","localName":"Kičevo","labelEnglish":"Kičevo","labelLocal":"Kičevo","labelBoth":"Kičevo","type":"Statistical Region","iso":"MK-40","qid":"Q2018957"},"geometry":{"type":"Polygon","coordinates":[[[20.9673,41.5499],[20.8969,41.5213],[20.9755,41.4693],[21.0053,41.5042],[20.9673,41.5499]]]}},{"type":"Feature","id":"label-MKD-2954","properties":{"kind":"division-label","code":"MKD-2954","countryCode":"MKD","name":"Kičevo","localName":"Kičevo","labelEnglish":"Kičevo","labelLocal":"Kičevo","labelBoth":"Kičevo","type":"Statistical Region","iso":"MK-40","qid":"Q2018957"},"geometry":{"type":"Point","coordinates":[20.9511,41.517]}},{"type":"Feature","id":"MKD-2902","properties":{"kind":"division","code":"MKD-2902","countryCode":"MKD","name":"Plasnica","localName":"Plasnica","labelEnglish":"Plasnica","labelLocal":"Plasnica","labelBoth":"Plasnica","type":"Statistical Region","iso":"MK-61","qid":"Q2018921"},"geometry":{"type":"Polygon","coordinates":[[[21.1952,41.4291],[21.0762,41.4667],[21.0712,41.4287],[21.1335,41.405],[21.1952,41.4291]]]}},{"type":"Feature","id":"label-MKD-2902","properties":{"kind":"division-label","code":"MKD-2902","countryCode":"MKD","name":"Plasnica","localName":"Plasnica","labelEnglish":"Plasnica","labelLocal":"Plasnica","labelBoth":"Plasnica","type":"Statistical Region","iso":"MK-61","qid":"Q2018921"},"geometry":{"type":"Point","coordinates":[21.1173,41.4424]}},{"type":"Feature","id":"MKD-2916","properties":{"kind":"division","code":"MKD-2916","countryCode":"MKD","name":"Vraneštica","localName":"Vraneštica","labelEnglish":"Vraneštica","labelLocal":"Vraneštica","labelBoth":"Vraneštica","type":"Statistical Region","iso":"MK-15","qid":"Q1998500"},"geometry":{"type":"Polygon","coordinates":[[[21.0762,41.4667],[21.1015,41.5798],[21.0053,41.5042],[20.9755,41.4693],[21.0712,41.4287],[21.0762,41.4667]]]}},{"type":"Feature","id":"label-MKD-2916","properties":{"kind":"division-label","code":"MKD-2916","countryCode":"MKD","name":"Vraneštica","localName":"Vraneštica","labelEnglish":"Vraneštica","labelLocal":"Vraneštica","labelBoth":"Vraneštica","type":"Statistical Region","iso":"MK-15","qid":"Q1998500"},"geometry":{"type":"Point","coordinates":[21.015,41.4746]}},{"type":"Feature","id":"MKD-2901","properties":{"kind":"division","code":"MKD-2901","countryCode":"MKD","name":"Skopje","localName":"Skopje","labelEnglish":"Skopje","labelLocal":"Skopje","labelBoth":"Skopje","type":"Statistical Region","iso":"MK-85","qid":"Q384"},"geometry":{"type":"Polygon","coordinates":[[[21.572,41.9101],[21.5864,41.8949],[21.6272,41.8199],[21.8032,41.9116],[21.8129,41.9419],[21.6867,41.9838],[21.5829,41.9197],[21.572,41.9101]]]}},{"type":"Feature","id":"label-MKD-2901","properties":{"kind":"division-label","code":"MKD-2901","countryCode":"MKD","name":"Skopje","localName":"Skopje","labelEnglish":"Skopje","labelLocal":"Skopje","labelBoth":"Skopje","type":"Statistical Region","iso":"MK-85","qid":"Q384"},"geometry":{"type":"Point","coordinates":[21.6898,41.8999]}},{"type":"Feature","id":"MKD-2931","properties":{"kind":"division","code":"MKD-2931","countryCode":"MKD","name":"Lozovo","localName":"Lozovo","labelEnglish":"Lozovo","labelLocal":"Lozovo","labelBoth":"Lozovo","type":"Statistical Region","iso":"MK-49","qid":"Q1996470"},"geometry":{"type":"Polygon","coordinates":[[[21.8489,41.8349],[21.8614,41.712],[21.9612,41.664],[22.014,41.7329],[21.8489,41.8349]]]}},{"type":"Feature","id":"label-MKD-2931","properties":{"kind":"division-label","code":"MKD-2931","countryCode":"MKD","name":"Lozovo","localName":"Lozovo","labelEnglish":"Lozovo","labelLocal":"Lozovo","labelBoth":"Lozovo","type":"Statistical Region","iso":"MK-49","qid":"Q1996470"},"geometry":{"type":"Point","coordinates":[21.915,41.7258]}},{"type":"Feature","id":"MKD-2914","properties":{"kind":"division","code":"MKD-2914","countryCode":"MKD","name":"Sveti Nikole","localName":"Sveti Nikole","labelEnglish":"Sveti Nikole","labelLocal":"Sveti Nikole","labelBoth":"Sveti Nikole","type":"Statistical Region","iso":"MK-69","qid":"Q2308277"},"geometry":{"type":"Polygon","coordinates":[[[22.014,41.7329],[22.0986,41.8675],[22.0248,42.0002],[21.9858,41.9996],[21.8129,41.9419],[21.8032,41.9116],[21.8489,41.8349],[22.014,41.7329]]]}},{"type":"Feature","id":"label-MKD-2914","properties":{"kind":"division-label","code":"MKD-2914","countryCode":"MKD","name":"Sveti Nikole","localName":"Sveti Nikole","labelEnglish":"Sveti Nikole","labelLocal":"Sveti Nikole","labelBoth":"Sveti Nikole","type":"Statistical Region","iso":"MK-69","qid":"Q2308277"},"geometry":{"type":"Point","coordinates":[21.9509,41.8778]}},{"type":"Feature","id":"MKD-2930","properties":{"kind":"division","code":"MKD-2930","countryCode":"MKD","name":"Gradsko","localName":"Gradsko","labelEnglish":"Gradsko","labelLocal":"Gradsko","labelBoth":"Gradsko","type":"Statistical Region","iso":"MK-20","qid":"Q1992701"},"geometry":{"type":"Polygon","coordinates":[[[21.9834,41.5525],[22.0108,41.6535],[21.9612,41.664],[21.8614,41.712],[21.7734,41.6019],[21.8161,41.4879],[21.9834,41.5525]]]}},{"type":"Feature","id":"label-MKD-2930","properties":{"kind":"division-label","code":"MKD-2930","countryCode":"MKD","name":"Gradsko","localName":"Gradsko","labelEnglish":"Gradsko","labelLocal":"Gradsko","labelBoth":"Gradsko","type":"Statistical Region","iso":"MK-20","qid":"Q1992701"},"geometry":{"type":"Point","coordinates":[21.9019,41.5864]}},{"type":"Feature","id":"MKD-2940","properties":{"kind":"division","code":"MKD-2940","countryCode":"MKD","name":"Kratovo","localName":"Kratovo","labelEnglish":"Kratovo","labelLocal":"Kratovo","labelBoth":"Kratovo","type":"Statistical Region","iso":"MK-43","qid":"Q1992716"},"geometry":{"type":"Polygon","coordinates":[[[22.3368,42.0261],[22.3466,42.0945],[22.2034,42.1203],[22.0237,42.1635],[21.946,42.0974],[21.9858,41.9996],[22.0248,42.0002],[22.3368,42.0261]]]}},{"type":"Feature","id":"label-MKD-2940","properties":{"kind":"division-label","code":"MKD-2940","countryCode":"MKD","name":"Kratovo","localName":"Kratovo","labelEnglish":"Kratovo","labelLocal":"Kratovo","labelBoth":"Kratovo","type":"Statistical Region","iso":"MK-43","qid":"Q1992716"},"geometry":{"type":"Point","coordinates":[22.138,42.0592]}},{"type":"Feature","id":"MKD-2933","properties":{"kind":"division","code":"MKD-2933","countryCode":"MKD","name":"Ilinden","localName":"Ilinden","labelEnglish":"Ilinden","labelLocal":"Ilinden","labelBoth":"Ilinden","type":"Statistical Region","iso":"MK-34","qid":"Q657754"},"geometry":{"type":"Polygon","coordinates":[[[21.5829,41.9197],[21.6867,41.9838],[21.6335,42.04],[21.54,41.9874],[21.5829,41.9197]]]}},{"type":"Feature","id":"label-MKD-2933","properties":{"kind":"division-label","code":"MKD-2933","countryCode":"MKD","name":"Ilinden","localName":"Ilinden","labelEnglish":"Ilinden","labelLocal":"Ilinden","labelBoth":"Ilinden","type":"Statistical Region","iso":"MK-34","qid":"Q657754"},"geometry":{"type":"Point","coordinates":[21.6093,41.9758]}},{"type":"Feature","id":"MKD-2934","properties":{"kind":"division","code":"MKD-2934","countryCode":"MKD","name":"Karbinci","localName":"Karbinci","labelEnglish":"Karbinci","labelLocal":"Karbinci","labelBoth":"Karbinci","type":"Statistical Region","iso":"MK-37","qid":"Q1346554"},"geometry":{"type":"Polygon","coordinates":[[[22.2245,41.8492],[22.1472,41.8597],[22.401,41.7127],[22.4462,41.7702],[22.4466,41.7893],[22.391,41.7922],[22.2245,41.8492]]]}},{"type":"Feature","id":"label-MKD-2934","properties":{"kind":"division-label","code":"MKD-2934","countryCode":"MKD","name":"Karbinci","localName":"Karbinci","labelEnglish":"Karbinci","labelLocal":"Karbinci","labelBoth":"Karbinci","type":"Statistical Region","iso":"MK-37","qid":"Q1346554"},"geometry":{"type":"Point","coordinates":[22.2847,41.7659]}},{"type":"Feature","id":"MKD-2911","properties":{"kind":"division","code":"MKD-2911","countryCode":"MKD","name":"Štip","localName":"Štip","labelEnglish":"Štip","labelLocal":"Štip","labelBoth":"Štip","type":"Statistical Region","iso":"MK-83","qid":"Q2423082"},"geometry":{"type":"Polygon","coordinates":[[[22.0108,41.6535],[22.2603,41.5436],[22.3234,41.5988],[22.401,41.7127],[22.1472,41.8597],[22.0986,41.8675],[22.014,41.7329],[21.9612,41.664],[22.0108,41.6535]]]}},{"type":"Feature","id":"label-MKD-2911","properties":{"kind":"division-label","code":"MKD-2911","countryCode":"MKD","name":"Štip","localName":"Štip","labelEnglish":"Štip","labelLocal":"Štip","labelBoth":"Štip","type":"Statistical Region","iso":"MK-83","qid":"Q2423082"},"geometry":{"type":"Point","coordinates":[22.1689,41.6824]}},{"type":"Feature","id":"MKD-2939","properties":{"kind":"division","code":"MKD-2939","countryCode":"MKD","name":"Kočani","localName":"Kočani","labelEnglish":"Kočani","labelLocal":"Kočani","labelBoth":"Kočani","type":"Statistical Region","iso":"MK-42","qid":"Q1819289"},"geometry":{"type":"Polygon","coordinates":[[[22.2563,41.9482],[22.3565,41.8467],[22.4355,41.8695],[22.5177,41.9452],[22.417,42.0996],[22.3466,42.0945],[22.3368,42.0261],[22.2563,41.9482]]]}},{"type":"Feature","id":"label-MKD-2939","properties":{"kind":"division-label","code":"MKD-2939","countryCode":"MKD","name":"Kočani","localName":"Kočani","labelEnglish":"Kočani","labelLocal":"Kočani","labelBoth":"Kočani","type":"Statistical Region","iso":"MK-42","qid":"Q1819289"},"geometry":{"type":"Point","coordinates":[22.3869,41.9798]}},{"type":"Feature","id":"MKD-2924","properties":{"kind":"division","code":"MKD-2924","countryCode":"MKD","name":"Zrnovci","localName":"Zrnovci","labelEnglish":"Zrnovci","labelLocal":"Zrnovci","labelBoth":"Zrnovci","type":"Statistical Region","iso":"MK-33","qid":"Q950881"},"geometry":{"type":"Polygon","coordinates":[[[22.3565,41.8467],[22.391,41.7922],[22.4466,41.7893],[22.4355,41.8695],[22.3565,41.8467]]]}},{"type":"Feature","id":"label-MKD-2924","properties":{"kind":"division-label","code":"MKD-2924","countryCode":"MKD","name":"Zrnovci","localName":"Zrnovci","labelEnglish":"Zrnovci","labelLocal":"Zrnovci","labelBoth":"Zrnovci","type":"Statistical Region","iso":"MK-33","qid":"Q950881"},"geometry":{"type":"Point","coordinates":[22.4027,41.8224]}},{"type":"Feature","id":"MKD-2915","properties":{"kind":"division","code":"MKD-2915","countryCode":"MKD","name":"Veles","localName":"Veles","labelEnglish":"Veles","labelLocal":"Veles","labelBoth":"Veles","type":"Statistical Region","iso":"MK-13","qid":"Q2088561"},"geometry":{"type":"Polygon","coordinates":[[[21.5709,41.7403],[21.7734,41.6019],[21.8614,41.712],[21.8489,41.8349],[21.8032,41.9116],[21.6272,41.8199],[21.5709,41.7403]]]}},{"type":"Feature","id":"label-MKD-2915","properties":{"kind":"division-label","code":"MKD-2915","countryCode":"MKD","name":"Veles","localName":"Veles","labelEnglish":"Veles","labelLocal":"Veles","labelBoth":"Veles","type":"Statistical Region","iso":"MK-13","qid":"Q2088561"},"geometry":{"type":"Point","coordinates":[21.7157,41.7213]}},{"type":"Feature","id":"MKD-2927","properties":{"kind":"division","code":"MKD-2927","countryCode":"MKD","name":"Demir Kapija","localName":"Demir Kapija","labelEnglish":"Demir Kapija","labelLocal":"Demir Kapija","labelBoth":"Demir Kapija","type":"Statistical Region","iso":"MK-24","qid":"Q2370973"},"geometry":{"type":"Polygon","coordinates":[[[22.3001,41.4893],[22.0848,41.3493],[22.282,41.3059],[22.3365,41.378],[22.33,41.4247],[22.3001,41.4893]]]}},{"type":"Feature","id":"label-MKD-2927","properties":{"kind":"division-label","code":"MKD-2927","countryCode":"MKD","name":"Demir Kapija","localName":"Demir Kapija","labelEnglish":"Demir Kapija","labelLocal":"Demir Kapija","labelBoth":"Demir Kapija","type":"Statistical Region","iso":"MK-24","qid":"Q2370973"},"geometry":{"type":"Point","coordinates":[22.2161,41.3739]}},{"type":"Feature","id":"MKD-3003","properties":{"kind":"division","code":"MKD-3003","countryCode":"MKD","name":"Vinica","localName":"Vinica","labelEnglish":"Vinica","labelLocal":"Vinica","labelBoth":"Vinica","type":"Statistical Region","iso":"MK-14","qid":"Q2479526"},"geometry":{"type":"Polygon","coordinates":[[[22.4462,41.7702],[22.6209,41.7271],[22.6744,41.8072],[22.6059,41.9825],[22.5177,41.9452],[22.4355,41.8695],[22.4466,41.7893],[22.4462,41.7702]]]}},{"type":"Feature","id":"label-MKD-3003","properties":{"kind":"division-label","code":"MKD-3003","countryCode":"MKD","name":"Vinica","localName":"Vinica","labelEnglish":"Vinica","labelLocal":"Vinica","labelBoth":"Vinica","type":"Statistical Region","iso":"MK-14","qid":"Q2479526"},"geometry":{"type":"Point","coordinates":[22.5742,41.8652]}},{"type":"Feature","id":"MKD-2997","properties":{"kind":"division","code":"MKD-2997","countryCode":"MKD","name":"Bosilovo","localName":"Bosilovo","labelEnglish":"Bosilovo","labelLocal":"Bosilovo","labelBoth":"Bosilovo","type":"Statistical Region","iso":"MK-07","qid":"Q1779775"},"geometry":{"type":"Polygon","coordinates":[[[22.8581,41.5171],[22.7281,41.5694],[22.6743,41.4729],[22.7862,41.3973],[22.8581,41.5171]]]}},{"type":"Feature","id":"label-MKD-2997","properties":{"kind":"division-label","code":"MKD-2997","countryCode":"MKD","name":"Bosilovo","localName":"Bosilovo","labelEnglish":"Bosilovo","labelLocal":"Bosilovo","labelBoth":"Bosilovo","type":"Statistical Region","iso":"MK-07","qid":"Q1779775"},"geometry":{"type":"Point","coordinates":[22.7665,41.4665]}},{"type":"Feature","id":"MKD-2905","properties":{"kind":"division","code":"MKD-2905","countryCode":"MKD","name":"Radoviš","localName":"Radoviš","labelEnglish":"Radoviš","labelLocal":"Radoviš","labelBoth":"Radoviš","type":"Statistical Region","iso":"MK-64","qid":"Q2738284"},"geometry":{"type":"Polygon","coordinates":[[[22.401,41.7127],[22.3234,41.5988],[22.5037,41.5073],[22.6292,41.6341],[22.6209,41.7271],[22.4462,41.7702],[22.401,41.7127]]]}},{"type":"Feature","id":"label-MKD-2905","properties":{"kind":"division-label","code":"MKD-2905","countryCode":"MKD","name":"Radoviš","localName":"Radoviš","labelEnglish":"Radoviš","labelLocal":"Radoviš","labelBoth":"Radoviš","type":"Statistical Region","iso":"MK-64","qid":"Q2738284"},"geometry":{"type":"Point","coordinates":[22.4679,41.6365]}},{"type":"Feature","id":"MKD-2995","properties":{"kind":"division","code":"MKD-2995","countryCode":"MKD","name":"Vasilevo","localName":"Vasilevo","labelEnglish":"Vasilevo","labelLocal":"Vasilevo","labelBoth":"Vasilevo","type":"Statistical Region","iso":"MK-11","qid":"Q2018980"},"geometry":{"type":"Polygon","coordinates":[[[22.5089,41.4666],[22.6743,41.4729],[22.7281,41.5694],[22.6292,41.6341],[22.5037,41.5073],[22.5089,41.4666]]]}},{"type":"Feature","id":"label-MKD-2995","properties":{"kind":"division-label","code":"MKD-2995","countryCode":"MKD","name":"Vasilevo","localName":"Vasilevo","labelEnglish":"Vasilevo","labelLocal":"Vasilevo","labelBoth":"Vasilevo","type":"Statistical Region","iso":"MK-11","qid":"Q2018980"},"geometry":{"type":"Point","coordinates":[22.6159,41.5436]}},{"type":"Feature","id":"MKD-2932","properties":{"kind":"division","code":"MKD-2932","countryCode":"MKD","name":"Konče","localName":"Konče","labelEnglish":"Konče","labelLocal":"Konče","labelBoth":"Konče","type":"Statistical Region","iso":"MK-41","qid":"Q1992728"},"geometry":{"type":"Polygon","coordinates":[[[22.3001,41.4893],[22.33,41.4247],[22.4458,41.446],[22.5089,41.4666],[22.5037,41.5073],[22.3234,41.5988],[22.2603,41.5436],[22.3001,41.4893]]]}},{"type":"Feature","id":"label-MKD-2932","properties":{"kind":"division-label","code":"MKD-2932","countryCode":"MKD","name":"Konče","localName":"Konče","labelEnglish":"Konče","labelLocal":"Konče","labelBoth":"Konče","type":"Statistical Region","iso":"MK-41","qid":"Q1992728"},"geometry":{"type":"Point","coordinates":[22.384,41.5123]}}]}