{"type":"FeatureCollection","features":[{"type":"Feature","id":"MLI-2793","properties":{"kind":"division","code":"MLI-2793","countryCode":"MLI","name":"Kayes","localName":"Kayes","labelEnglish":"Kayes","labelLocal":"Kayes","labelBoth":"Kayes","type":"Region","iso":"ML-1","qid":"Q332113"},"geometry":{"type":"Polygon","coordinates":[[[-11.9,13.3822],[-11.6131,13.3608],[-11.3844,12.9331],[-11.4678,12.5435],[-11.3884,12.4039],[-11.4708,12.1346],[-11.3513,12.0404],[-11.1846,12.0211],[-10.9098,12.2001],[-10.7114,11.8904],[-10.5116,12.1181],[-10.2669,12.2178],[-9.8888,12.0606],[-9.3085,12.345],[-9.3215,12.4966],[-9.0278,12.4048],[-8.891,12.65],[-8.5982,12.8069],[-8.4566,13.463],[-8.4576,13.8231],[-8.8466,13.9687],[-8.8094,14.2882],[-8.594,14.408],[-8.443,14.2979],[-8.1321,14.34],[-8.1501,14.488],[-8.463,14.6979],[-8.507,14.963],[-8.741,15.026],[-8.8041,15.245],[-9.1414,15.4956],[-9.8356,15.3711],[-10.5847,15.4281],[-10.7364,15.4226],[-10.9152,15.1029],[-11.4096,15.6022],[-11.7017,15.5374],[-11.8457,15.1791],[-11.8204,14.9],[-12.0704,14.7344],[-12.2641,14.7749],[-12.2217,14.3912],[-12.0345,14.2503],[-11.9629,13.9092],[-12.0976,13.7044],[-11.9,13.3822]]]}},{"type":"Feature","id":"label-MLI-2793","properties":{"kind":"division-label","code":"MLI-2793","countryCode":"MLI","name":"Kayes","localName":"Kayes","labelEnglish":"Kayes","labelLocal":"Kayes","labelBoth":"Kayes","type":"Region","iso":"ML-1","qid":"Q332113"},"geometry":{"type":"Point","coordinates":[-10.1984,13.7959]}},{"type":"Feature","id":"MLI-2688","properties":{"kind":"division","code":"MLI-2688","countryCode":"MLI","name":"Tombouctou","localName":"Tombouctou","labelEnglish":"Tombouctou","labelLocal":"Tombouctou","labelBoth":"Tombouctou","type":"Region","iso":"ML-6","qid":"Q339462"},"geometry":{"type":"Polygon","coordinates":[[[-4.8216,24.9951],[-6.5931,24.9941],[-6.5063,24.276],[-6.3716,23.124],[-6.2194,21.8229],[-5.9635,19.6206],[-5.7565,17.741],[-5.6233,16.5278],[-5.3533,16.312],[-5.5088,15.5069],[-5.3571,15.553],[-4.688,15.581],[-3.983,15.825],[-3.845,15.4939],[-3.642,15.4909],[-3.4821,15.7329],[-2.924,15.8539],[-2.597,15.3689],[-1.686,15.4309],[-1.214,15.1789],[-0.7713,15.0566],[-0.5003,15.0797],[-0.694,16.047],[-0.7171,16.9499],[-1.6085,17.0357],[-1.7069,17.5145],[-0.9347,17.8861],[-0.8852,18.9553],[-0.9643,19.0642],[-2.0434,19.9155],[-1.3208,20.2818],[-0.2219,21.153],[0.0037,21.8489],[-0.9636,22.4813],[-2.5232,23.501],[-3.4485,24.106],[-4.8216,24.9951]]]}},{"type":"Feature","id":"label-MLI-2688","properties":{"kind":"division-label","code":"MLI-2688","countryCode":"MLI","name":"Tombouctou","localName":"Tombouctou","labelEnglish":"Tombouctou","labelLocal":"Tombouctou","labelBoth":"Tombouctou","type":"Region","iso":"ML-6","qid":"Q339462"},"geometry":{"type":"Point","coordinates":[-3.295,19.9073]}},{"type":"Feature","id":"MLI-2690","properties":{"kind":"division","code":"MLI-2690","countryCode":"MLI","name":"Gao","localName":"Gao","labelEnglish":"Gao","labelLocal":"Gao","labelBoth":"Gao","type":"Region","iso":"ML-7","qid":"Q332392"},"geometry":{"type":"Polygon","coordinates":[[[-0.5003,15.0797],[0.2185,14.911],[0.2213,14.9959],[0.6701,14.9397],[0.9737,14.9913],[1.3315,15.2836],[3.0002,15.3391],[3.073,15.4272],[3.5071,15.354],[3.5265,15.496],[3.8738,15.7209],[4.0606,16.2983],[4.184,16.4161],[4.2356,16.9959],[4.2324,17.9752],[1.9758,17.9752],[1.7976,17.7574],[1.2037,17.6287],[0.5701,18.1336],[0.0652,18.7078],[-0.8852,18.9553],[-0.9347,17.8861],[-1.7069,17.5145],[-1.6085,17.0357],[-0.7171,16.9499],[-0.694,16.047],[-0.5003,15.0797]]]}},{"type":"Feature","id":"label-MLI-2690","properties":{"kind":"division-label","code":"MLI-2690","countryCode":"MLI","name":"Gao","localName":"Gao","labelEnglish":"Gao","labelLocal":"Gao","labelBoth":"Gao","type":"Region","iso":"ML-7","qid":"Q332392"},"geometry":{"type":"Point","coordinates":[1.2641,16.4482]}},{"type":"Feature","id":"MLI-2809","properties":{"kind":"division","code":"MLI-2809","countryCode":"MLI","name":"Mopti","localName":"Mopti","labelEnglish":"Mopti","labelLocal":"Mopti","labelBoth":"Mopti","type":"Region","iso":"ML-5","qid":"Q214155"},"geometry":{"type":"Polygon","coordinates":[[[-1.0431,14.8181],[-0.7713,15.0566],[-1.214,15.1789],[-1.686,15.4309],[-2.597,15.3689],[-2.924,15.8539],[-3.4821,15.7329],[-3.642,15.4909],[-3.845,15.4939],[-3.983,15.825],[-4.688,15.581],[-5.3571,15.553],[-5.184,15.4709],[-5.1,15.1959],[-5.272,14.9729],[-5.546,14.9309],[-5.664,14.532],[-5.283,14.2989],[-5.208,13.9899],[-4.854,13.9689],[-4.855,13.5889],[-4.387,13.6469],[-4.086,13.927],[-3.9655,13.4892],[-3.984,13.3965],[-3.4739,13.1676],[-3.2486,13.2928],[-3.2671,13.717],[-2.9305,13.6385],[-2.8409,14.043],[-2.6763,14.1417],[-2.4617,14.2809],[-2.085,14.1597],[-1.967,14.4837],[-1.6969,14.4961],[-1.0431,14.8181]]]}},{"type":"Feature","id":"label-MLI-2809","properties":{"kind":"division-label","code":"MLI-2809","countryCode":"MLI","name":"Mopti","localName":"Mopti","labelEnglish":"Mopti","labelLocal":"Mopti","labelBoth":"Mopti","type":"Region","iso":"ML-5","qid":"Q214155"},"geometry":{"type":"Point","coordinates":[-3.21795,14.7873]}},{"type":"Feature","id":"MLI-2810","properties":{"kind":"division","code":"MLI-2810","countryCode":"MLI","name":"Ségou","localName":"Ségou","labelEnglish":"Ségou","labelLocal":"Ségou","labelBoth":"Ségou","type":"Region","iso":"ML-4","qid":"Q656845"},"geometry":{"type":"Polygon","coordinates":[[[-3.9655,13.4892],[-4.086,13.927],[-4.387,13.6469],[-4.855,13.5889],[-4.854,13.9689],[-5.208,13.9899],[-5.283,14.2989],[-5.664,14.532],[-5.546,14.9309],[-5.272,14.9729],[-5.1,15.1959],[-5.184,15.4709],[-5.3571,15.553],[-5.5088,15.5069],[-6.3201,15.4945],[-6.545,14.9439],[-6.382,14.536],[-6.582,14.4799],[-6.9001,13.998],[-6.9001,13.749],[-6.717,13.4519],[-6.9261,13.342],[-7.081,13.016],[-6.881,12.765],[-6.625,12.8089],[-6.261,12.5549],[-5.579,12.8169],[-5.434,12.607],[-5.269,12.7959],[-5.065,12.5749],[-4.4644,12.7173],[-4.2455,12.7289],[-4.3511,13.1183],[-3.9655,13.4892]]]}},{"type":"Feature","id":"label-MLI-2810","properties":{"kind":"division-label","code":"MLI-2810","countryCode":"MLI","name":"Ségou","localName":"Ségou","labelEnglish":"Ségou","labelLocal":"Ségou","labelBoth":"Ségou","type":"Region","iso":"ML-4","qid":"Q656845"},"geometry":{"type":"Point","coordinates":[-5.51952,13.5852]}},{"type":"Feature","id":"MLI-2794","properties":{"kind":"division","code":"MLI-2794","countryCode":"MLI","name":"Wassoulou","localName":"Wassoulou","labelEnglish":"Wassoulou","labelLocal":"Wassoulou","labelBoth":"Wassoulou","type":"Region","iso":"ML-3","qid":"Q461298"},"geometry":{"type":"Polygon","coordinates":[[[-4.4644,12.7173],[-5.065,12.5749],[-5.269,12.7959],[-5.434,12.607],[-5.579,12.8169],[-6.261,12.5549],[-6.211,12.4009],[-5.951,12.2999],[-5.982,12.1219],[-6.3021,12.073],[-6.469,11.653],[-6.947,11.862],[-7.079,12.012],[-7.1161,12.4329],[-7.544,12.0059],[-8.071,11.686],[-8.4311,11.642],[-8.5394,11.4563],[-8.3753,11.3677],[-8.6154,11.1341],[-8.3111,11.0008],[-8.2955,10.5374],[-7.9646,10.2589],[-7.9897,10.162],[-7.6644,10.4371],[-7.4662,10.4295],[-7.347,10.2479],[-6.9594,10.1855],[-6.9731,10.3323],[-6.6683,10.3658],[-6.6692,10.6542],[-6.4215,10.5566],[-6.2458,10.7207],[-6.2433,10.289],[-6.0159,10.1899],[-5.8063,10.4135],[-5.5226,10.4255],[-5.4314,10.8447],[-5.5056,11.048],[-5.3223,11.1355],[-5.2183,11.4222],[-5.2825,11.8364],[-5.1678,11.9437],[-4.7323,12.0373],[-4.6527,12.0716],[-4.3869,12.5302],[-4.4644,12.7173]]]}},{"type":"Feature","id":"label-MLI-2794","properties":{"kind":"division-label","code":"MLI-2794","countryCode":"MLI","name":"Wassoulou","localName":"Wassoulou","labelEnglish":"Wassoulou","labelLocal":"Wassoulou","labelBoth":"Wassoulou","type":"Region","iso":"ML-3","qid":"Q461298"},"geometry":{"type":"Point","coordinates":[-6.54441,11.155]}},{"type":"Feature","id":"MLI-4860","properties":{"kind":"division","code":"MLI-4860","countryCode":"MLI","name":"Koulikoro","localName":"Koulikoro","labelEnglish":"Koulikoro","labelLocal":"Koulikoro","labelBoth":"Koulikoro","type":"Region","iso":"ML-2","qid":"Q287789"},"geometry":{"type":"Polygon","coordinates":[[[-9.0278,12.4048],[-8.7265,11.6495],[-8.5394,11.4563],[-8.4311,11.642],[-8.071,11.686],[-7.544,12.0059],[-7.1161,12.4329],[-7.079,12.012],[-6.947,11.862],[-6.469,11.653],[-6.3021,12.073],[-5.982,12.1219],[-5.951,12.2999],[-6.211,12.4009],[-6.261,12.5549],[-6.625,12.8089],[-6.881,12.765],[-7.081,13.016],[-6.9261,13.342],[-6.717,13.4519],[-6.9001,13.749],[-6.9001,13.998],[-6.582,14.4799],[-6.382,14.536],[-6.545,14.9439],[-6.3201,15.4945],[-8.0178,15.4951],[-9.0032,15.4955],[-9.1414,15.4956],[-8.8041,15.245],[-8.741,15.026],[-8.507,14.963],[-8.463,14.6979],[-8.1501,14.488],[-8.1321,14.34],[-8.443,14.2979],[-8.594,14.408],[-8.8094,14.2882],[-8.8466,13.9687],[-8.4576,13.8231],[-8.4566,13.463],[-8.5982,12.8069],[-8.891,12.65],[-9.0278,12.4048]],[[-7.9781,12.5429],[-8.0512,12.6908],[-7.9386,12.6616],[-7.9781,12.5429]]]}},{"type":"Feature","id":"label-MLI-4860","properties":{"kind":"division-label","code":"MLI-4860","countryCode":"MLI","name":"Koulikoro","localName":"Koulikoro","labelEnglish":"Koulikoro","labelLocal":"Koulikoro","labelBoth":"Koulikoro","type":"Region","iso":"ML-2","qid":"Q287789"},"geometry":{"type":"Point","coordinates":[-7.54325,13.7514]}},{"type":"Feature","id":"MLI-2689","properties":{"kind":"division","code":"MLI-2689","countryCode":"MLI","name":"Kidal","localName":"Kidal","labelEnglish":"Kidal","labelLocal":"Kidal","labelBoth":"Kidal","type":"Region","iso":"ML-8","qid":"Q338988"},"geometry":{"type":"Polygon","coordinates":[[[0.0037,21.8489],[-0.2219,21.153],[-1.3208,20.2818],[-2.0434,19.9155],[-0.9643,19.0642],[-0.8852,18.9553],[0.0652,18.7078],[0.5701,18.1336],[1.2037,17.6287],[1.7976,17.7574],[1.9758,17.9752],[4.2324,17.9752],[4.2303,18.6454],[4.2286,19.1422],[3.7903,19.0608],[3.3084,18.9817],[3.1027,19.1536],[3.251,19.3655],[3.2168,19.7941],[2.946,19.9417],[2.4004,20.0566],[2.1824,20.2785],[1.8914,20.2318],[1.644,20.5227],[1.1685,20.7335],[1.1465,21.1017],[0.0037,21.8489]]]}},{"type":"Feature","id":"label-MLI-2689","properties":{"kind":"division-label","code":"MLI-2689","countryCode":"MLI","name":"Kidal","localName":"Kidal","labelEnglish":"Kidal","labelLocal":"Kidal","labelBoth":"Kidal","type":"Region","iso":"ML-8","qid":"Q338988"},"geometry":{"type":"Point","coordinates":[1.09427,19.4258]}},{"type":"Feature","id":"MLI-2792","properties":{"kind":"division","code":"MLI-2792","countryCode":"MLI","name":"Bamako","localName":"Bamako","labelEnglish":"Bamako","labelLocal":"Bamako","labelBoth":"Bamako","type":"District","iso":"ML-BKO","qid":"Q3703"},"geometry":{"type":"Polygon","coordinates":[[[-7.9781,12.5429],[-7.9386,12.6616],[-8.0512,12.6908],[-7.9781,12.5429]]]}},{"type":"Feature","id":"label-MLI-2792","properties":{"kind":"division-label","code":"MLI-2792","countryCode":"MLI","name":"Bamako","localName":"Bamako","labelEnglish":"Bamako","labelLocal":"Bamako","labelBoth":"Bamako","type":"District","iso":"ML-BKO","qid":"Q3703"},"geometry":{"type":"Point","coordinates":[-8.01917,12.643]}}]}