{"type":"FeatureCollection","features":[{"type":"Feature","id":"MLT-5950","properties":{"kind":"division","code":"MLT-5950","countryCode":"MLT","name":"Kalkara","localName":"Kalkara","labelEnglish":"Kalkara","labelLocal":"Kalkara","labelBoth":"Kalkara","type":null,"iso":"MT-21","qid":"Q533257"},"geometry":{"type":"Polygon","coordinates":[[[14.5249,35.898],[14.5195,35.8943],[14.5294,35.8816],[14.54,35.8827],[14.548,35.89],[14.5249,35.898]]]}},{"type":"Feature","id":"label-MLT-5950","properties":{"kind":"division-label","code":"MLT-5950","countryCode":"MLT","name":"Kalkara","localName":"Kalkara","labelEnglish":"Kalkara","labelLocal":"Kalkara","labelBoth":"Kalkara","type":null,"iso":"MT-21","qid":"Q533257"},"geometry":{"type":"Point","coordinates":[14.5351,35.8871]}},{"type":"Feature","id":"MLT-5949","properties":{"kind":"division","code":"MLT-5949","countryCode":"MLT","name":"Valletta","localName":"Valletta","labelEnglish":"Valletta","labelLocal":"Valletta","labelBoth":"Valletta","type":null,"iso":"MT-60","qid":"Q23800"},"geometry":{"type":"Polygon","coordinates":[[[14.5139,35.9008],[14.5072,35.8987],[14.5016,35.8952],[14.5107,35.889],[14.5154,35.8911],[14.5195,35.8943],[14.5249,35.898],[14.5139,35.9008]]]}},{"type":"Feature","id":"label-MLT-5949","properties":{"kind":"division-label","code":"MLT-5949","countryCode":"MLT","name":"Valletta","localName":"Valletta","labelEnglish":"Valletta","labelLocal":"Valletta","labelBoth":"Valletta","type":null,"iso":"MT-60","qid":"Q23800"},"geometry":{"type":"Point","coordinates":[14.511,35.8948]}},{"type":"Feature","id":"MLT-5936","properties":{"kind":"division","code":"MLT-5936","countryCode":"MLT","name":"Sliema","localName":"Sliema","labelEnglish":"Sliema","labelLocal":"Sliema","labelBoth":"Sliema","type":null,"iso":"MT-56","qid":"Q39526"},"geometry":{"type":"Polygon","coordinates":[[[14.5104,35.9246],[14.4929,35.9066],[14.5072,35.8987],[14.5139,35.9008],[14.5104,35.9246]]]}},{"type":"Feature","id":"label-MLT-5936","properties":{"kind":"division-label","code":"MLT-5936","countryCode":"MLT","name":"Sliema","localName":"Sliema","labelEnglish":"Sliema","labelLocal":"Sliema","labelBoth":"Sliema","type":null,"iso":"MT-56","qid":"Q39526"},"geometry":{"type":"Point","coordinates":[14.4992,35.9083]}},{"type":"Feature","id":"MLT-5935","properties":{"kind":"division","code":"MLT-5935","countryCode":"MLT","name":"St. Julian's","localName":"St. Julian's","labelEnglish":"St. Julian's","labelLocal":"St. Julian's","labelBoth":"St. Julian's","type":null,"iso":"MT-48","qid":"Q669979"},"geometry":{"type":"Polygon","coordinates":[[[14.5014,35.9304],[14.4841,35.92],[14.482,35.9123],[14.4886,35.9047],[14.4929,35.9066],[14.5104,35.9246],[14.5014,35.9304]]]}},{"type":"Feature","id":"label-MLT-5935","properties":{"kind":"division-label","code":"MLT-5935","countryCode":"MLT","name":"St. Julian's","localName":"St. Julian's","labelEnglish":"St. Julian's","labelLocal":"St. Julian's","labelBoth":"St. Julian's","type":null,"iso":"MT-48","qid":"Q669979"},"geometry":{"type":"Point","coordinates":[14.4897,35.9126]}},{"type":"Feature","id":"MLT-5934","properties":{"kind":"division","code":"MLT-5934","countryCode":"MLT","name":"Pembroke","localName":"Pembroke","labelEnglish":"Pembroke","labelLocal":"Pembroke","labelBoth":"Pembroke","type":null,"iso":"MT-40","qid":"Q775756"},"geometry":{"type":"Polygon","coordinates":[[[14.4649,35.9466],[14.4625,35.9292],[14.4841,35.92],[14.5014,35.9304],[14.4649,35.9466]]]}},{"type":"Feature","id":"label-MLT-5934","properties":{"kind":"division-label","code":"MLT-5934","countryCode":"MLT","name":"Pembroke","localName":"Pembroke","labelEnglish":"Pembroke","labelLocal":"Pembroke","labelBoth":"Pembroke","type":null,"iso":"MT-40","qid":"Q775756"},"geometry":{"type":"Point","coordinates":[14.4756,35.9279]}},{"type":"Feature","id":"MLT-5928","properties":{"kind":"division","code":"MLT-5928","countryCode":"MLT","name":"Naxxar","localName":"Naxxar","labelEnglish":"Naxxar","labelLocal":"Naxxar","labelBoth":"Naxxar","type":null,"iso":"MT-38","qid":"Q44397"},"geometry":{"type":"Polygon","coordinates":[[[14.4382,35.9626],[14.4258,35.9203],[14.435,35.9058],[14.4465,35.9043],[14.4513,35.9129],[14.4551,35.9289],[14.4625,35.9292],[14.4649,35.9466],[14.4382,35.9626]]]}},{"type":"Feature","id":"label-MLT-5928","properties":{"kind":"division-label","code":"MLT-5928","countryCode":"MLT","name":"Naxxar","localName":"Naxxar","labelEnglish":"Naxxar","labelLocal":"Naxxar","labelBoth":"Naxxar","type":null,"iso":"MT-38","qid":"Q44397"},"geometry":{"type":"Point","coordinates":[14.4379,35.9289]}},{"type":"Feature","id":"MLT-5926","properties":{"kind":"division","code":"MLT-5926","countryCode":"MLT","name":"St. Paul's Bay","localName":"St. Paul's Bay","labelEnglish":"St. Paul's Bay","labelLocal":"St. Paul's Bay","labelBoth":"St. Paul's Bay","type":null,"iso":"MT-51","qid":"Q39521"},"geometry":{"type":"Polygon","coordinates":[[[14.4058,35.9678],[14.3737,35.9363],[14.4033,35.9082],[14.4258,35.9203],[14.4382,35.9626],[14.4058,35.9678]]]}},{"type":"Feature","id":"label-MLT-5926","properties":{"kind":"division-label","code":"MLT-5926","countryCode":"MLT","name":"St. Paul's Bay","localName":"St. Paul's Bay","labelEnglish":"St. Paul's Bay","labelLocal":"St. Paul's Bay","labelBoth":"St. Paul's Bay","type":null,"iso":"MT-51","qid":"Q39521"},"geometry":{"type":"Point","coordinates":[14.4042,35.9405]}},{"type":"Feature","id":"MLT-5925","properties":{"kind":"division","code":"MLT-5925","countryCode":"MLT","name":"Mellieħa","localName":"Mellieħa","labelEnglish":"Mellieħa","labelLocal":"Mellieħa","labelBoth":"Mellieħa","type":null,"iso":"MT-30","qid":"Q755979"},"geometry":{"type":"Polygon","coordinates":[[[14.3409,35.9256],[14.3737,35.9363],[14.4058,35.9678],[14.3409,35.9256]]]}},{"type":"Feature","id":"label-MLT-5925","properties":{"kind":"division-label","code":"MLT-5925","countryCode":"MLT","name":"Mellieħa","localName":"Mellieħa","labelEnglish":"Mellieħa","labelLocal":"Mellieħa","labelBoth":"Mellieħa","type":null,"iso":"MT-30","qid":"Q755979"},"geometry":{"type":"Point","coordinates":[14.3578,35.9558]}},{"type":"Feature","id":"MLT-5924","properties":{"kind":"division","code":"MLT-5924","countryCode":"MLT","name":"Mġarr","localName":"Mġarr","labelEnglish":"Mġarr","labelLocal":"Mġarr","labelBoth":"Mġarr","type":null,"iso":"MT-31","qid":"Q691220"},"geometry":{"type":"Polygon","coordinates":[[[14.3426,35.9002],[14.4042,35.9052],[14.4033,35.9082],[14.3737,35.9363],[14.3409,35.9256],[14.3426,35.9002]]]}},{"type":"Feature","id":"label-MLT-5924","properties":{"kind":"division-label","code":"MLT-5924","countryCode":"MLT","name":"Mġarr","localName":"Mġarr","labelEnglish":"Mġarr","labelLocal":"Mġarr","labelBoth":"Mġarr","type":null,"iso":"MT-31","qid":"Q691220"},"geometry":{"type":"Point","coordinates":[14.3658,35.9148]}},{"type":"Feature","id":"MLT-5923","properties":{"kind":"division","code":"MLT-5923","countryCode":"MLT","name":"Rabat","localName":"Rabat","labelEnglish":"Rabat","labelLocal":"Rabat","labelBoth":"Rabat","type":null,"iso":"MT-46","qid":"Q44381"},"geometry":{"type":"Polygon","coordinates":[[[14.3648,35.8644],[14.3986,35.8603],[14.4164,35.8638],[14.4128,35.8795],[14.4024,35.8816],[14.4116,35.8913],[14.4131,35.8975],[14.4042,35.9052],[14.3426,35.9002],[14.3648,35.8644]]]}},{"type":"Feature","id":"label-MLT-5923","properties":{"kind":"division-label","code":"MLT-5923","countryCode":"MLT","name":"Rabat","localName":"Rabat","labelEnglish":"Rabat","labelLocal":"Rabat","labelBoth":"Rabat","type":null,"iso":"MT-46","qid":"Q44381"},"geometry":{"type":"Point","coordinates":[14.3774,35.8833]}},{"type":"Feature","id":"MLT-5947","properties":{"kind":"division","code":"MLT-5947","countryCode":"MLT","name":"Dingli","localName":"Dingli","labelEnglish":"Dingli","labelLocal":"Dingli","labelBoth":"Dingli","type":null,"iso":"MT-07","qid":"Q905641"},"geometry":{"type":"Polygon","coordinates":[[[14.3892,35.8395],[14.3986,35.8603],[14.3648,35.8644],[14.3892,35.8395]]]}},{"type":"Feature","id":"label-MLT-5947","properties":{"kind":"division-label","code":"MLT-5947","countryCode":"MLT","name":"Dingli","localName":"Dingli","labelEnglish":"Dingli","labelLocal":"Dingli","labelBoth":"Dingli","type":null,"iso":"MT-07","qid":"Q905641"},"geometry":{"type":"Point","coordinates":[14.3868,35.859]}},{"type":"Feature","id":"MLT-5948","properties":{"kind":"division","code":"MLT-5948","countryCode":"MLT","name":"Siġġiewi","localName":"Siġġiewi","labelEnglish":"Siġġiewi","labelLocal":"Siġġiewi","labelBoth":"Siġġiewi","type":null,"iso":"MT-55","qid":"Q919908"},"geometry":{"type":"Polygon","coordinates":[[[14.4288,35.8226],[14.4507,35.8393],[14.4572,35.8472],[14.4699,35.8603],[14.4634,35.8626],[14.4164,35.8638],[14.3986,35.8603],[14.3892,35.8395],[14.4288,35.8226]]]}},{"type":"Feature","id":"label-MLT-5948","properties":{"kind":"division-label","code":"MLT-5948","countryCode":"MLT","name":"Siġġiewi","localName":"Siġġiewi","labelEnglish":"Siġġiewi","labelLocal":"Siġġiewi","labelBoth":"Siġġiewi","type":null,"iso":"MT-55","qid":"Q919908"},"geometry":{"type":"Point","coordinates":[14.4252,35.8474]}},{"type":"Feature","id":"MLT-5972","properties":{"kind":"division","code":"MLT-5972","countryCode":"MLT","name":"Qrendi","localName":"Qrendi","labelEnglish":"Qrendi","labelLocal":"Qrendi","labelBoth":"Qrendi","type":null,"iso":"MT-44","qid":"Q282203"},"geometry":{"type":"Polygon","coordinates":[[[14.4536,35.8163],[14.4669,35.8378],[14.4507,35.8393],[14.4288,35.8226],[14.4536,35.8163]]]}},{"type":"Feature","id":"label-MLT-5972","properties":{"kind":"division-label","code":"MLT-5972","countryCode":"MLT","name":"Qrendi","localName":"Qrendi","labelEnglish":"Qrendi","labelLocal":"Qrendi","labelBoth":"Qrendi","type":null,"iso":"MT-44","qid":"Q282203"},"geometry":{"type":"Point","coordinates":[14.4531,35.8312]}},{"type":"Feature","id":"MLT-5973","properties":{"kind":"division","code":"MLT-5973","countryCode":"MLT","name":"Żurrieq","localName":"Żurrieq","labelEnglish":"Żurrieq","labelLocal":"Żurrieq","labelBoth":"Żurrieq","type":null,"iso":"MT-68","qid":"Q44417"},"geometry":{"type":"Polygon","coordinates":[[[14.4976,35.8094],[14.509,35.8298],[14.5042,35.8292],[14.4835,35.8342],[14.4764,35.8384],[14.4669,35.8378],[14.4536,35.8163],[14.4976,35.8094]]]}},{"type":"Feature","id":"label-MLT-5973","properties":{"kind":"division-label","code":"MLT-5973","countryCode":"MLT","name":"Żurrieq","localName":"Żurrieq","labelEnglish":"Żurrieq","labelLocal":"Żurrieq","labelBoth":"Żurrieq","type":null,"iso":"MT-68","qid":"Q44417"},"geometry":{"type":"Point","coordinates":[14.4822,35.823]}},{"type":"Feature","id":"MLT-5968","properties":{"kind":"division","code":"MLT-5968","countryCode":"MLT","name":"Birżebbuġa","localName":"Birżebbuġa","labelEnglish":"Birżebbuġa","labelLocal":"Birżebbuġa","labelBoth":"Birżebbuġa","type":null,"iso":"MT-05","qid":"Q258028"},"geometry":{"type":"Polygon","coordinates":[[[14.5403,35.829],[14.5252,35.8398],[14.509,35.8298],[14.4976,35.8094],[14.5403,35.829]]]}},{"type":"Feature","id":"label-MLT-5968","properties":{"kind":"division-label","code":"MLT-5968","countryCode":"MLT","name":"Birżebbuġa","localName":"Birżebbuġa","labelEnglish":"Birżebbuġa","labelLocal":"Birżebbuġa","labelBoth":"Birżebbuġa","type":null,"iso":"MT-05","qid":"Q258028"},"geometry":{"type":"Point","coordinates":[14.5236,35.8281]}},{"type":"Feature","id":"MLT-5963","properties":{"kind":"division","code":"MLT-5963","countryCode":"MLT","name":"Marsaxlokk","localName":"Marsaxlokk","labelEnglish":"Marsaxlokk","labelLocal":"Marsaxlokk","labelBoth":"Marsaxlokk","type":null,"iso":"MT-28","qid":"Q781921"},"geometry":{"type":"Polygon","coordinates":[[[14.5658,35.8417],[14.5483,35.8458],[14.5246,35.8446],[14.5252,35.8398],[14.5403,35.829],[14.5658,35.8417]]]}},{"type":"Feature","id":"label-MLT-5963","properties":{"kind":"division-label","code":"MLT-5963","countryCode":"MLT","name":"Marsaxlokk","localName":"Marsaxlokk","labelEnglish":"Marsaxlokk","labelLocal":"Marsaxlokk","labelBoth":"Marsaxlokk","type":null,"iso":"MT-28","qid":"Q781921"},"geometry":{"type":"Point","coordinates":[14.5457,35.8393]}},{"type":"Feature","id":"MLT-5962","properties":{"kind":"division","code":"MLT-5962","countryCode":"MLT","name":"Marsaskala","localName":"Marsaskala","labelEnglish":"Marsaskala","labelLocal":"Marsaskala","labelBoth":"Marsaskala","type":null,"iso":"MT-27","qid":"Q534571"},"geometry":{"type":"Polygon","coordinates":[[[14.5609,35.873],[14.543,35.8609],[14.5483,35.8458],[14.5658,35.8417],[14.5609,35.873]]]}},{"type":"Feature","id":"label-MLT-5962","properties":{"kind":"division-label","code":"MLT-5962","countryCode":"MLT","name":"Marsaskala","localName":"Marsaskala","labelEnglish":"Marsaskala","labelLocal":"Marsaskala","labelBoth":"Marsaskala","type":null,"iso":"MT-27","qid":"Q534571"},"geometry":{"type":"Point","coordinates":[14.5538,35.8544]}},{"type":"Feature","id":"MLT-5956","properties":{"kind":"division","code":"MLT-5956","countryCode":"MLT","name":"Żabbar","localName":"Żabbar","labelEnglish":"Żabbar","labelLocal":"Żabbar","labelBoth":"Żabbar","type":null,"iso":"MT-64","qid":"Q39518"},"geometry":{"type":"Polygon","coordinates":[[[14.5562,35.8793],[14.54,35.8827],[14.5294,35.8816],[14.5267,35.8745],[14.5252,35.8656],[14.543,35.8609],[14.5609,35.873],[14.5562,35.8793]]]}},{"type":"Feature","id":"label-MLT-5956","properties":{"kind":"division-label","code":"MLT-5956","countryCode":"MLT","name":"Żabbar","localName":"Żabbar","labelEnglish":"Żabbar","labelLocal":"Żabbar","labelBoth":"Żabbar","type":null,"iso":"MT-64","qid":"Q39518"},"geometry":{"type":"Point","coordinates":[14.5397,35.8718]}},{"type":"Feature","id":"MLT-5952","properties":{"kind":"division","code":"MLT-5952","countryCode":"MLT","name":"Xgħajra","localName":"Xgħajra","labelEnglish":"Xgħajra","labelLocal":"Xgħajra","labelBoth":"Xgħajra","type":null,"iso":"MT-63","qid":"Q520962"},"geometry":{"type":"Polygon","coordinates":[[[14.548,35.89],[14.54,35.8827],[14.5562,35.8793],[14.548,35.89]]]}},{"type":"Feature","id":"label-MLT-5952","properties":{"kind":"division-label","code":"MLT-5952","countryCode":"MLT","name":"Xgħajra","localName":"Xgħajra","labelEnglish":"Xgħajra","labelLocal":"Xgħajra","labelBoth":"Xgħajra","type":null,"iso":"MT-63","qid":"Q520962"},"geometry":{"type":"Point","coordinates":[14.5457,35.8816]}},{"type":"Feature","id":"MLT-5974","properties":{"kind":"division","code":"MLT-5974","countryCode":"MLT","name":"Saint Lawrence","localName":"Saint Lawrence","labelEnglish":"Saint Lawrence","labelLocal":"Saint Lawrence","labelBoth":"Saint Lawrence","type":null,"iso":"MT-50","qid":"Q537308"},"geometry":{"type":"Polygon","coordinates":[[[14.1948,36.0294],[14.2118,36.0519],[14.1836,36.0648],[14.1948,36.0294]]]}},{"type":"Feature","id":"label-MLT-5974","properties":{"kind":"division-label","code":"MLT-5974","countryCode":"MLT","name":"Saint Lawrence","localName":"Saint Lawrence","labelEnglish":"Saint Lawrence","labelLocal":"Saint Lawrence","labelBoth":"Saint Lawrence","type":null,"iso":"MT-50","qid":"Q537308"},"geometry":{"type":"Point","coordinates":[14.1971,36.0471]}},{"type":"Feature","id":"MLT-5981","properties":{"kind":"division","code":"MLT-5981","countryCode":"MLT","name":"Kerċem","localName":"Kerċem","labelEnglish":"Kerċem","labelLocal":"Kerċem","labelBoth":"Kerċem","type":null,"iso":"MT-22","qid":"Q674679"},"geometry":{"type":"Polygon","coordinates":[[[14.2097,36.0231],[14.2355,36.0318],[14.2357,36.0379],[14.2286,36.0476],[14.2189,36.0514],[14.2118,36.0519],[14.1948,36.0294],[14.2097,36.0231]]]}},{"type":"Feature","id":"label-MLT-5981","properties":{"kind":"division-label","code":"MLT-5981","countryCode":"MLT","name":"Kerċem","localName":"Kerċem","labelEnglish":"Kerċem","labelLocal":"Kerċem","labelBoth":"Kerċem","type":null,"iso":"MT-22","qid":"Q674679"},"geometry":{"type":"Point","coordinates":[14.2145,36.0361]}},{"type":"Feature","id":"MLT-5984","properties":{"kind":"division","code":"MLT-5984","countryCode":"MLT","name":"Munxar","localName":"Munxar","labelEnglish":"Munxar","labelLocal":"Munxar","labelBoth":"Munxar","type":null,"iso":"MT-36","qid":"Q587462"},"geometry":{"type":"Polygon","coordinates":[[[14.233,36.0165],[14.2404,36.0266],[14.2411,36.0285],[14.2355,36.0318],[14.2097,36.0231],[14.233,36.0165]]]}},{"type":"Feature","id":"label-MLT-5984","properties":{"kind":"division-label","code":"MLT-5984","countryCode":"MLT","name":"Munxar","localName":"Munxar","labelEnglish":"Munxar","labelLocal":"Munxar","labelBoth":"Munxar","type":null,"iso":"MT-36","qid":"Q587462"},"geometry":{"type":"Point","coordinates":[14.2276,36.0251]}},{"type":"Feature","id":"MLT-5985","properties":{"kind":"division","code":"MLT-5985","countryCode":"MLT","name":"Sannat","localName":"Sannat","labelEnglish":"Sannat","labelLocal":"Sannat","labelBoth":"Sannat","type":null,"iso":"MT-52","qid":"Q602037"},"geometry":{"type":"Polygon","coordinates":[[[14.2736,36.016],[14.2717,36.0192],[14.2404,36.0266],[14.233,36.0165],[14.2736,36.016]]]}},{"type":"Feature","id":"label-MLT-5985","properties":{"kind":"division-label","code":"MLT-5985","countryCode":"MLT","name":"Sannat","localName":"Sannat","labelEnglish":"Sannat","labelLocal":"Sannat","labelBoth":"Sannat","type":null,"iso":"MT-52","qid":"Q602037"},"geometry":{"type":"Point","coordinates":[14.2514,36.0201]}},{"type":"Feature","id":"MLT-5987","properties":{"kind":"division","code":"MLT-5987","countryCode":"MLT","name":"Għajnsielem","localName":"Għajnsielem","labelEnglish":"Għajnsielem","labelLocal":"Għajnsielem","labelBoth":"Għajnsielem","type":null,"iso":"MT-13","qid":"Q761675"},"geometry":{"type":"Polygon","coordinates":[[[14.3001,36.025],[14.297,36.0304],[14.2807,36.0334],[14.2717,36.0192],[14.2736,36.016],[14.3001,36.025]]]}},{"type":"Feature","id":"label-MLT-5987","properties":{"kind":"division-label","code":"MLT-5987","countryCode":"MLT","name":"Għajnsielem","localName":"Għajnsielem","labelEnglish":"Għajnsielem","labelLocal":"Għajnsielem","labelBoth":"Għajnsielem","type":null,"iso":"MT-13","qid":"Q761675"},"geometry":{"type":"Point","coordinates":[14.2853,36.0251]}},{"type":"Feature","id":"MLT-5980","properties":{"kind":"division","code":"MLT-5980","countryCode":"MLT","name":"Qala","localName":"Qala","labelEnglish":"Qala","labelLocal":"Qala","labelBoth":"Qala","type":null,"iso":"MT-42","qid":"Q1088033"},"geometry":{"type":"Polygon","coordinates":[[[14.3204,36.0462],[14.297,36.0304],[14.3001,36.025],[14.3204,36.0462]]]}},{"type":"Feature","id":"label-MLT-5980","properties":{"kind":"division-label","code":"MLT-5980","countryCode":"MLT","name":"Qala","localName":"Qala","labelEnglish":"Qala","labelLocal":"Qala","labelBoth":"Qala","type":null,"iso":"MT-42","qid":"Q1088033"},"geometry":{"type":"Point","coordinates":[14.3163,36.0332]}},{"type":"Feature","id":"MLT-5979","properties":{"kind":"division","code":"MLT-5979","countryCode":"MLT","name":"Nadur","localName":"Nadur","labelEnglish":"Nadur","labelLocal":"Nadur","labelBoth":"Nadur","type":null,"iso":"MT-37","qid":"Q929969"},"geometry":{"type":"Polygon","coordinates":[[[14.2891,36.0645],[14.2807,36.0334],[14.297,36.0304],[14.3204,36.0462],[14.2891,36.0645]]]}},{"type":"Feature","id":"label-MLT-5979","properties":{"kind":"division-label","code":"MLT-5979","countryCode":"MLT","name":"Nadur","localName":"Nadur","labelEnglish":"Nadur","labelLocal":"Nadur","labelBoth":"Nadur","type":null,"iso":"MT-37","qid":"Q929969"},"geometry":{"type":"Point","coordinates":[14.2978,36.0451]}},{"type":"Feature","id":"MLT-5978","properties":{"kind":"division","code":"MLT-5978","countryCode":"MLT","name":"Xagħra","localName":"Xagħra","labelEnglish":"Xagħra","labelLocal":"Xagħra","labelBoth":"Xagħra","type":null,"iso":"MT-61","qid":"Q605343"},"geometry":{"type":"Polygon","coordinates":[[[14.272,36.071],[14.2506,36.0458],[14.2551,36.0375],[14.2807,36.0334],[14.2891,36.0645],[14.272,36.071]]]}},{"type":"Feature","id":"label-MLT-5978","properties":{"kind":"division-label","code":"MLT-5978","countryCode":"MLT","name":"Xagħra","localName":"Xagħra","labelEnglish":"Xagħra","labelLocal":"Xagħra","labelBoth":"Xagħra","type":null,"iso":"MT-61","qid":"Q605343"},"geometry":{"type":"Point","coordinates":[14.272,36.0506]}},{"type":"Feature","id":"MLT-5977","properties":{"kind":"division","code":"MLT-5977","countryCode":"MLT","name":"Żebbuġ","localName":"Żebbuġ","labelEnglish":"Żebbuġ","labelLocal":"Żebbuġ","labelBoth":"Żebbuġ","type":null,"iso":"MT-65","qid":null},"geometry":{"type":"Polygon","coordinates":[[[14.2335,36.0728],[14.2395,36.0493],[14.2506,36.0458],[14.272,36.071],[14.2335,36.0728]]]}},{"type":"Feature","id":"label-MLT-5977","properties":{"kind":"division-label","code":"MLT-5977","countryCode":"MLT","name":"Żebbuġ","localName":"Żebbuġ","labelEnglish":"Żebbuġ","labelLocal":"Żebbuġ","labelBoth":"Żebbuġ","type":null,"iso":"MT-65","qid":null},"geometry":{"type":"Point","coordinates":[14.2488,36.0625]}},{"type":"Feature","id":"MLT-5976","properties":{"kind":"division","code":"MLT-5976","countryCode":"MLT","name":"Għasri","localName":"Għasri","labelEnglish":"Għasri","labelLocal":"Għasri","labelBoth":"Għasri","type":null,"iso":"MT-16","qid":"Q1017339"},"geometry":{"type":"Polygon","coordinates":[[[14.2129,36.0702],[14.2189,36.0514],[14.2286,36.0476],[14.2395,36.0493],[14.2335,36.0728],[14.2129,36.0702]]]}},{"type":"Feature","id":"label-MLT-5976","properties":{"kind":"division-label","code":"MLT-5976","countryCode":"MLT","name":"Għasri","localName":"Għasri","labelEnglish":"Għasri","labelLocal":"Għasri","labelBoth":"Għasri","type":null,"iso":"MT-16","qid":"Q1017339"},"geometry":{"type":"Point","coordinates":[14.2247,36.0625]}},{"type":"Feature","id":"MLT-5975","properties":{"kind":"division","code":"MLT-5975","countryCode":"MLT","name":"Għarb","localName":"Għarb","labelEnglish":"Għarb","labelLocal":"Għarb","labelBoth":"Għarb","type":null,"iso":"MT-14","qid":"Q1026487"},"geometry":{"type":"Polygon","coordinates":[[[14.1836,36.0648],[14.2118,36.0519],[14.2189,36.0514],[14.2129,36.0702],[14.1836,36.0648]]]}},{"type":"Feature","id":"label-MLT-5975","properties":{"kind":"division-label","code":"MLT-5975","countryCode":"MLT","name":"Għarb","localName":"Għarb","labelEnglish":"Għarb","labelLocal":"Għarb","labelBoth":"Għarb","type":null,"iso":"MT-14","qid":"Q1026487"},"geometry":{"type":"Point","coordinates":[14.2058,36.0622]}},{"type":"Feature","id":"MLT-5982","properties":{"kind":"division","code":"MLT-5982","countryCode":"MLT","name":"Victoria","localName":"Victoria","labelEnglish":"Victoria","labelLocal":"Victoria","labelBoth":"Victoria","type":null,"iso":"MT-45","qid":"Q752348"},"geometry":{"type":"Polygon","coordinates":[[[14.2357,36.0379],[14.2447,36.0306],[14.2551,36.0375],[14.2506,36.0458],[14.2395,36.0493],[14.2286,36.0476],[14.2357,36.0379]]]}},{"type":"Feature","id":"label-MLT-5982","properties":{"kind":"division-label","code":"MLT-5982","countryCode":"MLT","name":"Victoria","localName":"Victoria","labelEnglish":"Victoria","labelLocal":"Victoria","labelBoth":"Victoria","type":null,"iso":"MT-45","qid":"Q752348"},"geometry":{"type":"Point","coordinates":[14.2444,36.0407]}},{"type":"Feature","id":"MLT-5983","properties":{"kind":"division","code":"MLT-5983","countryCode":"MLT","name":"Fontana","localName":"Fontana","labelEnglish":"Fontana","labelLocal":"Fontana","labelBoth":"Fontana","type":null,"iso":"MT-10","qid":"Q1002742"},"geometry":{"type":"Polygon","coordinates":[[[14.2355,36.0318],[14.2411,36.0285],[14.2447,36.0306],[14.2357,36.0379],[14.2355,36.0318]]]}},{"type":"Feature","id":"label-MLT-5983","properties":{"kind":"division-label","code":"MLT-5983","countryCode":"MLT","name":"Fontana","localName":"Fontana","labelEnglish":"Fontana","labelLocal":"Fontana","labelBoth":"Fontana","type":null,"iso":"MT-10","qid":"Q1002742"},"geometry":{"type":"Point","coordinates":[14.2398,36.0332]}},{"type":"Feature","id":"MLT-5986","properties":{"kind":"division","code":"MLT-5986","countryCode":"MLT","name":"Xewkija","localName":"Xewkija","labelEnglish":"Xewkija","labelLocal":"Xewkija","labelBoth":"Xewkija","type":null,"iso":"MT-62","qid":"Q919921"},"geometry":{"type":"Polygon","coordinates":[[[14.2404,36.0266],[14.2717,36.0192],[14.2807,36.0334],[14.2551,36.0375],[14.2447,36.0306],[14.2411,36.0285],[14.2404,36.0266]]]}},{"type":"Feature","id":"label-MLT-5986","properties":{"kind":"division-label","code":"MLT-5986","countryCode":"MLT","name":"Xewkija","localName":"Xewkija","labelEnglish":"Xewkija","labelLocal":"Xewkija","labelBoth":"Xewkija","type":null,"iso":"MT-62","qid":"Q919921"},"geometry":{"type":"Point","coordinates":[14.2656,36.03]}},{"type":"Feature","id":"MLT-5927","properties":{"kind":"division","code":"MLT-5927","countryCode":"MLT","name":"Mosta","localName":"Mosta","labelEnglish":"Mosta","labelLocal":"Mosta","labelBoth":"Mosta","type":null,"iso":"MT-32","qid":"Q39520"},"geometry":{"type":"Polygon","coordinates":[[[14.4042,35.9052],[14.4131,35.8975],[14.4353,35.8952],[14.435,35.9058],[14.4258,35.9203],[14.4033,35.9082],[14.4042,35.9052]]]}},{"type":"Feature","id":"label-MLT-5927","properties":{"kind":"division-label","code":"MLT-5927","countryCode":"MLT","name":"Mosta","localName":"Mosta","labelEnglish":"Mosta","labelLocal":"Mosta","labelBoth":"Mosta","type":null,"iso":"MT-32","qid":"Q39520"},"geometry":{"type":"Point","coordinates":[14.4209,35.9076]}},{"type":"Feature","id":"MLT-5929","properties":{"kind":"division","code":"MLT-5929","countryCode":"MLT","name":"Lija","localName":"Lija","labelEnglish":"Lija","labelLocal":"Lija","labelBoth":"Lija","type":null,"iso":"MT-24","qid":"Q782049"},"geometry":{"type":"Polygon","coordinates":[[[14.4353,35.8952],[14.4459,35.8949],[14.4486,35.9011],[14.4465,35.9043],[14.435,35.9058],[14.4353,35.8952]]]}},{"type":"Feature","id":"label-MLT-5929","properties":{"kind":"division-label","code":"MLT-5929","countryCode":"MLT","name":"Lija","localName":"Lija","labelEnglish":"Lija","labelLocal":"Lija","labelBoth":"Lija","type":null,"iso":"MT-24","qid":"Q782049"},"geometry":{"type":"Point","coordinates":[14.4412,35.8992]}},{"type":"Feature","id":"MLT-5920","properties":{"kind":"division","code":"MLT-5920","countryCode":"MLT","name":"Attard","localName":"Attard","labelEnglish":"Attard","labelLocal":"Attard","labelBoth":"Attard","type":null,"iso":"MT-01","qid":"Q44557"},"geometry":{"type":"Polygon","coordinates":[[[14.4353,35.8952],[14.4131,35.8975],[14.4116,35.8913],[14.411,35.8842],[14.4128,35.8795],[14.4545,35.883],[14.4578,35.889],[14.4459,35.8949],[14.4353,35.8952]]]}},{"type":"Feature","id":"label-MLT-5920","properties":{"kind":"division-label","code":"MLT-5920","countryCode":"MLT","name":"Attard","localName":"Attard","labelEnglish":"Attard","labelLocal":"Attard","labelBoth":"Attard","type":null,"iso":"MT-01","qid":"Q44557"},"geometry":{"type":"Point","coordinates":[14.4318,35.8878]}},{"type":"Feature","id":"MLT-5922","properties":{"kind":"division","code":"MLT-5922","countryCode":"MLT","name":"Mtarfa","localName":"Mtarfa","labelEnglish":"Mtarfa","labelLocal":"Mtarfa","labelBoth":"Mtarfa","type":null,"iso":"MT-35","qid":"Q656837"},"geometry":{"type":"Polygon","coordinates":[[[14.4024,35.8816],[14.411,35.8842],[14.4116,35.8913],[14.4024,35.8816]]]}},{"type":"Feature","id":"label-MLT-5922","properties":{"kind":"division-label","code":"MLT-5922","countryCode":"MLT","name":"Mtarfa","localName":"Mtarfa","labelEnglish":"Mtarfa","labelLocal":"Mtarfa","labelBoth":"Mtarfa","type":null,"iso":"MT-35","qid":"Q656837"},"geometry":{"type":"Point","coordinates":[14.4049,35.8869]}},{"type":"Feature","id":"MLT-5921","properties":{"kind":"division","code":"MLT-5921","countryCode":"MLT","name":"Mdina","localName":"Mdina","labelEnglish":"Mdina","labelLocal":"Mdina","labelBoth":"Mdina","type":null,"iso":"MT-29","qid":"Q207277"},"geometry":{"type":"Polygon","coordinates":[[[14.4024,35.8816],[14.4128,35.8795],[14.411,35.8842],[14.4024,35.8816]]]}},{"type":"Feature","id":"label-MLT-5921","properties":{"kind":"division-label","code":"MLT-5921","countryCode":"MLT","name":"Mdina","localName":"Mdina","labelEnglish":"Mdina","labelLocal":"Mdina","labelBoth":"Mdina","type":null,"iso":"MT-29","qid":"Q207277"},"geometry":{"type":"Point","coordinates":[14.4085,35.8818]}},{"type":"Feature","id":"MLT-5946","properties":{"kind":"division","code":"MLT-5946","countryCode":"MLT","name":"Żebbuġ Gozo","localName":"Żebbuġ Gozo","labelEnglish":"Żebbuġ Gozo","labelLocal":"Żebbuġ Gozo","labelBoth":"Żebbuġ Gozo","type":null,"iso":"MT-66","qid":"Q179243"},"geometry":{"type":"Polygon","coordinates":[[[14.4164,35.8638],[14.4634,35.8626],[14.4545,35.883],[14.4128,35.8795],[14.4164,35.8638]]]}},{"type":"Feature","id":"label-MLT-5946","properties":{"kind":"division-label","code":"MLT-5946","countryCode":"MLT","name":"Żebbuġ Gozo","localName":"Żebbuġ Gozo","labelEnglish":"Żebbuġ Gozo","labelLocal":"Żebbuġ Gozo","labelBoth":"Żebbuġ Gozo","type":null,"iso":"MT-66","qid":"Q179243"},"geometry":{"type":"Point","coordinates":[14.4365,35.8713]}},{"type":"Feature","id":"MLT-5945","properties":{"kind":"division","code":"MLT-5945","countryCode":"MLT","name":"Qormi","localName":"Qormi","labelEnglish":"Qormi","labelLocal":"Qormi","labelBoth":"Qormi","type":null,"iso":"MT-43","qid":"Q39578"},"geometry":{"type":"Polygon","coordinates":[[[14.4634,35.8626],[14.4699,35.8603],[14.4803,35.8721],[14.4841,35.8759],[14.4791,35.8819],[14.4702,35.8842],[14.4578,35.889],[14.4545,35.883],[14.4634,35.8626]]]}},{"type":"Feature","id":"label-MLT-5945","properties":{"kind":"division-label","code":"MLT-5945","countryCode":"MLT","name":"Qormi","localName":"Qormi","labelEnglish":"Qormi","labelLocal":"Qormi","labelBoth":"Qormi","type":null,"iso":"MT-43","qid":"Q39578"},"geometry":{"type":"Point","coordinates":[14.4684,35.8753]}},{"type":"Feature","id":"MLT-5933","properties":{"kind":"division","code":"MLT-5933","countryCode":"MLT","name":"Swieqi","localName":"Swieqi","labelEnglish":"Swieqi","labelLocal":"Swieqi","labelBoth":"Swieqi","type":null,"iso":"MT-57","qid":"Q220667"},"geometry":{"type":"Polygon","coordinates":[[[14.4551,35.9289],[14.4637,35.9117],[14.482,35.9123],[14.4841,35.92],[14.4625,35.9292],[14.4551,35.9289]]]}},{"type":"Feature","id":"label-MLT-5933","properties":{"kind":"division-label","code":"MLT-5933","countryCode":"MLT","name":"Swieqi","localName":"Swieqi","labelEnglish":"Swieqi","labelLocal":"Swieqi","labelBoth":"Swieqi","type":null,"iso":"MT-57","qid":"Q220667"},"geometry":{"type":"Point","coordinates":[14.4698,35.917]}},{"type":"Feature","id":"MLT-5932","properties":{"kind":"division","code":"MLT-5932","countryCode":"MLT","name":"Għargħur","localName":"Għargħur","labelEnglish":"Għargħur","labelLocal":"Għargħur","labelBoth":"Għargħur","type":null,"iso":"MT-15","qid":"Q1018111"},"geometry":{"type":"Polygon","coordinates":[[[14.4513,35.9129],[14.4622,35.9094],[14.4637,35.9117],[14.4551,35.9289],[14.4513,35.9129]]]}},{"type":"Feature","id":"label-MLT-5932","properties":{"kind":"division-label","code":"MLT-5932","countryCode":"MLT","name":"Għargħur","localName":"Għargħur","labelEnglish":"Għargħur","labelLocal":"Għargħur","labelBoth":"Għargħur","type":null,"iso":"MT-15","qid":"Q1018111"},"geometry":{"type":"Point","coordinates":[14.4553,35.9188]}},{"type":"Feature","id":"MLT-5937","properties":{"kind":"division","code":"MLT-5937","countryCode":"MLT","name":"San Ġwann","localName":"San Ġwann","labelEnglish":"San Ġwann","labelLocal":"San Ġwann","labelBoth":"San Ġwann","type":null,"iso":"MT-49","qid":"Q39507"},"geometry":{"type":"Polygon","coordinates":[[[14.482,35.9123],[14.4637,35.9117],[14.4622,35.9094],[14.4625,35.9011],[14.4722,35.8989],[14.4859,35.9004],[14.4886,35.9047],[14.482,35.9123]]]}},{"type":"Feature","id":"label-MLT-5937","properties":{"kind":"division-label","code":"MLT-5937","countryCode":"MLT","name":"San Ġwann","localName":"San Ġwann","labelEnglish":"San Ġwann","labelLocal":"San Ġwann","labelBoth":"San Ġwann","type":null,"iso":"MT-49","qid":"Q39507"},"geometry":{"type":"Point","coordinates":[14.4756,35.905]}},{"type":"Feature","id":"MLT-5931","properties":{"kind":"division","code":"MLT-5931","countryCode":"MLT","name":"Iklin","localName":"Iklin","labelEnglish":"Iklin","labelLocal":"Iklin","labelBoth":"Iklin","type":null,"iso":"MT-19","qid":"Q304589"},"geometry":{"type":"Polygon","coordinates":[[[14.4513,35.9129],[14.4465,35.9043],[14.4486,35.9011],[14.4545,35.899],[14.4625,35.9011],[14.4622,35.9094],[14.4513,35.9129]]]}},{"type":"Feature","id":"label-MLT-5931","properties":{"kind":"division-label","code":"MLT-5931","countryCode":"MLT","name":"Iklin","localName":"Iklin","labelEnglish":"Iklin","labelLocal":"Iklin","labelBoth":"Iklin","type":null,"iso":"MT-19","qid":"Q304589"},"geometry":{"type":"Point","coordinates":[14.4549,35.9054]}},{"type":"Feature","id":"MLT-5939","properties":{"kind":"division","code":"MLT-5939","countryCode":"MLT","name":"Birkirkara","localName":"Birkirkara","labelEnglish":"Birkirkara","labelLocal":"Birkirkara","labelBoth":"Birkirkara","type":null,"iso":"MT-04","qid":"Q39583"},"geometry":{"type":"Polygon","coordinates":[[[14.4545,35.899],[14.4578,35.889],[14.4702,35.8842],[14.4741,35.8917],[14.4722,35.8989],[14.4625,35.9011],[14.4545,35.899]]]}},{"type":"Feature","id":"label-MLT-5939","properties":{"kind":"division-label","code":"MLT-5939","countryCode":"MLT","name":"Birkirkara","localName":"Birkirkara","labelEnglish":"Birkirkara","labelLocal":"Birkirkara","labelBoth":"Birkirkara","type":null,"iso":"MT-04","qid":"Q39583"},"geometry":{"type":"Point","coordinates":[14.4662,35.8934]}},{"type":"Feature","id":"MLT-5930","properties":{"kind":"division","code":"MLT-5930","countryCode":"MLT","name":"Balzan","localName":"Balzan","labelEnglish":"Balzan","labelLocal":"Balzan","labelBoth":"Balzan","type":null,"iso":"MT-02","qid":"Q789794"},"geometry":{"type":"Polygon","coordinates":[[[14.4486,35.9011],[14.4459,35.8949],[14.4578,35.889],[14.4545,35.899],[14.4486,35.9011]]]}},{"type":"Feature","id":"label-MLT-5930","properties":{"kind":"division-label","code":"MLT-5930","countryCode":"MLT","name":"Balzan","localName":"Balzan","labelEnglish":"Balzan","labelLocal":"Balzan","labelBoth":"Balzan","type":null,"iso":"MT-02","qid":"Q789794"},"geometry":{"type":"Point","coordinates":[14.4524,35.8952]}},{"type":"Feature","id":"MLT-5943","properties":{"kind":"division","code":"MLT-5943","countryCode":"MLT","name":"Santa Venera","localName":"Santa Venera","labelEnglish":"Santa Venera","labelLocal":"Santa Venera","labelBoth":"Santa Venera","type":null,"iso":"MT-54","qid":"Q585420"},"geometry":{"type":"Polygon","coordinates":[[[14.4791,35.8819],[14.4866,35.8864],[14.4741,35.8917],[14.4702,35.8842],[14.4791,35.8819]]]}},{"type":"Feature","id":"label-MLT-5943","properties":{"kind":"division-label","code":"MLT-5943","countryCode":"MLT","name":"Santa Venera","localName":"Santa Venera","labelEnglish":"Santa Venera","labelLocal":"Santa Venera","labelBoth":"Santa Venera","type":null,"iso":"MT-54","qid":"Q585420"},"geometry":{"type":"Point","coordinates":[14.4781,35.8865]}},{"type":"Feature","id":"MLT-5944","properties":{"kind":"division","code":"MLT-5944","countryCode":"MLT","name":"Ħamrun","localName":"Ħamrun","labelEnglish":"Ħamrun","labelLocal":"Ħamrun","labelBoth":"Ħamrun","type":null,"iso":"MT-18","qid":"Q343001"},"geometry":{"type":"Polygon","coordinates":[[[14.4841,35.8759],[14.4966,35.8844],[14.4962,35.8883],[14.4866,35.8864],[14.4791,35.8819],[14.4841,35.8759]]]}},{"type":"Feature","id":"label-MLT-5944","properties":{"kind":"division-label","code":"MLT-5944","countryCode":"MLT","name":"Ħamrun","localName":"Ħamrun","labelEnglish":"Ħamrun","labelLocal":"Ħamrun","labelBoth":"Ħamrun","type":null,"iso":"MT-18","qid":"Q343001"},"geometry":{"type":"Point","coordinates":[14.4868,35.8818]}},{"type":"Feature","id":"MLT-5957","properties":{"kind":"division","code":"MLT-5957","countryCode":"MLT","name":"Marsa","localName":"Marsa","labelEnglish":"Marsa","labelLocal":"Marsa","labelBoth":"Marsa","type":null,"iso":"MT-26","qid":"Q267431"},"geometry":{"type":"Polygon","coordinates":[[[14.4803,35.8721],[14.4933,35.8629],[14.5007,35.8798],[14.4966,35.8844],[14.4841,35.8759],[14.4803,35.8721]]]}},{"type":"Feature","id":"label-MLT-5957","properties":{"kind":"division-label","code":"MLT-5957","countryCode":"MLT","name":"Marsa","localName":"Marsa","labelEnglish":"Marsa","labelLocal":"Marsa","labelBoth":"Marsa","type":null,"iso":"MT-26","qid":"Q267431"},"geometry":{"type":"Point","coordinates":[14.4926,35.8716]}},{"type":"Feature","id":"MLT-5964","properties":{"kind":"division","code":"MLT-5964","countryCode":"MLT","name":"Luqa","localName":"Luqa","labelEnglish":"Luqa","labelLocal":"Luqa","labelBoth":"Luqa","type":null,"iso":"MT-25","qid":"Q475585"},"geometry":{"type":"Polygon","coordinates":[[[14.4699,35.8603],[14.4572,35.8472],[14.4782,35.8464],[14.4903,35.8396],[14.5042,35.8292],[14.509,35.8298],[14.5033,35.8366],[14.4945,35.8508],[14.4948,35.8585],[14.4933,35.8629],[14.4803,35.8721],[14.4699,35.8603]]]}},{"type":"Feature","id":"label-MLT-5964","properties":{"kind":"division-label","code":"MLT-5964","countryCode":"MLT","name":"Luqa","localName":"Luqa","labelEnglish":"Luqa","labelLocal":"Luqa","labelBoth":"Luqa","type":null,"iso":"MT-25","qid":"Q475585"},"geometry":{"type":"Point","coordinates":[14.4831,35.8563]}},{"type":"Feature","id":"MLT-5969","properties":{"kind":"division","code":"MLT-5969","countryCode":"MLT","name":"Mqabba","localName":"Mqabba","labelEnglish":"Mqabba","labelLocal":"Mqabba","labelBoth":"Mqabba","type":null,"iso":"MT-33","qid":"Q1017953"},"geometry":{"type":"Polygon","coordinates":[[[14.4507,35.8393],[14.4669,35.8378],[14.4764,35.8384],[14.4782,35.8464],[14.4572,35.8472],[14.4507,35.8393]]]}},{"type":"Feature","id":"label-MLT-5969","properties":{"kind":"division-label","code":"MLT-5969","countryCode":"MLT","name":"Mqabba","localName":"Mqabba","labelEnglish":"Mqabba","labelLocal":"Mqabba","labelBoth":"Mqabba","type":null,"iso":"MT-33","qid":"Q1017953"},"geometry":{"type":"Point","coordinates":[14.4666,35.8426]}},{"type":"Feature","id":"MLT-5970","properties":{"kind":"division","code":"MLT-5970","countryCode":"MLT","name":"Kirkop","localName":"Kirkop","labelEnglish":"Kirkop","labelLocal":"Kirkop","labelBoth":"Kirkop","type":null,"iso":"MT-23","qid":"Q597464"},"geometry":{"type":"Polygon","coordinates":[[[14.4835,35.8342],[14.4903,35.8396],[14.4782,35.8464],[14.4764,35.8384],[14.4835,35.8342]]]}},{"type":"Feature","id":"label-MLT-5970","properties":{"kind":"division-label","code":"MLT-5970","countryCode":"MLT","name":"Kirkop","localName":"Kirkop","labelEnglish":"Kirkop","labelLocal":"Kirkop","labelBoth":"Kirkop","type":null,"iso":"MT-23","qid":"Q597464"},"geometry":{"type":"Point","coordinates":[14.4836,35.8409]}},{"type":"Feature","id":"MLT-5971","properties":{"kind":"division","code":"MLT-5971","countryCode":"MLT","name":"Safi","localName":"Safi","labelEnglish":"Safi","labelLocal":"Safi","labelBoth":"Safi","type":null,"iso":"MT-47","qid":"Q658903"},"geometry":{"type":"Polygon","coordinates":[[[14.4835,35.8342],[14.5042,35.8292],[14.4903,35.8396],[14.4835,35.8342]]]}},{"type":"Feature","id":"label-MLT-5971","properties":{"kind":"division-label","code":"MLT-5971","countryCode":"MLT","name":"Safi","localName":"Safi","labelEnglish":"Safi","labelLocal":"Safi","labelBoth":"Safi","type":null,"iso":"MT-47","qid":"Q658903"},"geometry":{"type":"Point","coordinates":[14.4902,35.8323]}},{"type":"Feature","id":"MLT-5967","properties":{"kind":"division","code":"MLT-5967","countryCode":"MLT","name":"Għaxaq","localName":"Għaxaq","labelEnglish":"Għaxaq","labelLocal":"Għaxaq","labelBoth":"Għaxaq","type":null,"iso":"MT-17","qid":"Q426385"},"geometry":{"type":"Polygon","coordinates":[[[14.5252,35.8398],[14.5246,35.8446],[14.511,35.8567],[14.5098,35.8549],[14.5098,35.8502],[14.5033,35.8366],[14.509,35.8298],[14.5252,35.8398]]]}},{"type":"Feature","id":"label-MLT-5967","properties":{"kind":"division-label","code":"MLT-5967","countryCode":"MLT","name":"Għaxaq","localName":"Għaxaq","labelEnglish":"Għaxaq","labelLocal":"Għaxaq","labelBoth":"Għaxaq","type":null,"iso":"MT-17","qid":"Q426385"},"geometry":{"type":"Point","coordinates":[14.515,35.8418]}},{"type":"Feature","id":"MLT-5961","properties":{"kind":"division","code":"MLT-5961","countryCode":"MLT","name":"Żejtun","localName":"Żejtun","labelEnglish":"Żejtun","labelLocal":"Żejtun","labelBoth":"Żejtun","type":null,"iso":"MT-67","qid":"Q44392"},"geometry":{"type":"Polygon","coordinates":[[[14.5246,35.8446],[14.5483,35.8458],[14.543,35.8609],[14.5252,35.8656],[14.5164,35.8603],[14.511,35.8567],[14.5246,35.8446]]]}},{"type":"Feature","id":"label-MLT-5961","properties":{"kind":"division-label","code":"MLT-5961","countryCode":"MLT","name":"Żejtun","localName":"Żejtun","labelEnglish":"Żejtun","labelLocal":"Żejtun","labelBoth":"Żejtun","type":null,"iso":"MT-67","qid":"Q44392"},"geometry":{"type":"Point","coordinates":[14.5324,35.8539]}},{"type":"Feature","id":"MLT-5959","properties":{"kind":"division","code":"MLT-5959","countryCode":"MLT","name":"Fgura","localName":"Fgura","labelEnglish":"Fgura","labelLocal":"Fgura","labelBoth":"Fgura","type":null,"iso":"MT-08","qid":"Q44388"},"geometry":{"type":"Polygon","coordinates":[[[14.5252,35.8656],[14.5267,35.8745],[14.5137,35.8739],[14.5084,35.8691],[14.5164,35.8603],[14.5252,35.8656]]]}},{"type":"Feature","id":"label-MLT-5959","properties":{"kind":"division-label","code":"MLT-5959","countryCode":"MLT","name":"Fgura","localName":"Fgura","labelEnglish":"Fgura","labelLocal":"Fgura","labelBoth":"Fgura","type":null,"iso":"MT-08","qid":"Q44388"},"geometry":{"type":"Point","coordinates":[14.5196,35.8694]}},{"type":"Feature","id":"MLT-5960","properties":{"kind":"division","code":"MLT-5960","countryCode":"MLT","name":"Tarxien","localName":"Tarxien","labelEnglish":"Tarxien","labelLocal":"Tarxien","labelBoth":"Tarxien","type":null,"iso":"MT-59","qid":"Q744001"},"geometry":{"type":"Polygon","coordinates":[[[14.5164,35.8603],[14.5084,35.8691],[14.4948,35.8585],[14.5098,35.8549],[14.511,35.8567],[14.5164,35.8603]]]}},{"type":"Feature","id":"label-MLT-5960","properties":{"kind":"division-label","code":"MLT-5960","countryCode":"MLT","name":"Tarxien","localName":"Tarxien","labelEnglish":"Tarxien","labelLocal":"Tarxien","labelBoth":"Tarxien","type":null,"iso":"MT-59","qid":"Q744001"},"geometry":{"type":"Point","coordinates":[14.5088,35.8616]}},{"type":"Feature","id":"MLT-5965","properties":{"kind":"division","code":"MLT-5965","countryCode":"MLT","name":"Santa Luċija","localName":"Santa Luċija","labelEnglish":"Santa Luċija","labelLocal":"Santa Luċija","labelBoth":"Santa Luċija","type":null,"iso":"MT-53","qid":"Q1087776"},"geometry":{"type":"Polygon","coordinates":[[[14.5098,35.8549],[14.4948,35.8585],[14.4945,35.8508],[14.5098,35.8502],[14.5098,35.8549]]]}},{"type":"Feature","id":"label-MLT-5965","properties":{"kind":"division-label","code":"MLT-5965","countryCode":"MLT","name":"Santa Luċija","localName":"Santa Luċija","labelEnglish":"Santa Luċija","labelLocal":"Santa Luċija","labelBoth":"Santa Luċija","type":null,"iso":"MT-53","qid":"Q1087776"},"geometry":{"type":"Point","coordinates":[14.5028,35.8531]}},{"type":"Feature","id":"MLT-5966","properties":{"kind":"division","code":"MLT-5966","countryCode":"MLT","name":"Gudja","localName":"Gudja","labelEnglish":"Gudja","labelLocal":"Gudja","labelBoth":"Gudja","type":null,"iso":"MT-11","qid":"Q1018153"},"geometry":{"type":"Polygon","coordinates":[[[14.5098,35.8502],[14.4945,35.8508],[14.5033,35.8366],[14.5098,35.8502]]]}},{"type":"Feature","id":"label-MLT-5966","properties":{"kind":"division-label","code":"MLT-5966","countryCode":"MLT","name":"Gudja","localName":"Gudja","labelEnglish":"Gudja","labelLocal":"Gudja","labelBoth":"Gudja","type":null,"iso":"MT-11","qid":"Q1018153"},"geometry":{"type":"Point","coordinates":[14.5019,35.8447]}},{"type":"Feature","id":"MLT-5958","properties":{"kind":"division","code":"MLT-5958","countryCode":"MLT","name":"Paola","localName":"Paola","labelEnglish":"Paola","labelLocal":"Paola","labelBoth":"Paola","type":null,"iso":"MT-39","qid":"Q846589"},"geometry":{"type":"Polygon","coordinates":[[[14.5084,35.8691],[14.5137,35.8739],[14.5137,35.8804],[14.5084,35.8854],[14.5007,35.8798],[14.4933,35.8629],[14.4948,35.8585],[14.5084,35.8691]]]}},{"type":"Feature","id":"label-MLT-5958","properties":{"kind":"division-label","code":"MLT-5958","countryCode":"MLT","name":"Paola","localName":"Paola","labelEnglish":"Paola","labelLocal":"Paola","labelBoth":"Paola","type":null,"iso":"MT-39","qid":"Q846589"},"geometry":{"type":"Point","coordinates":[14.505,35.8727]}},{"type":"Feature","id":"MLT-5938","properties":{"kind":"division","code":"MLT-5938","countryCode":"MLT","name":"Gżira","localName":"Gżira","labelEnglish":"Gżira","labelLocal":"Gżira","labelBoth":"Gżira","type":null,"iso":"MT-12","qid":"Q632097"},"geometry":{"type":"Polygon","coordinates":[[[14.5072,35.8987],[14.4929,35.9066],[14.4886,35.9047],[14.4859,35.9004],[14.4892,35.8974],[14.5016,35.8952],[14.5072,35.8987]]]}},{"type":"Feature","id":"label-MLT-5938","properties":{"kind":"division-label","code":"MLT-5938","countryCode":"MLT","name":"Gżira","localName":"Gżira","labelEnglish":"Gżira","labelLocal":"Gżira","labelBoth":"Gżira","type":null,"iso":"MT-12","qid":"Q632097"},"geometry":{"type":"Point","coordinates":[14.4908,35.9025]}},{"type":"Feature","id":"MLT-5954","properties":{"kind":"division","code":"MLT-5954","countryCode":"MLT","name":"Floriana","localName":"Floriana","labelEnglish":"Floriana","labelLocal":"Floriana","labelBoth":"Floriana","type":null,"iso":"MT-09","qid":"Q832807"},"geometry":{"type":"Polygon","coordinates":[[[14.498,35.8925],[14.4962,35.8883],[14.4966,35.8844],[14.5007,35.8798],[14.5084,35.8854],[14.5107,35.889],[14.5016,35.8952],[14.498,35.8925]]]}},{"type":"Feature","id":"label-MLT-5954","properties":{"kind":"division-label","code":"MLT-5954","countryCode":"MLT","name":"Floriana","localName":"Floriana","labelEnglish":"Floriana","labelLocal":"Floriana","labelBoth":"Floriana","type":null,"iso":"MT-09","qid":"Q832807"},"geometry":{"type":"Point","coordinates":[14.503,35.888]}},{"type":"Feature","id":"MLT-5941","properties":{"kind":"division","code":"MLT-5941","countryCode":"MLT","name":"Ta' Xbiex","localName":"Ta' Xbiex","labelEnglish":"Ta' Xbiex","labelLocal":"Ta' Xbiex","labelBoth":"Ta' Xbiex","type":null,"iso":"MT-58","qid":"Q1017348"},"geometry":{"type":"Polygon","coordinates":[[[14.5016,35.8952],[14.4892,35.8974],[14.4894,35.8919],[14.498,35.8925],[14.5016,35.8952]]]}},{"type":"Feature","id":"label-MLT-5941","properties":{"kind":"division-label","code":"MLT-5941","countryCode":"MLT","name":"Ta' Xbiex","localName":"Ta' Xbiex","labelEnglish":"Ta' Xbiex","labelLocal":"Ta' Xbiex","labelBoth":"Ta' Xbiex","type":null,"iso":"MT-58","qid":"Q1017348"},"geometry":{"type":"Point","coordinates":[14.4945,35.8945]}},{"type":"Feature","id":"MLT-5953","properties":{"kind":"division","code":"MLT-5953","countryCode":"MLT","name":"Senglea","localName":"Senglea","labelEnglish":"Senglea","labelLocal":"Senglea","labelBoth":"Senglea","type":null,"iso":"MT-20","qid":"Q846593"},"geometry":{"type":"Polygon","coordinates":[[[14.5107,35.889],[14.5084,35.8854],[14.5137,35.8804],[14.5213,35.8871],[14.5154,35.8911],[14.5107,35.889]]]}},{"type":"Feature","id":"label-MLT-5953","properties":{"kind":"division-label","code":"MLT-5953","countryCode":"MLT","name":"Senglea","localName":"Senglea","labelEnglish":"Senglea","labelLocal":"Senglea","labelBoth":"Senglea","type":null,"iso":"MT-20","qid":"Q846593"},"geometry":{"type":"Point","coordinates":[14.5149,35.8864]}},{"type":"Feature","id":"MLT-5955","properties":{"kind":"division","code":"MLT-5955","countryCode":"MLT","name":"Cospicua","localName":"Cospicua","labelEnglish":"Cospicua","labelLocal":"Cospicua","labelBoth":"Cospicua","type":null,"iso":"MT-06","qid":"Q757225"},"geometry":{"type":"Polygon","coordinates":[[[14.5294,35.8816],[14.5213,35.8871],[14.5137,35.8804],[14.5137,35.8739],[14.5267,35.8745],[14.5294,35.8816]]]}},{"type":"Feature","id":"label-MLT-5955","properties":{"kind":"division-label","code":"MLT-5955","countryCode":"MLT","name":"Cospicua","localName":"Cospicua","labelEnglish":"Cospicua","labelLocal":"Cospicua","labelBoth":"Cospicua","type":null,"iso":"MT-06","qid":"Q757225"},"geometry":{"type":"Point","coordinates":[14.5207,35.88]}},{"type":"Feature","id":"MLT-5942","properties":{"kind":"division","code":"MLT-5942","countryCode":"MLT","name":"Pietà","localName":"Pietà","labelEnglish":"Pietà","labelLocal":"Pietà","labelBoth":"Pietà","type":null,"iso":"MT-41","qid":"Q744070"},"geometry":{"type":"Polygon","coordinates":[[[14.498,35.8925],[14.4894,35.8919],[14.4866,35.8864],[14.4962,35.8883],[14.498,35.8925]]]}},{"type":"Feature","id":"label-MLT-5942","properties":{"kind":"division-label","code":"MLT-5942","countryCode":"MLT","name":"Pietà","localName":"Pietà","labelEnglish":"Pietà","labelLocal":"Pietà","labelBoth":"Pietà","type":null,"iso":"MT-41","qid":"Q744070"},"geometry":{"type":"Point","coordinates":[14.4927,35.8891]}},{"type":"Feature","id":"MLT-5940","properties":{"kind":"division","code":"MLT-5940","countryCode":"MLT","name":"Msida","localName":"Msida","labelEnglish":"Msida","labelLocal":"Msida","labelBoth":"Msida","type":null,"iso":"MT-34","qid":"Q585187"},"geometry":{"type":"Polygon","coordinates":[[[14.4866,35.8864],[14.4894,35.8919],[14.4892,35.8974],[14.4859,35.9004],[14.4722,35.8989],[14.4741,35.8917],[14.4866,35.8864]]]}},{"type":"Feature","id":"label-MLT-5940","properties":{"kind":"division-label","code":"MLT-5940","countryCode":"MLT","name":"Msida","localName":"Msida","labelEnglish":"Msida","labelLocal":"Msida","labelBoth":"Msida","type":null,"iso":"MT-34","qid":"Q585187"},"geometry":{"type":"Point","coordinates":[14.4825,35.8949]}},{"type":"Feature","id":"MLT-5951","properties":{"kind":"division","code":"MLT-5951","countryCode":"MLT","name":"Birgu","localName":"Birgu","labelEnglish":"Birgu","labelLocal":"Birgu","labelBoth":"Birgu","type":null,"iso":"MT-03","qid":"Q752346"},"geometry":{"type":"Polygon","coordinates":[[[14.5213,35.8871],[14.5294,35.8816],[14.5195,35.8943],[14.5154,35.8911],[14.5213,35.8871]]]}},{"type":"Feature","id":"label-MLT-5951","properties":{"kind":"division-label","code":"MLT-5951","countryCode":"MLT","name":"Birgu","localName":"Birgu","labelEnglish":"Birgu","labelLocal":"Birgu","labelBoth":"Birgu","type":null,"iso":"MT-03","qid":"Q752346"},"geometry":{"type":"Point","coordinates":[14.526,35.8871]}}]}