{"type":"FeatureCollection","features":[{"type":"Feature","id":"MMR-3273","properties":{"kind":"division","code":"MMR-3273","countryCode":"MMR","name":"Rakhine State","localName":"Rakhine State","labelEnglish":"Rakhine State","labelLocal":"Rakhine State","labelBoth":"Rakhine State","type":"State","iso":"MM-16","qid":"Q233838"},"geometry":{"type":"MultiPolygon","coordinates":[[[[92.641,21.3086],[92.3227,21.4619],[92.1837,21.3172],[92.2651,21.0611],[92.3811,20.7001],[92.7312,20.2592],[92.751,20.4985],[93.1345,19.8341],[93.1299,20.0751],[93.7454,19.9166],[93.6014,19.7834],[93.7611,19.6749],[93.7312,19.6326],[93.9238,19.4624],[93.9844,19.4641],[93.9873,19.3867],[93.9299,19.2998],[93.8342,19.2382],[93.4978,19.3139],[93.6789,19.0196],[93.9304,18.8586],[94.0532,19.2214],[94.0381,18.8591],[94.1531,18.821],[94.417,18.314],[94.5677,17.4629],[94.7442,17.3667],[94.8829,17.73],[94.8366,18.3576],[94.8047,18.8372],[94.5712,19.0992],[94.4301,19.4513],[94.3339,19.9496],[93.9046,20.7019],[93.7498,20.869],[93.474,20.6737],[93.2634,20.7934],[93.1326,21.0441],[92.8692,21.0373],[92.641,21.3086]]],[[[93.7454,18.8],[93.4841,18.875],[93.6453,18.6793],[93.7454,18.8]]],[[[93.9707,19.4169],[93.82,19.4715],[93.6882,19.5595],[93.8027,19.2767],[93.9658,19.363],[93.9707,19.4169]]]]}},{"type":"Feature","id":"label-MMR-3273","properties":{"kind":"division-label","code":"MMR-3273","countryCode":"MMR","name":"Rakhine State","localName":"Rakhine State","labelEnglish":"Rakhine State","labelLocal":"Rakhine State","labelBoth":"Rakhine State","type":"State","iso":"MM-16","qid":"Q233838"},"geometry":{"type":"Point","coordinates":[93.6396,20.2747]}},{"type":"Feature","id":"MMR-3274","properties":{"kind":"division","code":"MMR-3274","countryCode":"MMR","name":"Chin State","localName":"Chin State","labelEnglish":"Chin State","labelLocal":"Chin State","labelBoth":"Chin State","type":"State","iso":"MM-14","qid":"Q46910"},"geometry":{"type":"Polygon","coordinates":[[[92.641,21.3086],[92.8692,21.0373],[93.1326,21.0441],[93.2634,20.7934],[93.474,20.6737],[93.7498,20.869],[93.9046,20.7019],[94.1383,20.6929],[94.028,21.2658],[94.1252,21.5855],[94.007,22.678],[94.0003,23.3305],[94.1425,23.4993],[94.1289,23.8539],[93.3026,24.0358],[93.4324,23.6473],[93.3749,23.1297],[93.1382,23.0053],[93.0795,22.7727],[93.1659,22.3866],[92.979,21.9954],[92.6838,22.1543],[92.5759,21.9776],[92.641,21.3086]]]}},{"type":"Feature","id":"label-MMR-3274","properties":{"kind":"division-label","code":"MMR-3274","countryCode":"MMR","name":"Chin State","localName":"Chin State","labelEnglish":"Chin State","labelLocal":"Chin State","labelBoth":"Chin State","type":"State","iso":"MM-14","qid":"Q46910"},"geometry":{"type":"Point","coordinates":[93.3727,21.9262]}},{"type":"Feature","id":"MMR-3296","properties":{"kind":"division","code":"MMR-3296","countryCode":"MMR","name":"Kachin State","localName":"Kachin State","labelEnglish":"Kachin State","labelLocal":"Kachin State","labelBoth":"Kachin State","type":"State","iso":"MM-11","qid":"Q140646"},"geometry":{"type":"Polygon","coordinates":[[[97.3235,28.2175],[97.3335,27.8942],[96.8702,27.6191],[97.0588,27.0921],[96.9517,26.9899],[96.2929,26.9159],[96.0546,26.6518],[96.0141,26.3882],[96.1549,26.1422],[96.08,25.889],[96.178,25.6517],[95.9637,25.4286],[96.0683,24.9859],[95.8404,24.965],[95.9372,24.7102],[96.2351,24.4587],[96.6563,24.4172],[96.6736,24.1419],[96.8861,23.9898],[96.7841,23.7497],[97.0976,23.6454],[97.6473,23.8685],[97.5165,23.9428],[97.7077,24.1253],[97.6399,24.4393],[97.5196,24.4308],[97.5361,24.745],[97.8236,25.2616],[98.1084,25.3889],[98.1401,25.6115],[98.3326,25.567],[98.5095,25.8381],[98.6924,25.879],[98.5455,26.1056],[98.7556,26.625],[98.6793,27.5773],[98.4103,27.6843],[98.2947,27.5366],[98.115,28.1439],[97.5462,28.5385],[97.3235,28.2175]]]}},{"type":"Feature","id":"label-MMR-3296","properties":{"kind":"division-label","code":"MMR-3296","countryCode":"MMR","name":"Kachin State","localName":"Kachin State","labelEnglish":"Kachin State","labelLocal":"Kachin State","labelBoth":"Kachin State","type":"State","iso":"MM-11","qid":"Q140646"},"geometry":{"type":"Point","coordinates":[97.2978,25.7926]}},{"type":"Feature","id":"MMR-3302","properties":{"kind":"division","code":"MMR-3302","countryCode":"MMR","name":"Sagaing","localName":"Sagaing","labelEnglish":"Sagaing","labelLocal":"Sagaing","labelBoth":"Sagaing","type":"Division","iso":"MM-01","qid":"Q847289"},"geometry":{"type":"Polygon","coordinates":[[[97.0588,27.0921],[96.7589,27.3417],[96.1426,27.2575],[95.3927,26.6918],[95.2469,26.6489],[95.0406,26.4756],[95.1512,26.0499],[95.0088,25.7371],[94.6504,25.4467],[94.5501,25.2453],[94.7086,25.0259],[94.29,24.3168],[94.1289,23.8539],[94.1425,23.4993],[94.0003,23.3305],[94.007,22.678],[94.1133,22.7081],[94.2958,22.3889],[94.2794,22.1063],[94.3957,21.8244],[95.1521,21.8233],[95.3422,21.6089],[95.5615,21.7396],[95.7721,21.6261],[96.0512,21.9563],[95.9637,22.3925],[95.9752,23.154],[95.9095,23.3446],[96.082,23.6294],[96.3207,23.5067],[96.5584,23.8646],[96.4146,24.0512],[96.6736,24.1419],[96.6563,24.4172],[96.2351,24.4587],[95.9372,24.7102],[95.8404,24.965],[96.0683,24.9859],[95.9637,25.4286],[96.178,25.6517],[96.08,25.889],[96.1549,26.1422],[96.0141,26.3882],[96.0546,26.6518],[96.2929,26.9159],[96.9517,26.9899],[97.0588,27.0921]]]}},{"type":"Feature","id":"label-MMR-3302","properties":{"kind":"division-label","code":"MMR-3302","countryCode":"MMR","name":"Sagaing","localName":"Sagaing","labelEnglish":"Sagaing","labelLocal":"Sagaing","labelBoth":"Sagaing","type":"Division","iso":"MM-01","qid":"Q847289"},"geometry":{"type":"Point","coordinates":[95.1821,23.7031]}},{"type":"Feature","id":"MMR-3277","properties":{"kind":"division","code":"MMR-3277","countryCode":"MMR","name":"Shan State","localName":"Shan State","labelEnglish":"Shan State","labelLocal":"Shan State","labelBoth":"Shan State","type":"State","iso":"MM-17","qid":"Q456847"},"geometry":{"type":"Polygon","coordinates":[[[99.5087,20.1528],[99.4206,20.3756],[99.6519,20.3068],[99.942,20.444],[100.0993,20.3178],[100.2113,20.6974],[100.6078,20.8399],[100.5157,20.8865],[100.7254,21.3117],[101.159,21.5527],[101.1189,21.7598],[100.704,21.5164],[100.1871,21.4279],[100.1463,21.6492],[99.9503,21.7212],[99.9424,22.0455],[99.1445,22.1535],[99.3578,22.4955],[99.308,22.7452],[99.4931,23.0574],[98.859,23.1794],[98.8574,23.6043],[98.5852,24.0757],[98.1815,24.1187],[97.6473,23.8685],[97.0976,23.6454],[96.7841,23.7497],[96.8861,23.9898],[96.6736,24.1419],[96.4146,24.0512],[96.5584,23.8646],[96.3207,23.5067],[96.2125,23.0498],[96.5881,23.0373],[96.6403,22.8219],[96.2036,22.7397],[96.4781,22.1644],[96.7461,22.0651],[96.8887,21.744],[96.2883,21.4597],[96.3741,21.1749],[96.2155,21.0078],[96.5888,20.8452],[96.4542,20.6853],[96.5461,20.2323],[96.3805,20.0225],[96.6608,19.6955],[96.6733,19.4958],[96.8399,19.2884],[96.9726,19.6238],[97.1354,19.7278],[97.1678,19.9887],[97.586,19.8273],[97.8691,19.5705],[98.0245,19.803],[98.2375,19.6647],[98.4778,19.7056],[99.0088,19.8459],[99.1175,20.1178],[99.5087,20.1528]]]}},{"type":"Feature","id":"label-MMR-3277","properties":{"kind":"division-label","code":"MMR-3277","countryCode":"MMR","name":"Shan State","localName":"Shan State","labelEnglish":"Shan State","labelLocal":"Shan State","labelBoth":"Shan State","type":"State","iso":"MM-17","qid":"Q456847"},"geometry":{"type":"Point","coordinates":[98.1593,21.5185]}},{"type":"Feature","id":"MMR-2473","properties":{"kind":"division","code":"MMR-2473","countryCode":"MMR","name":"Kayah State","localName":"Kayah State","labelEnglish":"Kayah State","labelLocal":"Kayah State","labelBoth":"Kayah State","type":"State","iso":"MM-12","qid":"Q652845"},"geometry":{"type":"Polygon","coordinates":[[[97.8691,19.5705],[97.586,19.8273],[97.1678,19.9887],[97.1354,19.7278],[96.9726,19.6238],[96.8399,19.2884],[97.123,18.6893],[97.3729,18.5486],[97.7457,18.5711],[97.6578,18.9257],[97.8108,19.1122],[97.7671,19.3975],[97.8691,19.5705]]]}},{"type":"Feature","id":"label-MMR-2473","properties":{"kind":"division-label","code":"MMR-2473","countryCode":"MMR","name":"Kayah State","localName":"Kayah State","labelEnglish":"Kayah State","labelLocal":"Kayah State","labelBoth":"Kayah State","type":"State","iso":"MM-12","qid":"Q652845"},"geometry":{"type":"Point","coordinates":[97.3526,19.2658]}},{"type":"Feature","id":"MMR-3266","properties":{"kind":"division","code":"MMR-3266","countryCode":"MMR","name":"Kayin State","localName":"Kayin State","labelEnglish":"Kayin State","labelLocal":"Kayin State","labelBoth":"Kayin State","type":"State","iso":"MM-13","qid":"Q495342"},"geometry":{"type":"Polygon","coordinates":[[[97.3729,18.5486],[97.123,18.6893],[96.8399,19.2884],[96.6733,19.4958],[96.3989,19.47],[96.5304,19.08],[96.6845,18.9218],[96.7027,18.6044],[96.9302,18.6452],[96.9704,18.439],[97.2035,18.1527],[97.1323,17.9559],[97.234,17.5455],[97.3851,17.7058],[97.5213,17.295],[97.473,16.9804],[97.7035,16.5735],[97.7402,16.5593],[97.9833,16.4277],[98.1319,16.1628],[97.8234,16.1339],[97.8765,15.6742],[98.2077,15.2192],[98.5336,15.326],[98.5441,15.6751],[98.6587,16.1163],[98.8354,16.1445],[98.9033,16.3634],[98.6824,16.2735],[98.4567,16.7232],[98.4362,17.0116],[97.908,17.5549],[97.6761,17.8303],[97.7541,17.969],[97.3729,18.5486]]]}},{"type":"Feature","id":"label-MMR-3266","properties":{"kind":"division-label","code":"MMR-3266","countryCode":"MMR","name":"Kayin State","localName":"Kayin State","labelEnglish":"Kayin State","labelLocal":"Kayin State","labelBoth":"Kayin State","type":"State","iso":"MM-13","qid":"Q495342"},"geometry":{"type":"Point","coordinates":[97.651,17.3996]}},{"type":"Feature","id":"MMR-3270","properties":{"kind":"division","code":"MMR-3270","countryCode":"MMR","name":"Mon State","localName":"Mon State","labelEnglish":"Mon State","labelLocal":"Mon State","labelBoth":"Mon State","type":"State","iso":"MM-15","qid":"Q818742"},"geometry":{"type":"MultiPolygon","coordinates":[[[[98.2077,15.2192],[97.8765,15.6742],[97.8234,16.1339],[98.1319,16.1628],[97.9833,16.4277],[97.7402,16.5593],[97.6266,16.4376],[97.5823,16.0091],[97.7123,15.8877],[97.8071,15.175],[97.7949,14.8802],[97.9023,15.0784],[98.1912,14.9932],[98.2077,15.2192]]],[[[97.7035,16.5735],[97.473,16.9804],[97.5213,17.295],[97.3851,17.7058],[97.234,17.5455],[96.8908,17.6027],[96.8829,17.4572],[97.199,16.9975],[97.3703,16.4835],[97.7035,16.5735]]]]}},{"type":"Feature","id":"label-MMR-3270","properties":{"kind":"division-label","code":"MMR-3270","countryCode":"MMR","name":"Mon State","localName":"Mon State","labelEnglish":"Mon State","labelLocal":"Mon State","labelBoth":"Mon State","type":"State","iso":"MM-15","qid":"Q818742"},"geometry":{"type":"Point","coordinates":[97.8062,16.3045]}},{"type":"Feature","id":"MMR-3279","properties":{"kind":"division","code":"MMR-3279","countryCode":"MMR","name":"Tanintharyi","localName":"Tanintharyi","labelEnglish":"Tanintharyi","labelLocal":"Tanintharyi","labelBoth":"Tanintharyi","type":"Division","iso":"MM-05","qid":"Q843954"},"geometry":{"type":"MultiPolygon","coordinates":[[[[98.1912,14.9932],[97.9023,15.0784],[97.7949,14.8802],[98.1604,13.6903],[98.2448,13.7141],[98.5785,13.1868],[98.6893,12.7281],[98.552,12.2796],[98.6963,12.2418],[98.7681,11.7619],[98.6582,11.132],[98.7124,10.9244],[98.4593,10.7154],[98.5431,9.9875],[98.7474,10.3505],[98.7667,10.6888],[98.8792,10.7882],[99.1409,11.0394],[99.63,11.8158],[99.4663,12.126],[99.4047,12.5669],[99.2141,12.7347],[99.1021,13.1713],[99.1865,13.2116],[99.1468,13.7237],[98.9453,14.0691],[98.5477,14.3777],[98.1912,14.9932]]],[[[98.5353,11.8036],[98.3913,11.663],[98.5353,11.5292],[98.5353,11.8036]]],[[[98.4663,12.5837],[98.3156,12.6874],[98.302,12.338],[98.4663,12.5837]]]]}},{"type":"Feature","id":"label-MMR-3279","properties":{"kind":"division-label","code":"MMR-3279","countryCode":"MMR","name":"Tanintharyi","localName":"Tanintharyi","labelEnglish":"Tanintharyi","labelLocal":"Tanintharyi","labelBoth":"Tanintharyi","type":"Division","iso":"MM-05","qid":"Q843954"},"geometry":{"type":"Point","coordinates":[98.7746,13.6116]}},{"type":"Feature","id":"MMR-3275","properties":{"kind":"division","code":"MMR-3275","countryCode":"MMR","name":"Ayeyarwady","localName":"Ayeyarwady","labelEnglish":"Ayeyarwady","labelLocal":"Ayeyarwady","labelBoth":"Ayeyarwady","type":"Division","iso":"MM-07","qid":"Q47047"},"geometry":{"type":"MultiPolygon","coordinates":[[[[96.0173,16.3782],[95.8323,16.4791],[95.9043,16.905],[95.6907,17.3001],[95.7467,17.4622],[95.4582,17.726],[95.3827,18.2307],[95.1534,18.4713],[94.8366,18.3576],[94.8829,17.73],[94.7442,17.3667],[94.5677,17.4629],[94.4647,16.9497],[94.2731,16.5382],[94.2146,16.0148],[94.34,15.9962],[94.6437,16.2835],[94.6838,16.3641],[94.6702,16.5097],[94.7217,16.3785],[94.6652,16.2576],[94.6789,16.1213],[94.5623,15.9619],[94.8469,15.7906],[95.2971,15.903],[95.432,15.7336],[95.7323,16.1273],[96.0173,16.3782]]],[[[94.6621,16.2219],[94.3897,16.0009],[94.4172,15.8718],[94.6296,16.0752],[94.6621,16.2219]]]]}},{"type":"Feature","id":"label-MMR-3275","properties":{"kind":"division-label","code":"MMR-3275","countryCode":"MMR","name":"Ayeyarwady","localName":"Ayeyarwady","labelEnglish":"Ayeyarwady","labelLocal":"Ayeyarwady","labelBoth":"Ayeyarwady","type":"Division","iso":"MM-07","qid":"Q47047"},"geometry":{"type":"Point","coordinates":[95.1083,16.7457]}},{"type":"Feature","id":"MMR-3269","properties":{"kind":"division","code":"MMR-3269","countryCode":"MMR","name":"Yangon","localName":"Yangon","labelEnglish":"Yangon","labelLocal":"Yangon","labelBoth":"Yangon","type":"Division","iso":"MM-06","qid":"Q856781"},"geometry":{"type":"Polygon","coordinates":[[[96.8272,16.8904],[96.3945,16.9894],[96.2861,17.3708],[96.0514,17.7606],[95.7467,17.4622],[95.6907,17.3001],[95.9043,16.905],[95.8323,16.4791],[96.0173,16.3782],[96.119,16.3218],[96.6159,16.518],[96.8272,16.8904]]]}},{"type":"Feature","id":"label-MMR-3269","properties":{"kind":"division-label","code":"MMR-3269","countryCode":"MMR","name":"Yangon","localName":"Yangon","labelEnglish":"Yangon","labelLocal":"Yangon","labelBoth":"Yangon","type":"Division","iso":"MM-06","qid":"Q856781"},"geometry":{"type":"Point","coordinates":[96.111,17.1117]}},{"type":"Feature","id":"MMR-3268","properties":{"kind":"division","code":"MMR-3268","countryCode":"MMR","name":"Bago","localName":"Bago","labelEnglish":"Bago","labelLocal":"Bago","labelBoth":"Bago","type":"Division","iso":"MM-02","qid":"Q800124"},"geometry":{"type":"Polygon","coordinates":[[[96.8829,17.4572],[96.8908,17.6027],[97.234,17.5455],[97.1323,17.9559],[97.2035,18.1527],[96.9704,18.439],[96.9302,18.6452],[96.7027,18.6044],[96.6845,18.9218],[96.5304,19.08],[96.3989,19.47],[95.8003,19.4636],[95.8259,19.1711],[95.3069,19.0553],[95.0798,18.667],[95.1534,18.4713],[95.3827,18.2307],[95.4582,17.726],[95.7467,17.4622],[96.0514,17.7606],[96.2861,17.3708],[96.3945,16.9894],[96.8272,16.8904],[96.9102,17.0668],[96.8829,17.4572]]]}},{"type":"Feature","id":"label-MMR-3268","properties":{"kind":"division-label","code":"MMR-3268","countryCode":"MMR","name":"Bago","localName":"Bago","labelEnglish":"Bago","labelLocal":"Bago","labelBoth":"Bago","type":"Division","iso":"MM-02","qid":"Q800124"},"geometry":{"type":"Point","coordinates":[96.1485,18.518]}},{"type":"Feature","id":"MMR-3276","properties":{"kind":"division","code":"MMR-3276","countryCode":"MMR","name":"Magway","localName":"Magway","labelEnglish":"Magway","labelLocal":"Magway","labelBoth":"Magway","type":"Division","iso":"MM-03","qid":"Q833013"},"geometry":{"type":"Polygon","coordinates":[[[94.8366,18.3576],[95.1534,18.4713],[95.0798,18.667],[95.3069,19.0553],[95.8259,19.1711],[95.8003,19.4636],[95.7254,19.6094],[95.828,20.1384],[95.6036,20.7512],[95.0686,20.5894],[95.084,20.8242],[94.8147,20.953],[94.843,21.2225],[95.1416,21.3139],[95.3422,21.6089],[95.1521,21.8233],[94.3957,21.8244],[94.2794,22.1063],[94.2958,22.3889],[94.1133,22.7081],[94.007,22.678],[94.1252,21.5855],[94.028,21.2658],[94.1383,20.6929],[93.9046,20.7019],[94.3339,19.9496],[94.4301,19.4513],[94.5712,19.0992],[94.8047,18.8372],[94.8366,18.3576]]]}},{"type":"Feature","id":"label-MMR-3276","properties":{"kind":"division-label","code":"MMR-3276","countryCode":"MMR","name":"Magway","localName":"Magway","labelEnglish":"Magway","labelLocal":"Magway","labelBoth":"Magway","type":"Division","iso":"MM-03","qid":"Q833013"},"geometry":{"type":"Point","coordinates":[94.8807,19.6473]}},{"type":"Feature","id":"MMR-3267","properties":{"kind":"division","code":"MMR-3267","countryCode":"MMR","name":"Mandalay","localName":"Mandalay","labelEnglish":"Mandalay","labelLocal":"Mandalay","labelBoth":"Mandalay","type":"Division","iso":"MM-04","qid":"Q119494"},"geometry":{"type":"Polygon","coordinates":[[[96.3207,23.5067],[96.082,23.6294],[95.9095,23.3446],[95.9752,23.154],[95.9637,22.3925],[96.0512,21.9563],[95.7721,21.6261],[95.5615,21.7396],[95.3422,21.6089],[95.1416,21.3139],[94.843,21.2225],[94.8147,20.953],[95.084,20.8242],[95.0686,20.5894],[95.6036,20.7512],[95.828,20.1384],[95.7254,19.6094],[95.8003,19.4636],[96.3989,19.47],[96.6733,19.4958],[96.6608,19.6955],[96.3805,20.0225],[96.5461,20.2323],[96.4542,20.6853],[96.5888,20.8452],[96.2155,21.0078],[96.3741,21.1749],[96.2883,21.4597],[96.8887,21.744],[96.7461,22.0651],[96.4781,22.1644],[96.2036,22.7397],[96.6403,22.8219],[96.5881,23.0373],[96.2125,23.0498],[96.3207,23.5067]]]}},{"type":"Feature","id":"label-MMR-3267","properties":{"kind":"division-label","code":"MMR-3267","countryCode":"MMR","name":"Mandalay","localName":"Mandalay","labelEnglish":"Mandalay","labelLocal":"Mandalay","labelBoth":"Mandalay","type":"Division","iso":"MM-04","qid":"Q119494"},"geometry":{"type":"Point","coordinates":[96.0614,20.6284]}}]}