{"type":"FeatureCollection","features":[{"type":"Feature","id":"MNE-1506","properties":{"kind":"division","code":"MNE-1506","countryCode":"MNE","name":"Herceg Novi","localName":"Herceg Novi","labelEnglish":"Herceg Novi","labelLocal":"Herceg Novi","labelBoth":"Herceg Novi","type":"Municipality","iso":"ME-08","qid":"Q3317366"},"geometry":{"type":"Polygon","coordinates":[[[18.4964,42.4163],[18.6541,42.4518],[18.5068,42.5985],[18.4374,42.5592],[18.4964,42.4163]]]}},{"type":"Feature","id":"label-MNE-1506","properties":{"kind":"division-label","code":"MNE-1506","countryCode":"MNE","name":"Herceg Novi","localName":"Herceg Novi","labelEnglish":"Herceg Novi","labelLocal":"Herceg Novi","labelBoth":"Herceg Novi","type":"Municipality","iso":"ME-08","qid":"Q3317366"},"geometry":{"type":"Point","coordinates":[18.6027,42.4041]}},{"type":"Feature","id":"MNE-1501","properties":{"kind":"division","code":"MNE-1501","countryCode":"MNE","name":"Rožaje","localName":"Rožaje","labelEnglish":"Rožaje","labelLocal":"Rožaje","labelBoth":"Rožaje","type":"Municipality","iso":"ME-17","qid":"Q3296677"},"geometry":{"type":"Polygon","coordinates":[[[20.3454,42.8274],[20.1295,42.9736],[20.0556,42.7639],[20.3192,42.8241],[20.3454,42.8274]]]}},{"type":"Feature","id":"label-MNE-1501","properties":{"kind":"division-label","code":"MNE-1501","countryCode":"MNE","name":"Rožaje","localName":"Rožaje","labelEnglish":"Rožaje","labelLocal":"Rožaje","labelBoth":"Rožaje","type":"Municipality","iso":"ME-17","qid":"Q3296677"},"geometry":{"type":"Point","coordinates":[20.2013,42.8615]}},{"type":"Feature","id":"MNE-1509","properties":{"kind":"division","code":"MNE-1509","countryCode":"MNE","name":"Berane","localName":"Berane","labelEnglish":"Berane","labelLocal":"Berane","labelBoth":"Berane","type":"Municipality","iso":"ME-03","qid":"Q4853794"},"geometry":{"type":"Polygon","coordinates":[[[20.0556,42.7639],[20.1295,42.9736],[20.0563,43.0208],[19.6988,42.9075],[19.679,42.8816],[19.6757,42.8253],[19.9094,42.6893],[20.037,42.7074],[20.0556,42.7639]]]}},{"type":"Feature","id":"label-MNE-1509","properties":{"kind":"division-label","code":"MNE-1509","countryCode":"MNE","name":"Berane","localName":"Berane","labelEnglish":"Berane","labelLocal":"Berane","labelBoth":"Berane","type":"Municipality","iso":"ME-03","qid":"Q4853794"},"geometry":{"type":"Point","coordinates":[19.9003,42.8198]}},{"type":"Feature","id":"MNE-1503","properties":{"kind":"division","code":"MNE-1503","countryCode":"MNE","name":"Plav","localName":"Plav","labelEnglish":"Plav","labelLocal":"Plav","labelBoth":"Plav","type":"Municipality","iso":"ME-13","qid":"Q4859821"},"geometry":{"type":"Polygon","coordinates":[[[20.037,42.7074],[19.9094,42.6893],[19.7469,42.5889],[19.8291,42.4687],[20.065,42.5468],[20.1039,42.6531],[20.037,42.7074]]]}},{"type":"Feature","id":"label-MNE-1503","properties":{"kind":"division-label","code":"MNE-1503","countryCode":"MNE","name":"Plav","localName":"Plav","labelEnglish":"Plav","labelLocal":"Plav","labelBoth":"Plav","type":"Municipality","iso":"ME-13","qid":"Q4859821"},"geometry":{"type":"Point","coordinates":[19.9168,42.5985]}},{"type":"Feature","id":"MNE-1516","properties":{"kind":"division","code":"MNE-1516","countryCode":"MNE","name":"Pljevlja","localName":"Pljevlja","labelEnglish":"Pljevlja","labelLocal":"Pljevlja","labelBoth":"Pljevlja","type":"Municipality","iso":"ME-14","qid":"Q3299950"},"geometry":{"type":"Polygon","coordinates":[[[19.1953,43.5328],[18.9056,43.4906],[19.0225,43.2965],[19.4111,43.0452],[19.4595,43.0496],[19.5478,43.2188],[19.1953,43.5328]]]}},{"type":"Feature","id":"label-MNE-1516","properties":{"kind":"division-label","code":"MNE-1516","countryCode":"MNE","name":"Pljevlja","localName":"Pljevlja","labelEnglish":"Pljevlja","labelLocal":"Pljevlja","labelBoth":"Pljevlja","type":"Municipality","iso":"ME-14","qid":"Q3299950"},"geometry":{"type":"Point","coordinates":[19.2264,43.3019]}},{"type":"Feature","id":"MNE-1510","properties":{"kind":"division","code":"MNE-1510","countryCode":"MNE","name":"Bijelo Polje","localName":"Bijelo Polje","labelEnglish":"Bijelo Polje","labelLocal":"Bijelo Polje","labelBoth":"Bijelo Polje","type":"Municipality","iso":"ME-04","qid":"Q4086488"},"geometry":{"type":"Polygon","coordinates":[[[19.5478,43.2188],[19.4595,43.0496],[19.6988,42.9075],[20.0563,43.0208],[20.0544,43.0222],[19.5478,43.2188]]]}},{"type":"Feature","id":"label-MNE-1510","properties":{"kind":"division-label","code":"MNE-1510","countryCode":"MNE","name":"Bijelo Polje","localName":"Bijelo Polje","labelEnglish":"Bijelo Polje","labelLocal":"Bijelo Polje","labelBoth":"Bijelo Polje","type":"Municipality","iso":"ME-04","qid":"Q4086488"},"geometry":{"type":"Point","coordinates":[19.7579,43.0174]}},{"type":"Feature","id":"MNE-1520","properties":{"kind":"division","code":"MNE-1520","countryCode":"MNE","name":"Žabljak","localName":"Žabljak","labelEnglish":"Žabljak","labelLocal":"Žabljak","labelBoth":"Žabljak","type":"Municipality","iso":"ME-21","qid":"Q3304454"},"geometry":{"type":"Polygon","coordinates":[[[19.0225,43.2965],[18.9895,43.272],[19.0247,43.0942],[19.3317,42.9901],[19.4111,43.0452],[19.0225,43.2965]]]}},{"type":"Feature","id":"label-MNE-1520","properties":{"kind":"division-label","code":"MNE-1520","countryCode":"MNE","name":"Žabljak","localName":"Žabljak","labelEnglish":"Žabljak","labelLocal":"Žabljak","labelBoth":"Žabljak","type":"Municipality","iso":"ME-21","qid":"Q3304454"},"geometry":{"type":"Point","coordinates":[19.2003,43.1148]}},{"type":"Feature","id":"MNE-1515","properties":{"kind":"division","code":"MNE-1515","countryCode":"MNE","name":"Plužine","localName":"Plužine","labelEnglish":"Plužine","labelLocal":"Plužine","labelBoth":"Plužine","type":"Municipality","iso":"ME-15","qid":"Q4864476"},"geometry":{"type":"Polygon","coordinates":[[[18.9895,43.272],[18.6643,43.2332],[18.6211,43.1246],[18.9781,42.9334],[19.0247,43.0942],[18.9895,43.272]]]}},{"type":"Feature","id":"label-MNE-1515","properties":{"kind":"division-label","code":"MNE-1515","countryCode":"MNE","name":"Plužine","localName":"Plužine","labelEnglish":"Plužine","labelLocal":"Plužine","labelBoth":"Plužine","type":"Municipality","iso":"ME-15","qid":"Q4864476"},"geometry":{"type":"Point","coordinates":[18.8229,43.1483]}},{"type":"Feature","id":"MNE-1514","properties":{"kind":"division","code":"MNE-1514","countryCode":"MNE","name":"Nikšić","localName":"Nikšić","labelEnglish":"Nikšić","labelLocal":"Nikšić","labelBoth":"Nikšić","type":"Municipality","iso":"ME-12","qid":"Q4865016"},"geometry":{"type":"Polygon","coordinates":[[[18.6211,43.1246],[18.4528,42.9934],[18.5428,42.6264],[18.6483,42.6293],[18.9372,42.6202],[19.2107,42.7595],[19.2086,42.8589],[18.9781,42.9334],[18.6211,43.1246]]]}},{"type":"Feature","id":"label-MNE-1514","properties":{"kind":"division-label","code":"MNE-1514","countryCode":"MNE","name":"Nikšić","localName":"Nikšić","labelEnglish":"Nikšić","labelLocal":"Nikšić","labelBoth":"Nikšić","type":"Municipality","iso":"ME-12","qid":"Q4865016"},"geometry":{"type":"Point","coordinates":[18.8259,42.8341]}},{"type":"Feature","id":"MNE-1507","properties":{"kind":"division","code":"MNE-1507","countryCode":"MNE","name":"Kotor","localName":"Kotor","labelEnglish":"Kotor","labelLocal":"Kotor","labelBoth":"Kotor","type":"Municipality","iso":"ME-10","qid":"Q4856305"},"geometry":{"type":"Polygon","coordinates":[[[18.5068,42.5985],[18.6541,42.4518],[18.6857,42.4767],[18.6936,42.3576],[18.7887,42.276],[18.7936,42.3542],[18.6483,42.6293],[18.5428,42.6264],[18.5068,42.5985]]]}},{"type":"Feature","id":"label-MNE-1507","properties":{"kind":"division-label","code":"MNE-1507","countryCode":"MNE","name":"Kotor","localName":"Kotor","labelEnglish":"Kotor","labelLocal":"Kotor","labelBoth":"Kotor","type":"Municipality","iso":"ME-10","qid":"Q4856305"},"geometry":{"type":"Point","coordinates":[18.65,42.5415]}},{"type":"Feature","id":"MNE-1508","properties":{"kind":"division","code":"MNE-1508","countryCode":"MNE","name":"Andrijevica","localName":"Andrijevica","labelEnglish":"Andrijevica","labelLocal":"Andrijevica","labelBoth":"Andrijevica","type":"Municipality","iso":"ME-01","qid":"Q2384773"},"geometry":{"type":"Polygon","coordinates":[[[19.7469,42.5889],[19.9094,42.6893],[19.6757,42.8253],[19.6281,42.6651],[19.658,42.6346],[19.7469,42.5889]]]}},{"type":"Feature","id":"label-MNE-1508","properties":{"kind":"division-label","code":"MNE-1508","countryCode":"MNE","name":"Andrijevica","localName":"Andrijevica","labelEnglish":"Andrijevica","labelLocal":"Andrijevica","labelBoth":"Andrijevica","type":"Municipality","iso":"ME-01","qid":"Q2384773"},"geometry":{"type":"Point","coordinates":[19.7688,42.6933]}},{"type":"Feature","id":"MNE-1517","properties":{"kind":"division","code":"MNE-1517","countryCode":"MNE","name":"Podgorica","localName":"Podgorica","labelEnglish":"Podgorica","labelLocal":"Podgorica","labelBoth":"Podgorica","type":"Municipality","iso":"ME-16","qid":"Q3305250"},"geometry":{"type":"Polygon","coordinates":[[[19.658,42.6346],[19.6281,42.6651],[19.301,42.6769],[18.9853,42.5063],[19.1095,42.3003],[19.2834,42.198],[19.658,42.6346]]]}},{"type":"Feature","id":"label-MNE-1517","properties":{"kind":"division-label","code":"MNE-1517","countryCode":"MNE","name":"Podgorica","localName":"Podgorica","labelEnglish":"Podgorica","labelLocal":"Podgorica","labelBoth":"Podgorica","type":"Municipality","iso":"ME-16","qid":"Q3305250"},"geometry":{"type":"Point","coordinates":[19.3069,42.4462]}},{"type":"Feature","id":"MNE-1496","properties":{"kind":"division","code":"MNE-1496","countryCode":"MNE","name":"Bar","localName":"Bar","labelEnglish":"Bar","labelLocal":"Bar","labelBoth":"Bar","type":"Municipality","iso":"ME-02","qid":"Q2604068"},"geometry":{"type":"Polygon","coordinates":[[[19.2834,42.198],[19.1095,42.3003],[18.9225,42.3021],[18.9714,42.1833],[19.1412,42.0198],[19.37,42.1065],[19.2834,42.198]]]}},{"type":"Feature","id":"label-MNE-1496","properties":{"kind":"division-label","code":"MNE-1496","countryCode":"MNE","name":"Bar","localName":"Bar","labelEnglish":"Bar","labelLocal":"Bar","labelBoth":"Bar","type":"Municipality","iso":"ME-02","qid":"Q2604068"},"geometry":{"type":"Point","coordinates":[19.1463,42.1416]}},{"type":"Feature","id":"MNE-1497","properties":{"kind":"division","code":"MNE-1497","countryCode":"MNE","name":"Ulcinj","localName":"Ulcinj","labelEnglish":"Ulcinj","labelLocal":"Ulcinj","labelBoth":"Ulcinj","type":"Municipality","iso":"ME-20","qid":"Q3305169"},"geometry":{"type":"Polygon","coordinates":[[[19.37,42.1065],[19.1412,42.0198],[19.3651,41.8524],[19.37,42.1065]]]}},{"type":"Feature","id":"label-MNE-1497","properties":{"kind":"division-label","code":"MNE-1497","countryCode":"MNE","name":"Ulcinj","localName":"Ulcinj","labelEnglish":"Ulcinj","labelLocal":"Ulcinj","labelBoth":"Ulcinj","type":"Municipality","iso":"ME-20","qid":"Q3305169"},"geometry":{"type":"Point","coordinates":[19.2564,42.0039]}},{"type":"Feature","id":"MNE-1499","properties":{"kind":"division","code":"MNE-1499","countryCode":"MNE","name":"Budva","localName":"Budva","labelEnglish":"Budva","labelLocal":"Budva","labelBoth":"Budva","type":"Municipality","iso":"ME-05","qid":"Q3739214"},"geometry":{"type":"Polygon","coordinates":[[[18.9714,42.1833],[18.9225,42.3021],[18.7936,42.3542],[18.7887,42.276],[18.9714,42.1833]]]}},{"type":"Feature","id":"label-MNE-1499","properties":{"kind":"division-label","code":"MNE-1499","countryCode":"MNE","name":"Budva","localName":"Budva","labelEnglish":"Budva","labelLocal":"Budva","labelBoth":"Budva","type":"Municipality","iso":"ME-05","qid":"Q3739214"},"geometry":{"type":"Point","coordinates":[18.8929,42.3039]}},{"type":"Feature","id":"MNE-1518","properties":{"kind":"division","code":"MNE-1518","countryCode":"MNE","name":"Tivat","localName":"Tivat","labelEnglish":"Tivat","labelLocal":"Tivat","labelBoth":"Tivat","type":"Municipality","iso":"ME-19","qid":"Q3738564"},"geometry":{"type":"Polygon","coordinates":[[[18.6936,42.3576],[18.6857,42.4767],[18.6449,42.4184],[18.6585,42.3866],[18.6936,42.3576]]]}},{"type":"Feature","id":"label-MNE-1518","properties":{"kind":"division-label","code":"MNE-1518","countryCode":"MNE","name":"Tivat","localName":"Tivat","labelEnglish":"Tivat","labelLocal":"Tivat","labelBoth":"Tivat","type":"Municipality","iso":"ME-19","qid":"Q3738564"},"geometry":{"type":"Point","coordinates":[18.6898,42.3897]}},{"type":"Feature","id":"MNE-1513","properties":{"kind":"division","code":"MNE-1513","countryCode":"MNE","name":"Mojkovac","localName":"Mojkovac","labelEnglish":"Mojkovac","labelLocal":"Mojkovac","labelBoth":"Mojkovac","type":"Municipality","iso":"ME-11","qid":"Q3299782"},"geometry":{"type":"Polygon","coordinates":[[[19.3317,42.9901],[19.3723,42.9345],[19.679,42.8816],[19.6988,42.9075],[19.4595,43.0496],[19.4111,43.0452],[19.3317,42.9901]]]}},{"type":"Feature","id":"label-MNE-1513","properties":{"kind":"division-label","code":"MNE-1513","countryCode":"MNE","name":"Mojkovac","localName":"Mojkovac","labelEnglish":"Mojkovac","labelLocal":"Mojkovac","labelBoth":"Mojkovac","type":"Municipality","iso":"ME-11","qid":"Q3299782"},"geometry":{"type":"Point","coordinates":[19.515,42.971]}},{"type":"Feature","id":"MNE-1500","properties":{"kind":"division","code":"MNE-1500","countryCode":"MNE","name":"Cetinje","localName":"Cetinje","labelEnglish":"Cetinje","labelLocal":"Cetinje","labelBoth":"Cetinje","type":"Municipality","iso":"ME-06","qid":"Q3305075"},"geometry":{"type":"Polygon","coordinates":[[[18.9372,42.6202],[18.6483,42.6293],[18.7936,42.3542],[18.9225,42.3021],[19.1095,42.3003],[18.9853,42.5063],[18.9372,42.6202]]]}},{"type":"Feature","id":"label-MNE-1500","properties":{"kind":"division-label","code":"MNE-1500","countryCode":"MNE","name":"Cetinje","localName":"Cetinje","labelEnglish":"Cetinje","labelLocal":"Cetinje","labelBoth":"Cetinje","type":"Municipality","iso":"ME-06","qid":"Q3305075"},"geometry":{"type":"Point","coordinates":[18.8954,42.4993]}},{"type":"Feature","id":"MNE-1519","properties":{"kind":"division","code":"MNE-1519","countryCode":"MNE","name":"Šavnik","localName":"Šavnik","labelEnglish":"Šavnik","labelLocal":"Šavnik","labelBoth":"Šavnik","type":"Municipality","iso":"ME-18","qid":"Q13365880"},"geometry":{"type":"Polygon","coordinates":[[[19.0247,43.0942],[18.9781,42.9334],[19.2086,42.8589],[19.3723,42.9345],[19.3317,42.9901],[19.0247,43.0942]]]}},{"type":"Feature","id":"label-MNE-1519","properties":{"kind":"division-label","code":"MNE-1519","countryCode":"MNE","name":"Šavnik","localName":"Šavnik","labelEnglish":"Šavnik","labelLocal":"Šavnik","labelBoth":"Šavnik","type":"Municipality","iso":"ME-18","qid":"Q13365880"},"geometry":{"type":"Point","coordinates":[19.1516,42.9571]}},{"type":"Feature","id":"MNE-1512","properties":{"kind":"division","code":"MNE-1512","countryCode":"MNE","name":"Kolašin","localName":"Kolašin","labelEnglish":"Kolašin","labelLocal":"Kolašin","labelBoth":"Kolašin","type":"Municipality","iso":"ME-09","qid":"Q3303233"},"geometry":{"type":"Polygon","coordinates":[[[19.2107,42.7595],[19.301,42.6769],[19.6281,42.6651],[19.6757,42.8253],[19.679,42.8816],[19.3723,42.9345],[19.2086,42.8589],[19.2107,42.7595]]]}},{"type":"Feature","id":"label-MNE-1512","properties":{"kind":"division-label","code":"MNE-1512","countryCode":"MNE","name":"Kolašin","localName":"Kolašin","labelEnglish":"Kolašin","labelLocal":"Kolašin","labelBoth":"Kolašin","type":"Municipality","iso":"ME-09","qid":"Q3303233"},"geometry":{"type":"Point","coordinates":[19.4394,42.7889]}},{"type":"Feature","id":"MNE-1511","properties":{"kind":"division","code":"MNE-1511","countryCode":"MNE","name":"Danilovgrad","localName":"Danilovgrad","labelEnglish":"Danilovgrad","labelLocal":"Danilovgrad","labelBoth":"Danilovgrad","type":"Municipality","iso":"ME-07","qid":"Q3741507"},"geometry":{"type":"Polygon","coordinates":[[[19.2107,42.7595],[18.9372,42.6202],[18.9853,42.5063],[19.301,42.6769],[19.2107,42.7595]]]}},{"type":"Feature","id":"label-MNE-1511","properties":{"kind":"division-label","code":"MNE-1511","countryCode":"MNE","name":"Danilovgrad","localName":"Danilovgrad","labelEnglish":"Danilovgrad","labelLocal":"Danilovgrad","labelBoth":"Danilovgrad","type":"Municipality","iso":"ME-07","qid":"Q3741507"},"geometry":{"type":"Point","coordinates":[19.1191,42.5936]}}]}