{"type":"FeatureCollection","features":[{"type":"Feature","id":"MNG-3332","properties":{"kind":"division","code":"MNG-3332","countryCode":"MNG","name":"Dornod","localName":"Dornod","labelEnglish":"Dornod","labelLocal":"Dornod","labelBoth":"Dornod","type":"Province","iso":"MN-061","qid":"Q207795"},"geometry":{"type":"Polygon","coordinates":[[[116.6843,49.8233],[116.2176,50.0138],[115.7509,49.885],[115.3687,49.8954],[114.7538,50.2362],[114.2863,50.2769],[113.2124,49.822],[113.0437,49.5886],[112.1264,49.4399],[112.2135,48.9494],[112.5542,48.4165],[112.5386,48.0768],[112.6883,47.8102],[112.6868,47.5986],[113.0031,47.6638],[113.8035,47.5112],[114.4787,47.1464],[114.4683,46.823],[114.912,46.492],[115.1705,46.5694],[116.2444,46.6211],[116.582,46.298],[117.3017,46.3501],[117.3938,46.5714],[117.6962,46.5123],[118.2383,46.7154],[118.8162,46.7582],[119.6801,46.5916],[119.9042,46.7089],[119.7,47.1595],[119.2819,47.4149],[119.0835,47.6616],[118.5423,47.9662],[117.7417,47.9776],[117.3608,47.6509],[116.8533,47.8721],[116.2439,47.8629],[115.8527,47.7056],[115.5145,48.1221],[115.8093,48.274],[115.8004,48.5304],[116.6843,49.8233]]]}},{"type":"Feature","id":"label-MNG-3332","properties":{"kind":"division-label","code":"MNG-3332","countryCode":"MNG","name":"Dornod","localName":"Dornod","labelEnglish":"Dornod","labelLocal":"Dornod","labelBoth":"Dornod","type":"Province","iso":"MN-061","qid":"Q207795"},"geometry":{"type":"Point","coordinates":[114.261,48.7766]}},{"type":"Feature","id":"MNG-3208","properties":{"kind":"division","code":"MNG-3208","countryCode":"MNG","name":"Bayan-Ölgii","localName":"Bayan-Ölgii","labelEnglish":"Bayan-Ölgii","labelLocal":"Bayan-Ölgii","labelBoth":"Bayan-Ölgii","type":"Province","iso":"MN-071","qid":"Q191792"},"geometry":{"type":"Polygon","coordinates":[[[87.8163,49.1658],[87.8059,48.8006],[87.9428,48.5995],[88.5651,48.343],[88.5808,48.212],[89.0456,47.993],[89.5418,48.031],[89.7513,47.8243],[90.0446,47.8798],[90.3448,47.6586],[90.4687,47.3089],[91.0143,46.6898],[91.8399,46.623],[91.4401,46.9478],[91.4688,47.1779],[90.9641,48.032],[90.6896,48.5947],[91.347,48.7009],[90.8924,49.3018],[90.3004,49.5757],[89.9971,50.0037],[89.6332,49.9079],[89.6823,49.7083],[88.8706,49.436],[88.1748,49.4439],[88.144,49.2707],[87.8163,49.1658]]]}},{"type":"Feature","id":"label-MNG-3208","properties":{"kind":"division-label","code":"MNG-3208","countryCode":"MNG","name":"Bayan-Ölgii","localName":"Bayan-Ölgii","labelEnglish":"Bayan-Ölgii","labelLocal":"Bayan-Ölgii","labelBoth":"Bayan-Ölgii","type":"Province","iso":"MN-071","qid":"Q191792"},"geometry":{"type":"Point","coordinates":[89.8127,48.8811]}},{"type":"Feature","id":"MNG-3320","properties":{"kind":"division","code":"MNG-3320","countryCode":"MNG","name":"Khovd","localName":"Khovd","labelEnglish":"Khovd","labelLocal":"Khovd","labelBoth":"Khovd","type":"Province","iso":"MN-043","qid":"Q194098"},"geometry":{"type":"Polygon","coordinates":[[[91.0143,46.6898],[90.8962,46.302],[91.0024,46.0218],[90.7108,45.7522],[90.6511,45.4931],[90.8732,45.1862],[91.663,45.0595],[93.0759,45.0052],[93.1101,45.6678],[93.4093,45.9238],[93.7832,46.5856],[94.266,46.8649],[94.0337,47.2427],[93.488,47.631],[93.1908,48.0885],[93.4564,48.3976],[93.1912,48.6167],[92.7676,48.5601],[92.2939,48.6356],[91.7401,48.9626],[91.347,48.7009],[90.6896,48.5947],[90.9641,48.032],[91.4688,47.1779],[91.4401,46.9478],[91.8399,46.623],[91.0143,46.6898]]]}},{"type":"Feature","id":"label-MNG-3320","properties":{"kind":"division-label","code":"MNG-3320","countryCode":"MNG","name":"Khovd","localName":"Khovd","labelEnglish":"Khovd","labelLocal":"Khovd","labelBoth":"Khovd","type":"Province","iso":"MN-043","qid":"Q194098"},"geometry":{"type":"Point","coordinates":[92.4584,46.8037]}},{"type":"Feature","id":"MNG-3333","properties":{"kind":"division","code":"MNG-3333","countryCode":"MNG","name":"Sükhbaatar","localName":"Sükhbaatar","labelEnglish":"Sükhbaatar","labelLocal":"Sükhbaatar","labelBoth":"Sükhbaatar","type":"Province","iso":"MN-051","qid":"Q244804"},"geometry":{"type":"Polygon","coordinates":[[[116.582,46.298],[116.2444,46.6211],[115.1705,46.5694],[114.912,46.492],[114.4683,46.823],[114.4787,47.1464],[113.8035,47.5112],[113.0031,47.6638],[112.6868,47.5986],[112.6883,47.8102],[112.2105,47.7023],[112.0905,47.3821],[111.6915,47.3507],[111.2632,46.5612],[111.231,46.23],[111.6009,46.112],[111.771,45.8045],[111.7543,45.5082],[111.9846,45.0872],[112.4413,45.0524],[112.6142,44.9088],[113.6351,44.7463],[114.0553,44.9406],[114.5337,45.3855],[115.6378,45.4444],[116.1699,45.7091],[116.2132,45.9082],[116.582,46.298]]]}},{"type":"Feature","id":"label-MNG-3333","properties":{"kind":"division-label","code":"MNG-3333","countryCode":"MNG","name":"Sükhbaatar","localName":"Sükhbaatar","labelEnglish":"Sükhbaatar","labelLocal":"Sükhbaatar","labelBoth":"Sükhbaatar","type":"Province","iso":"MN-051","qid":"Q244804"},"geometry":{"type":"Point","coordinates":[113.904,46.1847]}},{"type":"Feature","id":"MNG-3297","properties":{"kind":"division","code":"MNG-3297","countryCode":"MNG","name":"Dornogovi","localName":"Dornogovi","labelEnglish":"Dornogovi","labelLocal":"Dornogovi","labelBoth":"Dornogovi","type":"Province","iso":"MN-063","qid":"Q213272"},"geometry":{"type":"Polygon","coordinates":[[[111.9846,45.0872],[111.7543,45.5082],[111.771,45.8045],[111.6009,46.112],[111.231,46.23],[110.9721,46.0741],[110.5524,46.2405],[110.1545,46.6333],[109.9897,46.3106],[109.3919,46.1786],[109.0016,46.5152],[109.1191,46.7731],[108.8281,47.0118],[108.4799,46.7803],[107.9567,46.7744],[108.2908,46.3823],[108.2924,46.0373],[108.5924,45.9326],[108.5077,45.6373],[108.6137,45.0222],[108.3076,44.8513],[107.8776,44.814],[107.7081,44.5113],[107.6787,44.2976],[107.9767,43.7074],[108.0529,43.0763],[108.0497,42.4391],[108.7969,42.3984],[109.4851,42.4493],[110.4067,42.7686],[110.9337,43.2878],[111.9334,43.6966],[111.8388,43.9388],[111.3964,44.3466],[111.7385,44.9663],[111.9846,45.0872]]]}},{"type":"Feature","id":"label-MNG-3297","properties":{"kind":"division-label","code":"MNG-3297","countryCode":"MNG","name":"Dornogovi","localName":"Dornogovi","labelEnglish":"Dornogovi","labelLocal":"Dornogovi","labelBoth":"Dornogovi","type":"Province","iso":"MN-063","qid":"Q213272"},"geometry":{"type":"Point","coordinates":[109.825,44.4088]}},{"type":"Feature","id":"MNG-3319","properties":{"kind":"division","code":"MNG-3319","countryCode":"MNG","name":"Govi-Altai","localName":"Govi-Altai","labelEnglish":"Govi-Altai","labelLocal":"Govi-Altai","labelBoth":"Govi-Altai","type":"Province","iso":"MN-065","qid":"Q192945"},"geometry":{"type":"Polygon","coordinates":[[[93.0759,45.0052],[93.5253,44.9513],[93.9274,44.6729],[95.0368,44.255],[95.3794,44.2871],[95.3275,44.0067],[95.5103,43.9791],[95.9085,43.2145],[96.2943,42.9333],[96.3663,42.7229],[97.1907,42.7871],[97.85,42.723],[97.7977,43.2476],[97.932,43.5687],[97.9642,44.407],[98.178,44.5106],[98.2488,44.9882],[98.4792,45.4513],[98.3774,45.8359],[97.707,46.3146],[97.6387,46.605],[96.9866,46.6098],[96.8347,46.8931],[96.4199,46.8855],[96.1945,47.2432],[95.4704,47.5735],[94.082,47.7742],[93.488,47.631],[94.0337,47.2427],[94.266,46.8649],[93.7832,46.5856],[93.4093,45.9238],[93.1101,45.6678],[93.0759,45.0052]]]}},{"type":"Feature","id":"label-MNG-3319","properties":{"kind":"division-label","code":"MNG-3319","countryCode":"MNG","name":"Govi-Altai","localName":"Govi-Altai","labelEnglish":"Govi-Altai","labelLocal":"Govi-Altai","labelBoth":"Govi-Altai","type":"Province","iso":"MN-065","qid":"Q192945"},"geometry":{"type":"Point","coordinates":[95.7776,45.4627]}},{"type":"Feature","id":"MNG-3317","properties":{"kind":"division","code":"MNG-3317","countryCode":"MNG","name":"Bayankhongor","localName":"Bayankhongor","labelEnglish":"Bayankhongor","labelLocal":"Bayankhongor","labelBoth":"Bayankhongor","type":"Province","iso":"MN-069","qid":"Q276200"},"geometry":{"type":"Polygon","coordinates":[[[97.85,42.723],[99.4745,42.5642],[99.6219,42.5974],[99.5184,43.2011],[99.4872,44.1139],[99.788,44.1713],[100.2581,43.8343],[101.1862,43.821],[101.7548,44.0566],[101.5041,44.7262],[101.568,44.852],[101.1851,45.0274],[101.1102,45.4121],[101.4744,46.1217],[101.5192,46.596],[101.2636,46.8182],[100.7127,46.841],[100.3494,47.183],[99.9093,47.0957],[99.6528,47.6636],[99.2472,47.4889],[98.8112,47.5628],[98.7546,47.704],[98.391,47.6504],[98.1539,47.2388],[97.8752,47.1946],[97.6387,46.605],[97.707,46.3146],[98.3774,45.8359],[98.4792,45.4513],[98.2488,44.9882],[98.178,44.5106],[97.9642,44.407],[97.932,43.5687],[97.7977,43.2476],[97.85,42.723]]]}},{"type":"Feature","id":"label-MNG-3317","properties":{"kind":"division-label","code":"MNG-3317","countryCode":"MNG","name":"Bayankhongor","localName":"Bayankhongor","labelEnglish":"Bayankhongor","labelLocal":"Bayankhongor","labelBoth":"Bayankhongor","type":"Province","iso":"MN-069","qid":"Q276200"},"geometry":{"type":"Point","coordinates":[99.6955,45.8317]}},{"type":"Feature","id":"MNG-3298","properties":{"kind":"division","code":"MNG-3298","countryCode":"MNG","name":"Ömnögovi","localName":"Ömnögovi","labelEnglish":"Ömnögovi","labelLocal":"Ömnögovi","labelBoth":"Ömnögovi","type":"Province","iso":"MN-053","qid":"Q235579"},"geometry":{"type":"Polygon","coordinates":[[[99.6219,42.5974],[100.017,42.6765],[101.2187,42.5298],[101.6376,42.5154],[102.0342,42.1846],[103.0735,42.0045],[103.721,41.7556],[104.5008,41.8706],[104.498,41.6658],[105.0148,41.5961],[105.8686,41.9935],[106.7678,42.2866],[108.0497,42.4391],[108.0529,43.0763],[107.9767,43.7074],[107.6787,44.2976],[107.7081,44.5113],[107.2798,44.4956],[106.4287,44.2432],[106.0272,44.1972],[105.763,44.3062],[105.4971,44.6908],[104.2026,44.8303],[104.1008,45.1839],[103.7717,45.1884],[103.2593,44.8417],[102.9312,44.3197],[102.9998,44.1541],[102.1239,44.1481],[101.7548,44.0566],[101.1862,43.821],[100.2581,43.8343],[99.788,44.1713],[99.4872,44.1139],[99.5184,43.2011],[99.6219,42.5974]]]}},{"type":"Feature","id":"label-MNG-3298","properties":{"kind":"division-label","code":"MNG-3298","countryCode":"MNG","name":"Ömnögovi","localName":"Ömnögovi","labelEnglish":"Ömnögovi","labelLocal":"Ömnögovi","labelBoth":"Ömnögovi","type":"Province","iso":"MN-053","qid":"Q235579"},"geometry":{"type":"Point","coordinates":[103.762,43.4636]}},{"type":"Feature","id":"MNG-3321","properties":{"kind":"division","code":"MNG-3321","countryCode":"MNG","name":"Khövsgöl","localName":"Khövsgöl","labelEnglish":"Khövsgöl","labelLocal":"Khövsgöl","labelBoth":"Khövsgöl","type":"Province","iso":"MN-041","qid":"Q244788"},"geometry":{"type":"Polygon","coordinates":[[[98.9377,52.1247],[98.6187,51.7807],[98.0509,51.4664],[97.8064,51.0011],[98.0233,50.642],[98.2935,50.5186],[98.1056,50.0639],[97.3017,49.7255],[97.0853,49.8058],[96.8727,49.3996],[97.1077,49.2484],[97.5324,49.2024],[97.8945,49.0379],[98.5203,48.9841],[99.0536,49.1558],[99.1547,48.8552],[99.0179,48.6352],[99.0966,48.338],[99.6961,48.3267],[99.7406,48.4663],[100.1884,48.4121],[100.4564,48.5585],[100.3297,48.6825],[100.432,49.0114],[100.7388,49.2181],[101.3406,48.9761],[101.654,48.9997],[101.6772,49.1928],[102.7848,49.6915],[102.1377,49.9047],[102.6195,50.399],[102.3276,50.5455],[102.1465,51.0976],[102.1839,51.3239],[101.3878,51.4506],[100.5109,51.7269],[100.006,51.7317],[98.9377,52.1247]]]}},{"type":"Feature","id":"label-MNG-3321","properties":{"kind":"division-label","code":"MNG-3321","countryCode":"MNG","name":"Khövsgöl","localName":"Khövsgöl","labelEnglish":"Khövsgöl","labelLocal":"Khövsgöl","labelBoth":"Khövsgöl","type":"Province","iso":"MN-041","qid":"Q244788"},"geometry":{"type":"Point","coordinates":[99.8205,50.1456]}},{"type":"Feature","id":"MNG-3323","properties":{"kind":"division","code":"MNG-3323","countryCode":"MNG","name":"Bulgan","localName":"Bulgan","labelEnglish":"Bulgan","labelLocal":"Bulgan","labelBoth":"Bulgan","type":"Province","iso":"MN-067","qid":"Q209774"},"geometry":{"type":"Polygon","coordinates":[[[102.6195,50.399],[102.1377,49.9047],[102.7848,49.6915],[101.6772,49.1928],[101.654,48.9997],[102.1312,48.8105],[102.2382,48.4813],[102.6322,48.2514],[102.8423,47.9295],[103.6777,47.2506],[104.1475,47.298],[104.0686,47.4683],[104.7605,47.6617],[104.7038,47.9449],[104.2883,48.1438],[104.5339,48.4192],[104.5282,48.6258],[104.3781,48.8991],[104.0007,48.9868],[104.103,49.1212],[104.5195,49.1055],[104.7335,49.686],[104.6167,50.0092],[104.3495,50.2719],[103.6681,50.1312],[102.6195,50.399]]]}},{"type":"Feature","id":"label-MNG-3323","properties":{"kind":"division-label","code":"MNG-3323","countryCode":"MNG","name":"Bulgan","localName":"Bulgan","labelEnglish":"Bulgan","labelLocal":"Bulgan","labelBoth":"Bulgan","type":"Province","iso":"MN-067","qid":"Q209774"},"geometry":{"type":"Point","coordinates":[103.196,49.0014]}},{"type":"Feature","id":"MNG-3322","properties":{"kind":"division","code":"MNG-3322","countryCode":"MNG","name":"Uvs","localName":"Uvs","labelEnglish":"Uvs","labelLocal":"Uvs","labelBoth":"Uvs","type":"Province","iso":"MN-046","qid":"Q192942"},"geometry":{"type":"Polygon","coordinates":[[[95.4772,49.8941],[94.9216,50.0459],[94.6245,50.0152],[94.3443,50.2492],[94.2376,50.5652],[93.0114,50.6233],[92.3017,50.8434],[92.1589,50.6891],[91.7498,50.6841],[91.4157,50.4614],[91.012,50.4253],[90.0512,50.0842],[89.9971,50.0037],[90.3004,49.5757],[90.8924,49.3018],[91.347,48.7009],[91.7401,48.9626],[92.2939,48.6356],[92.7676,48.5601],[93.1912,48.6167],[93.4564,48.3976],[93.7154,48.6576],[94.1303,48.803],[94.7935,48.6867],[95.5217,48.8585],[95.686,49.3078],[95.4502,49.6627],[95.4772,49.8941]]]}},{"type":"Feature","id":"label-MNG-3322","properties":{"kind":"division-label","code":"MNG-3322","countryCode":"MNG","name":"Uvs","localName":"Uvs","labelEnglish":"Uvs","labelLocal":"Uvs","labelBoth":"Uvs","type":"Province","iso":"MN-046","qid":"Q192942"},"geometry":{"type":"Point","coordinates":[92.8431,49.6911]}},{"type":"Feature","id":"MNG-3326","properties":{"kind":"division","code":"MNG-3326","countryCode":"MNG","name":"Selenge","localName":"Selenge","labelEnglish":"Selenge","labelLocal":"Selenge","labelBoth":"Selenge","type":"Province","iso":"MN-049","qid":"Q234680"},"geometry":{"type":"Polygon","coordinates":[[[107.7446,49.9674],[107.2249,49.9971],[106.6565,50.327],[106.2449,50.2903],[105.3286,50.4765],[104.3495,50.2719],[104.6167,50.0092],[104.7335,49.686],[104.5195,49.1055],[104.3781,48.8991],[104.5282,48.6258],[105.014,48.5052],[105.4948,48.6444],[105.8345,48.8651],[106.5724,48.5305],[107.6375,48.6343],[107.5317,48.9758],[108.5215,49.1238],[108.57,49.3257],[107.9395,49.6632],[107.9465,49.9335],[107.7446,49.9674]],[[106.3657,49.5242],[106.7997,49.4705],[106.7989,49.1317],[106.3568,49.186],[105.8084,49.1312],[105.8331,49.6356],[106.3657,49.5242]]]}},{"type":"Feature","id":"label-MNG-3326","properties":{"kind":"division-label","code":"MNG-3326","countryCode":"MNG","name":"Selenge","localName":"Selenge","labelEnglish":"Selenge","labelLocal":"Selenge","labelBoth":"Selenge","type":"Province","iso":"MN-049","qid":"Q234680"},"geometry":{"type":"Point","coordinates":[106.46,48.8536]}},{"type":"Feature","id":"MNG-3318","properties":{"kind":"division","code":"MNG-3318","countryCode":"MNG","name":"Zavkhan","localName":"Zavkhan","labelEnglish":"Zavkhan","labelLocal":"Zavkhan","labelBoth":"Zavkhan","type":"Province","iso":"MN-057","qid":"Q167764"},"geometry":{"type":"Polygon","coordinates":[[[97.0853,49.8058],[96.3729,49.8861],[95.867,50.015],[95.4772,49.8941],[95.4502,49.6627],[95.686,49.3078],[95.5217,48.8585],[94.7935,48.6867],[94.1303,48.803],[93.7154,48.6576],[93.4564,48.3976],[93.1908,48.0885],[93.488,47.631],[94.082,47.7742],[95.4704,47.5735],[96.1945,47.2432],[96.4199,46.8855],[96.8347,46.8931],[96.9866,46.6098],[97.6387,46.605],[97.8752,47.1946],[98.1539,47.2388],[98.391,47.6504],[98.1848,47.6807],[98.2196,48.0828],[98.4835,48.101],[99.0966,48.338],[99.0179,48.6352],[99.1547,48.8552],[99.0536,49.1558],[98.5203,48.9841],[97.8945,49.0379],[97.5324,49.2024],[97.1077,49.2484],[96.8727,49.3996],[97.0853,49.8058]]]}},{"type":"Feature","id":"label-MNG-3318","properties":{"kind":"division-label","code":"MNG-3318","countryCode":"MNG","name":"Zavkhan","localName":"Zavkhan","labelEnglish":"Zavkhan","labelLocal":"Zavkhan","labelBoth":"Zavkhan","type":"Province","iso":"MN-057","qid":"Q167764"},"geometry":{"type":"Point","coordinates":[96.1728,48.615]}},{"type":"Feature","id":"MNG-3315","properties":{"kind":"division","code":"MNG-3315","countryCode":"MNG","name":"Khentii","localName":"Khentii","labelEnglish":"Khentii","labelLocal":"Khentii","labelBoth":"Khentii","type":"Province","iso":"MN-039","qid":"Q239040"},"geometry":{"type":"Polygon","coordinates":[[[108.57,49.3257],[108.5215,49.1238],[108.8549,48.8165],[109.0361,48.3466],[108.8746,48.0713],[108.4849,47.9136],[108.4288,47.5563],[108.8281,47.0118],[109.1191,46.7731],[109.0016,46.5152],[109.3919,46.1786],[109.9897,46.3106],[110.1545,46.6333],[110.5524,46.2405],[110.9721,46.0741],[111.231,46.23],[111.2632,46.5612],[111.6915,47.3507],[112.0905,47.3821],[112.2105,47.7023],[112.6883,47.8102],[112.5386,48.0768],[112.5542,48.4165],[112.2135,48.9494],[112.1264,49.4399],[111.3385,49.3647],[110.7314,49.1377],[110.1814,49.162],[109.1606,49.3467],[108.57,49.3257]]]}},{"type":"Feature","id":"label-MNG-3315","properties":{"kind":"division-label","code":"MNG-3315","countryCode":"MNG","name":"Khentii","localName":"Khentii","labelEnglish":"Khentii","labelLocal":"Khentii","labelBoth":"Khentii","type":"Province","iso":"MN-039","qid":"Q239040"},"geometry":{"type":"Point","coordinates":[110.542,47.7116]}},{"type":"Feature","id":"MNG-3328","properties":{"kind":"division","code":"MNG-3328","countryCode":"MNG","name":"Darkhan-Uul","localName":"Darkhan-Uul","labelEnglish":"Darkhan-Uul","labelLocal":"Darkhan-Uul","labelBoth":"Darkhan-Uul","type":"Municipality","iso":"MN-037","qid":"Q18827"},"geometry":{"type":"Polygon","coordinates":[[[106.3657,49.5242],[105.8331,49.6356],[105.8084,49.1312],[106.3568,49.186],[106.7989,49.1317],[106.7997,49.4705],[106.3657,49.5242]]]}},{"type":"Feature","id":"label-MNG-3328","properties":{"kind":"division-label","code":"MNG-3328","countryCode":"MNG","name":"Darkhan-Uul","localName":"Darkhan-Uul","labelEnglish":"Darkhan-Uul","labelLocal":"Darkhan-Uul","labelBoth":"Darkhan-Uul","type":"Municipality","iso":"MN-037","qid":"Q18827"},"geometry":{"type":"Point","coordinates":[106.306,49.3586]}},{"type":"Feature","id":"MNG-3329","properties":{"kind":"division","code":"MNG-3329","countryCode":"MNG","name":"Töv","localName":"Töv","labelEnglish":"Töv","labelLocal":"Töv","labelBoth":"Töv","type":"Province","iso":"MN-047","qid":"Q276195"},"geometry":{"type":"Polygon","coordinates":[[[108.4288,47.5563],[108.2019,47.7505],[108.4849,47.9136],[108.8746,48.0713],[109.0361,48.3466],[108.8549,48.8165],[108.5215,49.1238],[107.5317,48.9758],[107.6375,48.6343],[106.5724,48.5305],[105.8345,48.8651],[105.4948,48.6444],[105.014,48.5052],[104.5282,48.6258],[104.5339,48.4192],[104.2883,48.1438],[104.7038,47.9449],[104.7605,47.6617],[104.0686,47.4683],[104.1475,47.298],[104.3285,47.0407],[104.2344,46.8524],[104.6039,46.4205],[104.9668,46.5904],[105.3967,46.4389],[105.7655,46.7322],[106.1639,46.5746],[106.6995,46.5724],[107.1015,46.4035],[107.5176,46.4547],[107.9567,46.7744],[108.4799,46.7803],[108.8281,47.0118],[108.4288,47.5563]],[[106.8818,48.1719],[107.0993,48.2188],[107.5722,47.9136],[107.5108,47.6518],[106.5221,47.7455],[106.3567,48.2563],[106.8818,48.1719]]]}},{"type":"Feature","id":"label-MNG-3329","properties":{"kind":"division-label","code":"MNG-3329","countryCode":"MNG","name":"Töv","localName":"Töv","labelEnglish":"Töv","labelLocal":"Töv","labelBoth":"Töv","type":"Province","iso":"MN-047","qid":"Q276195"},"geometry":{"type":"Point","coordinates":[106.554,47.1533]}},{"type":"Feature","id":"MNG-3316","properties":{"kind":"division","code":"MNG-3316","countryCode":"MNG","name":"Arkhangai","localName":"Arkhangai","labelEnglish":"Arkhangai","labelLocal":"Arkhangai","labelBoth":"Arkhangai","type":"Province","iso":"MN-073","qid":"Q207809"},"geometry":{"type":"Polygon","coordinates":[[[101.654,48.9997],[101.3406,48.9761],[100.7388,49.2181],[100.432,49.0114],[100.3297,48.6825],[100.4564,48.5585],[100.1884,48.4121],[99.7406,48.4663],[99.6961,48.3267],[99.0966,48.338],[98.4835,48.101],[98.2196,48.0828],[98.1848,47.6807],[98.391,47.6504],[98.7546,47.704],[98.8112,47.5628],[99.2472,47.4889],[99.6528,47.6636],[99.9093,47.0957],[100.3494,47.183],[100.7127,46.841],[101.2636,46.8182],[102.3221,47.0495],[102.4589,46.9581],[102.7311,47.2867],[102.6564,47.4321],[103.193,47.2061],[103.6777,47.2506],[102.8423,47.9295],[102.6322,48.2514],[102.2382,48.4813],[102.1312,48.8105],[101.654,48.9997]]]}},{"type":"Feature","id":"label-MNG-3316","properties":{"kind":"division-label","code":"MNG-3316","countryCode":"MNG","name":"Arkhangai","localName":"Arkhangai","labelEnglish":"Arkhangai","labelLocal":"Arkhangai","labelBoth":"Arkhangai","type":"Province","iso":"MN-073","qid":"Q207809"},"geometry":{"type":"Point","coordinates":[100.92,48.0061]}},{"type":"Feature","id":"MNG-3324","properties":{"kind":"division","code":"MNG-3324","countryCode":"MNG","name":"Orkhon","localName":"Orkhon","labelEnglish":"Orkhon","labelLocal":"Orkhon","labelBoth":"Orkhon","type":"Municipality","iso":"MN-035","qid":"Q234710"},"geometry":{"type":"Polygon","coordinates":[[[104.5195,49.1055],[104.103,49.1212],[104.0007,48.9868],[104.3781,48.8991],[104.5195,49.1055]]]}},{"type":"Feature","id":"label-MNG-3324","properties":{"kind":"division-label","code":"MNG-3324","countryCode":"MNG","name":"Orkhon","localName":"Orkhon","labelEnglish":"Orkhon","labelLocal":"Orkhon","labelBoth":"Orkhon","type":"Municipality","iso":"MN-035","qid":"Q234710"},"geometry":{"type":"Point","coordinates":[104.286,49.0077]}},{"type":"Feature","id":"MNG-3325","properties":{"kind":"division","code":"MNG-3325","countryCode":"MNG","name":"Dundgovi","localName":"Dundgovi","labelEnglish":"Dundgovi","labelLocal":"Dundgovi","labelBoth":"Dundgovi","type":"Province","iso":"MN-059","qid":"Q211835"},"geometry":{"type":"Polygon","coordinates":[[[107.9567,46.7744],[107.5176,46.4547],[107.1015,46.4035],[106.6995,46.5724],[106.1639,46.5746],[105.7655,46.7322],[105.3967,46.4389],[104.9668,46.5904],[104.6039,46.4205],[104.4197,46.1606],[104.1654,46.1012],[104.0592,45.7438],[103.7687,45.7181],[103.6202,45.5185],[103.7717,45.1884],[104.1008,45.1839],[104.2026,44.8303],[105.4971,44.6908],[105.763,44.3062],[106.0272,44.1972],[106.4287,44.2432],[107.2798,44.4956],[107.7081,44.5113],[107.8776,44.814],[108.3076,44.8513],[108.6137,45.0222],[108.5077,45.6373],[108.5924,45.9326],[108.2924,46.0373],[108.2908,46.3823],[107.9567,46.7744]]]}},{"type":"Feature","id":"label-MNG-3325","properties":{"kind":"division-label","code":"MNG-3325","countryCode":"MNG","name":"Dundgovi","localName":"Dundgovi","labelEnglish":"Dundgovi","labelLocal":"Dundgovi","labelBoth":"Dundgovi","type":"Province","iso":"MN-059","qid":"Q211835"},"geometry":{"type":"Point","coordinates":[106.116,45.4132]}},{"type":"Feature","id":"MNG-3327","properties":{"kind":"division","code":"MNG-3327","countryCode":"MNG","name":"Övörkhangai","localName":"Övörkhangai","labelEnglish":"Övörkhangai","labelLocal":"Övörkhangai","labelBoth":"Övörkhangai","type":"Province","iso":"MN-055","qid":"Q234713"},"geometry":{"type":"Polygon","coordinates":[[[104.1475,47.298],[103.6777,47.2506],[103.193,47.2061],[102.6564,47.4321],[102.7311,47.2867],[102.4589,46.9581],[102.3221,47.0495],[101.2636,46.8182],[101.5192,46.596],[101.4744,46.1217],[101.1102,45.4121],[101.1851,45.0274],[101.568,44.852],[101.5041,44.7262],[101.7548,44.0566],[102.1239,44.1481],[102.9998,44.1541],[102.9312,44.3197],[103.2593,44.8417],[103.7717,45.1884],[103.6202,45.5185],[103.7687,45.7181],[104.0592,45.7438],[104.1654,46.1012],[104.4197,46.1606],[104.6039,46.4205],[104.2344,46.8524],[104.3285,47.0407],[104.1475,47.298]]]}},{"type":"Feature","id":"label-MNG-3327","properties":{"kind":"division-label","code":"MNG-3327","countryCode":"MNG","name":"Övörkhangai","localName":"Övörkhangai","labelEnglish":"Övörkhangai","labelLocal":"Övörkhangai","labelBoth":"Övörkhangai","type":"Province","iso":"MN-055","qid":"Q234713"},"geometry":{"type":"Point","coordinates":[102.857,45.7785]}},{"type":"Feature","id":"MNG-3330","properties":{"kind":"division","code":"MNG-3330","countryCode":"MNG","name":"Govisümber","localName":"Govisümber","labelEnglish":"Govisümber","labelLocal":"Govisümber","labelBoth":"Govisümber","type":"Municipality","iso":"MN-064","qid":"Q236333"},"geometry":{"type":"Polygon","coordinates":[[[108.4849,47.9136],[108.2019,47.7505],[108.4288,47.5563],[108.4849,47.9136]]]}},{"type":"Feature","id":"label-MNG-3330","properties":{"kind":"division-label","code":"MNG-3330","countryCode":"MNG","name":"Govisümber","localName":"Govisümber","labelEnglish":"Govisümber","labelLocal":"Govisümber","labelBoth":"Govisümber","type":"Municipality","iso":"MN-064","qid":"Q236333"},"geometry":{"type":"Point","coordinates":[108.346,47.74]}},{"type":"Feature","id":"MNG-3331","properties":{"kind":"division","code":"MNG-3331","countryCode":"MNG","name":"Ulaanbaatar","localName":"Ulaanbaatar","labelEnglish":"Ulaanbaatar","labelLocal":"Ulaanbaatar","labelBoth":"Ulaanbaatar","type":"Municipality","iso":"MN-1","qid":"Q23430"},"geometry":{"type":"Polygon","coordinates":[[[106.8818,48.1719],[106.3567,48.2563],[106.5221,47.7455],[107.5108,47.6518],[107.5722,47.9136],[107.0993,48.2188],[106.8818,48.1719]]]}},{"type":"Feature","id":"label-MNG-3331","properties":{"kind":"division-label","code":"MNG-3331","countryCode":"MNG","name":"Ulaanbaatar","localName":"Ulaanbaatar","labelEnglish":"Ulaanbaatar","labelLocal":"Ulaanbaatar","labelBoth":"Ulaanbaatar","type":"Municipality","iso":"MN-1","qid":"Q23430"},"geometry":{"type":"Point","coordinates":[106.967,47.9597]}}]}