{"type":"FeatureCollection","features":[{"type":"Feature","id":"MNP-4937","properties":{"kind":"division","code":"MNP-4937","countryCode":"MNP","name":"Rota","localName":"Rota","labelEnglish":"Rota","labelLocal":"Rota","labelBoth":"Rota","type":null,"iso":"MP-X01~","qid":null},"geometry":{"type":"Polygon","coordinates":[[[145.2057,14.1814],[145.1262,14.1232],[145.21,14.1107],[145.2057,14.1814]]]}},{"type":"Feature","id":"label-MNP-4937","properties":{"kind":"division-label","code":"MNP-4937","countryCode":"MNP","name":"Rota","localName":"Rota","labelEnglish":"Rota","labelLocal":"Rota","labelBoth":"Rota","type":null,"iso":"MP-X01~","qid":null},"geometry":{"type":"Point","coordinates":[145.205,14.1465]}},{"type":"Feature","id":"MNP-4938","properties":{"kind":"division","code":"MNP-4938","countryCode":"MNP","name":"Tinian","localName":"Tinian","labelEnglish":"Tinian","labelLocal":"Tinian","labelBoth":"Tinian","type":null,"iso":"MP-X02~","qid":null},"geometry":{"type":"Polygon","coordinates":[[[145.6473,15.0721],[145.5785,15.0175],[145.6065,14.9281],[145.6473,15.0721]]]}},{"type":"Feature","id":"label-MNP-4938","properties":{"kind":"division-label","code":"MNP-4938","countryCode":"MNP","name":"Tinian","localName":"Tinian","labelEnglish":"Tinian","labelLocal":"Tinian","labelBoth":"Tinian","type":null,"iso":"MP-X02~","qid":null},"geometry":{"type":"Point","coordinates":[145.622,14.9995]}},{"type":"Feature","id":"MNP-4939","properties":{"kind":"division","code":"MNP-4939","countryCode":"MNP","name":"Saipan","localName":"Saipan","labelEnglish":"Saipan","labelLocal":"Saipan","labelBoth":"Saipan","type":null,"iso":"MP-X03~","qid":null},"geometry":{"type":"Polygon","coordinates":[[[145.7879,15.2673],[145.6983,15.2032],[145.7526,15.096],[145.7879,15.2673]]]}},{"type":"Feature","id":"label-MNP-4939","properties":{"kind":"division-label","code":"MNP-4939","countryCode":"MNP","name":"Saipan","localName":"Saipan","labelEnglish":"Saipan","labelLocal":"Saipan","labelBoth":"Saipan","type":null,"iso":"MP-X03~","qid":null},"geometry":{"type":"Point","coordinates":[145.744,15.1921]}},{"type":"Feature","id":"MNP-4940","properties":{"kind":"division","code":"MNP-4940","countryCode":"MNP","name":"Northern Mariana Islands","localName":"Northern Mariana Islands","labelEnglish":"Northern Mariana Islands","labelLocal":"Northern Mariana Islands","labelBoth":"Northern Mariana Islands","type":null,"iso":"MP-X04~","qid":"Q16644"},"geometry":{"type":"Polygon","coordinates":[[[145.7711,18.1752],[145.7195,18.0542],[145.8356,18.1283],[145.7711,18.1752]]]}},{"type":"Feature","id":"label-MNP-4940","properties":{"kind":"division-label","code":"MNP-4940","countryCode":"MNP","name":"Northern Mariana Islands","localName":"Northern Mariana Islands","labelEnglish":"Northern Mariana Islands","labelLocal":"Northern Mariana Islands","labelBoth":"Northern Mariana Islands","type":null,"iso":"MP-X04~","qid":"Q16644"},"geometry":{"type":"Point","coordinates":[145.674,16.3573]}}]}