{"type":"FeatureCollection","features":[{"type":"Feature","id":"MOZ-1927","properties":{"kind":"division","code":"MOZ-1927","countryCode":"MOZ","name":"Maputo","localName":"Maputo","labelEnglish":"Maputo","labelLocal":"Maputo","labelBoth":"Maputo","type":"Province","iso":"MZ-L","qid":"Q379658"},"geometry":{"type":"Polygon","coordinates":[[[32.1139,-26.84],[32.8931,-26.8461],[32.9544,-26.0789],[32.8425,-26.2887],[32.5166,-25.95],[32.5527,-25.8658],[32.6588,-25.9106],[32.8727,-25.5439],[33.132,-25.3792],[32.927,-25.0374],[32.9383,-24.7938],[32.7055,-24.405],[32.0672,-24.2116],[31.9263,-24.2767],[31.9866,-24.4231],[31.9916,-25.6502],[31.9492,-25.9581],[32.1139,-26.84]]]}},{"type":"Feature","id":"label-MOZ-1927","properties":{"kind":"division-label","code":"MOZ-1927","countryCode":"MOZ","name":"Maputo","localName":"Maputo","labelEnglish":"Maputo","labelLocal":"Maputo","labelBoth":"Maputo","type":"Province","iso":"MZ-L","qid":"Q379658"},"geometry":{"type":"Point","coordinates":[32.3209,-25.5571]}},{"type":"Feature","id":"MOZ-1198","properties":{"kind":"division","code":"MOZ-1198","countryCode":"MOZ","name":"Cabo Delgado","localName":"Cabo Delgado","labelEnglish":"Cabo Delgado","labelLocal":"Cabo Delgado","labelBoth":"Cabo Delgado","type":"Province","iso":"MZ-P","qid":"Q466538"},"geometry":{"type":"Polygon","coordinates":[[[40.4369,-10.4748],[40.0081,-10.8111],[39.4827,-10.9992],[39.2866,-11.1541],[38.8963,-11.1677],[38.4923,-11.4135],[38.4269,-11.9371],[38.0318,-12.4919],[37.987,-13.0864],[38.2062,-13.1124],[38.043,-13.4198],[38.4204,-14.1269],[38.7073,-14.1439],[39.8488,-13.675],[40.1284,-13.4481],[40.527,-13.5106],[40.5892,-12.9579],[40.4922,-12.2501],[40.5369,-11.9968],[40.4295,-11.6415],[40.6203,-10.8409],[40.4369,-10.4748]]]}},{"type":"Feature","id":"label-MOZ-1198","properties":{"kind":"division-label","code":"MOZ-1198","countryCode":"MOZ","name":"Cabo Delgado","localName":"Cabo Delgado","labelEnglish":"Cabo Delgado","labelLocal":"Cabo Delgado","labelBoth":"Cabo Delgado","type":"Province","iso":"MZ-P","qid":"Q466538"},"geometry":{"type":"Point","coordinates":[39.3146,-12.51]}},{"type":"Feature","id":"MOZ-1199","properties":{"kind":"division","code":"MOZ-1199","countryCode":"MOZ","name":"Niassa","localName":"Niassa","labelEnglish":"Niassa","labelLocal":"Niassa","labelBoth":"Niassa","type":"Province","iso":"MZ-A","qid":"Q622799"},"geometry":{"type":"Polygon","coordinates":[[[38.4923,-11.4135],[38.0934,-11.2563],[37.8752,-11.3191],[37.7837,-11.5589],[37.4278,-11.7226],[36.8201,-11.5736],[36.563,-11.7313],[36.1997,-11.7015],[36.1681,-11.5787],[35.8264,-11.4135],[35.5763,-11.6052],[34.9646,-11.5736],[34.6071,-11.5911],[34.3556,-12.2049],[34.4945,-12.6874],[34.5828,-13.4036],[34.8639,-13.5163],[35.0841,-13.7042],[35.7505,-14.5431],[35.9043,-14.8869],[35.7886,-15.2114],[35.8376,-15.4583],[36.279,-15.4944],[36.7147,-15.0041],[36.8902,-14.775],[37.3419,-14.5487],[37.6226,-14.2952],[37.9364,-14.3051],[38.4204,-14.1269],[38.043,-13.4198],[38.2062,-13.1124],[37.987,-13.0864],[38.0318,-12.4919],[38.4269,-11.9371],[38.4923,-11.4135]],[[34.6941,-12.0004],[34.7325,-12.109],[34.6562,-12.0972],[34.6941,-12.0004]]]}},{"type":"Feature","id":"label-MOZ-1199","properties":{"kind":"division-label","code":"MOZ-1199","countryCode":"MOZ","name":"Niassa","localName":"Niassa","labelEnglish":"Niassa","labelLocal":"Niassa","labelBoth":"Niassa","type":"Province","iso":"MZ-A","qid":"Q622799"},"geometry":{"type":"Point","coordinates":[36.4227,-13.4918]}},{"type":"Feature","id":"MOZ-1190","properties":{"kind":"division","code":"MOZ-1190","countryCode":"MOZ","name":"Tete","localName":"Tete","labelEnglish":"Tete","labelLocal":"Tete","labelBoth":"Tete","type":"Province","iso":"MZ-T","qid":"Q605787"},"geometry":{"type":"Polygon","coordinates":[[[30.3963,-15.636],[30.4026,-16.0012],[31.26,-16.0235],[31.6861,-16.2072],[31.9103,-16.4289],[32.2905,-16.4518],[32.731,-16.7087],[32.9685,-16.6816],[32.8288,-16.9351],[32.9691,-17.2661],[33.0117,-17.384],[33.4426,-16.521],[33.8227,-16.4228],[34.0174,-16.6289],[34.5962,-16.8302],[34.8609,-16.9747],[35.1056,-17.5676],[35.32,-17.7237],[35.2917,-17.1294],[35.0813,-17.1241],[35.0958,-16.8173],[34.8866,-16.7008],[34.3852,-16.1865],[34.2332,-15.8898],[34.3422,-15.7303],[34.4191,-15.5753],[34.5591,-15.2002],[34.5018,-14.5757],[34.3804,-14.4136],[33.6184,-14.5618],[33.3571,-14.2306],[33.2027,-14.0139],[31.6584,-14.5196],[30.2144,-14.982],[30.3963,-15.636]]]}},{"type":"Feature","id":"label-MOZ-1190","properties":{"kind":"division-label","code":"MOZ-1190","countryCode":"MOZ","name":"Tete","localName":"Tete","labelEnglish":"Tete","labelLocal":"Tete","labelBoth":"Tete","type":"Province","iso":"MZ-T","qid":"Q605787"},"geometry":{"type":"Point","coordinates":[32.7751,-15.4259]}},{"type":"Feature","id":"MOZ-1192","properties":{"kind":"division","code":"MOZ-1192","countryCode":"MOZ","name":"Manica","localName":"Manica","labelEnglish":"Manica","labelLocal":"Manica","labelBoth":"Manica","type":"Province","iso":"MZ-B","qid":"Q622792"},"geometry":{"type":"Polygon","coordinates":[[[33.0117,-17.384],[32.9369,-17.875],[33.035,-18.3329],[32.8707,-18.5358],[32.8852,-18.7878],[32.6914,-18.8342],[32.8623,-19.1181],[32.7634,-19.464],[32.8311,-19.6852],[33.0328,-19.7842],[33.0073,-20.032],[32.6465,-20.558],[32.5131,-20.5646],[32.4972,-20.8981],[32.3398,-21.1341],[32.4458,-21.309],[33.0701,-21.5964],[33.277,-21.5046],[34.0157,-21.3116],[34.1243,-21.0894],[33.8955,-20.9529],[33.8743,-20.714],[33.4909,-20.4198],[33.4127,-20.0783],[34.0029,-19.8382],[33.8751,-19.7776],[34.033,-18.9223],[33.7256,-18.6467],[33.8715,-18.4877],[33.9405,-18.1369],[34.2273,-18.2173],[34.2784,-17.9382],[34.1302,-17.5959],[34.2841,-17.0709],[34.5962,-16.8302],[34.0174,-16.6289],[33.8227,-16.4228],[33.4426,-16.521],[33.0117,-17.384]]]}},{"type":"Feature","id":"label-MOZ-1192","properties":{"kind":"division-label","code":"MOZ-1192","countryCode":"MOZ","name":"Manica","localName":"Manica","labelEnglish":"Manica","labelLocal":"Manica","labelBoth":"Manica","type":"Province","iso":"MZ-B","qid":"Q622792"},"geometry":{"type":"Point","coordinates":[33.4678,-20.811]}},{"type":"Feature","id":"MOZ-1207","properties":{"kind":"division","code":"MOZ-1207","countryCode":"MOZ","name":"Gaza","localName":"Gaza","labelEnglish":"Gaza","labelLocal":"Gaza","labelBoth":"Gaza","type":"Province","iso":"MZ-G","qid":"Q466526"},"geometry":{"type":"Polygon","coordinates":[[[32.4458,-21.309],[32.4085,-21.2903],[31.4338,-22.302],[31.2889,-22.3973],[31.5363,-23.157],[31.5215,-23.4156],[31.8565,-23.963],[31.9263,-24.2767],[32.0672,-24.2116],[32.7055,-24.405],[32.9383,-24.7938],[32.927,-25.0374],[33.132,-25.3792],[33.7292,-25.1051],[34.4802,-24.8522],[34.2976,-24.7107],[34.4249,-24.4598],[34.1407,-24.5386],[33.9241,-24.0844],[33.9496,-23.588],[33.8431,-23.1949],[33.3095,-22.582],[33.3315,-21.9999],[33.1465,-21.71],[33.277,-21.5046],[33.0701,-21.5964],[32.4458,-21.309]]]}},{"type":"Feature","id":"label-MOZ-1207","properties":{"kind":"division-label","code":"MOZ-1207","countryCode":"MOZ","name":"Gaza","localName":"Gaza","labelEnglish":"Gaza","labelLocal":"Gaza","labelBoth":"Gaza","type":"Province","iso":"MZ-G","qid":"Q466526"},"geometry":{"type":"Point","coordinates":[32.8795,-23.1231]}},{"type":"Feature","id":"MOZ-1906","properties":{"kind":"division","code":"MOZ-1906","countryCode":"MOZ","name":"Zambezia","localName":"Zambezia","labelEnglish":"Zambezia","labelLocal":"Zambezia","labelBoth":"Zambezia","type":"Province","iso":"MZ-Q","qid":"Q622803"},"geometry":{"type":"Polygon","coordinates":[[[35.8376,-15.4592],[35.7966,-15.9332],[35.6976,-16.1075],[35.2992,-16.2087],[35.2373,-16.3991],[35.1319,-16.5376],[35.2782,-16.7007],[35.2917,-17.1294],[35.32,-17.7237],[35.5935,-18.0281],[35.851,-18.1293],[36.0979,-18.3871],[36.1331,-18.8086],[36.4162,-18.775],[36.4795,-18.5764],[36.8874,-18.1891],[37.0864,-17.8691],[37.9089,-17.3552],[38.5955,-17.0944],[39.0905,-16.9838],[39.1291,-16.8718],[39.0364,-16.443],[38.8109,-15.8294],[38.3727,-15.4714],[37.8413,-15.1877],[37.5249,-15.1311],[37.3794,-15.2175],[37.2149,-15.0115],[36.7147,-15.0041],[36.279,-15.4944],[35.8376,-15.4583],[35.8376,-15.4592]]]}},{"type":"Feature","id":"label-MOZ-1906","properties":{"kind":"division-label","code":"MOZ-1906","countryCode":"MOZ","name":"Zambezia","localName":"Zambezia","labelEnglish":"Zambezia","labelLocal":"Zambezia","labelBoth":"Zambezia","type":"Province","iso":"MZ-Q","qid":"Q622803"},"geometry":{"type":"Point","coordinates":[37.1305,-16.4213]}},{"type":"Feature","id":"MOZ-5854","properties":{"kind":"division","code":"MOZ-5854","countryCode":"MOZ","name":"Maputo","localName":"Maputo","labelEnglish":"Maputo","labelLocal":"Maputo","labelBoth":"Maputo","type":"Province","iso":"MZ-L","qid":"Q3889"},"geometry":{"type":"Polygon","coordinates":[[[32.6588,-25.9106],[32.5527,-25.8658],[32.5166,-25.95],[32.6588,-25.9106]]]}},{"type":"Feature","id":"label-MOZ-5854","properties":{"kind":"division-label","code":"MOZ-5854","countryCode":"MOZ","name":"Maputo","localName":"Maputo","labelEnglish":"Maputo","labelLocal":"Maputo","labelBoth":"Maputo","type":"Province","iso":"MZ-L","qid":"Q3889"},"geometry":{"type":"Point","coordinates":[32.5828,-25.949]}},{"type":"Feature","id":"MOZ-1925","properties":{"kind":"division","code":"MOZ-1925","countryCode":"MOZ","name":"Inhambane","localName":"Inhambane","labelEnglish":"Inhambane","labelLocal":"Inhambane","labelBoth":"Inhambane","type":"Province","iso":"MZ-I","qid":"Q466547"},"geometry":{"type":"Polygon","coordinates":[[[35.1125,-20.9527],[34.463,-21.1711],[34.3314,-21.3095],[34.0157,-21.3116],[33.277,-21.5046],[33.1465,-21.71],[33.3315,-21.9999],[33.3095,-22.582],[33.8431,-23.1949],[33.9496,-23.588],[33.9241,-24.0844],[34.1407,-24.5386],[34.4249,-24.4598],[34.2976,-24.7107],[34.4802,-24.8522],[35.1065,-24.5979],[35.4935,-24.1105],[35.5432,-23.8632],[35.3948,-23.8419],[35.5208,-22.9076],[35.5422,-22.4099],[35.4774,-22.0915],[35.3115,-22.413],[35.271,-21.6441],[35.0249,-21.0849],[35.1125,-20.9527]]]}},{"type":"Feature","id":"label-MOZ-1925","properties":{"kind":"division-label","code":"MOZ-1925","countryCode":"MOZ","name":"Inhambane","localName":"Inhambane","labelEnglish":"Inhambane","labelLocal":"Inhambane","labelBoth":"Inhambane","type":"Province","iso":"MZ-I","qid":"Q466547"},"geometry":{"type":"Point","coordinates":[35.4619,-21.6677]}},{"type":"Feature","id":"MOZ-1905","properties":{"kind":"division","code":"MOZ-1905","countryCode":"MOZ","name":"Sofala","localName":"Sofala","labelEnglish":"Sofala","labelLocal":"Sofala","labelBoth":"Sofala","type":"Province","iso":"MZ-S","qid":"Q622801"},"geometry":{"type":"Polygon","coordinates":[[[36.1331,-18.8086],[36.0979,-18.3871],[35.851,-18.1293],[35.5935,-18.0281],[35.32,-17.7237],[35.1056,-17.5676],[34.8609,-16.9747],[34.5962,-16.8302],[34.2841,-17.0709],[34.1302,-17.5959],[34.2784,-17.9382],[34.2273,-18.2173],[33.9405,-18.1369],[33.8715,-18.4877],[33.7256,-18.6467],[34.033,-18.9223],[33.8751,-19.7776],[34.0029,-19.8382],[33.4127,-20.0783],[33.4909,-20.4198],[33.8743,-20.714],[33.8955,-20.9529],[34.1243,-21.0894],[34.0157,-21.3116],[34.3314,-21.3095],[34.463,-21.1711],[35.1125,-20.9527],[34.9933,-20.7302],[34.6646,-20.4285],[34.7769,-20.135],[34.7433,-19.8901],[35.1268,-19.705],[35.6623,-19.133],[36.1331,-18.8086]]]}},{"type":"Feature","id":"label-MOZ-1905","properties":{"kind":"division-label","code":"MOZ-1905","countryCode":"MOZ","name":"Sofala","localName":"Sofala","labelEnglish":"Sofala","labelLocal":"Sofala","labelBoth":"Sofala","type":"Province","iso":"MZ-S","qid":"Q622801"},"geometry":{"type":"Point","coordinates":[34.8544,-18.7726]}},{"type":"Feature","id":"MOZ-1200","properties":{"kind":"division","code":"MOZ-1200","countryCode":"MOZ","name":"Nampula","localName":"Nampula","labelEnglish":"Nampula","labelLocal":"Nampula","labelBoth":"Nampula","type":"Province","iso":"MZ-N","qid":"Q622794"},"geometry":{"type":"Polygon","coordinates":[[[40.527,-13.5106],[40.1284,-13.4481],[39.8488,-13.675],[38.7073,-14.1439],[38.4204,-14.1269],[37.9364,-14.3051],[37.6226,-14.2952],[37.3419,-14.5487],[36.8902,-14.775],[36.7147,-15.0041],[37.2149,-15.0115],[37.3794,-15.2175],[37.5249,-15.1311],[37.8413,-15.1877],[38.3727,-15.4714],[38.8109,-15.8294],[39.0364,-16.443],[39.1291,-16.8718],[39.6983,-16.5322],[39.7834,-16.3019],[39.9924,-16.2224],[40.1646,-15.9156],[40.5884,-15.4776],[40.6096,-15.1613],[40.8355,-14.8023],[40.8425,-14.4645],[40.6566,-14.4492],[40.6963,-14.1825],[40.527,-13.5106]]]}},{"type":"Feature","id":"label-MOZ-1200","properties":{"kind":"division-label","code":"MOZ-1200","countryCode":"MOZ","name":"Nampula","localName":"Nampula","labelEnglish":"Nampula","labelLocal":"Nampula","labelBoth":"Nampula","type":"Province","iso":"MZ-N","qid":"Q622794"},"geometry":{"type":"Point","coordinates":[38.7815,-14.9497]}}]}