{"type":"FeatureCollection","features":[{"type":"Feature","id":"MRT-2783","properties":{"kind":"division","code":"MRT-2783","countryCode":"MRT","name":"Tiris Zemmour","localName":"Tiris Zemmour","labelEnglish":"Tiris Zemmour","labelLocal":"Tiris Zemmour","labelBoth":"Tiris Zemmour","type":"Region","iso":"MR-11","qid":"Q859567"},"geometry":{"type":"Polygon","coordinates":[[[-8.6824,27.2854],[-8.6808,26.0131],[-10.2023,25.995],[-12.0153,25.9949],[-12.0153,23.4952],[-12.6194,23.2708],[-13.0152,23.018],[-13.1655,22.7527],[-13.0933,22.4955],[-13.0321,21.5819],[-12.378,21.3516],[-10.7878,21.52],[-6.5063,24.276],[-6.5931,24.9941],[-4.8216,24.9951],[-5.6615,25.5089],[-7.297,26.4707],[-8.6824,27.2854]]]}},{"type":"Feature","id":"label-MRT-2783","properties":{"kind":"division-label","code":"MRT-2783","countryCode":"MRT","name":"Tiris Zemmour","localName":"Tiris Zemmour","labelEnglish":"Tiris Zemmour","labelLocal":"Tiris Zemmour","labelBoth":"Tiris Zemmour","type":"Region","iso":"MR-11","qid":"Q859567"},"geometry":{"type":"Point","coordinates":[-8.99419,24.3349]}},{"type":"Feature","id":"MRT-2785","properties":{"kind":"division","code":"MRT-2785","countryCode":"MRT","name":"Dakhlet Nouadhibou","localName":"Dakhlet Nouadhibou","labelEnglish":"Dakhlet Nouadhibou","labelLocal":"Dakhlet Nouadhibou","labelBoth":"Dakhlet Nouadhibou","type":"Region","iso":"MR-08","qid":"Q859573"},"geometry":{"type":"Polygon","coordinates":[[[-17.0569,20.7669],[-16.9176,21.1592],[-16.665,20.6706],[-16.4296,20.6442],[-16.1997,20.2152],[-16.2338,19.7936],[-16.4672,19.4641],[-16.3232,19.4579],[-15.5784,20.7374],[-15.8398,21.1508],[-14.1732,21.1445],[-14.2956,21.3332],[-16.9588,21.3329],[-17.0569,20.7669]]]}},{"type":"Feature","id":"label-MRT-2785","properties":{"kind":"division-label","code":"MRT-2785","countryCode":"MRT","name":"Dakhlet Nouadhibou","localName":"Dakhlet Nouadhibou","labelEnglish":"Dakhlet Nouadhibou","labelLocal":"Dakhlet Nouadhibou","labelBoth":"Dakhlet Nouadhibou","type":"Region","iso":"MR-08","qid":"Q859573"},"geometry":{"type":"Point","coordinates":[-16.1354,20.8429]}},{"type":"Feature","id":"MRT-2795","properties":{"kind":"division","code":"MRT-2795","countryCode":"MRT","name":"Adrar","localName":"Adrar","labelEnglish":"Adrar","labelLocal":"Adrar","labelBoth":"Adrar","type":"Region","iso":"MR-07","qid":"Q366626"},"geometry":{"type":"Polygon","coordinates":[[[-14.2956,21.3332],[-14.1732,21.1445],[-14.1545,21.1181],[-14.2218,19.0005],[-13.2442,19.0005],[-12.6691,18.557],[-12.3421,18.8996],[-11.6779,19.3198],[-11.4506,19.2031],[-11.4225,19.4088],[-11.0348,19.7114],[-7.9877,19.7254],[-6.3716,23.124],[-6.5063,24.276],[-10.7878,21.52],[-12.378,21.3516],[-13.0321,21.5819],[-13.0152,21.3334],[-14.2956,21.3332]]]}},{"type":"Feature","id":"label-MRT-2795","properties":{"kind":"division-label","code":"MRT-2795","countryCode":"MRT","name":"Adrar","localName":"Adrar","labelEnglish":"Adrar","labelLocal":"Adrar","labelBoth":"Adrar","type":"Region","iso":"MR-07","qid":"Q366626"},"geometry":{"type":"Point","coordinates":[-10.3339,20.7634]}},{"type":"Feature","id":"MRT-2784","properties":{"kind":"division","code":"MRT-2784","countryCode":"MRT","name":"Brakna","localName":"Brakna","labelEnglish":"Brakna","labelLocal":"Brakna","labelBoth":"Brakna","type":"Region","iso":"MR-05","qid":"Q12632"},"geometry":{"type":"Polygon","coordinates":[[[-14.9489,16.6706],[-14.3433,16.6367],[-13.8113,16.1221],[-13.7183,16.1593],[-13.6325,16.2896],[-13.1816,16.414],[-12.9315,16.6164],[-12.823,16.8583],[-12.7279,17.0471],[-12.3102,17.2754],[-12.5448,17.4919],[-12.4787,18.2742],[-12.6691,18.557],[-13.7337,17.8],[-13.9587,17.6035],[-14.3202,17.0881],[-14.9489,16.6706]]]}},{"type":"Feature","id":"label-MRT-2784","properties":{"kind":"division-label","code":"MRT-2784","countryCode":"MRT","name":"Brakna","localName":"Brakna","labelEnglish":"Brakna","labelLocal":"Brakna","labelBoth":"Brakna","type":"Region","iso":"MR-05","qid":"Q12632"},"geometry":{"type":"Point","coordinates":[-13.6298,17.0824]}},{"type":"Feature","id":"MRT-2788","properties":{"kind":"division","code":"MRT-2788","countryCode":"MRT","name":"Trarza","localName":"Trarza","labelEnglish":"Trarza","labelLocal":"Trarza","labelBoth":"Trarza","type":"Region","iso":"MR-06","qid":"Q859581"},"geometry":{"type":"Polygon","coordinates":[[[-14.9489,16.6706],[-14.3202,17.0881],[-13.9587,17.6035],[-13.7337,17.8],[-12.6691,18.557],[-13.2442,19.0005],[-14.2218,19.0005],[-16.2104,18.9959],[-16.0601,18.3909],[-15.7811,18.3931],[-15.7815,17.8866],[-16.0321,17.8864],[-16.1726,17.2624],[-16.4592,16.6439],[-16.5423,15.8088],[-16.3274,16.4746],[-15.6722,16.4814],[-14.9489,16.6706]]]}},{"type":"Feature","id":"label-MRT-2788","properties":{"kind":"division-label","code":"MRT-2788","countryCode":"MRT","name":"Trarza","localName":"Trarza","labelEnglish":"Trarza","labelLocal":"Trarza","labelBoth":"Trarza","type":"Region","iso":"MR-06","qid":"Q859581"},"geometry":{"type":"Point","coordinates":[-14.6057,17.9339]}},{"type":"Feature","id":"MRT-2791","properties":{"kind":"division","code":"MRT-2791","countryCode":"MRT","name":"Gorgol","localName":"Gorgol","labelEnglish":"Gorgol","labelLocal":"Gorgol","labelBoth":"Gorgol","type":"Region","iso":"MR-04","qid":"Q859831"},"geometry":{"type":"Polygon","coordinates":[[[-13.7196,16.1356],[-13.4849,16.155],[-13.2378,15.6234],[-12.9643,15.5092],[-12.7466,15.1311],[-12.4631,15.6585],[-12.2375,15.8806],[-12.0049,15.9394],[-12.0103,16.0521],[-12.4278,16.2055],[-12.4294,16.4428],[-12.6576,16.4851],[-12.823,16.8583],[-12.9315,16.6164],[-13.1816,16.414],[-13.6325,16.2896],[-13.7183,16.1593],[-13.7196,16.1356]]]}},{"type":"Feature","id":"label-MRT-2791","properties":{"kind":"division-label","code":"MRT-2791","countryCode":"MRT","name":"Gorgol","localName":"Gorgol","labelEnglish":"Gorgol","labelLocal":"Gorgol","labelBoth":"Gorgol","type":"Region","iso":"MR-04","qid":"Q859831"},"geometry":{"type":"Point","coordinates":[-12.8565,16.0296]}},{"type":"Feature","id":"MRT-2790","properties":{"kind":"division","code":"MRT-2790","countryCode":"MRT","name":"Guidimaka","localName":"Guidimaka","labelEnglish":"Guidimaka","labelLocal":"Guidimaka","labelBoth":"Guidimaka","type":"Region","iso":"MR-10","qid":"Q768119"},"geometry":{"type":"Polygon","coordinates":[[[-12.7466,15.1311],[-12.6896,15.0925],[-12.2641,14.7749],[-12.0704,14.7344],[-11.8204,14.9],[-11.8457,15.1791],[-11.7017,15.5374],[-11.5003,15.9693],[-11.821,16.0396],[-12.0049,15.9394],[-12.2375,15.8806],[-12.4631,15.6585],[-12.7466,15.1311]]]}},{"type":"Feature","id":"label-MRT-2790","properties":{"kind":"division-label","code":"MRT-2790","countryCode":"MRT","name":"Guidimaka","localName":"Guidimaka","labelEnglish":"Guidimaka","labelLocal":"Guidimaka","labelBoth":"Guidimaka","type":"Region","iso":"MR-10","qid":"Q768119"},"geometry":{"type":"Point","coordinates":[-12.1235,15.3352]}},{"type":"Feature","id":"MRT-2796","properties":{"kind":"division","code":"MRT-2796","countryCode":"MRT","name":"Hodh Ech Chargui","localName":"Hodh Ech Chargui","labelEnglish":"Hodh Ech Chargui","labelLocal":"Hodh Ech Chargui","labelBoth":"Hodh Ech Chargui","type":"Region","iso":"MR-01","qid":"Q12621"},"geometry":{"type":"Polygon","coordinates":[[[-6.3716,23.124],[-7.9877,19.7254],[-9.1497,17.2823],[-8.5983,17.3506],[-8.2892,17.023],[-8.8938,16.3917],[-9.0675,16.0622],[-8.9695,15.857],[-9.0032,15.4955],[-8.0178,15.4951],[-6.3201,15.4945],[-5.5088,15.5069],[-5.3533,16.312],[-5.6233,16.5278],[-5.7565,17.741],[-5.9635,19.6206],[-6.2194,21.8229],[-6.3716,23.124]]]}},{"type":"Feature","id":"label-MRT-2796","properties":{"kind":"division-label","code":"MRT-2796","countryCode":"MRT","name":"Hodh Ech Chargui","localName":"Hodh Ech Chargui","labelEnglish":"Hodh Ech Chargui","labelLocal":"Hodh Ech Chargui","labelBoth":"Hodh Ech Chargui","type":"Region","iso":"MR-01","qid":"Q12621"},"geometry":{"type":"Point","coordinates":[-7.19158,18.0225]}},{"type":"Feature","id":"MRT-2797","properties":{"kind":"division","code":"MRT-2797","countryCode":"MRT","name":"Hodh El Gharbi","localName":"Hodh El Gharbi","labelEnglish":"Hodh El Gharbi","labelLocal":"Hodh El Gharbi","labelBoth":"Hodh El Gharbi","type":"Region","iso":"MR-02","qid":"Q850435"},"geometry":{"type":"Polygon","coordinates":[[[-9.0032,15.4955],[-8.9695,15.857],[-9.0675,16.0622],[-8.8938,16.3917],[-8.2892,17.023],[-8.5983,17.3506],[-9.1497,17.2823],[-9.7227,17.5563],[-10.3325,17.5182],[-11.0795,17.7228],[-10.9914,17.3914],[-10.9904,16.8164],[-10.8387,16.6141],[-10.7787,16.0449],[-10.6669,15.9381],[-10.5847,15.4281],[-9.8356,15.3711],[-9.1414,15.4956],[-9.0032,15.4955]]]}},{"type":"Feature","id":"label-MRT-2797","properties":{"kind":"division-label","code":"MRT-2797","countryCode":"MRT","name":"Hodh El Gharbi","localName":"Hodh El Gharbi","labelEnglish":"Hodh El Gharbi","labelLocal":"Hodh El Gharbi","labelBoth":"Hodh El Gharbi","type":"Region","iso":"MR-02","qid":"Q850435"},"geometry":{"type":"Point","coordinates":[-9.69143,16.4832]}},{"type":"Feature","id":"MRT-2789","properties":{"kind":"division","code":"MRT-2789","countryCode":"MRT","name":"Assaba","localName":"Assaba","labelEnglish":"Assaba","labelLocal":"Assaba","labelBoth":"Assaba","type":"Region","iso":"MR-03","qid":"Q738546"},"geometry":{"type":"Polygon","coordinates":[[[-11.7017,15.5374],[-11.4096,15.6022],[-10.9152,15.1029],[-10.7364,15.4226],[-10.5847,15.4281],[-10.6669,15.9381],[-10.7787,16.0449],[-10.8387,16.6141],[-10.9904,16.8164],[-10.9914,17.3914],[-11.0795,17.7228],[-10.9707,18.3109],[-11.2125,18.0964],[-11.5953,17.9557],[-11.425,17.675],[-11.5271,17.1772],[-11.9099,17.0862],[-12.3102,17.2754],[-12.7279,17.0471],[-12.823,16.8583],[-12.6576,16.4851],[-12.4294,16.4428],[-12.4278,16.2055],[-12.0103,16.0521],[-12.0049,15.9394],[-11.821,16.0396],[-11.5003,15.9693],[-11.7017,15.5374]]]}},{"type":"Feature","id":"label-MRT-2789","properties":{"kind":"division-label","code":"MRT-2789","countryCode":"MRT","name":"Assaba","localName":"Assaba","labelEnglish":"Assaba","labelLocal":"Assaba","labelBoth":"Assaba","type":"Region","iso":"MR-03","qid":"Q738546"},"geometry":{"type":"Point","coordinates":[-11.7106,16.5835]}},{"type":"Feature","id":"MRT-2786","properties":{"kind":"division","code":"MRT-2786","countryCode":"MRT","name":"Inchiri","localName":"Inchiri","labelEnglish":"Inchiri","labelLocal":"Inchiri","labelBoth":"Inchiri","type":"Region","iso":"MR-12","qid":"Q850022"},"geometry":{"type":"Polygon","coordinates":[[[-16.2104,18.9959],[-14.2218,19.0005],[-14.1545,21.1181],[-14.1732,21.1445],[-15.8398,21.1508],[-15.5784,20.7374],[-16.3232,19.4579],[-16.5218,19.3964],[-16.2104,18.9959]]]}},{"type":"Feature","id":"label-MRT-2786","properties":{"kind":"division-label","code":"MRT-2786","countryCode":"MRT","name":"Inchiri","localName":"Inchiri","labelEnglish":"Inchiri","labelLocal":"Inchiri","labelBoth":"Inchiri","type":"Region","iso":"MR-12","qid":"Q850022"},"geometry":{"type":"Point","coordinates":[-15.345,20.0734]}},{"type":"Feature","id":"MRT-2787","properties":{"kind":"division","code":"MRT-2787","countryCode":"MRT","name":"Nouakchott","localName":"Nouakchott","labelEnglish":"Nouakchott","labelLocal":"Nouakchott","labelBoth":"Nouakchott","type":"District","iso":"MR-NKC","qid":"Q3688"},"geometry":{"type":"Polygon","coordinates":[[[-16.0321,17.8864],[-15.7815,17.8866],[-15.7811,18.3931],[-16.0601,18.3909],[-16.0321,17.8864]]]}},{"type":"Feature","id":"label-MRT-2787","properties":{"kind":"division-label","code":"MRT-2787","countryCode":"MRT","name":"Nouakchott","localName":"Nouakchott","labelEnglish":"Nouakchott","labelLocal":"Nouakchott","labelBoth":"Nouakchott","type":"District","iso":"MR-NKC","qid":"Q3688"},"geometry":{"type":"Point","coordinates":[-15.92,18.139]}},{"type":"Feature","id":"MRT-2798","properties":{"kind":"division","code":"MRT-2798","countryCode":"MRT","name":"Tagant","localName":"Tagant","labelEnglish":"Tagant","labelLocal":"Tagant","labelBoth":"Tagant","type":"Region","iso":"MR-09","qid":"Q843903"},"geometry":{"type":"Polygon","coordinates":[[[-7.9877,19.7254],[-11.0348,19.7114],[-11.4225,19.4088],[-11.4506,19.2031],[-11.6779,19.3198],[-12.3421,18.8996],[-12.6691,18.557],[-12.4787,18.2742],[-12.5448,17.4919],[-12.3102,17.2754],[-11.9099,17.0862],[-11.5271,17.1772],[-11.425,17.675],[-11.5953,17.9557],[-11.2125,18.0964],[-10.9707,18.3109],[-11.0795,17.7228],[-10.3325,17.5182],[-9.7227,17.5563],[-9.1497,17.2823],[-7.9877,19.7254]]]}},{"type":"Feature","id":"label-MRT-2798","properties":{"kind":"division-label","code":"MRT-2798","countryCode":"MRT","name":"Tagant","localName":"Tagant","labelEnglish":"Tagant","labelLocal":"Tagant","labelBoth":"Tagant","type":"Region","iso":"MR-09","qid":"Q843903"},"geometry":{"type":"Point","coordinates":[-10.3284,18.6165]}}]}