{"type":"FeatureCollection","features":[{"type":"Feature","id":"MSR-5089","properties":{"kind":"division","code":"MSR-5089","countryCode":"MSR","name":"Saint Peter","localName":"Saint Peter","labelEnglish":"Saint Peter","labelLocal":"Saint Peter","labelBoth":"Saint Peter","type":"Parish","iso":"MS-P","qid":null},"geometry":{"type":"Polygon","coordinates":[[[-62.2255,16.7478],[-62.1886,16.739],[-62.17,16.777],[-62.2255,16.7478]]]}},{"type":"Feature","id":"label-MSR-5089","properties":{"kind":"division-label","code":"MSR-5089","countryCode":"MSR","name":"Saint Peter","localName":"Saint Peter","labelEnglish":"Saint Peter","labelLocal":"Saint Peter","labelBoth":"Saint Peter","type":"Parish","iso":"MS-P","qid":null},"geometry":{"type":"Point","coordinates":[-62.2017,16.7762]}},{"type":"Feature","id":"MSR-5087","properties":{"kind":"division","code":"MSR-5087","countryCode":"MSR","name":"Saint Anthony","localName":"Saint Anthony","labelEnglish":"Saint Anthony","labelLocal":"Saint Anthony","labelBoth":"Saint Anthony","type":"Parish","iso":"MS-A","qid":null},"geometry":{"type":"Polygon","coordinates":[[[-62.1508,16.7204],[-62.1886,16.739],[-62.2255,16.7478],[-62.1508,16.7204]]]}},{"type":"Feature","id":"label-MSR-5087","properties":{"kind":"division-label","code":"MSR-5087","countryCode":"MSR","name":"Saint Anthony","localName":"Saint Anthony","labelEnglish":"Saint Anthony","labelLocal":"Saint Anthony","labelBoth":"Saint Anthony","type":"Parish","iso":"MS-A","qid":null},"geometry":{"type":"Point","coordinates":[-62.1886,16.7048]}},{"type":"Feature","id":"MSR-5088","properties":{"kind":"division","code":"MSR-5088","countryCode":"MSR","name":"Saint George","localName":"Saint George","labelEnglish":"Saint George","labelLocal":"Saint George","labelBoth":"Saint George","type":"Parish","iso":"MS-G","qid":"Q1647443"},"geometry":{"type":"Polygon","coordinates":[[[-62.17,16.777],[-62.1886,16.739],[-62.1508,16.7204],[-62.17,16.777]]]}},{"type":"Feature","id":"label-MSR-5088","properties":{"kind":"division-label","code":"MSR-5088","countryCode":"MSR","name":"Saint George","localName":"Saint George","labelEnglish":"Saint George","labelLocal":"Saint George","labelBoth":"Saint George","type":"Parish","iso":"MS-G","qid":"Q1647443"},"geometry":{"type":"Point","coordinates":[-62.1671,16.7442]}}]}