{"type":"FeatureCollection","features":[{"type":"Feature","id":"MUS-5192","properties":{"kind":"division","code":"MUS-5192","countryCode":"MUS","name":"Rivière du Rempart","localName":"Rivière du Rempart","labelEnglish":"Rivière du Rempart","labelLocal":"Rivière du Rempart","labelBoth":"Rivière du Rempart","type":"District","iso":"MU-RR","qid":"Q1053565"},"geometry":{"type":"Polygon","coordinates":[[[57.5803,-19.9999],[57.6308,-20.1555],[57.7337,-20.0961],[57.5803,-19.9999]]]}},{"type":"Feature","id":"label-MUS-5192","properties":{"kind":"division-label","code":"MUS-5192","countryCode":"MUS","name":"Rivière du Rempart","localName":"Rivière du Rempart","labelEnglish":"Rivière du Rempart","labelLocal":"Rivière du Rempart","labelBoth":"Rivière du Rempart","type":"District","iso":"MU-RR","qid":"Q1053565"},"geometry":{"type":"Point","coordinates":[57.6557,-20.0651]}},{"type":"Feature","id":"MUS-5187","properties":{"kind":"division","code":"MUS-5187","countryCode":"MUS","name":"Pamplemousses","localName":"Pamplemousses","labelEnglish":"Pamplemousses","labelLocal":"Pamplemousses","labelBoth":"Pamplemousses","type":"District","iso":"MU-PA","qid":"Q934126"},"geometry":{"type":"Polygon","coordinates":[[[57.4938,-20.1223],[57.4993,-20.1232],[57.5463,-20.202],[57.6079,-20.1849],[57.6308,-20.1555],[57.5803,-19.9999],[57.4938,-20.1223]]]}},{"type":"Feature","id":"label-MUS-5187","properties":{"kind":"division-label","code":"MUS-5187","countryCode":"MUS","name":"Pamplemousses","localName":"Pamplemousses","labelEnglish":"Pamplemousses","labelLocal":"Pamplemousses","labelBoth":"Pamplemousses","type":"District","iso":"MU-PA","qid":"Q934126"},"geometry":{"type":"Point","coordinates":[57.573,-20.0899]}},{"type":"Feature","id":"MUS-5190","properties":{"kind":"division","code":"MUS-5190","countryCode":"MUS","name":"Port Louis","localName":"Port Louis","labelEnglish":"Port Louis","labelLocal":"Port Louis","labelBoth":"Port Louis","type":"City","iso":"MU-PL","qid":"Q3929"},"geometry":{"type":"Polygon","coordinates":[[[57.4639,-20.1616],[57.4654,-20.1675],[57.4993,-20.1232],[57.4938,-20.1223],[57.4639,-20.1616]]]}},{"type":"Feature","id":"label-MUS-5190","properties":{"kind":"division-label","code":"MUS-5190","countryCode":"MUS","name":"Port Louis","localName":"Port Louis","labelEnglish":"Port Louis","labelLocal":"Port Louis","labelBoth":"Port Louis","type":"City","iso":"MU-PL","qid":"Q3929"},"geometry":{"type":"Point","coordinates":[57.5038,-20.1496]}},{"type":"Feature","id":"MUS-5193","properties":{"kind":"division","code":"MUS-5193","countryCode":"MUS","name":"Rivière Noire","localName":"Rivière Noire","labelEnglish":"Rivière Noire","labelLocal":"Rivière Noire","labelBoth":"Rivière Noire","type":"District","iso":"MU-BL","qid":"Q873740"},"geometry":{"type":"Polygon","coordinates":[[[57.3993,-20.498],[57.487,-20.4229],[57.471,-20.3288],[57.4592,-20.2909],[57.457,-20.2561],[57.4597,-20.2191],[57.4708,-20.1888],[57.4654,-20.1675],[57.4639,-20.1616],[57.3993,-20.498]]]}},{"type":"Feature","id":"label-MUS-5193","properties":{"kind":"division-label","code":"MUS-5193","countryCode":"MUS","name":"Rivière Noire","localName":"Rivière Noire","labelEnglish":"Rivière Noire","labelLocal":"Rivière Noire","labelBoth":"Rivière Noire","type":"District","iso":"MU-BL","qid":"Q873740"},"geometry":{"type":"Point","coordinates":[57.4149,-20.3424]}},{"type":"Feature","id":"MUS-5195","properties":{"kind":"division","code":"MUS-5195","countryCode":"MUS","name":"Savanne","localName":"Savanne","labelEnglish":"Savanne","labelLocal":"Savanne","labelBoth":"Savanne","type":"District","iso":"MU-SA","qid":"Q1053600"},"geometry":{"type":"Polygon","coordinates":[[[57.631,-20.492],[57.546,-20.4025],[57.487,-20.4229],[57.3993,-20.498],[57.631,-20.492]]]}},{"type":"Feature","id":"label-MUS-5195","properties":{"kind":"division-label","code":"MUS-5195","countryCode":"MUS","name":"Savanne","localName":"Savanne","labelEnglish":"Savanne","labelLocal":"Savanne","labelBoth":"Savanne","type":"District","iso":"MU-SA","qid":"Q1053600"},"geometry":{"type":"Point","coordinates":[57.5211,-20.464]}},{"type":"Feature","id":"MUS-5185","properties":{"kind":"division","code":"MUS-5185","countryCode":"MUS","name":"Grand Port","localName":"Grand Port","labelEnglish":"Grand Port","labelLocal":"Grand Port","labelBoth":"Grand Port","type":"District","iso":"MU-GP","qid":"Q911635"},"geometry":{"type":"Polygon","coordinates":[[[57.7782,-20.3048],[57.6684,-20.3284],[57.5997,-20.3434],[57.546,-20.4025],[57.631,-20.492],[57.7782,-20.3048]]]}},{"type":"Feature","id":"label-MUS-5185","properties":{"kind":"division-label","code":"MUS-5185","countryCode":"MUS","name":"Grand Port","localName":"Grand Port","labelEnglish":"Grand Port","labelLocal":"Grand Port","labelBoth":"Grand Port","type":"District","iso":"MU-GP","qid":"Q911635"},"geometry":{"type":"Point","coordinates":[57.6498,-20.392]}},{"type":"Feature","id":"MUS-5184","properties":{"kind":"division","code":"MUS-5184","countryCode":"MUS","name":"Flacq","localName":"Flacq","labelEnglish":"Flacq","labelLocal":"Flacq","labelBoth":"Flacq","type":"District","iso":"MU-FL","qid":"Q911651"},"geometry":{"type":"Polygon","coordinates":[[[57.7337,-20.0961],[57.6308,-20.1555],[57.6079,-20.1849],[57.6684,-20.3284],[57.7782,-20.3048],[57.7337,-20.0961]]]}},{"type":"Feature","id":"label-MUS-5184","properties":{"kind":"division-label","code":"MUS-5184","countryCode":"MUS","name":"Flacq","localName":"Flacq","labelEnglish":"Flacq","labelLocal":"Flacq","labelBoth":"Flacq","type":"District","iso":"MU-FL","qid":"Q911651"},"geometry":{"type":"Point","coordinates":[57.7206,-20.2173]}},{"type":"Feature","id":"MUS-5180","properties":{"kind":"division","code":"MUS-5180","countryCode":"MUS","name":"Agaléga","localName":"Agaléga","labelEnglish":"Agaléga","labelLocal":"Agaléga","labelBoth":"Agaléga","type":"Dependency","iso":"MU-AG","qid":"Q196042"},"geometry":{"type":"Polygon","coordinates":[[[56.5242,-10.33],[56.5693,-10.4065],[56.5357,-10.3239],[56.5242,-10.33]]]}},{"type":"Feature","id":"label-MUS-5180","properties":{"kind":"division-label","code":"MUS-5180","countryCode":"MUS","name":"Agaléga","localName":"Agaléga","labelEnglish":"Agaléga","labelLocal":"Agaléga","labelBoth":"Agaléga","type":"Dependency","iso":"MU-AG","qid":"Q196042"},"geometry":{"type":"Point","coordinates":[56.5372,-10.3512]}},{"type":"Feature","id":"MUS-5194","properties":{"kind":"division","code":"MUS-5194","countryCode":"MUS","name":"Rodrigues","localName":"Rodrigues","labelEnglish":"Rodrigues","labelLocal":"Rodrigues","labelBoth":"Rodrigues","type":"Dependency","iso":"MU-RO","qid":"Q208668"},"geometry":{"type":"Polygon","coordinates":[[[63.4762,-19.6778],[63.3352,-19.7179],[63.3664,-19.7672],[63.4762,-19.6778]]]}},{"type":"Feature","id":"label-MUS-5194","properties":{"kind":"division-label","code":"MUS-5194","countryCode":"MUS","name":"Rodrigues","localName":"Rodrigues","labelEnglish":"Rodrigues","labelLocal":"Rodrigues","labelBoth":"Rodrigues","type":"Dependency","iso":"MU-RO","qid":"Q208668"},"geometry":{"type":"Point","coordinates":[63.4542,-19.697]}},{"type":"Feature","id":"MUS-5186","properties":{"kind":"division","code":"MUS-5186","countryCode":"MUS","name":"Moka","localName":"Moka","labelEnglish":"Moka","labelLocal":"Moka","labelBoth":"Moka","type":"District","iso":"MU-MO","qid":"Q911643"},"geometry":{"type":"Polygon","coordinates":[[[57.6079,-20.1849],[57.5463,-20.202],[57.4859,-20.1909],[57.5997,-20.3434],[57.6684,-20.3284],[57.6079,-20.1849]]]}},{"type":"Feature","id":"label-MUS-5186","properties":{"kind":"division-label","code":"MUS-5186","countryCode":"MUS","name":"Moka","localName":"Moka","labelEnglish":"Moka","labelLocal":"Moka","labelBoth":"Moka","type":"District","iso":"MU-MO","qid":"Q911643"},"geometry":{"type":"Point","coordinates":[57.5955,-20.2492]}},{"type":"Feature","id":"MUS-5188","properties":{"kind":"division","code":"MUS-5188","countryCode":"MUS","name":"Plaines Wilhems","localName":"Plaines Wilhems","labelEnglish":"Plaines Wilhems","labelLocal":"Plaines Wilhems","labelBoth":"Plaines Wilhems","type":"District","iso":"MU-PW","qid":"Q1053595"},"geometry":{"type":"Polygon","coordinates":[[[57.5997,-20.3434],[57.4859,-20.1909],[57.4708,-20.1888],[57.4597,-20.2191],[57.4948,-20.2485],[57.5112,-20.2766],[57.5288,-20.2965],[57.5545,-20.3264],[57.4831,-20.3221],[57.471,-20.3288],[57.487,-20.4229],[57.546,-20.4025],[57.5997,-20.3434]]]}},{"type":"Feature","id":"label-MUS-5188","properties":{"kind":"division-label","code":"MUS-5188","countryCode":"MUS","name":"Plaines Wilhems","localName":"Plaines Wilhems","labelEnglish":"Plaines Wilhems","labelLocal":"Plaines Wilhems","labelBoth":"Plaines Wilhems","type":"District","iso":"MU-PW","qid":"Q1053595"},"geometry":{"type":"Point","coordinates":[57.5197,-20.3599]}},{"type":"Feature","id":"MUS-5181","properties":{"kind":"division","code":"MUS-5181","countryCode":"MUS","name":"Beau Bassin-Rose Hill","localName":"Beau Bassin-Rose Hill","labelEnglish":"Beau Bassin-Rose Hill","labelLocal":"Beau Bassin-Rose Hill","labelBoth":"Beau Bassin-Rose Hill","type":"City","iso":"MU-BR","qid":"Q813337"},"geometry":{"type":"Polygon","coordinates":[[[57.457,-20.2561],[57.4948,-20.2485],[57.4597,-20.2191],[57.457,-20.2561]]]}},{"type":"Feature","id":"label-MUS-5181","properties":{"kind":"division-label","code":"MUS-5181","countryCode":"MUS","name":"Beau Bassin-Rose Hill","localName":"Beau Bassin-Rose Hill","labelEnglish":"Beau Bassin-Rose Hill","labelLocal":"Beau Bassin-Rose Hill","labelBoth":"Beau Bassin-Rose Hill","type":"City","iso":"MU-BR","qid":"Q813337"},"geometry":{"type":"Point","coordinates":[57.4713,-20.2387]}},{"type":"Feature","id":"MUS-5189","properties":{"kind":"division","code":"MUS-5189","countryCode":"MUS","name":"Port Louis","localName":"Port Louis","labelEnglish":"Port Louis","labelLocal":"Port Louis","labelBoth":"Port Louis","type":"City","iso":"MU-PL","qid":"Q960645"},"geometry":{"type":"Polygon","coordinates":[[[57.4708,-20.1888],[57.4859,-20.1909],[57.5463,-20.202],[57.4993,-20.1232],[57.4654,-20.1675],[57.4708,-20.1888]]]}},{"type":"Feature","id":"label-MUS-5189","properties":{"kind":"division-label","code":"MUS-5189","countryCode":"MUS","name":"Port Louis","localName":"Port Louis","labelEnglish":"Port Louis","labelLocal":"Port Louis","labelBoth":"Port Louis","type":"City","iso":"MU-PL","qid":"Q960645"},"geometry":{"type":"Point","coordinates":[57.5296,-20.1667]}},{"type":"Feature","id":"MUS-5191","properties":{"kind":"division","code":"MUS-5191","countryCode":"MUS","name":"Quatre Bornes","localName":"Quatre Bornes","labelEnglish":"Quatre Bornes","labelLocal":"Quatre Bornes","labelBoth":"Quatre Bornes","type":"City","iso":"MU-QB","qid":"Q1341194"},"geometry":{"type":"Polygon","coordinates":[[[57.4592,-20.2909],[57.5112,-20.2766],[57.4948,-20.2485],[57.457,-20.2561],[57.4592,-20.2909]]]}},{"type":"Feature","id":"label-MUS-5191","properties":{"kind":"division-label","code":"MUS-5191","countryCode":"MUS","name":"Quatre Bornes","localName":"Quatre Bornes","labelEnglish":"Quatre Bornes","labelLocal":"Quatre Bornes","labelBoth":"Quatre Bornes","type":"City","iso":"MU-QB","qid":"Q1341194"},"geometry":{"type":"Point","coordinates":[57.4801,-20.2688]}},{"type":"Feature","id":"MUS-5196","properties":{"kind":"division","code":"MUS-5196","countryCode":"MUS","name":"Vacoas-Phoenix","localName":"Vacoas-Phoenix","labelEnglish":"Vacoas-Phoenix","labelLocal":"Vacoas-Phoenix","labelBoth":"Vacoas-Phoenix","type":"City","iso":"MU-VP","qid":"Q676724"},"geometry":{"type":"Polygon","coordinates":[[[57.471,-20.3288],[57.4831,-20.3221],[57.5288,-20.2965],[57.5112,-20.2766],[57.4592,-20.2909],[57.471,-20.3288]]]}},{"type":"Feature","id":"label-MUS-5196","properties":{"kind":"division-label","code":"MUS-5196","countryCode":"MUS","name":"Vacoas-Phoenix","localName":"Vacoas-Phoenix","labelEnglish":"Vacoas-Phoenix","labelLocal":"Vacoas-Phoenix","labelBoth":"Vacoas-Phoenix","type":"City","iso":"MU-VP","qid":"Q676724"},"geometry":{"type":"Point","coordinates":[57.4908,-20.3024]}},{"type":"Feature","id":"MUS-5183","properties":{"kind":"division","code":"MUS-5183","countryCode":"MUS","name":"Curepipe","localName":"Curepipe","labelEnglish":"Curepipe","labelLocal":"Curepipe","labelBoth":"Curepipe","type":"City","iso":"MU-CU","qid":"Q1002525"},"geometry":{"type":"Polygon","coordinates":[[[57.4831,-20.3221],[57.5545,-20.3264],[57.5288,-20.2965],[57.4831,-20.3221]]]}},{"type":"Feature","id":"label-MUS-5183","properties":{"kind":"division-label","code":"MUS-5183","countryCode":"MUS","name":"Curepipe","localName":"Curepipe","labelEnglish":"Curepipe","labelLocal":"Curepipe","labelBoth":"Curepipe","type":"City","iso":"MU-CU","qid":"Q1002525"},"geometry":{"type":"Point","coordinates":[57.5168,-20.3183]}}]}