{"type":"FeatureCollection","features":[{"type":"Feature","id":"MWI-1194","properties":{"kind":"division","code":"MWI-1194","countryCode":"MWI","name":"Chitipa","localName":"Chitipa","labelEnglish":"Chitipa","labelLocal":"Chitipa","labelBoth":"Chitipa","type":"District","iso":"MW-CT","qid":"Q1044337"},"geometry":{"type":"Polygon","coordinates":[[[34.0785,-9.5102],[33.9119,-9.718],[33.6501,-9.6109],[33.699,-9.7711],[33.4857,-9.9723],[33.6942,-10.0649],[33.9485,-10.452],[34.0901,-10.5694],[34.6209,-10.5824],[34.5801,-10.5318],[34.4833,-9.9462],[34.0785,-9.5102]]]}},{"type":"Feature","id":"label-MWI-1194","properties":{"kind":"division-label","code":"MWI-1194","countryCode":"MWI","name":"Chitipa","localName":"Chitipa","labelEnglish":"Chitipa","labelLocal":"Chitipa","labelBoth":"Chitipa","type":"District","iso":"MW-CT","qid":"Q1044337"},"geometry":{"type":"Point","coordinates":[33.8876,-10.0267]}},{"type":"Feature","id":"MWI-1903","properties":{"kind":"division","code":"MWI-1903","countryCode":"MWI","name":"Rumphi","localName":"Rumphi","labelEnglish":"Rumphi","labelLocal":"Rumphi","labelBoth":"Rumphi","type":"District","iso":"MW-RU","qid":"Q1044312"},"geometry":{"type":"Polygon","coordinates":[[[34.6209,-10.5824],[34.0901,-10.5694],[33.9485,-10.452],[33.6738,-10.573],[33.291,-10.9751],[33.733,-11.0819],[34.0565,-11.077],[34.2349,-10.9657],[34.6178,-10.9657],[34.6209,-10.5824]]]}},{"type":"Feature","id":"label-MWI-1903","properties":{"kind":"division-label","code":"MWI-1903","countryCode":"MWI","name":"Rumphi","localName":"Rumphi","labelEnglish":"Rumphi","labelLocal":"Rumphi","labelBoth":"Rumphi","type":"District","iso":"MW-RU","qid":"Q1044312"},"geometry":{"type":"Point","coordinates":[33.953,-10.7114]}},{"type":"Feature","id":"MWI-1901","properties":{"kind":"division","code":"MWI-1901","countryCode":"MWI","name":"Nkhata Bay","localName":"Nkhata Bay","labelEnglish":"Nkhata Bay","labelLocal":"Nkhata Bay","labelBoth":"Nkhata Bay","type":"District","iso":"MW-NB","qid":"Q1051505"},"geometry":{"type":"Polygon","coordinates":[[[34.6178,-10.9657],[34.2349,-10.9657],[34.0565,-11.077],[34.1029,-11.4279],[33.7822,-11.6159],[33.8427,-12.1433],[34.3556,-12.2049],[34.6071,-11.5911],[34.9646,-11.5736],[34.7591,-11.3375],[34.6178,-10.9657]]]}},{"type":"Feature","id":"label-MWI-1901","properties":{"kind":"division-label","code":"MWI-1901","countryCode":"MWI","name":"Nkhata Bay","localName":"Nkhata Bay","labelEnglish":"Nkhata Bay","labelLocal":"Nkhata Bay","labelBoth":"Nkhata Bay","type":"District","iso":"MW-NB","qid":"Q1051505"},"geometry":{"type":"Point","coordinates":[34.1604,-11.6281]}},{"type":"Feature","id":"MWI-5509","properties":{"kind":"division","code":"MWI-5509","countryCode":"MWI","name":"Likoma","localName":"Likoma","labelEnglish":"Likoma","labelLocal":"Likoma","labelBoth":"Likoma","type":"District","iso":"MW-LK","qid":"Q740622"},"geometry":{"type":"Polygon","coordinates":[[[34.6941,-12.0004],[34.6562,-12.0972],[34.7325,-12.109],[34.6941,-12.0004]]]}},{"type":"Feature","id":"label-MWI-5509","properties":{"kind":"division-label","code":"MWI-5509","countryCode":"MWI","name":"Likoma","localName":"Likoma","labelEnglish":"Likoma","labelLocal":"Likoma","labelBoth":"Likoma","type":"District","iso":"MW-LK","qid":"Q740622"},"geometry":{"type":"Point","coordinates":[34.706,-12.0727]}},{"type":"Feature","id":"MWI-1873","properties":{"kind":"division","code":"MWI-1873","countryCode":"MWI","name":"Chitipa","localName":"Chitipa","labelEnglish":"Chitipa","labelLocal":"Chitipa","labelBoth":"Chitipa","type":"District","iso":"MW-CT","qid":"Q1044337"},"geometry":{"type":"Polygon","coordinates":[[[32.9209,-9.4079],[32.9747,-9.6013],[33.1754,-9.6023],[33.3656,-9.8988],[33.3175,-10.0821],[33.5333,-10.2312],[33.6738,-10.573],[33.9485,-10.452],[33.6942,-10.0649],[33.4857,-9.9723],[33.699,-9.7711],[33.6501,-9.6109],[33.4042,-9.6049],[32.9209,-9.4079]]]}},{"type":"Feature","id":"label-MWI-1873","properties":{"kind":"division-label","code":"MWI-1873","countryCode":"MWI","name":"Chitipa","localName":"Chitipa","labelEnglish":"Chitipa","labelLocal":"Chitipa","labelBoth":"Chitipa","type":"District","iso":"MW-CT","qid":"Q1044337"},"geometry":{"type":"Point","coordinates":[33.4345,-9.88572]}},{"type":"Feature","id":"MWI-1900","properties":{"kind":"division","code":"MWI-1900","countryCode":"MWI","name":"Mzimba","localName":"Mzimba","labelEnglish":"Mzimba","labelLocal":"Mzimba","labelBoth":"Mzimba","type":"District","iso":"MW-MZ","qid":"Q1045435"},"geometry":{"type":"Polygon","coordinates":[[[33.291,-10.9751],[33.3909,-11.1648],[33.2303,-11.4166],[33.305,-11.644],[33.2527,-12.1395],[33.5139,-12.3743],[33.5765,-12.6484],[33.8351,-12.7096],[34.105,-12.4976],[33.9343,-12.4638],[33.8427,-12.1433],[33.7822,-11.6159],[34.1029,-11.4279],[34.0565,-11.077],[33.733,-11.0819],[33.291,-10.9751]]]}},{"type":"Feature","id":"label-MWI-1900","properties":{"kind":"division-label","code":"MWI-1900","countryCode":"MWI","name":"Mzimba","localName":"Mzimba","labelEnglish":"Mzimba","labelLocal":"Mzimba","labelBoth":"Mzimba","type":"District","iso":"MW-MZ","qid":"Q1045435"},"geometry":{"type":"Point","coordinates":[33.6587,-11.8792]}},{"type":"Feature","id":"MWI-1899","properties":{"kind":"division","code":"MWI-1899","countryCode":"MWI","name":"Kasungu","localName":"Kasungu","labelEnglish":"Kasungu","labelLocal":"Kasungu","labelBoth":"Kasungu","type":"District","iso":"MW-KS","qid":"Q868778"},"geometry":{"type":"Polygon","coordinates":[[[33.5139,-12.3743],[32.9581,-12.7252],[32.9951,-13.1909],[32.9055,-13.3514],[33.1396,-13.3366],[33.3334,-13.6283],[33.4223,-13.4805],[33.6189,-13.234],[33.9209,-13.0228],[33.8351,-12.7096],[33.5765,-12.6484],[33.5139,-12.3743]]]}},{"type":"Feature","id":"label-MWI-1899","properties":{"kind":"division-label","code":"MWI-1899","countryCode":"MWI","name":"Kasungu","localName":"Kasungu","labelEnglish":"Kasungu","labelLocal":"Kasungu","labelBoth":"Kasungu","type":"District","iso":"MW-KS","qid":"Q868778"},"geometry":{"type":"Point","coordinates":[33.4535,-12.9319]}},{"type":"Feature","id":"MWI-1911","properties":{"kind":"division","code":"MWI-1911","countryCode":"MWI","name":"Mchinji","localName":"Mchinji","labelEnglish":"Mchinji","labelLocal":"Mchinji","labelBoth":"Mchinji","type":"District","iso":"MW-MC","qid":"Q868792"},"geometry":{"type":"Polygon","coordinates":[[[32.9055,-13.3514],[32.6751,-13.6281],[32.9998,-14.0505],[33.2027,-14.0139],[33.3571,-14.2306],[33.2544,-13.8253],[33.3334,-13.6283],[33.1396,-13.3366],[32.9055,-13.3514]]]}},{"type":"Feature","id":"label-MWI-1911","properties":{"kind":"division-label","code":"MWI-1911","countryCode":"MWI","name":"Mchinji","localName":"Mchinji","labelEnglish":"Mchinji","labelLocal":"Mchinji","labelBoth":"Mchinji","type":"District","iso":"MW-MC","qid":"Q868792"},"geometry":{"type":"Point","coordinates":[33.0113,-13.696]}},{"type":"Feature","id":"MWI-1902","properties":{"kind":"division","code":"MWI-1902","countryCode":"MWI","name":"Nkhotakota","localName":"Nkhotakota","labelEnglish":"Nkhotakota","labelLocal":"Nkhotakota","labelBoth":"Nkhotakota","type":"District","iso":"MW-NK","qid":"Q687248"},"geometry":{"type":"Polygon","coordinates":[[[34.3556,-12.2049],[33.8427,-12.1433],[33.9343,-12.4638],[34.105,-12.4976],[33.8351,-12.7096],[33.9209,-13.0228],[34.0977,-13.1645],[34.1336,-13.4896],[34.5828,-13.4036],[34.4945,-12.6874],[34.3556,-12.2049]]]}},{"type":"Feature","id":"label-MWI-1902","properties":{"kind":"division-label","code":"MWI-1902","countryCode":"MWI","name":"Nkhotakota","localName":"Nkhotakota","labelEnglish":"Nkhotakota","labelLocal":"Nkhotakota","labelBoth":"Nkhotakota","type":"District","iso":"MW-NK","qid":"Q687248"},"geometry":{"type":"Point","coordinates":[34.1715,-12.8398]}},{"type":"Feature","id":"MWI-1914","properties":{"kind":"division","code":"MWI-1914","countryCode":"MWI","name":"Salima","localName":"Salima","labelEnglish":"Salima","labelLocal":"Salima","labelBoth":"Salima","type":"District","iso":"MW-SA","qid":"Q195353"},"geometry":{"type":"Polygon","coordinates":[[[34.5828,-13.4036],[34.1336,-13.4896],[34.1167,-13.5046],[34.2504,-13.7803],[34.2836,-13.8508],[34.4964,-14.1143],[34.736,-14.0781],[34.8639,-13.5163],[34.5828,-13.4036]]]}},{"type":"Feature","id":"label-MWI-1914","properties":{"kind":"division-label","code":"MWI-1914","countryCode":"MWI","name":"Salima","localName":"Salima","labelEnglish":"Salima","labelLocal":"Salima","labelBoth":"Salima","type":"District","iso":"MW-SA","qid":"Q195353"},"geometry":{"type":"Point","coordinates":[34.4903,-13.7572]}},{"type":"Feature","id":"MWI-1910","properties":{"kind":"division","code":"MWI-1910","countryCode":"MWI","name":"Mangochi","localName":"Mangochi","labelEnglish":"Mangochi","labelLocal":"Mangochi","labelBoth":"Mangochi","type":"District","iso":"MW-MG","qid":"Q722505"},"geometry":{"type":"Polygon","coordinates":[[[34.8639,-13.5163],[34.736,-14.0781],[34.7482,-14.3032],[34.797,-14.555],[34.9903,-14.7554],[35.275,-14.7557],[35.4395,-14.7622],[35.7505,-14.5431],[35.0841,-13.7042],[34.8639,-13.5163]]]}},{"type":"Feature","id":"label-MWI-1910","properties":{"kind":"division-label","code":"MWI-1910","countryCode":"MWI","name":"Mangochi","localName":"Mangochi","labelEnglish":"Mangochi","labelLocal":"Mangochi","labelBoth":"Mangochi","type":"District","iso":"MW-MG","qid":"Q722505"},"geometry":{"type":"Point","coordinates":[35.3501,-14.374]}},{"type":"Feature","id":"MWI-1904","properties":{"kind":"division","code":"MWI-1904","countryCode":"MWI","name":"Machinga","localName":"Machinga","labelEnglish":"Machinga","labelLocal":"Machinga","labelBoth":"Machinga","type":"District","iso":"MW-MH","qid":"Q198585"},"geometry":{"type":"Polygon","coordinates":[[[35.7505,-14.5431],[35.4395,-14.7622],[35.275,-14.7557],[35.1726,-15.2302],[35.7886,-15.2114],[35.9043,-14.8869],[35.7505,-14.5431]]]}},{"type":"Feature","id":"label-MWI-1904","properties":{"kind":"division-label","code":"MWI-1904","countryCode":"MWI","name":"Machinga","localName":"Machinga","labelEnglish":"Machinga","labelLocal":"Machinga","labelBoth":"Machinga","type":"District","iso":"MW-MH","qid":"Q198585"},"geometry":{"type":"Point","coordinates":[35.5384,-14.9533]}},{"type":"Feature","id":"MWI-1907","properties":{"kind":"division","code":"MWI-1907","countryCode":"MWI","name":"Dedza","localName":"Dedza","labelEnglish":"Dedza","labelLocal":"Dedza","labelBoth":"Dedza","type":"District","iso":"MW-DE","qid":"Q667153"},"geometry":{"type":"Polygon","coordinates":[[[33.6184,-14.5618],[34.3804,-14.4136],[34.7482,-14.3032],[34.736,-14.0781],[34.4964,-14.1143],[34.2836,-13.8508],[33.9418,-14.2823],[33.6184,-14.5618]]]}},{"type":"Feature","id":"label-MWI-1907","properties":{"kind":"division-label","code":"MWI-1907","countryCode":"MWI","name":"Dedza","localName":"Dedza","labelEnglish":"Dedza","labelLocal":"Dedza","labelBoth":"Dedza","type":"District","iso":"MW-DE","qid":"Q667153"},"geometry":{"type":"Point","coordinates":[34.1833,-14.2064]}},{"type":"Feature","id":"MWI-1909","properties":{"kind":"division","code":"MWI-1909","countryCode":"MWI","name":"Lilongwe","localName":"Lilongwe","labelEnglish":"Lilongwe","labelLocal":"Lilongwe","labelBoth":"Lilongwe","type":"District","iso":"MW-LI","qid":"Q1058453"},"geometry":{"type":"Polygon","coordinates":[[[33.6184,-14.5618],[33.9418,-14.2823],[34.2836,-13.8508],[34.2504,-13.7803],[34.0495,-13.8234],[33.7548,-13.6621],[33.467,-13.6652],[33.4223,-13.4805],[33.3334,-13.6283],[33.2544,-13.8253],[33.3571,-14.2306],[33.6184,-14.5618]]]}},{"type":"Feature","id":"label-MWI-1909","properties":{"kind":"division-label","code":"MWI-1909","countryCode":"MWI","name":"Lilongwe","localName":"Lilongwe","labelEnglish":"Lilongwe","labelLocal":"Lilongwe","labelBoth":"Lilongwe","type":"District","iso":"MW-LI","qid":"Q1058453"},"geometry":{"type":"Point","coordinates":[33.7683,-14.0415]}},{"type":"Feature","id":"MWI-1919","properties":{"kind":"division","code":"MWI-1919","countryCode":"MWI","name":"Nsanje","localName":"Nsanje","labelEnglish":"Nsanje","labelLocal":"Nsanje","labelBoth":"Nsanje","type":"District","iso":"MW-NS","qid":"Q198587"},"geometry":{"type":"Polygon","coordinates":[[[34.8866,-16.7008],[35.0958,-16.8173],[35.0813,-17.1241],[35.2917,-17.1294],[35.2782,-16.7007],[35.1319,-16.5376],[35.2373,-16.3991],[35.0961,-16.3314],[34.8866,-16.7008]]]}},{"type":"Feature","id":"label-MWI-1919","properties":{"kind":"division-label","code":"MWI-1919","countryCode":"MWI","name":"Nsanje","localName":"Nsanje","labelEnglish":"Nsanje","labelLocal":"Nsanje","labelBoth":"Nsanje","type":"District","iso":"MW-NS","qid":"Q198587"},"geometry":{"type":"Point","coordinates":[35.1003,-17.0479]}},{"type":"Feature","id":"MWI-1916","properties":{"kind":"division","code":"MWI-1916","countryCode":"MWI","name":"Chikwawa","localName":"Chikwawa","labelEnglish":"Chikwawa","labelLocal":"Chikwawa","labelBoth":"Chikwawa","type":"District","iso":"MW-CK","qid":"Q722509"},"geometry":{"type":"Polygon","coordinates":[[[34.8866,-16.7008],[35.0961,-16.3314],[34.8916,-16.0267],[34.7498,-15.8122],[34.3422,-15.7303],[34.2332,-15.8898],[34.3852,-16.1865],[34.8866,-16.7008]]]}},{"type":"Feature","id":"label-MWI-1916","properties":{"kind":"division-label","code":"MWI-1916","countryCode":"MWI","name":"Chikwawa","localName":"Chikwawa","labelEnglish":"Chikwawa","labelLocal":"Chikwawa","labelBoth":"Chikwawa","type":"District","iso":"MW-CK","qid":"Q722509"},"geometry":{"type":"Point","coordinates":[34.6636,-16.1524]}},{"type":"Feature","id":"MWI-1922","properties":{"kind":"division","code":"MWI-1922","countryCode":"MWI","name":"Mwanza","localName":"Mwanza","labelEnglish":"Mwanza","labelLocal":"Mwanza","labelBoth":"Mwanza","type":"District","iso":"MW-MW","qid":"Q797933"},"geometry":{"type":"Polygon","coordinates":[[[34.3422,-15.7303],[34.7498,-15.8122],[34.763,-15.6107],[34.4191,-15.5753],[34.3422,-15.7303]]]}},{"type":"Feature","id":"label-MWI-1922","properties":{"kind":"division-label","code":"MWI-1922","countryCode":"MWI","name":"Mwanza","localName":"Mwanza","labelEnglish":"Mwanza","labelLocal":"Mwanza","labelBoth":"Mwanza","type":"District","iso":"MW-MW","qid":"Q797933"},"geometry":{"type":"Point","coordinates":[34.5126,-15.6394]}},{"type":"Feature","id":"MWI-5510","properties":{"kind":"division","code":"MWI-5510","countryCode":"MWI","name":"Neno","localName":"Neno","labelEnglish":"Neno","labelLocal":"Neno","labelBoth":"Neno","type":"District","iso":"MW-NE","qid":"Q1195298"},"geometry":{"type":"Polygon","coordinates":[[[34.4191,-15.5753],[34.763,-15.6107],[35.0111,-15.351],[35.0546,-15.3246],[34.8431,-15.3137],[34.5591,-15.2002],[34.4191,-15.5753]]]}},{"type":"Feature","id":"label-MWI-5510","properties":{"kind":"division-label","code":"MWI-5510","countryCode":"MWI","name":"Neno","localName":"Neno","labelEnglish":"Neno","labelLocal":"Neno","labelBoth":"Neno","type":"District","iso":"MW-NE","qid":"Q1195298"},"geometry":{"type":"Point","coordinates":[34.6946,-15.4366]}},{"type":"Feature","id":"MWI-1912","properties":{"kind":"division","code":"MWI-1912","countryCode":"MWI","name":"Ntcheu","localName":"Ntcheu","labelEnglish":"Ntcheu","labelLocal":"Ntcheu","labelBoth":"Ntcheu","type":"District","iso":"MW-NU","qid":"Q797937"},"geometry":{"type":"Polygon","coordinates":[[[34.5591,-15.2002],[34.8431,-15.3137],[34.9903,-14.7554],[34.797,-14.555],[34.7482,-14.3032],[34.3804,-14.4136],[34.5018,-14.5757],[34.5591,-15.2002]]]}},{"type":"Feature","id":"label-MWI-1912","properties":{"kind":"division-label","code":"MWI-1912","countryCode":"MWI","name":"Ntcheu","localName":"Ntcheu","labelEnglish":"Ntcheu","labelLocal":"Ntcheu","labelBoth":"Ntcheu","type":"District","iso":"MW-NU","qid":"Q797937"},"geometry":{"type":"Point","coordinates":[34.6861,-14.7843]}},{"type":"Feature","id":"MWI-1920","properties":{"kind":"division","code":"MWI-1920","countryCode":"MWI","name":"Zomba","localName":"Zomba","labelEnglish":"Zomba","labelLocal":"Zomba","labelBoth":"Zomba","type":"District","iso":"MW-ZO","qid":"Q1058442"},"geometry":{"type":"Polygon","coordinates":[[[35.7886,-15.2114],[35.1726,-15.2302],[35.0546,-15.3246],[35.0111,-15.351],[35.1424,-15.5373],[35.3407,-15.6834],[35.5266,-15.6067],[35.8376,-15.4592],[35.8376,-15.4583],[35.7886,-15.2114]]]}},{"type":"Feature","id":"label-MWI-1920","properties":{"kind":"division-label","code":"MWI-1920","countryCode":"MWI","name":"Zomba","localName":"Zomba","labelEnglish":"Zomba","labelLocal":"Zomba","labelBoth":"Zomba","type":"District","iso":"MW-ZO","qid":"Q1058442"},"geometry":{"type":"Point","coordinates":[35.4256,-15.4526]}},{"type":"Feature","id":"MWI-1924","properties":{"kind":"division","code":"MWI-1924","countryCode":"MWI","name":"Phalombe","localName":"Phalombe","labelEnglish":"Phalombe","labelLocal":"Phalombe","labelBoth":"Phalombe","type":"District","iso":"MW-PH","qid":"Q538991"},"geometry":{"type":"Polygon","coordinates":[[[35.8376,-15.4592],[35.5266,-15.6067],[35.6006,-15.9355],[35.7966,-15.9332],[35.8376,-15.4592]]]}},{"type":"Feature","id":"label-MWI-1924","properties":{"kind":"division-label","code":"MWI-1924","countryCode":"MWI","name":"Phalombe","localName":"Phalombe","labelEnglish":"Phalombe","labelLocal":"Phalombe","labelBoth":"Phalombe","type":"District","iso":"MW-PH","qid":"Q538991"},"geometry":{"type":"Point","coordinates":[35.667,-15.6883]}},{"type":"Feature","id":"MWI-1923","properties":{"kind":"division","code":"MWI-1923","countryCode":"MWI","name":"Mulanje","localName":"Mulanje","labelEnglish":"Mulanje","labelLocal":"Mulanje","labelBoth":"Mulanje","type":"District","iso":"MW-MU","qid":"Q509097"},"geometry":{"type":"Polygon","coordinates":[[[35.7966,-15.9332],[35.6006,-15.9355],[35.5266,-15.6067],[35.3407,-15.6834],[35.3104,-16.0053],[35.2992,-16.2087],[35.6976,-16.1075],[35.7966,-15.9332]]]}},{"type":"Feature","id":"label-MWI-1923","properties":{"kind":"division-label","code":"MWI-1923","countryCode":"MWI","name":"Mulanje","localName":"Mulanje","labelEnglish":"Mulanje","labelLocal":"Mulanje","labelBoth":"Mulanje","type":"District","iso":"MW-MU","qid":"Q509097"},"geometry":{"type":"Point","coordinates":[35.5397,-15.9868]}},{"type":"Feature","id":"MWI-1918","properties":{"kind":"division","code":"MWI-1918","countryCode":"MWI","name":"Thyolo","localName":"Thyolo","labelEnglish":"Thyolo","labelLocal":"Thyolo","labelBoth":"Thyolo","type":"District","iso":"MW-TH","qid":"Q722515"},"geometry":{"type":"Polygon","coordinates":[[[35.2992,-16.2087],[35.3104,-16.0053],[35.1463,-15.8609],[34.8916,-16.0267],[35.0961,-16.3314],[35.2373,-16.3991],[35.2992,-16.2087]]]}},{"type":"Feature","id":"label-MWI-1918","properties":{"kind":"division-label","code":"MWI-1918","countryCode":"MWI","name":"Thyolo","localName":"Thyolo","labelEnglish":"Thyolo","labelLocal":"Thyolo","labelBoth":"Thyolo","type":"District","iso":"MW-TH","qid":"Q722515"},"geometry":{"type":"Point","coordinates":[35.1071,-16.1135]}},{"type":"Feature","id":"MWI-1908","properties":{"kind":"division","code":"MWI-1908","countryCode":"MWI","name":"Dowa","localName":"Dowa","labelEnglish":"Dowa","labelLocal":"Dowa","labelBoth":"Dowa","type":"District","iso":"MW-DO","qid":"Q195356"},"geometry":{"type":"Polygon","coordinates":[[[34.1167,-13.5046],[33.7478,-13.4933],[33.6189,-13.234],[33.4223,-13.4805],[33.467,-13.6652],[33.7548,-13.6621],[34.0495,-13.8234],[34.2504,-13.7803],[34.1167,-13.5046]]]}},{"type":"Feature","id":"label-MWI-1908","properties":{"kind":"division-label","code":"MWI-1908","countryCode":"MWI","name":"Dowa","localName":"Dowa","labelEnglish":"Dowa","labelLocal":"Dowa","labelBoth":"Dowa","type":"District","iso":"MW-DO","qid":"Q195356"},"geometry":{"type":"Point","coordinates":[33.8651,-13.625]}},{"type":"Feature","id":"MWI-1915","properties":{"kind":"division","code":"MWI-1915","countryCode":"MWI","name":"Balaka","localName":"Balaka","labelEnglish":"Balaka","labelLocal":"Balaka","labelBoth":"Balaka","type":"District","iso":"MW-BA","qid":"Q870044"},"geometry":{"type":"Polygon","coordinates":[[[35.1726,-15.2302],[35.275,-14.7557],[34.9903,-14.7554],[34.8431,-15.3137],[35.0546,-15.3246],[35.1726,-15.2302]]]}},{"type":"Feature","id":"label-MWI-1915","properties":{"kind":"division-label","code":"MWI-1915","countryCode":"MWI","name":"Balaka","localName":"Balaka","labelEnglish":"Balaka","labelLocal":"Balaka","labelBoth":"Balaka","type":"District","iso":"MW-BA","qid":"Q870044"},"geometry":{"type":"Point","coordinates":[35.0792,-15.037]}},{"type":"Feature","id":"MWI-1917","properties":{"kind":"division","code":"MWI-1917","countryCode":"MWI","name":"Chiradzulu","localName":"Chiradzulu","labelEnglish":"Chiradzulu","labelLocal":"Chiradzulu","labelBoth":"Chiradzulu","type":"District","iso":"MW-CR","qid":"Q722501"},"geometry":{"type":"Polygon","coordinates":[[[35.3407,-15.6834],[35.1424,-15.5373],[35.1463,-15.8609],[35.3104,-16.0053],[35.3407,-15.6834]]]}},{"type":"Feature","id":"label-MWI-1917","properties":{"kind":"division-label","code":"MWI-1917","countryCode":"MWI","name":"Chiradzulu","localName":"Chiradzulu","labelEnglish":"Chiradzulu","labelLocal":"Chiradzulu","labelBoth":"Chiradzulu","type":"District","iso":"MW-CR","qid":"Q722501"},"geometry":{"type":"Point","coordinates":[35.2224,-15.7358]}},{"type":"Feature","id":"MWI-1921","properties":{"kind":"division","code":"MWI-1921","countryCode":"MWI","name":"Blantyre","localName":"Blantyre","labelEnglish":"Blantyre","labelLocal":"Blantyre","labelBoth":"Blantyre","type":"District","iso":"MW-BL","qid":"Q1059262"},"geometry":{"type":"Polygon","coordinates":[[[35.1424,-15.5373],[35.0111,-15.351],[34.763,-15.6107],[34.7498,-15.8122],[34.8916,-16.0267],[35.1463,-15.8609],[35.1424,-15.5373]]]}},{"type":"Feature","id":"label-MWI-1921","properties":{"kind":"division-label","code":"MWI-1921","countryCode":"MWI","name":"Blantyre","localName":"Blantyre","labelEnglish":"Blantyre","labelLocal":"Blantyre","labelBoth":"Blantyre","type":"District","iso":"MW-BL","qid":"Q1059262"},"geometry":{"type":"Point","coordinates":[34.9413,-15.6875]}},{"type":"Feature","id":"MWI-1913","properties":{"kind":"division","code":"MWI-1913","countryCode":"MWI","name":"Ntchisi","localName":"Ntchisi","labelEnglish":"Ntchisi","labelLocal":"Ntchisi","labelBoth":"Ntchisi","type":"District","iso":"MW-NI","qid":"Q798235"},"geometry":{"type":"Polygon","coordinates":[[[33.9209,-13.0228],[33.6189,-13.234],[33.7478,-13.4933],[34.1167,-13.5046],[34.1336,-13.4896],[34.0977,-13.1645],[33.9209,-13.0228]]]}},{"type":"Feature","id":"label-MWI-1913","properties":{"kind":"division-label","code":"MWI-1913","countryCode":"MWI","name":"Ntchisi","localName":"Ntchisi","labelEnglish":"Ntchisi","labelLocal":"Ntchisi","labelBoth":"Ntchisi","type":"District","iso":"MW-NI","qid":"Q798235"},"geometry":{"type":"Point","coordinates":[33.8763,-13.2659]}}]}