{"type":"FeatureCollection","features":[{"type":"Feature","id":"MYS-1186","properties":{"kind":"division","code":"MYS-1186","countryCode":"MYS","name":"Sabah","localName":"Sabah","labelEnglish":"Sabah","labelLocal":"Sabah","labelBoth":"Sabah","type":"State","iso":"MY-12","qid":"Q179029"},"geometry":{"type":"Polygon","coordinates":[[[115.6391,4.146],[115.8441,4.3892],[116.3911,4.2947],[116.7117,4.3668],[117.2172,4.3534],[117.5671,4.1597],[117.6712,4.426],[117.8923,4.257],[118.5428,4.36],[118.6453,4.444],[118.1365,4.8823],[118.3572,5.0388],[118.6815,4.9443],[119.2671,5.2011],[119.2048,5.4433],[118.9483,5.3886],[118.4107,5.7961],[118.134,5.6896],[117.9085,5.7847],[118.1252,5.8639],[118.0169,6.061],[117.7743,5.908],[117.6004,6.1978],[117.7438,6.3899],[117.5337,6.621],[117.3089,6.6288],[117.1438,7.0037],[116.8245,6.5817],[116.7774,7.0268],[116.5032,6.4952],[116.106,6.1265],[116.0508,5.8423],[115.8486,5.56],[115.5852,5.6162],[115.3596,5.3196],[115.6052,5.2121],[115.4216,4.9623],[115.6225,4.9578],[115.5598,4.5869],[115.6391,4.146]]]}},{"type":"Feature","id":"label-MYS-1186","properties":{"kind":"division-label","code":"MYS-1186","countryCode":"MYS","name":"Sabah","localName":"Sabah","labelEnglish":"Sabah","labelLocal":"Sabah","labelBoth":"Sabah","type":"State","iso":"MY-12","qid":"Q179029"},"geometry":{"type":"Point","coordinates":[117.095,5.31115]}},{"type":"Feature","id":"MYS-1141","properties":{"kind":"division","code":"MYS-1141","countryCode":"MYS","name":"Perlis","localName":"Perlis","labelEnglish":"Perlis","labelLocal":"Perlis","labelBoth":"Perlis","type":"State","iso":"MY-09","qid":"Q213467"},"geometry":{"type":"Polygon","coordinates":[[[100.1992,6.6994],[100.1273,6.4423],[100.1987,6.2605],[100.3777,6.5268],[100.1992,6.6994]]]}},{"type":"Feature","id":"label-MYS-1141","properties":{"kind":"division-label","code":"MYS-1141","countryCode":"MYS","name":"Perlis","localName":"Perlis","labelEnglish":"Perlis","labelLocal":"Perlis","labelBoth":"Perlis","type":"State","iso":"MY-09","qid":"Q213467"},"geometry":{"type":"Point","coordinates":[100.253,6.52169]}},{"type":"Feature","id":"MYS-1140","properties":{"kind":"division","code":"MYS-1140","countryCode":"MYS","name":"Kedah","localName":"Kedah","labelEnglish":"Kedah","labelLocal":"Kedah","labelBoth":"Kedah","type":"State","iso":"MY-02","qid":"Q188947"},"geometry":{"type":"MultiPolygon","coordinates":[[[[100.3777,6.5268],[100.1987,6.2605],[100.3491,6.0127],[100.3543,5.569],[100.5332,5.5498],[100.5037,5.1342],[100.5571,5.0809],[100.9469,5.5506],[100.9724,5.7729],[101.0817,6.2465],[100.8237,6.2986],[100.8056,6.4148],[100.3777,6.5268]]],[[[99.9006,6.3643],[99.6452,6.4358],[99.7287,6.2615],[99.9006,6.3643]]]]}},{"type":"Feature","id":"label-MYS-1140","properties":{"kind":"division-label","code":"MYS-1140","countryCode":"MYS","name":"Kedah","localName":"Kedah","labelEnglish":"Kedah","labelLocal":"Kedah","labelBoth":"Kedah","type":"State","iso":"MY-02","qid":"Q188947"},"geometry":{"type":"Point","coordinates":[100.647,5.80958]}},{"type":"Feature","id":"MYS-1144","properties":{"kind":"division","code":"MYS-1144","countryCode":"MYS","name":"Kelantan","localName":"Kelantan","labelEnglish":"Kelantan","labelLocal":"Kelantan","labelBoth":"Kelantan","type":"State","iso":"MY-03","qid":"Q185944"},"geometry":{"type":"Polygon","coordinates":[[[102.0731,6.2575],[102.06,6.0948],[101.8005,5.7399],[101.6976,5.7671],[101.7471,5.3625],[101.532,5.2743],[101.3791,4.6128],[101.6601,4.5674],[101.7768,4.7369],[102.1996,4.6438],[102.6606,4.7684],[102.4148,5.18],[102.3863,5.686],[102.542,5.8548],[102.3799,6.133],[102.0731,6.2575]]]}},{"type":"Feature","id":"label-MYS-1144","properties":{"kind":"division-label","code":"MYS-1144","countryCode":"MYS","name":"Kelantan","localName":"Kelantan","labelEnglish":"Kelantan","labelLocal":"Kelantan","labelBoth":"Kelantan","type":"State","iso":"MY-03","qid":"Q185944"},"geometry":{"type":"Point","coordinates":[102.005,5.40349]}},{"type":"Feature","id":"MYS-1137","properties":{"kind":"division","code":"MYS-1137","countryCode":"MYS","name":"Perak","localName":"Perak","labelEnglish":"Perak","labelLocal":"Perak","labelBoth":"Perak","type":"State","iso":"MY-08","qid":"Q188953"},"geometry":{"type":"Polygon","coordinates":[[[100.9724,5.7729],[100.9469,5.5506],[100.5571,5.0809],[100.5037,5.1342],[100.4041,5.1202],[100.5774,4.8543],[100.5654,4.3192],[100.7761,4.0865],[100.8406,3.8428],[101.2562,3.6727],[101.348,3.7931],[101.6269,3.7718],[101.5849,4.082],[101.342,4.4315],[101.3791,4.6128],[101.532,5.2743],[101.7471,5.3625],[101.6976,5.7671],[101.5002,5.8927],[101.1054,5.6376],[100.9724,5.7729]]]}},{"type":"Feature","id":"label-MYS-1137","properties":{"kind":"division-label","code":"MYS-1137","countryCode":"MYS","name":"Perak","localName":"Perak","labelEnglish":"Perak","labelLocal":"Perak","labelBoth":"Perak","type":"State","iso":"MY-08","qid":"Q188953"},"geometry":{"type":"Point","coordinates":[101.059,4.74737]}},{"type":"Feature","id":"MYS-1187","properties":{"kind":"division","code":"MYS-1187","countryCode":"MYS","name":"Sarawak","localName":"Sarawak","labelEnglish":"Sarawak","labelLocal":"Sarawak","labelBoth":"Sarawak","type":"State","iso":"MY-13","qid":"Q170462"},"geometry":{"type":"MultiPolygon","coordinates":[[[[115.1462,4.9085],[115.3607,4.3296],[115.113,4.3824],[115.0298,4.8206],[114.9817,4.8891],[114.7432,4.7306],[114.7942,4.3002],[114.5866,4.0214],[114.2456,4.4814],[113.9988,4.6011],[113.9468,4.2738],[113.4343,3.7532],[113.0078,3.1617],[112.0135,2.8859],[111.6696,2.8431],[111.4403,2.6801],[111.4046,2.484],[111.4483,2.3724],[111.3655,2.3408],[111.2463,2.4361],[111.2113,2.0739],[111.0068,1.5551],[110.4656,1.6206],[110.5208,1.723],[109.9277,1.6923],[109.6546,1.937],[109.6453,2.0832],[109.5284,1.89],[109.8428,1.4033],[110.1704,1.1745],[110.2635,0.9943],[110.5539,0.8514],[111.1976,1.0752],[111.8231,1.0085],[112.1001,1.1549],[112.1801,1.449],[112.4705,1.5677],[113.0234,1.537],[113.089,1.4313],[113.6495,1.2333],[113.9097,1.4425],[114.2074,1.4394],[114.5006,1.436],[114.832,1.9025],[114.7788,2.2472],[115.2061,2.5099],[115.0669,2.8282],[115.2421,3.0416],[115.4641,3.0308],[115.6006,3.4412],[115.5383,3.8978],[115.6391,4.146],[115.5598,4.5869],[115.6225,4.9578],[115.4216,4.9623],[115.1462,4.9085]]],[[[111.4114,2.3911],[111.381,2.6979],[111.3154,2.7845],[111.3081,2.4521],[111.4114,2.3911]]]]}},{"type":"Feature","id":"label-MYS-1187","properties":{"kind":"division-label","code":"MYS-1187","countryCode":"MYS","name":"Sarawak","localName":"Sarawak","labelEnglish":"Sarawak","labelLocal":"Sarawak","labelBoth":"Sarawak","type":"State","iso":"MY-13","qid":"Q170462"},"geometry":{"type":"Point","coordinates":[113.344,2.44952]}},{"type":"Feature","id":"MYS-1139","properties":{"kind":"division","code":"MYS-1139","countryCode":"MYS","name":"Penang","localName":"Penang","labelEnglish":"Penang","labelLocal":"Penang","labelBoth":"Penang","type":"State","iso":"MY-07","qid":"Q188096"},"geometry":{"type":"Polygon","coordinates":[[[100.4041,5.1202],[100.5037,5.1342],[100.5332,5.5498],[100.3543,5.569],[100.4041,5.1202]]]}},{"type":"Feature","id":"label-MYS-1139","properties":{"kind":"division-label","code":"MYS-1139","countryCode":"MYS","name":"Penang","localName":"Penang","labelEnglish":"Penang","labelLocal":"Penang","labelBoth":"Penang","type":"State","iso":"MY-07","qid":"Q188096"},"geometry":{"type":"Point","coordinates":[100.261,5.36839]}},{"type":"Feature","id":"MYS-1148","properties":{"kind":"division","code":"MYS-1148","countryCode":"MYS","name":"Selangor","localName":"Selangor","labelEnglish":"Selangor","labelLocal":"Selangor","labelBoth":"Selangor","type":"State","iso":"MY-10","qid":"Q189710"},"geometry":{"type":"Polygon","coordinates":[[[101.7212,2.5959],[101.7595,2.8628],[101.9645,3.0371],[101.916,3.2606],[101.765,3.3733],[101.8134,3.5976],[101.6269,3.7718],[101.348,3.7931],[101.2562,3.6727],[100.8406,3.8428],[101.2976,3.2746],[101.3728,3.0023],[101.2864,2.8497],[101.7212,2.5959]],[[101.7164,3.2061],[101.7523,3.0578],[101.6224,3.1821],[101.7164,3.2061]],[[101.6815,2.8742],[101.6739,2.9661],[101.7304,2.9289],[101.6815,2.8742]]]}},{"type":"Feature","id":"label-MYS-1148","properties":{"kind":"division-label","code":"MYS-1148","countryCode":"MYS","name":"Selangor","localName":"Selangor","labelEnglish":"Selangor","labelLocal":"Selangor","labelBoth":"Selangor","type":"State","iso":"MY-10","qid":"Q189710"},"geometry":{"type":"Point","coordinates":[101.428,3.3078]}},{"type":"Feature","id":"MYS-1146","properties":{"kind":"division","code":"MYS-1146","countryCode":"MYS","name":"Negeri Sembilan","localName":"Negeri Sembilan","labelEnglish":"Negeri Sembilan","labelLocal":"Negeri Sembilan","labelBoth":"Negeri Sembilan","type":"State","iso":"MY-05","qid":"Q213893"},"geometry":{"type":"Polygon","coordinates":[[[101.9885,2.3913],[102.1838,2.4918],[102.5994,2.4217],[102.7046,2.839],[102.3886,3.1179],[101.916,3.2606],[101.9645,3.0371],[101.7595,2.8628],[101.7212,2.5959],[101.9885,2.3913]]]}},{"type":"Feature","id":"label-MYS-1146","properties":{"kind":"division-label","code":"MYS-1146","countryCode":"MYS","name":"Negeri Sembilan","localName":"Negeri Sembilan","labelEnglish":"Negeri Sembilan","labelLocal":"Negeri Sembilan","labelBoth":"Negeri Sembilan","type":"State","iso":"MY-05","qid":"Q213893"},"geometry":{"type":"Point","coordinates":[102.149,2.70857]}},{"type":"Feature","id":"MYS-1145","properties":{"kind":"division","code":"MYS-1145","countryCode":"MYS","name":"Melaka","localName":"Melaka","labelEnglish":"Melaka","labelLocal":"Melaka","labelBoth":"Melaka","type":"State","iso":"MY-04","qid":"Q185221"},"geometry":{"type":"Polygon","coordinates":[[[102.4889,2.093],[102.5994,2.4217],[102.1838,2.4918],[101.9885,2.3913],[102.4889,2.093]]]}},{"type":"Feature","id":"label-MYS-1145","properties":{"kind":"division-label","code":"MYS-1145","countryCode":"MYS","name":"Melaka","localName":"Melaka","labelEnglish":"Melaka","labelLocal":"Melaka","labelBoth":"Melaka","type":"State","iso":"MY-04","qid":"Q185221"},"geometry":{"type":"Point","coordinates":[102.293,2.32162]}},{"type":"Feature","id":"MYS-1143","properties":{"kind":"division","code":"MYS-1143","countryCode":"MYS","name":"Johor","localName":"Johor","labelEnglish":"Johor","labelLocal":"Johor","labelBoth":"Johor","type":"State","iso":"MY-01","qid":"Q183032"},"geometry":{"type":"Polygon","coordinates":[[[103.6403,2.6713],[103.6099,2.4492],[103.3645,2.5939],[103.1587,2.5298],[102.7046,2.839],[102.5994,2.4217],[102.4889,2.093],[103.3674,1.5384],[103.5164,1.2705],[103.6814,1.4418],[103.9745,1.4198],[104.0083,1.5487],[104.1062,1.3752],[104.2947,1.4465],[104.1953,1.7987],[103.7671,2.6238],[103.6403,2.6713]]]}},{"type":"Feature","id":"label-MYS-1143","properties":{"kind":"division-label","code":"MYS-1143","countryCode":"MYS","name":"Johor","localName":"Johor","labelEnglish":"Johor","labelLocal":"Johor","labelBoth":"Johor","type":"State","iso":"MY-01","qid":"Q183032"},"geometry":{"type":"Point","coordinates":[103.412,2.00649]}},{"type":"Feature","id":"MYS-1147","properties":{"kind":"division","code":"MYS-1147","countryCode":"MYS","name":"Pahang","localName":"Pahang","labelEnglish":"Pahang","labelLocal":"Pahang","labelBoth":"Pahang","type":"State","iso":"MY-06","qid":"Q191346"},"geometry":{"type":"Polygon","coordinates":[[[103.4428,4.169],[103.2363,4.0192],[102.9033,4.1369],[103.0253,4.3997],[102.6606,4.7684],[102.1996,4.6438],[101.7768,4.7369],[101.6601,4.5674],[101.3791,4.6128],[101.342,4.4315],[101.5849,4.082],[101.6269,3.7718],[101.8134,3.5976],[101.765,3.3733],[101.916,3.2606],[102.3886,3.1179],[102.7046,2.839],[103.1587,2.5298],[103.3645,2.5939],[103.6099,2.4492],[103.6403,2.6713],[103.4346,2.9618],[103.4822,3.5118],[103.3387,3.7582],[103.4428,4.169]]]}},{"type":"Feature","id":"label-MYS-1147","properties":{"kind":"division-label","code":"MYS-1147","countryCode":"MYS","name":"Pahang","localName":"Pahang","labelEnglish":"Pahang","labelLocal":"Pahang","labelBoth":"Pahang","type":"State","iso":"MY-06","qid":"Q191346"},"geometry":{"type":"Point","coordinates":[102.491,3.84557]}},{"type":"Feature","id":"MYS-1149","properties":{"kind":"division","code":"MYS-1149","countryCode":"MYS","name":"Terengganu","localName":"Terengganu","labelEnglish":"Terengganu","labelLocal":"Terengganu","labelBoth":"Terengganu","type":"State","iso":"MY-11","qid":"Q189701"},"geometry":{"type":"Polygon","coordinates":[[[102.542,5.8548],[102.3863,5.686],[102.4148,5.18],[102.6606,4.7684],[103.0253,4.3997],[102.9033,4.1369],[103.2363,4.0192],[103.4428,4.169],[103.4486,4.7951],[103.1203,5.3813],[102.542,5.8548]]]}},{"type":"Feature","id":"label-MYS-1149","properties":{"kind":"division-label","code":"MYS-1149","countryCode":"MYS","name":"Terengganu","localName":"Terengganu","labelEnglish":"Terengganu","labelLocal":"Terengganu","labelBoth":"Terengganu","type":"State","iso":"MY-11","qid":"Q189701"},"geometry":{"type":"Point","coordinates":[103.013,4.94214]}},{"type":"Feature","id":"MYS-4833","properties":{"kind":"division","code":"MYS-4833","countryCode":"MYS","name":"Labuan","localName":"Labuan","labelEnglish":"Labuan","labelLocal":"Labuan","labelBoth":"Labuan","type":"Federal Territory","iso":"MY-15","qid":"Q214504"},"geometry":{"type":"Polygon","coordinates":[[[115.2485,5.3655],[115.1592,5.2522],[115.2593,5.2912],[115.2485,5.3655]]]}},{"type":"Feature","id":"label-MYS-4833","properties":{"kind":"division-label","code":"MYS-4833","countryCode":"MYS","name":"Labuan","localName":"Labuan","labelEnglish":"Labuan","labelLocal":"Labuan","labelBoth":"Labuan","type":"Federal Territory","iso":"MY-15","qid":"Q214504"},"geometry":{"type":"Point","coordinates":[115.222,5.32524]}},{"type":"Feature","id":"MYS-4831","properties":{"kind":"division","code":"MYS-4831","countryCode":"MYS","name":"Kuala Lumpur","localName":"Kuala Lumpur","labelEnglish":"Kuala Lumpur","labelLocal":"Kuala Lumpur","labelBoth":"Kuala Lumpur","type":"Federal Territory","iso":"MY-14","qid":"Q1865"},"geometry":{"type":"Polygon","coordinates":[[[101.7164,3.2061],[101.6224,3.1821],[101.7523,3.0578],[101.7164,3.2061]]]}},{"type":"Feature","id":"label-MYS-4831","properties":{"kind":"division-label","code":"MYS-4831","countryCode":"MYS","name":"Kuala Lumpur","localName":"Kuala Lumpur","labelEnglish":"Kuala Lumpur","labelLocal":"Kuala Lumpur","labelBoth":"Kuala Lumpur","type":"Federal Territory","iso":"MY-14","qid":"Q1865"},"geometry":{"type":"Point","coordinates":[101.698,3.13836]}},{"type":"Feature","id":"MYS-4832","properties":{"kind":"division","code":"MYS-4832","countryCode":"MYS","name":"Putrajaya","localName":"Putrajaya","labelEnglish":"Putrajaya","labelLocal":"Putrajaya","labelBoth":"Putrajaya","type":"Federal Territory","iso":"MY-16","qid":"Q182378"},"geometry":{"type":"Polygon","coordinates":[[[101.6815,2.8742],[101.7304,2.9289],[101.6739,2.9661],[101.6815,2.8742]]]}},{"type":"Feature","id":"label-MYS-4832","properties":{"kind":"division-label","code":"MYS-4832","countryCode":"MYS","name":"Putrajaya","localName":"Putrajaya","labelEnglish":"Putrajaya","labelLocal":"Putrajaya","labelBoth":"Putrajaya","type":"Federal Territory","iso":"MY-16","qid":"Q182378"},"geometry":{"type":"Point","coordinates":[101.706,2.93814]}}]}