{"type":"FeatureCollection","features":[{"type":"Feature","id":"NAM-3338","properties":{"kind":"division","code":"NAM-3338","countryCode":"NAM","name":"Karas","localName":"Karas","labelEnglish":"Karas","labelLocal":"Karas","labelBoth":"Karas","type":"Region","iso":"NA-KA","qid":"Q573467"},"geometry":{"type":"Polygon","coordinates":[[[16.4871,-28.5729],[16.8039,-28.3661],[16.893,-28.0826],[17.0978,-28.0312],[17.3457,-28.2276],[17.4036,-28.7043],[17.9133,-28.7813],[18.1665,-28.9019],[18.7457,-28.8399],[19.0817,-28.9594],[19.2889,-28.871],[19.5688,-28.5312],[19.9817,-28.4223],[19.9827,-26.8955],[19.9821,-25.619],[19.7752,-25.6682],[18.6412,-25.5292],[18.4747,-25.4448],[17.7677,-25.5663],[17.4143,-25.549],[17.3346,-25.7583],[16.5814,-25.5874],[16.2887,-25.5861],[16.341,-25.8538],[16.1775,-25.8498],[15.8625,-25.58],[15.7587,-25.0061],[14.8294,-25.0001],[14.8428,-25.7636],[14.979,-26.0588],[14.9663,-26.3352],[15.1288,-26.4576],[15.083,-26.6952],[15.2953,-27.3224],[15.6843,-27.9499],[16.3469,-28.5561],[16.4871,-28.5729]]]}},{"type":"Feature","id":"label-NAM-3338","properties":{"kind":"division-label","code":"NAM-3338","countryCode":"NAM","name":"Karas","localName":"Karas","labelEnglish":"Karas","labelLocal":"Karas","labelBoth":"Karas","type":"Region","iso":"NA-KA","qid":"Q573467"},"geometry":{"type":"Point","coordinates":[17.4903,-27.0276]}},{"type":"Feature","id":"NAM-3347","properties":{"kind":"division","code":"NAM-3347","countryCode":"NAM","name":"Kunene","localName":"Kunene","labelEnglish":"Kunene","labelLocal":"Kunene","labelBoth":"Kunene","type":"Region","iso":"NA-KU","qid":"Q834513"},"geometry":{"type":"Polygon","coordinates":[[[13.3459,-16.9687],[12.8872,-17.0298],[12.5546,-17.2356],[12.0289,-17.149],[11.7661,-17.2527],[11.7176,-17.5463],[11.8491,-18.1432],[12.0319,-18.5053],[12.2869,-18.6977],[13.1546,-20.1542],[13.3872,-20.8161],[13.6281,-21.1876],[14.2081,-20.9593],[14.729,-20.9993],[15.1203,-20.7641],[15.3844,-20.4872],[15.6007,-20.5626],[16.3091,-20.3785],[16.308,-20.2265],[16.702,-19.9172],[16.703,-19.4913],[15.94,-19.3307],[15.317,-19.1913],[14.5362,-19.2467],[14.3639,-19.0982],[14.2903,-18.0792],[14.1366,-17.5667],[14.2191,-17.3881],[13.9427,-17.4082],[13.3459,-16.9687]]]}},{"type":"Feature","id":"label-NAM-3347","properties":{"kind":"division-label","code":"NAM-3347","countryCode":"NAM","name":"Kunene","localName":"Kunene","labelEnglish":"Kunene","labelLocal":"Kunene","labelBoth":"Kunene","type":"Region","iso":"NA-KU","qid":"Q834513"},"geometry":{"type":"Point","coordinates":[13.9847,-19.8757]}},{"type":"Feature","id":"NAM-3350","properties":{"kind":"division","code":"NAM-3350","countryCode":"NAM","name":"Omusati","localName":"Omusati","labelEnglish":"Omusati","labelLocal":"Omusati","labelBoth":"Omusati","type":"Region","iso":"NA-OS","qid":"Q764385"},"geometry":{"type":"Polygon","coordinates":[[[15.5591,-17.3885],[14.2191,-17.3881],[14.1366,-17.5667],[14.2903,-18.0792],[14.3639,-19.0982],[14.5362,-19.2467],[15.317,-19.1913],[15.6026,-19.0641],[15.4998,-18.1512],[15.2879,-18.0246],[15.6469,-17.6792],[15.5591,-17.3885]]]}},{"type":"Feature","id":"label-NAM-3350","properties":{"kind":"division-label","code":"NAM-3350","countryCode":"NAM","name":"Omusati","localName":"Omusati","labelEnglish":"Omusati","labelLocal":"Omusati","labelBoth":"Omusati","type":"Region","iso":"NA-OS","qid":"Q764385"},"geometry":{"type":"Point","coordinates":[14.8918,-18.3099]}},{"type":"Feature","id":"NAM-3352","properties":{"kind":"division","code":"NAM-3352","countryCode":"NAM","name":"Ohangwena","localName":"Ohangwena","labelEnglish":"Ohangwena","labelLocal":"Ohangwena","labelBoth":"Ohangwena","type":"Region","iso":"NA-OW","qid":"Q845702"},"geometry":{"type":"Polygon","coordinates":[[[15.5591,-17.3885],[15.6469,-17.6792],[15.9993,-17.6956],[16.3897,-17.9145],[16.7495,-17.769],[18.0002,-17.7659],[18.0005,-17.3891],[17.279,-17.3889],[15.5591,-17.3885]]]}},{"type":"Feature","id":"label-NAM-3352","properties":{"kind":"division-label","code":"NAM-3352","countryCode":"NAM","name":"Ohangwena","localName":"Ohangwena","labelEnglish":"Ohangwena","labelLocal":"Ohangwena","labelBoth":"Ohangwena","type":"Region","iso":"NA-OW","qid":"Q845702"},"geometry":{"type":"Point","coordinates":[16.7798,-17.5789]}},{"type":"Feature","id":"NAM-3354","properties":{"kind":"division","code":"NAM-3354","countryCode":"NAM","name":"Kavango","localName":"Kavango","labelEnglish":"Kavango","labelLocal":"Kavango","labelBoth":"Kavango","type":"Region","iso":"NA-OK","qid":"Q13156669"},"geometry":{"type":"Polygon","coordinates":[[[18.0005,-17.3891],[18.0002,-17.7659],[18.0093,-18.749],[18.1946,-18.76],[19.236,-18.8151],[19.2347,-19.1889],[20.9756,-19.1721],[20.9934,-18.3186],[20.9865,-17.9658],[20.8062,-18.0314],[20.3362,-17.8549],[20.0343,-17.8959],[19.0206,-17.8223],[18.762,-17.7477],[18.4536,-17.3899],[18.0005,-17.3891]]]}},{"type":"Feature","id":"label-NAM-3354","properties":{"kind":"division-label","code":"NAM-3354","countryCode":"NAM","name":"Kavango","localName":"Kavango","labelEnglish":"Kavango","labelLocal":"Kavango","labelBoth":"Kavango","type":"Region","iso":"NA-OK","qid":"Q13156669"},"geometry":{"type":"Point","coordinates":[19.4968,-18.5224]}},{"type":"Feature","id":"NAM-3356","properties":{"kind":"division","code":"NAM-3356","countryCode":"NAM","name":"Zambezi","localName":"Zambezi","labelEnglish":"Zambezi","labelLocal":"Zambezi","labelBoth":"Zambezi","type":"Region","iso":"NA-CA","qid":"Q473190"},"geometry":{"type":"Polygon","coordinates":[[[23.3817,-17.6411],[21.3812,-18.0126],[20.9865,-17.9658],[20.9934,-18.3186],[21.4757,-18.2995],[22.9814,-18.02],[23.3115,-18.0098],[23.5922,-18.4782],[24.1831,-18.0294],[24.5056,-18.0603],[24.9533,-17.7884],[25.2598,-17.7941],[24.97,-17.56],[24.2205,-17.4795],[23.3817,-17.6411]]]}},{"type":"Feature","id":"label-NAM-3356","properties":{"kind":"division-label","code":"NAM-3356","countryCode":"NAM","name":"Zambezi","localName":"Zambezi","labelEnglish":"Zambezi","labelLocal":"Zambezi","labelBoth":"Zambezi","type":"Region","iso":"NA-CA","qid":"Q473190"},"geometry":{"type":"Point","coordinates":[23.1229,-17.8491]}},{"type":"Feature","id":"NAM-3339","properties":{"kind":"division","code":"NAM-3339","countryCode":"NAM","name":"Hardap","localName":"Hardap","labelEnglish":"Hardap","labelLocal":"Hardap","labelBoth":"Hardap","type":"Region","iso":"NA-HA","qid":"Q752676"},"geometry":{"type":"Polygon","coordinates":[[[19.9814,-24.7525],[19.9805,-23.8645],[19.275,-23.8538],[19.2707,-23.6762],[18.7845,-23.7488],[18.5341,-23.6837],[18.4435,-23.5037],[17.9809,-23.647],[17.4564,-23.6059],[17.4784,-23.2853],[17.1794,-23.2027],[16.6066,-23.2541],[16.5769,-23.5861],[16.2791,-23.7842],[16.4928,-23.8215],[15.7509,-23.9446],[15.7424,-23.8136],[15.0466,-23.6016],[14.4841,-23.551],[14.4736,-24.1591],[14.8294,-25.0001],[15.7587,-25.0061],[15.8625,-25.58],[16.1775,-25.8498],[16.341,-25.8538],[16.2887,-25.5861],[16.5814,-25.5874],[17.3346,-25.7583],[17.4143,-25.549],[17.7677,-25.5663],[18.4747,-25.4448],[18.6412,-25.5292],[19.7752,-25.6682],[19.9821,-25.619],[19.9814,-24.7525]]]}},{"type":"Feature","id":"label-NAM-3339","properties":{"kind":"division-label","code":"NAM-3339","countryCode":"NAM","name":"Hardap","localName":"Hardap","labelEnglish":"Hardap","labelLocal":"Hardap","labelBoth":"Hardap","type":"Region","iso":"NA-HA","qid":"Q752676"},"geometry":{"type":"Point","coordinates":[17.2167,-24.5108]}},{"type":"Feature","id":"NAM-3349","properties":{"kind":"division","code":"NAM-3349","countryCode":"NAM","name":"Otjozondjupa","localName":"Otjozondjupa","labelEnglish":"Otjozondjupa","labelLocal":"Otjozondjupa","labelBoth":"Otjozondjupa","type":"Region","iso":"NA-OD","qid":"Q876506"},"geometry":{"type":"Polygon","coordinates":[[[20.9756,-19.1721],[19.2347,-19.1889],[19.236,-18.8151],[18.1946,-18.76],[18.0192,-19.0471],[17.9392,-19.4745],[17.6864,-19.5015],[17.4113,-19.3649],[17.4168,-19.2301],[17.1268,-19.1659],[16.703,-19.4913],[16.702,-19.9172],[16.308,-20.2265],[16.3091,-20.3785],[15.6007,-20.5626],[15.8323,-20.8405],[16.5146,-21.1721],[16.533,-21.4161],[16.3934,-21.728],[16.4765,-21.9197],[16.447,-22.3739],[16.732,-22.3465],[17.4533,-22.0887],[17.6046,-21.8402],[18.1179,-21.7053],[18.2417,-21.6228],[18.3759,-21.0386],[18.8314,-20.4708],[19.4824,-20.2427],[20.79,-20.3851],[20.9794,-20.351],[20.9756,-19.1721]]]}},{"type":"Feature","id":"label-NAM-3349","properties":{"kind":"division-label","code":"NAM-3349","countryCode":"NAM","name":"Otjozondjupa","localName":"Otjozondjupa","labelEnglish":"Otjozondjupa","labelLocal":"Otjozondjupa","labelBoth":"Otjozondjupa","type":"Region","iso":"NA-OD","qid":"Q876506"},"geometry":{"type":"Point","coordinates":[18.2876,-20.0032]}},{"type":"Feature","id":"NAM-3353","properties":{"kind":"division","code":"NAM-3353","countryCode":"NAM","name":"Omaheke","localName":"Omaheke","labelEnglish":"Omaheke","labelLocal":"Omaheke","labelBoth":"Omaheke","type":"Region","iso":"NA-OH","qid":"Q838775"},"geometry":{"type":"Polygon","coordinates":[[[20.9794,-20.351],[20.79,-20.3851],[19.4824,-20.2427],[18.8314,-20.4708],[18.3759,-21.0386],[18.2417,-21.6228],[18.1179,-21.7053],[17.9744,-22.125],[18.2196,-22.4812],[18.3246,-23.01],[18.4956,-23.3347],[18.4435,-23.5037],[18.5341,-23.6837],[18.7845,-23.7488],[19.2707,-23.6762],[19.275,-23.8538],[19.9805,-23.8645],[19.9799,-23.3086],[19.9783,-22.0007],[20.972,-22.0007],[20.9815,-21],[20.9794,-20.351]]]}},{"type":"Feature","id":"label-NAM-3353","properties":{"kind":"division-label","code":"NAM-3353","countryCode":"NAM","name":"Omaheke","localName":"Omaheke","labelEnglish":"Omaheke","labelLocal":"Omaheke","labelBoth":"Omaheke","type":"Region","iso":"NA-OH","qid":"Q838775"},"geometry":{"type":"Point","coordinates":[19.4738,-22.0526]}},{"type":"Feature","id":"NAM-3348","properties":{"kind":"division","code":"NAM-3348","countryCode":"NAM","name":"Erongo","localName":"Erongo","labelEnglish":"Erongo","labelLocal":"Erongo","labelBoth":"Erongo","type":"Region","iso":"NA-ER","qid":"Q648753"},"geometry":{"type":"Polygon","coordinates":[[[14.4841,-23.551],[15.0466,-23.6016],[15.7424,-23.8136],[15.8264,-23.8057],[15.8954,-22.9042],[15.9687,-22.7023],[16.447,-22.3739],[16.4765,-21.9197],[16.3934,-21.728],[16.533,-21.4161],[16.5146,-21.1721],[15.8323,-20.8405],[15.6007,-20.5626],[15.3844,-20.4872],[15.1203,-20.7641],[14.729,-20.9993],[14.2081,-20.9593],[13.6281,-21.1876],[13.9523,-21.7839],[14.3865,-22.2765],[14.5344,-22.8542],[14.4102,-22.9708],[14.4841,-23.551]]]}},{"type":"Feature","id":"label-NAM-3348","properties":{"kind":"division-label","code":"NAM-3348","countryCode":"NAM","name":"Erongo","localName":"Erongo","labelEnglish":"Erongo","labelLocal":"Erongo","labelBoth":"Erongo","type":"Region","iso":"NA-ER","qid":"Q648753"},"geometry":{"type":"Point","coordinates":[15.0824,-22.2166]}},{"type":"Feature","id":"NAM-3340","properties":{"kind":"division","code":"NAM-3340","countryCode":"NAM","name":"Khomas","localName":"Khomas","labelEnglish":"Khomas","labelLocal":"Khomas","labelBoth":"Khomas","type":"Region","iso":"NA-KH","qid":"Q834508"},"geometry":{"type":"Polygon","coordinates":[[[16.447,-22.3739],[15.9687,-22.7023],[15.8954,-22.9042],[15.8264,-23.8057],[15.7424,-23.8136],[15.7509,-23.9446],[16.4928,-23.8215],[16.2791,-23.7842],[16.5769,-23.5861],[16.6066,-23.2541],[17.1794,-23.2027],[17.4784,-23.2853],[17.4564,-23.6059],[17.9809,-23.647],[18.4435,-23.5037],[18.4956,-23.3347],[18.3246,-23.01],[18.2196,-22.4812],[17.9744,-22.125],[18.1179,-21.7053],[17.6046,-21.8402],[17.4533,-22.0887],[16.732,-22.3465],[16.447,-22.3739]]]}},{"type":"Feature","id":"label-NAM-3340","properties":{"kind":"division-label","code":"NAM-3340","countryCode":"NAM","name":"Khomas","localName":"Khomas","labelEnglish":"Khomas","labelLocal":"Khomas","labelBoth":"Khomas","type":"Region","iso":"NA-KH","qid":"Q834508"},"geometry":{"type":"Point","coordinates":[17.1204,-22.7056]}},{"type":"Feature","id":"NAM-3351","properties":{"kind":"division","code":"NAM-3351","countryCode":"NAM","name":"Oshana","localName":"Oshana","labelEnglish":"Oshana","labelLocal":"Oshana","labelBoth":"Oshana","type":"Region","iso":"NA-ON","qid":"Q534528"},"geometry":{"type":"Polygon","coordinates":[[[15.6469,-17.6792],[15.2879,-18.0246],[15.4998,-18.1512],[15.6026,-19.0641],[15.317,-19.1913],[15.94,-19.3307],[15.8603,-18.8028],[16.0356,-18.6525],[15.943,-18.3138],[16.0379,-18.1409],[15.9993,-17.6956],[15.6469,-17.6792]]]}},{"type":"Feature","id":"label-NAM-3351","properties":{"kind":"division-label","code":"NAM-3351","countryCode":"NAM","name":"Oshana","localName":"Oshana","labelEnglish":"Oshana","labelLocal":"Oshana","labelBoth":"Oshana","type":"Region","iso":"NA-ON","qid":"Q534528"},"geometry":{"type":"Point","coordinates":[15.662,-18.4961]}},{"type":"Feature","id":"NAM-3355","properties":{"kind":"division","code":"NAM-3355","countryCode":"NAM","name":"Oshikoto","localName":"Oshikoto","labelEnglish":"Oshikoto","labelLocal":"Oshikoto","labelBoth":"Oshikoto","type":"Region","iso":"NA-OT","qid":"Q876512"},"geometry":{"type":"Polygon","coordinates":[[[16.703,-19.4913],[17.1268,-19.1659],[17.4168,-19.2301],[17.4113,-19.3649],[17.6864,-19.5015],[17.9392,-19.4745],[18.0192,-19.0471],[18.1946,-18.76],[18.0093,-18.749],[18.0002,-17.7659],[16.7495,-17.769],[16.3897,-17.9145],[15.9993,-17.6956],[16.0379,-18.1409],[15.943,-18.3138],[16.0356,-18.6525],[15.8603,-18.8028],[15.94,-19.3307],[16.703,-19.4913]]]}},{"type":"Feature","id":"label-NAM-3355","properties":{"kind":"division-label","code":"NAM-3355","countryCode":"NAM","name":"Oshikoto","localName":"Oshikoto","labelEnglish":"Oshikoto","labelLocal":"Oshikoto","labelBoth":"Oshikoto","type":"Region","iso":"NA-OT","qid":"Q876512"},"geometry":{"type":"Point","coordinates":[17.0179,-18.5381]}}]}