{"type":"FeatureCollection","features":[{"type":"Feature","id":"NCL-559","properties":{"kind":"division","code":"NCL-559","countryCode":"NCL","name":"North","localName":"North","labelEnglish":"North","labelLocal":"North","labelBoth":"North","type":"Province","iso":"NC-X03~","qid":"Q1612920"},"geometry":{"type":"Polygon","coordinates":[[[165.1117,-21.3731],[165.2617,-21.3153],[165.8705,-21.5958],[166.0823,-21.5246],[165.4067,-21.0554],[165.2175,-20.7644],[165.0615,-20.7341],[164.4956,-20.3002],[164.2443,-20.2853],[163.992,-20.0831],[164.3656,-20.7581],[165.1117,-21.3731]]]}},{"type":"Feature","id":"label-NCL-559","properties":{"kind":"division-label","code":"NCL-559","countryCode":"NCL","name":"North","localName":"North","labelEnglish":"North","labelLocal":"North","labelBoth":"North","type":"Province","iso":"NC-X03~","qid":"Q1612920"},"geometry":{"type":"Point","coordinates":[165.058,-21.0082]}},{"type":"Feature","id":"NCL-1259","properties":{"kind":"division","code":"NCL-1259","countryCode":"NCL","name":"South","localName":"South","labelEnglish":"South","labelLocal":"South","labelBoth":"South","type":"Province","iso":"NC-X02~","qid":"Q965632"},"geometry":{"type":"Polygon","coordinates":[[[166.0823,-21.5246],[165.8705,-21.5958],[165.2617,-21.3153],[165.1117,-21.3731],[165.2908,-21.5768],[166.0032,-21.964],[166.9157,-22.3956],[167.0288,-22.2268],[166.8737,-22.0351],[166.3704,-21.6589],[166.0823,-21.5246]]]}},{"type":"Feature","id":"label-NCL-1259","properties":{"kind":"division-label","code":"NCL-1259","countryCode":"NCL","name":"South","localName":"South","labelEnglish":"South","labelLocal":"South","labelBoth":"South","type":"Province","iso":"NC-X02~","qid":"Q965632"},"geometry":{"type":"Point","coordinates":[167.487,-22.608]}},{"type":"Feature","id":"NCL-1258","properties":{"kind":"division","code":"NCL-1258","countryCode":"NCL","name":"Loyalty Islands","localName":"Loyalty Islands","labelEnglish":"Loyalty Islands","labelLocal":"Loyalty Islands","labelBoth":"Loyalty Islands","type":"Province","iso":"NC-X01~","qid":"Q18655787"},"geometry":{"type":"MultiPolygon","coordinates":[[[[168.1375,-21.4318],[167.8084,-21.384],[167.8636,-21.6037],[168.1268,-21.6222],[168.1375,-21.4318]]],[[[167.4323,-21.0278],[167.3083,-20.7309],[167.0208,-20.9117],[167.3311,-21.1642],[167.4323,-21.0278]]]]}},{"type":"Feature","id":"label-NCL-1258","properties":{"kind":"division-label","code":"NCL-1258","countryCode":"NCL","name":"Loyalty Islands","localName":"Loyalty Islands","labelEnglish":"Loyalty Islands","labelLocal":"Loyalty Islands","labelBoth":"Loyalty Islands","type":"Province","iso":"NC-X01~","qid":"Q18655787"},"geometry":{"type":"Point","coordinates":[167.976,-21.5326]}}]}