{"type":"FeatureCollection","features":[{"type":"Feature","id":"NER-95","properties":{"kind":"division","code":"NER-95","countryCode":"NER","name":"Tahoua","localName":"Tahoua","labelEnglish":"Tahoua","labelLocal":"Tahoua","labelBoth":"Tahoua","type":"Department","iso":"NE-5","qid":"Q871083"},"geometry":{"type":"Polygon","coordinates":[[[4.6258,13.7232],[5.2735,13.7525],[5.5543,13.8734],[6.1204,13.6541],[6.2842,13.6677],[6.3334,13.9232],[6.5173,14.0412],[6.4718,14.4148],[6.5325,14.9237],[6.6737,15.4284],[6.6144,16.2012],[6.3391,16.3539],[6.1205,16.8616],[5.8033,17.1279],[5.2686,17.4504],[4.7182,17.9644],[4.7325,18.3516],[4.8635,18.6123],[4.2303,18.6454],[4.2324,17.9752],[4.2356,16.9959],[4.184,16.4161],[4.0606,16.2983],[3.8738,15.7209],[4.2536,14.6579],[4.4193,14.4397],[4.4692,14.0621],[4.6258,13.7232]]]}},{"type":"Feature","id":"label-NER-95","properties":{"kind":"division-label","code":"NER-95","countryCode":"NER","name":"Tahoua","localName":"Tahoua","labelEnglish":"Tahoua","labelLocal":"Tahoua","labelBoth":"Tahoua","type":"Department","iso":"NE-5","qid":"Q871083"},"geometry":{"type":"Point","coordinates":[5.27361,15.6002]}},{"type":"Feature","id":"NER-93","properties":{"kind":"division","code":"NER-93","countryCode":"NER","name":"Dosso","localName":"Dosso","labelEnglish":"Dosso","labelLocal":"Dosso","labelBoth":"Dosso","type":"Department","iso":"NE-3","qid":"Q850055"},"geometry":{"type":"Polygon","coordinates":[[[4.1203,13.2106],[4.1258,13.473],[4.6258,13.7232],[4.4692,14.0621],[4.4193,14.4397],[4.2536,14.6579],[4.1501,14.4548],[3.8187,14.2649],[3.7176,14.0037],[2.8869,13.5161],[2.8198,13.264],[2.476,13.1365],[2.7244,12.9414],[2.6057,12.8511],[2.6316,12.5155],[2.8443,12.3992],[3.5964,11.6958],[3.6457,12.5285],[3.9291,12.7504],[4.1203,13.2106]]]}},{"type":"Feature","id":"label-NER-93","properties":{"kind":"division-label","code":"NER-93","countryCode":"NER","name":"Dosso","localName":"Dosso","labelEnglish":"Dosso","labelLocal":"Dosso","labelBoth":"Dosso","type":"Department","iso":"NE-3","qid":"Q850055"},"geometry":{"type":"Point","coordinates":[3.55023,12.8124]}},{"type":"Feature","id":"NER-796","properties":{"kind":"division","code":"NER-796","countryCode":"NER","name":"Diffa","localName":"Diffa","labelEnglish":"Diffa","labelLocal":"Diffa","labelBoth":"Diffa","type":"Department","iso":"NE-2","qid":"Q1053302"},"geometry":{"type":"Polygon","coordinates":[[[13.6073,13.7041],[13.4492,14.3801],[13.6081,14.5183],[13.8339,15.0196],[14.369,15.7496],[15.4685,16.9049],[15.4902,17.1245],[15.5677,18],[13.0001,17.9995],[12.2371,17.6574],[11.9975,17.5004],[12.0001,14.6085],[11.9752,14.4304],[11.5241,14.2132],[11.2215,14.1723],[10.8154,13.8068],[10.6233,13.5296],[10.6479,13.3694],[11.44,13.3644],[12.0576,13.1168],[12.3867,13.0786],[13.0293,13.5392],[13.36,13.7144],[13.6073,13.7041]]]}},{"type":"Feature","id":"label-NER-796","properties":{"kind":"division-label","code":"NER-796","countryCode":"NER","name":"Diffa","localName":"Diffa","labelEnglish":"Diffa","labelLocal":"Diffa","labelBoth":"Diffa","type":"Department","iso":"NE-2","qid":"Q1053302"},"geometry":{"type":"Point","coordinates":[13.0899,15.7652]}},{"type":"Feature","id":"NER-91","properties":{"kind":"division","code":"NER-91","countryCode":"NER","name":"Maradi","localName":"Maradi","labelEnglish":"Maradi","labelLocal":"Maradi","labelBoth":"Maradi","type":"Department","iso":"NE-4","qid":"Q850036"},"geometry":{"type":"Polygon","coordinates":[[[6.7539,13.1749],[7.0629,12.9951],[7.7556,13.3271],[8.2467,13.2113],[8.3179,13.609],[8.2375,13.7505],[8.5229,13.8916],[8.357,14.2799],[7.9151,14.5149],[7.7154,14.4614],[7.5599,14.7189],[7.3245,15.3345],[7.1241,15.4393],[6.6737,15.4284],[6.5325,14.9237],[6.4718,14.4148],[6.5173,14.0412],[6.3334,13.9232],[6.2842,13.6677],[6.7539,13.1749]]]}},{"type":"Feature","id":"label-NER-91","properties":{"kind":"division-label","code":"NER-91","countryCode":"NER","name":"Maradi","localName":"Maradi","labelEnglish":"Maradi","labelLocal":"Maradi","labelBoth":"Maradi","type":"Department","iso":"NE-4","qid":"Q850036"},"geometry":{"type":"Point","coordinates":[7.41198,14.1148]}},{"type":"Feature","id":"NER-92","properties":{"kind":"division","code":"NER-92","countryCode":"NER","name":"Zinder","localName":"Zinder","labelEnglish":"Zinder","labelLocal":"Zinder","labelBoth":"Zinder","type":"Department","iso":"NE-7","qid":"Q204367"},"geometry":{"type":"Polygon","coordinates":[[[10.6479,13.3694],[10.6233,13.5296],[10.8154,13.8068],[11.2215,14.1723],[11.5241,14.2132],[11.9752,14.4304],[12.0001,14.6085],[11.9975,17.5004],[11.6581,17.3821],[11.2493,17.1119],[10.955,17.0269],[9.3208,16.0001],[8.3756,15.5875],[7.8457,15.5385],[7.4447,15.5977],[7.3245,15.3345],[7.5599,14.7189],[7.7154,14.4614],[7.9151,14.5149],[8.357,14.2799],[8.5229,13.8916],[8.2375,13.7505],[8.3179,13.609],[8.2467,13.2113],[8.6793,12.9236],[8.9779,12.8432],[9.6477,12.8305],[9.9301,13.146],[10.1615,13.2672],[10.6479,13.3694]]]}},{"type":"Feature","id":"label-NER-92","properties":{"kind":"division-label","code":"NER-92","countryCode":"NER","name":"Zinder","localName":"Zinder","labelEnglish":"Zinder","labelLocal":"Zinder","labelBoth":"Zinder","type":"Department","iso":"NE-7","qid":"Q204367"},"geometry":{"type":"Point","coordinates":[9.66231,14.5314]}},{"type":"Feature","id":"NER-4859","properties":{"kind":"division","code":"NER-4859","countryCode":"NER","name":"Tillabéri","localName":"Tillabéri","labelEnglish":"Tillabéri","labelLocal":"Tillabéri","labelBoth":"Tillabéri","type":"Department","iso":"NE-6","qid":"Q861914"},"geometry":{"type":"Polygon","coordinates":[[[2.8443,12.3992],[2.6316,12.5155],[2.6057,12.8511],[2.7244,12.9414],[2.476,13.1365],[2.8198,13.264],[2.8869,13.5161],[3.7176,14.0037],[3.8187,14.2649],[4.1501,14.4548],[4.2536,14.6579],[3.8738,15.7209],[3.5265,15.496],[3.5071,15.354],[3.073,15.4272],[3.0002,15.3391],[1.3315,15.2836],[0.9737,14.9913],[0.6701,14.9397],[0.2213,14.9959],[0.2185,14.911],[0.2024,14.4355],[0.4999,13.851],[0.6207,13.68],[0.951,13.5832],[1.1676,13.3134],[0.9835,13.3684],[0.9717,13.0858],[1.3048,12.8385],[1.5359,12.6475],[1.8261,12.6042],[2.109,12.7056],[2.245,12.4242],[2.0709,12.3069],[2.3902,11.8965],[2.3612,12.2189],[2.8443,12.3992]],[[2.12,13.6162],[2.2356,13.394],[2.0151,13.4598],[2.12,13.6162]]]}},{"type":"Feature","id":"label-NER-4859","properties":{"kind":"division-label","code":"NER-4859","countryCode":"NER","name":"Tillabéri","localName":"Tillabéri","labelEnglish":"Tillabéri","labelLocal":"Tillabéri","labelBoth":"Tillabéri","type":"Department","iso":"NE-6","qid":"Q861914"},"geometry":{"type":"Point","coordinates":[2.19539,13.8777]}},{"type":"Feature","id":"NER-800","properties":{"kind":"division","code":"NER-800","countryCode":"NER","name":"Agadez","localName":"Agadez","labelEnglish":"Agadez","labelLocal":"Agadez","labelBoth":"Agadez","type":"Department","iso":"NE-1","qid":"Q389944"},"geometry":{"type":"Polygon","coordinates":[[[11.9689,23.5174],[9.7233,22.1934],[8.6345,21.5515],[7.4827,20.8726],[5.8376,19.4786],[5.7493,19.4337],[4.2286,19.1422],[4.2303,18.6454],[4.8635,18.6123],[4.7325,18.3516],[4.7182,17.9644],[5.2686,17.4504],[5.8033,17.1279],[6.1205,16.8616],[6.3391,16.3539],[6.6144,16.2012],[6.6737,15.4284],[7.1241,15.4393],[7.3245,15.3345],[7.4447,15.5977],[7.8457,15.5385],[8.3756,15.5875],[9.3208,16.0001],[10.955,17.0269],[11.2493,17.1119],[11.6581,17.3821],[11.9975,17.5004],[12.2371,17.6574],[13.0001,17.9995],[15.5677,18],[15.736,19.9035],[15.954,20.3746],[15.5442,20.799],[15.6093,20.9507],[15.1804,21.5073],[15.172,21.9934],[14.9799,22.9957],[14.2317,22.6179],[13.4823,23.1797],[11.9689,23.5174]]]}},{"type":"Feature","id":"label-NER-800","properties":{"kind":"division-label","code":"NER-800","countryCode":"NER","name":"Agadez","localName":"Agadez","labelEnglish":"Agadez","labelLocal":"Agadez","labelBoth":"Agadez","type":"Department","iso":"NE-1","qid":"Q389944"},"geometry":{"type":"Point","coordinates":[10.0991,19.4523]}},{"type":"Feature","id":"NER-94","properties":{"kind":"division","code":"NER-94","countryCode":"NER","name":"Niamey","localName":"Niamey","labelEnglish":"Niamey","labelLocal":"Niamey","labelBoth":"Niamey","type":"Capital District","iso":"NE-8","qid":"Q3674"},"geometry":{"type":"Polygon","coordinates":[[[2.12,13.6162],[2.0151,13.4598],[2.2356,13.394],[2.12,13.6162]]]}},{"type":"Feature","id":"label-NER-94","properties":{"kind":"division-label","code":"NER-94","countryCode":"NER","name":"Niamey","localName":"Niamey","labelEnglish":"Niamey","labelLocal":"Niamey","labelBoth":"Niamey","type":"Capital District","iso":"NE-8","qid":"Q3674"},"geometry":{"type":"Point","coordinates":[2.12167,13.562]}}]}