{"type":"FeatureCollection","features":[{"type":"Feature","id":"NFK+00?","properties":{"kind":"division","code":"NFK+00?","countryCode":"NFK","name":"Norfolk Island","localName":"Norfolk Island","labelEnglish":"Norfolk Island","labelLocal":"Norfolk Island","labelBoth":"Norfolk Island","type":null,"iso":"NF-X01~","qid":null},"geometry":{"type":"Polygon","coordinates":[[[167.9841,-29.0178],[167.9265,-28.9975],[167.9701,-29.0689],[167.9841,-29.0178]]]}},{"type":"Feature","id":"label-NFK+00?","properties":{"kind":"division-label","code":"NFK+00?","countryCode":"NFK","name":"Norfolk Island","localName":"Norfolk Island","labelEnglish":"Norfolk Island","labelLocal":"Norfolk Island","labelBoth":"Norfolk Island","type":null,"iso":"NF-X01~","qid":null},"geometry":{"type":"Point","coordinates":[167.954,-29.033]}}]}