{"type":"FeatureCollection","features":[{"type":"Feature","id":"NGA-2879","properties":{"kind":"division","code":"NGA-2879","countryCode":"NGA","name":"Kebbi State","localName":"Kebbi State","labelEnglish":"Kebbi State","labelLocal":"Kebbi State","labelBoth":"Kebbi State","type":"State","iso":"NG-KE","qid":"Q748523"},"geometry":{"type":"Polygon","coordinates":[[[3.5964,11.6958],[3.4833,11.3923],[3.7056,11.1207],[4.0052,11.0122],[4.5368,11.0018],[4.7221,10.9042],[4.689,10.6458],[4.5006,10.4604],[4.5395,10.1244],[4.8694,10.2692],[4.8271,10.6731],[5.0931,10.7478],[5.0541,11.0334],[4.763,11.1638],[4.9167,11.2876],[5.3443,11.3093],[5.4767,10.9572],[6.0271,11.1112],[5.9133,11.5731],[5.3853,11.7184],[5.0235,11.6806],[4.5294,11.589],[4.6157,11.9341],[4.6091,12.3185],[4.8295,12.3994],[4.8184,13.1065],[4.672,13.0545],[4.3409,13.2281],[4.1203,13.2106],[3.9291,12.7504],[3.6457,12.5285],[3.5964,11.6958]]]}},{"type":"Feature","id":"label-NGA-2879","properties":{"kind":"division-label","code":"NGA-2879","countryCode":"NGA","name":"Kebbi State","localName":"Kebbi State","labelEnglish":"Kebbi State","labelLocal":"Kebbi State","labelBoth":"Kebbi State","type":"State","iso":"NG-KE","qid":"Q748523"},"geometry":{"type":"Point","coordinates":[4.06548,11.7712]}},{"type":"Feature","id":"NGA-2851","properties":{"kind":"division","code":"NGA-2851","countryCode":"NGA","name":"Niger State","localName":"Niger State","labelEnglish":"Niger State","labelLocal":"Niger State","labelBoth":"Niger State","type":"State","iso":"NG-NI","qid":"Q503932"},"geometry":{"type":"Polygon","coordinates":[[[3.8372,10.6306],[3.5724,10.2857],[3.6648,10.1287],[4.0141,10.118],[4.3504,9.7251],[4.4536,9.4254],[4.6144,9.4219],[4.7986,9.1399],[4.9792,9.1997],[5.1974,9.0167],[5.538,8.9294],[5.7905,8.7457],[6.2159,8.73],[6.6914,8.2069],[6.835,8.4068],[6.759,8.4722],[6.7496,9.1856],[7.0234,9.2138],[7.1702,9.0992],[7.3108,9.2974],[7.3381,9.5866],[7.2173,9.741],[7.2792,9.9776],[6.8921,10.1052],[7.0675,10.2989],[6.8352,10.6231],[6.4267,10.5736],[6.1738,10.3612],[6.0931,10.4826],[6.1619,10.8627],[6.0271,11.1112],[5.4767,10.9572],[5.3443,11.3093],[4.9167,11.2876],[4.763,11.1638],[5.0541,11.0334],[5.0931,10.7478],[4.8271,10.6731],[4.8694,10.2692],[4.5395,10.1244],[4.5006,10.4604],[4.689,10.6458],[4.7221,10.9042],[4.5368,11.0018],[4.0052,11.0122],[3.7056,11.1207],[3.8372,10.6306]]]}},{"type":"Feature","id":"label-NGA-2851","properties":{"kind":"division-label","code":"NGA-2851","countryCode":"NGA","name":"Niger State","localName":"Niger State","labelEnglish":"Niger State","labelLocal":"Niger State","labelBoth":"Niger State","type":"State","iso":"NG-NI","qid":"Q503932"},"geometry":{"type":"Point","coordinates":[5.45494,9.95553]}},{"type":"Feature","id":"NGA-2849","properties":{"kind":"division","code":"NGA-2849","countryCode":"NGA","name":"Kwara State","localName":"Kwara State","labelEnglish":"Kwara State","labelLocal":"Kwara State","labelBoth":"Kwara State","type":"State","iso":"NG-KW","qid":"Q464953"},"geometry":{"type":"Polygon","coordinates":[[[3.6648,10.1287],[3.5131,9.8466],[3.1286,9.4296],[3.0913,9.1264],[2.7692,9.057],[2.7229,8.7712],[2.7424,8.5275],[3.2437,8.7477],[3.9114,9.157],[4.3313,8.9541],[4.201,8.6934],[4.5556,8.0341],[5.0641,8.0306],[5.3537,7.9743],[5.536,8.0696],[5.3569,8.3482],[5.5157,8.5307],[6.0868,8.3804],[6.2159,8.73],[5.7905,8.7457],[5.538,8.9294],[5.1974,9.0167],[4.9792,9.1997],[4.7986,9.1399],[4.6144,9.4219],[4.4536,9.4254],[4.3504,9.7251],[4.0141,10.118],[3.6648,10.1287]]]}},{"type":"Feature","id":"label-NGA-2849","properties":{"kind":"division-label","code":"NGA-2849","countryCode":"NGA","name":"Kwara State","localName":"Kwara State","labelEnglish":"Kwara State","labelLocal":"Kwara State","labelBoth":"Kwara State","type":"State","iso":"NG-KW","qid":"Q464953"},"geometry":{"type":"Point","coordinates":[4.46906,8.80445]}},{"type":"Feature","id":"NGA-2852","properties":{"kind":"division","code":"NGA-2852","countryCode":"NGA","name":"Ogun State","localName":"Ogun State","labelEnglish":"Ogun State","labelLocal":"Ogun State","labelBoth":"Ogun State","type":"State","iso":"NG-OG","qid":"Q836657"},"geometry":{"type":"Polygon","coordinates":[[[2.7176,7.6585],[2.7786,6.6988],[2.7188,6.5043],[2.7119,6.474],[3.1688,6.5245],[3.2453,6.6926],[4.0321,6.69],[4.342,6.3706],[4.493,6.3205],[4.5671,6.6288],[4.3549,6.6174],[4.5611,6.9883],[4.0771,7.1124],[3.7121,7.0471],[3.6543,7.4287],[3.412,7.4948],[3.1794,7.3498],[2.9896,7.5712],[2.8618,7.9547],[2.6717,7.8934],[2.7176,7.6585]]]}},{"type":"Feature","id":"label-NGA-2852","properties":{"kind":"division-label","code":"NGA-2852","countryCode":"NGA","name":"Ogun State","localName":"Ogun State","labelEnglish":"Ogun State","labelLocal":"Ogun State","labelBoth":"Ogun State","type":"State","iso":"NG-OG","qid":"Q836657"},"geometry":{"type":"Point","coordinates":[3.29255,7.01845]}},{"type":"Feature","id":"NGA-2856","properties":{"kind":"division","code":"NGA-2856","countryCode":"NGA","name":"Oyo State","localName":"Oyo State","labelEnglish":"Oyo State","labelLocal":"Oyo State","labelBoth":"Oyo State","type":"State","iso":"NG-OY","qid":"Q503905"},"geometry":{"type":"Polygon","coordinates":[[[2.6717,7.8934],[2.8618,7.9547],[2.9896,7.5712],[3.1794,7.3498],[3.412,7.4948],[3.6543,7.4287],[3.7121,7.0471],[4.0771,7.1124],[4.1455,7.4744],[4.0864,7.8477],[4.3999,7.8506],[4.5556,8.0341],[4.201,8.6934],[4.3313,8.9541],[3.9114,9.157],[3.2437,8.7477],[2.7424,8.5275],[2.6717,7.8934]]]}},{"type":"Feature","id":"label-NGA-2856","properties":{"kind":"division-label","code":"NGA-2856","countryCode":"NGA","name":"Oyo State","localName":"Oyo State","labelEnglish":"Oyo State","labelLocal":"Oyo State","labelBoth":"Oyo State","type":"State","iso":"NG-OY","qid":"Q503905"},"geometry":{"type":"Point","coordinates":[3.61681,8.18969]}},{"type":"Feature","id":"NGA-2850","properties":{"kind":"division","code":"NGA-2850","countryCode":"NGA","name":"Lagos","localName":"Lagos","labelEnglish":"Lagos","labelLocal":"Lagos","labelBoth":"Lagos","type":"State","iso":"NG-LA","qid":"Q815913"},"geometry":{"type":"Polygon","coordinates":[[[2.7038,6.3684],[3.8703,6.4316],[4.342,6.3706],[4.0321,6.69],[3.2453,6.6926],[3.1688,6.5245],[2.7119,6.474],[2.7038,6.3684]]]}},{"type":"Feature","id":"label-NGA-2850","properties":{"kind":"division-label","code":"NGA-2850","countryCode":"NGA","name":"Lagos","localName":"Lagos","labelEnglish":"Lagos","labelLocal":"Lagos","labelBoth":"Lagos","type":"State","iso":"NG-LA","qid":"Q815913"},"geometry":{"type":"Point","coordinates":[3.52478,6.43313]}},{"type":"Feature","id":"NGA-2839","properties":{"kind":"division","code":"NGA-2839","countryCode":"NGA","name":"Borno State","localName":"Borno State","labelEnglish":"Borno State","labelLocal":"Borno State","labelBoth":"Borno State","type":"State","iso":"NG-BO","qid":"Q130626"},"geometry":{"type":"Polygon","coordinates":[[[13.6073,13.7041],[13.36,13.7144],[13.0293,13.5392],[12.3867,13.0786],[12.479,12.7342],[12.3083,12.4496],[12.2357,11.6632],[12.3883,11.542],[12.1044,11.0008],[11.8118,10.8577],[11.701,10.5942],[11.6891,10.2632],[11.9456,10.0447],[12.1069,10.036],[12.3947,10.305],[12.8409,10.5632],[13.3097,10.4679],[13.4222,10.9303],[13.7498,10.9424],[13.9823,11.2763],[14.1655,11.2383],[14.5938,11.4964],[14.5465,11.7186],[14.6699,12.1674],[14.5144,12.3235],[14.1798,12.3856],[14.0649,13.078],[13.6073,13.7041]]]}},{"type":"Feature","id":"label-NGA-2839","properties":{"kind":"division-label","code":"NGA-2839","countryCode":"NGA","name":"Borno State","localName":"Borno State","labelEnglish":"Borno State","labelLocal":"Borno State","labelBoth":"Borno State","type":"State","iso":"NG-BO","qid":"Q130626"},"geometry":{"type":"Point","coordinates":[13.1533,12.0019]}},{"type":"Feature","id":"NGA-2881","properties":{"kind":"division","code":"NGA-2881","countryCode":"NGA","name":"Adamawa State","localName":"Adamawa State","labelEnglish":"Adamawa State","labelLocal":"Adamawa State","labelBoth":"Adamawa State","type":"State","iso":"NG-AD","qid":"Q337514"},"geometry":{"type":"Polygon","coordinates":[[[13.7498,10.9424],[13.4222,10.9303],[13.3097,10.4679],[12.8409,10.5632],[12.3947,10.305],[12.1069,10.036],[11.9456,10.0447],[11.9404,9.8257],[11.5259,9.592],[11.7673,9.3301],[11.9715,8.919],[11.8593,8.5739],[11.4135,8.0896],[11.5152,7.8522],[11.805,7.8064],[11.9035,7.4536],[12.1978,7.9752],[12.2337,8.1885],[12.227,8.3863],[12.8057,8.8315],[12.862,9.3829],[13.1955,9.5422],[13.248,10.0794],[13.3927,10.117],[13.5663,10.679],[13.7498,10.9424]]]}},{"type":"Feature","id":"label-NGA-2881","properties":{"kind":"division-label","code":"NGA-2881","countryCode":"NGA","name":"Adamawa State","localName":"Adamawa State","labelEnglish":"Adamawa State","labelLocal":"Adamawa State","labelBoth":"Adamawa State","type":"State","iso":"NG-AD","qid":"Q337514"},"geometry":{"type":"Point","coordinates":[12.5768,9.47906]}},{"type":"Feature","id":"NGA-2848","properties":{"kind":"division","code":"NGA-2848","countryCode":"NGA","name":"Taraba State","localName":"Taraba State","labelEnglish":"Taraba State","labelLocal":"Taraba State","labelBoth":"Taraba State","type":"State","iso":"NG-TA","qid":"Q463959"},"geometry":{"type":"Polygon","coordinates":[[[11.9035,7.4536],[11.805,7.8064],[11.5152,7.8522],[11.4135,8.0896],[11.8593,8.5739],[11.9715,8.919],[11.7673,9.3301],[11.5259,9.592],[11.0686,9.5864],[10.5604,9.4967],[10.6185,8.8801],[10.2289,8.7467],[9.8175,8.3731],[9.6155,8.3512],[9.3352,8.317],[9.3696,8.0579],[9.1694,7.9145],[9.5712,7.8423],[9.8766,7.5625],[9.8747,7.209],[9.7096,7.0241],[9.6448,6.5212],[9.694,6.5343],[9.7698,6.7737],[10.1195,6.9944],[10.496,6.8747],[10.6025,7.0581],[10.8319,6.9452],[11.2023,6.4367],[11.5098,6.6123],[11.5618,6.8761],[11.8813,7.102],[11.7366,7.2633],[11.9035,7.4536]]]}},{"type":"Feature","id":"label-NGA-2848","properties":{"kind":"division-label","code":"NGA-2848","countryCode":"NGA","name":"Taraba State","localName":"Taraba State","labelEnglish":"Taraba State","labelLocal":"Taraba State","labelBoth":"Taraba State","type":"State","iso":"NG-TA","qid":"Q463959"},"geometry":{"type":"Point","coordinates":[10.5428,7.93608]}},{"type":"Feature","id":"NGA-2846","properties":{"kind":"division","code":"NGA-2846","countryCode":"NGA","name":"Benue State","localName":"Benue State","labelEnglish":"Benue State","labelLocal":"Benue State","labelBoth":"Benue State","type":"State","iso":"NG-BE","qid":"Q429908"},"geometry":{"type":"Polygon","coordinates":[[[9.6448,6.5212],[9.7096,7.0241],[9.8747,7.209],[9.8766,7.5625],[9.5712,7.8423],[9.1694,7.9145],[8.9789,8.0555],[8.558,8.1334],[8.3544,8.0012],[8.4182,7.7751],[7.666,8.0257],[7.7855,7.1711],[7.4937,7.0745],[7.6404,6.8621],[7.8511,6.8203],[7.8277,6.6302],[8.2484,6.7735],[8.2919,6.6756],[8.8365,6.8604],[8.9716,6.6788],[9.2325,6.6869],[9.4886,6.4182],[9.6448,6.5212]]]}},{"type":"Feature","id":"label-NGA-2846","properties":{"kind":"division-label","code":"NGA-2846","countryCode":"NGA","name":"Benue State","localName":"Benue State","labelEnglish":"Benue State","labelLocal":"Benue State","labelBoth":"Benue State","type":"State","iso":"NG-BE","qid":"Q429908"},"geometry":{"type":"Point","coordinates":[8.70736,7.48719]}},{"type":"Feature","id":"NGA-2847","properties":{"kind":"division","code":"NGA-2847","countryCode":"NGA","name":"Cross River State","localName":"Cross River State","labelEnglish":"Cross River State","labelLocal":"Cross River State","labelBoth":"Cross River State","type":"State","iso":"NG-CR","qid":"Q739676"},"geometry":{"type":"Polygon","coordinates":[[[9.4886,6.4182],[9.2325,6.6869],[8.9716,6.6788],[8.8365,6.8604],[8.2919,6.6756],[8.4389,6.4012],[8.2465,6.0179],[7.9746,5.9926],[7.8778,5.6903],[7.8971,5.365],[8.0625,5.2135],[8.1316,4.9349],[8.2992,4.7823],[8.5942,4.8153],[8.7989,5.1596],[8.8937,5.6218],[8.8559,5.8475],[9.4886,6.4182]]]}},{"type":"Feature","id":"label-NGA-2847","properties":{"kind":"division-label","code":"NGA-2847","countryCode":"NGA","name":"Cross River State","localName":"Cross River State","labelEnglish":"Cross River State","labelLocal":"Cross River State","labelBoth":"Cross River State","type":"State","iso":"NG-CR","qid":"Q739676"},"geometry":{"type":"Point","coordinates":[8.67873,5.93762]}},{"type":"Feature","id":"NGA-2871","properties":{"kind":"division","code":"NGA-2871","countryCode":"NGA","name":"Sokoto State","localName":"Sokoto State","labelEnglish":"Sokoto State","labelLocal":"Sokoto State","labelBoth":"Sokoto State","type":"State","iso":"NG-SO","qid":"Q503941"},"geometry":{"type":"Polygon","coordinates":[[[6.2842,13.6677],[6.1204,13.6541],[5.5543,13.8734],[5.2735,13.7525],[4.6258,13.7232],[4.1258,13.473],[4.1203,13.2106],[4.3409,13.2281],[4.672,13.0545],[4.8184,13.1065],[4.8295,12.3994],[4.6091,12.3185],[4.6157,11.9341],[4.5294,11.589],[5.0235,11.6806],[5.0681,12.2693],[5.5208,12.2579],[5.5527,12.5274],[5.7402,12.7218],[6.0683,12.8232],[6.0507,12.9944],[6.294,13.1628],[6.6259,13.0923],[6.7539,13.1749],[6.2842,13.6677]]]}},{"type":"Feature","id":"label-NGA-2871","properties":{"kind":"division-label","code":"NGA-2871","countryCode":"NGA","name":"Sokoto State","localName":"Sokoto State","labelEnglish":"Sokoto State","labelLocal":"Sokoto State","labelBoth":"Sokoto State","type":"State","iso":"NG-SO","qid":"Q503941"},"geometry":{"type":"Point","coordinates":[5.4366,13.0603]}},{"type":"Feature","id":"NGA-2872","properties":{"kind":"division","code":"NGA-2872","countryCode":"NGA","name":"Zamfara State","localName":"Zamfara State","labelEnglish":"Zamfara State","labelLocal":"Zamfara State","labelBoth":"Zamfara State","type":"State","iso":"NG-ZA","qid":"Q145793"},"geometry":{"type":"Polygon","coordinates":[[[6.7539,13.1749],[6.6259,13.0923],[6.294,13.1628],[6.0507,12.9944],[6.0683,12.8232],[5.7402,12.7218],[5.5527,12.5274],[5.5208,12.2579],[5.0681,12.2693],[5.0235,11.6806],[5.3853,11.7184],[5.9133,11.5731],[6.0271,11.1112],[6.1619,10.8627],[6.3427,11.0396],[6.6686,11.0657],[6.8818,11.3661],[6.9134,11.7663],[7.222,11.9545],[7.0779,12.4785],[7.0629,12.9951],[6.7539,13.1749]]]}},{"type":"Feature","id":"label-NGA-2872","properties":{"kind":"division-label","code":"NGA-2872","countryCode":"NGA","name":"Zamfara State","localName":"Zamfara State","labelEnglish":"Zamfara State","labelLocal":"Zamfara State","labelBoth":"Zamfara State","type":"State","iso":"NG-ZA","qid":"Q145793"},"geometry":{"type":"Point","coordinates":[6.12834,12.0084]}},{"type":"Feature","id":"NGA-2873","properties":{"kind":"division","code":"NGA-2873","countryCode":"NGA","name":"Yobe State","localName":"Yobe State","labelEnglish":"Yobe State","labelLocal":"Yobe State","labelBoth":"Yobe State","type":"State","iso":"NG-YO","qid":"Q682777"},"geometry":{"type":"Polygon","coordinates":[[[12.3867,13.0786],[12.0576,13.1168],[11.44,13.3644],[10.6479,13.3694],[10.1615,13.2672],[9.9301,13.146],[9.6477,12.8305],[9.7699,12.7925],[10.1593,12.9839],[10.2627,12.8077],[10.5116,12.7934],[10.6095,12.5024],[10.7352,12.4023],[11.0142,11.2947],[11.354,11.2159],[11.5903,10.9282],[11.593,10.5972],[11.701,10.5942],[11.8118,10.8577],[12.1044,11.0008],[12.3883,11.542],[12.2357,11.6632],[12.3083,12.4496],[12.479,12.7342],[12.3867,13.0786]]]}},{"type":"Feature","id":"label-NGA-2873","properties":{"kind":"division-label","code":"NGA-2873","countryCode":"NGA","name":"Yobe State","localName":"Yobe State","labelEnglish":"Yobe State","labelLocal":"Yobe State","labelBoth":"Yobe State","type":"State","iso":"NG-YO","qid":"Q682777"},"geometry":{"type":"Point","coordinates":[11.5881,12.3156]}},{"type":"Feature","id":"NGA-2870","properties":{"kind":"division","code":"NGA-2870","countryCode":"NGA","name":"Katsina State","localName":"Katsina State","labelEnglish":"Katsina State","labelLocal":"Katsina State","labelBoth":"Katsina State","type":"State","iso":"NG-KT","qid":"Q657821"},"geometry":{"type":"Polygon","coordinates":[[[8.2467,13.2113],[7.7556,13.3271],[7.0629,12.9951],[7.0779,12.4785],[7.222,11.9545],[6.9134,11.7663],[6.8818,11.3661],[7.1865,11.1122],[7.4668,11.3688],[7.7762,11.3592],[7.6922,11.4673],[7.8937,11.6508],[7.8413,12.2661],[8.2828,12.5696],[8.1373,12.8137],[8.5354,12.8299],[8.822,12.6905],[8.9779,12.8432],[8.6793,12.9236],[8.2467,13.2113]]]}},{"type":"Feature","id":"label-NGA-2870","properties":{"kind":"division-label","code":"NGA-2870","countryCode":"NGA","name":"Katsina State","localName":"Katsina State","labelEnglish":"Katsina State","labelLocal":"Katsina State","labelBoth":"Katsina State","type":"State","iso":"NG-KT","qid":"Q657821"},"geometry":{"type":"Point","coordinates":[7.58609,12.5056]}},{"type":"Feature","id":"NGA-2868","properties":{"kind":"division","code":"NGA-2868","countryCode":"NGA","name":"Jigawa State","localName":"Jigawa State","labelEnglish":"Jigawa State","labelLocal":"Jigawa State","labelBoth":"Jigawa State","type":"State","iso":"NG-JI","qid":"Q682691"},"geometry":{"type":"Polygon","coordinates":[[[8.9779,12.8432],[8.822,12.6905],[8.5354,12.8299],[8.1373,12.8137],[8.2828,12.5696],[8.6783,12.5393],[8.9232,12.0831],[9.1812,12.0303],[9.1296,11.7158],[9.3507,11.555],[9.2247,11.3424],[9.8105,11.2614],[9.9483,10.9537],[10.1798,10.9334],[10.3902,11.1776],[10.0006,11.2623],[9.813,11.455],[9.6997,11.8512],[10.155,12.0085],[10.2647,12.4027],[10.6095,12.5024],[10.5116,12.7934],[10.2627,12.8077],[10.1593,12.9839],[9.7699,12.7925],[9.6477,12.8305],[8.9779,12.8432]]]}},{"type":"Feature","id":"label-NGA-2868","properties":{"kind":"division-label","code":"NGA-2868","countryCode":"NGA","name":"Jigawa State","localName":"Jigawa State","labelEnglish":"Jigawa State","labelLocal":"Jigawa State","labelBoth":"Jigawa State","type":"State","iso":"NG-JI","qid":"Q682691"},"geometry":{"type":"Point","coordinates":[9.36225,12.0714]}},{"type":"Feature","id":"NGA-2853","properties":{"kind":"division","code":"NGA-2853","countryCode":"NGA","name":"Ondo State","localName":"Ondo State","labelEnglish":"Ondo State","labelLocal":"Ondo State","labelBoth":"Ondo State","type":"State","iso":"NG-ON","qid":"Q836654"},"geometry":{"type":"Polygon","coordinates":[[[5.003,5.8548],[5.1152,6.1269],[4.9793,6.2844],[5.2156,6.8724],[5.4956,6.8723],[5.6858,6.739],[6.0284,7.5734],[5.8114,7.7561],[5.6237,7.6197],[5.4325,7.2801],[5.3306,7.4199],[4.9915,7.4148],[4.8693,7.0982],[4.5611,6.9883],[4.3549,6.6174],[4.5671,6.6288],[4.493,6.3205],[5.003,5.8548]]]}},{"type":"Feature","id":"label-NGA-2853","properties":{"kind":"division-label","code":"NGA-2853","countryCode":"NGA","name":"Ondo State","localName":"Ondo State","labelEnglish":"Ondo State","labelLocal":"Ondo State","labelBoth":"Ondo State","type":"State","iso":"NG-ON","qid":"Q836654"},"geometry":{"type":"Point","coordinates":[5.19165,7.1444]}},{"type":"Feature","id":"NGA-2860","properties":{"kind":"division","code":"NGA-2860","countryCode":"NGA","name":"Delta State","localName":"Delta State","labelEnglish":"Delta State","labelLocal":"Delta State","labelBoth":"Delta State","type":"State","iso":"NG-DE","qid":"Q503910"},"geometry":{"type":"Polygon","coordinates":[[[5.4602,5.1338],[5.6413,5.0284],[6.0234,5.1081],[6.4931,5.393],[6.6057,5.7232],[6.7609,6.1671],[6.6767,6.5351],[6.0528,6.2639],[6.2107,5.9367],[6.0215,5.7619],[5.6634,6.0399],[5.5301,5.9821],[5.1152,6.1269],[5.003,5.8548],[5.4602,5.1338]]]}},{"type":"Feature","id":"label-NGA-2860","properties":{"kind":"division-label","code":"NGA-2860","countryCode":"NGA","name":"Delta State","localName":"Delta State","labelEnglish":"Delta State","labelLocal":"Delta State","labelBoth":"Delta State","type":"State","iso":"NG-DE","qid":"Q503910"},"geometry":{"type":"Point","coordinates":[5.88195,5.44265]}},{"type":"Feature","id":"NGA-2845","properties":{"kind":"division","code":"NGA-2845","countryCode":"NGA","name":"Bayelsa State","localName":"Bayelsa State","labelEnglish":"Bayelsa State","labelLocal":"Bayelsa State","labelBoth":"Bayelsa State","type":"State","iso":"NG-BY","qid":"Q532153"},"geometry":{"type":"Polygon","coordinates":[[[6.7226,4.5914],[6.3863,4.8582],[6.4931,5.393],[6.0234,5.1081],[5.6413,5.0284],[5.4602,5.1338],[5.5949,4.6365],[5.9463,4.3352],[6.1887,4.281],[6.6951,4.3472],[6.7226,4.5914]]]}},{"type":"Feature","id":"label-NGA-2845","properties":{"kind":"division-label","code":"NGA-2845","countryCode":"NGA","name":"Bayelsa State","localName":"Bayelsa State","labelEnglish":"Bayelsa State","labelLocal":"Bayelsa State","labelBoth":"Bayelsa State","type":"State","iso":"NG-BY","qid":"Q532153"},"geometry":{"type":"Point","coordinates":[5.97421,4.73907]}},{"type":"Feature","id":"NGA-2844","properties":{"kind":"division","code":"NGA-2844","countryCode":"NGA","name":"Rivers State","localName":"Rivers State","labelEnglish":"Rivers State","labelLocal":"Rivers State","labelBoth":"Rivers State","type":"State","iso":"NG-RI","qid":"Q503923"},"geometry":{"type":"Polygon","coordinates":[[[7.5335,4.7027],[7.4963,4.8174],[7.1765,4.8737],[7.2515,5.1947],[6.8702,5.1949],[6.6262,5.502],[6.6688,5.6943],[6.6057,5.7232],[6.4931,5.393],[6.3863,4.8582],[6.7226,4.5914],[6.7156,4.3547],[7.4541,4.5532],[7.5335,4.7027]]]}},{"type":"Feature","id":"label-NGA-2844","properties":{"kind":"division-label","code":"NGA-2844","countryCode":"NGA","name":"Rivers State","localName":"Rivers State","labelEnglish":"Rivers State","labelLocal":"Rivers State","labelBoth":"Rivers State","type":"State","iso":"NG-RI","qid":"Q503923"},"geometry":{"type":"Point","coordinates":[6.81969,4.9979]}},{"type":"Feature","id":"NGA-2842","properties":{"kind":"division","code":"NGA-2842","countryCode":"NGA","name":"Akwa Ibom State","localName":"Akwa Ibom State","labelEnglish":"Akwa Ibom State","labelLocal":"Akwa Ibom State","labelBoth":"Akwa Ibom State","type":"State","iso":"NG-AK","qid":"Q424388"},"geometry":{"type":"Polygon","coordinates":[[[8.2992,4.7823],[8.1316,4.9349],[8.0625,5.2135],[7.8971,5.365],[7.7053,5.5241],[7.5253,5.3053],[7.4963,4.8174],[7.5335,4.7027],[7.5584,4.5253],[8.2791,4.5468],[8.2992,4.7823]]]}},{"type":"Feature","id":"label-NGA-2842","properties":{"kind":"division-label","code":"NGA-2842","countryCode":"NGA","name":"Akwa Ibom State","localName":"Akwa Ibom State","labelEnglish":"Akwa Ibom State","labelLocal":"Akwa Ibom State","labelBoth":"Akwa Ibom State","type":"State","iso":"NG-AK","qid":"Q424388"},"geometry":{"type":"Point","coordinates":[7.90963,4.89926]}},{"type":"Feature","id":"NGA-2841","properties":{"kind":"division","code":"NGA-2841","countryCode":"NGA","name":"Abia State","localName":"Abia State","labelEnglish":"Abia State","labelLocal":"Abia State","labelBoth":"Abia State","type":"State","iso":"NG-AB","qid":"Q320852"},"geometry":{"type":"Polygon","coordinates":[[[7.8778,5.6903],[7.5262,5.8503],[7.5335,5.973],[7.3637,6.0206],[7.2501,5.9263],[7.3879,5.8421],[7.405,5.5432],[7.2515,5.1947],[7.1765,4.8737],[7.4963,4.8174],[7.5253,5.3053],[7.7053,5.5241],[7.8971,5.365],[7.8778,5.6903]]]}},{"type":"Feature","id":"label-NGA-2841","properties":{"kind":"division-label","code":"NGA-2841","countryCode":"NGA","name":"Abia State","localName":"Abia State","labelEnglish":"Abia State","labelLocal":"Abia State","labelBoth":"Abia State","type":"State","iso":"NG-AB","qid":"Q320852"},"geometry":{"type":"Point","coordinates":[7.56019,5.57402]}},{"type":"Feature","id":"NGA-2863","properties":{"kind":"division","code":"NGA-2863","countryCode":"NGA","name":"Ebonyi State","localName":"Ebonyi State","labelEnglish":"Ebonyi State","labelLocal":"Ebonyi State","labelBoth":"Ebonyi State","type":"State","iso":"NG-EB","qid":"Q506808"},"geometry":{"type":"Polygon","coordinates":[[[8.2919,6.6756],[8.2484,6.7735],[7.8277,6.6302],[7.6957,6.6065],[7.6932,5.9419],[7.5335,5.973],[7.5262,5.8503],[7.8778,5.6903],[7.9746,5.9926],[8.2465,6.0179],[8.4389,6.4012],[8.2919,6.6756]]]}},{"type":"Feature","id":"label-NGA-2863","properties":{"kind":"division-label","code":"NGA-2863","countryCode":"NGA","name":"Ebonyi State","localName":"Ebonyi State","labelEnglish":"Ebonyi State","labelLocal":"Ebonyi State","labelBoth":"Ebonyi State","type":"State","iso":"NG-EB","qid":"Q506808"},"geometry":{"type":"Point","coordinates":[7.98254,6.32648]}},{"type":"Feature","id":"NGA-2857","properties":{"kind":"division","code":"NGA-2857","countryCode":"NGA","name":"Anambra State","localName":"Anambra State","labelEnglish":"Anambra State","labelLocal":"Anambra State","labelBoth":"Anambra State","type":"State","iso":"NG-AN","qid":"Q117714"},"geometry":{"type":"Polygon","coordinates":[[[6.6057,5.7232],[6.6688,5.6943],[6.9485,5.8845],[7.2501,5.9263],[7.3637,6.0206],[7.0854,6.4187],[7.1003,6.6678],[6.906,6.7761],[6.6767,6.5351],[6.7609,6.1671],[6.6057,5.7232]]]}},{"type":"Feature","id":"label-NGA-2857","properties":{"kind":"division-label","code":"NGA-2857","countryCode":"NGA","name":"Anambra State","localName":"Anambra State","labelEnglish":"Anambra State","labelLocal":"Anambra State","labelBoth":"Anambra State","type":"State","iso":"NG-AN","qid":"Q117714"},"geometry":{"type":"Point","coordinates":[6.98472,6.30827]}},{"type":"Feature","id":"NGA-2861","properties":{"kind":"division","code":"NGA-2861","countryCode":"NGA","name":"Edo State","localName":"Edo State","labelEnglish":"Edo State","labelLocal":"Edo State","labelBoth":"Edo State","type":"State","iso":"NG-ED","qid":"Q682704"},"geometry":{"type":"Polygon","coordinates":[[[6.6767,6.5351],[6.7194,7.1489],[6.0284,7.5734],[5.6858,6.739],[5.4956,6.8723],[5.2156,6.8724],[4.9793,6.2844],[5.1152,6.1269],[5.5301,5.9821],[5.6634,6.0399],[6.0215,5.7619],[6.2107,5.9367],[6.0528,6.2639],[6.6767,6.5351]]]}},{"type":"Feature","id":"label-NGA-2861","properties":{"kind":"division-label","code":"NGA-2861","countryCode":"NGA","name":"Edo State","localName":"Edo State","labelEnglish":"Edo State","labelLocal":"Edo State","labelBoth":"Edo State","type":"State","iso":"NG-ED","qid":"Q682704"},"geometry":{"type":"Point","coordinates":[5.84934,6.52416]}},{"type":"Feature","id":"NGA-2858","properties":{"kind":"division","code":"NGA-2858","countryCode":"NGA","name":"Bauchi State","localName":"Bauchi State","labelEnglish":"Bauchi State","labelLocal":"Bauchi State","labelBoth":"Bauchi State","type":"State","iso":"NG-BA","qid":"Q503936"},"geometry":{"type":"Polygon","coordinates":[[[10.5604,9.4967],[11.0686,9.5864],[10.9714,9.8878],[10.7651,10.0394],[10.8234,10.4456],[10.5386,10.7116],[10.6738,11.0414],[11.0142,11.2947],[10.7352,12.4023],[10.6095,12.5024],[10.2647,12.4027],[10.155,12.0085],[9.6997,11.8512],[9.813,11.455],[10.0006,11.2623],[10.3902,11.1776],[10.1798,10.9334],[9.9483,10.9537],[9.8105,11.2614],[9.2247,11.3424],[8.7677,11.0848],[8.7413,10.549],[8.785,10.3356],[8.9011,10.3301],[8.9605,10.0231],[9.1772,9.996],[9.1597,9.7289],[9.2991,9.5822],[9.7354,9.5672],[9.8723,9.8371],[10.5604,9.4967]]]}},{"type":"Feature","id":"label-NGA-2858","properties":{"kind":"division-label","code":"NGA-2858","countryCode":"NGA","name":"Bauchi State","localName":"Bauchi State","labelEnglish":"Bauchi State","labelLocal":"Bauchi State","labelBoth":"Bauchi State","type":"State","iso":"NG-BA","qid":"Q503936"},"geometry":{"type":"Point","coordinates":[9.88584,10.4101]}},{"type":"Feature","id":"NGA-2866","properties":{"kind":"division","code":"NGA-2866","countryCode":"NGA","name":"Plateau State","localName":"Plateau State","labelEnglish":"Plateau State","labelLocal":"Plateau State","labelBoth":"Plateau State","type":"State","iso":"NG-PL","qid":"Q503928"},"geometry":{"type":"Polygon","coordinates":[[[10.5604,9.4967],[9.8723,9.8371],[9.7354,9.5672],[9.2991,9.5822],[9.1597,9.7289],[9.1772,9.996],[8.9605,10.0231],[8.9011,10.3301],[8.785,10.3356],[8.6601,10.1692],[8.5593,9.4845],[8.66,9.2048],[9.0532,8.9262],[8.8847,8.7274],[8.9516,8.5144],[9.4077,8.4864],[9.6155,8.3512],[9.8175,8.3731],[10.2289,8.7467],[10.6185,8.8801],[10.5604,9.4967]]]}},{"type":"Feature","id":"label-NGA-2866","properties":{"kind":"division-label","code":"NGA-2866","countryCode":"NGA","name":"Plateau State","localName":"Plateau State","labelEnglish":"Plateau State","labelLocal":"Plateau State","labelBoth":"Plateau State","type":"State","iso":"NG-PL","qid":"Q503928"},"geometry":{"type":"Point","coordinates":[9.60601,8.95327]}},{"type":"Feature","id":"NGA-2867","properties":{"kind":"division","code":"NGA-2867","countryCode":"NGA","name":"Nasarawa State","localName":"Nasarawa State","labelEnglish":"Nasarawa State","labelLocal":"Nasarawa State","labelBoth":"Nasarawa State","type":"State","iso":"NG-NA","qid":"Q836645"},"geometry":{"type":"Polygon","coordinates":[[[9.6155,8.3512],[9.4077,8.4864],[8.9516,8.5144],[8.8847,8.7274],[9.0532,8.9262],[8.66,9.2048],[8.4836,8.9992],[8.2635,9.1532],[8.0998,9.005],[7.9509,9.3459],[7.6258,9.3107],[7.4711,8.6392],[7.2635,8.4714],[6.9781,8.4118],[6.9384,7.8744],[7.2858,8.0281],[7.666,8.0257],[8.4182,7.7751],[8.3544,8.0012],[8.558,8.1334],[8.9789,8.0555],[9.1694,7.9145],[9.3696,8.0579],[9.3352,8.317],[9.6155,8.3512]]]}},{"type":"Feature","id":"label-NGA-2867","properties":{"kind":"division-label","code":"NGA-2867","countryCode":"NGA","name":"Nasarawa State","localName":"Nasarawa State","labelEnglish":"Nasarawa State","labelLocal":"Nasarawa State","labelBoth":"Nasarawa State","type":"State","iso":"NG-NA","qid":"Q836645"},"geometry":{"type":"Point","coordinates":[8.27694,8.50412]}},{"type":"Feature","id":"NGA-2859","properties":{"kind":"division","code":"NGA-2859","countryCode":"NGA","name":"Gombe State","localName":"Gombe State","labelEnglish":"Gombe State","labelLocal":"Gombe State","labelBoth":"Gombe State","type":"State","iso":"NG-GO","qid":"Q376241"},"geometry":{"type":"Polygon","coordinates":[[[11.0686,9.5864],[11.5259,9.592],[11.9404,9.8257],[11.9456,10.0447],[11.6891,10.2632],[11.701,10.5942],[11.593,10.5972],[11.5903,10.9282],[11.354,11.2159],[11.0142,11.2947],[10.6738,11.0414],[10.5386,10.7116],[10.8234,10.4456],[10.7651,10.0394],[10.9714,9.8878],[11.0686,9.5864]]]}},{"type":"Feature","id":"label-NGA-2859","properties":{"kind":"division-label","code":"NGA-2859","countryCode":"NGA","name":"Gombe State","localName":"Gombe State","labelEnglish":"Gombe State","labelLocal":"Gombe State","labelBoth":"Gombe State","type":"State","iso":"NG-GO","qid":"Q376241"},"geometry":{"type":"Point","coordinates":[11.2421,10.4342]}},{"type":"Feature","id":"NGA-2862","properties":{"kind":"division","code":"NGA-2862","countryCode":"NGA","name":"Enugu State","localName":"Enugu State","labelEnglish":"Enugu State","labelLocal":"Enugu State","labelBoth":"Enugu State","type":"State","iso":"NG-EN","qid":"Q3817714"},"geometry":{"type":"Polygon","coordinates":[[[7.4937,7.0745],[7.4117,7.1078],[7.021,6.7783],[6.906,6.7761],[7.1003,6.6678],[7.0854,6.4187],[7.3637,6.0206],[7.5335,5.973],[7.6932,5.9419],[7.6957,6.6065],[7.8277,6.6302],[7.8511,6.8203],[7.6404,6.8621],[7.4937,7.0745]]]}},{"type":"Feature","id":"label-NGA-2862","properties":{"kind":"division-label","code":"NGA-2862","countryCode":"NGA","name":"Enugu State","localName":"Enugu State","labelEnglish":"Enugu State","labelLocal":"Enugu State","labelBoth":"Enugu State","type":"State","iso":"NG-EN","qid":"Q3817714"},"geometry":{"type":"Point","coordinates":[7.38408,6.55396]}},{"type":"Feature","id":"NGA-2865","properties":{"kind":"division","code":"NGA-2865","countryCode":"NGA","name":"Kogi State","localName":"Kogi State","labelEnglish":"Kogi State","labelLocal":"Kogi State","labelBoth":"Kogi State","type":"State","iso":"NG-KO","qid":"Q387745"},"geometry":{"type":"Polygon","coordinates":[[[7.666,8.0257],[7.2858,8.0281],[6.9384,7.8744],[6.9781,8.4118],[6.835,8.4068],[6.6914,8.2069],[6.2159,8.73],[6.0868,8.3804],[5.5157,8.5307],[5.3569,8.3482],[5.536,8.0696],[5.8114,7.7561],[6.0284,7.5734],[6.7194,7.1489],[6.6767,6.5351],[6.906,6.7761],[7.021,6.7783],[7.4117,7.1078],[7.4937,7.0745],[7.7855,7.1711],[7.666,8.0257]]]}},{"type":"Feature","id":"label-NGA-2865","properties":{"kind":"division-label","code":"NGA-2865","countryCode":"NGA","name":"Kogi State","localName":"Kogi State","labelEnglish":"Kogi State","labelLocal":"Kogi State","labelBoth":"Kogi State","type":"State","iso":"NG-KO","qid":"Q387745"},"geometry":{"type":"Point","coordinates":[6.6142,7.78485]}},{"type":"Feature","id":"NGA-2855","properties":{"kind":"division","code":"NGA-2855","countryCode":"NGA","name":"Osun State","localName":"Osun State","labelEnglish":"Osun State","labelLocal":"Osun State","labelBoth":"Osun State","type":"State","iso":"NG-OS","qid":"Q682721"},"geometry":{"type":"Polygon","coordinates":[[[4.0771,7.1124],[4.5611,6.9883],[4.8693,7.0982],[4.9915,7.4148],[4.9261,7.8431],[5.0641,8.0306],[4.5556,8.0341],[4.3999,7.8506],[4.0864,7.8477],[4.1455,7.4744],[4.0771,7.1124]]]}},{"type":"Feature","id":"label-NGA-2855","properties":{"kind":"division-label","code":"NGA-2855","countryCode":"NGA","name":"Osun State","localName":"Osun State","labelEnglish":"Osun State","labelLocal":"Osun State","labelBoth":"Osun State","type":"State","iso":"NG-OS","qid":"Q682721"},"geometry":{"type":"Point","coordinates":[4.54911,7.47613]}},{"type":"Feature","id":"NGA-2843","properties":{"kind":"division","code":"NGA-2843","countryCode":"NGA","name":"Imo State","localName":"Imo State","labelEnglish":"Imo State","labelLocal":"Imo State","labelBoth":"Imo State","type":"State","iso":"NG-IM","qid":"Q842939"},"geometry":{"type":"Polygon","coordinates":[[[6.6688,5.6943],[6.6262,5.502],[6.8702,5.1949],[7.2515,5.1947],[7.405,5.5432],[7.3879,5.8421],[7.2501,5.9263],[6.9485,5.8845],[6.6688,5.6943]]]}},{"type":"Feature","id":"label-NGA-2843","properties":{"kind":"division-label","code":"NGA-2843","countryCode":"NGA","name":"Imo State","localName":"Imo State","labelEnglish":"Imo State","labelLocal":"Imo State","labelBoth":"Imo State","type":"State","iso":"NG-IM","qid":"Q842939"},"geometry":{"type":"Point","coordinates":[7.01557,5.55004]}},{"type":"Feature","id":"NGA-2854","properties":{"kind":"division","code":"NGA-2854","countryCode":"NGA","name":"Ekiti State","localName":"Ekiti State","labelEnglish":"Ekiti State","labelLocal":"Ekiti State","labelBoth":"Ekiti State","type":"State","iso":"NG-EK","qid":"Q534917"},"geometry":{"type":"Polygon","coordinates":[[[5.536,8.0696],[5.3537,7.9743],[5.0641,8.0306],[4.9261,7.8431],[4.9915,7.4148],[5.3306,7.4199],[5.4325,7.2801],[5.6237,7.6197],[5.8114,7.7561],[5.536,8.0696]]]}},{"type":"Feature","id":"label-NGA-2854","properties":{"kind":"division-label","code":"NGA-2854","countryCode":"NGA","name":"Ekiti State","localName":"Ekiti State","labelEnglish":"Ekiti State","labelLocal":"Ekiti State","labelBoth":"Ekiti State","type":"State","iso":"NG-EK","qid":"Q534917"},"geometry":{"type":"Point","coordinates":[5.35929,7.67104]}},{"type":"Feature","id":"NGA-2864","properties":{"kind":"division","code":"NGA-2864","countryCode":"NGA","name":"Kaduna State","localName":"Kaduna State","labelEnglish":"Kaduna State","labelLocal":"Kaduna State","labelBoth":"Kaduna State","type":"State","iso":"NG-KD","qid":"Q878284"},"geometry":{"type":"Polygon","coordinates":[[[8.7413,10.549],[8.4807,10.6712],[8.5424,11.082],[8.114,11.3727],[8.1388,11.4789],[7.7762,11.3592],[7.4668,11.3688],[7.1865,11.1122],[6.8818,11.3661],[6.6686,11.0657],[6.3427,11.0396],[6.1619,10.8627],[6.0931,10.4826],[6.1738,10.3612],[6.4267,10.5736],[6.8352,10.6231],[7.0675,10.2989],[6.8921,10.1052],[7.2792,9.9776],[7.2173,9.741],[7.3381,9.5866],[7.3108,9.2974],[7.6258,9.3107],[7.9509,9.3459],[8.0998,9.005],[8.2635,9.1532],[8.4836,8.9992],[8.66,9.2048],[8.5593,9.4845],[8.6601,10.1692],[8.785,10.3356],[8.7413,10.549]]]}},{"type":"Feature","id":"label-NGA-2864","properties":{"kind":"division-label","code":"NGA-2864","countryCode":"NGA","name":"Kaduna State","localName":"Kaduna State","labelEnglish":"Kaduna State","labelLocal":"Kaduna State","labelBoth":"Kaduna State","type":"State","iso":"NG-KD","qid":"Q878284"},"geometry":{"type":"Point","coordinates":[7.43906,10.3294]}},{"type":"Feature","id":"NGA-2869","properties":{"kind":"division","code":"NGA-2869","countryCode":"NGA","name":"Kano State","localName":"Kano State","labelEnglish":"Kano State","labelLocal":"Kano State","labelBoth":"Kano State","type":"State","iso":"NG-KN","qid":"Q682571"},"geometry":{"type":"Polygon","coordinates":[[[9.2247,11.3424],[9.3507,11.555],[9.1296,11.7158],[9.1812,12.0303],[8.9232,12.0831],[8.6783,12.5393],[8.2828,12.5696],[7.8413,12.2661],[7.8937,11.6508],[7.6922,11.4673],[7.7762,11.3592],[8.1388,11.4789],[8.114,11.3727],[8.5424,11.082],[8.4807,10.6712],[8.7413,10.549],[8.7677,11.0848],[9.2247,11.3424]]]}},{"type":"Feature","id":"label-NGA-2869","properties":{"kind":"division-label","code":"NGA-2869","countryCode":"NGA","name":"Kano State","localName":"Kano State","labelEnglish":"Kano State","labelLocal":"Kano State","labelBoth":"Kano State","type":"State","iso":"NG-KN","qid":"Q682571"},"geometry":{"type":"Point","coordinates":[8.54146,11.7323]}},{"type":"Feature","id":"NGA-3470","properties":{"kind":"division","code":"NGA-3470","countryCode":"NGA","name":"Federal Capital Territory","localName":"Federal Capital Territory","labelEnglish":"Federal Capital Territory","labelLocal":"Federal Capital Territory","labelBoth":"Federal Capital Territory","type":"State","iso":"NG-FC","qid":"Q509300"},"geometry":{"type":"Polygon","coordinates":[[[6.9781,8.4118],[7.2635,8.4714],[7.4711,8.6392],[7.6258,9.3107],[7.3108,9.2974],[7.1702,9.0992],[7.0234,9.2138],[6.7496,9.1856],[6.759,8.4722],[6.835,8.4068],[6.9781,8.4118]]]}},{"type":"Feature","id":"label-NGA-3470","properties":{"kind":"division-label","code":"NGA-3470","countryCode":"NGA","name":"Federal Capital Territory","localName":"Federal Capital Territory","labelEnglish":"Federal Capital Territory","labelLocal":"Federal Capital Territory","labelBoth":"Federal Capital Territory","type":"State","iso":"NG-FC","qid":"Q509300"},"geometry":{"type":"Point","coordinates":[7.18889,8.78852]}}]}