{"type":"FeatureCollection","features":[{"type":"Feature","id":"NIC-4800","properties":{"kind":"division","code":"NIC-4800","countryCode":"NIC","name":"Río San Juan","localName":"Río San Juan","labelEnglish":"Río San Juan","labelLocal":"Río San Juan","labelBoth":"Río San Juan","type":"Department","iso":"NI-SJ","qid":"Q728155"},"geometry":{"type":"Polygon","coordinates":[[[-84.885,10.9477],[-84.6765,11.0704],[-84.3555,10.9946],[-84.1577,10.7884],[-83.7638,10.7737],[-83.6965,10.9366],[-83.7183,10.944],[-83.9002,11.1151],[-84.1744,11.1444],[-84.5526,11.4524],[-84.6074,11.8625],[-84.795,11.8678],[-85.1015,11.6315],[-85.341,11.1471],[-84.885,10.9477]]]}},{"type":"Feature","id":"label-NIC-4800","properties":{"kind":"division-label","code":"NIC-4800","countryCode":"NIC","name":"Río San Juan","localName":"Río San Juan","labelEnglish":"Río San Juan","labelLocal":"Río San Juan","labelBoth":"Río San Juan","type":"Department","iso":"NI-SJ","qid":"Q728155"},"geometry":{"type":"Point","coordinates":[-84.5184,11.1691]}},{"type":"Feature","id":"NIC-657","properties":{"kind":"division","code":"NIC-657","countryCode":"NIC","name":"North Caribbean Coast","localName":"North Caribbean Coast","labelEnglish":"North Caribbean Coast","labelLocal":"North Caribbean Coast","labelBoth":"North Caribbean Coast","type":"Autonomous Region","iso":"NI-AN","qid":"Q498452"},"geometry":{"type":"Polygon","coordinates":[[[-84.9999,14.742],[-85.0237,14.6025],[-84.838,14.3068],[-84.864,14.0403],[-85.0518,13.7426],[-85.3651,13.6919],[-85.5064,13.3706],[-85.2418,13.1452],[-84.8831,13.3815],[-84.7514,13.2157],[-84.1526,13.2754],[-83.8072,13.2182],[-83.5296,13.0326],[-83.5701,13.2871],[-83.4313,13.9567],[-83.1918,14.3869],[-83.2992,14.7712],[-83.1304,14.997],[-83.3903,15.031],[-83.6156,14.8727],[-84.4827,14.6195],[-84.7702,14.8051],[-84.9999,14.742]]]}},{"type":"Feature","id":"label-NIC-657","properties":{"kind":"division-label","code":"NIC-657","countryCode":"NIC","name":"North Caribbean Coast","localName":"North Caribbean Coast","labelEnglish":"North Caribbean Coast","labelLocal":"North Caribbean Coast","labelBoth":"North Caribbean Coast","type":"Autonomous Region","iso":"NI-AN","qid":"Q498452"},"geometry":{"type":"Point","coordinates":[-84.1501,13.997]}},{"type":"Feature","id":"NIC-656","properties":{"kind":"division","code":"NIC-656","countryCode":"NIC","name":"Jinotega","localName":"Jinotega","labelEnglish":"Jinotega","labelLocal":"Jinotega","labelBoth":"Jinotega","type":"Department","iso":"NI-JI","qid":"Q728120"},"geometry":{"type":"Polygon","coordinates":[[[-85.0237,14.6025],[-85.158,14.3383],[-85.5631,14.042],[-85.7431,13.824],[-85.8313,13.5534],[-86.0597,13.4933],[-86.2129,13.3903],[-86.0995,13.047],[-85.9183,13.0175],[-85.5064,13.3706],[-85.3651,13.6919],[-85.0518,13.7426],[-84.864,14.0403],[-84.838,14.3068],[-85.0237,14.6025]]]}},{"type":"Feature","id":"label-NIC-656","properties":{"kind":"division-label","code":"NIC-656","countryCode":"NIC","name":"Jinotega","localName":"Jinotega","labelEnglish":"Jinotega","labelLocal":"Jinotega","labelBoth":"Jinotega","type":"Department","iso":"NI-JI","qid":"Q728120"},"geometry":{"type":"Point","coordinates":[-85.5417,13.6975]}},{"type":"Feature","id":"NIC-667","properties":{"kind":"division","code":"NIC-667","countryCode":"NIC","name":"Nueva Segovia","localName":"Nueva Segovia","labelEnglish":"Nueva Segovia","labelLocal":"Nueva Segovia","labelBoth":"Nueva Segovia","type":"Department","iso":"NI-NS","qid":"Q728022"},"geometry":{"type":"Polygon","coordinates":[[[-85.7431,13.824],[-86.0967,14.0441],[-86.4101,13.749],[-86.7712,13.7079],[-86.7641,13.6373],[-86.0597,13.4933],[-85.8313,13.5534],[-85.7431,13.824]]]}},{"type":"Feature","id":"label-NIC-667","properties":{"kind":"division-label","code":"NIC-667","countryCode":"NIC","name":"Nueva Segovia","localName":"Nueva Segovia","labelEnglish":"Nueva Segovia","labelLocal":"Nueva Segovia","labelBoth":"Nueva Segovia","type":"Department","iso":"NI-NS","qid":"Q728022"},"geometry":{"type":"Point","coordinates":[-86.2589,13.7183]}},{"type":"Feature","id":"NIC-663","properties":{"kind":"division","code":"NIC-663","countryCode":"NIC","name":"Chinandega","localName":"Chinandega","labelEnglish":"Chinandega","labelLocal":"Chinandega","labelBoth":"Chinandega","type":"Department","iso":"NI-CI","qid":"Q644024"},"geometry":{"type":"Polygon","coordinates":[[[-86.7327,13.2685],[-86.9108,13.2396],[-87.035,12.9798],[-87.314,12.9816],[-87.5839,13.0573],[-87.6465,12.8724],[-87.1208,12.4584],[-86.67,12.7788],[-86.7207,13.0902],[-86.7149,13.2004],[-86.7327,13.2685]]]}},{"type":"Feature","id":"label-NIC-663","properties":{"kind":"division-label","code":"NIC-663","countryCode":"NIC","name":"Chinandega","localName":"Chinandega","labelEnglish":"Chinandega","labelLocal":"Chinandega","labelBoth":"Chinandega","type":"Department","iso":"NI-CI","qid":"Q644024"},"geometry":{"type":"Point","coordinates":[-87.1702,12.7475]}},{"type":"Feature","id":"NIC-665","properties":{"kind":"division","code":"NIC-665","countryCode":"NIC","name":"Madriz","localName":"Madriz","labelEnglish":"Madriz","labelLocal":"Madriz","labelBoth":"Madriz","type":"Department","iso":"NI-MD","qid":"Q728056"},"geometry":{"type":"Polygon","coordinates":[[[-86.7327,13.2685],[-86.7149,13.2004],[-86.5628,13.3968],[-86.2129,13.3903],[-86.0597,13.4933],[-86.7641,13.6373],[-86.7327,13.2685]]]}},{"type":"Feature","id":"label-NIC-665","properties":{"kind":"division-label","code":"NIC-665","countryCode":"NIC","name":"Madriz","localName":"Madriz","labelEnglish":"Madriz","labelLocal":"Madriz","labelBoth":"Madriz","type":"Department","iso":"NI-MD","qid":"Q728056"},"geometry":{"type":"Point","coordinates":[-86.412,13.4963]}},{"type":"Feature","id":"NIC-24","properties":{"kind":"division","code":"NIC-24","countryCode":"NIC","name":"Rivas","localName":"Rivas","labelEnglish":"Rivas","labelLocal":"Rivas","labelBoth":"Rivas","type":"Department","iso":"NI-RI","qid":"Q728127"},"geometry":{"type":"Polygon","coordinates":[[[-85.2365,11.0531],[-84.885,10.9477],[-85.341,11.1471],[-85.1015,11.6315],[-85.5229,11.6805],[-86.1017,11.6108],[-86.1752,11.5195],[-85.7017,11.0809],[-85.5978,11.2099],[-85.2365,11.0531]]]}},{"type":"Feature","id":"label-NIC-24","properties":{"kind":"division-label","code":"NIC-24","countryCode":"NIC","name":"Rivas","localName":"Rivas","labelEnglish":"Rivas","labelLocal":"Rivas","labelBoth":"Rivas","type":"Department","iso":"NI-RI","qid":"Q728127"},"geometry":{"type":"Point","coordinates":[-85.7633,11.3524]}},{"type":"Feature","id":"NIC-644","properties":{"kind":"division","code":"NIC-644","countryCode":"NIC","name":"South Caribbean Coast","localName":"South Caribbean Coast","labelEnglish":"South Caribbean Coast","labelLocal":"South Caribbean Coast","labelBoth":"South Caribbean Coast","type":"Autonomous Region","iso":"NI-AS","qid":"Q291279"},"geometry":{"type":"Polygon","coordinates":[[[-83.5296,13.0326],[-83.8072,13.2182],[-84.1526,13.2754],[-84.7514,13.2157],[-84.7482,12.9503],[-85.2268,12.7787],[-85.1792,12.6602],[-84.9685,12.6495],[-84.6074,11.8625],[-84.5526,11.4524],[-84.1744,11.1444],[-83.9002,11.1151],[-83.7183,10.944],[-83.868,11.3749],[-83.653,11.6115],[-83.6999,11.8499],[-83.617,12.348],[-83.7672,12.5467],[-83.5413,12.5806],[-83.5296,13.0326]]]}},{"type":"Feature","id":"label-NIC-644","properties":{"kind":"division-label","code":"NIC-644","countryCode":"NIC","name":"South Caribbean Coast","localName":"South Caribbean Coast","labelEnglish":"South Caribbean Coast","labelLocal":"South Caribbean Coast","labelBoth":"South Caribbean Coast","type":"Autonomous Region","iso":"NI-AS","qid":"Q291279"},"geometry":{"type":"Point","coordinates":[-84.2147,12.2265]}},{"type":"Feature","id":"NIC-658","properties":{"kind":"division","code":"NIC-658","countryCode":"NIC","name":"León","localName":"León","labelEnglish":"León","labelLocal":"León","labelBoth":"León","type":"Department","iso":"NI-LE","qid":"Q586818"},"geometry":{"type":"Polygon","coordinates":[[[-86.6707,12.0005],[-86.2888,12.6365],[-86.2639,12.8485],[-86.4912,13.1215],[-86.7207,13.0902],[-86.67,12.7788],[-87.1208,12.4584],[-86.7975,12.2185],[-86.6707,12.0005]]]}},{"type":"Feature","id":"label-NIC-658","properties":{"kind":"division-label","code":"NIC-658","countryCode":"NIC","name":"León","localName":"León","labelEnglish":"León","labelLocal":"León","labelBoth":"León","type":"Department","iso":"NI-LE","qid":"Q586818"},"geometry":{"type":"Point","coordinates":[-86.7187,12.4168]}},{"type":"Feature","id":"NIC-659","properties":{"kind":"division","code":"NIC-659","countryCode":"NIC","name":"Managua","localName":"Managua","labelEnglish":"Managua","labelLocal":"Managua","labelBoth":"Managua","type":"Department","iso":"NI-MN","qid":"Q260009"},"geometry":{"type":"Polygon","coordinates":[[[-86.5023,11.7668],[-86.2814,11.957],[-86.0005,12.1438],[-85.8515,12.1988],[-85.9723,12.5221],[-86.2888,12.6365],[-86.6707,12.0005],[-86.5023,11.7668]]]}},{"type":"Feature","id":"label-NIC-659","properties":{"kind":"division-label","code":"NIC-659","countryCode":"NIC","name":"Managua","localName":"Managua","labelEnglish":"Managua","labelLocal":"Managua","labelBoth":"Managua","type":"Department","iso":"NI-MN","qid":"Q260009"},"geometry":{"type":"Point","coordinates":[-86.2493,12.3035]}},{"type":"Feature","id":"NIC-654","properties":{"kind":"division","code":"NIC-654","countryCode":"NIC","name":"Carazo","localName":"Carazo","labelEnglish":"Carazo","labelLocal":"Carazo","labelBoth":"Carazo","type":"Department","iso":"NI-CA","qid":"Q461133"},"geometry":{"type":"Polygon","coordinates":[[[-86.1752,11.5195],[-86.1017,11.6108],[-86.0725,11.8562],[-86.2814,11.957],[-86.5023,11.7668],[-86.1752,11.5195]]]}},{"type":"Feature","id":"label-NIC-654","properties":{"kind":"division-label","code":"NIC-654","countryCode":"NIC","name":"Carazo","localName":"Carazo","labelEnglish":"Carazo","labelLocal":"Carazo","labelBoth":"Carazo","type":"Department","iso":"NI-CA","qid":"Q461133"},"geometry":{"type":"Point","coordinates":[-86.2874,11.7692]}},{"type":"Feature","id":"NIC-666","properties":{"kind":"division","code":"NIC-666","countryCode":"NIC","name":"Matagalpa","localName":"Matagalpa","labelEnglish":"Matagalpa","labelLocal":"Matagalpa","labelBoth":"Matagalpa","type":"Department","iso":"NI-MT","qid":"Q728099"},"geometry":{"type":"Polygon","coordinates":[[[-85.9723,12.5221],[-85.4076,12.7433],[-85.1792,12.6602],[-85.2268,12.7787],[-84.7482,12.9503],[-84.7514,13.2157],[-84.8831,13.3815],[-85.2418,13.1452],[-85.5064,13.3706],[-85.9183,13.0175],[-86.0995,13.047],[-86.2639,12.8485],[-86.2888,12.6365],[-85.9723,12.5221]]]}},{"type":"Feature","id":"label-NIC-666","properties":{"kind":"division-label","code":"NIC-666","countryCode":"NIC","name":"Matagalpa","localName":"Matagalpa","labelEnglish":"Matagalpa","labelLocal":"Matagalpa","labelBoth":"Matagalpa","type":"Department","iso":"NI-MT","qid":"Q728099"},"geometry":{"type":"Point","coordinates":[-85.4926,13.0242]}},{"type":"Feature","id":"NIC-668","properties":{"kind":"division","code":"NIC-668","countryCode":"NIC","name":"Boaco","localName":"Boaco","labelEnglish":"Boaco","labelLocal":"Boaco","labelBoth":"Boaco","type":"Department","iso":"NI-BO","qid":"Q280973"},"geometry":{"type":"Polygon","coordinates":[[[-85.1792,12.6602],[-85.4076,12.7433],[-85.9723,12.5221],[-85.8515,12.1988],[-85.6567,12.0465],[-85.5863,12.3047],[-85.078,12.4409],[-84.9685,12.6495],[-85.1792,12.6602]]]}},{"type":"Feature","id":"label-NIC-668","properties":{"kind":"division-label","code":"NIC-668","countryCode":"NIC","name":"Boaco","localName":"Boaco","labelEnglish":"Boaco","labelLocal":"Boaco","labelBoth":"Boaco","type":"Department","iso":"NI-BO","qid":"Q280973"},"geometry":{"type":"Point","coordinates":[-85.4734,12.524]}},{"type":"Feature","id":"NIC-669","properties":{"kind":"division","code":"NIC-669","countryCode":"NIC","name":"Chontales","localName":"Chontales","labelEnglish":"Chontales","labelLocal":"Chontales","labelBoth":"Chontales","type":"Department","iso":"NI-CO","qid":"Q498443"},"geometry":{"type":"Polygon","coordinates":[[[-84.9685,12.6495],[-85.078,12.4409],[-85.5863,12.3047],[-85.6567,12.0465],[-85.5229,11.6805],[-85.1015,11.6315],[-84.795,11.8678],[-84.6074,11.8625],[-84.9685,12.6495]]]}},{"type":"Feature","id":"label-NIC-669","properties":{"kind":"division-label","code":"NIC-669","countryCode":"NIC","name":"Chontales","localName":"Chontales","labelEnglish":"Chontales","labelLocal":"Chontales","labelBoth":"Chontales","type":"Department","iso":"NI-CO","qid":"Q498443"},"geometry":{"type":"Point","coordinates":[-85.1156,12.0292]}},{"type":"Feature","id":"NIC-664","properties":{"kind":"division","code":"NIC-664","countryCode":"NIC","name":"Estelí","localName":"Estelí","labelEnglish":"Estelí","labelLocal":"Estelí","labelBoth":"Estelí","type":"Department","iso":"NI-ES","qid":"Q728015"},"geometry":{"type":"Polygon","coordinates":[[[-86.0995,13.047],[-86.2129,13.3903],[-86.5628,13.3968],[-86.7149,13.2004],[-86.7207,13.0902],[-86.4912,13.1215],[-86.2639,12.8485],[-86.0995,13.047]]]}},{"type":"Feature","id":"label-NIC-664","properties":{"kind":"division-label","code":"NIC-664","countryCode":"NIC","name":"Estelí","localName":"Estelí","labelEnglish":"Estelí","labelLocal":"Estelí","labelBoth":"Estelí","type":"Department","iso":"NI-ES","qid":"Q728015"},"geometry":{"type":"Point","coordinates":[-86.4072,13.225]}},{"type":"Feature","id":"NIC-655","properties":{"kind":"division","code":"NIC-655","countryCode":"NIC","name":"Granada","localName":"Granada","labelEnglish":"Granada","labelLocal":"Granada","labelBoth":"Granada","type":"Department","iso":"NI-GR","qid":"Q258405"},"geometry":{"type":"Polygon","coordinates":[[[-85.8515,12.1988],[-86.0005,12.1438],[-86.0725,11.8562],[-86.1017,11.6108],[-85.5229,11.6805],[-85.6567,12.0465],[-85.8515,12.1988]]]}},{"type":"Feature","id":"label-NIC-655","properties":{"kind":"division-label","code":"NIC-655","countryCode":"NIC","name":"Granada","localName":"Granada","labelEnglish":"Granada","labelLocal":"Granada","labelBoth":"Granada","type":"Department","iso":"NI-GR","qid":"Q258405"},"geometry":{"type":"Point","coordinates":[-85.9698,11.8736]}},{"type":"Feature","id":"NIC-660","properties":{"kind":"division","code":"NIC-660","countryCode":"NIC","name":"Masaya","localName":"Masaya","labelEnglish":"Masaya","labelLocal":"Masaya","labelBoth":"Masaya","type":"Department","iso":"NI-MS","qid":"Q570358"},"geometry":{"type":"Polygon","coordinates":[[[-86.0005,12.1438],[-86.2814,11.957],[-86.0725,11.8562],[-86.0005,12.1438]]]}},{"type":"Feature","id":"label-NIC-660","properties":{"kind":"division-label","code":"NIC-660","countryCode":"NIC","name":"Masaya","localName":"Masaya","labelEnglish":"Masaya","labelLocal":"Masaya","labelBoth":"Masaya","type":"Department","iso":"NI-MS","qid":"Q570358"},"geometry":{"type":"Point","coordinates":[-86.1227,11.9959]}}]}