{"type":"FeatureCollection","features":[{"type":"Feature","id":"NIU-5481","properties":{"kind":"division","code":"NIU-5481","countryCode":"NIU","name":"Niue","localName":"Niue","labelEnglish":"Niue","labelLocal":"Niue","labelBoth":"Niue","type":null,"iso":"NU-X01~","qid":null},"geometry":{"type":"Polygon","coordinates":[[[-169.8511,-18.9651],[-169.9504,-19.0873],[-169.7829,-19.0689],[-169.8511,-18.9651]]]}},{"type":"Feature","id":"label-NIU-5481","properties":{"kind":"division-label","code":"NIU-5481","countryCode":"NIU","name":"Niue","localName":"Niue","labelEnglish":"Niue","labelLocal":"Niue","labelBoth":"Niue","type":null,"iso":"NU-X01~","qid":null},"geometry":{"type":"Point","coordinates":[-169.866,-19.0467]}}]}