{"type":"FeatureCollection","features":[{"type":"Feature","id":"NLD-897","properties":{"kind":"division","code":"NLD-897","countryCode":"NLD","name":"Groningen","localName":"Groningen","labelEnglish":"Groningen","labelLocal":"Groningen","labelBoth":"Groningen","type":"Province","iso":"NL-GR","qid":"Q752"},"geometry":{"type":"Polygon","coordinates":[[[7.1946,53.245],[6.7302,53.4606],[6.186,53.411],[6.3095,53.0921],[6.4684,53.2045],[7.0722,52.8413],[7.1946,53.245]]]}},{"type":"Feature","id":"label-NLD-897","properties":{"kind":"division-label","code":"NLD-897","countryCode":"NLD","name":"Groningen","localName":"Groningen","labelEnglish":"Groningen","labelLocal":"Groningen","labelBoth":"Groningen","type":"Province","iso":"NL-GR","qid":"Q752"},"geometry":{"type":"Point","coordinates":[6.73067,53.279]}},{"type":"Feature","id":"NLD-894","properties":{"kind":"division","code":"NLD-894","countryCode":"NLD","name":"Drenthe","localName":"Drenthe","labelEnglish":"Drenthe","labelLocal":"Drenthe","labelBoth":"Drenthe","type":"Province","iso":"NL-DR","qid":"Q772"},"geometry":{"type":"Polygon","coordinates":[[[7.0722,52.8413],[6.4684,53.2045],[6.3095,53.0921],[6.1295,52.8534],[6.1833,52.68],[6.7191,52.6268],[7.0367,52.6474],[7.0722,52.8413]]]}},{"type":"Feature","id":"label-NLD-894","properties":{"kind":"division-label","code":"NLD-894","countryCode":"NLD","name":"Drenthe","localName":"Drenthe","labelEnglish":"Drenthe","labelLocal":"Drenthe","labelBoth":"Drenthe","type":"Province","iso":"NL-DR","qid":"Q772"},"geometry":{"type":"Point","coordinates":[6.60064,52.9046]}},{"type":"Feature","id":"NLD-899","properties":{"kind":"division","code":"NLD-899","countryCode":"NLD","name":"Overijssel","localName":"Overijssel","labelEnglish":"Overijssel","labelLocal":"Overijssel","labelBoth":"Overijssel","type":"Province","iso":"NL-OV","qid":"Q773"},"geometry":{"type":"Polygon","coordinates":[[[6.7191,52.6268],[6.1833,52.68],[6.1295,52.8534],[5.7852,52.8037],[5.8669,52.5218],[6.1543,52.2256],[6.7716,52.1088],[7.0266,52.2386],[6.7191,52.6268]]]}},{"type":"Feature","id":"label-NLD-899","properties":{"kind":"division-label","code":"NLD-899","countryCode":"NLD","name":"Overijssel","localName":"Overijssel","labelEnglish":"Overijssel","labelLocal":"Overijssel","labelBoth":"Overijssel","type":"Province","iso":"NL-OV","qid":"Q773"},"geometry":{"type":"Point","coordinates":[6.41649,52.4311]}},{"type":"Feature","id":"NLD-896","properties":{"kind":"division","code":"NLD-896","countryCode":"NLD","name":"Gelderland","localName":"Gelderland","labelEnglish":"Gelderland","labelLocal":"Gelderland","labelBoth":"Gelderland","type":"Province","iso":"NL-GE","qid":"Q775"},"geometry":{"type":"Polygon","coordinates":[[[6.7716,52.1088],[6.1543,52.2256],[5.8669,52.5218],[5.4089,52.2677],[5.6157,51.9483],[5.1826,51.9669],[5.0093,51.8252],[5.1349,51.7348],[5.8628,51.7594],[5.9461,51.7463],[6.8107,51.9606],[6.7716,52.1088]]]}},{"type":"Feature","id":"label-NLD-896","properties":{"kind":"division-label","code":"NLD-896","countryCode":"NLD","name":"Gelderland","localName":"Gelderland","labelEnglish":"Gelderland","labelLocal":"Gelderland","labelBoth":"Gelderland","type":"Province","iso":"NL-GE","qid":"Q775"},"geometry":{"type":"Point","coordinates":[5.96001,52.0635]}},{"type":"Feature","id":"NLD-898","properties":{"kind":"division","code":"NLD-898","countryCode":"NLD","name":"Limburg","localName":"Limburg","labelEnglish":"Limburg","labelLocal":"Limburg","labelBoth":"Limburg","type":"Province","iso":"NL-LI","qid":"Q1093"},"geometry":{"type":"Polygon","coordinates":[[[5.9461,51.7463],[5.8628,51.7594],[6.0493,51.5665],[5.5514,51.2168],[5.8291,51.1565],[5.6574,50.8076],[5.7328,50.7589],[5.8913,50.7512],[5.9949,50.7499],[5.9196,51.0297],[6.2078,51.3877],[5.9461,51.7463]]]}},{"type":"Feature","id":"label-NLD-898","properties":{"kind":"division-label","code":"NLD-898","countryCode":"NLD","name":"Limburg","localName":"Limburg","labelEnglish":"Limburg","labelLocal":"Limburg","labelBoth":"Limburg","type":"Province","iso":"NL-LI","qid":"Q1093"},"geometry":{"type":"Point","coordinates":[5.93161,51.2248]}},{"type":"Feature","id":"NLD-903","properties":{"kind":"division","code":"NLD-903","countryCode":"NLD","name":"Zeeland","localName":"Zeeland","labelEnglish":"Zeeland","labelLocal":"Zeeland","labelBoth":"Zeeland","type":"Province","iso":"NL-ZE","qid":"Q705"},"geometry":{"type":"MultiPolygon","coordinates":[[[[3.3988,51.2447],[3.8087,51.2053],[4.2215,51.368],[3.3494,51.3752],[3.3988,51.2447]]],[[[4.2811,51.3689],[4.2638,51.4445],[3.8289,51.6127],[3.4575,51.5551],[3.8272,51.3911],[4.2611,51.3694],[4.2811,51.3689]]],[[[4.1861,51.6168],[4.1978,51.6379],[4.1109,51.647],[4.1861,51.6168]]]]}},{"type":"Feature","id":"label-NLD-903","properties":{"kind":"division-label","code":"NLD-903","countryCode":"NLD","name":"Zeeland","localName":"Zeeland","labelEnglish":"Zeeland","labelLocal":"Zeeland","labelBoth":"Zeeland","type":"Province","iso":"NL-ZE","qid":"Q705"},"geometry":{"type":"Point","coordinates":[3.78515,51.2837]}},{"type":"Feature","id":"NLD-3483","properties":{"kind":"division","code":"NLD-3483","countryCode":"NLD","name":"North Brabant","localName":"North Brabant","labelEnglish":"North Brabant","labelLocal":"North Brabant","labelBoth":"North Brabant","type":"Province","iso":"NL-NB","qid":"Q1101"},"geometry":{"type":"Polygon","coordinates":[[[4.2811,51.3689],[4.4831,51.4743],[5.0121,51.4743],[5.2395,51.2569],[5.5514,51.2168],[6.0493,51.5665],[5.8628,51.7594],[5.1349,51.7348],[5.0093,51.8252],[4.1978,51.6379],[4.1861,51.6168],[4.2068,51.5906],[4.2305,51.5196],[4.2638,51.4445],[4.2811,51.3689]]]}},{"type":"Feature","id":"label-NLD-3483","properties":{"kind":"division-label","code":"NLD-3483","countryCode":"NLD","name":"North Brabant","localName":"North Brabant","labelEnglish":"North Brabant","labelLocal":"North Brabant","labelBoth":"North Brabant","type":"Province","iso":"NL-NB","qid":"Q1101"},"geometry":{"type":"Point","coordinates":[5.16122,51.6008]}},{"type":"Feature","id":"NLD-3485","properties":{"kind":"division","code":"NLD-3485","countryCode":"NLD","name":"South Holland","localName":"South Holland","labelEnglish":"South Holland","labelLocal":"South Holland","labelBoth":"South Holland","type":"Province","iso":"NL-ZH","qid":"Q694"},"geometry":{"type":"Polygon","coordinates":[[[4.1109,51.647],[4.1978,51.6379],[5.0093,51.8252],[5.1826,51.9669],[4.8873,51.9412],[4.7679,52.2212],[4.5081,52.3364],[3.9627,51.8474],[4.1109,51.647]]]}},{"type":"Feature","id":"label-NLD-3485","properties":{"kind":"division-label","code":"NLD-3485","countryCode":"NLD","name":"South Holland","localName":"South Holland","labelEnglish":"South Holland","labelLocal":"South Holland","labelBoth":"South Holland","type":"Province","iso":"NL-ZH","qid":"Q694"},"geometry":{"type":"Point","coordinates":[4.52252,52.0075]}},{"type":"Feature","id":"NLD-3486","properties":{"kind":"division","code":"NLD-3486","countryCode":"NLD","name":"North Holland","localName":"North Holland","labelEnglish":"North Holland","labelLocal":"North Holland","labelBoth":"North Holland","type":"Province","iso":"NL-NH","qid":"Q701"},"geometry":{"type":"Polygon","coordinates":[[[4.5081,52.3364],[4.7679,52.2212],[5.3661,52.2832],[5.0952,52.5822],[5.3703,52.7903],[5.1798,53.009],[4.7455,52.9676],[4.5081,52.3364]]]}},{"type":"Feature","id":"label-NLD-3486","properties":{"kind":"division-label","code":"NLD-3486","countryCode":"NLD","name":"North Holland","localName":"North Holland","labelEnglish":"North Holland","labelLocal":"North Holland","labelBoth":"North Holland","type":"Province","iso":"NL-NH","qid":"Q701"},"geometry":{"type":"Point","coordinates":[4.89736,52.5748]}},{"type":"Feature","id":"NLD-895","properties":{"kind":"division","code":"NLD-895","countryCode":"NLD","name":"Friesland","localName":"Friesland","labelEnglish":"Friesland","labelLocal":"Friesland","labelBoth":"Friesland","type":"Province","iso":"NL-FR","qid":"Q770"},"geometry":{"type":"Polygon","coordinates":[[[5.1798,53.009],[5.3703,52.7903],[5.7852,52.8037],[6.1295,52.8534],[6.3095,53.0921],[6.186,53.411],[5.5916,53.3028],[5.1798,53.009]]]}},{"type":"Feature","id":"label-NLD-895","properties":{"kind":"division-label","code":"NLD-895","countryCode":"NLD","name":"Friesland","localName":"Friesland","labelEnglish":"Friesland","labelLocal":"Friesland","labelBoth":"Friesland","type":"Province","iso":"NL-FR","qid":"Q770"},"geometry":{"type":"Point","coordinates":[5.77345,53.0792]}},{"type":"Feature","id":"NLD-5149","properties":{"kind":"division","code":"NLD-5149","countryCode":"NLD","name":"Bonaire","localName":"Bonaire","labelEnglish":"Bonaire","labelLocal":"Bonaire","labelBoth":"Bonaire","type":"Special Municipality","iso":"NL-BQ1","qid":"Q25396"},"geometry":{"type":"Polygon","coordinates":[[[-68.2115,12.2281],[-68.3766,12.31],[-68.2597,12.0281],[-68.2115,12.2281]]]}},{"type":"Feature","id":"label-NLD-5149","properties":{"kind":"division-label","code":"NLD-5149","countryCode":"NLD","name":"Bonaire","localName":"Bonaire","labelEnglish":"Bonaire","labelLocal":"Bonaire","labelBoth":"Bonaire","type":"Special Municipality","iso":"NL-BQ1","qid":"Q25396"},"geometry":{"type":"Point","coordinates":[-68.3029,12.2314]}},{"type":"Feature","id":"NLD-5148","properties":{"kind":"division","code":"NLD-5148","countryCode":"NLD","name":"Sint Eustatius","localName":"Sint Eustatius","labelEnglish":"Sint Eustatius","labelLocal":"Sint Eustatius","labelBoth":"Sint Eustatius","type":"Special Municipality","iso":"NL-BQ3","qid":"Q26180"},"geometry":{"type":"Polygon","coordinates":[[[-62.9971,17.5256],[-62.9811,17.4677],[-62.9451,17.4854],[-62.9971,17.5256]]]}},{"type":"Feature","id":"label-NLD-5148","properties":{"kind":"division-label","code":"NLD-5148","countryCode":"NLD","name":"Sint Eustatius","localName":"Sint Eustatius","labelEnglish":"Sint Eustatius","labelLocal":"Sint Eustatius","labelBoth":"Sint Eustatius","type":"Special Municipality","iso":"NL-BQ3","qid":"Q26180"},"geometry":{"type":"Point","coordinates":[-62.9719,17.4852]}},{"type":"Feature","id":"NLD-5147","properties":{"kind":"division","code":"NLD-5147","countryCode":"NLD","name":"Saba","localName":"Saba","labelEnglish":"Saba","labelLocal":"Saba","labelBoth":"Saba","type":"Special Municipality","iso":"NL-BQ2","qid":"Q25528"},"geometry":{"type":"Polygon","coordinates":[[[-63.2384,17.6469],[-63.2513,17.6238],[-63.2237,17.6292],[-63.2384,17.6469]]]}},{"type":"Feature","id":"label-NLD-5147","properties":{"kind":"division-label","code":"NLD-5147","countryCode":"NLD","name":"Saba","localName":"Saba","labelEnglish":"Saba","labelLocal":"Saba","labelBoth":"Saba","type":"Special Municipality","iso":"NL-BQ2","qid":"Q25528"},"geometry":{"type":"Point","coordinates":[-63.2371,17.6325]}},{"type":"Feature","id":"NLD-902","properties":{"kind":"division","code":"NLD-902","countryCode":"NLD","name":"Flevoland","localName":"Flevoland","labelEnglish":"Flevoland","labelLocal":"Flevoland","labelBoth":"Flevoland","type":"Province","iso":"NL-FL","qid":"Q707"},"geometry":{"type":"Polygon","coordinates":[[[5.7852,52.8037],[5.3703,52.7903],[5.0952,52.5822],[5.3661,52.2832],[5.4089,52.2677],[5.8669,52.5218],[5.7852,52.8037]]]}},{"type":"Feature","id":"label-NLD-902","properties":{"kind":"division-label","code":"NLD-902","countryCode":"NLD","name":"Flevoland","localName":"Flevoland","labelEnglish":"Flevoland","labelLocal":"Flevoland","labelBoth":"Flevoland","type":"Province","iso":"NL-FL","qid":"Q707"},"geometry":{"type":"Point","coordinates":[5.55746,52.5508]}},{"type":"Feature","id":"NLD-3484","properties":{"kind":"division","code":"NLD-3484","countryCode":"NLD","name":"Utrecht","localName":"Utrecht","labelEnglish":"Utrecht","labelLocal":"Utrecht","labelBoth":"Utrecht","type":"Province","iso":"NL-UT","qid":"Q776"},"geometry":{"type":"Polygon","coordinates":[[[5.4089,52.2677],[5.3661,52.2832],[4.7679,52.2212],[4.8873,51.9412],[5.1826,51.9669],[5.6157,51.9483],[5.4089,52.2677]]]}},{"type":"Feature","id":"label-NLD-3484","properties":{"kind":"division-label","code":"NLD-3484","countryCode":"NLD","name":"Utrecht","localName":"Utrecht","labelEnglish":"Utrecht","labelLocal":"Utrecht","labelBoth":"Utrecht","type":"Province","iso":"NL-UT","qid":"Q776"},"geometry":{"type":"Point","coordinates":[5.1938,52.0749]}}]}