{"type":"FeatureCollection","features":[{"type":"Feature","id":"NOR-900","properties":{"kind":"division","code":"NOR-900","countryCode":"NOR","name":"Troms","localName":"Troms","labelEnglish":"Troms","labelLocal":"Troms","labelBoth":"Troms","type":"County","iso":"NO-19","qid":"Q50631"},"geometry":{"type":"MultiPolygon","coordinates":[[[[20.6232,69.0364],[21.0325,69.041],[21.3136,69.2914],[21.9461,69.0657],[22.5911,69.2306],[22.3515,69.4772],[22.7621,69.5126],[22.5649,69.91],[22.1122,70.1584],[21.2339,70.2243],[21.8389,70.0551],[21.9046,69.8254],[21.3926,70.029],[20.512,69.7695],[20.1677,69.9422],[19.0983,69.7362],[18.958,69.5611],[18.301,69.4868],[17.6942,68.8918],[16.6292,68.6417],[16.5808,68.5345],[18.0367,68.6196],[18.1893,68.5384],[19.0381,68.5056],[19.931,68.3502],[20.2459,68.4774],[20.3411,68.9101],[20.6232,69.0364]]],[[[15.9079,68.9575],[15.6776,68.468],[16.4961,68.5793],[16.2546,68.9032],[15.9079,68.9575]]],[[[18.0708,69.4379],[17.8374,69.5921],[16.8233,69.0544],[17.9583,69.1805],[18.0708,69.4379]]],[[[18.999,69.8286],[18.3568,69.7929],[18.194,69.5307],[18.8229,69.5907],[18.999,69.8286]]],[[[19.6192,70.0168],[18.7289,69.9478],[19.1216,69.7878],[19.6192,70.0168]]]]}},{"type":"Feature","id":"label-NOR-900","properties":{"kind":"division-label","code":"NOR-900","countryCode":"NOR","name":"Troms","localName":"Troms","labelEnglish":"Troms","labelLocal":"Troms","labelBoth":"Troms","type":"County","iso":"NO-19","qid":"Q50631"},"geometry":{"type":"Point","coordinates":[19.0835,68.9053]}},{"type":"Feature","id":"NOR-75","properties":{"kind":"division","code":"NOR-75","countryCode":"NOR","name":"Nordland","localName":"Nordland","labelEnglish":"Nordland","labelLocal":"Nordland","labelBoth":"Nordland","type":"County","iso":"NO-18","qid":"Q50630"},"geometry":{"type":"MultiPolygon","coordinates":[[[[18.1893,68.5384],[18.0367,68.6196],[16.5808,68.5345],[17.5399,68.4284],[16.4413,68.2253],[16.2368,67.8836],[16.0972,68.1733],[15.2817,68.0367],[15.9688,68.0086],[14.7894,67.8228],[15.5969,67.7488],[14.3283,67.2416],[15.1651,67.3105],[14.8991,67.1416],[14.363,67.1597],[14.2228,66.9815],[13.5897,66.9382],[13.2507,66.6331],[13.3213,66.3003],[12.7121,66.0424],[12.3489,65.6384],[12.6408,65.4164],[12.6065,65.126],[12.2017,64.9993],[12.8962,64.9795],[13.1584,65.12],[14.3321,65.114],[14.3329,65.115],[14.6444,65.8429],[14.5405,66.1254],[15.0534,66.1533],[15.4761,66.3549],[15.4263,66.4912],[16.4156,67.0527],[16.1271,67.4228],[16.808,67.9106],[17.3215,68.1053],[17.8954,67.9697],[18.1667,68.1585],[18.1893,68.5384]]],[[[14.0278,68.2626],[13.5,68.2423],[13.6437,68.0709],[14.0278,68.2626]]],[[[15.0005,68.3651],[14.6535,68.4285],[14.1985,68.1528],[15.0005,68.3651]]],[[[16.4961,68.5793],[15.6776,68.468],[15.9079,68.9575],[15.0093,68.3137],[15.6244,68.3005],[16.4961,68.5793]]],[[[14.3972,68.6605],[15.3362,68.6529],[15.2953,68.9069],[14.3972,68.6605]]],[[[-7.9626,71.1749],[-9.1174,70.8749],[-8.006,71.0325],[-7.9626,71.1749]]]]}},{"type":"Feature","id":"label-NOR-75","properties":{"kind":"division-label","code":"NOR-75","countryCode":"NOR","name":"Nordland","localName":"Nordland","labelEnglish":"Nordland","labelLocal":"Nordland","labelBoth":"Nordland","type":"County","iso":"NO-18","qid":"Q50630"},"geometry":{"type":"Point","coordinates":[14.7203,66.7347]}},{"type":"Feature","id":"NOR-925","properties":{"kind":"division","code":"NOR-925","countryCode":"NOR","name":"Nord-Trøndelag","localName":"Nord-Trøndelag","labelEnglish":"Nord-Trøndelag","labelLocal":"Nord-Trøndelag","labelBoth":"Nord-Trøndelag","type":"County","iso":"NO-17","qid":"Q50629"},"geometry":{"type":"Polygon","coordinates":[[[14.3321,65.114],[13.1584,65.12],[12.8962,64.9795],[12.2017,64.9993],[12.1763,65.0111],[12.0454,65.0601],[11.2317,64.8227],[11.3776,64.3972],[10.9567,64.603],[10.6252,64.4053],[10.9169,64.1064],[10.1979,63.5423],[10.91,63.731],[10.9627,63.9479],[11.4639,63.8017],[10.7557,63.6251],[10.8759,63.4459],[12.0598,63.2048],[12.1703,63.5981],[12.6819,63.9564],[13.2341,64.0909],[13.9394,64.0095],[14.1156,64.4412],[13.6428,64.584],[14.3321,65.114]]]}},{"type":"Feature","id":"label-NOR-925","properties":{"kind":"division-label","code":"NOR-925","countryCode":"NOR","name":"Nord-Trøndelag","localName":"Nord-Trøndelag","labelEnglish":"Nord-Trøndelag","labelLocal":"Nord-Trøndelag","labelBoth":"Nord-Trøndelag","type":"County","iso":"NO-17","qid":"Q50629"},"geometry":{"type":"Point","coordinates":[12.2637,64.2773]}},{"type":"Feature","id":"NOR-911","properties":{"kind":"division","code":"NOR-911","countryCode":"NOR","name":"Sør-Trøndelag","localName":"Sør-Trøndelag","labelEnglish":"Sør-Trøndelag","labelLocal":"Sør-Trøndelag","labelBoth":"Sør-Trøndelag","type":"County","iso":"NO-16","qid":"Q50628"},"geometry":{"type":"MultiPolygon","coordinates":[[[[12.0598,63.2048],[10.8759,63.4459],[10.094,63.4387],[10.0993,63.3249],[9.6991,63.6445],[8.7864,63.4298],[8.869,63.2105],[8.8499,63.2034],[9.4671,63.1919],[9.4162,62.8332],[8.9484,62.7423],[9.2449,62.5645],[9.0906,62.3801],[9.7831,62.2858],[10.2857,62.7074],[11.1689,62.6661],[11.5413,62.407],[12.2795,62.3442],[12.0912,62.5863],[12.0598,63.2048]]],[[[10.1979,63.5423],[10.9169,64.1064],[10.6252,64.4053],[9.5459,63.7744],[9.9802,63.4934],[10.1979,63.5423]]],[[[9.1387,63.5678],[8.5453,63.6025],[8.5036,63.4342],[9.1387,63.5678]]]]}},{"type":"Feature","id":"label-NOR-911","properties":{"kind":"division-label","code":"NOR-911","countryCode":"NOR","name":"Sør-Trøndelag","localName":"Sør-Trøndelag","labelEnglish":"Sør-Trøndelag","labelLocal":"Sør-Trøndelag","labelBoth":"Sør-Trøndelag","type":"County","iso":"NO-16","qid":"Q50628"},"geometry":{"type":"Point","coordinates":[10.6956,62.9613]}},{"type":"Feature","id":"NOR-919","properties":{"kind":"division","code":"NOR-919","countryCode":"NOR","name":"Hedmark","localName":"Hedmark","labelEnglish":"Hedmark","labelLocal":"Hedmark","labelBoth":"Hedmark","type":"County","iso":"NO-04","qid":"Q50616"},"geometry":{"type":"Polygon","coordinates":[[[12.2795,62.3442],[11.5413,62.407],[11.1689,62.6661],[10.2857,62.7074],[9.7831,62.2858],[9.8116,61.9299],[10.0583,61.7563],[10.6259,61.7068],[10.8537,61.2812],[10.4481,61.0568],[11.164,60.6226],[11.84,60.0618],[11.8746,59.8849],[12.5109,60.118],[12.5944,60.5149],[12.281,61.0152],[12.7108,61.057],[12.8771,61.371],[12.1617,61.7248],[12.3151,62.2718],[12.2795,62.3442]]]}},{"type":"Feature","id":"label-NOR-919","properties":{"kind":"division-label","code":"NOR-919","countryCode":"NOR","name":"Hedmark","localName":"Hedmark","labelEnglish":"Hedmark","labelLocal":"Hedmark","labelBoth":"Hedmark","type":"County","iso":"NO-04","qid":"Q50616"},"geometry":{"type":"Point","coordinates":[11.2721,61.5285]}},{"type":"Feature","id":"NOR-917","properties":{"kind":"division","code":"NOR-917","countryCode":"NOR","name":"Akershus","localName":"Akershus","labelEnglish":"Akershus","labelLocal":"Akershus","labelBoth":"Akershus","type":"County","iso":"NO-02","qid":"Q50615"},"geometry":{"type":"Polygon","coordinates":[[[11.8746,59.8849],[11.84,60.0618],[11.164,60.6226],[10.6818,60.4526],[10.9195,60.3739],[10.6801,60.1534],[10.7566,59.8442],[10.688,59.4836],[11.2669,59.7864],[11.5227,59.6258],[11.8837,59.8054],[11.8746,59.8849]]]}},{"type":"Feature","id":"label-NOR-917","properties":{"kind":"division-label","code":"NOR-917","countryCode":"NOR","name":"Akershus","localName":"Akershus","labelEnglish":"Akershus","labelLocal":"Akershus","labelBoth":"Akershus","type":"County","iso":"NO-02","qid":"Q50615"},"geometry":{"type":"Point","coordinates":[11.2222,60.1365]}},{"type":"Feature","id":"NOR-924","properties":{"kind":"division","code":"NOR-924","countryCode":"NOR","name":"Østfold","localName":"Østfold","labelEnglish":"Østfold","labelLocal":"Østfold","labelBoth":"Østfold","type":"County","iso":"NO-01","qid":"Q50614"},"geometry":{"type":"Polygon","coordinates":[[[11.8837,59.8054],[11.5227,59.6258],[11.2669,59.7864],[10.688,59.4836],[10.8229,59.164],[11.4375,58.9917],[11.6644,58.9201],[11.8111,59.2487],[11.6774,59.5591],[11.8837,59.8054]]]}},{"type":"Feature","id":"label-NOR-924","properties":{"kind":"division-label","code":"NOR-924","countryCode":"NOR","name":"Østfold","localName":"Østfold","labelEnglish":"Østfold","labelLocal":"Østfold","labelBoth":"Østfold","type":"County","iso":"NO-01","qid":"Q50614"},"geometry":{"type":"Point","coordinates":[11.2074,59.4065]}},{"type":"Feature","id":"NOR-1062","properties":{"kind":"division","code":"NOR-1062","countryCode":"NOR","name":"Finnmark","localName":"Finnmark","labelEnglish":"Finnmark","labelLocal":"Finnmark","labelBoth":"Finnmark","type":"County","iso":"NO-20","qid":"Q50632"},"geometry":{"type":"MultiPolygon","coordinates":[[[[28.9541,69.0273],[29.3345,69.2774],[29.9481,69.3656],[30.2944,69.6202],[30.853,69.5274],[30.841,69.8058],[30.1652,69.8795],[29.68,69.7354],[29.6859,69.9696],[28.7537,70.1675],[30.1589,70.0714],[31.077,70.2842],[29.9938,70.7131],[28.7947,70.8732],[28.2466,70.4145],[27.8494,70.4829],[28.5461,70.9799],[27.5687,71.0972],[27.534,70.8459],[26.5059,70.3629],[26.6912,70.9558],[26.3743,70.8685],[25.1361,70.0788],[25.2459,70.5279],[25.9251,70.8559],[24.666,70.9777],[24.6161,70.7797],[23.5132,70.3655],[23.0322,70.0303],[22.9671,70.2075],[21.5859,70.3122],[21.2339,70.2243],[22.1122,70.1584],[22.5649,69.91],[22.7621,69.5126],[22.3515,69.4772],[22.5911,69.2306],[21.9461,69.0657],[22.4287,68.7101],[23.1976,68.618],[23.929,68.8162],[24.8609,68.5634],[25.6516,68.8835],[26.032,69.6967],[26.5007,69.9183],[27.1003,69.9018],[27.8973,70.0707],[28.4046,69.8023],[29.1312,69.6742],[29.3445,69.4644],[28.8648,69.2166],[28.9541,69.0273]]],[[[23.656,70.5033],[22.8972,70.451],[23.1047,70.2833],[23.656,70.5033]]],[[[26.136,71.0377],[25.8074,71.1544],[25.5335,70.9318],[26.136,71.0377]]]]}},{"type":"Feature","id":"label-NOR-1062","properties":{"kind":"division-label","code":"NOR-1062","countryCode":"NOR","name":"Finnmark","localName":"Finnmark","labelEnglish":"Finnmark","labelLocal":"Finnmark","labelBoth":"Finnmark","type":"County","iso":"NO-20","qid":"Q50632"},"geometry":{"type":"Point","coordinates":[24.4789,69.5648]}},{"type":"Feature","id":"NOR-921","properties":{"kind":"division","code":"NOR-921","countryCode":"NOR","name":"Oslo","localName":"Oslo","labelEnglish":"Oslo","labelLocal":"Oslo","labelBoth":"Oslo","type":"County","iso":"NO-03","qid":"Q585"},"geometry":{"type":"Polygon","coordinates":[[[10.7566,59.8442],[10.6801,60.1534],[10.6236,60.1547],[10.4867,59.8032],[10.7566,59.8442]]]}},{"type":"Feature","id":"label-NOR-921","properties":{"kind":"division-label","code":"NOR-921","countryCode":"NOR","name":"Oslo","localName":"Oslo","labelEnglish":"Oslo","labelLocal":"Oslo","labelBoth":"Oslo","type":"County","iso":"NO-03","qid":"Q585"},"geometry":{"type":"Point","coordinates":[10.6419,60.0237]}},{"type":"Feature","id":"NOR-918","properties":{"kind":"division","code":"NOR-918","countryCode":"NOR","name":"Buskerud","localName":"Buskerud","labelEnglish":"Buskerud","labelLocal":"Buskerud","labelBoth":"Buskerud","type":"County","iso":"NO-06","qid":"Q50618"},"geometry":{"type":"Polygon","coordinates":[[[10.4867,59.8032],[10.6236,60.1547],[10.0437,60.6554],[9.8314,60.485],[9.326,60.7529],[8.2797,61.1177],[8.1981,61.0724],[7.4779,60.7023],[7.6694,60.3476],[7.4678,60.1137],[8.1714,60.1975],[8.8065,60.1698],[9.3599,59.8077],[9.493,59.5147],[9.7827,59.4322],[10.283,59.6958],[10.4867,59.8032]]]}},{"type":"Feature","id":"label-NOR-918","properties":{"kind":"division-label","code":"NOR-918","countryCode":"NOR","name":"Buskerud","localName":"Buskerud","labelEnglish":"Buskerud","labelLocal":"Buskerud","labelBoth":"Buskerud","type":"County","iso":"NO-06","qid":"Q50618"},"geometry":{"type":"Point","coordinates":[9.04573,60.4253]}},{"type":"Feature","id":"NOR-923","properties":{"kind":"division","code":"NOR-923","countryCode":"NOR","name":"Vestfold","localName":"Vestfold","labelEnglish":"Vestfold","labelLocal":"Vestfold","labelBoth":"Vestfold","type":"County","iso":"NO-07","qid":"Q50619"},"geometry":{"type":"Polygon","coordinates":[[[10.283,59.6958],[9.7827,59.4322],[9.8272,59.0184],[9.9574,58.9567],[10.4696,59.2478],[10.283,59.6958]]]}},{"type":"Feature","id":"label-NOR-923","properties":{"kind":"division-label","code":"NOR-923","countryCode":"NOR","name":"Vestfold","localName":"Vestfold","labelEnglish":"Vestfold","labelLocal":"Vestfold","labelBoth":"Vestfold","type":"County","iso":"NO-07","qid":"Q50619"},"geometry":{"type":"Point","coordinates":[10.1269,59.3146]}},{"type":"Feature","id":"NOR-922","properties":{"kind":"division","code":"NOR-922","countryCode":"NOR","name":"Telemark","localName":"Telemark","labelEnglish":"Telemark","labelLocal":"Telemark","labelBoth":"Telemark","type":"County","iso":"NO-08","qid":"Q2254"},"geometry":{"type":"Polygon","coordinates":[[[9.8272,59.0184],[9.7827,59.4322],[9.493,59.5147],[9.3599,59.8077],[8.8065,60.1698],[8.1714,60.1975],[7.4678,60.1137],[7.0921,59.7941],[7.2439,59.691],[7.462,59.6656],[7.9684,59.0031],[8.7607,58.8571],[9.0148,59.006],[9.3866,58.7848],[9.8272,59.0184]]]}},{"type":"Feature","id":"label-NOR-922","properties":{"kind":"division-label","code":"NOR-922","countryCode":"NOR","name":"Telemark","localName":"Telemark","labelEnglish":"Telemark","labelLocal":"Telemark","labelBoth":"Telemark","type":"County","iso":"NO-08","qid":"Q2254"},"geometry":{"type":"Point","coordinates":[8.48804,59.5476]}},{"type":"Feature","id":"NOR-912","properties":{"kind":"division","code":"NOR-912","countryCode":"NOR","name":"Aust-Agder","localName":"Aust-Agder","labelEnglish":"Aust-Agder","labelLocal":"Aust-Agder","labelBoth":"Aust-Agder","type":"County","iso":"NO-09","qid":"Q50621"},"geometry":{"type":"Polygon","coordinates":[[[9.3866,58.7848],[9.0148,59.006],[8.7607,58.8571],[7.9684,59.0031],[7.462,59.6656],[7.2439,59.691],[6.9938,59.6101],[6.9426,59.2086],[7.1699,59.1804],[7.0717,58.8473],[7.6018,58.8723],[7.5805,58.4804],[8.2107,58.2887],[8.2246,58.1569],[9.3866,58.7848]]]}},{"type":"Feature","id":"label-NOR-912","properties":{"kind":"division-label","code":"NOR-912","countryCode":"NOR","name":"Aust-Agder","localName":"Aust-Agder","labelEnglish":"Aust-Agder","labelLocal":"Aust-Agder","labelBoth":"Aust-Agder","type":"County","iso":"NO-09","qid":"Q50621"},"geometry":{"type":"Point","coordinates":[8.14878,58.6698]}},{"type":"Feature","id":"NOR-916","properties":{"kind":"division","code":"NOR-916","countryCode":"NOR","name":"Vest-Agder","localName":"Vest-Agder","labelEnglish":"Vest-Agder","labelLocal":"Vest-Agder","labelBoth":"Vest-Agder","type":"County","iso":"NO-10","qid":"Q50623"},"geometry":{"type":"Polygon","coordinates":[[[8.2246,58.1569],[8.2107,58.2887],[7.5805,58.4804],[7.6018,58.8723],[7.0717,58.8473],[7.1699,59.1804],[6.9426,59.2086],[6.5734,58.9405],[6.4454,58.6581],[6.6273,58.3668],[6.3976,58.273],[6.5305,58.1206],[7.5789,58.0175],[8.2246,58.1569]]]}},{"type":"Feature","id":"label-NOR-916","properties":{"kind":"division-label","code":"NOR-916","countryCode":"NOR","name":"Vest-Agder","localName":"Vest-Agder","labelEnglish":"Vest-Agder","labelLocal":"Vest-Agder","labelBoth":"Vest-Agder","type":"County","iso":"NO-10","qid":"Q50623"},"geometry":{"type":"Point","coordinates":[7.30897,58.4481]}},{"type":"Feature","id":"NOR-914","properties":{"kind":"division","code":"NOR-914","countryCode":"NOR","name":"Rogaland","localName":"Rogaland","labelEnglish":"Rogaland","labelLocal":"Rogaland","labelBoth":"Rogaland","type":"County","iso":"NO-11","qid":"Q50624"},"geometry":{"type":"Polygon","coordinates":[[[6.3976,58.273],[6.6273,58.3668],[6.4454,58.6581],[6.5734,58.9405],[6.9426,59.2086],[6.9938,59.6101],[7.2439,59.691],[7.0921,59.7941],[6.2955,59.7873],[6.1706,59.6158],[5.5287,59.5579],[5.4079,59.5162],[5.19,59.4802],[5.4754,59.2788],[6.0788,59.4023],[6.2521,59.2772],[5.8727,59.087],[6.0339,58.9052],[5.5505,59.0386],[5.478,58.7547],[5.7042,58.5208],[6.3976,58.273]]]}},{"type":"Feature","id":"label-NOR-914","properties":{"kind":"division-label","code":"NOR-914","countryCode":"NOR","name":"Rogaland","localName":"Rogaland","labelEnglish":"Rogaland","labelLocal":"Rogaland","labelBoth":"Rogaland","type":"County","iso":"NO-11","qid":"Q50624"},"geometry":{"type":"Point","coordinates":[6.41809,59.1585]}},{"type":"Feature","id":"NOR-913","properties":{"kind":"division","code":"NOR-913","countryCode":"NOR","name":"Hordaland","localName":"Hordaland","labelEnglish":"Hordaland","labelLocal":"Hordaland","labelBoth":"Hordaland","type":"County","iso":"NO-12","qid":"Q50625"},"geometry":{"type":"MultiPolygon","coordinates":[[[[5.5287,59.5579],[6.1706,59.6158],[6.2955,59.7873],[7.0921,59.7941],[7.4678,60.1137],[7.6694,60.3476],[7.4779,60.7023],[6.9839,60.7489],[6.6535,60.9718],[6.2699,60.9178],[5.2689,60.9555],[5.1048,60.8372],[5.3001,60.5608],[5.6952,60.7523],[5.7083,60.4711],[5.6177,60.4172],[5.5278,60.4206],[5.4487,60.4463],[5.3058,60.5283],[5.2228,60.2111],[5.5715,60.2383],[5.6814,60.0397],[6.1887,60.355],[5.8941,59.7618],[5.5287,59.5579]]],[[[5.6877,60.6766],[5.324,60.5468],[5.5021,60.437],[5.6089,60.4438],[5.6814,60.4817],[5.6877,60.6766]]]]}},{"type":"Feature","id":"label-NOR-913","properties":{"kind":"division-label","code":"NOR-913","countryCode":"NOR","name":"Hordaland","localName":"Hordaland","labelEnglish":"Hordaland","labelLocal":"Hordaland","labelBoth":"Hordaland","type":"County","iso":"NO-12","qid":"Q50625"},"geometry":{"type":"Point","coordinates":[6.89657,60.1134]}},{"type":"Feature","id":"NOR-915","properties":{"kind":"division","code":"NOR-915","countryCode":"NOR","name":"Sogn og Fjordane","localName":"Sogn og Fjordane","labelEnglish":"Sogn og Fjordane","labelLocal":"Sogn og Fjordane","labelBoth":"Sogn og Fjordane","type":"County","iso":"NO-14","qid":"Q50626"},"geometry":{"type":"Polygon","coordinates":[[[5.1048,60.8372],[5.2689,60.9555],[6.2699,60.9178],[6.6535,60.9718],[6.9839,60.7489],[7.4779,60.7023],[8.1981,61.0724],[8.0547,61.2403],[8.3086,61.4498],[7.8907,61.7359],[7.5203,61.7542],[7.3279,62.0498],[6.6701,62.0782],[5.4617,62.0067],[4.9745,61.7386],[5.2903,61.4796],[4.9479,61.4164],[5.4338,61.0266],[5.0161,61.0465],[5.1048,60.8372]]]}},{"type":"Feature","id":"label-NOR-915","properties":{"kind":"division-label","code":"NOR-915","countryCode":"NOR","name":"Sogn og Fjordane","localName":"Sogn og Fjordane","labelEnglish":"Sogn og Fjordane","labelLocal":"Sogn og Fjordane","labelBoth":"Sogn og Fjordane","type":"County","iso":"NO-14","qid":"Q50626"},"geometry":{"type":"Point","coordinates":[6.43282,61.5538]}},{"type":"Feature","id":"NOR-910","properties":{"kind":"division","code":"NOR-910","countryCode":"NOR","name":"Møre og Romsdal","localName":"Møre og Romsdal","labelEnglish":"Møre og Romsdal","labelLocal":"Møre og Romsdal","labelBoth":"Møre og Romsdal","type":"County","iso":"NO-15","qid":"Q50627"},"geometry":{"type":"MultiPolygon","coordinates":[[[[5.4617,62.0067],[6.6701,62.0782],[7.3279,62.0498],[8.1447,62.341],[9.0906,62.3801],[9.2449,62.5645],[8.9484,62.7423],[9.4162,62.8332],[9.4671,63.1919],[8.8499,63.2034],[8.0867,63.1097],[7.5012,62.9108],[6.9102,62.9294],[7.0923,62.6509],[6.3047,62.4592],[6.7088,62.4517],[5.4312,62.1862],[5.4617,62.0067]]],[[[8.869,63.2105],[8.7864,63.4298],[8.4764,63.294],[8.869,63.2105]]]]}},{"type":"Feature","id":"label-NOR-910","properties":{"kind":"division-label","code":"NOR-910","countryCode":"NOR","name":"Møre og Romsdal","localName":"Møre og Romsdal","labelEnglish":"Møre og Romsdal","labelLocal":"Møre og Romsdal","labelBoth":"Møre og Romsdal","type":"County","iso":"NO-15","qid":"Q50627"},"geometry":{"type":"Point","coordinates":[8.35107,62.5471]}},{"type":"Feature","id":"NOR-901","properties":{"kind":"division","code":"NOR-901","countryCode":"NOR","name":"Svalbard","localName":"Svalbard","labelEnglish":"Svalbard","labelLocal":"Svalbard","labelBoth":"Svalbard","type":"Territory","iso":"NO-21","qid":"Q25231"},"geometry":{"type":"MultiPolygon","coordinates":[[[[24.4248,77.8259],[23.6283,77.8703],[22.9661,78.2563],[20.8801,78.0854],[21.6618,77.918],[20.9217,77.4424],[22.7783,77.5549],[22.4297,77.2637],[23.2345,77.2637],[24.4248,77.8259]]],[[[21.0243,78.2191],[22.2713,78.2675],[22.2354,78.4879],[21.1782,78.6232],[20.1831,78.4953],[21.0243,78.2191]]],[[[12.1428,78.237],[10.8438,78.8789],[11.1218,78.4389],[12.1428,78.237]]],[[[20.2088,78.6381],[21.3942,78.6716],[21.5221,78.8537],[18.9451,79.157],[18.8818,79.4411],[17.5625,79.8979],[16.2947,80.0674],[15.7158,79.8771],[16.3479,78.9162],[14.5486,79.8115],[13.8831,79.5424],[13.797,79.8819],[12.3366,79.67],[11.8223,79.845],[10.708,79.5614],[11.2793,79.0996],[12.3908,79.0021],[11.6432,78.7473],[13.0096,78.2038],[14.6631,78.3811],[14.815,78.7336],[15.7951,78.3429],[15.0347,78.1166],[13.5891,78.0559],[13.7188,77.7679],[16.7893,77.8771],[13.9107,77.5345],[14.3737,77.1987],[16.8096,76.5668],[17.7278,77.4935],[18.1941,77.4902],[18.5829,78.0551],[19.0628,78.0869],[18.993,78.467],[20.2088,78.6381]]],[[[27.1711,80.0734],[26.8071,80.1743],[23.7653,80.3091],[23.0055,80.1684],[22.7503,80.5048],[22.3674,80.0085],[21.8467,80.2721],[20.8826,80.2112],[20.3898,80.4235],[18.1943,79.9001],[18.7839,79.7231],[21.8877,79.8236],[21.8504,79.7069],[19.6333,79.6113],[20.8169,79.3781],[22.895,79.4195],[22.9256,79.2228],[24.0531,79.1889],[25.6457,79.3977],[25.826,79.626],[27.1497,79.855],[27.1711,80.0734]]]]}},{"type":"Feature","id":"label-NOR-901","properties":{"kind":"division-label","code":"NOR-901","countryCode":"NOR","name":"Svalbard","localName":"Svalbard","labelEnglish":"Svalbard","labelLocal":"Svalbard","labelBoth":"Svalbard","type":"Territory","iso":"NO-21","qid":"Q25231"},"geometry":{"type":"Point","coordinates":[18.069,78.8124]}},{"type":"Feature","id":"BVT+00?","properties":{"kind":"division","code":"BVT+00?","countryCode":"NOR","name":"Bouvet Island","localName":"Bouvet Island","labelEnglish":"Bouvet Island","labelLocal":"Bouvet Island","labelBoth":"Bouvet Island","type":null,"iso":"NO-X01~","qid":null},"geometry":{"type":"Polygon","coordinates":[[[3.4573,-54.3901],[3.3508,-54.4557],[3.4675,-54.4413],[3.4573,-54.3901]]]}},{"type":"Feature","id":"label-BVT+00?","properties":{"kind":"division-label","code":"BVT+00?","countryCode":"NOR","name":"Bouvet Island","localName":"Bouvet Island","labelEnglish":"Bouvet Island","labelLocal":"Bouvet Island","labelBoth":"Bouvet Island","type":null,"iso":"NO-X01~","qid":null},"geometry":{"type":"Point","coordinates":[3.41677,-54.4151]}},{"type":"Feature","id":"NOR-920","properties":{"kind":"division","code":"NOR-920","countryCode":"NOR","name":"Oppland","localName":"Oppland","labelEnglish":"Oppland","labelLocal":"Oppland","labelBoth":"Oppland","type":"County","iso":"NO-05","qid":"Q50617"},"geometry":{"type":"Polygon","coordinates":[[[11.164,60.6226],[10.4481,61.0568],[10.8537,61.2812],[10.6259,61.7068],[10.0583,61.7563],[9.8116,61.9299],[9.7831,62.2858],[9.0906,62.3801],[8.1447,62.341],[7.3279,62.0498],[7.5203,61.7542],[7.8907,61.7359],[8.3086,61.4498],[8.0547,61.2403],[8.1981,61.0724],[8.2797,61.1177],[9.326,60.7529],[9.8314,60.485],[10.0437,60.6554],[10.6236,60.1547],[10.6801,60.1534],[10.9195,60.3739],[10.6818,60.4526],[11.164,60.6226]]]}},{"type":"Feature","id":"label-NOR-920","properties":{"kind":"division-label","code":"NOR-920","countryCode":"NOR","name":"Oppland","localName":"Oppland","labelEnglish":"Oppland","labelLocal":"Oppland","labelBoth":"Oppland","type":"County","iso":"NO-05","qid":"Q50617"},"geometry":{"type":"Point","coordinates":[9.24644,61.5731]}}]}