{"type":"FeatureCollection","features":[{"type":"Feature","id":"NPL-1126","properties":{"kind":"division","code":"NPL-1126","countryCode":"NPL","name":"Karnali Zone","localName":"Karnali Zone","labelEnglish":"Karnali Zone","labelLocal":"Karnali Zone","labelBoth":"Karnali Zone","type":"Administrative Zone","iso":"NP-KA","qid":"Q9164"},"geometry":{"type":"Polygon","coordinates":[[[83.655,29.1604],[83.5171,29.1917],[83.1621,29.6252],[82.8366,29.6598],[82.5418,29.9232],[82.1445,30.0694],[82.0888,30.3301],[81.3875,30.3739],[81.2679,30.0721],[81.4557,29.9125],[81.7605,29.9131],[81.7238,29.3489],[81.4737,29.2952],[81.5486,29.1257],[81.8449,28.9812],[82.268,29.1048],[82.5681,28.9852],[82.772,28.8133],[83.1479,28.7371],[83.4739,28.7769],[83.655,29.1604]]]}},{"type":"Feature","id":"label-NPL-1126","properties":{"kind":"division-label","code":"NPL-1126","countryCode":"NPL","name":"Karnali Zone","localName":"Karnali Zone","labelEnglish":"Karnali Zone","labelLocal":"Karnali Zone","labelBoth":"Karnali Zone","type":"Administrative Zone","iso":"NP-KA","qid":"Q9164"},"geometry":{"type":"Point","coordinates":[82.4637,29.474]}},{"type":"Feature","id":"NPL-1128","properties":{"kind":"division","code":"NPL-1128","countryCode":"NPL","name":"Mahakali Zone","localName":"Mahakali Zone","labelEnglish":"Mahakali Zone","labelLocal":"Mahakali Zone","labelBoth":"Mahakali Zone","type":"Administrative Zone","iso":"NP-MA","qid":"Q9178"},"geometry":{"type":"Polygon","coordinates":[[[80.996,30.197],[80.8839,30.2104],[80.4762,29.8061],[80.2137,29.4169],[80.2801,29.3102],[80.0731,28.8209],[80.4934,28.5756],[80.5344,28.6796],[80.5568,29.1251],[80.8856,29.4306],[80.7859,29.6745],[81.0383,29.7394],[81.0845,30.0279],[80.996,30.197]]]}},{"type":"Feature","id":"label-NPL-1128","properties":{"kind":"division-label","code":"NPL-1128","countryCode":"NPL","name":"Mahakali Zone","localName":"Mahakali Zone","labelEnglish":"Mahakali Zone","labelLocal":"Mahakali Zone","labelBoth":"Mahakali Zone","type":"Administrative Zone","iso":"NP-MA","qid":"Q9178"},"geometry":{"type":"Point","coordinates":[80.5573,29.5205]}},{"type":"Feature","id":"NPL-1129","properties":{"kind":"division","code":"NPL-1129","countryCode":"NPL","name":"Seti Zone","localName":"Seti Zone","labelEnglish":"Seti Zone","labelLocal":"Seti Zone","labelBoth":"Seti Zone","type":"District","iso":"NP-SE","qid":"Q9196"},"geometry":{"type":"Polygon","coordinates":[[[81.0845,30.0279],[81.0383,29.7394],[80.7859,29.6745],[80.8856,29.4306],[80.5568,29.1251],[80.5344,28.6796],[81.0471,28.3891],[81.2719,28.6361],[81.228,28.8265],[80.9923,28.9353],[81.4258,28.9037],[81.5486,29.1257],[81.4737,29.2952],[81.7238,29.3489],[81.7605,29.9131],[81.4557,29.9125],[81.2679,30.0721],[81.0845,30.0279]]]}},{"type":"Feature","id":"label-NPL-1129","properties":{"kind":"division-label","code":"NPL-1129","countryCode":"NPL","name":"Seti Zone","localName":"Seti Zone","labelEnglish":"Seti Zone","labelLocal":"Seti Zone","labelBoth":"Seti Zone","type":"District","iso":"NP-SE","qid":"Q9196"},"geometry":{"type":"Point","coordinates":[81.163,29.312]}},{"type":"Feature","id":"NPL-1125","properties":{"kind":"division","code":"NPL-1125","countryCode":"NPL","name":"Dhaulagiri Zone","localName":"Dhaulagiri Zone","labelEnglish":"Dhaulagiri Zone","labelLocal":"Dhaulagiri Zone","labelBoth":"Dhaulagiri Zone","type":"Administrative Zone","iso":"NP-DH","qid":"Q9088"},"geometry":{"type":"Polygon","coordinates":[[[84.2253,28.9141],[84.0991,29.247],[83.655,29.1604],[83.4739,28.7769],[83.1479,28.7371],[82.8892,28.4676],[83.0891,28.2456],[83.5899,28.0038],[83.7765,28.2619],[83.6933,28.3955],[83.9469,28.8225],[84.2253,28.9141]]]}},{"type":"Feature","id":"label-NPL-1125","properties":{"kind":"division-label","code":"NPL-1125","countryCode":"NPL","name":"Dhaulagiri Zone","localName":"Dhaulagiri Zone","labelEnglish":"Dhaulagiri Zone","labelLocal":"Dhaulagiri Zone","labelBoth":"Dhaulagiri Zone","type":"Administrative Zone","iso":"NP-DH","qid":"Q9088"},"geometry":{"type":"Point","coordinates":[83.5602,28.4801]}},{"type":"Feature","id":"NPL-1095","properties":{"kind":"division","code":"NPL-1095","countryCode":"NPL","name":"Gandaki Zone","localName":"Gandaki Zone","labelEnglish":"Gandaki Zone","labelLocal":"Gandaki Zone","labelBoth":"Gandaki Zone","type":"District","iso":"NP-GA","qid":"Q9133"},"geometry":{"type":"Polygon","coordinates":[[[84.2253,28.9141],[83.9469,28.8225],[83.6933,28.3955],[83.7765,28.2619],[83.5899,28.0038],[84.4127,27.7582],[84.6547,27.8417],[85.0819,28.3317],[85.168,28.5832],[84.6778,28.6044],[84.2253,28.9141]]]}},{"type":"Feature","id":"label-NPL-1095","properties":{"kind":"division-label","code":"NPL-1095","countryCode":"NPL","name":"Gandaki Zone","localName":"Gandaki Zone","labelEnglish":"Gandaki Zone","labelLocal":"Gandaki Zone","labelBoth":"Gandaki Zone","type":"District","iso":"NP-GA","qid":"Q9133"},"geometry":{"type":"Point","coordinates":[84.3034,28.3293]}},{"type":"Feature","id":"NPL-1130","properties":{"kind":"division","code":"NPL-1130","countryCode":"NPL","name":"Bagmati Zone","localName":"Bagmati Zone","labelEnglish":"Bagmati Zone","labelLocal":"Bagmati Zone","labelBoth":"Bagmati Zone","type":"District","iso":"NP-BA","qid":"Q9046"},"geometry":{"type":"Polygon","coordinates":[[[85.0819,28.3317],[84.6547,27.8417],[84.8608,27.6808],[85.2022,27.6783],[85.2625,27.4897],[85.504,27.3847],[85.6828,27.3559],[86.0546,27.888],[85.6929,28.3352],[85.6118,28.2511],[85.0819,28.3317]]]}},{"type":"Feature","id":"label-NPL-1130","properties":{"kind":"division-label","code":"NPL-1130","countryCode":"NPL","name":"Bagmati Zone","localName":"Bagmati Zone","labelEnglish":"Bagmati Zone","labelLocal":"Bagmati Zone","labelBoth":"Bagmati Zone","type":"District","iso":"NP-BA","qid":"Q9046"},"geometry":{"type":"Point","coordinates":[85.3494,27.8491]}},{"type":"Feature","id":"NPL-1131","properties":{"kind":"division","code":"NPL-1131","countryCode":"NPL","name":"Janakpur Zone","localName":"Janakpur Zone","labelEnglish":"Janakpur Zone","labelLocal":"Janakpur Zone","labelBoth":"Janakpur Zone","type":"Administrative Zone","iso":"NP-JA","qid":"Q9152"},"geometry":{"type":"Polygon","coordinates":[[[86.5168,27.9714],[86.203,28.0026],[86.0546,27.888],[85.6828,27.3559],[85.504,27.3847],[85.3554,26.7599],[85.5986,26.8544],[85.8216,26.5717],[86.1464,26.6014],[86.1464,26.8977],[86.3942,27.1828],[86.2099,27.2522],[86.2742,27.4513],[86.5897,27.7448],[86.5168,27.9714]]]}},{"type":"Feature","id":"label-NPL-1131","properties":{"kind":"division-label","code":"NPL-1131","countryCode":"NPL","name":"Janakpur Zone","localName":"Janakpur Zone","labelEnglish":"Janakpur Zone","labelLocal":"Janakpur Zone","labelBoth":"Janakpur Zone","type":"Administrative Zone","iso":"NP-JA","qid":"Q9152"},"geometry":{"type":"Point","coordinates":[85.9718,27.179]}},{"type":"Feature","id":"NPL-1133","properties":{"kind":"division","code":"NPL-1133","countryCode":"NPL","name":"Sagarmatha Zone","localName":"सगरमाथा","labelEnglish":"Sagarmatha Zone","labelLocal":"सगरमाथा","labelBoth":"Sagarmatha Zone · सगरमाथा","type":"Administrative Zone","iso":"NP-SA","qid":"Q9195"},"geometry":{"type":"Polygon","coordinates":[[[86.9821,27.9507],[86.5442,28.093],[86.5168,27.9714],[86.5897,27.7448],[86.2742,27.4513],[86.2099,27.2522],[86.3942,27.1828],[86.1464,26.8977],[86.1464,26.6014],[86.7136,26.4146],[86.9352,26.5203],[87.1712,26.9209],[86.9668,26.9064],[86.9061,27.424],[86.9821,27.9507]]]}},{"type":"Feature","id":"label-NPL-1133","properties":{"kind":"division-label","code":"NPL-1133","countryCode":"NPL","name":"Sagarmatha Zone","localName":"सगरमाथा","labelEnglish":"Sagarmatha Zone","labelLocal":"सगरमाथा","labelBoth":"Sagarmatha Zone · सगरमाथा","type":"Administrative Zone","iso":"NP-SA","qid":"Q9195"},"geometry":{"type":"Point","coordinates":[86.6607,27.2719]}},{"type":"Feature","id":"NPL-1134","properties":{"kind":"division","code":"NPL-1134","countryCode":"NPL","name":"Bhojpur","localName":"Bhojpur","labelEnglish":"Bhojpur","labelLocal":"Bhojpur","labelBoth":"Bhojpur","type":"District","iso":"NP-KO","qid":"Q2284812"},"geometry":{"type":"Polygon","coordinates":[[[87.6785,27.8134],[87.1558,27.8258],[86.9821,27.9507],[86.9061,27.424],[86.9668,26.9064],[87.1712,26.9209],[86.9352,26.5203],[87.3262,26.3533],[87.6487,26.41],[87.6665,26.7405],[87.4806,26.9812],[87.7185,27.2368],[87.4462,27.3833],[87.6785,27.8134]]]}},{"type":"Feature","id":"label-NPL-1134","properties":{"kind":"division-label","code":"NPL-1134","countryCode":"NPL","name":"Bhojpur","localName":"Bhojpur","labelEnglish":"Bhojpur","labelLocal":"Bhojpur","labelBoth":"Bhojpur","type":"District","iso":"NP-KO","qid":"Q2284812"},"geometry":{"type":"Point","coordinates":[87.3229,27.0937]}},{"type":"Feature","id":"NPL-1135","properties":{"kind":"division","code":"NPL-1135","countryCode":"NPL","name":"Mechi Zone","localName":"Mechi Zone","labelEnglish":"Mechi Zone","labelLocal":"Mechi Zone","labelBoth":"Mechi Zone","type":"Administrative Zone","iso":"NP-ME","qid":"Q9180"},"geometry":{"type":"Polygon","coordinates":[[[88.1182,27.8609],[87.6785,27.8134],[87.4462,27.3833],[87.7185,27.2368],[87.4806,26.9812],[87.6665,26.7405],[87.6487,26.41],[87.9755,26.3666],[88.0871,26.5391],[88.1691,26.744],[87.9707,27.1027],[88.0047,27.2492],[88.1182,27.8609]]]}},{"type":"Feature","id":"label-NPL-1135","properties":{"kind":"division-label","code":"NPL-1135","countryCode":"NPL","name":"Mechi Zone","localName":"Mechi Zone","labelEnglish":"Mechi Zone","labelLocal":"Mechi Zone","labelBoth":"Mechi Zone","type":"Administrative Zone","iso":"NP-ME","qid":"Q9180"},"geometry":{"type":"Point","coordinates":[87.8075,27.1587]}},{"type":"Feature","id":"NPL-1132","properties":{"kind":"division","code":"NPL-1132","countryCode":"NPL","name":"Narayani Zone","localName":"Narayani Zone","labelEnglish":"Narayani Zone","labelLocal":"Narayani Zone","labelBoth":"Narayani Zone","type":"Administrative Zone","iso":"NP-NA","qid":"Q9183"},"geometry":{"type":"Polygon","coordinates":[[[85.3554,26.7599],[85.504,27.3847],[85.2625,27.4897],[85.2022,27.6783],[84.8608,27.6808],[84.6547,27.8417],[84.4127,27.7582],[83.922,27.4497],[84.0796,27.5095],[84.577,27.329],[84.6402,27.0284],[85.3554,26.7599]]]}},{"type":"Feature","id":"label-NPL-1132","properties":{"kind":"division-label","code":"NPL-1132","countryCode":"NPL","name":"Narayani Zone","localName":"Narayani Zone","labelEnglish":"Narayani Zone","labelLocal":"Narayani Zone","labelBoth":"Narayani Zone","type":"Administrative Zone","iso":"NP-NA","qid":"Q9183"},"geometry":{"type":"Point","coordinates":[84.7202,27.3731]}},{"type":"Feature","id":"NPL-1127","properties":{"kind":"division","code":"NPL-1127","countryCode":"NPL","name":"Lumbini Zone","localName":"Lumbini Zone","labelEnglish":"Lumbini Zone","labelLocal":"Lumbini Zone","labelBoth":"Lumbini Zone","type":"Administrative Zone","iso":"NP-LU","qid":"Q9172"},"geometry":{"type":"Polygon","coordinates":[[[83.922,27.4497],[84.4127,27.7582],[83.5899,28.0038],[83.0891,28.2456],[82.9932,27.9356],[82.6739,27.6965],[82.7521,27.495],[83.361,27.4622],[83.8533,27.3462],[83.922,27.4497]]]}},{"type":"Feature","id":"label-NPL-1127","properties":{"kind":"division-label","code":"NPL-1127","countryCode":"NPL","name":"Lumbini Zone","localName":"Lumbini Zone","labelEnglish":"Lumbini Zone","labelLocal":"Lumbini Zone","labelBoth":"Lumbini Zone","type":"Administrative Zone","iso":"NP-LU","qid":"Q9172"},"geometry":{"type":"Point","coordinates":[83.55,27.695]}},{"type":"Feature","id":"NPL-373","properties":{"kind":"division","code":"NPL-373","countryCode":"NPL","name":"Rapti Zone","localName":"राप्ती","labelEnglish":"Rapti Zone","labelLocal":"राप्ती","labelBoth":"Rapti Zone · राप्ती","type":"Administrative Zone","iso":"NP-RA","qid":"Q9185"},"geometry":{"type":"Polygon","coordinates":[[[82.6739,27.6965],[82.9932,27.9356],[83.0891,28.2456],[82.8892,28.4676],[83.1479,28.7371],[82.772,28.8133],[82.5681,28.9852],[82.1605,28.6126],[82.0438,28.6317],[82.0502,27.9056],[82.4019,27.6772],[82.6739,27.6965]]]}},{"type":"Feature","id":"label-NPL-373","properties":{"kind":"division-label","code":"NPL-373","countryCode":"NPL","name":"Rapti Zone","localName":"राप्ती","labelEnglish":"Rapti Zone","labelLocal":"राप्ती","labelBoth":"Rapti Zone · राप्ती","type":"Administrative Zone","iso":"NP-RA","qid":"Q9185"},"geometry":{"type":"Point","coordinates":[82.5518,28.3268]}},{"type":"Feature","id":"NPL-1124","properties":{"kind":"division","code":"NPL-1124","countryCode":"NPL","name":"Bheri Zone","localName":"Bheri Zone","labelEnglish":"Bheri Zone","labelLocal":"Bheri Zone","labelBoth":"Bheri Zone","type":"District","iso":"NP-BH","qid":"Q9060"},"geometry":{"type":"Polygon","coordinates":[[[82.0502,27.9056],[82.0438,28.6317],[82.1605,28.6126],[82.5681,28.9852],[82.268,29.1048],[81.8449,28.9812],[81.5486,29.1257],[81.4258,28.9037],[80.9923,28.9353],[81.228,28.8265],[81.2719,28.6361],[81.0471,28.3891],[81.3071,28.1238],[81.8832,27.8491],[82.0502,27.9056]]]}},{"type":"Feature","id":"label-NPL-1124","properties":{"kind":"division-label","code":"NPL-1124","countryCode":"NPL","name":"Bheri Zone","localName":"Bheri Zone","labelEnglish":"Bheri Zone","labelLocal":"Bheri Zone","labelBoth":"Bheri Zone","type":"District","iso":"NP-BH","qid":"Q9060"},"geometry":{"type":"Point","coordinates":[81.7802,28.4501]}}]}