{"type":"FeatureCollection","features":[{"type":"Feature","id":"NRU-4978","properties":{"kind":"division","code":"NRU-4978","countryCode":"NRU","name":"Anetan","localName":"Anetan","labelEnglish":"Anetan","labelLocal":"Anetan","labelBoth":"Anetan","type":null,"iso":"NR-03","qid":"Q378813"},"geometry":{"type":"Polygon","coordinates":[[[166.9312,-0.4933],[166.939,-0.5042],[166.9388,-0.4904],[166.9312,-0.4933]]]}},{"type":"Feature","id":"label-NRU-4978","properties":{"kind":"division-label","code":"NRU-4978","countryCode":"NRU","name":"Anetan","localName":"Anetan","labelEnglish":"Anetan","labelLocal":"Anetan","labelBoth":"Anetan","type":null,"iso":"NR-03","qid":"Q378813"},"geometry":{"type":"Point","coordinates":[166.936,-0.494702]}},{"type":"Feature","id":"NRU-4977","properties":{"kind":"division","code":"NRU-4977","countryCode":"NRU","name":"Ewa","localName":"Ewa","labelEnglish":"Ewa","labelLocal":"Ewa","labelBoth":"Ewa","type":null,"iso":"NR-09","qid":"Q274381"},"geometry":{"type":"Polygon","coordinates":[[[166.9251,-0.4957],[166.938,-0.5105],[166.939,-0.5042],[166.9312,-0.4933],[166.9251,-0.4957]]]}},{"type":"Feature","id":"label-NRU-4977","properties":{"kind":"division-label","code":"NRU-4977","countryCode":"NRU","name":"Ewa","localName":"Ewa","labelEnglish":"Ewa","labelLocal":"Ewa","labelBoth":"Ewa","type":null,"iso":"NR-09","qid":"Q274381"},"geometry":{"type":"Point","coordinates":[166.934,-0.502076]}},{"type":"Feature","id":"NRU-4976","properties":{"kind":"division","code":"NRU-4976","countryCode":"NRU","name":"Baiti","localName":"Baiti","labelEnglish":"Baiti","labelLocal":"Baiti","labelBoth":"Baiti","type":null,"iso":"NR-05","qid":"Q328727"},"geometry":{"type":"Polygon","coordinates":[[[166.9181,-0.4984],[166.9372,-0.5165],[166.938,-0.5105],[166.9251,-0.4957],[166.9181,-0.4984]]]}},{"type":"Feature","id":"label-NRU-4976","properties":{"kind":"division-label","code":"NRU-4976","countryCode":"NRU","name":"Baiti","localName":"Baiti","labelEnglish":"Baiti","labelLocal":"Baiti","labelBoth":"Baiti","type":null,"iso":"NR-05","qid":"Q328727"},"geometry":{"type":"Point","coordinates":[166.925,-0.500672]}},{"type":"Feature","id":"NRU-4975","properties":{"kind":"division","code":"NRU-4975","countryCode":"NRU","name":"Uaboe","localName":"Uaboe","labelEnglish":"Uaboe","labelLocal":"Uaboe","labelBoth":"Uaboe","type":null,"iso":"NR-13","qid":"Q473764"},"geometry":{"type":"Polygon","coordinates":[[[166.9134,-0.5002],[166.9368,-0.5202],[166.9372,-0.5165],[166.9181,-0.4984],[166.9134,-0.5002]]]}},{"type":"Feature","id":"label-NRU-4975","properties":{"kind":"division-label","code":"NRU-4975","countryCode":"NRU","name":"Uaboe","localName":"Uaboe","labelEnglish":"Uaboe","labelLocal":"Uaboe","labelBoth":"Uaboe","type":null,"iso":"NR-13","qid":"Q473764"},"geometry":{"type":"Point","coordinates":[166.924,-0.506992]}},{"type":"Feature","id":"NRU-4974","properties":{"kind":"division","code":"NRU-4974","countryCode":"NRU","name":"Nibok","localName":"Nibok","labelEnglish":"Nibok","labelLocal":"Nibok","labelBoth":"Nibok","type":null,"iso":"NR-12","qid":"Q378780"},"geometry":{"type":"Polygon","coordinates":[[[166.9103,-0.5121],[166.9204,-0.5207],[166.9361,-0.5252],[166.9368,-0.5202],[166.9134,-0.5002],[166.9103,-0.5121]]]}},{"type":"Feature","id":"label-NRU-4974","properties":{"kind":"division-label","code":"NRU-4974","countryCode":"NRU","name":"Nibok","localName":"Nibok","labelEnglish":"Nibok","labelLocal":"Nibok","labelBoth":"Nibok","type":null,"iso":"NR-12","qid":"Q378780"},"geometry":{"type":"Point","coordinates":[166.921,-0.512961]}},{"type":"Feature","id":"NRU-4973","properties":{"kind":"division","code":"NRU-4973","countryCode":"NRU","name":"Denigomodu","localName":"Denigomodu","labelEnglish":"Denigomodu","labelLocal":"Denigomodu","labelBoth":"Denigomodu","type":null,"iso":"NR-08","qid":"Q1187200"},"geometry":{"type":"Polygon","coordinates":[[[166.907,-0.5248],[166.9169,-0.5242],[166.9204,-0.5207],[166.9103,-0.5121],[166.907,-0.5248]]]}},{"type":"Feature","id":"label-NRU-4973","properties":{"kind":"division-label","code":"NRU-4973","countryCode":"NRU","name":"Denigomodu","localName":"Denigomodu","labelEnglish":"Denigomodu","labelLocal":"Denigomodu","labelBoth":"Denigomodu","type":null,"iso":"NR-08","qid":"Q1187200"},"geometry":{"type":"Point","coordinates":[166.914,-0.520335]}},{"type":"Feature","id":"NRU-4972","properties":{"kind":"division","code":"NRU-4972","countryCode":"NRU","name":"Aiwo","localName":"Aiwo","labelEnglish":"Aiwo","labelLocal":"Aiwo","labelBoth":"Aiwo","type":null,"iso":"NR-01","qid":"Q240017"},"geometry":{"type":"Polygon","coordinates":[[[166.912,-0.537],[166.9179,-0.5351],[166.9169,-0.5242],[166.907,-0.5248],[166.912,-0.537]]]}},{"type":"Feature","id":"label-NRU-4972","properties":{"kind":"division-label","code":"NRU-4972","countryCode":"NRU","name":"Aiwo","localName":"Aiwo","labelEnglish":"Aiwo","labelLocal":"Aiwo","labelBoth":"Aiwo","type":null,"iso":"NR-01","qid":"Q240017"},"geometry":{"type":"Point","coordinates":[166.913,-0.529816]}},{"type":"Feature","id":"NRU-4971","properties":{"kind":"division","code":"NRU-4971","countryCode":"NRU","name":"Boe","localName":"Boe","labelEnglish":"Boe","labelLocal":"Boe","labelBoth":"Boe","type":null,"iso":"NR-06","qid":"Q378829"},"geometry":{"type":"Polygon","coordinates":[[[166.9164,-0.5475],[166.9201,-0.5388],[166.9179,-0.5351],[166.912,-0.537],[166.9164,-0.5475]]]}},{"type":"Feature","id":"label-NRU-4971","properties":{"kind":"division-label","code":"NRU-4971","countryCode":"NRU","name":"Boe","localName":"Boe","labelEnglish":"Boe","labelLocal":"Boe","labelBoth":"Boe","type":null,"iso":"NR-06","qid":"Q378829"},"geometry":{"type":"Point","coordinates":[166.916,-0.538594]}},{"type":"Feature","id":"NRU-4983","properties":{"kind":"division","code":"NRU-4983","countryCode":"NRU","name":"Yaren","localName":"Yaren","labelEnglish":"Yaren","labelLocal":"Yaren","labelBoth":"Yaren","type":null,"iso":"NR-14","qid":"Q31026"},"geometry":{"type":"Polygon","coordinates":[[[166.9326,-0.5507],[166.9253,-0.5344],[166.9201,-0.5388],[166.9164,-0.5475],[166.9326,-0.5507]]]}},{"type":"Feature","id":"label-NRU-4983","properties":{"kind":"division-label","code":"NRU-4983","countryCode":"NRU","name":"Yaren","localName":"Yaren","labelEnglish":"Yaren","labelLocal":"Yaren","labelBoth":"Yaren","type":null,"iso":"NR-14","qid":"Q31026"},"geometry":{"type":"Point","coordinates":[166.925,-0.543159]}},{"type":"Feature","id":"NRU-4982","properties":{"kind":"division","code":"NRU-4982","countryCode":"NRU","name":"Meneng","localName":"Meneng","labelEnglish":"Meneng","labelLocal":"Meneng","labelBoth":"Meneng","type":null,"iso":"NR-11","qid":"Q327788"},"geometry":{"type":"Polygon","coordinates":[[[166.9532,-0.5334],[166.9355,-0.5298],[166.9253,-0.5344],[166.9326,-0.5507],[166.9532,-0.5334]]]}},{"type":"Feature","id":"label-NRU-4982","properties":{"kind":"division-label","code":"NRU-4982","countryCode":"NRU","name":"Meneng","localName":"Meneng","labelEnglish":"Meneng","labelLocal":"Meneng","labelBoth":"Meneng","type":null,"iso":"NR-11","qid":"Q327788"},"geometry":{"type":"Point","coordinates":[166.939,-0.539648]}},{"type":"Feature","id":"NRU-4981","properties":{"kind":"division","code":"NRU-4981","countryCode":"NRU","name":"Anibare","localName":"Anibare","labelEnglish":"Anibare","labelLocal":"Anibare","labelBoth":"Anibare","type":null,"iso":"NR-04","qid":"Q328733"},"geometry":{"type":"Polygon","coordinates":[[[166.9574,-0.5113],[166.939,-0.5042],[166.938,-0.5105],[166.9372,-0.5165],[166.9368,-0.5202],[166.9361,-0.5252],[166.9355,-0.5298],[166.9532,-0.5334],[166.9574,-0.5113]]]}},{"type":"Feature","id":"label-NRU-4981","properties":{"kind":"division-label","code":"NRU-4981","countryCode":"NRU","name":"Anibare","localName":"Anibare","labelEnglish":"Anibare","labelLocal":"Anibare","labelBoth":"Anibare","type":null,"iso":"NR-04","qid":"Q328733"},"geometry":{"type":"Point","coordinates":[166.947,-0.519984]}},{"type":"Feature","id":"NRU-4980","properties":{"kind":"division","code":"NRU-4980","countryCode":"NRU","name":"Ijuw","localName":"Ijuw","labelEnglish":"Ijuw","labelLocal":"Ijuw","labelBoth":"Ijuw","type":null,"iso":"NR-10","qid":"Q328738"},"geometry":{"type":"Polygon","coordinates":[[[166.9556,-0.498],[166.939,-0.5042],[166.9574,-0.5113],[166.9556,-0.498]]]}},{"type":"Feature","id":"label-NRU-4980","properties":{"kind":"division-label","code":"NRU-4980","countryCode":"NRU","name":"Ijuw","localName":"Ijuw","labelEnglish":"Ijuw","labelLocal":"Ijuw","labelBoth":"Ijuw","type":null,"iso":"NR-10","qid":"Q328738"},"geometry":{"type":"Point","coordinates":[166.951,-0.504534]}},{"type":"Feature","id":"NRU-4979","properties":{"kind":"division","code":"NRU-4979","countryCode":"NRU","name":"Anabar","localName":"Anabar","labelEnglish":"Anabar","labelLocal":"Anabar","labelBoth":"Anabar","type":null,"iso":"NR-02","qid":"Q328735"},"geometry":{"type":"Polygon","coordinates":[[[166.9388,-0.4904],[166.939,-0.5042],[166.9556,-0.498],[166.9388,-0.4904]]]}},{"type":"Feature","id":"label-NRU-4979","properties":{"kind":"division-label","code":"NRU-4979","countryCode":"NRU","name":"Anabar","localName":"Anabar","labelEnglish":"Anabar","labelLocal":"Anabar","labelBoth":"Anabar","type":null,"iso":"NR-02","qid":"Q328735"},"geometry":{"type":"Point","coordinates":[166.944,-0.497511]}},{"type":"Feature","id":"NRU-4970","properties":{"kind":"division","code":"NRU-4970","countryCode":"NRU","name":"Buada","localName":"Buada","labelEnglish":"Buada","labelLocal":"Buada","labelBoth":"Buada","type":null,"iso":"NR-07","qid":"Q202747"},"geometry":{"type":"Polygon","coordinates":[[[166.9361,-0.5252],[166.9204,-0.5207],[166.9169,-0.5242],[166.9179,-0.5351],[166.9201,-0.5388],[166.9253,-0.5344],[166.9355,-0.5298],[166.9361,-0.5252]]]}},{"type":"Feature","id":"label-NRU-4970","properties":{"kind":"division-label","code":"NRU-4970","countryCode":"NRU","name":"Buada","localName":"Buada","labelEnglish":"Buada","labelLocal":"Buada","labelBoth":"Buada","type":null,"iso":"NR-07","qid":"Q202747"},"geometry":{"type":"Point","coordinates":[166.925,-0.527877]}}]}