{"type":"FeatureCollection","features":[{"type":"Feature","id":"NZL-5479","properties":{"kind":"division","code":"NZL-5479","countryCode":"NZL","name":"Auckland Islands","localName":"Auckland Islands","labelEnglish":"Auckland Islands","labelLocal":"Auckland Islands","labelBoth":"Auckland Islands","type":null,"iso":"NZ-X06~","qid":null},"geometry":{"type":"Polygon","coordinates":[[[166.2434,-50.6008],[165.8865,-50.7946],[166.2244,-50.8601],[166.2434,-50.6008]]]}},{"type":"Feature","id":"label-NZL-5479","properties":{"kind":"division-label","code":"NZL-5479","countryCode":"NZL","name":"Auckland Islands","localName":"Auckland Islands","labelEnglish":"Auckland Islands","labelLocal":"Auckland Islands","labelBoth":"Auckland Islands","type":null,"iso":"NZ-X06~","qid":null},"geometry":{"type":"Point","coordinates":[166.11,-50.7664]}},{"type":"Feature","id":"NZL-5478","properties":{"kind":"division","code":"NZL-5478","countryCode":"NZL","name":"Campbell Islands","localName":"Campbell Islands","labelEnglish":"Campbell Islands","labelLocal":"Campbell Islands","labelBoth":"Campbell Islands","type":null,"iso":"NZ-X05~","qid":null},"geometry":{"type":"Polygon","coordinates":[[[169.2504,-52.5203],[169.1136,-52.5465],[169.1953,-52.6003],[169.2504,-52.5203]]]}},{"type":"Feature","id":"label-NZL-5478","properties":{"kind":"division-label","code":"NZL-5478","countryCode":"NZL","name":"Campbell Islands","localName":"Campbell Islands","labelEnglish":"Campbell Islands","labelLocal":"Campbell Islands","labelBoth":"Campbell Islands","type":null,"iso":"NZ-X05~","qid":null},"geometry":{"type":"Point","coordinates":[169.183,-52.5455]}},{"type":"Feature","id":"NZL-5477","properties":{"kind":"division","code":"NZL-5477","countryCode":"NZL","name":"Antipodes Islands","localName":"Antipodes Islands","labelEnglish":"Antipodes Islands","labelLocal":"Antipodes Islands","labelBoth":"Antipodes Islands","type":null,"iso":"NZ-X04~","qid":null},"geometry":{"type":"Polygon","coordinates":[[[178.839,-49.6292],[178.7176,-49.6725],[178.8221,-49.7198],[178.839,-49.6292]]]}},{"type":"Feature","id":"label-NZL-5477","properties":{"kind":"division-label","code":"NZL-5477","countryCode":"NZL","name":"Antipodes Islands","localName":"Antipodes Islands","labelEnglish":"Antipodes Islands","labelLocal":"Antipodes Islands","labelBoth":"Antipodes Islands","type":null,"iso":"NZ-X04~","qid":null},"geometry":{"type":"Point","coordinates":[178.801,-49.6532]}},{"type":"Feature","id":"NZL-5470","properties":{"kind":"division","code":"NZL-5470","countryCode":"NZL","name":"Chatham Islands","localName":"Chatham Islands","labelEnglish":"Chatham Islands","labelLocal":"Chatham Islands","labelBoth":"Chatham Islands","type":"Special Island Authority","iso":"NZ-CIT","qid":"Q115459"},"geometry":{"type":"Polygon","coordinates":[[[-176.382,-43.8986],[-176.602,-43.7076],[-176.5118,-44.1218],[-176.382,-43.8986]]]}},{"type":"Feature","id":"label-NZL-5470","properties":{"kind":"division-label","code":"NZL-5470","countryCode":"NZL","name":"Chatham Islands","localName":"Chatham Islands","labelEnglish":"Chatham Islands","labelLocal":"Chatham Islands","labelBoth":"Chatham Islands","type":"Special Island Authority","iso":"NZ-CIT","qid":"Q115459"},"geometry":{"type":"Point","coordinates":[-176.174,-44.2722]}},{"type":"Feature","id":"NZL-5471","properties":{"kind":"division","code":"NZL-5471","countryCode":"NZL","name":"Kermadec Islands","localName":"Kermadec Islands","labelEnglish":"Kermadec Islands","labelLocal":"Kermadec Islands","labelBoth":"Kermadec Islands","type":null,"iso":"NZ-X01~","qid":null},"geometry":{"type":"Polygon","coordinates":[[[-177.9095,-29.2786],[-177.8481,-29.2786],[-177.958,-29.2228],[-177.9095,-29.2786]]]}},{"type":"Feature","id":"label-NZL-5471","properties":{"kind":"division-label","code":"NZL-5471","countryCode":"NZL","name":"Kermadec Islands","localName":"Kermadec Islands","labelEnglish":"Kermadec Islands","labelLocal":"Kermadec Islands","labelBoth":"Kermadec Islands","type":null,"iso":"NZ-X01~","qid":null},"geometry":{"type":"Point","coordinates":[-177.91,-29.2436]}},{"type":"Feature","id":"NZL-5472","properties":{"kind":"division","code":"NZL-5472","countryCode":"NZL","name":"Tokelau","localName":"Tokelau","labelEnglish":"Tokelau","labelLocal":"Tokelau","labelBoth":"Tokelau","type":null,"iso":"TK-X01~","qid":null},"geometry":{"type":"Polygon","coordinates":[[[-172.4861,-8.5654],[-172.483,-8.5626],[-172.5026,-8.5432],[-172.4861,-8.5654]]]}},{"type":"Feature","id":"label-NZL-5472","properties":{"kind":"division-label","code":"NZL-5472","countryCode":"NZL","name":"Tokelau","localName":"Tokelau","labelEnglish":"Tokelau","labelLocal":"Tokelau","labelBoth":"Tokelau","type":null,"iso":"TK-X01~","qid":null},"geometry":{"type":"Point","coordinates":[-171.195,-9.34449]}},{"type":"Feature","id":"NZL-5480","properties":{"kind":"division","code":"NZL-5480","countryCode":"NZL","name":"Snares Islands","localName":"Snares Islands","labelEnglish":"Snares Islands","labelLocal":"Snares Islands","labelBoth":"Snares Islands","type":null,"iso":"NZ-X07~","qid":null},"geometry":{"type":"Polygon","coordinates":[[[166.6372,-47.9936],[166.5684,-48.0344],[166.6372,-48.0624],[166.6372,-47.9936]]]}},{"type":"Feature","id":"label-NZL-5480","properties":{"kind":"division-label","code":"NZL-5480","countryCode":"NZL","name":"Snares Islands","localName":"Snares Islands","labelEnglish":"Snares Islands","labelLocal":"Snares Islands","labelBoth":"Snares Islands","type":null,"iso":"NZ-X07~","qid":null},"geometry":{"type":"Point","coordinates":[166.608,-48.0227]}},{"type":"Feature","id":"NZL-3408","properties":{"kind":"division","code":"NZL-3408","countryCode":"NZL","name":"Southland","localName":"Southland","labelEnglish":"Southland","labelLocal":"Southland","labelBoth":"Southland","type":"Regional Council","iso":"NZ-STL","qid":"Q864971"},"geometry":{"type":"MultiPolygon","coordinates":[[[[168.1995,-47.0476],[167.9206,-46.683],[167.521,-47.273],[168.1995,-47.0476]]],[[[169.1927,-46.618],[169.1876,-46.2097],[169.0125,-45.8386],[169.1774,-45.3736],[168.7785,-45.4167],[168.6378,-45.2582],[168.3076,-45.2995],[168.1261,-44.863],[168.3289,-44.49],[168.1367,-44.2808],[167.3088,-44.8753],[166.8814,-45.2796],[166.7146,-45.5756],[166.8897,-45.7765],[166.4898,-45.8075],[166.4898,-46.013],[166.762,-46.22],[167.6979,-46.1887],[167.8501,-46.3966],[168.2161,-46.3544],[168.4192,-46.602],[169.1927,-46.618]]]]}},{"type":"Feature","id":"label-NZL-3408","properties":{"kind":"division-label","code":"NZL-3408","countryCode":"NZL","name":"Southland","localName":"Southland","labelEnglish":"Southland","labelLocal":"Southland","labelBoth":"Southland","type":"Regional Council","iso":"NZ-STL","qid":"Q864971"},"geometry":{"type":"Point","coordinates":[167.928,-45.6455]}},{"type":"Feature","id":"NZL-3401","properties":{"kind":"division","code":"NZL-3401","countryCode":"NZL","name":"Marlborough","localName":"Marlborough","labelEnglish":"Marlborough","labelLocal":"Marlborough","labelBoth":"Marlborough","type":"Unitary Authority","iso":"NZ-MBH","qid":"Q140083"},"geometry":{"type":"Polygon","coordinates":[[[173.5905,-41.0557],[173.2853,-41.3886],[172.7063,-42.116],[173.0644,-42.4713],[173.4985,-42.0721],[173.914,-41.9161],[174.0817,-41.9691],[174.2922,-41.7302],[174.0581,-41.5173],[174.1831,-40.9731],[173.7913,-41.2914],[173.8535,-40.9259],[173.5905,-41.0557]]]}},{"type":"Feature","id":"label-NZL-3401","properties":{"kind":"division-label","code":"NZL-3401","countryCode":"NZL","name":"Marlborough","localName":"Marlborough","labelEnglish":"Marlborough","labelLocal":"Marlborough","labelBoth":"Marlborough","type":"Unitary Authority","iso":"NZ-MBH","qid":"Q140083"},"geometry":{"type":"Point","coordinates":[173.656,-41.638]}},{"type":"Feature","id":"NZL-3402","properties":{"kind":"division","code":"NZL-3402","countryCode":"NZL","name":"Nelson","localName":"Nelson","labelEnglish":"Nelson","labelLocal":"Nelson","labelBoth":"Nelson","type":"Unitary Authority","iso":"NZ-NSN","qid":"Q206687"},"geometry":{"type":"Polygon","coordinates":[[[173.185,-41.3102],[173.2853,-41.3886],[173.5905,-41.0557],[173.185,-41.3102]]]}},{"type":"Feature","id":"label-NZL-3402","properties":{"kind":"division-label","code":"NZL-3402","countryCode":"NZL","name":"Nelson","localName":"Nelson","labelEnglish":"Nelson","labelLocal":"Nelson","labelBoth":"Nelson","type":"Unitary Authority","iso":"NZ-NSN","qid":"Q206687"},"geometry":{"type":"Point","coordinates":[173.388,-41.2508]}},{"type":"Feature","id":"NZL-3403","properties":{"kind":"division","code":"NZL-3403","countryCode":"NZL","name":"Tasman","localName":"Tasman","labelEnglish":"Tasman","labelLocal":"Tasman","labelBoth":"Tasman","type":"Unitary Authority","iso":"NZ-TAS","qid":"Q666142"},"geometry":{"type":"Polygon","coordinates":[[[172.2334,-40.7776],[172.6979,-41.2172],[172.4141,-41.4277],[172.0641,-41.9546],[172.4846,-42.286],[172.7063,-42.116],[173.2853,-41.3886],[173.185,-41.3102],[173.0173,-40.7973],[172.6945,-40.7502],[172.6414,-40.5097],[172.2334,-40.7776]]]}},{"type":"Feature","id":"label-NZL-3403","properties":{"kind":"division-label","code":"NZL-3403","countryCode":"NZL","name":"Tasman","localName":"Tasman","labelEnglish":"Tasman","labelLocal":"Tasman","labelBoth":"Tasman","type":"Unitary Authority","iso":"NZ-TAS","qid":"Q666142"},"geometry":{"type":"Point","coordinates":[172.675,-41.6713]}},{"type":"Feature","id":"NZL-3406","properties":{"kind":"division","code":"NZL-3406","countryCode":"NZL","name":"West Coast","localName":"West Coast","labelEnglish":"West Coast","labelLocal":"West Coast","labelBoth":"West Coast","type":"Regional Council","iso":"NZ-WTC","qid":"Q541468"},"geometry":{"type":"Polygon","coordinates":[[[168.1367,-44.2808],[168.3289,-44.49],[168.7427,-44.3936],[169.0711,-44.1014],[169.6719,-43.9755],[170.2046,-43.5325],[170.5958,-43.4235],[171.3278,-42.9646],[171.7271,-42.8908],[172.4846,-42.286],[172.0641,-41.9546],[172.4141,-41.4277],[172.6979,-41.2172],[172.2334,-40.7776],[172.1068,-40.8869],[172.0708,-41.4142],[171.8552,-41.6655],[171.4888,-41.8303],[171.1228,-42.5924],[170.7007,-42.9547],[170.2893,-43.1069],[169.7337,-43.5657],[169.1921,-43.7587],[168.7468,-44.0103],[168.3709,-44.0392],[168.1367,-44.2808]]]}},{"type":"Feature","id":"label-NZL-3406","properties":{"kind":"division-label","code":"NZL-3406","countryCode":"NZL","name":"West Coast","localName":"West Coast","labelEnglish":"West Coast","labelLocal":"West Coast","labelBoth":"West Coast","type":"Regional Council","iso":"NZ-WTC","qid":"Q541468"},"geometry":{"type":"Point","coordinates":[170.402,-43.362]}},{"type":"Feature","id":"NZL-3407","properties":{"kind":"division","code":"NZL-3407","countryCode":"NZL","name":"Otago","localName":"Otago","labelEnglish":"Otago","labelLocal":"Otago","labelBoth":"Otago","type":"Regional Council","iso":"NZ-OTA","qid":"Q692912"},"geometry":{"type":"Polygon","coordinates":[[[171.1725,-44.9533],[170.842,-44.8817],[170.39,-45.0604],[169.6436,-44.5659],[169.547,-44.2032],[169.6719,-43.9755],[169.0711,-44.1014],[168.7427,-44.3936],[168.3289,-44.49],[168.1261,-44.863],[168.3076,-45.2995],[168.6378,-45.2582],[168.7785,-45.4167],[169.1774,-45.3736],[169.0125,-45.8386],[169.1876,-46.2097],[169.1927,-46.618],[169.849,-46.4675],[170.3338,-45.9815],[170.7005,-45.9078],[170.6267,-45.7063],[171.1725,-44.9533]]]}},{"type":"Feature","id":"label-NZL-3407","properties":{"kind":"division-label","code":"NZL-3407","countryCode":"NZL","name":"Otago","localName":"Otago","labelEnglish":"Otago","labelLocal":"Otago","labelBoth":"Otago","type":"Regional Council","iso":"NZ-OTA","qid":"Q692912"},"geometry":{"type":"Point","coordinates":[169.887,-45.4296]}},{"type":"Feature","id":"NZL-3400","properties":{"kind":"division","code":"NZL-3400","countryCode":"NZL","name":"Canterbury","localName":"Canterbury","labelEnglish":"Canterbury","labelLocal":"Canterbury","labelBoth":"Canterbury","type":"Regional Council","iso":"NZ-CAN","qid":"Q657004"},"geometry":{"type":"Polygon","coordinates":[[[174.0817,-41.9691],[173.914,-41.9161],[173.4985,-42.0721],[173.0644,-42.4713],[172.7063,-42.116],[172.4846,-42.286],[171.7271,-42.8908],[171.3278,-42.9646],[170.5958,-43.4235],[170.2046,-43.5325],[169.6719,-43.9755],[169.547,-44.2032],[169.6436,-44.5659],[170.39,-45.0604],[170.842,-44.8817],[171.1725,-44.9533],[171.196,-44.5668],[171.346,-44.2786],[172.2498,-43.8813],[172.4173,-43.7375],[173.0929,-43.8542],[172.7297,-43.4148],[172.8112,-43.169],[173.2873,-42.9539],[173.5586,-42.4911],[174.0817,-41.9691]]]}},{"type":"Feature","id":"label-NZL-3400","properties":{"kind":"division-label","code":"NZL-3400","countryCode":"NZL","name":"Canterbury","localName":"Canterbury","labelEnglish":"Canterbury","labelLocal":"Canterbury","labelBoth":"Canterbury","type":"Regional Council","iso":"NZ-CAN","qid":"Q657004"},"geometry":{"type":"Point","coordinates":[171.813,-43.4]}},{"type":"Feature","id":"NZL-3398","properties":{"kind":"division","code":"NZL-3398","countryCode":"NZL","name":"Auckland","localName":"Auckland","labelEnglish":"Auckland","labelLocal":"Auckland","labelBoth":"Auckland","type":"Unitary Authority","iso":"NZ-AUK","qid":"Q726917"},"geometry":{"type":"Polygon","coordinates":[[[174.6729,-37.2938],[175.1597,-37.1602],[175.326,-37.0095],[174.9631,-36.9335],[174.7096,-36.5421],[174.8245,-36.277],[174.6562,-36.1335],[174.5112,-36.2278],[174.3599,-36.6313],[174.4889,-37.0146],[174.7007,-36.9363],[174.8805,-37.0763],[174.6729,-37.2938]]]}},{"type":"Feature","id":"label-NZL-3398","properties":{"kind":"division-label","code":"NZL-3398","countryCode":"NZL","name":"Auckland","localName":"Auckland","labelEnglish":"Auckland","labelLocal":"Auckland","labelBoth":"Auckland","type":"Unitary Authority","iso":"NZ-AUK","qid":"Q726917"},"geometry":{"type":"Point","coordinates":[174.597,-36.6334]}},{"type":"Feature","id":"NZL-5468","properties":{"kind":"division","code":"NZL-5468","countryCode":"NZL","name":"Waikato","localName":"Waikato","labelEnglish":"Waikato","labelLocal":"Waikato","labelBoth":"Waikato","type":"Regional Council","iso":"NZ-WKO","qid":"Q139918"},"geometry":{"type":"Polygon","coordinates":[[[174.6176,-38.7074],[174.8683,-38.7771],[174.9712,-38.6688],[175.6075,-38.5161],[175.5264,-38.7577],[175.6656,-38.9819],[175.5942,-39.2745],[176.0818,-39.1277],[176.2673,-38.9065],[176.4721,-38.3678],[176.1003,-38.1572],[175.8405,-37.6352],[175.9587,-37.3687],[175.8278,-36.8258],[175.562,-36.5517],[175.4362,-36.8647],[175.5628,-37.1799],[175.326,-37.0095],[175.1597,-37.1602],[174.6729,-37.2938],[174.8504,-37.7649],[174.7098,-38.1047],[174.6176,-38.7074]]]}},{"type":"Feature","id":"label-NZL-5468","properties":{"kind":"division-label","code":"NZL-5468","countryCode":"NZL","name":"Waikato","localName":"Waikato","labelEnglish":"Waikato","labelLocal":"Waikato","labelBoth":"Waikato","type":"Regional Council","iso":"NZ-WKO","qid":"Q139918"},"geometry":{"type":"Point","coordinates":[175.445,-38.0409]}},{"type":"Feature","id":"NZL-5476","properties":{"kind":"division","code":"NZL-5476","countryCode":"NZL","name":"Three Kings Islands","localName":"Three Kings Islands","labelEnglish":"Three Kings Islands","labelLocal":"Three Kings Islands","labelBoth":"Three Kings Islands","type":null,"iso":"NZ-X03~","qid":null},"geometry":{"type":"Polygon","coordinates":[[[172.146,-34.1447],[172.1163,-34.1443],[172.1377,-34.1692],[172.146,-34.1447]]]}},{"type":"Feature","id":"label-NZL-5476","properties":{"kind":"division-label","code":"NZL-5476","countryCode":"NZL","name":"Three Kings Islands","localName":"Three Kings Islands","labelEnglish":"Three Kings Islands","labelLocal":"Three Kings Islands","labelBoth":"Three Kings Islands","type":null,"iso":"NZ-X03~","qid":null},"geometry":{"type":"Point","coordinates":[172.135,-34.1566]}},{"type":"Feature","id":"NZL-5469","properties":{"kind":"division","code":"NZL-5469","countryCode":"NZL","name":"Wellington","localName":"Wellington","labelEnglish":"Wellington","labelLocal":"Wellington","labelBoth":"Wellington","type":"Regional Council","iso":"NZ-WGN","qid":"Q856010"},"geometry":{"type":"Polygon","coordinates":[[[176.348,-40.6965],[175.2621,-40.7663],[175.1413,-40.6744],[174.6094,-41.2919],[174.8897,-41.2245],[174.8656,-41.4195],[175.1818,-41.4179],[175.3303,-41.6098],[175.9668,-41.247],[176.348,-40.6965]]]}},{"type":"Feature","id":"label-NZL-5469","properties":{"kind":"division-label","code":"NZL-5469","countryCode":"NZL","name":"Wellington","localName":"Wellington","labelEnglish":"Wellington","labelLocal":"Wellington","labelBoth":"Wellington","type":"Regional Council","iso":"NZ-WGN","qid":"Q856010"},"geometry":{"type":"Point","coordinates":[175.2,-41.2275]}},{"type":"Feature","id":"NZL-3334","properties":{"kind":"division","code":"NZL-3334","countryCode":"NZL","name":"Manawatū-Whanganui","localName":"Manawatū-Whanganui","labelEnglish":"Manawatū-Whanganui","labelLocal":"Manawatū-Whanganui","labelBoth":"Manawatū-Whanganui","type":"Regional Council","iso":"NZ-MWT","qid":"Q139907"},"geometry":{"type":"Polygon","coordinates":[[[175.1413,-40.6744],[175.2621,-40.7663],[176.348,-40.6965],[176.6297,-40.4541],[176.3891,-40.3621],[176.3167,-40.0736],[176.1071,-39.9981],[176.2017,-39.674],[176.0818,-39.1277],[175.5942,-39.2745],[175.6656,-38.9819],[175.5264,-38.7577],[175.6075,-38.5161],[174.9712,-38.6688],[174.8683,-38.7771],[174.7184,-39.1412],[174.9928,-39.5566],[174.7723,-39.8591],[175.155,-40.0854],[175.2371,-40.2859],[175.1413,-40.6744]]]}},{"type":"Feature","id":"label-NZL-3334","properties":{"kind":"division-label","code":"NZL-3334","countryCode":"NZL","name":"Manawatū-Whanganui","localName":"Manawatū-Whanganui","labelEnglish":"Manawatū-Whanganui","labelLocal":"Manawatū-Whanganui","labelBoth":"Manawatū-Whanganui","type":"Regional Council","iso":"NZ-MWT","qid":"Q139907"},"geometry":{"type":"Point","coordinates":[175.627,-39.8518]}},{"type":"Feature","id":"NZL-3405","properties":{"kind":"division","code":"NZL-3405","countryCode":"NZL","name":"Taranaki","localName":"Taranaki","labelEnglish":"Taranaki","labelLocal":"Taranaki","labelBoth":"Taranaki","type":"Regional Council","iso":"NZ-TKI","qid":"Q140207"},"geometry":{"type":"Polygon","coordinates":[[[174.7723,-39.8591],[174.9928,-39.5566],[174.7184,-39.1412],[174.8683,-38.7771],[174.6176,-38.7074],[174.3667,-38.9757],[173.7776,-39.2077],[173.7844,-39.3932],[174.7723,-39.8591]]]}},{"type":"Feature","id":"label-NZL-3405","properties":{"kind":"division-label","code":"NZL-3405","countryCode":"NZL","name":"Taranaki","localName":"Taranaki","labelEnglish":"Taranaki","labelLocal":"Taranaki","labelBoth":"Taranaki","type":"Regional Council","iso":"NZ-TKI","qid":"Q140207"},"geometry":{"type":"Point","coordinates":[174.414,-39.3382]}},{"type":"Feature","id":"NZL-3404","properties":{"kind":"division","code":"NZL-3404","countryCode":"NZL","name":"Northland","localName":"Northland","labelEnglish":"Northland","labelLocal":"Northland","labelBoth":"Northland","type":"Regional Council","iso":"NZ-NTL","qid":"Q59596"},"geometry":{"type":"Polygon","coordinates":[[[174.5112,-36.2278],[174.6562,-36.1335],[174.4969,-35.9876],[174.5695,-35.5943],[174.353,-35.1994],[174.2097,-35.3427],[173.8909,-35.0007],[173.4783,-34.9904],[173.1649,-34.8448],[173.0637,-34.3976],[172.6741,-34.4799],[173.1436,-34.9284],[173.1003,-35.22],[174.0241,-36.2682],[173.98,-36.1071],[174.5112,-36.2278]]]}},{"type":"Feature","id":"label-NZL-3404","properties":{"kind":"division-label","code":"NZL-3404","countryCode":"NZL","name":"Northland","localName":"Northland","labelEnglish":"Northland","labelLocal":"Northland","labelBoth":"Northland","type":"Regional Council","iso":"NZ-NTL","qid":"Q59596"},"geometry":{"type":"Point","coordinates":[173.981,-35.5874]}},{"type":"Feature","id":"NZL-3399","properties":{"kind":"division","code":"NZL-3399","countryCode":"NZL","name":"Bay of Plenty","localName":"Bay of Plenty","labelEnglish":"Bay of Plenty","labelLocal":"Bay of Plenty","labelBoth":"Bay of Plenty","type":"Regional Council","iso":"NZ-BOP","qid":"Q2192924"},"geometry":{"type":"Polygon","coordinates":[[[175.9587,-37.3687],[175.8405,-37.6352],[176.1003,-38.1572],[176.4721,-38.3678],[176.2673,-38.9065],[176.984,-38.7046],[177.1728,-38.5698],[177.4971,-38.2243],[177.8441,-38.1074],[178.0773,-37.5514],[177.7388,-37.6762],[177.4375,-37.9767],[177.1355,-37.9819],[175.9972,-37.6318],[175.9587,-37.3687]]]}},{"type":"Feature","id":"label-NZL-3399","properties":{"kind":"division-label","code":"NZL-3399","countryCode":"NZL","name":"Bay of Plenty","localName":"Bay of Plenty","labelEnglish":"Bay of Plenty","labelLocal":"Bay of Plenty","labelBoth":"Bay of Plenty","type":"Regional Council","iso":"NZ-BOP","qid":"Q2192924"},"geometry":{"type":"Point","coordinates":[176.858,-38.2161]}},{"type":"Feature","id":"NZL-3396","properties":{"kind":"division","code":"NZL-3396","countryCode":"NZL","name":"Gisborne","localName":"Gisborne","labelEnglish":"Gisborne","labelLocal":"Gisborne","labelBoth":"Gisborne","type":"Unitary Authority","iso":"NZ-GIS","qid":"Q140246"},"geometry":{"type":"Polygon","coordinates":[[[178.0773,-37.5514],[177.8441,-38.1074],[177.4971,-38.2243],[177.1728,-38.5698],[177.9124,-38.9607],[177.964,-38.7614],[178.2946,-38.5398],[178.3516,-38.0017],[178.5643,-37.7177],[178.0773,-37.5514]]]}},{"type":"Feature","id":"label-NZL-3396","properties":{"kind":"division-label","code":"NZL-3396","countryCode":"NZL","name":"Gisborne","localName":"Gisborne","labelEnglish":"Gisborne","labelLocal":"Gisborne","labelBoth":"Gisborne","type":"Unitary Authority","iso":"NZ-GIS","qid":"Q140246"},"geometry":{"type":"Point","coordinates":[177.93,-38.3442]}},{"type":"Feature","id":"NZL-3397","properties":{"kind":"division","code":"NZL-3397","countryCode":"NZL","name":"Hawke's Bay","localName":"Hawke's Bay","labelEnglish":"Hawke's Bay","labelLocal":"Hawke's Bay","labelBoth":"Hawke's Bay","type":"Regional Council","iso":"NZ-HKB","qid":"Q251825"},"geometry":{"type":"Polygon","coordinates":[[[177.9124,-38.9607],[177.1728,-38.5698],[176.984,-38.7046],[176.2673,-38.9065],[176.0818,-39.1277],[176.2017,-39.674],[176.1071,-39.9981],[176.3167,-40.0736],[176.3891,-40.3621],[176.6297,-40.4541],[177.0364,-39.7536],[176.9063,-39.4475],[177.065,-39.1994],[177.3874,-39.0774],[177.9989,-39.1298],[177.9124,-38.9607]]]}},{"type":"Feature","id":"label-NZL-3397","properties":{"kind":"division-label","code":"NZL-3397","countryCode":"NZL","name":"Hawke's Bay","localName":"Hawke's Bay","labelEnglish":"Hawke's Bay","labelLocal":"Hawke's Bay","labelBoth":"Hawke's Bay","type":"Regional Council","iso":"NZ-HKB","qid":"Q251825"},"geometry":{"type":"Point","coordinates":[176.605,-39.5434]}}]}