{"type":"FeatureCollection","features":[{"type":"Feature","id":"OMN-2425","properties":{"kind":"division","code":"OMN-2425","countryCode":"OMN","name":"Musandam","localName":"Musandam","labelEnglish":"Musandam","labelLocal":"Musandam","labelBoth":"Musandam","type":"Province","iso":"OM-MU","qid":"Q372144"},"geometry":{"type":"MultiPolygon","coordinates":[[[[56.3491,25.294],[56.2606,25.3311],[56.2336,25.3125],[56.2067,25.2267],[56.3491,25.294]]],[[[56.1525,25.658],[56.2791,25.6274],[56.439,25.9261],[56.3638,26.386],[56.0774,26.061],[56.1835,26.0145],[56.1525,25.658]]]]}},{"type":"Feature","id":"label-OMN-2425","properties":{"kind":"division-label","code":"OMN-2425","countryCode":"OMN","name":"Musandam","localName":"Musandam","labelEnglish":"Musandam","labelLocal":"Musandam","labelBoth":"Musandam","type":"Province","iso":"OM-MU","qid":"Q372144"},"geometry":{"type":"Point","coordinates":[56.2943,25.9744]}},{"type":"Feature","id":"OMN-2424","properties":{"kind":"division","code":"OMN-2424","countryCode":"OMN","name":"Al Batinah North","localName":"Al Batinah North","labelEnglish":"Al Batinah North","labelLocal":"Al Batinah North","labelBoth":"Al Batinah North","type":"Region","iso":"OM-BA","qid":null},"geometry":{"type":"Polygon","coordinates":[[[56.1714,24.8241],[56.0763,24.73],[56.3127,24.1403],[56.7647,23.8365],[56.8747,23.4907],[57.1637,23.504],[57.5327,23.8296],[57.1515,23.9536],[56.6112,24.4963],[56.3833,24.9782],[56.3161,24.9299],[56.3143,24.912],[56.2747,24.8719],[56.1714,24.8241]]]}},{"type":"Feature","id":"label-OMN-2424","properties":{"kind":"division-label","code":"OMN-2424","countryCode":"OMN","name":"Al Batinah North","localName":"Al Batinah North","labelEnglish":"Al Batinah North","labelLocal":"Al Batinah North","labelBoth":"Al Batinah North","type":"Region","iso":"OM-BA","qid":null},"geometry":{"type":"Point","coordinates":[56.8199,23.9794]}},{"type":"Feature","id":"OMN-4836","properties":{"kind":"division","code":"OMN-4836","countryCode":"OMN","name":"Al Buraimi","localName":"محافظة البريمي","labelEnglish":"Al Buraimi","labelLocal":"محافظة البريمي","labelBoth":"Al Buraimi · محافظة البريمي","type":"Province","iso":"OM-BU","qid":"Q852039"},"geometry":{"type":"Polygon","coordinates":[[[55.9759,24.9721],[55.7999,24.6932],[55.7557,24.2303],[55.9979,24.0813],[55.4568,23.9632],[55.4453,23.5523],[55.8889,23.6718],[56.0142,24.0129],[56.3127,24.1403],[56.0763,24.73],[56.0253,24.8826],[55.9759,24.9721]]]}},{"type":"Feature","id":"label-OMN-4836","properties":{"kind":"division-label","code":"OMN-4836","countryCode":"OMN","name":"Al Buraimi","localName":"محافظة البريمي","labelEnglish":"Al Buraimi","labelLocal":"محافظة البريمي","labelBoth":"Al Buraimi · محافظة البريمي","type":"Province","iso":"OM-BU","qid":"Q852039"},"geometry":{"type":"Point","coordinates":[55.9933,24.3888]}},{"type":"Feature","id":"OMN-2414","properties":{"kind":"division","code":"OMN-2414","countryCode":"OMN","name":"Ad Dhahirah","localName":"Ad Dhahirah","labelEnglish":"Ad Dhahirah","labelLocal":"Ad Dhahirah","labelBoth":"Ad Dhahirah","type":"Region","iso":"OM-ZA","qid":"Q1468596"},"geometry":{"type":"Polygon","coordinates":[[[55.1868,22.7036],[55.6267,22.0238],[55.6002,21.8661],[56.3256,22.0153],[56.5237,22.2538],[56.6828,22.6975],[56.8747,23.4907],[56.7647,23.8365],[56.3127,24.1403],[56.0142,24.0129],[55.8889,23.6718],[55.4453,23.5523],[55.1913,22.9954],[55.1868,22.7036]]]}},{"type":"Feature","id":"label-OMN-2414","properties":{"kind":"division-label","code":"OMN-2414","countryCode":"OMN","name":"Ad Dhahirah","localName":"Ad Dhahirah","labelEnglish":"Ad Dhahirah","labelLocal":"Ad Dhahirah","labelBoth":"Ad Dhahirah","type":"Region","iso":"OM-ZA","qid":"Q1468596"},"geometry":{"type":"Point","coordinates":[55.9327,22.9127]}},{"type":"Feature","id":"OMN-2411","properties":{"kind":"division","code":"OMN-2411","countryCode":"OMN","name":"Dhofar","localName":"Dhofar","labelEnglish":"Dhofar","labelLocal":"Dhofar","labelBoth":"Dhofar","type":"Province","iso":"OM-ZU","qid":"Q1207752"},"geometry":{"type":"Polygon","coordinates":[[[51.9857,18.9797],[52.7301,17.2999],[53.0903,16.6424],[53.5827,16.7499],[54.0234,16.9853],[54.5921,17.0385],[55.0269,17.0111],[55.2547,17.2287],[55.2254,17.5154],[55.4452,17.841],[56.3449,17.9378],[56.5613,18.1492],[56.6597,18.5954],[56.9151,18.8103],[57.4453,18.9453],[56.5773,19.1656],[55.3446,21.0969],[54.9784,19.9954],[53.63,19.546],[51.9786,18.9956],[51.9857,18.9797]]]}},{"type":"Feature","id":"label-OMN-2411","properties":{"kind":"division-label","code":"OMN-2411","countryCode":"OMN","name":"Dhofar","localName":"Dhofar","labelEnglish":"Dhofar","labelLocal":"Dhofar","labelBoth":"Dhofar","type":"Province","iso":"OM-ZU","qid":"Q1207752"},"geometry":{"type":"Point","coordinates":[54.2927,18.4966]}},{"type":"Feature","id":"OMN-2405","properties":{"kind":"division","code":"OMN-2405","countryCode":"OMN","name":"Al Wusta","localName":"Al Wusta","labelEnglish":"Al Wusta","labelLocal":"Al Wusta","labelBoth":"Al Wusta","type":"Region","iso":"OM-WU","qid":"Q958518"},"geometry":{"type":"Polygon","coordinates":[[[55.3446,21.0969],[56.5773,19.1656],[57.4453,18.9453],[57.8401,19.0153],[57.6989,19.7544],[58.1035,20.5751],[58.2551,20.6093],[58.3968,21.0442],[58.2899,21.0956],[56.3256,22.0153],[55.6002,21.8661],[55.3446,21.0969]]]}},{"type":"Feature","id":"label-OMN-2405","properties":{"kind":"division-label","code":"OMN-2405","countryCode":"OMN","name":"Al Wusta","localName":"Al Wusta","labelEnglish":"Al Wusta","labelLocal":"Al Wusta","labelBoth":"Al Wusta","type":"Region","iso":"OM-WU","qid":"Q958518"},"geometry":{"type":"Point","coordinates":[56.8705,20.4263]}},{"type":"Feature","id":"OMN-2406","properties":{"kind":"division","code":"OMN-2406","countryCode":"OMN","name":"Ash Sharqiyah","localName":"Ash Sharqiyah","labelEnglish":"Ash Sharqiyah","labelLocal":"Ash Sharqiyah","labelBoth":"Ash Sharqiyah","type":"Region","iso":"OM-SH","qid":"Q1106416"},"geometry":{"type":"MultiPolygon","coordinates":[[[[59.4839,22.6188],[59.3915,22.2098],[59.0514,22.0386],[58.0823,21.7106],[58.2899,21.0956],[58.3968,21.0442],[58.2551,20.6093],[58.2029,20.4047],[58.5186,20.4168],[58.6803,20.8284],[58.9192,21.1437],[59.3362,21.4377],[59.7918,22.1981],[59.8032,22.5347],[59.4839,22.6188]]],[[[58.9063,20.626],[58.6429,20.3561],[58.6522,20.1705],[58.9539,20.5199],[58.9063,20.626]]]]}},{"type":"Feature","id":"label-OMN-2406","properties":{"kind":"division-label","code":"OMN-2406","countryCode":"OMN","name":"Ash Sharqiyah","localName":"Ash Sharqiyah","labelEnglish":"Ash Sharqiyah","labelLocal":"Ash Sharqiyah","labelBoth":"Ash Sharqiyah","type":"Region","iso":"OM-SH","qid":"Q1106416"},"geometry":{"type":"Point","coordinates":[58.9632,21.5958]}},{"type":"Feature","id":"OMN-5496","properties":{"kind":"division","code":"OMN-5496","countryCode":"OMN","name":"Ash Sharqiyah North","localName":"Ash Sharqiyah North","labelEnglish":"Ash Sharqiyah North","labelLocal":"Ash Sharqiyah North","labelBoth":"Ash Sharqiyah North","type":"Region","iso":"OM-SS","qid":"Q4501876"},"geometry":{"type":"Polygon","coordinates":[[[59.2591,22.8904],[58.841,22.8341],[58.5411,23.0223],[58.1621,22.8815],[57.8343,22.5231],[58.0823,21.7106],[59.0514,22.0386],[59.3915,22.2098],[59.4839,22.6188],[59.2591,22.8904]]]}},{"type":"Feature","id":"label-OMN-5496","properties":{"kind":"division-label","code":"OMN-5496","countryCode":"OMN","name":"Ash Sharqiyah North","localName":"Ash Sharqiyah North","labelEnglish":"Ash Sharqiyah North","labelLocal":"Ash Sharqiyah North","labelBoth":"Ash Sharqiyah North","type":"Region","iso":"OM-SS","qid":"Q4501876"},"geometry":{"type":"Point","coordinates":[58.565,22.2943]}},{"type":"Feature","id":"OMN-2426","properties":{"kind":"division","code":"OMN-2426","countryCode":"OMN","name":"Muscat","localName":"Muscat","labelEnglish":"Muscat","labelLocal":"Muscat","labelBoth":"Muscat","type":"Province","iso":"OM-MA","qid":"Q544762"},"geometry":{"type":"Polygon","coordinates":[[[58.1316,23.7133],[58.1183,23.4622],[58.335,23.4886],[58.5877,23.2494],[58.5411,23.0223],[58.841,22.8341],[59.2591,22.8904],[58.7861,23.5121],[58.1316,23.7133]]]}},{"type":"Feature","id":"label-OMN-2426","properties":{"kind":"division-label","code":"OMN-2426","countryCode":"OMN","name":"Muscat","localName":"Muscat","labelEnglish":"Muscat","labelLocal":"Muscat","labelBoth":"Muscat","type":"Province","iso":"OM-MA","qid":"Q544762"},"geometry":{"type":"Point","coordinates":[58.6759,23.2505]}},{"type":"Feature","id":"OMN-5497","properties":{"kind":"division","code":"OMN-5497","countryCode":"OMN","name":"Al Batinah South","localName":"Al Batinah South","labelEnglish":"Al Batinah South","labelLocal":"Al Batinah South","labelBoth":"Al Batinah South","type":"Region","iso":"OM-BJ","qid":"Q4703565"},"geometry":{"type":"Polygon","coordinates":[[[57.5327,23.8296],[57.1637,23.504],[57.4601,23.2252],[57.8702,23.2343],[58.1183,23.4622],[58.1316,23.7133],[57.5327,23.8296]]]}},{"type":"Feature","id":"label-OMN-5497","properties":{"kind":"division-label","code":"OMN-5497","countryCode":"OMN","name":"Al Batinah South","localName":"Al Batinah South","labelEnglish":"Al Batinah South","labelLocal":"Al Batinah South","labelBoth":"Al Batinah South","type":"Region","iso":"OM-BJ","qid":"Q4703565"},"geometry":{"type":"Point","coordinates":[57.6472,23.4299]}},{"type":"Feature","id":"OMN-2404","properties":{"kind":"division","code":"OMN-2404","countryCode":"OMN","name":"Ad Dakhiliyah","localName":"Ad Dakhiliyah","labelEnglish":"Ad Dakhiliyah","labelLocal":"Ad Dakhiliyah","labelBoth":"Ad Dakhiliyah","type":"Region","iso":"OM-DA","qid":"Q792550"},"geometry":{"type":"Polygon","coordinates":[[[58.0823,21.7106],[57.8343,22.5231],[58.1621,22.8815],[58.5411,23.0223],[58.5877,23.2494],[58.335,23.4886],[58.1183,23.4622],[57.8702,23.2343],[57.4601,23.2252],[57.1637,23.504],[56.8747,23.4907],[56.6828,22.6975],[56.5237,22.2538],[56.3256,22.0153],[58.2899,21.0956],[58.0823,21.7106]]]}},{"type":"Feature","id":"label-OMN-2404","properties":{"kind":"division-label","code":"OMN-2404","countryCode":"OMN","name":"Ad Dakhiliyah","localName":"Ad Dakhiliyah","labelEnglish":"Ad Dakhiliyah","labelLocal":"Ad Dakhiliyah","labelBoth":"Ad Dakhiliyah","type":"Region","iso":"OM-DA","qid":"Q792550"},"geometry":{"type":"Point","coordinates":[57.3411,22.474]}}]}