{"type":"FeatureCollection","features":[{"type":"Feature","id":"PAK-1111","properties":{"kind":"division","code":"PAK-1111","countryCode":"PAK","name":"Gilgit-Baltistan","localName":"Gilgit-Baltistan","labelEnglish":"Gilgit-Baltistan","labelLocal":"Gilgit-Baltistan","labelBoth":"Gilgit-Baltistan","type":"Centrally Administered Area","iso":"PK-GB","qid":"Q200697"},"geometry":{"type":"Polygon","coordinates":[[[76.7774,35.6461],[76.5372,35.9025],[76.166,35.8062],[75.8943,36.0974],[75.9766,36.4626],[75.7905,36.6878],[75.4105,36.7473],[75.3513,36.9158],[74.5424,37.0217],[74.0943,36.8312],[73.7118,36.8941],[73.874,36.711],[73.0782,36.7008],[72.9808,36.4709],[72.5649,36.2301],[72.5156,35.904],[73.0853,35.8765],[73.4097,35.5478],[73.7584,35.527],[73.7323,35.2094],[74.1247,35.0992],[74.5207,35.106],[74.9276,34.8134],[75.1614,34.862],[75.2245,34.6386],[75.3481,34.5572],[75.7771,34.5038],[76.0234,34.6772],[76.5532,34.7258],[76.9211,34.9207],[77.049,35.1104],[76.7774,35.6461]]]}},{"type":"Feature","id":"label-PAK-1111","properties":{"kind":"division-label","code":"PAK-1111","countryCode":"PAK","name":"Gilgit-Baltistan","localName":"Gilgit-Baltistan","labelEnglish":"Gilgit-Baltistan","labelLocal":"Gilgit-Baltistan","labelBoth":"Gilgit-Baltistan","type":"Centrally Administered Area","iso":"PK-GB","qid":"Q200697"},"geometry":{"type":"Point","coordinates":[74.9848,35.7864]}},{"type":"Feature","id":"PAK-1123","properties":{"kind":"division","code":"PAK-1123","countryCode":"PAK","name":"Khyber Pakhtunkhwa","localName":"Khyber Pakhtunkhwa","labelEnglish":"Khyber Pakhtunkhwa","labelLocal":"Khyber Pakhtunkhwa","labelBoth":"Khyber Pakhtunkhwa","type":"Province","iso":"PK-KP","qid":"Q183314"},"geometry":{"type":"Polygon","coordinates":[[[73.7118,36.8941],[72.5652,36.8206],[72.2136,36.7264],[71.7363,36.3959],[71.6291,36.4595],[71.1699,36.0308],[71.3416,35.9473],[71.5934,35.4642],[71.6337,35.2031],[71.4452,34.9378],[71.7837,34.781],[71.6926,34.4376],[71.3479,34.1617],[71.5174,33.7345],[71.729,33.84],[71.8397,33.6331],[70.7538,33.5812],[70.4807,33.3986],[70.871,33.1824],[70.5431,33.0497],[70.3745,32.7236],[70.4636,32.502],[70.0743,32.1814],[70.4006,31.2471],[70.7781,31.2942],[70.8995,31.7097],[71.3468,32.4324],[71.1644,32.6072],[71.1796,32.9631],[71.4674,33.06],[71.4272,33.2473],[71.7004,33.0616],[71.741,33.3757],[72.0221,33.7463],[72.5255,34.0212],[72.7738,33.9496],[72.9275,33.7275],[73.1262,33.8043],[73.5186,34.0078],[73.4002,34.3755],[73.7584,34.7925],[74.0121,34.8762],[74.1247,35.0992],[73.7323,35.2094],[73.7584,35.527],[73.4097,35.5478],[73.0853,35.8765],[72.5156,35.904],[72.5649,36.2301],[72.9808,36.4709],[73.0782,36.7008],[73.874,36.711],[73.7118,36.8941]]]}},{"type":"Feature","id":"label-PAK-1123","properties":{"kind":"division-label","code":"PAK-1123","countryCode":"PAK","name":"Khyber Pakhtunkhwa","localName":"Khyber Pakhtunkhwa","labelEnglish":"Khyber Pakhtunkhwa","labelLocal":"Khyber Pakhtunkhwa","labelBoth":"Khyber Pakhtunkhwa","type":"Province","iso":"PK-KP","qid":"Q183314"},"geometry":{"type":"Point","coordinates":[72.6402,34.9407]}},{"type":"Feature","id":"PAK-1112","properties":{"kind":"division","code":"PAK-1112","countryCode":"PAK","name":"Federally Administered Tribal Areas","localName":"Federally Administered Tribal Areas","labelEnglish":"Federally Administered Tribal Areas","labelLocal":"Federally Administered Tribal Areas","labelBoth":"Federally Administered Tribal Areas","type":"Territory","iso":"PK-TA","qid":"Q208270"},"geometry":{"type":"Polygon","coordinates":[[[71.4452,34.9378],[70.9834,34.5553],[71.122,34.3568],[71.0626,34.0543],[70.522,33.9387],[69.9054,34.0358],[69.9965,33.7421],[70.1702,33.6387],[70.2944,33.3189],[69.8809,33.0892],[69.4781,33.0114],[69.4291,32.6674],[69.228,32.4213],[69.3012,31.9413],[69.8217,32.0576],[69.9447,31.8904],[69.9148,31.5154],[70.2195,31.4857],[70.2391,31.0728],[70.4006,31.2471],[70.0743,32.1814],[70.4636,32.502],[70.3745,32.7236],[70.5431,33.0497],[70.871,33.1824],[70.4807,33.3986],[70.7538,33.5812],[71.8397,33.6331],[71.729,33.84],[71.5174,33.7345],[71.3479,34.1617],[71.6926,34.4376],[71.7837,34.781],[71.4452,34.9378]]]}},{"type":"Feature","id":"label-PAK-1112","properties":{"kind":"division-label","code":"PAK-1112","countryCode":"PAK","name":"Federally Administered Tribal Areas","localName":"Federally Administered Tribal Areas","labelEnglish":"Federally Administered Tribal Areas","labelLocal":"Federally Administered Tribal Areas","labelBoth":"Federally Administered Tribal Areas","type":"Territory","iso":"PK-TA","qid":"Q208270"},"geometry":{"type":"Point","coordinates":[69.8985,32.6148]}},{"type":"Feature","id":"PAK-1108","properties":{"kind":"division","code":"PAK-1108","countryCode":"PAK","name":"Balochistan","localName":"Balochistan","labelEnglish":"Balochistan","labelLocal":"Balochistan","labelBoth":"Balochistan","type":"Province","iso":"PK-BA","qid":"Q163239"},"geometry":{"type":"Polygon","coordinates":[[[69.3012,31.9413],[69.004,31.6511],[68.6758,31.7747],[68.0983,31.7591],[67.7483,31.5444],[67.7494,31.328],[67.3462,31.2078],[66.9433,31.3147],[66.3663,30.9229],[66.1956,29.8353],[65.0364,29.5402],[64.4995,29.5702],[64.0861,29.3866],[63.5686,29.4975],[62.6026,29.4181],[62.3745,29.4249],[60.8444,29.8582],[61.2792,29.4066],[61.5665,28.871],[61.8928,28.5426],[62.7393,28.2583],[62.8006,27.2252],[63.167,27.2587],[63.3196,27.1173],[63.1413,26.6254],[62.7536,26.6442],[62.292,26.5012],[62.2434,26.3506],[61.8571,26.2424],[61.6604,25.7692],[61.5882,25.2021],[61.7201,25.0374],[62.3431,25.1555],[62.4772,25.2591],[63.5005,25.1937],[63.5725,25.365],[64.5184,25.2756],[65.6716,25.3474],[66.2518,25.4729],[66.437,25.5977],[66.7175,25.2312],[66.7044,24.892],[66.9663,25.043],[67.3737,25.6727],[67.4373,26.1112],[67.1809,26.5393],[67.1428,27.3335],[67.4021,27.8639],[67.9251,28.0231],[68.438,28.4293],[69.3852,28.4866],[69.5203,28.9381],[69.7427,29.2803],[69.5694,29.4482],[69.63,29.6863],[69.8478,29.8272],[70.0391,30.248],[69.9789,30.4541],[70.2257,30.8745],[70.2391,31.0728],[70.2195,31.4857],[69.9148,31.5154],[69.9447,31.8904],[69.8217,32.0576],[69.3012,31.9413]]]}},{"type":"Feature","id":"label-PAK-1108","properties":{"kind":"division-label","code":"PAK-1108","countryCode":"PAK","name":"Balochistan","localName":"Balochistan","labelEnglish":"Balochistan","labelLocal":"Balochistan","labelBoth":"Balochistan","type":"Province","iso":"PK-BA","qid":"Q163239"},"geometry":{"type":"Point","coordinates":[65.5512,27.5194]}},{"type":"Feature","id":"PAK-1113","properties":{"kind":"division","code":"PAK-1113","countryCode":"PAK","name":"Punjab","localName":"Punjab","labelEnglish":"Punjab","labelLocal":"Punjab","labelBoth":"Punjab","type":"Province","iso":"PK-PB","qid":"Q4478"},"geometry":{"type":"Polygon","coordinates":[[[75.2984,32.3324],[75.0237,32.4663],[74.725,32.4608],[74.6853,32.8312],[74.317,32.8231],[73.6225,33.1245],[73.5798,33.9105],[73.5186,34.0078],[73.1262,33.8043],[73.3205,33.6871],[73.1825,33.4963],[72.9275,33.7275],[72.7738,33.9496],[72.5255,34.0212],[72.0221,33.7463],[71.741,33.3757],[71.7004,33.0616],[71.4272,33.2473],[71.4674,33.06],[71.1796,32.9631],[71.1644,32.6072],[71.3468,32.4324],[70.8995,31.7097],[70.7781,31.2942],[70.4006,31.2471],[70.2391,31.0728],[70.2257,30.8745],[69.9789,30.4541],[70.0391,30.248],[69.8478,29.8272],[69.63,29.6863],[69.5694,29.4482],[69.7427,29.2803],[69.5203,28.9381],[69.3852,28.4866],[69.7995,28.3952],[69.9772,28.0019],[70.189,27.8918],[70.4562,28.0398],[70.8316,27.7015],[71.3114,27.8617],[71.8609,27.9502],[72.3822,28.784],[72.9015,29.0226],[73.2329,29.5366],[73.3703,29.9273],[73.9468,30.2041],[73.8423,30.353],[74.3298,30.8996],[74.6588,31.0838],[74.5064,31.1754],[74.6119,31.4402],[74.4894,31.7112],[74.8286,32.0254],[75.1742,32.0868],[75.2984,32.3324]]]}},{"type":"Feature","id":"label-PAK-1113","properties":{"kind":"division-label","code":"PAK-1113","countryCode":"PAK","name":"Punjab","localName":"Punjab","labelEnglish":"Punjab","labelLocal":"Punjab","labelBoth":"Punjab","type":"Province","iso":"PK-PB","qid":"Q4478"},"geometry":{"type":"Point","coordinates":[72.3449,31.3589]}},{"type":"Feature","id":"PAK-1114","properties":{"kind":"division","code":"PAK-1114","countryCode":"PAK","name":"Sindh","localName":"Sindh","labelEnglish":"Sindh","labelLocal":"Sindh","labelBoth":"Sindh","type":"Province","iso":"PK-SD","qid":"Q37211"},"geometry":{"type":"Polygon","coordinates":[[[70.189,27.8918],[69.9772,28.0019],[69.7995,28.3952],[69.3852,28.4866],[68.438,28.4293],[67.9251,28.0231],[67.4021,27.8639],[67.1428,27.3335],[67.1809,26.5393],[67.4373,26.1112],[67.3737,25.6727],[66.9663,25.043],[66.7044,24.892],[67.2529,24.7404],[67.157,24.6629],[67.354,24.0709],[67.6316,23.8035],[67.8689,23.8505],[68.1575,23.6962],[68.183,23.8421],[68.7245,23.9652],[68.7259,24.2892],[69.5631,24.2768],[69.972,24.1652],[70.1097,24.3049],[70.5209,24.4249],[70.7555,24.2314],[71.0828,24.4115],[71.0566,24.6928],[70.6466,25.4314],[70.6323,25.7014],[70.2646,25.6973],[70.0646,25.9803],[70.1581,26.5301],[69.8156,26.5803],[69.4651,26.8078],[69.5756,27.1884],[70.0169,27.6006],[70.189,27.8918]]]}},{"type":"Feature","id":"label-PAK-1114","properties":{"kind":"division-label","code":"PAK-1114","countryCode":"PAK","name":"Sindh","localName":"Sindh","labelEnglish":"Sindh","labelLocal":"Sindh","labelBoth":"Sindh","type":"Province","iso":"PK-SD","qid":"Q37211"},"geometry":{"type":"Point","coordinates":[68.8685,26.3734]}},{"type":"Feature","id":"PAK-1109","properties":{"kind":"division","code":"PAK-1109","countryCode":"PAK","name":"Azad Kashmir","localName":"Azad Kashmir","labelEnglish":"Azad Kashmir","labelLocal":"Azad Kashmir","labelBoth":"Azad Kashmir","type":"Centrally Administered Area","iso":"PK-JK","qid":"Q200130"},"geometry":{"type":"Polygon","coordinates":[[[75.2245,34.6386],[75.1614,34.862],[74.9276,34.8134],[74.5207,35.106],[74.1247,35.0992],[74.0121,34.8762],[73.7584,34.7925],[73.4002,34.3755],[73.5186,34.0078],[73.5798,33.9105],[73.6225,33.1245],[74.317,32.8231],[74.322,32.972],[74.0023,33.1777],[74.1416,33.5494],[73.9767,33.6484],[74.2723,33.9621],[73.9458,34.0098],[73.9983,34.1968],[73.7749,34.371],[73.9193,34.6425],[74.2858,34.7689],[75.2245,34.6386]]]}},{"type":"Feature","id":"label-PAK-1109","properties":{"kind":"division-label","code":"PAK-1109","countryCode":"PAK","name":"Azad Kashmir","localName":"Azad Kashmir","labelEnglish":"Azad Kashmir","labelLocal":"Azad Kashmir","labelBoth":"Azad Kashmir","type":"Centrally Administered Area","iso":"PK-JK","qid":"Q200130"},"geometry":{"type":"Point","coordinates":[73.8036,33.868]}},{"type":"Feature","id":"PAK-1110","properties":{"kind":"division","code":"PAK-1110","countryCode":"PAK","name":"Islamabad Capital Territory","localName":"Islamabad Capital Territory","labelEnglish":"Islamabad Capital Territory","labelLocal":"Islamabad Capital Territory","labelBoth":"Islamabad Capital Territory","type":"Capital Territory","iso":"PK-IS","qid":"Q848613"},"geometry":{"type":"Polygon","coordinates":[[[72.9275,33.7275],[73.1825,33.4963],[73.3205,33.6871],[73.1262,33.8043],[72.9275,33.7275]]]}},{"type":"Feature","id":"label-PAK-1110","properties":{"kind":"division-label","code":"PAK-1110","countryCode":"PAK","name":"Islamabad Capital Territory","localName":"Islamabad Capital Territory","labelEnglish":"Islamabad Capital Territory","labelLocal":"Islamabad Capital Territory","labelBoth":"Islamabad Capital Territory","type":"Capital Territory","iso":"PK-IS","qid":"Q848613"},"geometry":{"type":"Point","coordinates":[73.0628,33.7011]}}]}