{"type":"FeatureCollection","features":[{"type":"Feature","id":"PAN-1958","properties":{"kind":"division","code":"PAN-1958","countryCode":"PAN","name":"comarca Ngäbe-Buglé","localName":"comarca Ngäbe-Buglé","labelEnglish":"comarca Ngäbe-Buglé","labelLocal":"comarca Ngäbe-Buglé","labelBoth":"comarca Ngäbe-Buglé","type":"Province","iso":"PA-1","qid":"Q217138"},"geometry":{"type":"Polygon","coordinates":[[[-82.5736,9.5762],[-82.829,9.6027],[-82.9443,9.4372],[-82.9395,9.0706],[-82.7202,8.9202],[-82.363,8.8088],[-82.4396,9],[-82.1696,8.8481],[-82.0067,8.9466],[-82.246,9.0141],[-82.369,9.4149],[-82.5736,9.5762]]]}},{"type":"Feature","id":"label-PAN-1958","properties":{"kind":"division-label","code":"PAN-1958","countryCode":"PAN","name":"comarca Ngäbe-Buglé","localName":"comarca Ngäbe-Buglé","labelEnglish":"comarca Ngäbe-Buglé","labelLocal":"comarca Ngäbe-Buglé","labelBoth":"comarca Ngäbe-Buglé","type":"Province","iso":"PA-1","qid":"Q217138"},"geometry":{"type":"Point","coordinates":[-82.6597,9.20739]}},{"type":"Feature","id":"PAN-1332","properties":{"kind":"division","code":"PAN-1332","countryCode":"PAN","name":"Chiriquí","localName":"Chiriquí","labelEnglish":"Chiriquí","labelLocal":"Chiriquí","labelBoth":"Chiriquí","type":"Province","iso":"PA-4","qid":"Q739651"},"geometry":{"type":"Polygon","coordinates":[[[-82.7202,8.9202],[-82.923,8.7562],[-82.8704,8.4381],[-83.0532,8.3151],[-82.8976,8.0347],[-82.8772,8.2191],[-82.6589,8.3228],[-82.2255,8.3395],[-81.6636,7.9973],[-81.5225,8.3793],[-81.7843,8.264],[-82.1802,8.4579],[-82.1532,8.7626],[-82.363,8.8088],[-82.7202,8.9202]]]}},{"type":"Feature","id":"label-PAN-1332","properties":{"kind":"division-label","code":"PAN-1332","countryCode":"PAN","name":"Chiriquí","localName":"Chiriquí","labelEnglish":"Chiriquí","labelLocal":"Chiriquí","labelBoth":"Chiriquí","type":"Province","iso":"PA-4","qid":"Q739651"},"geometry":{"type":"Point","coordinates":[-82.0992,8.30824]}},{"type":"Feature","id":"PAN-1419","properties":{"kind":"division","code":"PAN-1419","countryCode":"PAN","name":"Guna Yala","localName":"Guna Yala","labelEnglish":"Guna Yala","labelLocal":"Guna Yala","labelBoth":"Guna Yala","type":"Indigenous Territory","iso":"PA-KY","qid":"Q919017"},"geometry":{"type":"Polygon","coordinates":[[[-77.3735,8.6647],[-77.477,8.6699],[-78.0246,9.2265],[-78.5613,9.438],[-79.0581,9.4579],[-79.0745,9.562],[-79.247,9.3307],[-79.0718,9.2774],[-78.6989,9.3708],[-78.0425,9.0732],[-77.6925,8.7724],[-77.4694,8.5378],[-77.3735,8.6647]]]}},{"type":"Feature","id":"label-PAN-1419","properties":{"kind":"division-label","code":"PAN-1419","countryCode":"PAN","name":"Guna Yala","localName":"Guna Yala","labelEnglish":"Guna Yala","labelLocal":"Guna Yala","labelBoth":"Guna Yala","type":"Indigenous Territory","iso":"PA-KY","qid":"Q919017"},"geometry":{"type":"Point","coordinates":[-78.3273,9.28269]}},{"type":"Feature","id":"PAN-3455","properties":{"kind":"division","code":"PAN-3455","countryCode":"PAN","name":"Emberá-Wounaan Comarca","localName":"Emberá-Wounaan Comarca","labelEnglish":"Emberá-Wounaan Comarca","labelLocal":"Emberá-Wounaan Comarca","labelBoth":"Emberá-Wounaan Comarca","type":"Indigenous Territory","iso":"PA-EM","qid":"Q1141041"},"geometry":{"type":"MultiPolygon","coordinates":[[[[-77.4694,8.5378],[-77.6925,8.7724],[-77.9086,8.6217],[-77.7317,8.2583],[-77.5526,8.0848],[-77.2694,8.1677],[-77.4694,8.5378]]],[[[-78.1834,8.0936],[-78.3293,7.9597],[-78.2451,7.7309],[-77.9497,7.6188],[-78.0162,7.9314],[-78.1834,8.0936]]]]}},{"type":"Feature","id":"label-PAN-3455","properties":{"kind":"division-label","code":"PAN-3455","countryCode":"PAN","name":"Emberá-Wounaan Comarca","localName":"Emberá-Wounaan Comarca","labelEnglish":"Emberá-Wounaan Comarca","labelLocal":"Emberá-Wounaan Comarca","labelBoth":"Emberá-Wounaan Comarca","type":"Indigenous Territory","iso":"PA-EM","qid":"Q1141041"},"geometry":{"type":"Point","coordinates":[-78.1396,7.86013]}},{"type":"Feature","id":"PAN-1418","properties":{"kind":"division","code":"PAN-1418","countryCode":"PAN","name":"Darién","localName":"Darién","labelEnglish":"Darién","labelLocal":"Darién","labelBoth":"Darién","type":"Province","iso":"PA-5","qid":"Q688660"},"geometry":{"type":"Polygon","coordinates":[[[-77.2694,8.1677],[-77.5526,8.0848],[-77.7317,8.2583],[-77.9086,8.6217],[-77.6925,8.7724],[-78.0425,9.0732],[-78.0792,8.9437],[-78.4512,8.8197],[-78.4097,8.353],[-78.0985,8.4758],[-78.4336,8.0458],[-78.2921,7.6915],[-77.8958,7.2351],[-77.7402,7.7189],[-77.6133,7.5375],[-77.169,7.9351],[-77.2694,8.1677]],[[-78.1834,8.0936],[-78.0162,7.9314],[-77.9497,7.6188],[-78.2451,7.7309],[-78.3293,7.9597],[-78.1834,8.0936]]]}},{"type":"Feature","id":"label-PAN-1418","properties":{"kind":"division-label","code":"PAN-1418","countryCode":"PAN","name":"Darién","localName":"Darién","labelEnglish":"Darién","labelLocal":"Darién","labelBoth":"Darién","type":"Province","iso":"PA-5","qid":"Q688660"},"geometry":{"type":"Point","coordinates":[-77.7067,7.90194]}},{"type":"Feature","id":"PAN-1340","properties":{"kind":"division","code":"PAN-1340","countryCode":"PAN","name":"Panamá","localName":"Panamá","labelEnglish":"Panamá","labelLocal":"Panamá","labelBoth":"Panamá","type":"Province","iso":"PA-8","qid":"Q557506"},"geometry":{"type":"Polygon","coordinates":[[[-78.4097,8.353],[-78.4512,8.8197],[-78.0792,8.9437],[-78.0425,9.0732],[-78.6989,9.3708],[-79.0718,9.2774],[-79.247,9.3307],[-79.5225,9.4543],[-79.5737,9.2182],[-80.1375,8.9492],[-80.0408,8.398],[-79.7744,8.5796],[-79.7036,8.8702],[-79.482,8.9984],[-79.083,8.9888],[-78.6037,8.6647],[-78.4097,8.353]]]}},{"type":"Feature","id":"label-PAN-1340","properties":{"kind":"division-label","code":"PAN-1340","countryCode":"PAN","name":"Panamá","localName":"Panamá","labelEnglish":"Panamá","labelLocal":"Panamá","labelBoth":"Panamá","type":"Province","iso":"PA-8","qid":"Q557506"},"geometry":{"type":"Point","coordinates":[-78.9283,9.08628]}},{"type":"Feature","id":"PAN-1336","properties":{"kind":"division","code":"PAN-1336","countryCode":"PAN","name":"Coclé","localName":"Coclé","labelEnglish":"Coclé","labelLocal":"Coclé","labelBoth":"Coclé","type":"Province","iso":"PA-2","qid":"Q825799"},"geometry":{"type":"Polygon","coordinates":[[[-80.0408,8.398],[-80.1375,8.9492],[-80.5156,8.9266],[-80.7394,8.6152],[-80.8221,8.5377],[-80.687,8.1326],[-80.4785,8.0914],[-80.3858,8.3113],[-80.0408,8.398]]]}},{"type":"Feature","id":"label-PAN-1336","properties":{"kind":"division-label","code":"PAN-1336","countryCode":"PAN","name":"Coclé","localName":"Coclé","labelEnglish":"Coclé","labelLocal":"Coclé","labelBoth":"Coclé","type":"Province","iso":"PA-2","qid":"Q825799"},"geometry":{"type":"Point","coordinates":[-80.4314,8.57708]}},{"type":"Feature","id":"PAN-1341","properties":{"kind":"division","code":"PAN-1341","countryCode":"PAN","name":"Veraguas","localName":"Veraguas","labelEnglish":"Veraguas","labelLocal":"Veraguas","labelBoth":"Veraguas","type":"Province","iso":"PA-9","qid":"Q593137"},"geometry":{"type":"MultiPolygon","coordinates":[[[[-81.6644,7.3973],[-81.7388,7.6443],[-81.8828,7.5168],[-81.6644,7.3973]]],[[[-81.2131,8.7918],[-81.1561,8.4955],[-81.4886,8.5969],[-81.5225,8.3793],[-81.6636,7.9973],[-81.5258,7.7115],[-81.1952,7.6389],[-81.0877,7.8423],[-80.8481,7.2191],[-80.6041,7.2367],[-80.7197,7.5296],[-80.947,7.7884],[-80.8536,8.0599],[-80.687,8.1326],[-80.8221,8.5377],[-80.7394,8.6152],[-80.8626,8.8851],[-81.2131,8.7918]]]]}},{"type":"Feature","id":"label-PAN-1341","properties":{"kind":"division-label","code":"PAN-1341","countryCode":"PAN","name":"Veraguas","localName":"Veraguas","labelEnglish":"Veraguas","labelLocal":"Veraguas","labelBoth":"Veraguas","type":"Province","iso":"PA-9","qid":"Q593137"},"geometry":{"type":"Point","coordinates":[-81.1447,8.22553]}},{"type":"Feature","id":"PAN-1337","properties":{"kind":"division","code":"PAN-1337","countryCode":"PAN","name":"Colón","localName":"Colón","labelEnglish":"Colón","labelLocal":"Colón","labelBoth":"Colón","type":"Province","iso":"PA-3","qid":"Q820514"},"geometry":{"type":"Polygon","coordinates":[[[-79.0745,9.562],[-79.5329,9.6243],[-80.1008,9.2223],[-80.6371,9.0517],[-80.8626,8.8851],[-80.7394,8.6152],[-80.5156,8.9266],[-80.1375,8.9492],[-79.5737,9.2182],[-79.5225,9.4543],[-79.247,9.3307],[-79.0745,9.562]]]}},{"type":"Feature","id":"label-PAN-1337","properties":{"kind":"division-label","code":"PAN-1337","countryCode":"PAN","name":"Colón","localName":"Colón","labelEnglish":"Colón","labelLocal":"Colón","labelBoth":"Colón","type":"Province","iso":"PA-3","qid":"Q820514"},"geometry":{"type":"Point","coordinates":[-79.9683,9.17018]}},{"type":"Feature","id":"PAN-3454","properties":{"kind":"division","code":"PAN-3454","countryCode":"PAN","name":"Ngöbe-Buglé Comarca","localName":"Ngöbe-Buglé Comarca","labelEnglish":"Ngöbe-Buglé Comarca","labelLocal":"Ngöbe-Buglé Comarca","labelBoth":"Ngöbe-Buglé Comarca","type":"Indigenous Territory","iso":"PA-NB","qid":"Q1129783"},"geometry":{"type":"Polygon","coordinates":[[[-82.0067,8.9466],[-82.1696,8.8481],[-82.4396,9],[-82.363,8.8088],[-82.1532,8.7626],[-82.1802,8.4579],[-81.7843,8.264],[-81.5225,8.3793],[-81.4886,8.5969],[-81.1561,8.4955],[-81.2131,8.7918],[-81.5391,8.8129],[-81.8146,9.1166],[-81.7934,8.9316],[-82.0067,8.9466]]]}},{"type":"Feature","id":"label-PAN-3454","properties":{"kind":"division-label","code":"PAN-3454","countryCode":"PAN","name":"Ngöbe-Buglé Comarca","localName":"Ngöbe-Buglé Comarca","labelEnglish":"Ngöbe-Buglé Comarca","labelLocal":"Ngöbe-Buglé Comarca","labelBoth":"Ngöbe-Buglé Comarca","type":"Indigenous Territory","iso":"PA-NB","qid":"Q1129783"},"geometry":{"type":"Point","coordinates":[-81.7558,8.68]}},{"type":"Feature","id":"PAN-1339","properties":{"kind":"division","code":"PAN-1339","countryCode":"PAN","name":"Los Santos","localName":"Los Santos","labelEnglish":"Los Santos","labelLocal":"Los Santos","labelBoth":"Los Santos","type":"Province","iso":"PA-7","qid":"Q911278"},"geometry":{"type":"Polygon","coordinates":[[[-80.3755,7.9972],[-80.7197,7.5296],[-80.6041,7.2367],[-79.9947,7.5034],[-80.3755,7.9972]]]}},{"type":"Feature","id":"label-PAN-1339","properties":{"kind":"division-label","code":"PAN-1339","countryCode":"PAN","name":"Los Santos","localName":"Los Santos","labelEnglish":"Los Santos","labelLocal":"Los Santos","labelBoth":"Los Santos","type":"Province","iso":"PA-7","qid":"Q911278"},"geometry":{"type":"Point","coordinates":[-80.3927,7.58403]}},{"type":"Feature","id":"PAN-1338","properties":{"kind":"division","code":"PAN-1338","countryCode":"PAN","name":"Herrera","localName":"Herrera","labelEnglish":"Herrera","labelLocal":"Herrera","labelBoth":"Herrera","type":"Province","iso":"PA-6","qid":"Q842886"},"geometry":{"type":"Polygon","coordinates":[[[-80.4785,8.0914],[-80.687,8.1326],[-80.8536,8.0599],[-80.947,7.7884],[-80.7197,7.5296],[-80.3755,7.9972],[-80.4785,8.0914]]]}},{"type":"Feature","id":"label-PAN-1338","properties":{"kind":"division-label","code":"PAN-1338","countryCode":"PAN","name":"Herrera","localName":"Herrera","labelEnglish":"Herrera","labelLocal":"Herrera","labelBoth":"Herrera","type":"Province","iso":"PA-6","qid":"Q842886"},"geometry":{"type":"Point","coordinates":[-80.6613,7.85632]}}]}