{"type":"FeatureCollection","features":[{"type":"Feature","id":"PCN+00?","properties":{"kind":"division","code":"PCN+00?","countryCode":"PCN","name":"Pitcairn Islands","localName":"Pitcairn Islands","labelEnglish":"Pitcairn Islands","labelLocal":"Pitcairn Islands","labelBoth":"Pitcairn Islands","type":null,"iso":"PN-X01~","qid":null},"geometry":{"type":"Polygon","coordinates":[[[-128.3302,-24.3243],[-128.3422,-24.3718],[-128.3001,-24.4137],[-128.3302,-24.3243]]]}},{"type":"Feature","id":"label-PCN+00?","properties":{"kind":"division-label","code":"PCN+00?","countryCode":"PCN","name":"Pitcairn Islands","localName":"Pitcairn Islands","labelEnglish":"Pitcairn Islands","labelLocal":"Pitcairn Islands","labelBoth":"Pitcairn Islands","type":null,"iso":"PN-X01~","qid":null},"geometry":{"type":"Point","coordinates":[-130.102,-25.0707]}}]}