{"type":"FeatureCollection","features":[{"type":"Feature","id":"PER-575","properties":{"kind":"division","code":"PER-575","countryCode":"PER","name":"Tacna","localName":"Tacna","labelEnglish":"Tacna","labelLocal":"Tacna","labelBoth":"Tacna","type":"Department","iso":"PE-TAC","qid":"Q207413"},"geometry":{"type":"Polygon","coordinates":[[[-69.5101,-17.5066],[-69.6644,-17.2886],[-70.0165,-17.1383],[-70.178,-16.8701],[-70.3937,-16.8172],[-70.4768,-17.0602],[-70.7005,-17.2493],[-70.9318,-17.6234],[-71.1758,-17.7933],[-70.3947,-18.3377],[-69.9703,-18.2506],[-69.7831,-17.9816],[-69.8576,-17.7342],[-69.5101,-17.5066]]]}},{"type":"Feature","id":"label-PER-575","properties":{"kind":"division-label","code":"PER-575","countryCode":"PER","name":"Tacna","localName":"Tacna","labelEnglish":"Tacna","labelLocal":"Tacna","labelBoth":"Tacna","type":"Department","iso":"PE-TAC","qid":"Q207413"},"geometry":{"type":"Point","coordinates":[-70.3423,-17.5742]}},{"type":"Feature","id":"PER-572","properties":{"kind":"division","code":"PER-572","countryCode":"PER","name":"Madre de Dios","localName":"Madre de Dios","labelEnglish":"Madre de Dios","labelLocal":"Madre de Dios","labelBoth":"Madre de Dios","type":"Department","iso":"PE-MDD","qid":"Q210896"},"geometry":{"type":"Polygon","coordinates":[[[-69.5776,-10.9523],[-69.9561,-10.9193],[-70.2894,-11.0647],[-70.6413,-11.0108],[-70.6387,-9.9559],[-70.8182,-10.1016],[-70.8674,-10.3736],[-71.2064,-10.6915],[-71.7953,-10.976],[-72.1172,-10.9333],[-72.1805,-11.3132],[-72.3836,-11.9022],[-71.9874,-12.3302],[-71.8548,-12.7765],[-71.0342,-13.0694],[-70.6784,-13.1252],[-70.3558,-13.0246],[-69.6052,-13.3427],[-68.9739,-13.0318],[-68.981,-12.8679],[-68.6895,-12.4934],[-69.5776,-10.9523]]]}},{"type":"Feature","id":"label-PER-572","properties":{"kind":"division-label","code":"PER-572","countryCode":"PER","name":"Madre de Dios","localName":"Madre de Dios","labelEnglish":"Madre de Dios","labelLocal":"Madre de Dios","labelBoth":"Madre de Dios","type":"Department","iso":"PE-MDD","qid":"Q210896"},"geometry":{"type":"Point","coordinates":[-70.6831,-11.8726]}},{"type":"Feature","id":"PER-585","properties":{"kind":"division","code":"PER-585","countryCode":"PER","name":"Loreto","localName":"Loreto","labelEnglish":"Loreto","labelLocal":"Loreto","labelBoth":"Loreto","type":"Department","iso":"PE-LOR","qid":"Q200938"},"geometry":{"type":"Polygon","coordinates":[[[-74.4147,-0.5638],[-74.8247,-0.1705],[-75.2221,-0.0324],[-75.2835,-0.107],[-75.6376,-0.1115],[-75.2666,-0.6427],[-75.2273,-0.9698],[-75.4126,-0.9239],[-75.5807,-1.5466],[-76.0912,-2.1289],[-76.6697,-2.5646],[-77.8104,-2.9671],[-77.534,-4.0211],[-77.5785,-4.4387],[-77.7768,-4.8498],[-77.64,-5.3846],[-77.1757,-5.6799],[-76.8339,-5.7656],[-76.6733,-6.03],[-76.3157,-5.9213],[-76.0849,-6.1189],[-75.6682,-6.1473],[-75.4663,-6.3566],[-75.5246,-6.7972],[-75.6283,-6.9407],[-75.9078,-6.7527],[-76.1098,-7.0092],[-76.0579,-7.5008],[-75.8151,-8.0136],[-75.7986,-8.219],[-75.9527,-8.5682],[-75.9741,-8.6452],[-75.3618,-8.1165],[-74.6913,-7.9639],[-74.5527,-7.8511],[-74.6077,-7.3815],[-74.5191,-7.3263],[-73.9845,-7.5294],[-73.7131,-7.3047],[-73.8068,-7.1179],[-73.7655,-6.9042],[-73.1318,-6.4353],[-73.2348,-6.0776],[-73.0014,-5.7088],[-72.9179,-5.1321],[-72.6273,-5.0224],[-72.0711,-4.6051],[-71.7743,-4.4815],[-70.9687,-4.3853],[-70.8322,-4.1794],[-70.3111,-4.1709],[-70.2056,-4.3429],[-69.9649,-4.2365],[-70.3111,-3.8293],[-70.7341,-3.782],[-70.0506,-2.7151],[-70.3575,-2.4869],[-70.9927,-2.1974],[-71.4208,-2.376],[-71.7385,-2.1377],[-71.9663,-2.3285],[-72.3966,-2.4465],[-72.6443,-2.3341],[-72.9433,-2.419],[-73.1978,-2.2136],[-73.1111,-2.0734],[-73.1863,-1.7996],[-73.531,-1.6737],[-73.4972,-1.478],[-73.6366,-1.2552],[-73.8808,-1.191],[-74.3444,-0.8586],[-74.4147,-0.5638]]]}},{"type":"Feature","id":"label-PER-585","properties":{"kind":"division-label","code":"PER-585","countryCode":"PER","name":"Loreto","localName":"Loreto","labelEnglish":"Loreto","labelLocal":"Loreto","labelBoth":"Loreto","type":"Department","iso":"PE-LOR","qid":"Q200938"},"geometry":{"type":"Point","coordinates":[-73.8868,-4.27471]}},{"type":"Feature","id":"PER-584","properties":{"kind":"division","code":"PER-584","countryCode":"PER","name":"Amazonas","localName":"Amazonas","labelEnglish":"Amazonas","labelLocal":"Amazonas","labelBoth":"Amazonas","type":"Department","iso":"PE-AMA","qid":"Q201162"},"geometry":{"type":"Polygon","coordinates":[[[-77.8104,-2.9671],[-78.3759,-3.5293],[-78.4136,-3.7718],[-78.6824,-4.3269],[-78.7089,-4.5851],[-78.5848,-4.8942],[-78.6073,-5.5021],[-78.7731,-5.8328],[-78.1753,-6.4589],[-77.9916,-7.0132],[-77.7424,-6.994],[-77.7385,-6.6481],[-77.3436,-6.5742],[-77.1646,-6.3079],[-77.2547,-6.1211],[-77.5259,-6.0243],[-77.715,-5.7234],[-77.64,-5.3846],[-77.7768,-4.8498],[-77.5785,-4.4387],[-77.534,-4.0211],[-77.8104,-2.9671]]]}},{"type":"Feature","id":"label-PER-584","properties":{"kind":"division-label","code":"PER-584","countryCode":"PER","name":"Amazonas","localName":"Amazonas","labelEnglish":"Amazonas","labelLocal":"Amazonas","labelBoth":"Amazonas","type":"Department","iso":"PE-AMA","qid":"Q201162"},"geometry":{"type":"Point","coordinates":[-77.9695,-5.0485]}},{"type":"Feature","id":"PER-578","properties":{"kind":"division","code":"PER-578","countryCode":"PER","name":"Cajamarca","localName":"Cajamarca","labelEnglish":"Cajamarca","labelLocal":"Cajamarca","labelBoth":"Cajamarca","type":"Department","iso":"PE-CAJ","qid":"Q205078"},"geometry":{"type":"Polygon","coordinates":[[[-78.7089,-4.5851],[-78.9286,-4.7475],[-79.0639,-5.0114],[-79.2337,-4.9656],[-79.3806,-5.1555],[-79.325,-5.5009],[-79.4511,-5.989],[-79.2209,-6.028],[-79.4463,-6.52],[-79.1652,-6.7189],[-79.3477,-7.0105],[-79.3862,-7.3257],[-79.0953,-7.4929],[-79.0618,-7.6602],[-78.772,-7.5541],[-78.2393,-7.7569],[-77.9347,-7.6624],[-77.7544,-7.4685],[-77.9916,-7.0132],[-78.1753,-6.4589],[-78.7731,-5.8328],[-78.6073,-5.5021],[-78.5848,-4.8942],[-78.7089,-4.5851]]]}},{"type":"Feature","id":"label-PER-578","properties":{"kind":"division-label","code":"PER-578","countryCode":"PER","name":"Cajamarca","localName":"Cajamarca","labelEnglish":"Cajamarca","labelLocal":"Cajamarca","labelBoth":"Cajamarca","type":"Department","iso":"PE-CAJ","qid":"Q205078"},"geometry":{"type":"Point","coordinates":[-78.6091,-6.81775]}},{"type":"Feature","id":"PER-568","properties":{"kind":"division","code":"PER-568","countryCode":"PER","name":"Tumbes","localName":"Tumbes","labelEnglish":"Tumbes","labelLocal":"Tumbes","labelBoth":"Tumbes","type":"Department","iso":"PE-TUM","qid":"Q209597"},"geometry":{"type":"Polygon","coordinates":[[[-80.1651,-3.8807],[-80.3407,-3.3935],[-80.7717,-3.7101],[-81.0625,-4.0857],[-80.69,-4.2104],[-80.5123,-4.065],[-80.1651,-3.8807]]]}},{"type":"Feature","id":"label-PER-568","properties":{"kind":"division-label","code":"PER-568","countryCode":"PER","name":"Tumbes","localName":"Tumbes","labelEnglish":"Tumbes","labelLocal":"Tumbes","labelBoth":"Tumbes","type":"Department","iso":"PE-TUM","qid":"Q209597"},"geometry":{"type":"Point","coordinates":[-80.6135,-3.88493]}},{"type":"Feature","id":"PER-567","properties":{"kind":"division","code":"PER-567","countryCode":"PER","name":"Piura","localName":"Piura","labelEnglish":"Piura","labelLocal":"Piura","labelBoth":"Piura","type":"Department","iso":"PE-PIU","qid":"Q208183"},"geometry":{"type":"Polygon","coordinates":[[[-80.5123,-4.065],[-80.69,-4.2104],[-81.0625,-4.0857],[-81.2528,-4.2387],[-81.3376,-4.6783],[-81.0634,-5.022],[-81.1985,-5.2081],[-80.8562,-5.6505],[-80.9399,-5.8508],[-81.1502,-5.8831],[-81.1015,-6.0721],[-80.6307,-6.3777],[-80.304,-5.9426],[-79.9501,-5.822],[-79.9448,-5.5483],[-79.7564,-5.848],[-79.4511,-5.989],[-79.325,-5.5009],[-79.3806,-5.1555],[-79.2337,-4.9656],[-79.4608,-4.7705],[-79.5072,-4.5316],[-79.8329,-4.4789],[-80.1402,-4.2831],[-80.4085,-4.4775],[-80.3453,-4.1985],[-80.5123,-4.065]]]}},{"type":"Feature","id":"label-PER-567","properties":{"kind":"division-label","code":"PER-567","countryCode":"PER","name":"Piura","localName":"Piura","labelEnglish":"Piura","labelLocal":"Piura","labelBoth":"Piura","type":"Department","iso":"PE-PIU","qid":"Q208183"},"geometry":{"type":"Point","coordinates":[-80.2868,-5.09955]}},{"type":"Feature","id":"PER-583","properties":{"kind":"division","code":"PER-583","countryCode":"PER","name":"Ucayali","localName":"Ucayali","labelEnglish":"Ucayali","labelLocal":"Ucayali","labelBoth":"Ucayali","type":"Department","iso":"PE-UCA","qid":"Q207424"},"geometry":{"type":"Polygon","coordinates":[[[-73.9845,-7.5294],[-74.5191,-7.3263],[-74.6077,-7.3815],[-74.5527,-7.8511],[-74.6913,-7.9639],[-75.3618,-8.1165],[-75.9741,-8.6452],[-75.7754,-9.2453],[-75.6487,-9.4054],[-75.2959,-9.2305],[-75.0391,-8.8379],[-74.8023,-8.6587],[-74.5643,-8.6323],[-74.7016,-9.415],[-74.5383,-9.6498],[-74.2986,-10.4967],[-74.1739,-10.6034],[-74.5085,-10.8482],[-74.3849,-11.0503],[-73.8864,-10.9401],[-73.7593,-10.7572],[-73.4961,-10.998],[-73.4352,-11.3241],[-72.9351,-11.3089],[-72.5431,-11.4244],[-72.1805,-11.3132],[-72.1172,-10.9333],[-71.7953,-10.976],[-71.2064,-10.6915],[-70.8674,-10.3736],[-70.8182,-10.1016],[-70.6387,-9.9559],[-70.6244,-9.5658],[-70.8755,-9.6605],[-71.3914,-10.0068],[-72.1957,-10.0056],[-72.3068,-9.5409],[-72.8133,-9.4109],[-73.215,-9.409],[-72.9594,-9.0856],[-73.1746,-8.7207],[-73.5265,-8.3724],[-73.7122,-7.7882],[-73.9845,-7.5294]]]}},{"type":"Feature","id":"label-PER-583","properties":{"kind":"division-label","code":"PER-583","countryCode":"PER","name":"Ucayali","localName":"Ucayali","labelEnglish":"Ucayali","labelLocal":"Ucayali","labelBoth":"Ucayali","type":"Department","iso":"PE-UCA","qid":"Q207424"},"geometry":{"type":"Point","coordinates":[-73.2493,-9.99816]}},{"type":"Feature","id":"PER-573","properties":{"kind":"division","code":"PER-573","countryCode":"PER","name":"Puno","localName":"Puno","labelEnglish":"Puno","labelLocal":"Puno","labelBoth":"Puno","type":"Department","iso":"PE-PUN","qid":"Q205104"},"geometry":{"type":"Polygon","coordinates":[[[-68.9739,-13.0318],[-69.6052,-13.3427],[-70.3558,-13.0246],[-70.3772,-13.2813],[-70.6817,-13.788],[-70.8175,-13.8263],[-70.8894,-14.4102],[-71.1231,-14.6825],[-70.9999,-14.768],[-71.0294,-15.3341],[-70.85,-15.9882],[-70.4307,-16.0499],[-70.2916,-16.4786],[-70.0281,-16.707],[-70.178,-16.8701],[-70.0165,-17.1383],[-69.6644,-17.2886],[-69.4274,-17.0869],[-69.0368,-16.4715],[-68.8558,-16.3632],[-69.2196,-16.1528],[-69.4243,-15.6563],[-69.1481,-15.2333],[-69.3907,-14.9644],[-69.2475,-14.5937],[-68.8837,-14.2115],[-69.016,-13.7531],[-68.9739,-13.0318]]]}},{"type":"Feature","id":"label-PER-573","properties":{"kind":"division-label","code":"PER-573","countryCode":"PER","name":"Puno","localName":"Puno","labelEnglish":"Puno","labelLocal":"Puno","labelBoth":"Puno","type":"Department","iso":"PE-PUN","qid":"Q205104"},"geometry":{"type":"Point","coordinates":[-69.9802,-15.1677]}},{"type":"Feature","id":"PER-574","properties":{"kind":"division","code":"PER-574","countryCode":"PER","name":"Moquegua","localName":"Moquegua","labelEnglish":"Moquegua","labelLocal":"Moquegua","labelBoth":"Moquegua","type":"Department","iso":"PE-MOQ","qid":"Q208182"},"geometry":{"type":"Polygon","coordinates":[[[-71.1758,-17.7933],[-70.9318,-17.6234],[-70.7005,-17.2493],[-70.4768,-17.0602],[-70.3937,-16.8172],[-70.178,-16.8701],[-70.0281,-16.707],[-70.2916,-16.4786],[-70.4307,-16.0499],[-70.85,-15.9882],[-70.9677,-16.4702],[-71.143,-16.4696],[-71.4506,-16.8664],[-71.3317,-17.0453],[-71.4885,-17.318],[-71.3852,-17.6873],[-71.1758,-17.7933]]]}},{"type":"Feature","id":"label-PER-574","properties":{"kind":"division-label","code":"PER-574","countryCode":"PER","name":"Moquegua","localName":"Moquegua","labelEnglish":"Moquegua","labelLocal":"Moquegua","labelBoth":"Moquegua","type":"Department","iso":"PE-MOQ","qid":"Q208182"},"geometry":{"type":"Point","coordinates":[-70.7546,-16.6807]}},{"type":"Feature","id":"PER-570","properties":{"kind":"division","code":"PER-570","countryCode":"PER","name":"Arequipa","localName":"Arequipa","labelEnglish":"Arequipa","labelLocal":"Arequipa","labelBoth":"Arequipa","type":"Department","iso":"PE-ARE","qid":"Q205068"},"geometry":{"type":"Polygon","coordinates":[[[-71.4885,-17.318],[-71.3317,-17.0453],[-71.4506,-16.8664],[-71.143,-16.4696],[-70.9677,-16.4702],[-70.85,-15.9882],[-71.0294,-15.3341],[-71.1743,-15.1197],[-71.5118,-15.0213],[-71.8627,-15.0432],[-71.8098,-14.8662],[-72.0215,-14.6684],[-72.0691,-14.8791],[-72.4223,-14.8146],[-72.4861,-14.674],[-72.848,-14.7316],[-72.9977,-14.8253],[-73.0337,-15.1295],[-73.2828,-15.3949],[-73.9109,-15.4601],[-74.087,-15.5959],[-74.4018,-15.3609],[-74.4685,-15.1955],[-74.7266,-15.0879],[-75.0757,-15.4377],[-74.0466,-15.9601],[-73.7003,-16.2207],[-72.6924,-16.6607],[-72.3622,-16.7613],[-72.1099,-17.0231],[-71.4885,-17.318]]]}},{"type":"Feature","id":"label-PER-570","properties":{"kind":"division-label","code":"PER-570","countryCode":"PER","name":"Arequipa","localName":"Arequipa","labelEnglish":"Arequipa","labelLocal":"Arequipa","labelBoth":"Arequipa","type":"Department","iso":"PE-ARE","qid":"Q205068"},"geometry":{"type":"Point","coordinates":[-72.4209,-15.8757]}},{"type":"Feature","id":"PER-589","properties":{"kind":"division","code":"PER-589","countryCode":"PER","name":"Ica","localName":"Ica","labelEnglish":"Ica","labelLocal":"Ica","labelBoth":"Ica","type":"Department","iso":"PE-ICA","qid":"Q208186"},"geometry":{"type":"Polygon","coordinates":[[[-75.0757,-15.4377],[-74.7266,-15.0879],[-74.6934,-14.9158],[-74.9003,-14.5555],[-75.0536,-14.6075],[-75.0669,-14.1429],[-75.5214,-13.8993],[-75.4831,-13.4661],[-75.8009,-13.3888],[-75.6347,-12.982],[-75.9451,-12.9992],[-76.2492,-13.3204],[-76.1813,-13.5395],[-76.2917,-14.081],[-75.9806,-14.4611],[-75.9307,-14.6493],[-75.5506,-14.8849],[-75.0757,-15.4377]]]}},{"type":"Feature","id":"label-PER-589","properties":{"kind":"division-label","code":"PER-589","countryCode":"PER","name":"Ica","localName":"Ica","labelEnglish":"Ica","labelLocal":"Ica","labelBoth":"Ica","type":"Department","iso":"PE-ICA","qid":"Q208186"},"geometry":{"type":"Point","coordinates":[-75.6773,-14.2257]}},{"type":"Feature","id":"PER-591","properties":{"kind":"division","code":"PER-591","countryCode":"PER","name":"Lima","localName":"Lima","labelEnglish":"Lima","labelLocal":"Lima","labelBoth":"Lima","type":"Department","iso":"PE-LIM","qid":"Q579240"},"geometry":{"type":"Polygon","coordinates":[[[-76.2492,-13.3204],[-75.9451,-12.9992],[-75.6347,-12.982],[-75.4672,-12.6866],[-75.6888,-12.0787],[-76.0124,-12.0147],[-76.3777,-11.5037],[-76.4883,-11.0977],[-76.75,-10.4438],[-76.9316,-10.2868],[-77.1501,-10.3848],[-77.4097,-10.705],[-77.5878,-10.7443],[-77.7858,-10.3752],[-77.8906,-10.6025],[-77.6705,-10.9275],[-77.6473,-11.2923],[-77.3205,-11.4937],[-77.1976,-11.6808],[-77.0809,-11.555],[-76.9383,-11.9393],[-76.7738,-11.8599],[-76.6446,-12.242],[-76.7991,-12.5093],[-76.2492,-13.3204]]]}},{"type":"Feature","id":"label-PER-591","properties":{"kind":"division-label","code":"PER-591","countryCode":"PER","name":"Lima","localName":"Lima","labelEnglish":"Lima","labelLocal":"Lima","labelBoth":"Lima","type":"Department","iso":"PE-LIM","qid":"Q579240"},"geometry":{"type":"Point","coordinates":[-77.0756,-11.0602]}},{"type":"Feature","id":"PER-587","properties":{"kind":"division","code":"PER-587","countryCode":"PER","name":"Lima","localName":"Lima","labelEnglish":"Lima","labelLocal":"Lima","labelBoth":"Lima","type":"Captial District","iso":"PE-LIM","qid":"Q579240"},"geometry":{"type":"Polygon","coordinates":[[[-76.7991,-12.5093],[-76.6446,-12.242],[-76.7738,-11.8599],[-76.9383,-11.9393],[-77.0809,-11.555],[-77.1976,-11.6808],[-77.1407,-11.999],[-77.1144,-12.0813],[-76.7909,-12.381],[-76.7991,-12.5093]]]}},{"type":"Feature","id":"label-PER-587","properties":{"kind":"division-label","code":"PER-587","countryCode":"PER","name":"Lima","localName":"Lima","labelEnglish":"Lima","labelLocal":"Lima","labelBoth":"Lima","type":"Captial District","iso":"PE-LIM","qid":"Q579240"},"geometry":{"type":"Point","coordinates":[-76.9236,-12.1124]}},{"type":"Feature","id":"PER-3505","properties":{"kind":"division","code":"PER-3505","countryCode":"PER","name":"Callao","localName":"Callao","labelEnglish":"Callao","labelLocal":"Callao","labelBoth":"Callao","type":"Departamento","iso":"PE-CAL","qid":"Q2634400"},"geometry":{"type":"Polygon","coordinates":[[[-77.1144,-12.0813],[-77.1407,-11.999],[-77.1749,-12.0719],[-77.1144,-12.0813]]]}},{"type":"Feature","id":"label-PER-3505","properties":{"kind":"division-label","code":"PER-3505","countryCode":"PER","name":"Callao","localName":"Callao","labelEnglish":"Callao","labelLocal":"Callao","labelBoth":"Callao","type":"Departamento","iso":"PE-CAL","qid":"Q2634400"},"geometry":{"type":"Point","coordinates":[-77.2248,-12.0859]}},{"type":"Feature","id":"PER-577","properties":{"kind":"division","code":"PER-577","countryCode":"PER","name":"Áncash","localName":"Áncash","labelEnglish":"Áncash","labelLocal":"Áncash","labelBoth":"Áncash","type":"Department","iso":"PE-ANC","qid":"Q205089"},"geometry":{"type":"Polygon","coordinates":[[[-77.8906,-10.6025],[-77.7858,-10.3752],[-77.5878,-10.7443],[-77.4097,-10.705],[-77.1501,-10.3848],[-76.9316,-10.2868],[-77.0725,-9.7904],[-76.7413,-9.2046],[-77.2144,-8.809],[-77.3225,-8.5341],[-77.647,-8.0107],[-77.8977,-8.0642],[-78.1113,-8.3007],[-78.2544,-8.6584],[-78.5372,-8.7553],[-78.649,-8.9637],[-78.2294,-9.7938],[-78.1666,-10.1414],[-77.8906,-10.6025]]]}},{"type":"Feature","id":"label-PER-577","properties":{"kind":"division-label","code":"PER-577","countryCode":"PER","name":"Áncash","localName":"Áncash","labelEnglish":"Áncash","labelLocal":"Áncash","labelBoth":"Áncash","type":"Department","iso":"PE-ANC","qid":"Q205089"},"geometry":{"type":"Point","coordinates":[-77.6571,-9.53996]}},{"type":"Feature","id":"PER-580","properties":{"kind":"division","code":"PER-580","countryCode":"PER","name":"La Libertad","localName":"La Libertad","labelEnglish":"La Libertad","labelLocal":"La Libertad","labelBoth":"La Libertad","type":"Department","iso":"PE-LAL","qid":"Q205126"},"geometry":{"type":"Polygon","coordinates":[[[-78.649,-8.9637],[-78.5372,-8.7553],[-78.2544,-8.6584],[-78.1113,-8.3007],[-77.8977,-8.0642],[-77.647,-8.0107],[-77.3225,-8.5341],[-76.8563,-8.5557],[-76.911,-8.2471],[-77.3591,-8.0674],[-77.4502,-7.5724],[-77.7424,-6.994],[-77.9916,-7.0132],[-77.7544,-7.4685],[-77.9347,-7.6624],[-78.2393,-7.7569],[-78.772,-7.5541],[-79.0618,-7.6602],[-79.0953,-7.4929],[-79.3862,-7.3257],[-79.3477,-7.0105],[-79.4989,-6.9683],[-79.6921,-7.1614],[-79.4659,-7.7159],[-78.9857,-8.2174],[-78.7593,-8.6083],[-78.649,-8.9637]]]}},{"type":"Feature","id":"label-PER-580","properties":{"kind":"division-label","code":"PER-580","countryCode":"PER","name":"La Libertad","localName":"La Libertad","labelEnglish":"La Libertad","labelLocal":"La Libertad","labelBoth":"La Libertad","type":"Department","iso":"PE-LAL","qid":"Q205126"},"geometry":{"type":"Point","coordinates":[-78.2813,-8.21334]}},{"type":"Feature","id":"PER-566","properties":{"kind":"division","code":"PER-566","countryCode":"PER","name":"Lambayeque","localName":"Lambayeque","labelEnglish":"Lambayeque","labelLocal":"Lambayeque","labelBoth":"Lambayeque","type":"Department","iso":"PE-LAM","qid":"Q210061"},"geometry":{"type":"Polygon","coordinates":[[[-79.6921,-7.1614],[-79.4989,-6.9683],[-79.3477,-7.0105],[-79.1652,-6.7189],[-79.4463,-6.52],[-79.2209,-6.028],[-79.4511,-5.989],[-79.7564,-5.848],[-79.9448,-5.5483],[-79.9501,-5.822],[-80.304,-5.9426],[-80.6307,-6.3777],[-80.1189,-6.6506],[-79.6921,-7.1614]]]}},{"type":"Feature","id":"label-PER-566","properties":{"kind":"division-label","code":"PER-566","countryCode":"PER","name":"Lambayeque","localName":"Lambayeque","labelEnglish":"Lambayeque","labelLocal":"Lambayeque","labelBoth":"Lambayeque","type":"Department","iso":"PE-LAM","qid":"Q210061"},"geometry":{"type":"Point","coordinates":[-79.8994,-6.2514]}},{"type":"Feature","id":"PER-571","properties":{"kind":"division","code":"PER-571","countryCode":"PER","name":"Cusco Departament","localName":"Cusco Departament","labelEnglish":"Cusco Departament","labelLocal":"Cusco Departament","labelBoth":"Cusco Departament","type":"Department","iso":"PE-CUS","qid":"Q205057"},"geometry":{"type":"Polygon","coordinates":[[[-73.9615,-12.2772],[-73.6769,-12.6779],[-73.5494,-13.0637],[-73.221,-13.4218],[-72.964,-13.3976],[-72.4302,-13.5977],[-72.0826,-13.9372],[-72.112,-14.2171],[-72.5033,-14.5675],[-72.4861,-14.674],[-72.4223,-14.8146],[-72.0691,-14.8791],[-72.0215,-14.6684],[-71.8098,-14.8662],[-71.8627,-15.0432],[-71.5118,-15.0213],[-71.1743,-15.1197],[-71.0294,-15.3341],[-70.9999,-14.768],[-71.1231,-14.6825],[-70.8894,-14.4102],[-70.8175,-13.8263],[-70.6817,-13.788],[-70.3772,-13.2813],[-70.3558,-13.0246],[-70.6784,-13.1252],[-71.0342,-13.0694],[-71.8548,-12.7765],[-71.9874,-12.3302],[-72.3836,-11.9022],[-72.1805,-11.3132],[-72.5431,-11.4244],[-72.9351,-11.3089],[-73.4352,-11.3241],[-73.6831,-11.6536],[-73.4995,-11.7237],[-73.6574,-12.2157],[-73.9615,-12.2772]]]}},{"type":"Feature","id":"label-PER-571","properties":{"kind":"division-label","code":"PER-571","countryCode":"PER","name":"Cusco Departament","localName":"Cusco Departament","labelEnglish":"Cusco Departament","labelLocal":"Cusco Departament","labelBoth":"Cusco Departament","type":"Department","iso":"PE-CUS","qid":"Q205057"},"geometry":{"type":"Point","coordinates":[-72.2479,-13.1633]}},{"type":"Feature","id":"PER-586","properties":{"kind":"division","code":"PER-586","countryCode":"PER","name":"Ayacucho","localName":"Ayacucho","labelEnglish":"Ayacucho","labelLocal":"Ayacucho","labelBoth":"Ayacucho","type":"Department","iso":"PE-AYA","qid":"Q205112"},"geometry":{"type":"Polygon","coordinates":[[[-73.9615,-12.2772],[-74.1749,-12.3137],[-74.3875,-12.1471],[-74.554,-12.392],[-74.2991,-12.7599],[-74.2813,-13.0425],[-74.9279,-13.445],[-74.7939,-13.5954],[-74.7546,-14.0578],[-75.0669,-14.1429],[-75.0536,-14.6075],[-74.9003,-14.5555],[-74.6934,-14.9158],[-74.7266,-15.0879],[-74.4685,-15.1955],[-74.4018,-15.3609],[-74.087,-15.5959],[-73.9109,-15.4601],[-73.2828,-15.3949],[-73.0337,-15.1295],[-72.9977,-14.8253],[-72.848,-14.7316],[-73.0313,-14.6274],[-73.5738,-14.6933],[-73.5397,-14.2268],[-73.7448,-13.7918],[-73.8077,-13.2166],[-73.464,-13.4407],[-73.221,-13.4218],[-73.5494,-13.0637],[-73.6769,-12.6779],[-73.9615,-12.2772]]]}},{"type":"Feature","id":"label-PER-586","properties":{"kind":"division-label","code":"PER-586","countryCode":"PER","name":"Ayacucho","localName":"Ayacucho","labelEnglish":"Ayacucho","labelLocal":"Ayacucho","labelBoth":"Ayacucho","type":"Department","iso":"PE-AYA","qid":"Q205112"},"geometry":{"type":"Point","coordinates":[-73.9838,-13.9245]}},{"type":"Feature","id":"PER-569","properties":{"kind":"division","code":"PER-569","countryCode":"PER","name":"Apurímac","localName":"Apurímac","labelEnglish":"Apurímac","labelLocal":"Apurímac","labelBoth":"Apurímac","type":"Department","iso":"PE-APU","qid":"Q208185"},"geometry":{"type":"Polygon","coordinates":[[[-72.4861,-14.674],[-72.5033,-14.5675],[-72.112,-14.2171],[-72.0826,-13.9372],[-72.4302,-13.5977],[-72.964,-13.3976],[-73.221,-13.4218],[-73.464,-13.4407],[-73.8077,-13.2166],[-73.7448,-13.7918],[-73.5397,-14.2268],[-73.5738,-14.6933],[-73.0313,-14.6274],[-72.848,-14.7316],[-72.4861,-14.674]]]}},{"type":"Feature","id":"label-PER-569","properties":{"kind":"division-label","code":"PER-569","countryCode":"PER","name":"Apurímac","localName":"Apurímac","labelEnglish":"Apurímac","labelLocal":"Apurímac","labelBoth":"Apurímac","type":"Department","iso":"PE-APU","qid":"Q208185"},"geometry":{"type":"Point","coordinates":[-72.9662,-14.0317]}},{"type":"Feature","id":"PER-588","properties":{"kind":"division","code":"PER-588","countryCode":"PER","name":"Huancavelica","localName":"Huancavelica","labelEnglish":"Huancavelica","labelLocal":"Huancavelica","labelBoth":"Huancavelica","type":"Department","iso":"PE-HUV","qid":"Q505220"},"geometry":{"type":"Polygon","coordinates":[[[-74.3875,-12.1471],[-74.6791,-11.9826],[-75.1182,-12.0435],[-75.0619,-12.1889],[-75.4672,-12.6866],[-75.6347,-12.982],[-75.8009,-13.3888],[-75.4831,-13.4661],[-75.5214,-13.8993],[-75.0669,-14.1429],[-74.7546,-14.0578],[-74.7939,-13.5954],[-74.9279,-13.445],[-74.2813,-13.0425],[-74.2991,-12.7599],[-74.554,-12.392],[-74.3875,-12.1471]]]}},{"type":"Feature","id":"label-PER-588","properties":{"kind":"division-label","code":"PER-588","countryCode":"PER","name":"Huancavelica","localName":"Huancavelica","labelEnglish":"Huancavelica","labelLocal":"Huancavelica","labelBoth":"Huancavelica","type":"Department","iso":"PE-HUV","qid":"Q505220"},"geometry":{"type":"Point","coordinates":[-75.0416,-13.0523]}},{"type":"Feature","id":"PER-582","properties":{"kind":"division","code":"PER-582","countryCode":"PER","name":"San Martín","localName":"San Martín","labelEnglish":"San Martín","labelLocal":"San Martín","labelBoth":"San Martín","type":"Department","iso":"PE-SAM","qid":"Q211793"},"geometry":{"type":"Polygon","coordinates":[[[-77.64,-5.3846],[-77.715,-5.7234],[-77.5259,-6.0243],[-77.2547,-6.1211],[-77.1646,-6.3079],[-77.3436,-6.5742],[-77.7385,-6.6481],[-77.7424,-6.994],[-77.4502,-7.5724],[-77.3591,-8.0674],[-76.911,-8.2471],[-76.8563,-8.5557],[-76.4575,-8.6004],[-76.3262,-8.3799],[-76.1737,-8.697],[-75.9527,-8.5682],[-75.7986,-8.219],[-75.8151,-8.0136],[-76.0579,-7.5008],[-76.1098,-7.0092],[-75.9078,-6.7527],[-75.6283,-6.9407],[-75.5246,-6.7972],[-75.4663,-6.3566],[-75.6682,-6.1473],[-76.0849,-6.1189],[-76.3157,-5.9213],[-76.6733,-6.03],[-76.8339,-5.7656],[-77.1757,-5.6799],[-77.64,-5.3846]]]}},{"type":"Feature","id":"label-PER-582","properties":{"kind":"division-label","code":"PER-582","countryCode":"PER","name":"San Martín","localName":"San Martín","labelEnglish":"San Martín","labelLocal":"San Martín","labelBoth":"San Martín","type":"Department","iso":"PE-SAM","qid":"Q211793"},"geometry":{"type":"Point","coordinates":[-76.6238,-7.30853]}},{"type":"Feature","id":"PER-579","properties":{"kind":"division","code":"PER-579","countryCode":"PER","name":"Huanuco","localName":"Huanuco","labelEnglish":"Huanuco","labelLocal":"Huanuco","labelBoth":"Huanuco","type":"Department","iso":"PE-HUC","qid":"Q215221"},"geometry":{"type":"Polygon","coordinates":[[[-74.5383,-9.6498],[-74.7016,-9.415],[-74.5643,-8.6323],[-74.8023,-8.6587],[-75.0391,-8.8379],[-75.2959,-9.2305],[-75.6487,-9.4054],[-75.7754,-9.2453],[-75.9741,-8.6452],[-75.9527,-8.5682],[-76.1737,-8.697],[-76.3262,-8.3799],[-76.4575,-8.6004],[-76.8563,-8.5557],[-77.3225,-8.5341],[-77.2144,-8.809],[-76.7413,-9.2046],[-77.0725,-9.7904],[-76.9316,-10.2868],[-76.75,-10.4438],[-76.5127,-10.261],[-75.9458,-10.426],[-75.7696,-10.3297],[-75.7321,-9.9132],[-74.5383,-9.6498]]]}},{"type":"Feature","id":"label-PER-579","properties":{"kind":"division-label","code":"PER-579","countryCode":"PER","name":"Huanuco","localName":"Huanuco","labelEnglish":"Huanuco","labelLocal":"Huanuco","labelBoth":"Huanuco","type":"Department","iso":"PE-HUC","qid":"Q215221"},"geometry":{"type":"Point","coordinates":[-75.9161,-9.59203]}},{"type":"Feature","id":"PER-581","properties":{"kind":"division","code":"PER-581","countryCode":"PER","name":"Pasco","localName":"Pasco","labelEnglish":"Pasco","labelLocal":"Pasco","labelBoth":"Pasco","type":"Department","iso":"PE-PAS","qid":"Q211208"},"geometry":{"type":"Polygon","coordinates":[[[-74.5383,-9.6498],[-75.7321,-9.9132],[-75.7696,-10.3297],[-75.9458,-10.426],[-76.5127,-10.261],[-76.75,-10.4438],[-76.4883,-11.0977],[-76.2785,-11.0825],[-76.2741,-10.9047],[-75.7539,-10.8852],[-75.0251,-10.6813],[-74.5085,-10.8482],[-74.1739,-10.6034],[-74.2986,-10.4967],[-74.5383,-9.6498]]]}},{"type":"Feature","id":"label-PER-581","properties":{"kind":"division-label","code":"PER-581","countryCode":"PER","name":"Pasco","localName":"Pasco","labelEnglish":"Pasco","labelLocal":"Pasco","labelBoth":"Pasco","type":"Department","iso":"PE-PAS","qid":"Q211208"},"geometry":{"type":"Point","coordinates":[-75.4586,-10.3457]}},{"type":"Feature","id":"PER-590","properties":{"kind":"division","code":"PER-590","countryCode":"PER","name":"Junín","localName":"Junín","labelEnglish":"Junín","labelLocal":"Junín","labelBoth":"Junín","type":"Department","iso":"PE-JUN","qid":"Q207973"},"geometry":{"type":"Polygon","coordinates":[[[-73.4352,-11.3241],[-73.4961,-10.998],[-73.7593,-10.7572],[-73.8864,-10.9401],[-74.3849,-11.0503],[-74.5085,-10.8482],[-75.0251,-10.6813],[-75.7539,-10.8852],[-76.2741,-10.9047],[-76.2785,-11.0825],[-76.4883,-11.0977],[-76.3777,-11.5037],[-76.0124,-12.0147],[-75.6888,-12.0787],[-75.4672,-12.6866],[-75.0619,-12.1889],[-75.1182,-12.0435],[-74.6791,-11.9826],[-74.3875,-12.1471],[-74.1749,-12.3137],[-73.9615,-12.2772],[-73.6574,-12.2157],[-73.4995,-11.7237],[-73.6831,-11.6536],[-73.4352,-11.3241]]]}},{"type":"Feature","id":"label-PER-590","properties":{"kind":"division-label","code":"PER-590","countryCode":"PER","name":"Junín","localName":"Junín","labelEnglish":"Junín","labelLocal":"Junín","labelBoth":"Junín","type":"Department","iso":"PE-JUN","qid":"Q207973"},"geometry":{"type":"Point","coordinates":[-74.9642,-11.3744]}}]}