{"type":"FeatureCollection","features":[{"type":"Feature","id":"PHL-2524","properties":{"kind":"division","code":"PHL-2524","countryCode":"PHL","name":"Sulu","localName":"Sulu","labelEnglish":"Sulu","labelLocal":"Sulu","labelBoth":"Sulu","type":"Province","iso":"PH-SLU","qid":"Q13887"},"geometry":{"type":"Polygon","coordinates":[[[121.3816,6.0057],[121.0422,6.0971],[120.9341,5.8857],[121.3816,6.0057]]]}},{"type":"Feature","id":"label-PHL-2524","properties":{"kind":"division-label","code":"PHL-2524","countryCode":"PHL","name":"Sulu","localName":"Sulu","labelEnglish":"Sulu","labelLocal":"Sulu","labelBoth":"Sulu","type":"Province","iso":"PH-SLU","qid":"Q13887"},"geometry":{"type":"Point","coordinates":[120.865,5.53722]}},{"type":"Feature","id":"PHL-2591","properties":{"kind":"division","code":"PHL-2591","countryCode":"PHL","name":"Davao del Norte","localName":"Davao del Norte","labelEnglish":"Davao del Norte","labelLocal":"Davao del Norte","labelBoth":"Davao del Norte","type":"Province","iso":"PH-DAV","qid":"Q13792"},"geometry":{"type":"Polygon","coordinates":[[[125.8307,7.3543],[125.9199,7.8262],[125.8178,7.6823],[125.6754,7.9967],[125.3743,7.9978],[125.4441,7.7786],[125.2889,7.5958],[125.5016,7.5916],[125.497,7.2579],[125.6768,7.2646],[125.8307,7.3543]]]}},{"type":"Feature","id":"label-PHL-2591","properties":{"kind":"division-label","code":"PHL-2591","countryCode":"PHL","name":"Davao del Norte","localName":"Davao del Norte","labelEnglish":"Davao del Norte","labelLocal":"Davao del Norte","labelBoth":"Davao del Norte","type":"Province","iso":"PH-DAV","qid":"Q13792"},"geometry":{"type":"Point","coordinates":[125.651,7.45436]}},{"type":"Feature","id":"PHL-2521","properties":{"kind":"division","code":"PHL-2521","countryCode":"PHL","name":"Zamboanga Sibugay","localName":"Zamboanga Sibugay","labelEnglish":"Zamboanga Sibugay","labelLocal":"Zamboanga Sibugay","labelBoth":"Zamboanga Sibugay","type":"Province","iso":"PH-ZSI","qid":"Q13902"},"geometry":{"type":"Polygon","coordinates":[[[123.0964,7.7143],[122.9158,7.9184],[122.5728,7.8811],[122.2607,7.471],[122.3599,7.4728],[122.5115,7.6957],[122.8147,7.7434],[122.8373,7.4584],[122.9956,7.4673],[123.0964,7.7143]]]}},{"type":"Feature","id":"label-PHL-2521","properties":{"kind":"division-label","code":"PHL-2521","countryCode":"PHL","name":"Zamboanga Sibugay","localName":"Zamboanga Sibugay","labelEnglish":"Zamboanga Sibugay","labelLocal":"Zamboanga Sibugay","labelBoth":"Zamboanga Sibugay","type":"Province","iso":"PH-ZSI","qid":"Q13902"},"geometry":{"type":"Point","coordinates":[122.926,7.7136]}},{"type":"Feature","id":"PHL-2534","properties":{"kind":"division","code":"PHL-2534","countryCode":"PHL","name":"Palawan","localName":"Palawan","labelEnglish":"Palawan","labelLocal":"Palawan","labelBoth":"Palawan","type":"Province","iso":"PH-PLW","qid":"Q13869"},"geometry":{"type":"MultiPolygon","coordinates":[[[[118.6388,9.5211],[118.3823,9.6578],[118.0032,9.2333],[117.6555,9.0579],[117.2915,8.6408],[117.198,8.3348],[117.5129,8.5068],[117.5656,8.6611],[118.0137,8.8876],[118.1321,9.1267],[118.365,9.1931],[118.6388,9.5211]]],[[[118.9934,10.3003],[119.1963,10.0563],[119.356,10.3288],[119.7254,10.5186],[119.5193,10.8377],[119.569,11.2617],[119.502,11.4233],[119.2225,10.9417],[119.345,10.7236],[119.2781,10.5082],[118.9934,10.3003]]],[[[120.0248,11.893],[119.854,11.9544],[119.967,11.6644],[120.0248,11.893]]],[[[120.3475,12.0295],[119.885,12.3227],[119.9841,12.0257],[120.3475,12.0295]]]]}},{"type":"Feature","id":"label-PHL-2534","properties":{"kind":"division-label","code":"PHL-2534","countryCode":"PHL","name":"Palawan","localName":"Palawan","labelEnglish":"Palawan","labelLocal":"Palawan","labelBoth":"Palawan","type":"Province","iso":"PH-PLW","qid":"Q13869"},"geometry":{"type":"Point","coordinates":[117.912,9.02764]}},{"type":"Feature","id":"PHL-2593","properties":{"kind":"division","code":"PHL-2593","countryCode":"PHL","name":"Dinagat Islands","localName":"Dinagat Islands","labelEnglish":"Dinagat Islands","labelLocal":"Dinagat Islands","labelBoth":"Dinagat Islands","type":"Province","iso":"PH-SUN","qid":"Q13807"},"geometry":{"type":"MultiPolygon","coordinates":[[[[125.4653,9.4447],[125.7292,9.3133],[125.9341,9.4923],[125.6201,9.6298],[125.4595,9.8229],[125.4653,9.4447]]],[[[126.1659,9.8292],[126.0807,10.0557],[125.966,9.8502],[126.1659,9.8292]]],[[[125.7196,9.9117],[125.6574,10.4564],[125.4971,10.1035],[125.7196,9.9117]]]]}},{"type":"Feature","id":"label-PHL-2593","properties":{"kind":"division-label","code":"PHL-2593","countryCode":"PHL","name":"Dinagat Islands","localName":"Dinagat Islands","labelEnglish":"Dinagat Islands","labelLocal":"Dinagat Islands","labelBoth":"Dinagat Islands","type":"Province","iso":"PH-SUN","qid":"Q13807"},"geometry":{"type":"Point","coordinates":[125.959,9.66326]}},{"type":"Feature","id":"PHL-2594","properties":{"kind":"division","code":"PHL-2594","countryCode":"PHL","name":"Surigao del Sur","localName":"Surigao del Sur","labelEnglish":"Surigao del Sur","labelLocal":"Surigao del Sur","labelBoth":"Surigao del Sur","type":"Province","iso":"PH-SUR","qid":"Q13891"},"geometry":{"type":"Polygon","coordinates":[[[125.9341,9.4923],[125.7292,9.3133],[125.767,9.2124],[125.8021,8.9667],[126.024,8.6884],[125.9982,8.5318],[126.2042,8.3587],[126.2912,7.9958],[126.3835,7.8996],[126.3701,8.5418],[126.1105,8.6071],[126.3001,8.7683],[125.9341,9.4923]]]}},{"type":"Feature","id":"label-PHL-2594","properties":{"kind":"division-label","code":"PHL-2594","countryCode":"PHL","name":"Surigao del Sur","localName":"Surigao del Sur","labelEnglish":"Surigao del Sur","labelLocal":"Surigao del Sur","labelBoth":"Surigao del Sur","type":"Province","iso":"PH-SUR","qid":"Q13891"},"geometry":{"type":"Point","coordinates":[126.097,8.80931]}},{"type":"Feature","id":"PHL-2587","properties":{"kind":"division","code":"PHL-2587","countryCode":"PHL","name":"Agusan del Norte","localName":"Agusan del Norte","labelEnglish":"Agusan del Norte","labelLocal":"Agusan del Norte","labelBoth":"Agusan del Norte","type":"Province","iso":"PH-AGN","qid":"Q13714"},"geometry":{"type":"MultiPolygon","coordinates":[[[[125.5166,9.0159],[125.7096,9.0148],[125.767,9.2124],[125.7292,9.3133],[125.4653,9.4447],[125.5166,9.0159]]],[[[125.2036,9.0819],[125.3233,8.8856],[125.3207,8.5898],[125.6737,8.8009],[125.4412,8.9804],[125.2036,9.0819]]]]}},{"type":"Feature","id":"label-PHL-2587","properties":{"kind":"division-label","code":"PHL-2587","countryCode":"PHL","name":"Agusan del Norte","localName":"Agusan del Norte","labelEnglish":"Agusan del Norte","labelLocal":"Agusan del Norte","labelBoth":"Agusan del Norte","type":"Province","iso":"PH-AGN","qid":"Q13714"},"geometry":{"type":"Point","coordinates":[125.56,9.17346]}},{"type":"Feature","id":"PHL-5532","properties":{"kind":"division","code":"PHL-5532","countryCode":"PHL","name":"Butuan","localName":"Butuan","labelEnglish":"Butuan","labelLocal":"Butuan","labelBoth":"Butuan","type":"Highly Urbanized City","iso":"PH-AGN","qid":null},"geometry":{"type":"Polygon","coordinates":[[[125.4412,8.9804],[125.6737,8.8009],[125.7096,9.0148],[125.5166,9.0159],[125.4412,8.9804]]]}},{"type":"Feature","id":"label-PHL-5532","properties":{"kind":"division-label","code":"PHL-5532","countryCode":"PHL","name":"Butuan","localName":"Butuan","labelEnglish":"Butuan","labelLocal":"Butuan","labelBoth":"Butuan","type":"Highly Urbanized City","iso":"PH-AGN","qid":null},"geometry":{"type":"Point","coordinates":[125.542,8.94346]}},{"type":"Feature","id":"PHL-2595","properties":{"kind":"division","code":"PHL-2595","countryCode":"PHL","name":"Misamis Oriental","localName":"Misamis Oriental","labelEnglish":"Misamis Oriental","labelLocal":"Misamis Oriental","labelBoth":"Misamis Oriental","type":"Province","iso":"PH-MSR","qid":"Q13860"},"geometry":{"type":"MultiPolygon","coordinates":[[[[124.7532,8.5617],[124.8256,8.5156],[125.3207,8.5898],[125.3233,8.8856],[125.2036,9.0819],[125.1157,8.8306],[124.7808,8.9491],[124.7532,8.5617]]],[[[124.2617,8.3242],[124.4366,8.3495],[124.5715,8.5281],[124.4058,8.6079],[124.2617,8.3242]]]]}},{"type":"Feature","id":"label-PHL-2595","properties":{"kind":"division-label","code":"PHL-2595","countryCode":"PHL","name":"Misamis Oriental","localName":"Misamis Oriental","labelEnglish":"Misamis Oriental","labelLocal":"Misamis Oriental","labelBoth":"Misamis Oriental","type":"Province","iso":"PH-MSR","qid":"Q13860"},"geometry":{"type":"Point","coordinates":[124.992,8.74226]}},{"type":"Feature","id":"PHL-5531","properties":{"kind":"division","code":"PHL-5531","countryCode":"PHL","name":"Cagayan de Oro","localName":"Cagayan de Oro","labelEnglish":"Cagayan de Oro","labelLocal":"Cagayan de Oro","labelBoth":"Cagayan de Oro","type":"Highly Urbanized City","iso":"PH-MSR","qid":null},"geometry":{"type":"Polygon","coordinates":[[[124.5715,8.5281],[124.4366,8.3495],[124.5725,8.2372],[124.8256,8.5156],[124.7532,8.5617],[124.5715,8.5281]]]}},{"type":"Feature","id":"label-PHL-5531","properties":{"kind":"division-label","code":"PHL-5531","countryCode":"PHL","name":"Cagayan de Oro","localName":"Cagayan de Oro","labelEnglish":"Cagayan de Oro","labelLocal":"Cagayan de Oro","labelBoth":"Cagayan de Oro","type":"Highly Urbanized City","iso":"PH-MSR","qid":null},"geometry":{"type":"Point","coordinates":[124.693,8.45874]}},{"type":"Feature","id":"PHL-5530","properties":{"kind":"division","code":"PHL-5530","countryCode":"PHL","name":"Iligan","localName":"Iligan","labelEnglish":"Iligan","labelLocal":"Iligan","labelBoth":"Iligan","type":"Highly Urbanized City","iso":"PH-LAN","qid":null},"geometry":{"type":"Polygon","coordinates":[[[124.2323,8.2129],[124.2991,8.2156],[124.6297,8.0075],[124.5725,8.2372],[124.4366,8.3495],[124.2617,8.3242],[124.2323,8.2129]]]}},{"type":"Feature","id":"label-PHL-5530","properties":{"kind":"division-label","code":"PHL-5530","countryCode":"PHL","name":"Iligan","localName":"Iligan","labelEnglish":"Iligan","labelLocal":"Iligan","labelBoth":"Iligan","type":"Highly Urbanized City","iso":"PH-LAN","qid":null},"geometry":{"type":"Point","coordinates":[124.396,8.26296]}},{"type":"Feature","id":"PHL-2573","properties":{"kind":"division","code":"PHL-2573","countryCode":"PHL","name":"Lanao del Norte","localName":"Lanao del Norte","labelEnglish":"Lanao del Norte","labelLocal":"Lanao del Norte","labelBoth":"Lanao del Norte","type":"Province","iso":"PH-LAN","qid":"Q13841"},"geometry":{"type":"Polygon","coordinates":[[[123.689,7.9683],[123.6147,7.8335],[123.8618,7.7035],[124.2545,8.0342],[124.2991,8.2156],[124.2323,8.2129],[123.9689,8.1678],[123.689,7.9683]]]}},{"type":"Feature","id":"label-PHL-2573","properties":{"kind":"division-label","code":"PHL-2573","countryCode":"PHL","name":"Lanao del Norte","localName":"Lanao del Norte","labelEnglish":"Lanao del Norte","labelLocal":"Lanao del Norte","labelBoth":"Lanao del Norte","type":"Province","iso":"PH-LAN","qid":"Q13841"},"geometry":{"type":"Point","coordinates":[124.122,8.0566]}},{"type":"Feature","id":"PHL-2522","properties":{"kind":"division","code":"PHL-2522","countryCode":"PHL","name":"Zamboanga del Sur","localName":"Zamboanga del Sur","labelEnglish":"Zamboanga del Sur","labelLocal":"Zamboanga del Sur","labelBoth":"Zamboanga del Sur","type":"Province","iso":"PH-ZAS","qid":"Q13900"},"geometry":{"type":"Polygon","coordinates":[[[123.6776,8.0106],[123.5561,8.232],[123.1889,8.2306],[123.1848,7.9878],[122.9158,7.9184],[123.0964,7.7143],[123.1704,7.486],[123.6147,7.8335],[123.689,7.9683],[123.6776,8.0106]]]}},{"type":"Feature","id":"label-PHL-2522","properties":{"kind":"division-label","code":"PHL-2522","countryCode":"PHL","name":"Zamboanga del Sur","localName":"Zamboanga del Sur","labelEnglish":"Zamboanga del Sur","labelLocal":"Zamboanga del Sur","labelBoth":"Zamboanga del Sur","type":"Province","iso":"PH-ZAS","qid":"Q13900"},"geometry":{"type":"Point","coordinates":[123.309,7.84487]}},{"type":"Feature","id":"PHL-2523","properties":{"kind":"division","code":"PHL-2523","countryCode":"PHL","name":"Misamis Occidental","localName":"Misamis Occidental","labelEnglish":"Misamis Occidental","labelLocal":"Misamis Occidental","labelBoth":"Misamis Occidental","type":"Province","iso":"PH-MSC","qid":"Q13857"},"geometry":{"type":"Polygon","coordinates":[[[123.549,8.6188],[123.5561,8.232],[123.6776,8.0106],[123.8733,8.1533],[123.7588,8.6075],[123.549,8.6188]]]}},{"type":"Feature","id":"label-PHL-2523","properties":{"kind":"division-label","code":"PHL-2523","countryCode":"PHL","name":"Misamis Occidental","localName":"Misamis Occidental","labelEnglish":"Misamis Occidental","labelLocal":"Misamis Occidental","labelBoth":"Misamis Occidental","type":"Province","iso":"PH-MSC","qid":"Q13857"},"geometry":{"type":"Point","coordinates":[123.717,8.33846]}},{"type":"Feature","id":"PHL-2520","properties":{"kind":"division","code":"PHL-2520","countryCode":"PHL","name":"Zamboanga del Norte","localName":"Zamboanga del Norte","labelEnglish":"Zamboanga del Norte","labelLocal":"Zamboanga del Norte","labelBoth":"Zamboanga del Norte","type":"Province","iso":"PH-ZAN","qid":"Q13899"},"geometry":{"type":"Polygon","coordinates":[[[121.9043,7.1544],[122.1024,7.1398],[122.2607,7.471],[122.5728,7.8811],[122.9158,7.9184],[123.1848,7.9878],[123.1889,8.2306],[123.5561,8.232],[123.549,8.6188],[123.082,8.5192],[122.9246,8.1501],[122.2922,8.0099],[122.1289,7.815],[122.0469,7.3011],[121.9043,7.1544]]]}},{"type":"Feature","id":"label-PHL-2520","properties":{"kind":"division-label","code":"PHL-2520","countryCode":"PHL","name":"Zamboanga del Norte","localName":"Zamboanga del Norte","labelEnglish":"Zamboanga del Norte","labelLocal":"Zamboanga del Norte","labelBoth":"Zamboanga del Norte","type":"Province","iso":"PH-ZAN","qid":"Q13899"},"geometry":{"type":"Point","coordinates":[122.73,8.02743]}},{"type":"Feature","id":"PHL-4932","properties":{"kind":"division","code":"PHL-4932","countryCode":"PHL","name":"Zamboanga Peninsula","localName":"Zamboanga Peninsula","labelEnglish":"Zamboanga Peninsula","labelLocal":"Zamboanga Peninsula","labelBoth":"Zamboanga Peninsula","type":"Highly Urbanized City","iso":"PH-ZAN","qid":"Q13682"},"geometry":{"type":"Polygon","coordinates":[[[122.3599,7.4728],[122.2607,7.471],[122.1024,7.1398],[121.9043,7.1544],[122.1187,6.8964],[122.3599,7.4728]]]}},{"type":"Feature","id":"label-PHL-4932","properties":{"kind":"division-label","code":"PHL-4932","countryCode":"PHL","name":"Zamboanga Peninsula","localName":"Zamboanga Peninsula","labelEnglish":"Zamboanga Peninsula","labelLocal":"Zamboanga Peninsula","labelBoth":"Zamboanga Peninsula","type":"Highly Urbanized City","iso":"PH-ZAN","qid":"Q13682"},"geometry":{"type":"Point","coordinates":[122.055,7.03966]}},{"type":"Feature","id":"PHL-2574","properties":{"kind":"division","code":"PHL-2574","countryCode":"PHL","name":"Lanao del Sur","localName":"Lanao del Sur","labelEnglish":"Lanao del Sur","labelLocal":"Lanao del Sur","labelBoth":"Lanao del Sur","type":"Province","iso":"PH-LAS","qid":"Q13843"},"geometry":{"type":"Polygon","coordinates":[[[124.1673,7.4318],[124.4646,7.6696],[124.8086,7.6111],[124.6297,8.0075],[124.2991,8.2156],[124.2545,8.0342],[123.8618,7.7035],[124.1673,7.4318]]]}},{"type":"Feature","id":"label-PHL-2574","properties":{"kind":"division-label","code":"PHL-2574","countryCode":"PHL","name":"Lanao del Sur","localName":"Lanao del Sur","labelEnglish":"Lanao del Sur","labelLocal":"Lanao del Sur","labelBoth":"Lanao del Sur","type":"Province","iso":"PH-LAS","qid":"Q13843"},"geometry":{"type":"Point","coordinates":[124.335,7.90221]}},{"type":"Feature","id":"PHL-2576","properties":{"kind":"division","code":"PHL-2576","countryCode":"PHL","name":"Maguindanao","localName":"Maguindanao","labelEnglish":"Maguindanao","labelLocal":"Maguindanao","labelBoth":"Maguindanao","type":"Province","iso":"PH-MAG","qid":"Q13845"},"geometry":{"type":"Polygon","coordinates":[[[124.2192,7.321],[124.3055,7.2223],[124.1838,7.2264],[124.0295,7.1151],[124.0372,6.7586],[124.5582,6.7542],[124.7111,6.8459],[124.8965,6.7289],[124.7223,7.201],[124.667,6.9504],[124.3331,7.2009],[124.4927,7.4332],[124.4646,7.6696],[124.1673,7.4318],[124.2192,7.321]]]}},{"type":"Feature","id":"label-PHL-2576","properties":{"kind":"division-label","code":"PHL-2576","countryCode":"PHL","name":"Maguindanao","localName":"Maguindanao","labelEnglish":"Maguindanao","labelLocal":"Maguindanao","labelBoth":"Maguindanao","type":"Province","iso":"PH-MAG","qid":"Q13845"},"geometry":{"type":"Point","coordinates":[124.437,6.98075]}},{"type":"Feature","id":"PHL-5527","properties":{"kind":"division","code":"PHL-5527","countryCode":"PHL","name":"Cotabato","localName":"Cotabato","labelEnglish":"Cotabato","labelLocal":"Cotabato","labelBoth":"Cotabato","type":"Independent Component City","iso":"PH-NCO","qid":"Q13791"},"geometry":{"type":"Polygon","coordinates":[[[124.1838,7.2264],[124.3055,7.2223],[124.2192,7.321],[124.1838,7.2264]]]}},{"type":"Feature","id":"label-PHL-5527","properties":{"kind":"division-label","code":"PHL-5527","countryCode":"PHL","name":"Cotabato","localName":"Cotabato","labelEnglish":"Cotabato","labelLocal":"Cotabato","labelBoth":"Cotabato","type":"Independent Component City","iso":"PH-NCO","qid":"Q13791"},"geometry":{"type":"Point","coordinates":[124.246,7.22504]}},{"type":"Feature","id":"PHL-2580","properties":{"kind":"division","code":"PHL-2580","countryCode":"PHL","name":"Sultan Kudarat","localName":"Sultan Kudarat","labelEnglish":"Sultan Kudarat","labelLocal":"Sultan Kudarat","labelBoth":"Sultan Kudarat","type":"Province","iso":"PH-SUK","qid":"Q13885"},"geometry":{"type":"Polygon","coordinates":[[[124.3703,6.1327],[124.3829,6.1622],[124.2493,6.2925],[124.6362,6.2901],[124.634,6.6394],[124.8302,6.5368],[125.1765,6.5633],[125.1497,6.7822],[124.8965,6.7289],[124.7111,6.8459],[124.5582,6.7542],[124.0372,6.7586],[124.0549,6.4377],[124.3703,6.1327]]]}},{"type":"Feature","id":"label-PHL-2580","properties":{"kind":"division-label","code":"PHL-2580","countryCode":"PHL","name":"Sultan Kudarat","localName":"Sultan Kudarat","labelEnglish":"Sultan Kudarat","labelLocal":"Sultan Kudarat","labelBoth":"Sultan Kudarat","type":"Province","iso":"PH-SUK","qid":"Q13885"},"geometry":{"type":"Point","coordinates":[124.382,6.52568]}},{"type":"Feature","id":"PHL-2598","properties":{"kind":"division","code":"PHL-2598","countryCode":"PHL","name":"Sarangani","localName":"Sarangani","labelEnglish":"Sarangani","labelLocal":"Sarangani","labelBoth":"Sarangani","type":"Province","iso":"PH-SAR","qid":"Q13877"},"geometry":{"type":"MultiPolygon","coordinates":[[[[125.1122,5.9534],[125.0482,6.0049],[124.7894,6.0117],[124.3829,6.1622],[124.3703,6.1327],[124.708,5.9466],[125.0691,5.8617],[125.1122,5.9534]]],[[[125.3065,5.5836],[125.5252,6.0516],[125.4261,6.3169],[125.1408,6.4349],[125.1374,6.3207],[125.2401,6.0942],[125.1812,5.7983],[125.3065,5.5836]]]]}},{"type":"Feature","id":"label-PHL-2598","properties":{"kind":"division-label","code":"PHL-2598","countryCode":"PHL","name":"Sarangani","localName":"Sarangani","labelEnglish":"Sarangani","labelLocal":"Sarangani","labelBoth":"Sarangani","type":"Province","iso":"PH-SAR","qid":"Q13877"},"geometry":{"type":"Point","coordinates":[125.303,5.95631]}},{"type":"Feature","id":"PHL-5529","properties":{"kind":"division","code":"PHL-5529","countryCode":"PHL","name":"General Santos","localName":"General Santos","labelEnglish":"General Santos","labelLocal":"General Santos","labelBoth":"General Santos","type":"Highly Urbanized City","iso":"PH-SCO","qid":null},"geometry":{"type":"Polygon","coordinates":[[[125.2401,6.0942],[125.1374,6.3207],[125.0482,6.0049],[125.1122,5.9534],[125.2401,6.0942]]]}},{"type":"Feature","id":"label-PHL-5529","properties":{"kind":"division-label","code":"PHL-5529","countryCode":"PHL","name":"General Santos","localName":"General Santos","labelEnglish":"General Santos","labelLocal":"General Santos","labelBoth":"General Santos","type":"Highly Urbanized City","iso":"PH-SCO","qid":null},"geometry":{"type":"Point","coordinates":[125.139,6.13644]}},{"type":"Feature","id":"PHL-2596","properties":{"kind":"division","code":"PHL-2596","countryCode":"PHL","name":"Davao del Sur","localName":"Davao del Sur","labelEnglish":"Davao del Sur","labelLocal":"Davao del Sur","labelBoth":"Davao del Sur","type":"Province","iso":"PH-DAS","qid":"Q13794"},"geometry":{"type":"Polygon","coordinates":[[[125.5099,7.0156],[125.3028,7.0174],[125.1497,6.7822],[125.1765,6.5633],[125.1408,6.4349],[125.4261,6.3169],[125.5252,6.0516],[125.3065,5.5836],[125.6673,5.9501],[125.7066,6.1497],[125.5736,6.5169],[125.3975,6.5985],[125.5099,7.0156]]]}},{"type":"Feature","id":"label-PHL-2596","properties":{"kind":"division-label","code":"PHL-2596","countryCode":"PHL","name":"Davao del Sur","localName":"Davao del Sur","labelEnglish":"Davao del Sur","labelLocal":"Davao del Sur","labelBoth":"Davao del Sur","type":"Province","iso":"PH-DAS","qid":"Q13794"},"geometry":{"type":"Point","coordinates":[125.511,6.34808]}},{"type":"Feature","id":"PHL-5528","properties":{"kind":"division","code":"PHL-5528","countryCode":"PHL","name":"Davao","localName":"Davao","labelEnglish":"Davao","labelLocal":"Davao","labelBoth":"Davao","type":"Highly Urbanized City","iso":"PH-DAV","qid":"Q13694"},"geometry":{"type":"Polygon","coordinates":[[[125.6768,7.2646],[125.497,7.2579],[125.5016,7.5916],[125.2889,7.5958],[125.266,7.5784],[125.2225,7.1833],[125.3028,7.0174],[125.5099,7.0156],[125.6768,7.2646]]]}},{"type":"Feature","id":"label-PHL-5528","properties":{"kind":"division-label","code":"PHL-5528","countryCode":"PHL","name":"Davao","localName":"Davao","labelEnglish":"Davao","labelLocal":"Davao","labelBoth":"Davao","type":"Highly Urbanized City","iso":"PH-DAV","qid":"Q13694"},"geometry":{"type":"Point","coordinates":[125.587,7.07729]}},{"type":"Feature","id":"PHL-2592","properties":{"kind":"division","code":"PHL-2592","countryCode":"PHL","name":"Davao de Oro","localName":"Davao de Oro","labelEnglish":"Davao de Oro","labelLocal":"Davao de Oro","labelBoth":"Davao de Oro","type":"Province","iso":"PH-COM","qid":"Q13789"},"geometry":{"type":"Polygon","coordinates":[[[125.9543,7.0474],[126.2936,7.2989],[126.183,7.995],[125.6754,7.9967],[125.8178,7.6823],[125.9199,7.8262],[125.8307,7.3543],[125.9543,7.0474]]]}},{"type":"Feature","id":"label-PHL-2592","properties":{"kind":"division-label","code":"PHL-2592","countryCode":"PHL","name":"Davao de Oro","localName":"Davao de Oro","labelEnglish":"Davao de Oro","labelLocal":"Davao de Oro","labelBoth":"Davao de Oro","type":"Province","iso":"PH-COM","qid":"Q13789"},"geometry":{"type":"Point","coordinates":[125.984,7.52967]}},{"type":"Feature","id":"PHL-2597","properties":{"kind":"division","code":"PHL-2597","countryCode":"PHL","name":"Davao Oriental","localName":"Davao Oriental","labelEnglish":"Davao Oriental","labelLocal":"Davao Oriental","labelBoth":"Davao Oriental","type":"Province","iso":"PH-DAO","qid":"Q13806"},"geometry":{"type":"Polygon","coordinates":[[[126.3835,7.8996],[126.2912,7.9958],[126.183,7.995],[126.2936,7.2989],[125.9543,7.0474],[126.0791,6.8425],[126.2061,6.2993],[126.2546,6.7667],[126.6104,7.277],[126.5829,7.7194],[126.3835,7.8996]]]}},{"type":"Feature","id":"label-PHL-2597","properties":{"kind":"division-label","code":"PHL-2597","countryCode":"PHL","name":"Davao Oriental","localName":"Davao Oriental","labelEnglish":"Davao Oriental","labelLocal":"Davao Oriental","labelBoth":"Davao Oriental","type":"Province","iso":"PH-DAO","qid":"Q13806"},"geometry":{"type":"Point","coordinates":[126.286,7.06305]}},{"type":"Feature","id":"PHL-2585","properties":{"kind":"division","code":"PHL-2585","countryCode":"PHL","name":"Southern Leyte","localName":"Southern Leyte","labelEnglish":"Southern Leyte","labelLocal":"Southern Leyte","labelBoth":"Southern Leyte","type":"Province","iso":"PH-SLE","qid":"Q13884"},"geometry":{"type":"Polygon","coordinates":[[[125.1678,10.6221],[124.9235,10.5057],[124.766,10.1854],[125.0317,10.0203],[125.0104,10.383],[125.2293,10.2543],[125.1678,10.6221]]]}},{"type":"Feature","id":"label-PHL-2585","properties":{"kind":"division-label","code":"PHL-2585","countryCode":"PHL","name":"Southern Leyte","localName":"Southern Leyte","labelEnglish":"Southern Leyte","labelLocal":"Southern Leyte","labelBoth":"Southern Leyte","type":"Province","iso":"PH-SLE","qid":"Q13884"},"geometry":{"type":"Point","coordinates":[125.215,10.0694]}},{"type":"Feature","id":"PHL-2583","properties":{"kind":"division","code":"PHL-2583","countryCode":"PHL","name":"Leyte","localName":"Leyte","labelEnglish":"Leyte","labelLocal":"Leyte","labelBoth":"Leyte","type":"Province","iso":"PH-LEY","qid":"Q13844"},"geometry":{"type":"Polygon","coordinates":[[[124.5496,10.9833],[124.4877,11.0659],[124.6042,11.1568],[124.6223,11.002],[124.7788,10.8214],[124.766,10.1854],[124.9235,10.5057],[125.1678,10.6221],[125.0061,10.7973],[125.0387,11.1979],[124.9327,11.2365],[124.9756,11.3344],[124.8457,11.433],[124.6299,11.3044],[124.3291,11.5571],[124.4021,10.9298],[124.5496,10.9833]]]}},{"type":"Feature","id":"label-PHL-2583","properties":{"kind":"division-label","code":"PHL-2583","countryCode":"PHL","name":"Leyte","localName":"Leyte","labelEnglish":"Leyte","labelLocal":"Leyte","labelBoth":"Leyte","type":"Province","iso":"PH-LEY","qid":"Q13844"},"geometry":{"type":"Point","coordinates":[124.883,10.9926]}},{"type":"Feature","id":"PHL-2582","properties":{"kind":"division","code":"PHL-2582","countryCode":"PHL","name":"Eastern Samar","localName":"Eastern Samar","labelEnglish":"Eastern Samar","labelLocal":"Eastern Samar","labelBoth":"Eastern Samar","type":"Province","iso":"PH-EAS","qid":"Q13809"},"geometry":{"type":"Polygon","coordinates":[[[125.316,12.3021],[125.1618,12.3157],[125.1226,11.9979],[125.2535,11.9279],[125.3492,11.4145],[125.2414,11.0944],[125.7074,11.1774],[125.5662,11.2681],[125.452,11.9641],[125.5005,12.2486],[125.316,12.3021]]]}},{"type":"Feature","id":"label-PHL-2582","properties":{"kind":"division-label","code":"PHL-2582","countryCode":"PHL","name":"Eastern Samar","localName":"Eastern Samar","labelEnglish":"Eastern Samar","labelLocal":"Eastern Samar","labelBoth":"Eastern Samar","type":"Province","iso":"PH-EAS","qid":"Q13809"},"geometry":{"type":"Point","coordinates":[125.755,10.7291]}},{"type":"Feature","id":"PHL-2581","properties":{"kind":"division","code":"PHL-2581","countryCode":"PHL","name":"Biliran","localName":"Biliran","labelEnglish":"Biliran","labelLocal":"Biliran","labelBoth":"Biliran","type":"Province","iso":"PH-BIL","qid":"Q13751"},"geometry":{"type":"Polygon","coordinates":[[[124.5996,11.5634],[124.3491,11.6801],[124.4863,11.4882],[124.5996,11.5634]]]}},{"type":"Feature","id":"label-PHL-2581","properties":{"kind":"division-label","code":"PHL-2581","countryCode":"PHL","name":"Biliran","localName":"Biliran","labelEnglish":"Biliran","labelLocal":"Biliran","labelBoth":"Biliran","type":"Province","iso":"PH-BIL","qid":"Q13751"},"geometry":{"type":"Point","coordinates":[124.487,11.5911]}},{"type":"Feature","id":"PHL-2584","properties":{"kind":"division","code":"PHL-2584","countryCode":"PHL","name":"Samar","localName":"Samar","labelEnglish":"Samar","labelLocal":"Samar","labelBoth":"Samar","type":"Province","iso":"PH-WSA","qid":"Q13876"},"geometry":{"type":"Polygon","coordinates":[[[125.2414,11.0944],[125.3492,11.4145],[125.2535,11.9279],[125.1226,11.9979],[125.1618,12.3157],[124.6921,12.2296],[124.3705,12.29],[124.8924,11.7615],[125.0542,11.7382],[124.9115,11.5019],[125.2414,11.0944]]]}},{"type":"Feature","id":"label-PHL-2584","properties":{"kind":"division-label","code":"PHL-2584","countryCode":"PHL","name":"Samar","localName":"Samar","labelEnglish":"Samar","labelLocal":"Samar","labelBoth":"Samar","type":"Province","iso":"PH-WSA","qid":"Q13876"},"geometry":{"type":"Point","coordinates":[124.999,11.8292]}},{"type":"Feature","id":"PHL-2549","properties":{"kind":"division","code":"PHL-2549","countryCode":"PHL","name":"Aurora","localName":"Aurora","labelEnglish":"Aurora","labelLocal":"Aurora","labelBoth":"Aurora","type":"Province","iso":"PH-AUR","qid":"Q13730"},"geometry":{"type":"Polygon","coordinates":[[[122.2446,16.5106],[122.0375,16.5076],[121.8724,16.2819],[121.4477,15.9243],[121.2673,15.7776],[121.3658,15.4354],[121.3026,15.1815],[121.3301,15.0324],[121.4462,15.2079],[121.3792,15.3082],[121.6292,15.6611],[121.5778,15.9321],[122.2319,16.319],[122.2446,16.5106]]]}},{"type":"Feature","id":"label-PHL-2549","properties":{"kind":"division-label","code":"PHL-2549","countryCode":"PHL","name":"Aurora","localName":"Aurora","labelEnglish":"Aurora","labelLocal":"Aurora","labelBoth":"Aurora","type":"Province","iso":"PH-AUR","qid":"Q13730"},"geometry":{"type":"Point","coordinates":[121.756,16.1271]}},{"type":"Feature","id":"PHL-2572","properties":{"kind":"division","code":"PHL-2572","countryCode":"PHL","name":"Quezon","localName":"Quezon","labelEnglish":"Quezon","labelLocal":"Quezon","labelBoth":"Quezon","type":"Province","iso":"PH-QUE","qid":"Q13872"},"geometry":{"type":"MultiPolygon","coordinates":[[[[121.4462,15.2079],[121.3301,15.0324],[121.3421,14.8893],[121.4605,14.5715],[121.5903,14.3133],[121.5037,14.0745],[121.2645,13.9615],[121.4546,13.8192],[121.5493,13.8782],[121.5819,13.9964],[121.6369,13.9096],[121.7249,13.9691],[122.1184,13.7521],[122.6907,13.2287],[122.4163,13.9617],[122.558,13.9333],[122.8159,13.9937],[122.4798,14.1508],[122.31,14.0963],[122.2319,13.9064],[121.9363,13.9952],[121.7316,14.1951],[121.6292,14.7028],[121.7261,14.7202],[121.4462,15.2079]]],[[[122.0054,15.0107],[121.8442,15.0454],[121.9402,14.6401],[122.0054,15.0107]]]]}},{"type":"Feature","id":"label-PHL-2572","properties":{"kind":"division-label","code":"PHL-2572","countryCode":"PHL","name":"Quezon","localName":"Quezon","labelEnglish":"Quezon","labelLocal":"Quezon","labelBoth":"Quezon","type":"Province","iso":"PH-QUE","qid":"Q13872"},"geometry":{"type":"Point","coordinates":[122.037,13.8708]}},{"type":"Feature","id":"PHL-2537","properties":{"kind":"division","code":"PHL-2537","countryCode":"PHL","name":"Camarines Norte","localName":"Camarines Norte","labelEnglish":"Camarines Norte","labelLocal":"Camarines Norte","labelBoth":"Camarines Norte","type":"Province","iso":"PH-CAN","qid":"Q13763"},"geometry":{"type":"Polygon","coordinates":[[[122.31,14.0963],[122.4798,14.1508],[122.8159,13.9937],[123.0488,13.822],[123.0842,13.9743],[122.8533,14.2786],[122.471,14.3459],[122.31,14.0963]]]}},{"type":"Feature","id":"label-PHL-2537","properties":{"kind":"division-label","code":"PHL-2537","countryCode":"PHL","name":"Camarines Norte","localName":"Camarines Norte","labelEnglish":"Camarines Norte","labelLocal":"Camarines Norte","labelBoth":"Camarines Norte","type":"Province","iso":"PH-CAN","qid":"Q13763"},"geometry":{"type":"Point","coordinates":[122.699,14.1942]}},{"type":"Feature","id":"PHL-2538","properties":{"kind":"division","code":"PHL-2538","countryCode":"PHL","name":"Camarines Sur","localName":"Camarines Sur","labelEnglish":"Camarines Sur","labelLocal":"Camarines Sur","labelBoth":"Camarines Sur","type":"Province","iso":"PH-CAS","qid":"Q13767"},"geometry":{"type":"Polygon","coordinates":[[[123.0488,13.822],[122.8159,13.9937],[122.558,13.9333],[123.1688,13.4492],[123.2925,13.2447],[123.5529,13.3654],[123.5936,13.5295],[123.5881,13.7289],[123.9727,13.7293],[123.7117,13.9344],[123.2181,13.9927],[123.315,13.8205],[123.0488,13.822]],[[123.2342,13.5686],[123.1396,13.6199],[123.2934,13.6633],[123.2342,13.5686]]]}},{"type":"Feature","id":"label-PHL-2538","properties":{"kind":"division-label","code":"PHL-2538","countryCode":"PHL","name":"Camarines Sur","localName":"Camarines Sur","labelEnglish":"Camarines Sur","labelLocal":"Camarines Sur","labelBoth":"Camarines Sur","type":"Province","iso":"PH-CAS","qid":"Q13767"},"geometry":{"type":"Point","coordinates":[123.365,13.6733]}},{"type":"Feature","id":"PHL-2536","properties":{"kind":"division","code":"PHL-2536","countryCode":"PHL","name":"Albay","localName":"Albay","labelEnglish":"Albay","labelLocal":"Albay","labelBoth":"Albay","type":"Province","iso":"PH-ALB","qid":"Q13726"},"geometry":{"type":"Polygon","coordinates":[[[123.5936,13.5295],[123.5529,13.3654],[123.2925,13.2447],[123.3101,13.0124],[123.4962,12.9744],[123.9354,13.1185],[123.5936,13.5295]]]}},{"type":"Feature","id":"label-PHL-2536","properties":{"kind":"division-label","code":"PHL-2536","countryCode":"PHL","name":"Albay","localName":"Albay","labelEnglish":"Albay","labelLocal":"Albay","labelBoth":"Albay","type":"Province","iso":"PH-ALB","qid":"Q13726"},"geometry":{"type":"Point","coordinates":[123.563,13.2254]}},{"type":"Feature","id":"PHL-2541","properties":{"kind":"division","code":"PHL-2541","countryCode":"PHL","name":"Sorsogon","localName":"Sorsogon","labelEnglish":"Sorsogon","labelLocal":"Sorsogon","labelBoth":"Sorsogon","type":"Province","iso":"PH-SOR","qid":"Q13881"},"geometry":{"type":"Polygon","coordinates":[[[123.9354,13.1185],[123.4962,12.9744],[123.823,12.877],[123.9832,12.5468],[124.1431,12.7973],[123.9354,13.1185]]]}},{"type":"Feature","id":"label-PHL-2541","properties":{"kind":"division-label","code":"PHL-2541","countryCode":"PHL","name":"Sorsogon","localName":"Sorsogon","labelEnglish":"Sorsogon","labelLocal":"Sorsogon","labelBoth":"Sorsogon","type":"Province","iso":"PH-SOR","qid":"Q13881"},"geometry":{"type":"Point","coordinates":[124.001,12.7377]}},{"type":"Feature","id":"PHL-5560","properties":{"kind":"division","code":"PHL-5560","countryCode":"PHL","name":"Lucena","localName":"Lucena","labelEnglish":"Lucena","labelLocal":"Lucena","labelBoth":"Lucena","type":"Highly Urbanized City","iso":"PH-QUE","qid":null},"geometry":{"type":"Polygon","coordinates":[[[121.6369,13.9096],[121.5819,13.9964],[121.5493,13.8782],[121.6369,13.9096]]]}},{"type":"Feature","id":"label-PHL-5560","properties":{"kind":"division-label","code":"PHL-5560","countryCode":"PHL","name":"Lucena","localName":"Lucena","labelEnglish":"Lucena","labelLocal":"Lucena","labelBoth":"Lucena","type":"Highly Urbanized City","iso":"PH-QUE","qid":null},"geometry":{"type":"Point","coordinates":[121.576,13.9241]}},{"type":"Feature","id":"PHL-2564","properties":{"kind":"division","code":"PHL-2564","countryCode":"PHL","name":"Batangas","localName":"Batangas","labelEnglish":"Batangas","labelLocal":"Batangas","labelBoth":"Batangas","type":"Province","iso":"PH-BTG","qid":"Q13744"},"geometry":{"type":"Polygon","coordinates":[[[121.4546,13.8192],[121.2645,13.9615],[121.033,14.144],[120.8689,14.0761],[120.5967,14.2188],[120.6281,13.8109],[120.895,13.9064],[121.0339,13.6418],[121.43,13.6569],[121.4546,13.8192]]]}},{"type":"Feature","id":"label-PHL-2564","properties":{"kind":"division-label","code":"PHL-2564","countryCode":"PHL","name":"Batangas","localName":"Batangas","labelEnglish":"Batangas","labelLocal":"Batangas","labelBoth":"Batangas","type":"Province","iso":"PH-BTG","qid":"Q13744"},"geometry":{"type":"Point","coordinates":[121.076,13.9268]}},{"type":"Feature","id":"PHL-2563","properties":{"kind":"division","code":"PHL-2563","countryCode":"PHL","name":"Cavite","localName":"Cavite","labelEnglish":"Cavite","labelLocal":"Cavite","labelBoth":"Cavite","type":"Province","iso":"PH-CAV","qid":"Q13785"},"geometry":{"type":"Polygon","coordinates":[[[120.5967,14.2188],[120.8689,14.0761],[121.033,14.144],[121.0148,14.3591],[121.0142,14.3971],[120.9608,14.4952],[120.5967,14.2188]]]}},{"type":"Feature","id":"label-PHL-2563","properties":{"kind":"division-label","code":"PHL-2563","countryCode":"PHL","name":"Cavite","localName":"Cavite","labelEnglish":"Cavite","labelLocal":"Cavite","labelBoth":"Cavite","type":"Province","iso":"PH-CAV","qid":"Q13785"},"geometry":{"type":"Point","coordinates":[120.836,14.2563]}},{"type":"Feature","id":"PHL-5556","properties":{"kind":"division","code":"PHL-5556","countryCode":"PHL","name":"Las Pinas","localName":"Las Pinas","labelEnglish":"Las Pinas","labelLocal":"Las Pinas","labelBoth":"Las Pinas","type":"Highly Urbanized City","iso":"PH-MNL","qid":null},"geometry":{"type":"Polygon","coordinates":[[[120.9608,14.4952],[121.0142,14.3971],[121.033,14.4386],[120.9734,14.506],[120.9608,14.4952]]]}},{"type":"Feature","id":"label-PHL-5556","properties":{"kind":"division-label","code":"PHL-5556","countryCode":"PHL","name":"Las Pinas","localName":"Las Pinas","labelEnglish":"Las Pinas","labelLocal":"Las Pinas","labelBoth":"Las Pinas","type":"Highly Urbanized City","iso":"PH-MNL","qid":null},"geometry":{"type":"Point","coordinates":[120.995,14.4591]}},{"type":"Feature","id":"PHL-5555","properties":{"kind":"division","code":"PHL-5555","countryCode":"PHL","name":"Parañaque","localName":"Parañaque","labelEnglish":"Parañaque","labelLocal":"Parañaque","labelBoth":"Parañaque","type":"Highly Urbanized City","iso":"PH-MNL","qid":null},"geometry":{"type":"Polygon","coordinates":[[[120.9734,14.506],[121.033,14.4386],[121.0559,14.4649],[121.0446,14.5072],[120.9844,14.534],[120.9734,14.506]]]}},{"type":"Feature","id":"label-PHL-5555","properties":{"kind":"division-label","code":"PHL-5555","countryCode":"PHL","name":"Parañaque","localName":"Parañaque","labelEnglish":"Parañaque","labelLocal":"Parañaque","labelBoth":"Parañaque","type":"Highly Urbanized City","iso":"PH-MNL","qid":null},"geometry":{"type":"Point","coordinates":[121.016,14.49]}},{"type":"Feature","id":"PHL-5554","properties":{"kind":"division","code":"PHL-5554","countryCode":"PHL","name":"Pasay","localName":"Pasay","labelEnglish":"Pasay","labelLocal":"Pasay","labelBoth":"Pasay","type":"Highly Urbanized City","iso":"PH-MNL","qid":null},"geometry":{"type":"Polygon","coordinates":[[[120.9844,14.534],[121.0446,14.5072],[121.0321,14.5275],[121.0062,14.5577],[120.9802,14.5574],[120.9844,14.534]]]}},{"type":"Feature","id":"label-PHL-5554","properties":{"kind":"division-label","code":"PHL-5554","countryCode":"PHL","name":"Pasay","localName":"Pasay","labelEnglish":"Pasay","labelLocal":"Pasay","labelBoth":"Pasay","type":"Highly Urbanized City","iso":"PH-MNL","qid":null},"geometry":{"type":"Point","coordinates":[120.999,14.5449]}},{"type":"Feature","id":"PHL-5543","properties":{"kind":"division","code":"PHL-5543","countryCode":"PHL","name":"Metro Manila","localName":"Metro Manila","labelEnglish":"Metro Manila","labelLocal":"Metro Manila","labelBoth":"Metro Manila","type":"Highly Urbanized City","iso":"PH-MNL","qid":"Q13580"},"geometry":{"type":"Polygon","coordinates":[[[120.9802,14.5574],[121.0062,14.5577],[121.0265,14.575],[121.0373,14.5888],[121.03,14.5974],[121.001,14.6274],[120.9769,14.6283],[120.9476,14.6279],[120.9802,14.5574]]]}},{"type":"Feature","id":"label-PHL-5543","properties":{"kind":"division-label","code":"PHL-5543","countryCode":"PHL","name":"Metro Manila","localName":"Metro Manila","labelEnglish":"Metro Manila","labelLocal":"Metro Manila","labelBoth":"Metro Manila","type":"Highly Urbanized City","iso":"PH-MNL","qid":"Q13580"},"geometry":{"type":"Point","coordinates":[120.989,14.5931]}},{"type":"Feature","id":"PHL-5544","properties":{"kind":"division","code":"PHL-5544","countryCode":"PHL","name":"Navotas","localName":"Navotas","labelEnglish":"Navotas","labelLocal":"Navotas","labelBoth":"Navotas","type":"Highly Urbanized City","iso":"PH-MNL","qid":null},"geometry":{"type":"Polygon","coordinates":[[[120.9476,14.6279],[120.9769,14.6283],[120.9687,14.6365],[120.934,14.6934],[120.9162,14.6944],[120.9476,14.6279]]]}},{"type":"Feature","id":"label-PHL-5544","properties":{"kind":"division-label","code":"PHL-5544","countryCode":"PHL","name":"Navotas","localName":"Navotas","labelEnglish":"Navotas","labelLocal":"Navotas","labelBoth":"Navotas","type":"Highly Urbanized City","iso":"PH-MNL","qid":null},"geometry":{"type":"Point","coordinates":[120.952,14.6394]}},{"type":"Feature","id":"PHL-2565","properties":{"kind":"division","code":"PHL-2565","countryCode":"PHL","name":"Bulacan","localName":"Bulacan","labelEnglish":"Bulacan","labelLocal":"Bulacan","labelBoth":"Bulacan","type":"Province","iso":"PH-BUL","qid":"Q13755"},"geometry":{"type":"Polygon","coordinates":[[[120.9162,14.6944],[120.934,14.6934],[120.9533,14.6889],[121.009,14.7395],[121.1158,14.7528],[121.1543,14.7584],[121.3421,14.8893],[121.3301,15.0324],[121.3026,15.1815],[120.9377,15.2207],[120.9051,15.0152],[120.6638,14.779],[120.9162,14.6944]]]}},{"type":"Feature","id":"label-PHL-2565","properties":{"kind":"division-label","code":"PHL-2565","countryCode":"PHL","name":"Bulacan","localName":"Bulacan","labelEnglish":"Bulacan","labelLocal":"Bulacan","labelBoth":"Bulacan","type":"Province","iso":"PH-BUL","qid":"Q13755"},"geometry":{"type":"Point","coordinates":[121.003,14.9603]}},{"type":"Feature","id":"PHL-2558","properties":{"kind":"division","code":"PHL-2558","countryCode":"PHL","name":"Pampanga","localName":"Pampanga","labelEnglish":"Pampanga","labelLocal":"Pampanga","labelBoth":"Pampanga","type":"Province","iso":"PH-PAM","qid":"Q13870"},"geometry":{"type":"Polygon","coordinates":[[[120.6638,14.779],[120.9051,15.0152],[120.9377,15.2207],[120.7763,15.2595],[120.3806,15.169],[120.4601,14.9415],[120.5454,14.8271],[120.6638,14.779]],[[120.5926,15.1032],[120.5117,15.145],[120.637,15.1789],[120.5926,15.1032]]]}},{"type":"Feature","id":"label-PHL-2558","properties":{"kind":"division-label","code":"PHL-2558","countryCode":"PHL","name":"Pampanga","localName":"Pampanga","labelEnglish":"Pampanga","labelLocal":"Pampanga","labelBoth":"Pampanga","type":"Province","iso":"PH-PAM","qid":"Q13870"},"geometry":{"type":"Point","coordinates":[120.651,15.0215]}},{"type":"Feature","id":"PHL-2555","properties":{"kind":"division","code":"PHL-2555","countryCode":"PHL","name":"Bataan","localName":"Bataan","labelEnglish":"Bataan","labelLocal":"Bataan","labelBoth":"Bataan","type":"Province","iso":"PH-BAN","qid":"Q13739"},"geometry":{"type":"Polygon","coordinates":[[[120.5454,14.8271],[120.4601,14.9415],[120.4549,14.9141],[120.2825,14.8061],[120.4021,14.4558],[120.5979,14.5056],[120.5454,14.8271]]]}},{"type":"Feature","id":"label-PHL-2555","properties":{"kind":"division-label","code":"PHL-2555","countryCode":"PHL","name":"Bataan","localName":"Bataan","labelEnglish":"Bataan","labelLocal":"Bataan","labelBoth":"Bataan","type":"Province","iso":"PH-BAN","qid":"Q13739"},"geometry":{"type":"Point","coordinates":[120.42,14.6561]}},{"type":"Feature","id":"PHL-5540","properties":{"kind":"division","code":"PHL-5540","countryCode":"PHL","name":"Olongapo","localName":"Olongapo","labelEnglish":"Olongapo","labelLocal":"Olongapo","labelBoth":"Olongapo","type":"Highly Urbanized City","iso":"PH-ZMB","qid":null},"geometry":{"type":"Polygon","coordinates":[[[120.2825,14.8061],[120.4549,14.9141],[120.2093,14.88],[120.2825,14.8061]]]}},{"type":"Feature","id":"label-PHL-5540","properties":{"kind":"division-label","code":"PHL-5540","countryCode":"PHL","name":"Olongapo","localName":"Olongapo","labelEnglish":"Olongapo","labelLocal":"Olongapo","labelBoth":"Olongapo","type":"Highly Urbanized City","iso":"PH-ZMB","qid":null},"geometry":{"type":"Point","coordinates":[120.282,14.8618]}},{"type":"Feature","id":"PHL-2560","properties":{"kind":"division","code":"PHL-2560","countryCode":"PHL","name":"Zambales","localName":"Zambales","labelEnglish":"Zambales","labelLocal":"Zambales","labelBoth":"Zambales","type":"Province","iso":"PH-ZMB","qid":"Q13895"},"geometry":{"type":"Polygon","coordinates":[[[120.2093,14.88],[120.4549,14.9141],[120.4601,14.9415],[120.3806,15.169],[120.1438,15.4065],[120.247,15.614],[120.1384,15.8209],[119.8888,15.8014],[120.0799,14.8039],[120.2093,14.88]]]}},{"type":"Feature","id":"label-PHL-2560","properties":{"kind":"division-label","code":"PHL-2560","countryCode":"PHL","name":"Zambales","localName":"Zambales","labelEnglish":"Zambales","labelLocal":"Zambales","labelBoth":"Zambales","type":"Province","iso":"PH-ZMB","qid":"Q13895"},"geometry":{"type":"Point","coordinates":[120.164,15.0499]}},{"type":"Feature","id":"PHL-2562","properties":{"kind":"division","code":"PHL-2562","countryCode":"PHL","name":"Pangasinan","localName":"Pangasinan","labelEnglish":"Pangasinan","labelLocal":"Pangasinan","labelBoth":"Pangasinan","type":"Province","iso":"PH-PAN","qid":"Q13871"},"geometry":{"type":"Polygon","coordinates":[[[119.8888,15.8014],[120.1384,15.8209],[120.247,15.614],[120.6273,15.8187],[120.8388,15.8047],[120.8865,16.1007],[120.7566,16.2007],[120.526,16.2321],[120.4014,16.2095],[120.3652,16.1087],[120.2963,15.9827],[120.2577,16.0522],[119.8125,16.3675],[119.7708,15.915],[119.8888,15.8014]]]}},{"type":"Feature","id":"label-PHL-2562","properties":{"kind":"division-label","code":"PHL-2562","countryCode":"PHL","name":"Pangasinan","localName":"Pangasinan","labelEnglish":"Pangasinan","labelLocal":"Pangasinan","labelBoth":"Pangasinan","type":"Province","iso":"PH-PAN","qid":"Q13871"},"geometry":{"type":"Point","coordinates":[120.341,15.8696]}},{"type":"Feature","id":"PHL-5541","properties":{"kind":"division","code":"PHL-5541","countryCode":"PHL","name":"Dagupan","localName":"Dagupan","labelEnglish":"Dagupan","labelLocal":"Dagupan","labelBoth":"Dagupan","type":"Independent Component City","iso":"PH-PAN","qid":null},"geometry":{"type":"Polygon","coordinates":[[[120.2577,16.0522],[120.2963,15.9827],[120.3652,16.1087],[120.2577,16.0522]]]}},{"type":"Feature","id":"label-PHL-5541","properties":{"kind":"division-label","code":"PHL-5541","countryCode":"PHL","name":"Dagupan","localName":"Dagupan","labelEnglish":"Dagupan","labelLocal":"Dagupan","labelBoth":"Dagupan","type":"Independent Component City","iso":"PH-PAN","qid":null},"geometry":{"type":"Point","coordinates":[120.341,16.0325]}},{"type":"Feature","id":"PHL-2561","properties":{"kind":"division","code":"PHL-2561","countryCode":"PHL","name":"La Union","localName":"La Union","labelEnglish":"La Union","labelLocal":"La Union","labelBoth":"La Union","type":"Province","iso":"PH-LUN","qid":"Q13829"},"geometry":{"type":"Polygon","coordinates":[[[120.4014,16.2095],[120.526,16.2321],[120.472,16.4638],[120.595,16.6526],[120.3979,16.9192],[120.3264,16.831],[120.4014,16.2095]]]}},{"type":"Feature","id":"label-PHL-2561","properties":{"kind":"division-label","code":"PHL-2561","countryCode":"PHL","name":"La Union","localName":"La Union","labelEnglish":"La Union","labelLocal":"La Union","labelBoth":"La Union","type":"Province","iso":"PH-LUN","qid":"Q13829"},"geometry":{"type":"Point","coordinates":[120.436,16.5569]}},{"type":"Feature","id":"PHL-2548","properties":{"kind":"division","code":"PHL-2548","countryCode":"PHL","name":"Ilocos Sur","localName":"Ilocos Sur","labelEnglish":"Ilocos Sur","labelLocal":"Ilocos Sur","labelBoth":"Ilocos Sur","type":"Province","iso":"PH-ILS","qid":"Q12741"},"geometry":{"type":"Polygon","coordinates":[[[120.3979,16.9192],[120.595,16.6526],[120.7735,16.921],[120.8738,17.1821],[120.7304,17.1557],[120.4672,17.4992],[120.539,17.7037],[120.4261,17.894],[120.3338,17.5564],[120.4417,17.368],[120.3979,16.9192]]]}},{"type":"Feature","id":"label-PHL-2548","properties":{"kind":"division-label","code":"PHL-2548","countryCode":"PHL","name":"Ilocos Sur","localName":"Ilocos Sur","labelEnglish":"Ilocos Sur","labelLocal":"Ilocos Sur","labelBoth":"Ilocos Sur","type":"Province","iso":"PH-ILS","qid":"Q12741"},"geometry":{"type":"Point","coordinates":[120.604,16.9849]}},{"type":"Feature","id":"PHL-2547","properties":{"kind":"division","code":"PHL-2547","countryCode":"PHL","name":"Ilocos Norte","localName":"Ilocos Norte","labelEnglish":"Ilocos Norte","labelLocal":"Ilocos Norte","labelBoth":"Ilocos Norte","type":"Province","iso":"PH-ILN","qid":"Q13813"},"geometry":{"type":"Polygon","coordinates":[[[120.4261,17.894],[120.539,17.7037],[120.9385,17.9671],[120.9571,18.4468],[120.9951,18.6061],[120.6111,18.5386],[120.4261,17.894]]]}},{"type":"Feature","id":"label-PHL-2547","properties":{"kind":"division-label","code":"PHL-2547","countryCode":"PHL","name":"Ilocos Norte","localName":"Ilocos Norte","labelEnglish":"Ilocos Norte","labelLocal":"Ilocos Norte","labelBoth":"Ilocos Norte","type":"Province","iso":"PH-ILN","qid":"Q13813"},"geometry":{"type":"Point","coordinates":[120.71,18.1995]}},{"type":"Feature","id":"PHL-2545","properties":{"kind":"division","code":"PHL-2545","countryCode":"PHL","name":"Cagayan","localName":"Cagayan","labelEnglish":"Cagayan","labelLocal":"Cagayan","labelBoth":"Cagayan","type":"Province","iso":"PH-CAG","qid":"Q13759"},"geometry":{"type":"Polygon","coordinates":[[[120.9951,18.6061],[120.9571,18.4468],[121.0592,18.5317],[121.457,18.3019],[121.3184,17.8426],[121.4288,17.7176],[121.6529,17.5182],[122.1846,17.5413],[122.18,18.1208],[122.307,18.2513],[122.2202,18.5224],[121.9746,18.286],[121.5921,18.3847],[121.1068,18.6427],[120.9951,18.6061]]]}},{"type":"Feature","id":"label-PHL-2545","properties":{"kind":"division-label","code":"PHL-2545","countryCode":"PHL","name":"Cagayan","localName":"Cagayan","labelEnglish":"Cagayan","labelLocal":"Cagayan","labelBoth":"Cagayan","type":"Province","iso":"PH-CAG","qid":"Q13759"},"geometry":{"type":"Point","coordinates":[121.641,17.9242]}},{"type":"Feature","id":"PHL-2550","properties":{"kind":"division","code":"PHL-2550","countryCode":"PHL","name":"Isabela","localName":"Isabela","labelEnglish":"Isabela","labelLocal":"Isabela","labelBoth":"Isabela","type":"Province","iso":"PH-ISA","qid":"Q13826"},"geometry":{"type":"MultiPolygon","coordinates":[[[[122.1846,17.5413],[121.6529,17.5182],[121.5706,17.2501],[121.5635,17.0866],[121.479,16.8307],[121.5699,16.6106],[121.7658,16.397],[122.0375,16.5076],[122.2446,16.5106],[122.5291,17.0905],[122.1846,17.5413]]],[[[121.3997,16.6512],[121.488,16.6295],[121.3901,16.6943],[121.3997,16.6512]]]]}},{"type":"Feature","id":"label-PHL-2550","properties":{"kind":"division-label","code":"PHL-2550","countryCode":"PHL","name":"Isabela","localName":"Isabela","labelEnglish":"Isabela","labelLocal":"Isabela","labelBoth":"Isabela","type":"Province","iso":"PH-ISA","qid":"Q13826"},"geometry":{"type":"Point","coordinates":[121.932,17.0036]}},{"type":"Feature","id":"PHL-2511","properties":{"kind":"division","code":"PHL-2511","countryCode":"PHL","name":"Tawi-Tawi","localName":"Tawi-Tawi","labelEnglish":"Tawi-Tawi","labelLocal":"Tawi-Tawi","labelBoth":"Tawi-Tawi","type":"Province","iso":"PH-TAW","qid":"Q13893"},"geometry":{"type":"Polygon","coordinates":[[[120.252,5.2665],[120.1986,5.3496],[119.8125,5.1225],[119.9541,5.0755],[120.252,5.2665]]]}},{"type":"Feature","id":"label-PHL-2511","properties":{"kind":"division-label","code":"PHL-2511","countryCode":"PHL","name":"Tawi-Tawi","localName":"Tawi-Tawi","labelEnglish":"Tawi-Tawi","labelLocal":"Tawi-Tawi","labelBoth":"Tawi-Tawi","type":"Province","iso":"PH-TAW","qid":"Q13893"},"geometry":{"type":"Point","coordinates":[119.835,4.80751]}},{"type":"Feature","id":"PHL-2519","properties":{"kind":"division","code":"PHL-2519","countryCode":"PHL","name":"Basilan","localName":"Basilan","labelEnglish":"Basilan","labelLocal":"Basilan","labelBoth":"Basilan","type":"Province","iso":"PH-BAS","qid":"Q13737"},"geometry":{"type":"Polygon","coordinates":[[[122.0492,6.7398],[121.8145,6.5929],[121.9623,6.4049],[122.3352,6.6033],[122.0492,6.7398]]]}},{"type":"Feature","id":"label-PHL-2519","properties":{"kind":"division-label","code":"PHL-2519","countryCode":"PHL","name":"Basilan","localName":"Basilan","labelEnglish":"Basilan","labelLocal":"Basilan","labelBoth":"Basilan","type":"Province","iso":"PH-BAS","qid":"Q13737"},"geometry":{"type":"Point","coordinates":[122.059,6.49955]}},{"type":"Feature","id":"PHL-2590","properties":{"kind":"division","code":"PHL-2590","countryCode":"PHL","name":"Camiguin","localName":"Camiguin","labelEnglish":"Camiguin","labelLocal":"Camiguin","labelBoth":"Camiguin","type":"Province","iso":"PH-CAM","qid":"Q13769"},"geometry":{"type":"Polygon","coordinates":[[[124.7842,9.1998],[124.6467,9.2189],[124.8013,9.0963],[124.7842,9.1998]]]}},{"type":"Feature","id":"label-PHL-2590","properties":{"kind":"division-label","code":"PHL-2590","countryCode":"PHL","name":"Camiguin","localName":"Camiguin","labelEnglish":"Camiguin","labelLocal":"Camiguin","labelBoth":"Camiguin","type":"Province","iso":"PH-CAM","qid":"Q13769"},"geometry":{"type":"Point","coordinates":[124.722,9.17353]}},{"type":"Feature","id":"PHL-2517","properties":{"kind":"division","code":"PHL-2517","countryCode":"PHL","name":"Siquijor","localName":"Siquijor","labelEnglish":"Siquijor","labelLocal":"Siquijor","labelBoth":"Siquijor","type":"Province","iso":"PH-SIG","qid":"Q13879"},"geometry":{"type":"Polygon","coordinates":[[[123.698,9.165],[123.6144,9.2893],[123.4746,9.1971],[123.698,9.165]]]}},{"type":"Feature","id":"label-PHL-2517","properties":{"kind":"division-label","code":"PHL-2517","countryCode":"PHL","name":"Siquijor","localName":"Siquijor","labelEnglish":"Siquijor","labelLocal":"Siquijor","labelBoth":"Siquijor","type":"Province","iso":"PH-SIG","qid":"Q13879"},"geometry":{"type":"Point","coordinates":[123.597,9.17807]}},{"type":"Feature","id":"PHL-2513","properties":{"kind":"division","code":"PHL-2513","countryCode":"PHL","name":"Bohol","localName":"Bohol","labelEnglish":"Bohol","labelLocal":"Bohol","labelBoth":"Bohol","type":"Province","iso":"PH-BOH","qid":"Q13752"},"geometry":{"type":"Polygon","coordinates":[[[124.5653,9.8708],[124.5886,10.0239],[124.1846,10.1445],[123.8091,9.8027],[123.8923,9.6321],[124.2942,9.6068],[124.5653,9.8708]]]}},{"type":"Feature","id":"label-PHL-2513","properties":{"kind":"division-label","code":"PHL-2513","countryCode":"PHL","name":"Bohol","localName":"Bohol","labelEnglish":"Bohol","labelLocal":"Bohol","labelBoth":"Bohol","type":"Province","iso":"PH-BOH","qid":"Q13752"},"geometry":{"type":"Point","coordinates":[124.248,9.84875]}},{"type":"Feature","id":"PHL-2530","properties":{"kind":"division","code":"PHL-2530","countryCode":"PHL","name":"Guimaras","localName":"Guimaras","labelEnglish":"Guimaras","labelLocal":"Guimaras","labelBoth":"Guimaras","type":"Province","iso":"PH-GUI","qid":"Q13810"},"geometry":{"type":"Polygon","coordinates":[[[122.7111,10.7347],[122.4824,10.5034],[122.6345,10.4442],[122.7111,10.7347]]]}},{"type":"Feature","id":"label-PHL-2530","properties":{"kind":"division-label","code":"PHL-2530","countryCode":"PHL","name":"Guimaras","localName":"Guimaras","labelEnglish":"Guimaras","labelLocal":"Guimaras","labelBoth":"Guimaras","type":"Province","iso":"PH-GUI","qid":"Q13810"},"geometry":{"type":"Point","coordinates":[122.61,10.5577]}},{"type":"Feature","id":"PHL-5525","properties":{"kind":"division","code":"PHL-5525","countryCode":"PHL","name":"Bacolod","localName":"Bacolod","labelEnglish":"Bacolod","labelLocal":"Bacolod","labelBoth":"Bacolod","type":"Highly Urbanized City","iso":"PH-BCD","qid":null},"geometry":{"type":"Polygon","coordinates":[[[122.9199,10.6183],[123.0678,10.6809],[122.9758,10.7424],[122.9199,10.6183]]]}},{"type":"Feature","id":"label-PHL-5525","properties":{"kind":"division-label","code":"PHL-5525","countryCode":"PHL","name":"Bacolod","localName":"Bacolod","labelEnglish":"Bacolod","labelLocal":"Bacolod","labelBoth":"Bacolod","type":"Highly Urbanized City","iso":"PH-BCD","qid":null},"geometry":{"type":"Point","coordinates":[122.986,10.6592]}},{"type":"Feature","id":"PHL-2518","properties":{"kind":"division","code":"PHL-2518","countryCode":"PHL","name":"Negros Occidental","localName":"Negros Occidental","labelEnglish":"Negros Occidental","labelLocal":"Negros Occidental","labelBoth":"Negros Occidental","type":"Province","iso":"PH-NEC","qid":"Q13862"},"geometry":{"type":"Polygon","coordinates":[[[122.5971,9.4376],[123.0126,9.9644],[123.1439,10.4218],[123.3657,10.3925],[123.5755,10.8256],[123.2136,10.9964],[122.9758,10.7424],[123.0678,10.6809],[122.9199,10.6183],[122.8239,10.5329],[122.8789,10.1181],[122.4746,9.9744],[122.3952,9.8366],[122.5971,9.4376]]]}},{"type":"Feature","id":"label-PHL-2518","properties":{"kind":"division-label","code":"PHL-2518","countryCode":"PHL","name":"Negros Occidental","localName":"Negros Occidental","labelEnglish":"Negros Occidental","labelLocal":"Negros Occidental","labelBoth":"Negros Occidental","type":"Province","iso":"PH-NEC","qid":"Q13862"},"geometry":{"type":"Point","coordinates":[122.985,10.4137]}},{"type":"Feature","id":"PHL-2516","properties":{"kind":"division","code":"PHL-2516","countryCode":"PHL","name":"Negros Oriental","localName":"Negros Oriental","labelEnglish":"Negros Oriental","labelLocal":"Negros Oriental","labelBoth":"Negros Oriental","type":"Province","iso":"PH-NER","qid":"Q13863"},"geometry":{"type":"Polygon","coordinates":[[[123.3657,10.3925],[123.1439,10.4218],[123.0126,9.9644],[122.5971,9.4376],[122.8694,9.3227],[123.0332,9.0353],[123.2302,9.1076],[123.3211,9.3432],[123.1354,9.6184],[123.1567,9.8676],[123.3657,10.3925]]]}},{"type":"Feature","id":"label-PHL-2516","properties":{"kind":"division-label","code":"PHL-2516","countryCode":"PHL","name":"Negros Oriental","localName":"Negros Oriental","labelEnglish":"Negros Oriental","labelLocal":"Negros Oriental","labelBoth":"Negros Oriental","type":"Province","iso":"PH-NER","qid":"Q13863"},"geometry":{"type":"Point","coordinates":[123.032,9.75662]}},{"type":"Feature","id":"PHL-5522","properties":{"kind":"division","code":"PHL-5522","countryCode":"PHL","name":"Cebu","localName":"Cebu","labelEnglish":"Cebu","labelLocal":"Cebu","labelBoth":"Cebu","type":"Highly Urbanized City","iso":"PH-CEB","qid":"Q13786"},"geometry":{"type":"Polygon","coordinates":[[[123.9344,10.3093],[123.9352,10.4011],[123.8687,10.2482],[123.9344,10.3093]]]}},{"type":"Feature","id":"label-PHL-5522","properties":{"kind":"division-label","code":"PHL-5522","countryCode":"PHL","name":"Cebu","localName":"Cebu","labelEnglish":"Cebu","labelLocal":"Cebu","labelBoth":"Cebu","type":"Highly Urbanized City","iso":"PH-CEB","qid":"Q13786"},"geometry":{"type":"Point","coordinates":[123.899,10.3024]}},{"type":"Feature","id":"PHL-5523","properties":{"kind":"division","code":"PHL-5523","countryCode":"PHL","name":"Mandaue","localName":"Mandaue","labelEnglish":"Mandaue","labelLocal":"Mandaue","labelBoth":"Mandaue","type":"Highly Urbanized City","iso":"PH-MDE","qid":null},"geometry":{"type":"Polygon","coordinates":[[[123.9797,10.3772],[123.9352,10.4011],[123.9344,10.3093],[123.9797,10.3772]]]}},{"type":"Feature","id":"label-PHL-5523","properties":{"kind":"division-label","code":"PHL-5523","countryCode":"PHL","name":"Mandaue","localName":"Mandaue","labelEnglish":"Mandaue","labelLocal":"Mandaue","labelBoth":"Mandaue","type":"Highly Urbanized City","iso":"PH-MDE","qid":null},"geometry":{"type":"Point","coordinates":[123.933,10.3358]}},{"type":"Feature","id":"PHL-2514","properties":{"kind":"division","code":"PHL-2514","countryCode":"PHL","name":"Cebu","localName":"Cebu","labelEnglish":"Cebu","labelLocal":"Cebu","labelBoth":"Cebu","type":"Province","iso":"PH-CEB","qid":null},"geometry":{"type":"Polygon","coordinates":[[[123.8687,10.2482],[123.9352,10.4011],[123.9797,10.3772],[124.0401,10.4844],[124.0747,11.2691],[123.7068,10.462],[123.4225,10.0375],[123.3143,9.5076],[123.4883,9.5665],[123.6433,10.039],[123.8687,10.2482]]]}},{"type":"Feature","id":"label-PHL-2514","properties":{"kind":"division-label","code":"PHL-2514","countryCode":"PHL","name":"Cebu","localName":"Cebu","labelEnglish":"Cebu","labelLocal":"Cebu","labelBoth":"Cebu","type":"Province","iso":"PH-CEB","qid":null},"geometry":{"type":"Point","coordinates":[123.695,10.269]}},{"type":"Feature","id":"PHL-5533","properties":{"kind":"division","code":"PHL-5533","countryCode":"PHL","name":"Puerto Princesa","localName":"Puerto Princesa","labelEnglish":"Puerto Princesa","labelLocal":"Puerto Princesa","labelBoth":"Puerto Princesa","type":"Highly Urbanized City","iso":"PH-PLW","qid":null},"geometry":{"type":"Polygon","coordinates":[[[118.3823,9.6578],[118.6388,9.5211],[118.7505,9.8875],[119.1963,10.0563],[118.9934,10.3003],[118.8223,10.1945],[118.3823,9.6578]]]}},{"type":"Feature","id":"label-PHL-5533","properties":{"kind":"division-label","code":"PHL-5533","countryCode":"PHL","name":"Puerto Princesa","localName":"Puerto Princesa","labelEnglish":"Puerto Princesa","labelLocal":"Puerto Princesa","labelBoth":"Puerto Princesa","type":"Highly Urbanized City","iso":"PH-PLW","qid":null},"geometry":{"type":"Point","coordinates":[118.673,9.89211]}},{"type":"Feature","id":"PHL-5535","properties":{"kind":"division","code":"PHL-5535","countryCode":"PHL","name":"Tacloban","localName":"Tacloban","labelEnglish":"Tacloban","labelLocal":"Tacloban","labelBoth":"Tacloban","type":"Highly Urbanized City","iso":"PH-LEY","qid":null},"geometry":{"type":"Polygon","coordinates":[[[124.9756,11.3344],[124.9327,11.2365],[125.0387,11.1979],[124.9756,11.3344]]]}},{"type":"Feature","id":"label-PHL-5535","properties":{"kind":"division-label","code":"PHL-5535","countryCode":"PHL","name":"Tacloban","localName":"Tacloban","labelEnglish":"Tacloban","labelLocal":"Tacloban","labelBoth":"Tacloban","type":"Highly Urbanized City","iso":"PH-LEY","qid":null},"geometry":{"type":"Point","coordinates":[124.98,11.2439]}},{"type":"Feature","id":"PHL-5534","properties":{"kind":"division","code":"PHL-5534","countryCode":"PHL","name":"Ormoc","localName":"Ormoc","labelEnglish":"Ormoc","labelLocal":"Ormoc","labelBoth":"Ormoc","type":"Independent Component City","iso":"PH-LEY","qid":null},"geometry":{"type":"Polygon","coordinates":[[[124.6223,11.002],[124.6042,11.1568],[124.4877,11.0659],[124.5496,10.9833],[124.6223,11.002]]]}},{"type":"Feature","id":"label-PHL-5534","properties":{"kind":"division-label","code":"PHL-5534","countryCode":"PHL","name":"Ormoc","localName":"Ormoc","labelEnglish":"Ormoc","labelLocal":"Ormoc","labelBoth":"Ormoc","type":"Independent Component City","iso":"PH-LEY","qid":null},"geometry":{"type":"Point","coordinates":[124.572,11.0197]}},{"type":"Feature","id":"PHL-2525","properties":{"kind":"division","code":"PHL-2525","countryCode":"PHL","name":"Aklan","localName":"Aklan","labelEnglish":"Aklan","labelLocal":"Aklan","labelBoth":"Aklan","type":"Province","iso":"PH-AKL","qid":"Q13723"},"geometry":{"type":"Polygon","coordinates":[[[121.8539,11.7694],[122.1637,11.7108],[122.1799,11.3212],[122.5922,11.5543],[121.9637,11.9339],[121.8539,11.7694]]]}},{"type":"Feature","id":"label-PHL-2525","properties":{"kind":"division-label","code":"PHL-2525","countryCode":"PHL","name":"Aklan","localName":"Aklan","labelEnglish":"Aklan","labelLocal":"Aklan","labelBoth":"Aklan","type":"Province","iso":"PH-AKL","qid":"Q13723"},"geometry":{"type":"Point","coordinates":[122.223,11.5611]}},{"type":"Feature","id":"PHL-2526","properties":{"kind":"division","code":"PHL-2526","countryCode":"PHL","name":"Antique","localName":"Antique","labelEnglish":"Antique","labelLocal":"Antique","labelBoth":"Antique","type":"Province","iso":"PH-ANT","qid":"Q13727"},"geometry":{"type":"Polygon","coordinates":[[[122.0332,10.4609],[122.0348,10.6371],[122.3309,11.0527],[122.2403,11.1568],[122.1799,11.3212],[122.1637,11.7108],[121.8539,11.7694],[122.1072,11.6579],[122.0451,11.0174],[121.937,10.7757],[122.0332,10.4609]]]}},{"type":"Feature","id":"label-PHL-2526","properties":{"kind":"division-label","code":"PHL-2526","countryCode":"PHL","name":"Antique","localName":"Antique","labelEnglish":"Antique","labelLocal":"Antique","labelBoth":"Antique","type":"Province","iso":"PH-ANT","qid":"Q13727"},"geometry":{"type":"Point","coordinates":[121.469,11.8476]}},{"type":"Feature","id":"PHL-2529","properties":{"kind":"division","code":"PHL-2529","countryCode":"PHL","name":"Iloilo","localName":"Iloilo","labelEnglish":"Iloilo","labelLocal":"Iloilo","labelBoth":"Iloilo","type":"Province","iso":"PH-ILI","qid":null},"geometry":{"type":"Polygon","coordinates":[[[122.4721,10.6871],[122.5328,10.7995],[122.6148,10.7615],[123.1314,11.1827],[123.0896,11.5297],[122.8624,11.1931],[122.5867,11.2361],[122.2403,11.1568],[122.3309,11.0527],[122.0348,10.6371],[122.0332,10.4609],[122.2266,10.6422],[122.4721,10.6871]]]}},{"type":"Feature","id":"label-PHL-2529","properties":{"kind":"division-label","code":"PHL-2529","countryCode":"PHL","name":"Iloilo","localName":"Iloilo","labelEnglish":"Iloilo","labelLocal":"Iloilo","labelBoth":"Iloilo","type":"Province","iso":"PH-ILI","qid":null},"geometry":{"type":"Point","coordinates":[122.59,10.9681]}},{"type":"Feature","id":"PHL-5526","properties":{"kind":"division","code":"PHL-5526","countryCode":"PHL","name":"Iloilo","localName":"Iloilo","labelEnglish":"Iloilo","labelLocal":"Iloilo","labelBoth":"Iloilo","type":"Highly Urbanized City","iso":"PH-ILI","qid":"Q13825"},"geometry":{"type":"Polygon","coordinates":[[[122.6148,10.7615],[122.5328,10.7995],[122.4721,10.6871],[122.6148,10.7615]]]}},{"type":"Feature","id":"label-PHL-5526","properties":{"kind":"division-label","code":"PHL-5526","countryCode":"PHL","name":"Iloilo","localName":"Iloilo","labelEnglish":"Iloilo","labelLocal":"Iloilo","labelBoth":"Iloilo","type":"Highly Urbanized City","iso":"PH-ILI","qid":"Q13825"},"geometry":{"type":"Point","coordinates":[122.541,10.7447]}},{"type":"Feature","id":"PHL-2528","properties":{"kind":"division","code":"PHL-2528","countryCode":"PHL","name":"Capiz","localName":"Capiz","labelEnglish":"Capiz","labelLocal":"Capiz","labelBoth":"Capiz","type":"Province","iso":"PH-CAP","qid":"Q13772"},"geometry":{"type":"Polygon","coordinates":[[[122.5922,11.5543],[122.1799,11.3212],[122.2403,11.1568],[122.5867,11.2361],[122.8624,11.1931],[123.0896,11.5297],[122.5922,11.5543]]]}},{"type":"Feature","id":"label-PHL-2528","properties":{"kind":"division-label","code":"PHL-2528","countryCode":"PHL","name":"Capiz","localName":"Capiz","labelEnglish":"Capiz","labelLocal":"Capiz","labelBoth":"Capiz","type":"Province","iso":"PH-CAP","qid":"Q13772"},"geometry":{"type":"Point","coordinates":[122.633,11.3673]}},{"type":"Feature","id":"PHL-2535","properties":{"kind":"division","code":"PHL-2535","countryCode":"PHL","name":"Romblon","localName":"Romblon","labelEnglish":"Romblon","labelLocal":"Romblon","labelBoth":"Romblon","type":"Province","iso":"PH-ROM","qid":"Q13875"},"geometry":{"type":"Polygon","coordinates":[[[122.1152,12.6663],[121.9207,12.3029],[122.0191,12.1561],[122.1152,12.6663]]]}},{"type":"Feature","id":"label-PHL-2535","properties":{"kind":"division-label","code":"PHL-2535","countryCode":"PHL","name":"Romblon","localName":"Romblon","labelEnglish":"Romblon","labelLocal":"Romblon","labelBoth":"Romblon","type":"Province","iso":"PH-ROM","qid":"Q13875"},"geometry":{"type":"Point","coordinates":[122.555,12.4045]}},{"type":"Feature","id":"PHL-2586","properties":{"kind":"division","code":"PHL-2586","countryCode":"PHL","name":"Northern Samar","localName":"Northern Samar","labelEnglish":"Northern Samar","labelLocal":"Northern Samar","labelBoth":"Northern Samar","type":"Province","iso":"PH-NSA","qid":"Q13864"},"geometry":{"type":"Polygon","coordinates":[[[124.3705,12.29],[124.6921,12.2296],[125.1618,12.3157],[125.316,12.3021],[125.1663,12.5781],[124.2762,12.5333],[124.3705,12.29]]]}},{"type":"Feature","id":"label-PHL-2586","properties":{"kind":"division-label","code":"PHL-2586","countryCode":"PHL","name":"Northern Samar","localName":"Northern Samar","labelEnglish":"Northern Samar","labelLocal":"Northern Samar","labelBoth":"Northern Samar","type":"Province","iso":"PH-NSA","qid":"Q13864"},"geometry":{"type":"Point","coordinates":[124.812,12.3786]}},{"type":"Feature","id":"PHL-2540","properties":{"kind":"division","code":"PHL-2540","countryCode":"PHL","name":"Masbate","localName":"Masbate","labelEnglish":"Masbate","labelLocal":"Masbate","labelBoth":"Masbate","type":"Province","iso":"PH-MAS","qid":"Q13847"},"geometry":{"type":"Polygon","coordinates":[[[124.0549,11.7998],[123.8823,12.2128],[123.2422,12.5954],[123.1814,11.9309],[123.4242,12.2008],[124.0549,11.7998]]]}},{"type":"Feature","id":"label-PHL-2540","properties":{"kind":"division-label","code":"PHL-2540","countryCode":"PHL","name":"Masbate","localName":"Masbate","labelEnglish":"Masbate","labelLocal":"Masbate","labelBoth":"Masbate","type":"Province","iso":"PH-MAS","qid":"Q13847"},"geometry":{"type":"Point","coordinates":[123.611,12.2276]}},{"type":"Feature","id":"PHL-2571","properties":{"kind":"division","code":"PHL-2571","countryCode":"PHL","name":"Oriental Mindoro","localName":"Oriental Mindoro","labelEnglish":"Oriental Mindoro","labelLocal":"Oriental Mindoro","labelBoth":"Oriental Mindoro","type":"Province","iso":"PH-MDR","qid":"Q13868"},"geometry":{"type":"Polygon","coordinates":[[[120.8934,13.5047],[120.7792,13.2551],[121.2475,13.0312],[121.2478,12.2199],[121.5464,12.6441],[121.5492,13.0906],[121.1971,13.4409],[120.8934,13.5047]]]}},{"type":"Feature","id":"label-PHL-2571","properties":{"kind":"division-label","code":"PHL-2571","countryCode":"PHL","name":"Oriental Mindoro","localName":"Oriental Mindoro","labelEnglish":"Oriental Mindoro","labelLocal":"Oriental Mindoro","labelBoth":"Oriental Mindoro","type":"Province","iso":"PH-MDR","qid":"Q13868"},"geometry":{"type":"Point","coordinates":[121.36,12.8526]}},{"type":"Feature","id":"PHL-2570","properties":{"kind":"division","code":"PHL-2570","countryCode":"PHL","name":"Occidental Mindoro","localName":"Occidental Mindoro","labelEnglish":"Occidental Mindoro","labelLocal":"Occidental Mindoro","labelBoth":"Occidental Mindoro","type":"Province","iso":"PH-MDC","qid":"Q13867"},"geometry":{"type":"Polygon","coordinates":[[[121.2478,12.2199],[121.2475,13.0312],[120.7792,13.2551],[120.8934,13.5047],[120.3566,13.5184],[120.7583,13.0024],[120.7979,12.7294],[121.1136,12.2513],[121.2478,12.2199]]]}},{"type":"Feature","id":"label-PHL-2570","properties":{"kind":"division-label","code":"PHL-2570","countryCode":"PHL","name":"Occidental Mindoro","localName":"Occidental Mindoro","labelEnglish":"Occidental Mindoro","labelLocal":"Occidental Mindoro","labelBoth":"Occidental Mindoro","type":"Province","iso":"PH-MDC","qid":"Q13867"},"geometry":{"type":"Point","coordinates":[121.085,12.6588]}},{"type":"Feature","id":"PHL-2569","properties":{"kind":"division","code":"PHL-2569","countryCode":"PHL","name":"Marinduque","localName":"Marinduque","labelEnglish":"Marinduque","labelLocal":"Marinduque","labelBoth":"Marinduque","type":"Province","iso":"PH-MAD","qid":"Q13846"},"geometry":{"type":"Polygon","coordinates":[[[122.1016,13.4167],[121.8731,13.5685],[121.8172,13.3419],[121.9932,13.2016],[122.1016,13.4167]]]}},{"type":"Feature","id":"label-PHL-2569","properties":{"kind":"division-label","code":"PHL-2569","countryCode":"PHL","name":"Marinduque","localName":"Marinduque","labelEnglish":"Marinduque","labelLocal":"Marinduque","labelBoth":"Marinduque","type":"Province","iso":"PH-MAD","qid":"Q13846"},"geometry":{"type":"Point","coordinates":[121.971,13.3717]}},{"type":"Feature","id":"PHL-2539","properties":{"kind":"division","code":"PHL-2539","countryCode":"PHL","name":"Catanduanes","localName":"Catanduanes","labelEnglish":"Catanduanes","labelLocal":"Catanduanes","labelBoth":"Catanduanes","type":"Province","iso":"PH-CAT","qid":"Q13778"},"geometry":{"type":"Polygon","coordinates":[[[124.418,13.873],[124.2009,14.0922],[124.0261,13.6696],[124.3333,13.5725],[124.418,13.873]]]}},{"type":"Feature","id":"label-PHL-2539","properties":{"kind":"division-label","code":"PHL-2539","countryCode":"PHL","name":"Catanduanes","localName":"Catanduanes","labelEnglish":"Catanduanes","labelLocal":"Catanduanes","labelBoth":"Catanduanes","type":"Province","iso":"PH-CAT","qid":"Q13778"},"geometry":{"type":"Point","coordinates":[124.222,13.8305]}},{"type":"Feature","id":"PHL-2543","properties":{"kind":"division","code":"PHL-2543","countryCode":"PHL","name":"Batanes","localName":"Batanes","labelEnglish":"Batanes","labelLocal":"Batanes","labelBoth":"Batanes","type":"Province","iso":"PH-BTN","qid":"Q13740"},"geometry":{"type":"Polygon","coordinates":[[[122.0098,20.4885],[121.9224,20.3933],[122.0265,20.4558],[122.0098,20.4885]]]}},{"type":"Feature","id":"label-PHL-2543","properties":{"kind":"division-label","code":"PHL-2543","countryCode":"PHL","name":"Batanes","localName":"Batanes","labelEnglish":"Batanes","labelLocal":"Batanes","labelBoth":"Batanes","type":"Province","iso":"PH-BTN","qid":"Q13740"},"geometry":{"type":"Point","coordinates":[121.951,21.1164]}},{"type":"Feature","id":"PHL-5524","properties":{"kind":"division","code":"PHL-5524","countryCode":"PHL","name":"Lapu-Lapu","localName":"Lapu-Lapu","labelEnglish":"Lapu-Lapu","labelLocal":"Lapu-Lapu","labelBoth":"Lapu-Lapu","type":"Highly Urbanized City","iso":"PH-LAP","qid":null},"geometry":{"type":"Polygon","coordinates":[[[123.9916,10.3243],[123.9332,10.2543],[124.0438,10.3243],[123.9916,10.3243]]]}},{"type":"Feature","id":"label-PHL-5524","properties":{"kind":"division-label","code":"PHL-5524","countryCode":"PHL","name":"Lapu-Lapu","localName":"Lapu-Lapu","labelEnglish":"Lapu-Lapu","labelLocal":"Lapu-Lapu","labelBoth":"Lapu-Lapu","type":"Highly Urbanized City","iso":"PH-LAP","qid":null},"geometry":{"type":"Point","coordinates":[123.959,10.2992]}},{"type":"Feature","id":"PHL-2588","properties":{"kind":"division","code":"PHL-2588","countryCode":"PHL","name":"Agusan del Sur","localName":"Agusan del Sur","labelEnglish":"Agusan del Sur","labelLocal":"Agusan del Sur","labelBoth":"Agusan del Sur","type":"Province","iso":"PH-AGS","qid":"Q13721"},"geometry":{"type":"Polygon","coordinates":[[[126.2912,7.9958],[126.2042,8.3587],[125.9982,8.5318],[126.024,8.6884],[125.8021,8.9667],[125.767,9.2124],[125.7096,9.0148],[125.6737,8.8009],[125.3207,8.5898],[125.3743,7.9978],[125.6754,7.9967],[126.183,7.995],[126.2912,7.9958]]]}},{"type":"Feature","id":"label-PHL-2588","properties":{"kind":"division-label","code":"PHL-2588","countryCode":"PHL","name":"Agusan del Sur","localName":"Agusan del Sur","labelEnglish":"Agusan del Sur","labelLocal":"Agusan del Sur","labelBoth":"Agusan del Sur","type":"Province","iso":"PH-AGS","qid":"Q13721"},"geometry":{"type":"Point","coordinates":[125.761,8.57934]}},{"type":"Feature","id":"PHL-2589","properties":{"kind":"division","code":"PHL-2589","countryCode":"PHL","name":"Bukidnon","localName":"Bukidnon","labelEnglish":"Bukidnon","labelLocal":"Bukidnon","labelBoth":"Bukidnon","type":"Province","iso":"PH-BUK","qid":"Q13753"},"geometry":{"type":"Polygon","coordinates":[[[125.3207,8.5898],[124.8256,8.5156],[124.5725,8.2372],[124.6297,8.0075],[124.8086,7.6111],[124.9825,7.3916],[125.266,7.5784],[125.2889,7.5958],[125.4441,7.7786],[125.3743,7.9978],[125.3207,8.5898]]]}},{"type":"Feature","id":"label-PHL-2589","properties":{"kind":"division-label","code":"PHL-2589","countryCode":"PHL","name":"Bukidnon","localName":"Bukidnon","labelEnglish":"Bukidnon","labelLocal":"Bukidnon","labelBoth":"Bukidnon","type":"Province","iso":"PH-BUK","qid":"Q13753"},"geometry":{"type":"Point","coordinates":[125.002,7.99493]}},{"type":"Feature","id":"PHL-2579","properties":{"kind":"division","code":"PHL-2579","countryCode":"PHL","name":"Cotabato","localName":"Cotabato","labelEnglish":"Cotabato","labelLocal":"Cotabato","labelBoth":"Cotabato","type":"Province","iso":"PH-NCO","qid":"Q13791"},"geometry":{"type":"Polygon","coordinates":[[[124.8086,7.6111],[124.4646,7.6696],[124.4927,7.4332],[124.3331,7.2009],[124.667,6.9504],[124.7223,7.201],[124.8965,6.7289],[125.1497,6.7822],[125.3028,7.0174],[125.2225,7.1833],[125.266,7.5784],[124.9825,7.3916],[124.8086,7.6111]]]}},{"type":"Feature","id":"label-PHL-2579","properties":{"kind":"division-label","code":"PHL-2579","countryCode":"PHL","name":"Cotabato","localName":"Cotabato","labelEnglish":"Cotabato","labelLocal":"Cotabato","labelBoth":"Cotabato","type":"Province","iso":"PH-NCO","qid":"Q13791"},"geometry":{"type":"Point","coordinates":[124.82,7.27167]}},{"type":"Feature","id":"PHL-2599","properties":{"kind":"division","code":"PHL-2599","countryCode":"PHL","name":"South Cotabato","localName":"South Cotabato","labelEnglish":"South Cotabato","labelLocal":"South Cotabato","labelBoth":"South Cotabato","type":"Province","iso":"PH-SCO","qid":"Q13882"},"geometry":{"type":"Polygon","coordinates":[[[125.1765,6.5633],[124.8302,6.5368],[124.634,6.6394],[124.6362,6.2901],[124.2493,6.2925],[124.3829,6.1622],[124.7894,6.0117],[125.0482,6.0049],[125.1374,6.3207],[125.1408,6.4349],[125.1765,6.5633]]]}},{"type":"Feature","id":"label-PHL-2599","properties":{"kind":"division-label","code":"PHL-2599","countryCode":"PHL","name":"South Cotabato","localName":"South Cotabato","labelEnglish":"South Cotabato","labelLocal":"South Cotabato","labelBoth":"South Cotabato","type":"Province","iso":"PH-SCO","qid":"Q13882"},"geometry":{"type":"Point","coordinates":[124.808,6.30746]}},{"type":"Feature","id":"PHL-5557","properties":{"kind":"division","code":"PHL-5557","countryCode":"PHL","name":"Muntinlupa","localName":"Muntinlupa","labelEnglish":"Muntinlupa","labelLocal":"Muntinlupa","labelBoth":"Muntinlupa","type":"Highly Urbanized City","iso":"PH-MNL","qid":null},"geometry":{"type":"Polygon","coordinates":[[[121.0148,14.3591],[121.1347,14.4541],[121.0559,14.4649],[121.033,14.4386],[121.0142,14.3971],[121.0148,14.3591]]]}},{"type":"Feature","id":"label-PHL-5557","properties":{"kind":"division-label","code":"PHL-5557","countryCode":"PHL","name":"Muntinlupa","localName":"Muntinlupa","labelEnglish":"Muntinlupa","labelLocal":"Muntinlupa","labelBoth":"Muntinlupa","type":"Highly Urbanized City","iso":"PH-MNL","qid":null},"geometry":{"type":"Point","coordinates":[121.053,14.4253]}},{"type":"Feature","id":"PHL-5545","properties":{"kind":"division","code":"PHL-5545","countryCode":"PHL","name":"Caloocan","localName":"Caloocan","labelEnglish":"Caloocan","labelLocal":"Caloocan","labelBoth":"Caloocan","type":"Highly Urbanized City","iso":"PH-MNL","qid":null},"geometry":{"type":"MultiPolygon","coordinates":[[[[121.1158,14.7528],[121.009,14.7395],[121.0256,14.6948],[121.1158,14.7528]]],[[[120.9687,14.6365],[120.9769,14.6283],[121.001,14.6274],[121.0356,14.6792],[121.0045,14.6645],[120.9687,14.6365]]]]}},{"type":"Feature","id":"label-PHL-5545","properties":{"kind":"division-label","code":"PHL-5545","countryCode":"PHL","name":"Caloocan","localName":"Caloocan","labelEnglish":"Caloocan","labelLocal":"Caloocan","labelBoth":"Caloocan","type":"Highly Urbanized City","iso":"PH-MNL","qid":null},"geometry":{"type":"Point","coordinates":[120.99,14.6402]}},{"type":"Feature","id":"PHL-5546","properties":{"kind":"division","code":"PHL-5546","countryCode":"PHL","name":"Malabon","localName":"Malabon","labelEnglish":"Malabon","labelLocal":"Malabon","labelBoth":"Malabon","type":"Highly Urbanized City","iso":"PH-MNL","qid":null},"geometry":{"type":"Polygon","coordinates":[[[120.934,14.6934],[120.9687,14.6365],[121.0045,14.6645],[120.9533,14.6889],[120.934,14.6934]]]}},{"type":"Feature","id":"label-PHL-5546","properties":{"kind":"division-label","code":"PHL-5546","countryCode":"PHL","name":"Malabon","localName":"Malabon","labelEnglish":"Malabon","labelLocal":"Malabon","labelBoth":"Malabon","type":"Highly Urbanized City","iso":"PH-MNL","qid":null},"geometry":{"type":"Point","coordinates":[120.964,14.6593]}},{"type":"Feature","id":"PHL-5547","properties":{"kind":"division","code":"PHL-5547","countryCode":"PHL","name":"Valenzuela City","localName":"Valenzuela City","labelEnglish":"Valenzuela City","labelLocal":"Valenzuela City","labelBoth":"Valenzuela City","type":"Highly Urbanized City","iso":"PH-MNL","qid":null},"geometry":{"type":"Polygon","coordinates":[[[121.009,14.7395],[120.9533,14.6889],[121.0045,14.6645],[121.0356,14.6792],[121.0256,14.6948],[121.009,14.7395]]]}},{"type":"Feature","id":"label-PHL-5547","properties":{"kind":"division-label","code":"PHL-5547","countryCode":"PHL","name":"Valenzuela City","localName":"Valenzuela City","labelEnglish":"Valenzuela City","labelLocal":"Valenzuela City","labelBoth":"Valenzuela City","type":"Highly Urbanized City","iso":"PH-MNL","qid":null},"geometry":{"type":"Point","coordinates":[120.991,14.6939]}},{"type":"Feature","id":"PHL-5549","properties":{"kind":"division","code":"PHL-5549","countryCode":"PHL","name":"Quezon City","localName":"Quezon City","labelEnglish":"Quezon City","labelLocal":"Quezon City","labelBoth":"Quezon City","type":"Highly Urbanized City","iso":"PH-MNL","qid":null},"geometry":{"type":"Polygon","coordinates":[[[121.1543,14.7584],[121.1158,14.7528],[121.0256,14.6948],[121.0356,14.6792],[121.001,14.6274],[121.03,14.5974],[121.0714,14.594],[121.0714,14.5836],[121.0921,14.6086],[121.1262,14.6635],[121.1543,14.7584]]]}},{"type":"Feature","id":"label-PHL-5549","properties":{"kind":"division-label","code":"PHL-5549","countryCode":"PHL","name":"Quezon City","localName":"Quezon City","labelEnglish":"Quezon City","labelLocal":"Quezon City","labelBoth":"Quezon City","type":"Highly Urbanized City","iso":"PH-MNL","qid":null},"geometry":{"type":"Point","coordinates":[121.067,14.6711]}},{"type":"Feature","id":"PHL-2557","properties":{"kind":"division","code":"PHL-2557","countryCode":"PHL","name":"Nueva Ecija","localName":"Nueva Ecija","labelEnglish":"Nueva Ecija","labelLocal":"Nueva Ecija","labelBoth":"Nueva Ecija","type":"Province","iso":"PH-NUE","qid":"Q13865"},"geometry":{"type":"Polygon","coordinates":[[[120.7763,15.2595],[120.9377,15.2207],[121.3026,15.1815],[121.3658,15.4354],[121.2673,15.7776],[121.1848,16.0498],[120.8865,16.1007],[120.8388,15.8047],[120.6273,15.8187],[120.7763,15.2595]]]}},{"type":"Feature","id":"label-PHL-2557","properties":{"kind":"division-label","code":"PHL-2557","countryCode":"PHL","name":"Nueva Ecija","localName":"Nueva Ecija","labelEnglish":"Nueva Ecija","labelLocal":"Nueva Ecija","labelBoth":"Nueva Ecija","type":"Province","iso":"PH-NUE","qid":"Q13865"},"geometry":{"type":"Point","coordinates":[120.998,15.6863]}},{"type":"Feature","id":"PHL-2566","properties":{"kind":"division","code":"PHL-2566","countryCode":"PHL","name":"Laguna","localName":"Laguna","labelEnglish":"Laguna","labelLocal":"Laguna","labelBoth":"Laguna","type":"Province","iso":"PH-LAG","qid":"Q13840"},"geometry":{"type":"Polygon","coordinates":[[[121.2645,13.9615],[121.5037,14.0745],[121.5903,14.3133],[121.4605,14.5715],[121.2265,14.3196],[121.1253,14.5249],[121.1347,14.4541],[121.0148,14.3591],[121.033,14.144],[121.2645,13.9615]]]}},{"type":"Feature","id":"label-PHL-2566","properties":{"kind":"division-label","code":"PHL-2566","countryCode":"PHL","name":"Laguna","localName":"Laguna","labelEnglish":"Laguna","labelLocal":"Laguna","labelBoth":"Laguna","type":"Province","iso":"PH-LAG","qid":"Q13840"},"geometry":{"type":"Point","coordinates":[121.307,14.146]}},{"type":"Feature","id":"PHL-2567","properties":{"kind":"division","code":"PHL-2567","countryCode":"PHL","name":"Rizal","localName":"Rizal","labelEnglish":"Rizal","labelLocal":"Rizal","labelBoth":"Rizal","type":"Province","iso":"PH-RIZ","qid":"Q13874"},"geometry":{"type":"Polygon","coordinates":[[[121.3421,14.8893],[121.1543,14.7584],[121.1262,14.6635],[121.1184,14.6091],[121.1253,14.5249],[121.2265,14.3196],[121.4605,14.5715],[121.3421,14.8893]]]}},{"type":"Feature","id":"label-PHL-2567","properties":{"kind":"division-label","code":"PHL-2567","countryCode":"PHL","name":"Rizal","localName":"Rizal","labelEnglish":"Rizal","labelLocal":"Rizal","labelBoth":"Rizal","type":"Province","iso":"PH-RIZ","qid":"Q13874"},"geometry":{"type":"Point","coordinates":[121.284,14.6809]}},{"type":"Feature","id":"PHL-5558","properties":{"kind":"division","code":"PHL-5558","countryCode":"PHL","name":"Taguig City","localName":"Taguig City","labelEnglish":"Taguig City","labelLocal":"Taguig City","labelBoth":"Taguig City","type":"Highly Urbanized City","iso":"PH-MNL","qid":null},"geometry":{"type":"Polygon","coordinates":[[[121.1253,14.5249],[121.0917,14.543],[121.0774,14.5348],[121.0321,14.5275],[121.0446,14.5072],[121.0559,14.4649],[121.1347,14.4541],[121.1253,14.5249]]]}},{"type":"Feature","id":"label-PHL-5558","properties":{"kind":"division-label","code":"PHL-5558","countryCode":"PHL","name":"Taguig City","localName":"Taguig City","labelEnglish":"Taguig City","labelLocal":"Taguig City","labelBoth":"Taguig City","type":"Highly Urbanized City","iso":"PH-MNL","qid":null},"geometry":{"type":"Point","coordinates":[121.062,14.518]}},{"type":"Feature","id":"PHL-5550","properties":{"kind":"division","code":"PHL-5550","countryCode":"PHL","name":"Marikina","localName":"Marikina","labelEnglish":"Marikina","labelLocal":"Marikina","labelBoth":"Marikina","type":"Highly Urbanized City","iso":"PH-MNL","qid":null},"geometry":{"type":"Polygon","coordinates":[[[121.1262,14.6635],[121.0921,14.6086],[121.1184,14.6091],[121.1262,14.6635]]]}},{"type":"Feature","id":"label-PHL-5550","properties":{"kind":"division-label","code":"PHL-5550","countryCode":"PHL","name":"Marikina","localName":"Marikina","labelEnglish":"Marikina","labelLocal":"Marikina","labelBoth":"Marikina","type":"Highly Urbanized City","iso":"PH-MNL","qid":null},"geometry":{"type":"Point","coordinates":[121.116,14.6291]}},{"type":"Feature","id":"PHL-5552","properties":{"kind":"division","code":"PHL-5552","countryCode":"PHL","name":"Pasig","localName":"Pasig","labelEnglish":"Pasig","labelLocal":"Pasig","labelBoth":"Pasig","type":"Highly Urbanized City","iso":"PH-MNL","qid":null},"geometry":{"type":"Polygon","coordinates":[[[121.1184,14.6091],[121.0921,14.6086],[121.0714,14.5836],[121.0645,14.5646],[121.0805,14.5478],[121.0917,14.543],[121.1253,14.5249],[121.1184,14.6091]]]}},{"type":"Feature","id":"label-PHL-5552","properties":{"kind":"division-label","code":"PHL-5552","countryCode":"PHL","name":"Pasig","localName":"Pasig","labelEnglish":"Pasig","labelLocal":"Pasig","labelBoth":"Pasig","type":"Highly Urbanized City","iso":"PH-MNL","qid":null},"geometry":{"type":"Point","coordinates":[121.1,14.568]}},{"type":"Feature","id":"PHL-2554","properties":{"kind":"division","code":"PHL-2554","countryCode":"PHL","name":"Quirino","localName":"Quirino","labelEnglish":"Quirino","labelLocal":"Quirino","labelBoth":"Quirino","type":"Province","iso":"PH-QUI","qid":"Q13873"},"geometry":{"type":"Polygon","coordinates":[[[122.0375,16.5076],[121.7658,16.397],[121.5699,16.6106],[121.488,16.6295],[121.3997,16.6512],[121.4113,16.334],[121.2876,16.2596],[121.4477,15.9243],[121.8724,16.2819],[122.0375,16.5076]]]}},{"type":"Feature","id":"label-PHL-2554","properties":{"kind":"division-label","code":"PHL-2554","countryCode":"PHL","name":"Quirino","localName":"Quirino","labelEnglish":"Quirino","labelLocal":"Quirino","labelBoth":"Quirino","type":"Province","iso":"PH-QUI","qid":"Q13873"},"geometry":{"type":"Point","coordinates":[121.663,16.2982]}},{"type":"Feature","id":"PHL-5537","properties":{"kind":"division","code":"PHL-5537","countryCode":"PHL","name":"Santiago","localName":"Santiago","labelEnglish":"Santiago","labelLocal":"Santiago","labelBoth":"Santiago","type":"Independent Component City","iso":"PH-ISA","qid":null},"geometry":{"type":"Polygon","coordinates":[[[121.5699,16.6106],[121.479,16.8307],[121.3354,16.7643],[121.3901,16.6943],[121.488,16.6295],[121.5699,16.6106]]]}},{"type":"Feature","id":"label-PHL-5537","properties":{"kind":"division-label","code":"PHL-5537","countryCode":"PHL","name":"Santiago","localName":"Santiago","labelEnglish":"Santiago","labelLocal":"Santiago","labelBoth":"Santiago","type":"Independent Component City","iso":"PH-ISA","qid":null},"geometry":{"type":"Point","coordinates":[121.511,16.7428]}},{"type":"Feature","id":"PHL-2553","properties":{"kind":"division","code":"PHL-2553","countryCode":"PHL","name":"Nueva Vizcaya","localName":"Nueva Vizcaya","labelEnglish":"Nueva Vizcaya","labelLocal":"Nueva Vizcaya","labelBoth":"Nueva Vizcaya","type":"Province","iso":"PH-NUV","qid":"Q13866"},"geometry":{"type":"Polygon","coordinates":[[[121.4477,15.9243],[121.2876,16.2596],[121.4113,16.334],[121.3997,16.6512],[121.3901,16.6943],[121.3354,16.7643],[120.9026,16.5974],[120.7566,16.2007],[120.8865,16.1007],[121.1848,16.0498],[121.2673,15.7776],[121.4477,15.9243]]]}},{"type":"Feature","id":"label-PHL-2553","properties":{"kind":"division-label","code":"PHL-2553","countryCode":"PHL","name":"Nueva Vizcaya","localName":"Nueva Vizcaya","labelEnglish":"Nueva Vizcaya","labelLocal":"Nueva Vizcaya","labelBoth":"Nueva Vizcaya","type":"Province","iso":"PH-NUV","qid":"Q13866"},"geometry":{"type":"Point","coordinates":[121.101,16.3729]}},{"type":"Feature","id":"PHL-2559","properties":{"kind":"division","code":"PHL-2559","countryCode":"PHL","name":"Benguet","localName":"Benguet","labelEnglish":"Benguet","labelLocal":"Benguet","labelBoth":"Benguet","type":"Province","iso":"PH-BEN","qid":"Q13750"},"geometry":{"type":"Polygon","coordinates":[[[120.526,16.2321],[120.7566,16.2007],[120.9026,16.5974],[120.8509,16.8463],[120.7735,16.921],[120.595,16.6526],[120.472,16.4638],[120.526,16.2321]],[[120.6526,16.3536],[120.5639,16.4346],[120.6448,16.432],[120.6526,16.3536]]]}},{"type":"Feature","id":"label-PHL-2559","properties":{"kind":"division-label","code":"PHL-2559","countryCode":"PHL","name":"Benguet","localName":"Benguet","labelEnglish":"Benguet","labelLocal":"Benguet","labelBoth":"Benguet","type":"Province","iso":"PH-BEN","qid":"Q13750"},"geometry":{"type":"Point","coordinates":[120.689,16.545]}},{"type":"Feature","id":"PHL-2551","properties":{"kind":"division","code":"PHL-2551","countryCode":"PHL","name":"Ifugao","localName":"Ifugao","labelEnglish":"Ifugao","labelLocal":"Ifugao","labelBoth":"Ifugao","type":"Province","iso":"PH-IFU","qid":"Q13812"},"geometry":{"type":"Polygon","coordinates":[[[121.5635,17.0866],[121.0988,17.0142],[120.8509,16.8463],[120.9026,16.5974],[121.3354,16.7643],[121.479,16.8307],[121.5635,17.0866]]]}},{"type":"Feature","id":"label-PHL-2551","properties":{"kind":"division-label","code":"PHL-2551","countryCode":"PHL","name":"Ifugao","localName":"Ifugao","labelEnglish":"Ifugao","labelLocal":"Ifugao","labelBoth":"Ifugao","type":"Province","iso":"PH-IFU","qid":"Q13812"},"geometry":{"type":"Point","coordinates":[121.214,16.8291]}},{"type":"Feature","id":"PHL-2552","properties":{"kind":"division","code":"PHL-2552","countryCode":"PHL","name":"Mountain","localName":"Mountain","labelEnglish":"Mountain","labelLocal":"Mountain","labelBoth":"Mountain","type":"Province","iso":"PH-MOU","qid":"Q13861"},"geometry":{"type":"Polygon","coordinates":[[[121.5706,17.2501],[121.1945,17.1681],[120.9148,17.2493],[120.8738,17.1821],[120.7735,16.921],[120.8509,16.8463],[121.0988,17.0142],[121.5635,17.0866],[121.5706,17.2501]]]}},{"type":"Feature","id":"label-PHL-2552","properties":{"kind":"division-label","code":"PHL-2552","countryCode":"PHL","name":"Mountain","localName":"Mountain","labelEnglish":"Mountain","labelLocal":"Mountain","labelBoth":"Mountain","type":"Province","iso":"PH-MOU","qid":"Q13861"},"geometry":{"type":"Point","coordinates":[121.172,17.0908]}},{"type":"Feature","id":"PHL-2556","properties":{"kind":"division","code":"PHL-2556","countryCode":"PHL","name":"Tarlac","localName":"Tarlac","labelEnglish":"Tarlac","labelLocal":"Tarlac","labelBoth":"Tarlac","type":"Province","iso":"PH-TAR","qid":"Q13892"},"geometry":{"type":"Polygon","coordinates":[[[120.3806,15.169],[120.7763,15.2595],[120.6273,15.8187],[120.247,15.614],[120.1438,15.4065],[120.3806,15.169]]]}},{"type":"Feature","id":"label-PHL-2556","properties":{"kind":"division-label","code":"PHL-2556","countryCode":"PHL","name":"Tarlac","localName":"Tarlac","labelEnglish":"Tarlac","labelLocal":"Tarlac","labelBoth":"Tarlac","type":"Province","iso":"PH-TAR","qid":"Q13892"},"geometry":{"type":"Point","coordinates":[120.463,15.4733]}},{"type":"Feature","id":"PHL-2546","properties":{"kind":"division","code":"PHL-2546","countryCode":"PHL","name":"Apayao","localName":"Apayao","labelEnglish":"Apayao","labelLocal":"Apayao","labelBoth":"Apayao","type":"Province","iso":"PH-APA","qid":"Q13728"},"geometry":{"type":"Polygon","coordinates":[[[120.9385,17.9671],[121.1268,17.6835],[121.4288,17.7176],[121.3184,17.8426],[121.457,18.3019],[121.0592,18.5317],[120.9571,18.4468],[120.9385,17.9671]]]}},{"type":"Feature","id":"label-PHL-2546","properties":{"kind":"division-label","code":"PHL-2546","countryCode":"PHL","name":"Apayao","localName":"Apayao","labelEnglish":"Apayao","labelLocal":"Apayao","labelBoth":"Apayao","type":"Province","iso":"PH-APA","qid":"Q13728"},"geometry":{"type":"Point","coordinates":[121.167,18.1179]}},{"type":"Feature","id":"PHL-4931","properties":{"kind":"division","code":"PHL-4931","countryCode":"PHL","name":"Kalinga","localName":"Kalinga","labelEnglish":"Kalinga","labelLocal":"Kalinga","labelBoth":"Kalinga","type":"Province","iso":"PH-KAL","qid":"Q13827"},"geometry":{"type":"Polygon","coordinates":[[[121.4288,17.7176],[121.1268,17.6835],[120.9148,17.2493],[121.1945,17.1681],[121.5706,17.2501],[121.6529,17.5182],[121.4288,17.7176]]]}},{"type":"Feature","id":"label-PHL-4931","properties":{"kind":"division-label","code":"PHL-4931","countryCode":"PHL","name":"Kalinga","localName":"Kalinga","labelEnglish":"Kalinga","labelLocal":"Kalinga","labelBoth":"Kalinga","type":"Province","iso":"PH-KAL","qid":"Q13827"},"geometry":{"type":"Point","coordinates":[121.322,17.4884]}},{"type":"Feature","id":"PHL-2542","properties":{"kind":"division","code":"PHL-2542","countryCode":"PHL","name":"Abra","localName":"Abra","labelEnglish":"Abra","labelLocal":"Abra","labelBoth":"Abra","type":"Province","iso":"PH-ABR","qid":"Q13711"},"geometry":{"type":"Polygon","coordinates":[[[120.9385,17.9671],[120.539,17.7037],[120.4672,17.4992],[120.7304,17.1557],[120.8738,17.1821],[120.9148,17.2493],[121.1268,17.6835],[120.9385,17.9671]]]}},{"type":"Feature","id":"label-PHL-2542","properties":{"kind":"division-label","code":"PHL-2542","countryCode":"PHL","name":"Abra","localName":"Abra","labelEnglish":"Abra","labelLocal":"Abra","labelBoth":"Abra","type":"Province","iso":"PH-ABR","qid":"Q13711"},"geometry":{"type":"Point","coordinates":[120.798,17.5665]}},{"type":"Feature","id":"PHL-5536","properties":{"kind":"division","code":"PHL-5536","countryCode":"PHL","name":"Naga","localName":"Naga","labelEnglish":"Naga","labelLocal":"Naga","labelBoth":"Naga","type":"Independent Component City","iso":"PH-CAS","qid":null},"geometry":{"type":"Polygon","coordinates":[[[123.2342,13.5686],[123.2934,13.6633],[123.1396,13.6199],[123.2342,13.5686]]]}},{"type":"Feature","id":"label-PHL-5536","properties":{"kind":"division-label","code":"PHL-5536","countryCode":"PHL","name":"Naga","localName":"Naga","labelEnglish":"Naga","labelLocal":"Naga","labelBoth":"Naga","type":"Independent Component City","iso":"PH-CAS","qid":null},"geometry":{"type":"Point","coordinates":[123.197,13.6153]}},{"type":"Feature","id":"PHL-5538","properties":{"kind":"division","code":"PHL-5538","countryCode":"PHL","name":"Angeles","localName":"Angeles","labelEnglish":"Angeles","labelLocal":"Angeles","labelBoth":"Angeles","type":"Highly Urbanized City","iso":"PH-PAM","qid":null},"geometry":{"type":"Polygon","coordinates":[[[120.5926,15.1032],[120.637,15.1789],[120.5117,15.145],[120.5926,15.1032]]]}},{"type":"Feature","id":"label-PHL-5538","properties":{"kind":"division-label","code":"PHL-5538","countryCode":"PHL","name":"Angeles","localName":"Angeles","labelEnglish":"Angeles","labelLocal":"Angeles","labelBoth":"Angeles","type":"Highly Urbanized City","iso":"PH-PAM","qid":null},"geometry":{"type":"Point","coordinates":[120.591,15.1453]}},{"type":"Feature","id":"PHL-5539","properties":{"kind":"division","code":"PHL-5539","countryCode":"PHL","name":"Baguio","localName":"Baguio","labelEnglish":"Baguio","labelLocal":"Baguio","labelBoth":"Baguio","type":"Highly Urbanized City","iso":"PH-BEN","qid":null},"geometry":{"type":"Polygon","coordinates":[[[120.6526,16.3536],[120.6448,16.432],[120.5639,16.4346],[120.6526,16.3536]]]}},{"type":"Feature","id":"label-PHL-5539","properties":{"kind":"division-label","code":"PHL-5539","countryCode":"PHL","name":"Baguio","localName":"Baguio","labelEnglish":"Baguio","labelLocal":"Baguio","labelBoth":"Baguio","type":"Highly Urbanized City","iso":"PH-BEN","qid":null},"geometry":{"type":"Point","coordinates":[120.605,16.4059]}},{"type":"Feature","id":"PHL-5553","properties":{"kind":"division","code":"PHL-5553","countryCode":"PHL","name":"Makati","localName":"Makati","labelEnglish":"Makati","labelLocal":"Makati","labelBoth":"Makati","type":"Highly Urbanized City","iso":"PH-MNL","qid":null},"geometry":{"type":"Polygon","coordinates":[[[121.0321,14.5275],[121.0774,14.5348],[121.0805,14.5478],[121.0645,14.5646],[121.0265,14.575],[121.0062,14.5577],[121.0321,14.5275]]]}},{"type":"Feature","id":"label-PHL-5553","properties":{"kind":"division-label","code":"PHL-5553","countryCode":"PHL","name":"Makati","localName":"Makati","labelEnglish":"Makati","labelLocal":"Makati","labelBoth":"Makati","type":"Highly Urbanized City","iso":"PH-MNL","qid":null},"geometry":{"type":"Point","coordinates":[121.035,14.5519]}},{"type":"Feature","id":"PHL-5559","properties":{"kind":"division","code":"PHL-5559","countryCode":"PHL","name":"Pateros","localName":"Pateros","labelEnglish":"Pateros","labelLocal":"Pateros","labelBoth":"Pateros","type":"Independent Municipality","iso":"PH-MNL","qid":null},"geometry":{"type":"Polygon","coordinates":[[[121.0774,14.5348],[121.0917,14.543],[121.0805,14.5478],[121.0774,14.5348]]]}},{"type":"Feature","id":"label-PHL-5559","properties":{"kind":"division-label","code":"PHL-5559","countryCode":"PHL","name":"Pateros","localName":"Pateros","labelEnglish":"Pateros","labelLocal":"Pateros","labelBoth":"Pateros","type":"Independent Municipality","iso":"PH-MNL","qid":null},"geometry":{"type":"Point","coordinates":[121.083,14.543]}},{"type":"Feature","id":"PHL-5542","properties":{"kind":"division","code":"PHL-5542","countryCode":"PHL","name":"Mandaluyong","localName":"Mandaluyong","labelEnglish":"Mandaluyong","labelLocal":"Mandaluyong","labelBoth":"Mandaluyong","type":"Province","iso":"PH-MNL","qid":null},"geometry":{"type":"Polygon","coordinates":[[[121.0265,14.575],[121.0645,14.5646],[121.0714,14.5836],[121.0714,14.594],[121.0373,14.5888],[121.0265,14.575]]]}},{"type":"Feature","id":"label-PHL-5542","properties":{"kind":"division-label","code":"PHL-5542","countryCode":"PHL","name":"Mandaluyong","localName":"Mandaluyong","labelEnglish":"Mandaluyong","labelLocal":"Mandaluyong","labelBoth":"Mandaluyong","type":"Province","iso":"PH-MNL","qid":null},"geometry":{"type":"Point","coordinates":[121.052,14.5766]}},{"type":"Feature","id":"PHL-5551","properties":{"kind":"division","code":"PHL-5551","countryCode":"PHL","name":"San Juan","localName":"San Juan","labelEnglish":"San Juan","labelLocal":"San Juan","labelBoth":"San Juan","type":"Highly Urbanized City","iso":"PH-MNL","qid":null},"geometry":{"type":"Polygon","coordinates":[[[121.0714,14.594],[121.03,14.5974],[121.0373,14.5888],[121.0714,14.594]]]}},{"type":"Feature","id":"label-PHL-5551","properties":{"kind":"division-label","code":"PHL-5551","countryCode":"PHL","name":"San Juan","localName":"San Juan","labelEnglish":"San Juan","labelLocal":"San Juan","labelBoth":"San Juan","type":"Highly Urbanized City","iso":"PH-MNL","qid":null},"geometry":{"type":"Point","coordinates":[121.044,14.5975]}}]}