{"type":"FeatureCollection","features":[{"type":"Feature","id":"PLW-5258","properties":{"kind":"division","code":"PLW-5258","countryCode":"PLW","name":"Peleliu","localName":"Peleliu","labelEnglish":"Peleliu","labelLocal":"Peleliu","labelBoth":"Peleliu","type":null,"iso":"PW-350","qid":"Q497981"},"geometry":{"type":"Polygon","coordinates":[[[134.2715,7.0745],[134.2344,6.9843],[134.285,7.0546],[134.2715,7.0745]]]}},{"type":"Feature","id":"label-PLW-5258","properties":{"kind":"division-label","code":"PLW-5258","countryCode":"PLW","name":"Peleliu","localName":"Peleliu","labelEnglish":"Peleliu","labelLocal":"Peleliu","labelBoth":"Peleliu","type":null,"iso":"PW-350","qid":"Q497981"},"geometry":{"type":"Point","coordinates":[134.259,7.02649]}},{"type":"Feature","id":"PLW-5249","properties":{"kind":"division","code":"PLW-5249","countryCode":"PLW","name":"Koror","localName":"Koror","labelEnglish":"Koror","labelLocal":"Koror","labelBoth":"Koror","type":null,"iso":"PW-150","qid":"Q189426"},"geometry":{"type":"Polygon","coordinates":[[[134.4639,7.2943],[134.3826,7.2379],[134.4639,7.2636],[134.4639,7.2943]]]}},{"type":"Feature","id":"label-PLW-5249","properties":{"kind":"division-label","code":"PLW-5249","countryCode":"PLW","name":"Koror","localName":"Koror","labelEnglish":"Koror","labelLocal":"Koror","labelBoth":"Koror","type":null,"iso":"PW-150","qid":"Q189426"},"geometry":{"type":"Point","coordinates":[134.446,7.26579]}},{"type":"Feature","id":"PLW-5256","properties":{"kind":"division","code":"PLW-5256","countryCode":"PLW","name":"Ngeremlengui","localName":"Ngeremlengui","labelEnglish":"Ngeremlengui","labelLocal":"Ngeremlengui","labelBoth":"Ngeremlengui","type":null,"iso":"PW-227","qid":"Q975076"},"geometry":{"type":"Polygon","coordinates":[[[134.5283,7.5161],[134.5807,7.474],[134.5947,7.5123],[134.6078,7.5422],[134.6199,7.573],[134.5471,7.5804],[134.5283,7.5161]]]}},{"type":"Feature","id":"label-PLW-5256","properties":{"kind":"division-label","code":"PLW-5256","countryCode":"PLW","name":"Ngeremlengui","localName":"Ngeremlengui","labelEnglish":"Ngeremlengui","labelLocal":"Ngeremlengui","labelBoth":"Ngeremlengui","type":null,"iso":"PW-227","qid":"Q975076"},"geometry":{"type":"Point","coordinates":[134.575,7.53794]}},{"type":"Feature","id":"PLW-5254","properties":{"kind":"division","code":"PLW-5254","countryCode":"PLW","name":"Ngatpang","localName":"Ngatpang","labelEnglish":"Ngatpang","labelLocal":"Ngatpang","labelBoth":"Ngatpang","type":null,"iso":"PW-224","qid":"Q430385"},"geometry":{"type":"Polygon","coordinates":[[[134.4876,7.4699],[134.5657,7.432],[134.5807,7.474],[134.5283,7.5161],[134.4876,7.4699]]]}},{"type":"Feature","id":"label-PLW-5254","properties":{"kind":"division-label","code":"PLW-5254","countryCode":"PLW","name":"Ngatpang","localName":"Ngatpang","labelEnglish":"Ngatpang","labelLocal":"Ngatpang","labelBoth":"Ngatpang","type":null,"iso":"PW-224","qid":"Q430385"},"geometry":{"type":"Point","coordinates":[134.552,7.47929]}},{"type":"Feature","id":"PLW-5244","properties":{"kind":"division","code":"PLW-5244","countryCode":"PLW","name":"Aimeliik","localName":"Aimeliik","labelEnglish":"Aimeliik","labelLocal":"Aimeliik","labelBoth":"Aimeliik","type":null,"iso":"PW-002","qid":"Q405589"},"geometry":{"type":"Polygon","coordinates":[[[134.5105,7.4042],[134.5657,7.432],[134.4876,7.4699],[134.5105,7.4042]]]}},{"type":"Feature","id":"label-PLW-5244","properties":{"kind":"division-label","code":"PLW-5244","countryCode":"PLW","name":"Aimeliik","localName":"Aimeliik","labelEnglish":"Aimeliik","labelLocal":"Aimeliik","labelBoth":"Aimeliik","type":null,"iso":"PW-002","qid":"Q405589"},"geometry":{"type":"Point","coordinates":[134.533,7.43236]}},{"type":"Feature","id":"PLW-5245","properties":{"kind":"division","code":"PLW-5245","countryCode":"PLW","name":"Airai","localName":"Airai","labelEnglish":"Airai","labelLocal":"Airai","labelBoth":"Airai","type":null,"iso":"PW-004","qid":"Q407967"},"geometry":{"type":"Polygon","coordinates":[[[134.5942,7.4211],[134.5657,7.432],[134.5105,7.4042],[134.5942,7.4211]]]}},{"type":"Feature","id":"label-PLW-5245","properties":{"kind":"division-label","code":"PLW-5245","countryCode":"PLW","name":"Airai","localName":"Airai","labelEnglish":"Airai","labelLocal":"Airai","labelBoth":"Airai","type":null,"iso":"PW-004","qid":"Q407967"},"geometry":{"type":"Point","coordinates":[134.571,7.39952]}},{"type":"Feature","id":"PLW-5255","properties":{"kind":"division","code":"PLW-5255","countryCode":"PLW","name":"Ngchesar","localName":"Ngchesar","labelEnglish":"Ngchesar","labelLocal":"Ngchesar","labelBoth":"Ngchesar","type":null,"iso":"PW-226","qid":"Q1070180"},"geometry":{"type":"Polygon","coordinates":[[[134.6282,7.489],[134.5947,7.5123],[134.5807,7.474],[134.5657,7.432],[134.5942,7.4211],[134.6282,7.489]]]}},{"type":"Feature","id":"label-PLW-5255","properties":{"kind":"division-label","code":"PLW-5255","countryCode":"PLW","name":"Ngchesar","localName":"Ngchesar","labelEnglish":"Ngchesar","labelLocal":"Ngchesar","labelBoth":"Ngchesar","type":null,"iso":"PW-226","qid":"Q1070180"},"geometry":{"type":"Point","coordinates":[134.597,7.46286]}},{"type":"Feature","id":"PLW-5250","properties":{"kind":"division","code":"PLW-5250","countryCode":"PLW","name":"Melekeok","localName":"Melekeok","labelEnglish":"Melekeok","labelLocal":"Melekeok","labelBoth":"Melekeok","type":null,"iso":"PW-212","qid":"Q12898552"},"geometry":{"type":"Polygon","coordinates":[[[134.6257,7.5305],[134.6078,7.5422],[134.5947,7.5123],[134.6282,7.489],[134.6257,7.5305]]]}},{"type":"Feature","id":"label-PLW-5250","properties":{"kind":"division-label","code":"PLW-5250","countryCode":"PLW","name":"Melekeok","localName":"Melekeok","labelEnglish":"Melekeok","labelLocal":"Melekeok","labelBoth":"Melekeok","type":null,"iso":"PW-212","qid":"Q12898552"},"geometry":{"type":"Point","coordinates":[134.613,7.51682]}},{"type":"Feature","id":"PLW-5257","properties":{"kind":"division","code":"PLW-5257","countryCode":"PLW","name":"Ngiwal","localName":"Ngiwal","labelEnglish":"Ngiwal","labelLocal":"Ngiwal","labelBoth":"Ngiwal","type":null,"iso":"PW-228","qid":"Q1154101"},"geometry":{"type":"Polygon","coordinates":[[[134.6582,7.5911],[134.6236,7.6001],[134.6199,7.573],[134.6078,7.5422],[134.6257,7.5305],[134.6582,7.5911]]]}},{"type":"Feature","id":"label-PLW-5257","properties":{"kind":"division-label","code":"PLW-5257","countryCode":"PLW","name":"Ngiwal","localName":"Ngiwal","labelEnglish":"Ngiwal","labelLocal":"Ngiwal","labelBoth":"Ngiwal","type":null,"iso":"PW-228","qid":"Q1154101"},"geometry":{"type":"Point","coordinates":[134.636,7.57313]}},{"type":"Feature","id":"PLW-5251","properties":{"kind":"division","code":"PLW-5251","countryCode":"PLW","name":"Ngaraard","localName":"Ngaraard","labelEnglish":"Ngaraard","labelLocal":"Ngaraard","labelBoth":"Ngaraard","type":null,"iso":"PW-214","qid":"Q1154127"},"geometry":{"type":"Polygon","coordinates":[[[134.6602,7.686],[134.6351,7.6841],[134.6229,7.6259],[134.6236,7.6001],[134.6582,7.5911],[134.6602,7.686]]]}},{"type":"Feature","id":"label-PLW-5251","properties":{"kind":"division-label","code":"PLW-5251","countryCode":"PLW","name":"Ngaraard","localName":"Ngaraard","labelEnglish":"Ngaraard","labelLocal":"Ngaraard","labelBoth":"Ngaraard","type":null,"iso":"PW-214","qid":"Q1154127"},"geometry":{"type":"Point","coordinates":[134.65,7.65055]}},{"type":"Feature","id":"PLW-5252","properties":{"kind":"division","code":"PLW-5252","countryCode":"PLW","name":"Ngarchelong","localName":"Ngarchelong","labelEnglish":"Ngarchelong","labelLocal":"Ngarchelong","labelBoth":"Ngarchelong","type":null,"iso":"PW-218","qid":"Q1070185"},"geometry":{"type":"Polygon","coordinates":[[[134.6351,7.6841],[134.6602,7.686],[134.6253,7.7341],[134.6351,7.6841]]]}},{"type":"Feature","id":"label-PLW-5252","properties":{"kind":"division-label","code":"PLW-5252","countryCode":"PLW","name":"Ngarchelong","localName":"Ngarchelong","labelEnglish":"Ngarchelong","labelLocal":"Ngarchelong","labelBoth":"Ngarchelong","type":null,"iso":"PW-218","qid":"Q1070185"},"geometry":{"type":"Point","coordinates":[134.641,7.70686]}},{"type":"Feature","id":"PLW-5253","properties":{"kind":"division","code":"PLW-5253","countryCode":"PLW","name":"Ngardmau","localName":"Ngardmau","labelEnglish":"Ngardmau","labelLocal":"Ngardmau","labelBoth":"Ngardmau","type":null,"iso":"PW-222","qid":"Q1144496"},"geometry":{"type":"Polygon","coordinates":[[[134.5471,7.5804],[134.6199,7.573],[134.6236,7.6001],[134.6229,7.6259],[134.5471,7.5804]]]}},{"type":"Feature","id":"label-PLW-5253","properties":{"kind":"division-label","code":"PLW-5253","countryCode":"PLW","name":"Ngardmau","localName":"Ngardmau","labelEnglish":"Ngardmau","labelLocal":"Ngardmau","labelBoth":"Ngardmau","type":null,"iso":"PW-222","qid":"Q1144496"},"geometry":{"type":"Point","coordinates":[134.597,7.60128]}},{"type":"Feature","id":"PLW-5247","properties":{"kind":"division","code":"PLW-5247","countryCode":"PLW","name":"Hatohobei","localName":"Hatohobei","labelEnglish":"Hatohobei","labelLocal":"Hatohobei","labelBoth":"Hatohobei","type":null,"iso":"PW-050","qid":"Q3516752"},"geometry":{"type":"Polygon","coordinates":[[[131.1421,3.0473],[131.1384,3.0189],[131.1804,3.0333],[131.1421,3.0473]]]}},{"type":"Feature","id":"label-PLW-5247","properties":{"kind":"division-label","code":"PLW-5247","countryCode":"PLW","name":"Hatohobei","localName":"Hatohobei","labelEnglish":"Hatohobei","labelLocal":"Hatohobei","labelBoth":"Hatohobei","type":null,"iso":"PW-050","qid":"Q3516752"},"geometry":{"type":"Point","coordinates":[131.794,2.96318]}},{"type":"Feature","id":"PLW-5259","properties":{"kind":"division","code":"PLW-5259","countryCode":"PLW","name":"Sonsorol","localName":"Sonsorol","labelEnglish":"Sonsorol","labelLocal":"Sonsorol","labelBoth":"Sonsorol","type":null,"iso":"PW-370","qid":"Q866699"},"geometry":{"type":"Polygon","coordinates":[[[132.2204,5.2922],[132.2267,5.3043],[132.2139,5.3071],[132.2204,5.2922]]]}},{"type":"Feature","id":"label-PLW-5259","properties":{"kind":"division-label","code":"PLW-5259","countryCode":"PLW","name":"Sonsorol","localName":"Sonsorol","labelEnglish":"Sonsorol","labelLocal":"Sonsorol","labelBoth":"Sonsorol","type":null,"iso":"PW-370","qid":"Q866699"},"geometry":{"type":"Point","coordinates":[132.204,5.28876]}},{"type":"Feature","id":"PLW-5246","properties":{"kind":"division","code":"PLW-5246","countryCode":"PLW","name":"Angaur","localName":"Angaur","labelEnglish":"Angaur","labelLocal":"Angaur","labelBoth":"Angaur","type":null,"iso":"PW-010","qid":"Q530813"},"geometry":{"type":"Polygon","coordinates":[[[134.1597,6.8845],[134.1732,6.9249],[134.1397,6.9343],[134.1597,6.8845]]]}},{"type":"Feature","id":"label-PLW-5246","properties":{"kind":"division-label","code":"PLW-5246","countryCode":"PLW","name":"Angaur","localName":"Angaur","labelEnglish":"Angaur","labelLocal":"Angaur","labelBoth":"Angaur","type":null,"iso":"PW-010","qid":"Q530813"},"geometry":{"type":"Point","coordinates":[134.158,6.91388]}},{"type":"Feature","id":"PLW-5248","properties":{"kind":"division","code":"PLW-5248","countryCode":"PLW","name":"Kayangel","localName":"Kayangel","labelEnglish":"Kayangel","labelLocal":"Kayangel","labelBoth":"Kayangel","type":null,"iso":"PW-100","qid":"Q871222"},"geometry":{"type":"Polygon","coordinates":[[[134.7097,8.0966],[134.7012,8.0502],[134.7273,8.0829],[134.7097,8.0966]]]}},{"type":"Feature","id":"label-PLW-5248","properties":{"kind":"division-label","code":"PLW-5248","countryCode":"PLW","name":"Kayangel","localName":"Kayangel","labelEnglish":"Kayangel","labelLocal":"Kayangel","labelBoth":"Kayangel","type":null,"iso":"PW-100","qid":"Q871222"},"geometry":{"type":"Point","coordinates":[134.711,8.0705]}}]}