{"type":"FeatureCollection","features":[{"type":"Feature","id":"PNG-1241","properties":{"kind":"division","code":"PNG-1241","countryCode":"PNG","name":"Sandaun","localName":"Sandaun","labelEnglish":"Sandaun","labelLocal":"Sandaun","labelBoth":"Sandaun","type":"Province","iso":"PG-SAN","qid":"Q753689"},"geometry":{"type":"Polygon","coordinates":[[[140.9769,-4.9885],[142.2089,-5.4069],[142.3572,-5.1629],[142.3236,-4.9678],[142.1962,-4.6183],[141.3678,-4.588],[141.3643,-4.2589],[141.7156,-4.0216],[141.7907,-4.0873],[142.5127,-4.0621],[142.6388,-3.8266],[142.6026,-3.5555],[142.7561,-3.41],[142.9972,-3.5139],[143.0851,-3.3531],[142.0628,-3.0602],[142,-2.956],[141.2962,-2.6764],[140.9745,-2.6005],[140.9769,-4.9885]]]}},{"type":"Feature","id":"label-PNG-1241","properties":{"kind":"division-label","code":"PNG-1241","countryCode":"PNG","name":"Sandaun","localName":"Sandaun","labelEnglish":"Sandaun","labelLocal":"Sandaun","labelBoth":"Sandaun","type":"Province","iso":"PG-SAN","qid":"Q753689"},"geometry":{"type":"Point","coordinates":[141.741,-3.45778]}},{"type":"Feature","id":"PNG-1248","properties":{"kind":"division","code":"PNG-1248","countryCode":"PNG","name":"Western","localName":"Western","labelEnglish":"Western","labelLocal":"Western","labelBoth":"Western","type":"Province","iso":"PG-WPD","qid":"Q849790"},"geometry":{"type":"Polygon","coordinates":[[[140.9769,-4.9885],[140.9769,-6.3351],[140.8492,-6.7028],[140.9772,-6.8966],[140.977,-9.1061],[141.115,-9.2184],[141.4217,-9.1503],[141.8684,-9.2204],[142.2234,-9.1612],[142.6526,-9.3303],[143.4055,-8.9622],[143.3999,-8.7822],[142.9805,-8.3356],[143.5921,-8.242],[143.548,-8.0317],[143.9429,-7.9916],[143.0023,-7.0382],[142.9987,-6.837],[142.6802,-6.8093],[142.6495,-5.992],[142.2007,-5.5311],[142.2089,-5.4069],[140.9769,-4.9885]]]}},{"type":"Feature","id":"label-PNG-1248","properties":{"kind":"division-label","code":"PNG-1248","countryCode":"PNG","name":"Western","localName":"Western","labelEnglish":"Western","labelLocal":"Western","labelBoth":"Western","type":"Province","iso":"PG-WPD","qid":"Q849790"},"geometry":{"type":"Point","coordinates":[142.01,-7.48919]}},{"type":"Feature","id":"PNG-1239","properties":{"kind":"division","code":"PNG-1239","countryCode":"PNG","name":"East Sepik","localName":"East Sepik","labelEnglish":"East Sepik","labelLocal":"East Sepik","labelBoth":"East Sepik","type":"Province","iso":"PG-ESW","qid":"Q690880"},"geometry":{"type":"Polygon","coordinates":[[[143.0851,-3.3531],[142.9972,-3.5139],[142.7561,-3.41],[142.6026,-3.5555],[142.6388,-3.8266],[142.5127,-4.0621],[141.7907,-4.0873],[141.7156,-4.0216],[141.3643,-4.2589],[141.3678,-4.588],[142.1962,-4.6183],[142.3236,-4.9678],[142.7632,-5.0197],[143.1821,-5.044],[143.9686,-4.9807],[144.4456,-4.6689],[144.5635,-4.4802],[144.5817,-3.9958],[144.5134,-3.8176],[143.9959,-3.7931],[143.4779,-3.4206],[143.0851,-3.3531]]]}},{"type":"Feature","id":"label-PNG-1239","properties":{"kind":"division-label","code":"PNG-1239","countryCode":"PNG","name":"East Sepik","localName":"East Sepik","labelEnglish":"East Sepik","labelLocal":"East Sepik","labelBoth":"East Sepik","type":"Province","iso":"PG-ESW","qid":"Q690880"},"geometry":{"type":"Point","coordinates":[143.391,-4.25081]}},{"type":"Feature","id":"PNG-1240","properties":{"kind":"division","code":"PNG-1240","countryCode":"PNG","name":"Madang","localName":"Madang","labelEnglish":"Madang","labelLocal":"Madang","labelBoth":"Madang","type":"Province","iso":"PG-MPM","qid":"Q326254"},"geometry":{"type":"Polygon","coordinates":[[[144.5817,-3.9958],[144.5635,-4.4802],[144.4456,-4.6689],[143.9686,-4.9807],[144.2472,-5.2627],[144.5045,-5.2998],[145.038,-5.7877],[145.1664,-5.8745],[145.8679,-5.9963],[146.4803,-5.9988],[146.7934,-5.8162],[146.4609,-5.5993],[145.7274,-5.4225],[145.8119,-4.861],[145.3457,-4.3902],[145.051,-4.3419],[144.8678,-4.0992],[144.5817,-3.9958]]]}},{"type":"Feature","id":"label-PNG-1240","properties":{"kind":"division-label","code":"PNG-1240","countryCode":"PNG","name":"Madang","localName":"Madang","labelEnglish":"Madang","labelLocal":"Madang","labelBoth":"Madang","type":"Province","iso":"PG-MPM","qid":"Q326254"},"geometry":{"type":"Point","coordinates":[145.086,-5.08973]}},{"type":"Feature","id":"PNG-1253","properties":{"kind":"division","code":"PNG-1253","countryCode":"PNG","name":"Morobe","localName":"Morobe","labelEnglish":"Morobe","labelLocal":"Morobe","labelBoth":"Morobe","type":"Province","iso":"PG-MPL","qid":"Q853664"},"geometry":{"type":"MultiPolygon","coordinates":[[[[146.7934,-5.8162],[146.4803,-5.9988],[145.8679,-5.9963],[146.1287,-6.2491],[146.0153,-6.8838],[145.8463,-7.2368],[146.0955,-7.5364],[146.6256,-7.7712],[146.7421,-7.9587],[146.9918,-8.0002],[147.9774,-8.0041],[147.7268,-7.9321],[147.3545,-7.5153],[147.1885,-7.4626],[146.9562,-6.9547],[146.9773,-6.7404],[147.854,-6.691],[147.8267,-6.3354],[147.4491,-5.9616],[147.0422,-5.9387],[146.7934,-5.8162]]],[[[148.0492,-5.6061],[147.8472,-5.4864],[147.7691,-5.6117],[148.0389,-5.822],[148.0492,-5.6061]]]]}},{"type":"Feature","id":"label-PNG-1253","properties":{"kind":"division-label","code":"PNG-1253","countryCode":"PNG","name":"Morobe","localName":"Morobe","labelEnglish":"Morobe","labelLocal":"Morobe","labelBoth":"Morobe","type":"Province","iso":"PG-MPL","qid":"Q853664"},"geometry":{"type":"Point","coordinates":[146.83,-6.3992]}},{"type":"Feature","id":"PNG-1256","properties":{"kind":"division","code":"PNG-1256","countryCode":"PNG","name":"Oro","localName":"Oro","labelEnglish":"Oro","labelLocal":"Oro","labelBoth":"Oro","type":"Province","iso":"PG-NPP","qid":"Q753686"},"geometry":{"type":"Polygon","coordinates":[[[147.9774,-8.0041],[146.9918,-8.0002],[147.6188,-8.5616],[147.5059,-8.8487],[148.2975,-9.7473],[148.8205,-9.9601],[148.9563,-9.7855],[149.4614,-9.5941],[149.1829,-9.3681],[149.3373,-9.1249],[149.1419,-8.9745],[148.7583,-9.1037],[148.5593,-9.0325],[148.4368,-8.6662],[148.2376,-8.5693],[148.114,-8.0554],[147.9774,-8.0041]]]}},{"type":"Feature","id":"label-PNG-1256","properties":{"kind":"division-label","code":"PNG-1256","countryCode":"PNG","name":"Oro","localName":"Oro","labelEnglish":"Oro","labelLocal":"Oro","labelBoth":"Oro","type":"Province","iso":"PG-NPP","qid":"Q753686"},"geometry":{"type":"Point","coordinates":[148.227,-9.11432]}},{"type":"Feature","id":"PNG-1252","properties":{"kind":"division","code":"PNG-1252","countryCode":"PNG","name":"Milne Bay","localName":"Milne Bay","labelEnglish":"Milne Bay","labelLocal":"Milne Bay","labelBoth":"Milne Bay","type":"Province","iso":"PG-MBA","qid":"Q874962"},"geometry":{"type":"MultiPolygon","coordinates":[[[[149.4614,-9.5941],[148.9563,-9.7855],[149.2671,-9.8381],[149.6536,-10.0905],[149.6783,-10.3365],[150.0816,-10.4611],[149.896,-10.5436],[150.2113,-10.7013],[150.6929,-10.5567],[150.3469,-10.3653],[150.6017,-10.2067],[149.9395,-10.0624],[149.731,-9.8093],[150.0122,-9.6422],[149.4614,-9.5941]]],[[[153.7616,-11.5859],[153.2056,-11.3171],[153.5645,-11.6363],[153.7616,-11.5859]]],[[[151.177,-9.9547],[151.1276,-10.0422],[150.7639,-9.7028],[150.958,-10.1049],[151.2323,-10.2005],[151.177,-9.9547]]],[[[150.801,-9.6524],[150.7595,-9.3992],[150.5055,-9.3377],[150.4336,-9.6313],[150.801,-9.6524]]],[[[150.3689,-9.3718],[150.2145,-9.2058],[150.1082,-9.361],[150.3377,-9.5197],[150.3689,-9.3718]]],[[[152.9955,-9.1413],[152.7942,-9.0035],[152.5179,-8.9964],[152.8116,-9.2547],[152.9955,-9.1413]]]]}},{"type":"Feature","id":"label-PNG-1252","properties":{"kind":"division-label","code":"PNG-1252","countryCode":"PNG","name":"Milne Bay","localName":"Milne Bay","labelEnglish":"Milne Bay","labelLocal":"Milne Bay","labelBoth":"Milne Bay","type":"Province","iso":"PG-MBA","qid":"Q874962"},"geometry":{"type":"Point","coordinates":[153.487,-11.581]}},{"type":"Feature","id":"PNG-1249","properties":{"kind":"division","code":"PNG-1249","countryCode":"PNG","name":"Central","localName":"Central","labelEnglish":"Central","labelLocal":"Central","labelBoth":"Central","type":"Province","iso":"PG-CPM","qid":"Q874942"},"geometry":{"type":"Polygon","coordinates":[[[149.6783,-10.3365],[149.6536,-10.0905],[149.2671,-9.8381],[148.9563,-9.7855],[148.8205,-9.9601],[148.2975,-9.7473],[147.5059,-8.8487],[147.6188,-8.5616],[146.9918,-8.0002],[146.7421,-7.9587],[146.6256,-7.7712],[146.408,-7.9374],[146.3898,-8.5844],[146.6268,-9.023],[146.9085,-9.1037],[147.0999,-9.4817],[147.1729,-9.381],[147.2868,-9.5213],[147.6213,-9.9889],[147.9774,-10.1663],[148.155,-10.0707],[148.402,-10.2005],[149.0674,-10.2346],[149.6783,-10.3365]]]}},{"type":"Feature","id":"label-PNG-1249","properties":{"kind":"division-label","code":"PNG-1249","countryCode":"PNG","name":"Central","localName":"Central","labelEnglish":"Central","labelLocal":"Central","labelBoth":"Central","type":"Province","iso":"PG-CPM","qid":"Q874942"},"geometry":{"type":"Point","coordinates":[148.034,-9.84123]}},{"type":"Feature","id":"PNG-1254","properties":{"kind":"division","code":"PNG-1254","countryCode":"PNG","name":"Port Moresby","localName":"Port Moresby","labelEnglish":"Port Moresby","labelLocal":"Port Moresby","labelBoth":"Port Moresby","type":"Province","iso":"PG-NCD","qid":"Q36526"},"geometry":{"type":"Polygon","coordinates":[[[147.2868,-9.5213],[147.1729,-9.381],[147.0999,-9.4817],[147.2868,-9.5213]]]}},{"type":"Feature","id":"label-PNG-1254","properties":{"kind":"division-label","code":"PNG-1254","countryCode":"PNG","name":"Port Moresby","localName":"Port Moresby","labelEnglish":"Port Moresby","labelLocal":"Port Moresby","labelBoth":"Port Moresby","type":"Province","iso":"PG-NCD","qid":"Q36526"},"geometry":{"type":"Point","coordinates":[147.174,-9.4476]}},{"type":"Feature","id":"PNG-1244","properties":{"kind":"division","code":"PNG-1244","countryCode":"PNG","name":"Gulf","localName":"Gulf","labelEnglish":"Gulf","labelLocal":"Gulf","labelBoth":"Gulf","type":"Province","iso":"PG-GPK","qid":"Q874980"},"geometry":{"type":"Polygon","coordinates":[[[146.3898,-8.5844],[146.408,-7.9374],[146.6256,-7.7712],[146.0955,-7.5364],[145.8463,-7.2368],[145.3024,-6.8752],[144.7146,-6.7386],[143.6846,-6.8358],[142.9987,-6.837],[143.0023,-7.0382],[143.9429,-7.9916],[143.7595,-7.5832],[144.2149,-7.796],[144.3444,-7.6594],[144.5078,-7.798],[144.6536,-7.5613],[144.8796,-7.7817],[145.408,-7.9317],[145.7725,-7.9274],[146.0794,-8.0875],[146.3898,-8.5844]]]}},{"type":"Feature","id":"label-PNG-1244","properties":{"kind":"division-label","code":"PNG-1244","countryCode":"PNG","name":"Gulf","localName":"Gulf","labelEnglish":"Gulf","labelLocal":"Gulf","labelBoth":"Gulf","type":"Province","iso":"PG-GPK","qid":"Q874980"},"geometry":{"type":"Point","coordinates":[144.812,-7.21915]}},{"type":"Feature","id":"PNG-1245","properties":{"kind":"division","code":"PNG-1245","countryCode":"PNG","name":"of Bougainville","localName":"of Bougainville","labelEnglish":"of Bougainville","labelLocal":"of Bougainville","labelBoth":"of Bougainville","type":"Province","iso":"PG-NSB","qid":"Q18826"},"geometry":{"type":"MultiPolygon","coordinates":[[[[155.9334,-6.6408],[155.8133,-6.3648],[155.4522,-6.1371],[155.0183,-5.5413],[154.7704,-5.5588],[154.7559,-5.9478],[155.2346,-6.3634],[155.1873,-6.5545],[155.3609,-6.7459],[155.7178,-6.8728],[155.9334,-6.6408]]],[[[154.7274,-5.2114],[154.5357,-5.1375],[154.6318,-5.4591],[154.7274,-5.2114]]]]}},{"type":"Feature","id":"label-PNG-1245","properties":{"kind":"division-label","code":"PNG-1245","countryCode":"PNG","name":"of Bougainville","localName":"of Bougainville","labelEnglish":"of Bougainville","labelLocal":"of Bougainville","labelBoth":"of Bougainville","type":"Province","iso":"PG-NSB","qid":"Q18826"},"geometry":{"type":"Point","coordinates":[154.632,-5.23625]}},{"type":"Feature","id":"PNG-1257","properties":{"kind":"division","code":"PNG-1257","countryCode":"PNG","name":"West New Britain","localName":"West New Britain","labelEnglish":"West New Britain","labelLocal":"West New Britain","labelBoth":"West New Britain","type":"Province","iso":"PG-WBK","qid":"Q667468"},"geometry":{"type":"Polygon","coordinates":[[[150.7713,-6.1298],[150.6038,-5.8037],[150.9732,-5.7032],[151.3568,-5.0683],[151.6477,-4.949],[151.3689,-4.9035],[151.0829,-5.1638],[151.0222,-5.3903],[150.634,-5.5567],[150.4234,-5.4566],[150.1423,-5.5341],[150.0321,-5.2952],[150.2024,-5.0621],[150.0349,-5.0344],[149.9802,-5.4381],[149.7184,-5.5689],[149.2244,-5.5993],[148.978,-5.4653],[148.8477,-5.5409],[148.4299,-5.4448],[148.3862,-5.7751],[148.6211,-5.8079],[149.0121,-6.0276],[149.0529,-6.1617],[149.3042,-6.0587],[149.6294,-6.2992],[150.4651,-6.274],[150.7713,-6.1298]]]}},{"type":"Feature","id":"label-PNG-1257","properties":{"kind":"division-label","code":"PNG-1257","countryCode":"PNG","name":"West New Britain","localName":"West New Britain","labelEnglish":"West New Britain","labelLocal":"West New Britain","labelBoth":"West New Britain","type":"Province","iso":"PG-WBK","qid":"Q667468"},"geometry":{"type":"Point","coordinates":[149.813,-5.91003]}},{"type":"Feature","id":"PNG-1250","properties":{"kind":"division","code":"PNG-1250","countryCode":"PNG","name":"East New Britain","localName":"East New Britain","labelEnglish":"East New Britain","labelLocal":"East New Britain","labelBoth":"East New Britain","type":"Province","iso":"PG-EBR","qid":"Q753702"},"geometry":{"type":"Polygon","coordinates":[[[151.6477,-4.949],[151.3568,-5.0683],[150.9732,-5.7032],[150.6038,-5.8037],[150.7713,-6.1298],[151.061,-6.0294],[151.5326,-5.6647],[151.479,-5.5299],[151.786,-5.5849],[152.0989,-5.4557],[151.9927,-4.9718],[152.2918,-4.9355],[152.4116,-4.6838],[152.4124,-4.3294],[152.0086,-4.1917],[151.5403,-4.1767],[151.6956,-4.8188],[151.6477,-4.949]]]}},{"type":"Feature","id":"label-PNG-1250","properties":{"kind":"division-label","code":"PNG-1250","countryCode":"PNG","name":"East New Britain","localName":"East New Britain","labelEnglish":"East New Britain","labelLocal":"East New Britain","labelBoth":"East New Britain","type":"Province","iso":"PG-EBR","qid":"Q753702"},"geometry":{"type":"Point","coordinates":[151.507,-5.65441]}},{"type":"Feature","id":"PNG-1255","properties":{"kind":"division","code":"PNG-1255","countryCode":"PNG","name":"New Ireland","localName":"New Ireland","labelEnglish":"New Ireland","labelLocal":"New Ireland","labelBoth":"New Ireland","type":"Province","iso":"PG-NIK","qid":"Q838690"},"geometry":{"type":"MultiPolygon","coordinates":[[[[153.1372,-4.2695],[152.9563,-3.9986],[152.575,-3.8211],[152.4929,-3.6428],[152.0525,-3.2467],[151.7986,-3.1778],[151.4373,-2.9089],[150.8933,-2.6752],[150.7598,-2.7688],[151.0906,-2.8327],[151.6125,-3.1662],[151.8091,-3.3611],[152.2886,-3.5698],[152.6878,-4.1638],[152.6712,-4.4518],[152.8977,-4.8483],[153.0752,-4.6018],[153.1372,-4.2695]]],[[[150.4651,-2.5325],[150.2079,-2.3748],[149.9578,-2.4776],[150.1868,-2.6795],[150.4651,-2.5325]]]]}},{"type":"Feature","id":"label-PNG-1255","properties":{"kind":"division-label","code":"PNG-1255","countryCode":"PNG","name":"New Ireland","localName":"New Ireland","labelEnglish":"New Ireland","labelLocal":"New Ireland","labelBoth":"New Ireland","type":"Province","iso":"PG-NIK","qid":"Q838690"},"geometry":{"type":"Point","coordinates":[150.25,-2.51821]}},{"type":"Feature","id":"PNG-1251","properties":{"kind":"division","code":"PNG-1251","countryCode":"PNG","name":"Manus","localName":"Manus","labelEnglish":"Manus","labelLocal":"Manus","labelBoth":"Manus","type":"Province","iso":"PG-MRL","qid":"Q874935"},"geometry":{"type":"Polygon","coordinates":[[[147.4328,-1.9838],[147.4226,-2.0458],[147.11,-1.9633],[146.8698,-1.947],[146.5806,-1.9952],[146.7024,-2.1144],[147.2165,-2.183],[147.2918,-2.0642],[147.4312,-2.0608],[147.4328,-1.9838]]]}},{"type":"Feature","id":"label-PNG-1251","properties":{"kind":"division-label","code":"PNG-1251","countryCode":"PNG","name":"Manus","localName":"Manus","labelEnglish":"Manus","labelLocal":"Manus","labelBoth":"Manus","type":"Province","iso":"PG-MRL","qid":"Q874935"},"geometry":{"type":"Point","coordinates":[147.806,-2.30166]}},{"type":"Feature","id":"PNG-1242","properties":{"kind":"division","code":"PNG-1242","countryCode":"PNG","name":"Chimbu","localName":"Chimbu","labelEnglish":"Chimbu","labelLocal":"Chimbu","labelBoth":"Chimbu","type":"Province","iso":"PG-CPK","qid":"Q599448"},"geometry":{"type":"Polygon","coordinates":[[[145.038,-5.7877],[144.7959,-5.8011],[144.6051,-6.3944],[144.5399,-6.3678],[144.4572,-6.5718],[144.7146,-6.7386],[145.3024,-6.8752],[145.3423,-6.7303],[144.9863,-6.4613],[145.2543,-6.3158],[145.1664,-5.8745],[145.038,-5.7877]]]}},{"type":"Feature","id":"label-PNG-1242","properties":{"kind":"division-label","code":"PNG-1242","countryCode":"PNG","name":"Chimbu","localName":"Chimbu","labelEnglish":"Chimbu","labelLocal":"Chimbu","labelBoth":"Chimbu","type":"Province","iso":"PG-CPK","qid":"Q599448"},"geometry":{"type":"Point","coordinates":[144.894,-6.27374]}},{"type":"Feature","id":"PNG-1238","properties":{"kind":"division","code":"PNG-1238","countryCode":"PNG","name":"Enga","localName":"Enga","labelEnglish":"Enga","labelLocal":"Enga","labelBoth":"Enga","type":"Province","iso":"PG-EPW","qid":"Q862584"},"geometry":{"type":"Polygon","coordinates":[[[143.9686,-4.9807],[143.1821,-5.044],[142.7632,-5.0197],[142.7886,-5.5054],[142.8942,-5.6406],[143.5212,-5.9625],[143.8048,-5.9364],[144.0832,-5.715],[144.0567,-5.4172],[144.2472,-5.2627],[143.9686,-4.9807]]]}},{"type":"Feature","id":"label-PNG-1238","properties":{"kind":"division-label","code":"PNG-1238","countryCode":"PNG","name":"Enga","localName":"Enga","labelEnglish":"Enga","labelLocal":"Enga","labelBoth":"Enga","type":"Province","iso":"PG-EPW","qid":"Q862584"},"geometry":{"type":"Point","coordinates":[143.505,-5.48883]}},{"type":"Feature","id":"PNG-1247","properties":{"kind":"division","code":"PNG-1247","countryCode":"PNG","name":"Western Highlands","localName":"Western Highlands","labelEnglish":"Western Highlands","labelLocal":"Western Highlands","labelBoth":"Western Highlands","type":"Province","iso":"PG-WHM","qid":"Q849807"},"geometry":{"type":"Polygon","coordinates":[[[145.038,-5.7877],[144.5045,-5.2998],[144.2472,-5.2627],[144.0567,-5.4172],[144.0832,-5.715],[143.8048,-5.9364],[144.5399,-6.3678],[144.6051,-6.3944],[144.7959,-5.8011],[145.038,-5.7877]]]}},{"type":"Feature","id":"label-PNG-1247","properties":{"kind":"division-label","code":"PNG-1247","countryCode":"PNG","name":"Western Highlands","localName":"Western Highlands","labelEnglish":"Western Highlands","labelLocal":"Western Highlands","labelBoth":"Western Highlands","type":"Province","iso":"PG-WHM","qid":"Q849807"},"geometry":{"type":"Point","coordinates":[144.404,-5.77031]}},{"type":"Feature","id":"PNG-1246","properties":{"kind":"division","code":"PNG-1246","countryCode":"PNG","name":"Southern Highlands","localName":"Southern Highlands","labelEnglish":"Southern Highlands","labelLocal":"Southern Highlands","labelBoth":"Southern Highlands","type":"Province","iso":"PG-SHM","qid":"Q849801"},"geometry":{"type":"Polygon","coordinates":[[[142.3236,-4.9678],[142.3572,-5.1629],[142.2089,-5.4069],[142.2007,-5.5311],[142.6495,-5.992],[142.6802,-6.8093],[142.9987,-6.837],[143.6846,-6.8358],[144.7146,-6.7386],[144.4572,-6.5718],[144.5399,-6.3678],[143.8048,-5.9364],[143.5212,-5.9625],[142.8942,-5.6406],[142.7886,-5.5054],[142.7632,-5.0197],[142.3236,-4.9678]]]}},{"type":"Feature","id":"label-PNG-1246","properties":{"kind":"division-label","code":"PNG-1246","countryCode":"PNG","name":"Southern Highlands","localName":"Southern Highlands","labelEnglish":"Southern Highlands","labelLocal":"Southern Highlands","labelBoth":"Southern Highlands","type":"Province","iso":"PG-SHM","qid":"Q849801"},"geometry":{"type":"Point","coordinates":[143.446,-6.38625]}},{"type":"Feature","id":"PNG-1243","properties":{"kind":"division","code":"PNG-1243","countryCode":"PNG","name":"Eastern Highlands","localName":"Eastern Highlands","labelEnglish":"Eastern Highlands","labelLocal":"Eastern Highlands","labelBoth":"Eastern Highlands","type":"Province","iso":"PG-EHG","qid":"Q849812"},"geometry":{"type":"Polygon","coordinates":[[[145.8679,-5.9963],[145.1664,-5.8745],[145.2543,-6.3158],[144.9863,-6.4613],[145.3423,-6.7303],[145.3024,-6.8752],[145.8463,-7.2368],[146.0153,-6.8838],[146.1287,-6.2491],[145.8679,-5.9963]]]}},{"type":"Feature","id":"label-PNG-1243","properties":{"kind":"division-label","code":"PNG-1243","countryCode":"PNG","name":"Eastern Highlands","localName":"Eastern Highlands","labelEnglish":"Eastern Highlands","labelLocal":"Eastern Highlands","labelBoth":"Eastern Highlands","type":"Province","iso":"PG-EHG","qid":"Q849812"},"geometry":{"type":"Point","coordinates":[145.557,-6.4841]}}]}