{"type":"FeatureCollection","features":[{"type":"Feature","id":"POL-3146","properties":{"kind":"division","code":"POL-3146","countryCode":"POL","name":"Silesian Voivodeship","localName":"Silesian Voivodeship","labelEnglish":"Silesian Voivodeship","labelLocal":"Silesian Voivodeship","labelBoth":"Silesian Voivodeship","type":"Voivodeship|Province","iso":"PL-SL","qid":"Q54181"},"geometry":{"type":"Polygon","coordinates":[[[19.4489,49.6004],[19.1124,49.9202],[19.5017,50.3611],[19.9563,50.4845],[19.7506,50.8043],[19.3543,50.9714],[18.6556,50.9952],[18.3575,50.4195],[18.3628,50.2109],[18.0191,50.0441],[18.5592,49.9072],[18.8332,49.5103],[19.1725,49.4023],[19.4489,49.6004]]]}},{"type":"Feature","id":"label-POL-3146","properties":{"kind":"division-label","code":"POL-3146","countryCode":"POL","name":"Silesian Voivodeship","localName":"Silesian Voivodeship","labelEnglish":"Silesian Voivodeship","labelLocal":"Silesian Voivodeship","labelBoth":"Silesian Voivodeship","type":"Voivodeship|Province","iso":"PL-SL","qid":"Q54181"},"geometry":{"type":"Point","coordinates":[18.9924,50.1978]}},{"type":"Feature","id":"POL-3170","properties":{"kind":"division","code":"POL-3170","countryCode":"POL","name":"Lesser Poland Voivodeship","localName":"Lesser Poland Voivodeship","labelEnglish":"Lesser Poland Voivodeship","labelLocal":"Lesser Poland Voivodeship","labelBoth":"Lesser Poland Voivodeship","type":"Voivodeship|Province","iso":"PL-MA","qid":"Q54159"},"geometry":{"type":"Polygon","coordinates":[[[19.4489,49.6004],[19.8683,49.2008],[20.3074,49.3866],[20.9424,49.2959],[21.5144,49.4172],[21.229,49.7891],[21.2953,50.4108],[20.6335,50.1744],[19.9563,50.4845],[19.5017,50.3611],[19.1124,49.9202],[19.4489,49.6004]]]}},{"type":"Feature","id":"label-POL-3170","properties":{"kind":"division-label","code":"POL-3170","countryCode":"POL","name":"Lesser Poland Voivodeship","localName":"Lesser Poland Voivodeship","labelEnglish":"Lesser Poland Voivodeship","labelLocal":"Lesser Poland Voivodeship","labelBoth":"Lesser Poland Voivodeship","type":"Voivodeship|Province","iso":"PL-MA","qid":"Q54159"},"geometry":{"type":"Point","coordinates":[20.3133,49.8761]}},{"type":"Feature","id":"POL-3152","properties":{"kind":"division","code":"POL-3152","countryCode":"POL","name":"Podkarpackie Voivodeship","localName":"Podkarpackie Voivodeship","labelEnglish":"Podkarpackie Voivodeship","labelLocal":"Podkarpackie Voivodeship","labelBoth":"Podkarpackie Voivodeship","type":"Voivodeship|Province","iso":"PL-PK","qid":"Q54175"},"geometry":{"type":"Polygon","coordinates":[[[21.5144,49.4172],[22.5396,49.0722],[22.865,49.0132],[22.6409,49.5288],[23.1015,49.9571],[23.6587,50.327],[22.5949,50.3621],[22.6121,50.5681],[22.2624,50.7599],[21.8443,50.8298],[21.5949,50.5245],[21.2953,50.4108],[21.229,49.7891],[21.5144,49.4172]]]}},{"type":"Feature","id":"label-POL-3152","properties":{"kind":"division-label","code":"POL-3152","countryCode":"POL","name":"Podkarpackie Voivodeship","localName":"Podkarpackie Voivodeship","labelEnglish":"Podkarpackie Voivodeship","labelLocal":"Podkarpackie Voivodeship","labelBoth":"Podkarpackie Voivodeship","type":"Voivodeship|Province","iso":"PL-PK","qid":"Q54175"},"geometry":{"type":"Point","coordinates":[22.4341,49.8555]}},{"type":"Feature","id":"POL-3141","properties":{"kind":"division","code":"POL-3141","countryCode":"POL","name":"Lower Silesian Voivodeship","localName":"Lower Silesian Voivodeship","labelEnglish":"Lower Silesian Voivodeship","labelLocal":"Lower Silesian Voivodeship","labelBoth":"Lower Silesian Voivodeship","type":"Voivodeship|Province","iso":"PL-DS","qid":"Q54150"},"geometry":{"type":"Polygon","coordinates":[[[14.8104,50.8584],[14.961,50.9927],[15.5221,50.7824],[16.3316,50.644],[16.1902,50.4242],[16.5842,50.1274],[16.8698,50.1897],[16.944,50.4203],[17.5797,51.1268],[17.7146,51.1502],[17.7184,51.3447],[17.3468,51.594],[16.943,51.5127],[16.3711,51.7492],[15.9448,51.7699],[15.6147,51.4804],[14.9506,51.3965],[15.0221,51.2368],[14.8104,50.8584]]]}},{"type":"Feature","id":"label-POL-3141","properties":{"kind":"division-label","code":"POL-3141","countryCode":"POL","name":"Lower Silesian Voivodeship","localName":"Lower Silesian Voivodeship","labelEnglish":"Lower Silesian Voivodeship","labelLocal":"Lower Silesian Voivodeship","labelBoth":"Lower Silesian Voivodeship","type":"Voivodeship|Province","iso":"PL-DS","qid":"Q54150"},"geometry":{"type":"Point","coordinates":[16.4623,51.0127]}},{"type":"Feature","id":"POL-3167","properties":{"kind":"division","code":"POL-3167","countryCode":"POL","name":"Opole Voivodeship","localName":"Opole Voivodeship","labelEnglish":"Opole Voivodeship","labelLocal":"Opole Voivodeship","labelBoth":"Opole Voivodeship","type":"Voivodeship|Province","iso":"PL-OP","qid":"Q54171"},"geometry":{"type":"Polygon","coordinates":[[[16.944,50.4203],[17.388,50.2726],[17.8394,49.9736],[18.0191,50.0441],[18.3628,50.2109],[18.3575,50.4195],[18.6556,50.9952],[18.1501,51.1361],[17.7146,51.1502],[17.5797,51.1268],[16.944,50.4203]]]}},{"type":"Feature","id":"label-POL-3167","properties":{"kind":"division-label","code":"POL-3167","countryCode":"POL","name":"Opole Voivodeship","localName":"Opole Voivodeship","labelEnglish":"Opole Voivodeship","labelLocal":"Opole Voivodeship","labelBoth":"Opole Voivodeship","type":"Voivodeship|Province","iso":"PL-OP","qid":"Q54171"},"geometry":{"type":"Point","coordinates":[17.7998,50.5498]}},{"type":"Feature","id":"POL-3150","properties":{"kind":"division","code":"POL-3150","countryCode":"POL","name":"Podlaskie Voivodeship","localName":"Podlaskie Voivodeship","labelEnglish":"Podlaskie Voivodeship","labelLocal":"Podlaskie Voivodeship","labelBoth":"Podlaskie Voivodeship","type":"Voivodeship|Province","iso":"PL-PD","qid":"Q54177"},"geometry":{"type":"Polygon","coordinates":[[[23.336,54.2263],[22.8113,54.3926],[22.7887,54.3366],[22.6653,54.2753],[22.3481,54.1786],[22.6221,53.9248],[22.543,53.7739],[21.9373,53.4993],[21.523,53.4435],[21.6928,53.0953],[21.9776,52.862],[22.3779,52.7941],[22.6119,52.3873],[23.087,52.2923],[23.1761,52.2851],[23.3923,52.5096],[23.9204,52.7726],[23.8937,53.152],[23.4856,53.9393],[23.336,54.2263]]]}},{"type":"Feature","id":"label-POL-3150","properties":{"kind":"division-label","code":"POL-3150","countryCode":"POL","name":"Podlaskie Voivodeship","localName":"Podlaskie Voivodeship","labelEnglish":"Podlaskie Voivodeship","labelLocal":"Podlaskie Voivodeship","labelBoth":"Podlaskie Voivodeship","type":"Voivodeship|Province","iso":"PL-PD","qid":"Q54177"},"geometry":{"type":"Point","coordinates":[22.7225,53.3396]}},{"type":"Feature","id":"POL-3139","properties":{"kind":"division","code":"POL-3139","countryCode":"POL","name":"Warmian-Masurian Voivodeship","localName":"Warmian-Masurian Voivodeship","labelEnglish":"Warmian-Masurian Voivodeship","labelLocal":"Warmian-Masurian Voivodeship","labelBoth":"Warmian-Masurian Voivodeship","type":"Voivodeship|Province","iso":"PL-WN","qid":"Q54184"},"geometry":{"type":"Polygon","coordinates":[[[22.7672,54.3563],[22.6984,54.3429],[20.9296,54.3978],[19.7583,54.4343],[19.2739,54.2816],[19.2093,54.0721],[19.5544,53.8822],[19.1283,53.5559],[19.2855,53.3645],[19.6813,53.263],[19.7479,53.0931],[20.2406,53.098],[20.704,53.2759],[21.523,53.4435],[21.9373,53.4993],[22.543,53.7739],[22.6221,53.9248],[22.3481,54.1786],[22.6653,54.2753],[22.7887,54.3366],[22.8113,54.3926],[22.7672,54.3563]]]}},{"type":"Feature","id":"label-POL-3139","properties":{"kind":"division-label","code":"POL-3139","countryCode":"POL","name":"Warmian-Masurian Voivodeship","localName":"Warmian-Masurian Voivodeship","labelEnglish":"Warmian-Masurian Voivodeship","labelLocal":"Warmian-Masurian Voivodeship","labelBoth":"Warmian-Masurian Voivodeship","type":"Voivodeship|Province","iso":"PL-WN","qid":"Q54184"},"geometry":{"type":"Point","coordinates":[20.9711,53.8526]}},{"type":"Feature","id":"POL-3143","properties":{"kind":"division","code":"POL-3143","countryCode":"POL","name":"Lubusz Voivodeship","localName":"Lubusz Voivodeship","labelEnglish":"Lubusz Voivodeship","labelLocal":"Lubusz Voivodeship","labelBoth":"Lubusz Voivodeship","type":"Voivodeship|Province","iso":"PL-LB","qid":"Q54157"},"geometry":{"type":"Polygon","coordinates":[[[14.9506,51.3965],[15.6147,51.4804],[15.9448,51.7699],[16.3711,51.7492],[15.857,52.1037],[15.8311,52.6933],[16.0385,53.0067],[14.9319,52.8426],[14.608,52.5965],[14.5398,52.4219],[14.7614,52.0767],[14.5858,51.8039],[14.7068,51.5408],[14.9506,51.3965]]]}},{"type":"Feature","id":"label-POL-3143","properties":{"kind":"division-label","code":"POL-3143","countryCode":"POL","name":"Lubusz Voivodeship","localName":"Lubusz Voivodeship","labelEnglish":"Lubusz Voivodeship","labelLocal":"Lubusz Voivodeship","labelBoth":"Lubusz Voivodeship","type":"Voivodeship|Province","iso":"PL-LB","qid":"Q54157"},"geometry":{"type":"Point","coordinates":[15.4552,52.2372]}},{"type":"Feature","id":"POL-3142","properties":{"kind":"division","code":"POL-3142","countryCode":"POL","name":"West Pomeranian Voivodeship","localName":"West Pomeranian Voivodeship","labelEnglish":"West Pomeranian Voivodeship","labelLocal":"West Pomeranian Voivodeship","labelBoth":"West Pomeranian Voivodeship","type":"Voivodeship|Province","iso":"PL-ZP","qid":"Q54188"},"geometry":{"type":"Polygon","coordinates":[[[14.608,52.5965],[14.9319,52.8426],[16.0385,53.0067],[16.6747,53.1893],[16.5511,53.4606],[16.9477,53.5882],[17.0577,53.8264],[16.8113,54.1888],[16.9701,54.3866],[16.7852,54.5767],[16.1377,54.2903],[14.2101,53.9385],[14.2008,53.8782],[14.6306,53.8515],[14.2639,53.7],[14.3913,53.334],[14.1239,52.8507],[14.608,52.5965]]]}},{"type":"Feature","id":"label-POL-3142","properties":{"kind":"division-label","code":"POL-3142","countryCode":"POL","name":"West Pomeranian Voivodeship","localName":"West Pomeranian Voivodeship","labelEnglish":"West Pomeranian Voivodeship","labelLocal":"West Pomeranian Voivodeship","labelBoth":"West Pomeranian Voivodeship","type":"Voivodeship|Province","iso":"PL-ZP","qid":"Q54188"},"geometry":{"type":"Point","coordinates":[15.5906,53.5878]}},{"type":"Feature","id":"POL-3151","properties":{"kind":"division","code":"POL-3151","countryCode":"POL","name":"Lublin Voivodeship","localName":"Lublin Voivodeship","labelEnglish":"Lublin Voivodeship","labelLocal":"Lublin Voivodeship","labelBoth":"Lublin Voivodeship","type":"Voivodeship|Province","iso":"PL-LU","qid":"Q54155"},"geometry":{"type":"Polygon","coordinates":[[[23.1761,52.2851],[23.087,52.2923],[22.8983,52.1021],[21.8413,51.9584],[21.8154,51.0551],[21.8443,50.8298],[22.2624,50.7599],[22.6121,50.5681],[22.5949,50.3621],[23.6587,50.327],[23.9813,50.4048],[24.1082,50.6303],[24.1309,50.8391],[23.634,51.3393],[23.6062,51.5174],[23.6375,52.0845],[23.1761,52.2851]]]}},{"type":"Feature","id":"label-POL-3151","properties":{"kind":"division-label","code":"POL-3151","countryCode":"POL","name":"Lublin Voivodeship","localName":"Lublin Voivodeship","labelEnglish":"Lublin Voivodeship","labelLocal":"Lublin Voivodeship","labelBoth":"Lublin Voivodeship","type":"Voivodeship|Province","iso":"PL-LU","qid":"Q54155"},"geometry":{"type":"Point","coordinates":[22.8943,51.2088]}},{"type":"Feature","id":"POL-3140","properties":{"kind":"division","code":"POL-3140","countryCode":"POL","name":"Pomeranian Voivodeship","localName":"Pomeranian Voivodeship","labelEnglish":"Pomeranian Voivodeship","labelLocal":"Pomeranian Voivodeship","labelBoth":"Pomeranian Voivodeship","type":"Voivodeship|Province","iso":"PL-PM","qid":"Q54180"},"geometry":{"type":"Polygon","coordinates":[[[19.6095,54.4567],[19.0021,54.3449],[18.5881,54.4337],[18.3169,54.8383],[17.3374,54.749],[16.7852,54.5767],[16.9701,54.3866],[16.8113,54.1888],[17.0577,53.8264],[16.9477,53.5882],[17.3972,53.4338],[17.9241,53.6956],[19.1283,53.5559],[19.5544,53.8822],[19.2093,54.0721],[19.2739,54.2816],[19.7583,54.4343],[19.6095,54.4567]]]}},{"type":"Feature","id":"label-POL-3140","properties":{"kind":"division-label","code":"POL-3140","countryCode":"POL","name":"Pomeranian Voivodeship","localName":"Pomeranian Voivodeship","labelEnglish":"Pomeranian Voivodeship","labelLocal":"Pomeranian Voivodeship","labelBoth":"Pomeranian Voivodeship","type":"Voivodeship|Province","iso":"PL-PM","qid":"Q54180"},"geometry":{"type":"Point","coordinates":[18.272,54.26]}},{"type":"Feature","id":"POL-3148","properties":{"kind":"division","code":"POL-3148","countryCode":"POL","name":"Masovian Voivodeship","localName":"Masovian Voivodeship","labelEnglish":"Masovian Voivodeship","labelLocal":"Masovian Voivodeship","labelBoth":"Masovian Voivodeship","type":"Voivodeship|Province","iso":"PL-MZ","qid":"Q54169"},"geometry":{"type":"Polygon","coordinates":[[[21.523,53.4435],[20.704,53.2759],[20.2406,53.098],[19.7479,53.0931],[19.4584,52.8983],[19.2959,52.3342],[19.9182,52.2677],[20.2731,51.8982],[20.6129,51.796],[20.4476,51.6435],[20.4321,51.2899],[20.7517,51.1168],[21.8154,51.0551],[21.8413,51.9584],[22.8983,52.1021],[23.087,52.2923],[22.6119,52.3873],[22.3779,52.7941],[21.9776,52.862],[21.6928,53.0953],[21.523,53.4435]]]}},{"type":"Feature","id":"label-POL-3148","properties":{"kind":"division-label","code":"POL-3148","countryCode":"POL","name":"Masovian Voivodeship","localName":"Masovian Voivodeship","labelEnglish":"Masovian Voivodeship","labelLocal":"Masovian Voivodeship","labelBoth":"Masovian Voivodeship","type":"Voivodeship|Province","iso":"PL-MZ","qid":"Q54169"},"geometry":{"type":"Point","coordinates":[21.1915,52.2269]}},{"type":"Feature","id":"POL-3147","properties":{"kind":"division","code":"POL-3147","countryCode":"POL","name":"Łódź Voivodeship","localName":"Łódź Voivodeship","labelEnglish":"Łódź Voivodeship","labelLocal":"Łódź Voivodeship","labelBoth":"Łódź Voivodeship","type":"Voivodeship|Province","iso":"PL-LD","qid":"Q54158"},"geometry":{"type":"Polygon","coordinates":[[[19.2959,52.3342],[19.0402,52.2784],[18.6593,51.7857],[18.4572,51.7787],[18.3657,51.4526],[18.071,51.3247],[18.1501,51.1361],[18.6556,50.9952],[19.3543,50.9714],[19.7506,50.8043],[19.9758,51.0717],[20.4321,51.2899],[20.4476,51.6435],[20.6129,51.796],[20.2731,51.8982],[19.9182,52.2677],[19.2959,52.3342]]]}},{"type":"Feature","id":"label-POL-3147","properties":{"kind":"division-label","code":"POL-3147","countryCode":"POL","name":"Łódź Voivodeship","localName":"Łódź Voivodeship","labelEnglish":"Łódź Voivodeship","labelLocal":"Łódź Voivodeship","labelBoth":"Łódź Voivodeship","type":"Voivodeship|Province","iso":"PL-LD","qid":"Q54158"},"geometry":{"type":"Point","coordinates":[19.3642,51.6355]}},{"type":"Feature","id":"POL-3145","properties":{"kind":"division","code":"POL-3145","countryCode":"POL","name":"Kuyavian-Pomeranian Voivodeship","localName":"Kuyavian-Pomeranian Voivodeship","labelEnglish":"Kuyavian-Pomeranian Voivodeship","labelLocal":"Kuyavian-Pomeranian Voivodeship","labelBoth":"Kuyavian-Pomeranian Voivodeship","type":"Voivodeship|Province","iso":"PL-KP","qid":"Q54153"},"geometry":{"type":"Polygon","coordinates":[[[19.7479,53.0931],[19.6813,53.263],[19.2855,53.3645],[19.1283,53.5559],[17.9241,53.6956],[17.3972,53.4338],[17.3313,52.9562],[17.5182,52.654],[18.1586,52.4518],[18.3523,52.4866],[19.0402,52.2784],[19.2959,52.3342],[19.4584,52.8983],[19.7479,53.0931]]]}},{"type":"Feature","id":"label-POL-3145","properties":{"kind":"division-label","code":"POL-3145","countryCode":"POL","name":"Kuyavian-Pomeranian Voivodeship","localName":"Kuyavian-Pomeranian Voivodeship","labelEnglish":"Kuyavian-Pomeranian Voivodeship","labelLocal":"Kuyavian-Pomeranian Voivodeship","labelBoth":"Kuyavian-Pomeranian Voivodeship","type":"Voivodeship|Province","iso":"PL-KP","qid":"Q54153"},"geometry":{"type":"Point","coordinates":[18.5227,53.0334]}},{"type":"Feature","id":"POL-3144","properties":{"kind":"division","code":"POL-3144","countryCode":"POL","name":"Greater Poland Voivodeship","localName":"Greater Poland Voivodeship","labelEnglish":"Greater Poland Voivodeship","labelLocal":"Greater Poland Voivodeship","labelBoth":"Greater Poland Voivodeship","type":"Voivodeship|Province","iso":"PL-WP","qid":"Q54187"},"geometry":{"type":"Polygon","coordinates":[[[19.0402,52.2784],[18.3523,52.4866],[18.1586,52.4518],[17.5182,52.654],[17.3313,52.9562],[17.3972,53.4338],[16.9477,53.5882],[16.5511,53.4606],[16.6747,53.1893],[16.0385,53.0067],[15.8311,52.6933],[15.857,52.1037],[16.3711,51.7492],[16.943,51.5127],[17.3468,51.594],[17.7184,51.3447],[17.7146,51.1502],[18.1501,51.1361],[18.071,51.3247],[18.3657,51.4526],[18.4572,51.7787],[18.6593,51.7857],[19.0402,52.2784]]]}},{"type":"Feature","id":"label-POL-3144","properties":{"kind":"division-label","code":"POL-3144","countryCode":"POL","name":"Greater Poland Voivodeship","localName":"Greater Poland Voivodeship","labelEnglish":"Greater Poland Voivodeship","labelLocal":"Greater Poland Voivodeship","labelBoth":"Greater Poland Voivodeship","type":"Voivodeship|Province","iso":"PL-WP","qid":"Q54187"},"geometry":{"type":"Point","coordinates":[17.4521,52.1454]}},{"type":"Feature","id":"POL-3149","properties":{"kind":"division","code":"POL-3149","countryCode":"POL","name":"Świętokrzyskie Voivodeship","localName":"Świętokrzyskie Voivodeship","labelEnglish":"Świętokrzyskie Voivodeship","labelLocal":"Świętokrzyskie Voivodeship","labelBoth":"Świętokrzyskie Voivodeship","type":"Voivodeship|Province","iso":"PL-SK","qid":"Q54183"},"geometry":{"type":"Polygon","coordinates":[[[20.4321,51.2899],[19.9758,51.0717],[19.7506,50.8043],[19.9563,50.4845],[20.6335,50.1744],[21.2953,50.4108],[21.5949,50.5245],[21.8443,50.8298],[21.8154,51.0551],[20.7517,51.1168],[20.4321,51.2899]]]}},{"type":"Feature","id":"label-POL-3149","properties":{"kind":"division-label","code":"POL-3149","countryCode":"POL","name":"Świętokrzyskie Voivodeship","localName":"Świętokrzyskie Voivodeship","labelEnglish":"Świętokrzyskie Voivodeship","labelLocal":"Świętokrzyskie Voivodeship","labelBoth":"Świętokrzyskie Voivodeship","type":"Voivodeship|Province","iso":"PL-SK","qid":"Q54183"},"geometry":{"type":"Point","coordinates":[20.7951,50.701]}}]}