{"type":"FeatureCollection","features":[{"type":"Feature","id":"PRI-5260","properties":{"kind":"division","code":"PRI-5260","countryCode":"PRI","name":"Puerto Rico","localName":"Puerto Rico","labelEnglish":"Puerto Rico","labelLocal":"Puerto Rico","labelBoth":"Puerto Rico","type":null,"iso":"US-PR","qid":"Q1183"},"geometry":{"type":"Polygon","coordinates":[[[-65.6288,18.2792],[-65.6294,18.3911],[-66.1216,18.4735],[-67.1017,18.5228],[-67.2688,18.3689],[-67.112,17.9496],[-66.4691,17.9927],[-66.1963,17.9277],[-65.8303,18.0269],[-65.6288,18.2792]]]}},{"type":"Feature","id":"label-PRI-5260","properties":{"kind":"division-label","code":"PRI-5260","countryCode":"PRI","name":"Puerto Rico","localName":"Puerto Rico","labelEnglish":"Puerto Rico","labelLocal":"Puerto Rico","labelBoth":"Puerto Rico","type":null,"iso":"US-PR","qid":"Q1183"},"geometry":{"type":"Point","coordinates":[-66.4441,18.2448]}}]}