{"type":"FeatureCollection","features":[{"type":"Feature","id":"PRK-3308","properties":{"kind":"division","code":"PRK-3308","countryCode":"PRK","name":"Kangwon","localName":"강원도","labelEnglish":"Kangwon","labelLocal":"강원도","labelBoth":"Kangwon · 강원도","type":"Province","iso":"KP-07","qid":"Q41416"},"geometry":{"type":"Polygon","coordinates":[[[128.3649,38.6243],[127.7696,39.1092],[127.4522,39.166],[127.4381,39.4052],[127.1307,39.4036],[127.0252,39.2044],[126.9817,39.0691],[126.6779,38.6176],[126.9401,38.1742],[126.9661,38.213],[127.1575,38.3072],[128.0399,38.3043],[128.3649,38.6243]]]}},{"type":"Feature","id":"label-PRK-3308","properties":{"kind":"division-label","code":"PRK-3308","countryCode":"PRK","name":"Kangwon","localName":"강원도","labelEnglish":"Kangwon","labelLocal":"강원도","labelBoth":"Kangwon · 강원도","type":"Province","iso":"KP-07","qid":"Q41416"},"geometry":{"type":"Point","coordinates":[127.521,38.7273]}},{"type":"Feature","id":"PRK-3303","properties":{"kind":"division","code":"PRK-3303","countryCode":"PRK","name":"North Hwanghae","localName":"황해북도","labelEnglish":"North Hwanghae","labelLocal":"황해북도","labelBoth":"North Hwanghae · 황해북도","type":"Province","iso":"KP-06","qid":"Q109342"},"geometry":{"type":"Polygon","coordinates":[[[126.9401,38.1742],[126.6779,38.6176],[126.9817,39.0691],[126.5579,39.1312],[126.6596,38.9858],[126.3873,38.9305],[126.1867,38.9894],[126.1149,38.7159],[125.5751,38.7805],[125.6301,38.659],[125.6472,38.6286],[125.9169,38.1912],[126.3882,38.2011],[126.4016,37.889],[126.6675,37.8278],[126.9401,38.1742]]]}},{"type":"Feature","id":"label-PRK-3303","properties":{"kind":"division-label","code":"PRK-3303","countryCode":"PRK","name":"North Hwanghae","localName":"황해북도","labelEnglish":"North Hwanghae","labelLocal":"황해북도","labelBoth":"North Hwanghae · 황해북도","type":"Province","iso":"KP-06","qid":"Q109342"},"geometry":{"type":"Point","coordinates":[126.297,38.5962]}},{"type":"Feature","id":"PRK-3307","properties":{"kind":"division","code":"PRK-3307","countryCode":"PRK","name":"North Hamgyong","localName":"함경북도","labelEnglish":"North Hamgyong","labelLocal":"함경북도","labelBoth":"North Hamgyong · 함경북도","type":"Province","iso":"KP-09","qid":"Q109361"},"geometry":{"type":"Polygon","coordinates":[[[130.4522,42.5496],[130.1215,42.9818],[129.8517,42.9619],[129.7033,42.4424],[129.3401,42.4455],[129.2112,42.22],[128.8832,42.0304],[128.7049,41.919],[128.933,41.2692],[128.9233,41.0883],[128.9245,40.8154],[129.1606,40.5646],[129.2177,40.6964],[129.7166,40.8346],[129.8062,41.376],[129.6488,41.5494],[130.2023,42.1736],[130.4522,42.5496]]]}},{"type":"Feature","id":"label-PRK-3307","properties":{"kind":"division-label","code":"PRK-3307","countryCode":"PRK","name":"North Hamgyong","localName":"함경북도","labelEnglish":"North Hamgyong","labelLocal":"함경북도","labelBoth":"North Hamgyong · 함경북도","type":"Province","iso":"KP-09","qid":"Q109361"},"geometry":{"type":"Point","coordinates":[129.417,41.8666]}},{"type":"Feature","id":"PRK-5495","properties":{"kind":"division","code":"PRK-5495","countryCode":"PRK","name":"Rason","localName":"함경북도","labelEnglish":"Rason","labelLocal":"함경북도","labelBoth":"Rason · 함경북도","type":"Province","iso":"KP-13","qid":"Q221734"},"geometry":{"type":"Polygon","coordinates":[[[130.5308,42.5305],[130.4522,42.5496],[130.2023,42.1736],[130.4075,42.3246],[130.7,42.2951],[130.5308,42.5305]]]}},{"type":"Feature","id":"label-PRK-5495","properties":{"kind":"division-label","code":"PRK-5495","countryCode":"PRK","name":"Rason","localName":"함경북도","labelEnglish":"Rason","labelLocal":"함경북도","labelBoth":"Rason · 함경북도","type":"Province","iso":"KP-13","qid":"Q221734"},"geometry":{"type":"Point","coordinates":[130.373,42.3414]}},{"type":"Feature","id":"PRK-3314","properties":{"kind":"division","code":"PRK-3314","countryCode":"PRK","name":"Ryanggang","localName":"량강도","labelEnglish":"Ryanggang","labelLocal":"량강도","labelBoth":"Ryanggang · 량강도","type":"Province","iso":"KP-10","qid":"Q110171"},"geometry":{"type":"Polygon","coordinates":[[[128.8832,42.0304],[128.0346,41.9937],[128.303,41.5834],[128.1461,41.3763],[127.2691,41.505],[126.9996,41.752],[126.8147,41.4734],[127.0459,41.1577],[127.3917,41.0713],[127.6615,41.1292],[127.5195,40.8281],[127.7716,40.58],[127.7292,40.4041],[128.3034,40.6626],[128.3587,40.9924],[128.6302,41.1723],[128.9233,41.0883],[128.933,41.2692],[128.7049,41.919],[128.8832,42.0304]]]}},{"type":"Feature","id":"label-PRK-3314","properties":{"kind":"division-label","code":"PRK-3314","countryCode":"PRK","name":"Ryanggang","localName":"량강도","labelEnglish":"Ryanggang","labelLocal":"량강도","labelBoth":"Ryanggang · 량강도","type":"Province","iso":"KP-10","qid":"Q110171"},"geometry":{"type":"Point","coordinates":[127.875,40.9611]}},{"type":"Feature","id":"PRK-3310","properties":{"kind":"division","code":"PRK-3310","countryCode":"PRK","name":"Chagang","localName":"자강도","labelEnglish":"Chagang","labelLocal":"자강도","labelBoth":"Chagang · 자강도","type":"Province","iso":"KP-04","qid":"Q272406"},"geometry":{"type":"Polygon","coordinates":[[[126.9996,41.752],[126.6179,41.6659],[126.5013,41.4344],[126.0153,40.9091],[125.7041,40.8592],[125.4152,40.6527],[125.807,40.2236],[126.3601,40.0175],[126.912,40.3347],[126.9798,40.5311],[127.3772,40.8024],[127.3917,41.0713],[127.0459,41.1577],[126.8147,41.4734],[126.9996,41.752]]]}},{"type":"Feature","id":"label-PRK-3310","properties":{"kind":"division-label","code":"PRK-3310","countryCode":"PRK","name":"Chagang","localName":"자강도","labelEnglish":"Chagang","labelLocal":"자강도","labelBoth":"Chagang · 자강도","type":"Province","iso":"KP-04","qid":"Q272406"},"geometry":{"type":"Point","coordinates":[126.404,40.6548]}},{"type":"Feature","id":"PRK-3312","properties":{"kind":"division","code":"PRK-3312","countryCode":"PRK","name":"North Pyongan","localName":"평안북도","labelEnglish":"North Pyongan","labelLocal":"평안북도","labelBoth":"North Pyongan · 평안북도","type":"Province","iso":"KP-03","qid":"Q109348"},"geometry":{"type":"Polygon","coordinates":[[[125.4152,40.6527],[124.8955,40.4836],[124.37,40.0983],[124.3215,39.9127],[125.286,39.5212],[125.4518,39.5713],[126.3601,40.0175],[125.807,40.2236],[125.4152,40.6527]]]}},{"type":"Feature","id":"label-PRK-3312","properties":{"kind":"division-label","code":"PRK-3312","countryCode":"PRK","name":"North Pyongan","localName":"평안북도","labelEnglish":"North Pyongan","labelLocal":"평안북도","labelBoth":"North Pyongan · 평안북도","type":"Province","iso":"KP-03","qid":"Q109348"},"geometry":{"type":"Point","coordinates":[124.698,39.5177]}},{"type":"Feature","id":"PRK-3313","properties":{"kind":"division","code":"PRK-3313","countryCode":"PRK","name":"South Pyongan","localName":"평안남도","labelEnglish":"South Pyongan","labelLocal":"평안남도","labelBoth":"South Pyongan · 평안남도","type":"Province","iso":"KP-02","qid":"Q109380"},"geometry":{"type":"Polygon","coordinates":[[[125.6301,38.659],[125.5751,38.7805],[125.6308,39.2472],[126.2299,39.1573],[126.3873,38.9305],[126.6596,38.9858],[126.5579,39.1312],[126.9817,39.0691],[127.0252,39.2044],[126.6976,39.3254],[126.7883,39.8441],[127.1129,39.8859],[127.1047,40.2848],[126.912,40.3347],[126.3601,40.0175],[125.4518,39.5713],[125.4449,39.3106],[125.1372,38.8035],[125.6301,38.659]]]}},{"type":"Feature","id":"label-PRK-3313","properties":{"kind":"division-label","code":"PRK-3313","countryCode":"PRK","name":"South Pyongan","localName":"평안남도","labelEnglish":"South Pyongan","labelLocal":"평안남도","labelBoth":"South Pyongan · 평안남도","type":"Province","iso":"KP-02","qid":"Q109380"},"geometry":{"type":"Point","coordinates":[126.158,39.5005]}},{"type":"Feature","id":"PRK-3304","properties":{"kind":"division","code":"PRK-3304","countryCode":"PRK","name":"South Hwanghae","localName":"황해남도","labelEnglish":"South Hwanghae","labelLocal":"황해남도","labelBoth":"South Hwanghae · 황해남도","type":"Province","iso":"KP-05","qid":"Q626052"},"geometry":{"type":"Polygon","coordinates":[[[126.4016,37.889],[126.3882,38.2011],[125.9169,38.1912],[125.6472,38.6286],[125.1376,38.6623],[124.6771,38.1154],[125.1162,38.0419],[125.0132,37.906],[125.6201,37.7653],[125.5969,38.0322],[126.1492,37.8222],[126.4016,37.889]]]}},{"type":"Feature","id":"label-PRK-3304","properties":{"kind":"division-label","code":"PRK-3304","countryCode":"PRK","name":"South Hwanghae","localName":"황해남도","labelEnglish":"South Hwanghae","labelLocal":"황해남도","labelBoth":"South Hwanghae · 황해남도","type":"Province","iso":"KP-05","qid":"Q626052"},"geometry":{"type":"Point","coordinates":[125.279,37.7337]}},{"type":"Feature","id":"PRK-3311","properties":{"kind":"division","code":"PRK-3311","countryCode":"PRK","name":"South Hamgyong","localName":"함경남도","labelEnglish":"South Hamgyong","labelLocal":"함경남도","labelBoth":"South Hamgyong · 함경남도","type":"Province","iso":"KP-08","qid":"Q109368"},"geometry":{"type":"Polygon","coordinates":[[[129.1606,40.5646],[128.9245,40.8154],[128.9233,41.0883],[128.6302,41.1723],[128.3587,40.9924],[128.3034,40.6626],[127.7292,40.4041],[127.7716,40.58],[127.5195,40.8281],[127.6615,41.1292],[127.3917,41.0713],[127.3772,40.8024],[126.9798,40.5311],[126.912,40.3347],[127.1047,40.2848],[127.1129,39.8859],[126.7883,39.8441],[126.6976,39.3254],[127.0252,39.2044],[127.1307,39.4036],[127.4381,39.4052],[127.563,39.3437],[127.5208,39.747],[128.6646,40.2012],[128.6189,40.2973],[129.1606,40.5646]]]}},{"type":"Feature","id":"label-PRK-3311","properties":{"kind":"division-label","code":"PRK-3311","countryCode":"PRK","name":"South Hamgyong","localName":"함경남도","labelEnglish":"South Hamgyong","labelLocal":"함경남도","labelBoth":"South Hamgyong · 함경남도","type":"Province","iso":"KP-08","qid":"Q109368"},"geometry":{"type":"Point","coordinates":[127.922,40.234]}},{"type":"Feature","id":"PRK-3305","properties":{"kind":"division","code":"PRK-3305","countryCode":"PRK","name":"Pyongyang","localName":"평양직할시","labelEnglish":"Pyongyang","labelLocal":"평양직할시","labelBoth":"Pyongyang · 평양직할시","type":"Special City","iso":"KP-01","qid":"Q18808"},"geometry":{"type":"Polygon","coordinates":[[[126.3873,38.9305],[126.2299,39.1573],[125.6308,39.2472],[125.5751,38.7805],[126.1149,38.7159],[126.1867,38.9894],[126.3873,38.9305]]]}},{"type":"Feature","id":"label-PRK-3305","properties":{"kind":"division-label","code":"PRK-3305","countryCode":"PRK","name":"Pyongyang","localName":"평양직할시","labelEnglish":"Pyongyang","labelLocal":"평양직할시","labelBoth":"Pyongyang · 평양직할시","type":"Special City","iso":"KP-01","qid":"Q18808"},"geometry":{"type":"Point","coordinates":[125.955,38.9808]}}]}