{"type":"FeatureCollection","features":[{"type":"Feature","id":"PRT-744","properties":{"kind":"division","code":"PRT-744","countryCode":"PRT","name":"Évora","localName":"Évora","labelEnglish":"Évora","labelLocal":"Évora","labelBoth":"Évora","type":"District","iso":"PT-07","qid":"Q274118"},"geometry":{"type":"Polygon","coordinates":[[[-7.2259,38.7661],[-7.4819,38.9779],[-7.8385,38.9002],[-8.1969,39.0009],[-8.5466,38.767],[-8.6516,38.6062],[-8.3685,38.5357],[-8.1621,38.3176],[-7.5064,38.1983],[-7.281,38.3308],[-7.1171,38.1836],[-7.3592,38.4464],[-7.2259,38.7661]]]}},{"type":"Feature","id":"label-PRT-744","properties":{"kind":"division-label","code":"PRT-744","countryCode":"PRT","name":"Évora","localName":"Évora","labelEnglish":"Évora","labelLocal":"Évora","labelBoth":"Évora","type":"District","iso":"PT-07","qid":"Q274118"},"geometry":{"type":"Point","coordinates":[-7.88463,38.6036]}},{"type":"Feature","id":"PRT-747","properties":{"kind":"division","code":"PRT-747","countryCode":"PRT","name":"Portalegre","localName":"Portalegre","labelEnglish":"Portalegre","labelLocal":"Portalegre","labelBoth":"Portalegre","type":"District","iso":"PT-12","qid":"Q225189"},"geometry":{"type":"Polygon","coordinates":[[[-7.2259,38.7661],[-6.9733,39.014],[-7.2508,39.2706],[-7.5559,39.6772],[-7.8047,39.5571],[-8.3341,39.1007],[-8.1969,39.0009],[-7.8385,38.9002],[-7.4819,38.9779],[-7.2259,38.7661]]]}},{"type":"Feature","id":"label-PRT-747","properties":{"kind":"division-label","code":"PRT-747","countryCode":"PRT","name":"Portalegre","localName":"Portalegre","labelEnglish":"Portalegre","labelLocal":"Portalegre","labelBoth":"Portalegre","type":"District","iso":"PT-12","qid":"Q225189"},"geometry":{"type":"Point","coordinates":[-7.65389,39.2822]}},{"type":"Feature","id":"PRT-741","properties":{"kind":"division","code":"PRT-741","countryCode":"PRT","name":"Viana do Castelo","localName":"Viana do Castelo","labelEnglish":"Viana do Castelo","labelLocal":"Viana do Castelo","labelBoth":"Viana do Castelo","type":"District","iso":"PT-16","qid":"Q326214"},"geometry":{"type":"Polygon","coordinates":[[[-8.2224,42.1536],[-8.7508,41.969],[-8.8198,41.6178],[-8.1793,41.8126],[-8.2224,42.1536]]]}},{"type":"Feature","id":"label-PRT-741","properties":{"kind":"division-label","code":"PRT-741","countryCode":"PRT","name":"Viana do Castelo","localName":"Viana do Castelo","labelEnglish":"Viana do Castelo","labelLocal":"Viana do Castelo","labelBoth":"Viana do Castelo","type":"District","iso":"PT-16","qid":"Q326214"},"geometry":{"type":"Point","coordinates":[-8.4986,41.9099]}},{"type":"Feature","id":"PRT-751","properties":{"kind":"division","code":"PRT-751","countryCode":"PRT","name":"Castelo Branco","localName":"Castelo Branco","labelEnglish":"Castelo Branco","labelLocal":"Castelo Branco","labelBoth":"Castelo Branco","type":"District","iso":"PT-05","qid":"Q273529"},"geometry":{"type":"Polygon","coordinates":[[[-6.9421,40.255],[-7.4535,40.4134],[-7.7821,40.232],[-7.7401,40.0945],[-8.1263,39.9212],[-8.2791,39.7948],[-7.8047,39.5571],[-7.5559,39.6772],[-7.0358,39.6893],[-6.8797,40.0092],[-6.9421,40.255]]]}},{"type":"Feature","id":"label-PRT-751","properties":{"kind":"division-label","code":"PRT-751","countryCode":"PRT","name":"Castelo Branco","localName":"Castelo Branco","labelEnglish":"Castelo Branco","labelLocal":"Castelo Branco","labelBoth":"Castelo Branco","type":"District","iso":"PT-05","qid":"Q273529"},"geometry":{"type":"Point","coordinates":[-7.58224,39.9984]}},{"type":"Feature","id":"PRT-753","properties":{"kind":"division","code":"PRT-753","countryCode":"PRT","name":"Guarda","localName":"Guarda","labelEnglish":"Guarda","labelLocal":"Guarda","labelBoth":"Guarda","type":"District","iso":"PT-09","qid":"Q273533"},"geometry":{"type":"Polygon","coordinates":[[[-6.8745,40.2792],[-6.8143,40.6472],[-6.9274,41.0481],[-7.3007,41.1593],[-7.5777,40.5723],[-7.8246,40.4978],[-7.7821,40.232],[-7.4535,40.4134],[-6.9421,40.255],[-6.8745,40.2792]]]}},{"type":"Feature","id":"label-PRT-753","properties":{"kind":"division-label","code":"PRT-753","countryCode":"PRT","name":"Guarda","localName":"Guarda","labelEnglish":"Guarda","labelLocal":"Guarda","labelBoth":"Guarda","type":"District","iso":"PT-09","qid":"Q273533"},"geometry":{"type":"Point","coordinates":[-7.31624,40.2918]}},{"type":"Feature","id":"PRT-750","properties":{"kind":"division","code":"PRT-750","countryCode":"PRT","name":"Bragança","localName":"Bragança","labelEnglish":"Bragança","labelLocal":"Bragança","labelBoth":"Bragança","type":"District","iso":"PT-04","qid":"Q373528"},"geometry":{"type":"Polygon","coordinates":[[[-6.4821,41.303],[-6.2059,41.5703],[-6.5774,41.7397],[-6.5676,41.9261],[-6.9835,41.963],[-7.2093,41.8892],[-7.2362,41.5303],[-7.4323,41.216],[-7.3007,41.1593],[-6.9274,41.0481],[-6.4821,41.303]]]}},{"type":"Feature","id":"label-PRT-750","properties":{"kind":"division-label","code":"PRT-750","countryCode":"PRT","name":"Bragança","localName":"Bragança","labelEnglish":"Bragança","labelLocal":"Bragança","labelBoth":"Bragança","type":"District","iso":"PT-04","qid":"Q373528"},"geometry":{"type":"Point","coordinates":[-6.81935,41.5188]}},{"type":"Feature","id":"PRT-756","properties":{"kind":"division","code":"PRT-756","countryCode":"PRT","name":"Vila Real","localName":"Vila Real","labelEnglish":"Vila Real","labelLocal":"Vila Real","labelBoth":"Vila Real","type":"District","iso":"PT-17","qid":"Q379372"},"geometry":{"type":"Polygon","coordinates":[[[-8.0504,41.816],[-7.8135,41.5826],[-7.9755,41.3701],[-7.896,41.1591],[-7.4323,41.216],[-7.2362,41.5303],[-7.2093,41.8892],[-8.0504,41.816]]]}},{"type":"Feature","id":"label-PRT-756","properties":{"kind":"division-label","code":"PRT-756","countryCode":"PRT","name":"Vila Real","localName":"Vila Real","labelEnglish":"Vila Real","labelLocal":"Vila Real","labelBoth":"Vila Real","type":"District","iso":"PT-17","qid":"Q379372"},"geometry":{"type":"Point","coordinates":[-7.64533,41.5279]}},{"type":"Feature","id":"PRT-749","properties":{"kind":"division","code":"PRT-749","countryCode":"PRT","name":"Braga","localName":"Braga","labelEnglish":"Braga","labelLocal":"Braga","labelBoth":"Braga","type":"District","iso":"PT-03","qid":"Q326203"},"geometry":{"type":"Polygon","coordinates":[[[-8.1793,41.8126],[-8.8198,41.6178],[-8.7751,41.4676],[-8.6042,41.3494],[-7.9755,41.3701],[-7.8135,41.5826],[-8.0504,41.816],[-8.1793,41.8126]]]}},{"type":"Feature","id":"label-PRT-749","properties":{"kind":"division-label","code":"PRT-749","countryCode":"PRT","name":"Braga","localName":"Braga","labelEnglish":"Braga","labelLocal":"Braga","labelBoth":"Braga","type":"District","iso":"PT-03","qid":"Q326203"},"geometry":{"type":"Point","coordinates":[-8.31863,41.5663]}},{"type":"Feature","id":"PRT-745","properties":{"kind":"division","code":"PRT-745","countryCode":"PRT","name":"Faro","localName":"Faro","labelEnglish":"Faro","labelLocal":"Faro","labelBoth":"Faro","type":"District","iso":"PT-08","qid":"Q244521"},"geometry":{"type":"Polygon","coordinates":[[[-7.5146,37.5283],[-8.0707,37.3267],[-8.2807,37.4283],[-8.8076,37.4494],[-8.9979,37.0215],[-8.6268,37.1212],[-7.8196,36.9987],[-7.4144,37.1928],[-7.5146,37.5283]]]}},{"type":"Feature","id":"label-PRT-745","properties":{"kind":"division-label","code":"PRT-745","countryCode":"PRT","name":"Faro","localName":"Faro","labelEnglish":"Faro","labelLocal":"Faro","labelBoth":"Faro","type":"District","iso":"PT-08","qid":"Q244521"},"geometry":{"type":"Point","coordinates":[-7.93895,37.1704]}},{"type":"Feature","id":"PRT-743","properties":{"kind":"division","code":"PRT-743","countryCode":"PRT","name":"Beja","localName":"Beja","labelEnglish":"Beja","labelLocal":"Beja","labelBoth":"Beja","type":"District","iso":"PT-02","qid":"Q321455"},"geometry":{"type":"Polygon","coordinates":[[[-6.9506,38.1984],[-7.1171,38.1836],[-7.281,38.3308],[-7.5064,38.1983],[-8.1621,38.3176],[-8.4013,38.076],[-8.3286,37.8467],[-8.8014,37.8268],[-8.8076,37.4494],[-8.2807,37.4283],[-8.0707,37.3267],[-7.5146,37.5283],[-7.2727,37.977],[-6.9506,38.1984]]]}},{"type":"Feature","id":"label-PRT-743","properties":{"kind":"division-label","code":"PRT-743","countryCode":"PRT","name":"Beja","localName":"Beja","labelEnglish":"Beja","labelLocal":"Beja","labelBoth":"Beja","type":"District","iso":"PT-02","qid":"Q321455"},"geometry":{"type":"Point","coordinates":[-7.88716,37.8511]}},{"type":"Feature","id":"PRT-5498","properties":{"kind":"division","code":"PRT-5498","countryCode":"PRT","name":"Setúbal","localName":"Setúbal","labelEnglish":"Setúbal","labelLocal":"Setúbal","labelBoth":"Setúbal","type":"District","iso":"PT-15","qid":"Q274109"},"geometry":{"type":"Polygon","coordinates":[[[-8.8014,37.8268],[-8.3286,37.8467],[-8.4013,38.076],[-8.1621,38.3176],[-8.3685,38.5357],[-8.6516,38.6062],[-8.5466,38.767],[-8.9231,38.7778],[-8.9426,38.7756],[-9.0524,38.6937],[-9.2527,38.6655],[-9.2004,38.4125],[-8.9549,38.5051],[-8.7744,38.1869],[-8.8014,37.8268]]]}},{"type":"Feature","id":"label-PRT-5498","properties":{"kind":"division-label","code":"PRT-5498","countryCode":"PRT","name":"Setúbal","localName":"Setúbal","labelEnglish":"Setúbal","labelLocal":"Setúbal","labelBoth":"Setúbal","type":"District","iso":"PT-15","qid":"Q274109"},"geometry":{"type":"Point","coordinates":[-8.57318,38.2071]}},{"type":"Feature","id":"PRT-746","properties":{"kind":"division","code":"PRT-746","countryCode":"PRT","name":"Lisbon","localName":"Lisbon","labelEnglish":"Lisbon","labelLocal":"Lisbon","labelBoth":"Lisbon","type":"District","iso":"PT-11","qid":"Q207199"},"geometry":{"type":"MultiPolygon","coordinates":[[[[-8.9426,38.7756],[-8.9231,38.7778],[-8.7904,39.0706],[-8.9426,38.7756]]],[[[-8.7918,39.0824],[-8.9941,39.299],[-9.3476,39.2925],[-9.4917,38.7076],[-9.1125,38.7142],[-9.1066,38.8138],[-8.9227,39.0493],[-8.7918,39.0824]]]]}},{"type":"Feature","id":"label-PRT-746","properties":{"kind":"division-label","code":"PRT-746","countryCode":"PRT","name":"Lisbon","localName":"Lisbon","labelEnglish":"Lisbon","labelLocal":"Lisbon","labelBoth":"Lisbon","type":"District","iso":"PT-11","qid":"Q207199"},"geometry":{"type":"Point","coordinates":[-9.13397,38.9835]}},{"type":"Feature","id":"PRT-748","properties":{"kind":"division","code":"PRT-748","countryCode":"PRT","name":"Santarém","localName":"Santarém","labelEnglish":"Santarém","labelLocal":"Santarém","labelBoth":"Santarém","type":"District","iso":"PT-14","qid":"Q244510"},"geometry":{"type":"Polygon","coordinates":[[[-8.7904,39.0706],[-8.9231,38.7778],[-8.5466,38.767],[-8.1969,39.0009],[-8.3341,39.1007],[-7.8047,39.5571],[-8.2791,39.7948],[-8.6658,39.7733],[-8.6722,39.5651],[-8.9941,39.299],[-8.7918,39.0824],[-8.7904,39.0706]]]}},{"type":"Feature","id":"label-PRT-748","properties":{"kind":"division-label","code":"PRT-748","countryCode":"PRT","name":"Santarém","localName":"Santarém","labelEnglish":"Santarém","labelLocal":"Santarém","labelBoth":"Santarém","type":"District","iso":"PT-14","qid":"Q244510"},"geometry":{"type":"Point","coordinates":[-8.40378,39.291]}},{"type":"Feature","id":"PRT-740","properties":{"kind":"division","code":"PRT-740","countryCode":"PRT","name":"Leiria","localName":"Leiria","labelEnglish":"Leiria","labelLocal":"Leiria","labelBoth":"Leiria","type":"District","iso":"PT-10","qid":"Q244512"},"geometry":{"type":"Polygon","coordinates":[[[-9.3476,39.2925],[-8.9941,39.299],[-8.6722,39.5651],[-8.6658,39.7733],[-8.2791,39.7948],[-8.1263,39.9212],[-8.9025,40.0474],[-9.0904,39.5793],[-9.3476,39.2925]]]}},{"type":"Feature","id":"label-PRT-740","properties":{"kind":"division-label","code":"PRT-740","countryCode":"PRT","name":"Leiria","localName":"Leiria","labelEnglish":"Leiria","labelLocal":"Leiria","labelBoth":"Leiria","type":"District","iso":"PT-10","qid":"Q244512"},"geometry":{"type":"Point","coordinates":[-8.75857,39.7583]}},{"type":"Feature","id":"PRT-752","properties":{"kind":"division","code":"PRT-752","countryCode":"PRT","name":"Coimbra","localName":"Coimbra","labelEnglish":"Coimbra","labelLocal":"Coimbra","labelBoth":"Coimbra","type":"District","iso":"PT-06","qid":"Q244517"},"geometry":{"type":"Polygon","coordinates":[[[-8.9025,40.0474],[-8.1263,39.9212],[-7.7401,40.0945],[-7.7821,40.232],[-7.8246,40.4978],[-8.1162,40.3389],[-8.3502,40.372],[-8.7879,40.523],[-8.9025,40.0474]]]}},{"type":"Feature","id":"label-PRT-752","properties":{"kind":"division-label","code":"PRT-752","countryCode":"PRT","name":"Coimbra","localName":"Coimbra","labelEnglish":"Coimbra","labelLocal":"Coimbra","labelBoth":"Coimbra","type":"District","iso":"PT-06","qid":"Q244517"},"geometry":{"type":"Point","coordinates":[-8.32193,40.1645]}},{"type":"Feature","id":"PRT-739","properties":{"kind":"division","code":"PRT-739","countryCode":"PRT","name":"Aveiro","localName":"Aveiro","labelEnglish":"Aveiro","labelLocal":"Aveiro","labelBoth":"Aveiro","type":"District","iso":"PT-01","qid":"Q210527"},"geometry":{"type":"Polygon","coordinates":[[[-8.7879,40.523],[-8.3502,40.372],[-8.3237,40.7121],[-8.0894,40.9934],[-8.2902,41.0834],[-8.6552,41.0167],[-8.6416,40.6942],[-8.7879,40.523]]]}},{"type":"Feature","id":"label-PRT-739","properties":{"kind":"division-label","code":"PRT-739","countryCode":"PRT","name":"Aveiro","localName":"Aveiro","labelEnglish":"Aveiro","labelLocal":"Aveiro","labelBoth":"Aveiro","type":"District","iso":"PT-01","qid":"Q210527"},"geometry":{"type":"Point","coordinates":[-8.4394,40.6738]}},{"type":"Feature","id":"PRT-754","properties":{"kind":"division","code":"PRT-754","countryCode":"PRT","name":"Porto","localName":"Porto","labelEnglish":"Porto","labelLocal":"Porto","labelBoth":"Porto","type":"District","iso":"PT-13","qid":"Q322792"},"geometry":{"type":"Polygon","coordinates":[[[-8.6552,41.0167],[-8.2902,41.0834],[-7.896,41.1591],[-7.9755,41.3701],[-8.6042,41.3494],[-8.7751,41.4676],[-8.6552,41.0167]]]}},{"type":"Feature","id":"label-PRT-754","properties":{"kind":"division-label","code":"PRT-754","countryCode":"PRT","name":"Porto","localName":"Porto","labelEnglish":"Porto","labelLocal":"Porto","labelBoth":"Porto","type":"District","iso":"PT-13","qid":"Q322792"},"geometry":{"type":"Point","coordinates":[-8.33114,41.2118]}},{"type":"Feature","id":"PRT-736","properties":{"kind":"division","code":"PRT-736","countryCode":"PRT","name":"Madeira","localName":"Madeira","labelEnglish":"Madeira","labelLocal":"Madeira","labelBoth":"Madeira","type":"Autonomous region","iso":"PT-30","qid":"Q26253"},"geometry":{"type":"Polygon","coordinates":[[[-16.7887,32.6867],[-16.9197,32.8412],[-17.2521,32.8145],[-16.9768,32.6472],[-16.7887,32.6867]]]}},{"type":"Feature","id":"label-PRT-736","properties":{"kind":"division-label","code":"PRT-736","countryCode":"PRT","name":"Madeira","localName":"Madeira","labelEnglish":"Madeira","labelLocal":"Madeira","labelBoth":"Madeira","type":"Autonomous region","iso":"PT-30","qid":"Q26253"},"geometry":{"type":"Point","coordinates":[-16.9465,32.7427]}},{"type":"Feature","id":"PRT-735","properties":{"kind":"division","code":"PRT-735","countryCode":"PRT","name":"Azores","localName":"Azores","labelEnglish":"Azores","labelLocal":"Azores","labelBoth":"Azores","type":"Autonomous region","iso":"PT-20","qid":"Q25263"},"geometry":{"type":"MultiPolygon","coordinates":[[[[-25.1978,37.8644],[-25.8595,37.8539],[-25.5057,37.7067],[-25.1978,37.8644]]],[[[-28.1095,38.4466],[-28.3745,38.5505],[-28.4595,38.4057],[-28.1095,38.4466]]]]}},{"type":"Feature","id":"label-PRT-735","properties":{"kind":"division-label","code":"PRT-735","countryCode":"PRT","name":"Azores","localName":"Azores","labelEnglish":"Azores","labelLocal":"Azores","labelBoth":"Azores","type":"Autonomous region","iso":"PT-20","qid":"Q25263"},"geometry":{"type":"Point","coordinates":[-28.0394,38.6351]}},{"type":"Feature","id":"PRT-755","properties":{"kind":"division","code":"PRT-755","countryCode":"PRT","name":"Viseu","localName":"Viseu","labelEnglish":"Viseu","labelLocal":"Viseu","labelBoth":"Viseu","type":"District","iso":"PT-18","qid":"Q273525"},"geometry":{"type":"Polygon","coordinates":[[[-7.4323,41.216],[-7.896,41.1591],[-8.2902,41.0834],[-8.0894,40.9934],[-8.3237,40.7121],[-8.3502,40.372],[-8.1162,40.3389],[-7.8246,40.4978],[-7.5777,40.5723],[-7.3007,41.1593],[-7.4323,41.216]]]}},{"type":"Feature","id":"label-PRT-755","properties":{"kind":"division-label","code":"PRT-755","countryCode":"PRT","name":"Viseu","localName":"Viseu","labelEnglish":"Viseu","labelLocal":"Viseu","labelBoth":"Viseu","type":"District","iso":"PT-18","qid":"Q273525"},"geometry":{"type":"Point","coordinates":[-7.82745,40.8417]}}]}