{"type":"FeatureCollection","features":[{"type":"Feature","id":"PRY-598","properties":{"kind":"division","code":"PRY-598","countryCode":"PRY","name":"Boquerón","localName":"Boquerón","labelEnglish":"Boquerón","labelLocal":"Boquerón","labelBoth":"Boquerón","type":"Department","iso":"PY-19","qid":"Q741017"},"geometry":{"type":"Polygon","coordinates":[[[-62.3414,-22.4723],[-61.9564,-23.0344],[-61.4918,-23.4132],[-61.1099,-23.607],[-60.7878,-23.8734],[-60.7651,-23.6638],[-60.0636,-23.4999],[-59.9344,-22.7958],[-59.5945,-22.2956],[-59.3423,-22.083],[-59.9382,-22.0405],[-59.8518,-21.4696],[-59.6958,-21.3254],[-59.7369,-21.0687],[-59.951,-20.6516],[-61.8187,-20.1319],[-61.9247,-20.0651],[-62.2106,-20.4713],[-62.2719,-21.0004],[-62.6504,-22.2345],[-62.3414,-22.4723]]]}},{"type":"Feature","id":"label-PRY-598","properties":{"kind":"division-label","code":"PRY-598","countryCode":"PRY","name":"Boquerón","localName":"Boquerón","labelEnglish":"Boquerón","labelLocal":"Boquerón","labelBoth":"Boquerón","type":"Department","iso":"PY-19","qid":"Q741017"},"geometry":{"type":"Point","coordinates":[-60.9776,-22.0943]}},{"type":"Feature","id":"PRY-605","properties":{"kind":"division","code":"PRY-605","countryCode":"PRY","name":"Presidente Hayes","localName":"Presidente Hayes","labelEnglish":"Presidente Hayes","labelLocal":"Presidente Hayes","labelBoth":"Presidente Hayes","type":"Department","iso":"PY-15","qid":"Q750551"},"geometry":{"type":"Polygon","coordinates":[[[-60.7878,-23.8734],[-60.328,-24.018],[-60.0337,-24.007],[-59.341,-24.4876],[-58.8092,-24.7768],[-57.8905,-25.0787],[-57.672,-25.2898],[-57.5835,-25.2344],[-57.455,-25.1125],[-57.2134,-24.989],[-57.0907,-24.6775],[-57.2953,-23.8717],[-57.4462,-23.4745],[-57.4803,-23.279],[-57.7894,-23.0214],[-57.9402,-22.7163],[-57.7847,-22.6653],[-57.849,-22.423],[-58.2632,-22.198],[-59.1526,-22.1622],[-59.3423,-22.083],[-59.5945,-22.2956],[-59.9344,-22.7958],[-60.0636,-23.4999],[-60.7651,-23.6638],[-60.7878,-23.8734]]]}},{"type":"Feature","id":"label-PRY-605","properties":{"kind":"division-label","code":"PRY-605","countryCode":"PRY","name":"Presidente Hayes","localName":"Presidente Hayes","labelEnglish":"Presidente Hayes","labelLocal":"Presidente Hayes","labelBoth":"Presidente Hayes","type":"Department","iso":"PY-15","qid":"Q750551"},"geometry":{"type":"Point","coordinates":[-58.9417,-23.4234]}},{"type":"Feature","id":"PRY-607","properties":{"kind":"division","code":"PRY-607","countryCode":"PRY","name":"Central","localName":"Central","labelEnglish":"Central","labelLocal":"Central","labelBoth":"Central","type":"Department","iso":"PY-11","qid":"Q372461"},"geometry":{"type":"Polygon","coordinates":[[[-57.5975,-25.4034],[-57.8197,-25.8498],[-57.5036,-26.0111],[-57.426,-25.7381],[-57.1618,-25.4253],[-57.455,-25.1125],[-57.5835,-25.2344],[-57.5975,-25.4034]]]}},{"type":"Feature","id":"label-PRY-607","properties":{"kind":"division-label","code":"PRY-607","countryCode":"PRY","name":"Central","localName":"Central","labelEnglish":"Central","labelLocal":"Central","labelBoth":"Central","type":"Department","iso":"PY-11","qid":"Q372461"},"geometry":{"type":"Point","coordinates":[-57.5265,-25.6711]}},{"type":"Feature","id":"PRY-4837","properties":{"kind":"division","code":"PRY-4837","countryCode":"PRY","name":"Asunción","localName":"Asunción","labelEnglish":"Asunción","labelLocal":"Asunción","labelBoth":"Asunción","type":"Capital District","iso":"PY-ASU","qid":"Q2933"},"geometry":{"type":"Polygon","coordinates":[[[-57.5975,-25.4034],[-57.5835,-25.2344],[-57.672,-25.2898],[-57.5975,-25.4034]]]}},{"type":"Feature","id":"label-PRY-4837","properties":{"kind":"division-label","code":"PRY-4837","countryCode":"PRY","name":"Asunción","localName":"Asunción","labelEnglish":"Asunción","labelLocal":"Asunción","labelBoth":"Asunción","type":"Capital District","iso":"PY-ASU","qid":"Q2933"},"geometry":{"type":"Point","coordinates":[-57.5735,-25.3096]}},{"type":"Feature","id":"PRY-616","properties":{"kind":"division","code":"PRY-616","countryCode":"PRY","name":"Alto Paraná","localName":"Alto Paraná","labelEnglish":"Alto Paraná","labelLocal":"Alto Paraná","labelBoth":"Alto Paraná","type":"Department","iso":"PY-10","qid":"Q682654"},"geometry":{"type":"Polygon","coordinates":[[[-54.6002,-25.5749],[-54.3584,-24.7314],[-54.7845,-24.6684],[-55.2275,-24.5022],[-55.3275,-24.9659],[-54.9494,-25.3377],[-55.2564,-25.2613],[-55.4892,-25.5556],[-55.4,-25.623],[-55.4992,-25.9846],[-55.2915,-26.0833],[-55.0273,-26.237],[-54.665,-26.2389],[-54.6002,-25.5749]]]}},{"type":"Feature","id":"label-PRY-616","properties":{"kind":"division-label","code":"PRY-616","countryCode":"PRY","name":"Alto Paraná","localName":"Alto Paraná","labelEnglish":"Alto Paraná","labelLocal":"Alto Paraná","labelBoth":"Alto Paraná","type":"Department","iso":"PY-10","qid":"Q682654"},"geometry":{"type":"Point","coordinates":[-54.9426,-25.3757]}},{"type":"Feature","id":"PRY-620","properties":{"kind":"division","code":"PRY-620","countryCode":"PRY","name":"Itapúa","localName":"Itapúa","labelEnglish":"Itapúa","labelLocal":"Itapúa","labelBoth":"Itapúa","type":"Department","iso":"PY-7","qid":"Q222564"},"geometry":{"type":"Polygon","coordinates":[[[-54.665,-26.2389],[-55.0273,-26.237],[-55.2915,-26.0833],[-55.4657,-26.2874],[-55.9841,-26.498],[-56.1184,-26.6713],[-56.5723,-26.7224],[-56.532,-27.0864],[-56.638,-27.4529],[-56.3675,-27.5806],[-56.2798,-27.3896],[-55.9661,-27.3317],[-55.7547,-27.4437],[-55.4308,-26.9964],[-55.1384,-26.9537],[-54.7931,-26.645],[-54.665,-26.2389]]]}},{"type":"Feature","id":"label-PRY-620","properties":{"kind":"division-label","code":"PRY-620","countryCode":"PRY","name":"Itapúa","localName":"Itapúa","labelEnglish":"Itapúa","labelLocal":"Itapúa","labelBoth":"Itapúa","type":"Department","iso":"PY-7","qid":"Q222564"},"geometry":{"type":"Point","coordinates":[-55.6773,-26.8545]}},{"type":"Feature","id":"PRY-610","properties":{"kind":"division","code":"PRY-610","countryCode":"PRY","name":"Ñeembucú","localName":"Ñeembucú","labelEnglish":"Ñeembucú","labelLocal":"Ñeembucú","labelBoth":"Ñeembucú","type":"Department","iso":"PY-12","qid":"Q755115"},"geometry":{"type":"Polygon","coordinates":[[[-57.8197,-25.8498],[-58.17,-26.2703],[-58.2479,-26.7582],[-58.3513,-26.8858],[-58.6533,-27.1563],[-58.6042,-27.3163],[-58.022,-27.2598],[-57.3101,-27.4292],[-57.2036,-27.08],[-57.4217,-27.0443],[-57.6348,-26.7808],[-57.7055,-26.4125],[-57.4812,-26.1743],[-57.5036,-26.0111],[-57.8197,-25.8498]]]}},{"type":"Feature","id":"label-PRY-610","properties":{"kind":"division-label","code":"PRY-610","countryCode":"PRY","name":"Ñeembucú","localName":"Ñeembucú","labelEnglish":"Ñeembucú","labelLocal":"Ñeembucú","labelBoth":"Ñeembucú","type":"Department","iso":"PY-12","qid":"Q755115"},"geometry":{"type":"Point","coordinates":[-57.9275,-26.6639]}},{"type":"Feature","id":"PRY-609","properties":{"kind":"division","code":"PRY-609","countryCode":"PRY","name":"Misiones","localName":"Misiones","labelEnglish":"Misiones","labelLocal":"Misiones","labelBoth":"Misiones","type":"Department","iso":"PY-8","qid":"Q591194"},"geometry":{"type":"Polygon","coordinates":[[[-57.3101,-27.4292],[-56.638,-27.4529],[-56.532,-27.0864],[-56.5723,-26.7224],[-56.7834,-26.5408],[-57.0036,-26.4069],[-57.2008,-26.5894],[-57.5488,-26.5506],[-57.7055,-26.4125],[-57.6348,-26.7808],[-57.4217,-27.0443],[-57.2036,-27.08],[-57.3101,-27.4292]]]}},{"type":"Feature","id":"label-PRY-609","properties":{"kind":"division-label","code":"PRY-609","countryCode":"PRY","name":"Misiones","localName":"Misiones","labelEnglish":"Misiones","labelLocal":"Misiones","labelBoth":"Misiones","type":"Department","iso":"PY-8","qid":"Q591194"},"geometry":{"type":"Point","coordinates":[-57.1187,-26.9861]}},{"type":"Feature","id":"PRY-597","properties":{"kind":"division","code":"PRY-597","countryCode":"PRY","name":"Alto Paraguay","localName":"Alto Paraguay","labelEnglish":"Alto Paraguay","labelLocal":"Alto Paraguay","labelBoth":"Alto Paraguay","type":"Department","iso":"PY-16","qid":"Q682642"},"geometry":{"type":"Polygon","coordinates":[[[-58.1588,-20.1651],[-58.1753,-19.8214],[-59.0895,-19.2867],[-60.0064,-19.2981],[-61.7612,-19.6578],[-61.9247,-20.0651],[-61.8187,-20.1319],[-59.951,-20.6516],[-59.7369,-21.0687],[-59.6958,-21.3254],[-59.8518,-21.4696],[-59.9382,-22.0405],[-59.3423,-22.083],[-59.1526,-22.1622],[-58.2632,-22.198],[-57.849,-22.423],[-57.9731,-22.081],[-57.8176,-20.9536],[-57.9806,-20.6927],[-57.9894,-20.4331],[-58.1588,-20.1651]]]}},{"type":"Feature","id":"label-PRY-597","properties":{"kind":"division-label","code":"PRY-597","countryCode":"PRY","name":"Alto Paraguay","localName":"Alto Paraguay","labelEnglish":"Alto Paraguay","labelLocal":"Alto Paraguay","labelBoth":"Alto Paraguay","type":"Department","iso":"PY-16","qid":"Q682642"},"geometry":{"type":"Point","coordinates":[-59.8709,-21.796]}},{"type":"Feature","id":"PRY-603","properties":{"kind":"division","code":"PRY-603","countryCode":"PRY","name":"Concepción","localName":"Concepción","labelEnglish":"Concepción","labelLocal":"Concepción","labelBoth":"Concepción","type":"Department","iso":"PY-1","qid":"Q741009"},"geometry":{"type":"Polygon","coordinates":[[[-57.9731,-22.081],[-57.849,-22.423],[-57.7847,-22.6653],[-57.9402,-22.7163],[-57.7894,-23.0214],[-57.4803,-23.279],[-57.4462,-23.4745],[-56.6054,-23.4523],[-56.301,-23.3397],[-56.1281,-23.0525],[-56.2716,-22.7071],[-56.6522,-22.8176],[-56.7093,-22.4796],[-56.582,-22.362],[-56.8429,-22.289],[-57.2138,-22.1882],[-57.9731,-22.081]]]}},{"type":"Feature","id":"label-PRY-603","properties":{"kind":"division-label","code":"PRY-603","countryCode":"PRY","name":"Concepción","localName":"Concepción","labelEnglish":"Concepción","labelLocal":"Concepción","labelBoth":"Concepción","type":"Department","iso":"PY-1","qid":"Q741009"},"geometry":{"type":"Point","coordinates":[-57.0543,-22.8458]}},{"type":"Feature","id":"PRY-615","properties":{"kind":"division","code":"PRY-615","countryCode":"PRY","name":"Amambay","localName":"Amambay","labelEnglish":"Amambay","labelLocal":"Amambay","labelBoth":"Amambay","type":"Department","iso":"PY-13","qid":"Q686586"},"geometry":{"type":"Polygon","coordinates":[[[-55.5338,-23.5304],[-55.6378,-23.0007],[-55.6312,-22.6268],[-55.8744,-22.3173],[-56.1968,-22.2793],[-56.4218,-22.0745],[-56.8429,-22.289],[-56.582,-22.362],[-56.7093,-22.4796],[-56.6522,-22.8176],[-56.2716,-22.7071],[-56.1281,-23.0525],[-56.301,-23.3397],[-56.0843,-23.3242],[-56.0916,-23.614],[-55.9362,-23.5302],[-56.0591,-23.8485],[-55.9066,-23.8374],[-55.5338,-23.5304]]]}},{"type":"Feature","id":"label-PRY-615","properties":{"kind":"division-label","code":"PRY-615","countryCode":"PRY","name":"Amambay","localName":"Amambay","labelEnglish":"Amambay","labelLocal":"Amambay","labelBoth":"Amambay","type":"Department","iso":"PY-13","qid":"Q686586"},"geometry":{"type":"Point","coordinates":[-56.1788,-23.2295]}},{"type":"Feature","id":"PRY-619","properties":{"kind":"division","code":"PRY-619","countryCode":"PRY","name":"Canindeyú","localName":"Canindeyú","labelEnglish":"Canindeyú","labelLocal":"Canindeyú","labelBoth":"Canindeyú","type":"Department","iso":"PY-14","qid":"Q279085"},"geometry":{"type":"Polygon","coordinates":[[[-55.5338,-23.5304],[-55.9066,-23.8374],[-56.0591,-23.8485],[-55.9975,-23.9998],[-56.1566,-24.2616],[-55.7508,-24.7827],[-55.5228,-24.5557],[-55.2275,-24.5022],[-54.7845,-24.6684],[-54.3584,-24.7314],[-54.2457,-24.0504],[-54.6392,-23.8044],[-54.9436,-23.9692],[-55.398,-23.9768],[-55.5338,-23.5304]]]}},{"type":"Feature","id":"label-PRY-619","properties":{"kind":"division-label","code":"PRY-619","countryCode":"PRY","name":"Canindeyú","localName":"Canindeyú","labelEnglish":"Canindeyú","labelLocal":"Canindeyú","labelBoth":"Canindeyú","type":"Department","iso":"PY-14","qid":"Q279085"},"geometry":{"type":"Point","coordinates":[-55.2022,-24.2567]}},{"type":"Feature","id":"PRY-606","properties":{"kind":"division","code":"PRY-606","countryCode":"PRY","name":"San Pedro","localName":"San Pedro","labelEnglish":"San Pedro","labelLocal":"San Pedro","labelBoth":"San Pedro","type":"Department","iso":"PY-2","qid":"Q526176"},"geometry":{"type":"Polygon","coordinates":[[[-55.7508,-24.7827],[-56.1566,-24.2616],[-55.9975,-23.9998],[-56.0591,-23.8485],[-55.9362,-23.5302],[-56.0916,-23.614],[-56.0843,-23.3242],[-56.301,-23.3397],[-56.6054,-23.4523],[-57.4462,-23.4745],[-57.2953,-23.8717],[-57.0907,-24.6775],[-57.2134,-24.989],[-56.6893,-24.917],[-56.4945,-25.0217],[-56.2471,-24.7887],[-56.0457,-24.9715],[-55.7508,-24.7827]]]}},{"type":"Feature","id":"label-PRY-606","properties":{"kind":"division-label","code":"PRY-606","countryCode":"PRY","name":"San Pedro","localName":"San Pedro","labelEnglish":"San Pedro","labelLocal":"San Pedro","labelBoth":"San Pedro","type":"Department","iso":"PY-2","qid":"Q526176"},"geometry":{"type":"Point","coordinates":[-56.6053,-24.2001]}},{"type":"Feature","id":"PRY-617","properties":{"kind":"division","code":"PRY-617","countryCode":"PRY","name":"Caaguazú","localName":"Caaguazú","labelEnglish":"Caaguazú","labelLocal":"Caaguazú","labelBoth":"Caaguazú","type":"Department","iso":"PY-5","qid":"Q880399"},"geometry":{"type":"Polygon","coordinates":[[[-55.7508,-24.7827],[-56.0457,-24.9715],[-56.2471,-24.7887],[-56.4945,-25.0217],[-56.5638,-25.3493],[-56.8093,-25.5061],[-56.7463,-25.6535],[-56.6468,-25.7104],[-56.3591,-25.5778],[-55.6246,-25.6503],[-55.4892,-25.5556],[-55.2564,-25.2613],[-54.9494,-25.3377],[-55.3275,-24.9659],[-55.2275,-24.5022],[-55.5228,-24.5557],[-55.7508,-24.7827]]]}},{"type":"Feature","id":"label-PRY-617","properties":{"kind":"division-label","code":"PRY-617","countryCode":"PRY","name":"Caaguazú","localName":"Caaguazú","labelEnglish":"Caaguazú","labelLocal":"Caaguazú","labelBoth":"Caaguazú","type":"Department","iso":"PY-5","qid":"Q880399"},"geometry":{"type":"Point","coordinates":[-55.8821,-25.2234]}},{"type":"Feature","id":"PRY-604","properties":{"kind":"division","code":"PRY-604","countryCode":"PRY","name":"Cordillera","localName":"Cordillera","labelEnglish":"Cordillera","labelLocal":"Cordillera","labelBoth":"Cordillera","type":"Department","iso":"PY-3","qid":"Q755121"},"geometry":{"type":"Polygon","coordinates":[[[-56.4945,-25.0217],[-56.6893,-24.917],[-57.2134,-24.989],[-57.455,-25.1125],[-57.1618,-25.4253],[-56.7463,-25.6535],[-56.8093,-25.5061],[-56.5638,-25.3493],[-56.4945,-25.0217]]]}},{"type":"Feature","id":"label-PRY-604","properties":{"kind":"division-label","code":"PRY-604","countryCode":"PRY","name":"Cordillera","localName":"Cordillera","labelEnglish":"Cordillera","labelLocal":"Cordillera","labelBoth":"Cordillera","type":"Department","iso":"PY-3","qid":"Q755121"},"geometry":{"type":"Point","coordinates":[-56.9747,-25.2506]}},{"type":"Feature","id":"PRY-618","properties":{"kind":"division","code":"PRY-618","countryCode":"PRY","name":"Caazapá","localName":"Caazapá","labelEnglish":"Caazapá","labelLocal":"Caazapá","labelBoth":"Caazapá","type":"Department","iso":"PY-6","qid":"Q881839"},"geometry":{"type":"Polygon","coordinates":[[[-55.4892,-25.5556],[-55.6246,-25.6503],[-55.6694,-25.7301],[-56.5865,-26.1759],[-56.7834,-26.5408],[-56.5723,-26.7224],[-56.1184,-26.6713],[-55.9841,-26.498],[-55.4657,-26.2874],[-55.2915,-26.0833],[-55.4992,-25.9846],[-55.4,-25.623],[-55.4892,-25.5556]]]}},{"type":"Feature","id":"label-PRY-618","properties":{"kind":"division-label","code":"PRY-618","countryCode":"PRY","name":"Caazapá","localName":"Caazapá","labelEnglish":"Caazapá","labelLocal":"Caazapá","labelBoth":"Caazapá","type":"Department","iso":"PY-6","qid":"Q881839"},"geometry":{"type":"Point","coordinates":[-56.0049,-26.2005]}},{"type":"Feature","id":"PRY-611","properties":{"kind":"division","code":"PRY-611","countryCode":"PRY","name":"Paraguarí","localName":"Paraguarí","labelEnglish":"Paraguarí","labelLocal":"Paraguarí","labelBoth":"Paraguarí","type":"Department","iso":"PY-9","qid":"Q240014"},"geometry":{"type":"Polygon","coordinates":[[[-56.7463,-25.6535],[-57.1618,-25.4253],[-57.426,-25.7381],[-57.5036,-26.0111],[-57.4812,-26.1743],[-57.7055,-26.4125],[-57.5488,-26.5506],[-57.2008,-26.5894],[-57.0036,-26.4069],[-56.7834,-26.5408],[-56.5865,-26.1759],[-56.6468,-25.7104],[-56.7463,-25.6535]]]}},{"type":"Feature","id":"label-PRY-611","properties":{"kind":"division-label","code":"PRY-611","countryCode":"PRY","name":"Paraguarí","localName":"Paraguarí","labelEnglish":"Paraguarí","labelLocal":"Paraguarí","labelBoth":"Paraguarí","type":"Department","iso":"PY-9","qid":"Q240014"},"geometry":{"type":"Point","coordinates":[-57.146,-25.9805]}},{"type":"Feature","id":"PRY-608","properties":{"kind":"division","code":"PRY-608","countryCode":"PRY","name":"Guairá","localName":"Guairá","labelEnglish":"Guairá","labelLocal":"Guairá","labelBoth":"Guairá","type":"Department","iso":"PY-4","qid":"Q755116"},"geometry":{"type":"Polygon","coordinates":[[[-55.6246,-25.6503],[-56.3591,-25.5778],[-56.6468,-25.7104],[-56.5865,-26.1759],[-55.6694,-25.7301],[-55.6246,-25.6503]]]}},{"type":"Feature","id":"label-PRY-608","properties":{"kind":"division-label","code":"PRY-608","countryCode":"PRY","name":"Guairá","localName":"Guairá","labelEnglish":"Guairá","labelLocal":"Guairá","labelBoth":"Guairá","type":"Department","iso":"PY-4","qid":"Q755116"},"geometry":{"type":"Point","coordinates":[-56.1486,-25.8137]}}]}