{"type":"FeatureCollection","features":[{"type":"Feature","id":"GAZ+00?","properties":{"kind":"division","code":"GAZ+00?","countryCode":"PSX","name":"Gaza","localName":"Gaza","labelEnglish":"Gaza","labelLocal":"Gaza","labelBoth":"Gaza","type":null,"iso":"PS-GZZ","qid":"Q762573"},"geometry":{"type":"Polygon","coordinates":[[[34.4812,31.5831],[34.2003,31.3143],[34.2484,31.2114],[34.4812,31.5831]]]}},{"type":"Feature","id":"label-GAZ+00?","properties":{"kind":"division-label","code":"GAZ+00?","countryCode":"PSX","name":"Gaza","localName":"Gaza","labelEnglish":"Gaza","labelLocal":"Gaza","labelBoth":"Gaza","type":null,"iso":"PS-GZZ","qid":"Q762573"},"geometry":{"type":"Point","coordinates":[34.3654,31.4263]}},{"type":"Feature","id":"WEB+00?","properties":{"kind":"division","code":"WEB+00?","countryCode":"PSX","name":"West Bank","localName":"West Bank","labelEnglish":"West Bank","labelLocal":"West Bank","labelBoth":"West Bank","type":null,"iso":"PS-WBK","qid":null},"geometry":{"type":"Polygon","coordinates":[[[35.2104,32.5419],[35.0327,32.3822],[34.9985,31.8538],[35.2649,31.8263],[34.9532,31.6083],[34.8672,31.3964],[35.1649,31.3623],[35.4581,31.4919],[35.5025,31.6854],[35.5596,32.1904],[35.561,32.3847],[35.2104,32.5419]]]}},{"type":"Feature","id":"label-WEB+00?","properties":{"kind":"division-label","code":"WEB+00?","countryCode":"PSX","name":"West Bank","localName":"West Bank","labelEnglish":"West Bank","labelLocal":"West Bank","labelBoth":"West Bank","type":null,"iso":"PS-WBK","qid":null},"geometry":{"type":"Point","coordinates":[35.2918,32.003]}}]}