{"type":"FeatureCollection","features":[{"type":"Feature","id":"PYF-4965","properties":{"kind":"division","code":"PYF-4965","countryCode":"PYF","name":"Tuamotu Archipelago","localName":"Tuamotu Archipelago","labelEnglish":"Tuamotu Archipelago","labelLocal":"Tuamotu Archipelago","labelBoth":"Tuamotu Archipelago","type":null,"iso":"PF-X03~","qid":null},"geometry":{"type":"Polygon","coordinates":[[[-140.6788,-17.7804],[-140.7825,-17.7516],[-140.7852,-17.8586],[-140.6788,-17.7804]]]}},{"type":"Feature","id":"label-PYF-4965","properties":{"kind":"division-label","code":"PYF-4965","countryCode":"PYF","name":"Tuamotu Archipelago","localName":"Tuamotu Archipelago","labelEnglish":"Tuamotu Archipelago","labelLocal":"Tuamotu Archipelago","labelBoth":"Tuamotu Archipelago","type":null,"iso":"PF-X03~","qid":null},"geometry":{"type":"Point","coordinates":[-143.144,-16.7377]}},{"type":"Feature","id":"PYF-4963","properties":{"kind":"division","code":"PYF-4963","countryCode":"PYF","name":"Windward Islands","localName":"Windward Islands","labelEnglish":"Windward Islands","labelLocal":"Windward Islands","labelBoth":"Windward Islands","type":null,"iso":"PF-X01~","qid":null},"geometry":{"type":"Polygon","coordinates":[[[-149.1835,-17.7312],[-149.3541,-17.5401],[-149.6043,-17.5258],[-149.5875,-17.7312],[-149.1835,-17.7312]]]}},{"type":"Feature","id":"label-PYF-4963","properties":{"kind":"division-label","code":"PYF-4963","countryCode":"PYF","name":"Windward Islands","localName":"Windward Islands","labelEnglish":"Windward Islands","labelLocal":"Windward Islands","labelBoth":"Windward Islands","type":null,"iso":"PF-X01~","qid":null},"geometry":{"type":"Point","coordinates":[-149.519,-17.7462]}},{"type":"Feature","id":"PYF-4964","properties":{"kind":"division","code":"PYF-4964","countryCode":"PYF","name":"Leeward Islands","localName":"Leeward Islands","labelEnglish":"Leeward Islands","labelLocal":"Leeward Islands","labelBoth":"Leeward Islands","type":null,"iso":"PF-X02~","qid":null},"geometry":{"type":"Polygon","coordinates":[[[-151.4787,-16.7382],[-151.4582,-16.9026],[-151.3525,-16.8586],[-151.4787,-16.7382]]]}},{"type":"Feature","id":"label-PYF-4964","properties":{"kind":"division-label","code":"PYF-4964","countryCode":"PYF","name":"Leeward Islands","localName":"Leeward Islands","labelEnglish":"Leeward Islands","labelLocal":"Leeward Islands","labelBoth":"Leeward Islands","type":null,"iso":"PF-X02~","qid":null},"geometry":{"type":"Point","coordinates":[-151.495,-16.6692]}},{"type":"Feature","id":"PYF-4966","properties":{"kind":"division","code":"PYF-4966","countryCode":"PYF","name":"Austral Islands","localName":"Austral Islands","labelEnglish":"Austral Islands","labelLocal":"Austral Islands","labelBoth":"Austral Islands","type":null,"iso":"PF-X04~","qid":null},"geometry":{"type":"Polygon","coordinates":[[[-144.2838,-27.5792],[-144.348,-27.5855],[-144.3127,-27.6401],[-144.2838,-27.5792]]]}},{"type":"Feature","id":"label-PYF-4966","properties":{"kind":"division-label","code":"PYF-4966","countryCode":"PYF","name":"Austral Islands","localName":"Austral Islands","labelEnglish":"Austral Islands","labelLocal":"Austral Islands","labelBoth":"Austral Islands","type":null,"iso":"PF-X04~","qid":null},"geometry":{"type":"Point","coordinates":[-151.324,-22.5218]}},{"type":"Feature","id":"PYF-4967","properties":{"kind":"division","code":"PYF-4967","countryCode":"PYF","name":"Marquesas Islands","localName":"Marquesas Islands","labelEnglish":"Marquesas Islands","labelLocal":"Marquesas Islands","labelBoth":"Marquesas Islands","type":null,"iso":"PF-X05~","qid":null},"geometry":{"type":"Polygon","coordinates":[[[-138.8366,-9.7411],[-139.0514,-9.7014],[-139.055,-9.8063],[-138.8366,-9.7411]]]}},{"type":"Feature","id":"label-PYF-4967","properties":{"kind":"division-label","code":"PYF-4967","countryCode":"PYF","name":"Marquesas Islands","localName":"Marquesas Islands","labelEnglish":"Marquesas Islands","labelLocal":"Marquesas Islands","labelBoth":"Marquesas Islands","type":null,"iso":"PF-X05~","qid":null},"geometry":{"type":"Point","coordinates":[-139.037,-9.75565]}}]}