{"type":"FeatureCollection","features":[{"type":"Feature","id":"QAT-1100","properties":{"kind":"division","code":"QAT-1100","countryCode":"QAT","name":"Al Rayyan","localName":"Al Rayyan","labelEnglish":"Al Rayyan","labelLocal":"Al Rayyan","labelBoth":"Al Rayyan","type":"Municipality","iso":"QA-RA","qid":"Q311272"},"geometry":{"type":"Polygon","coordinates":[[[50.8079,24.7466],[50.9789,24.5677],[51.2153,24.6259],[51.221,24.6442],[51.221,25.0096],[51.4616,25.1571],[51.4936,25.18],[51.5433,25.2182],[51.4451,25.3597],[51.2874,25.5658],[51.2136,25.7324],[50.9496,25.7753],[50.751,25.4947],[50.8079,24.7466]]]}},{"type":"Feature","id":"label-QAT-1100","properties":{"kind":"division-label","code":"QAT-1100","countryCode":"QAT","name":"Al Rayyan","localName":"Al Rayyan","labelEnglish":"Al Rayyan","labelLocal":"Al Rayyan","labelBoth":"Al Rayyan","type":"Municipality","iso":"QA-RA","qid":"Q311272"},"geometry":{"type":"Point","coordinates":[51.1605,25.1648]}},{"type":"Feature","id":"QAT-1101","properties":{"kind":"division","code":"QAT-1101","countryCode":"QAT","name":"Al Wakrah","localName":"Al Wakrah","labelEnglish":"Al Wakrah","labelLocal":"Al Wakrah","labelBoth":"Al Wakrah","type":"Municipality","iso":"QA-WA","qid":"Q310893"},"geometry":{"type":"Polygon","coordinates":[[[51.6111,25.2375],[51.5433,25.2182],[51.4936,25.18],[51.4616,25.1571],[51.221,25.0096],[51.221,24.6442],[51.4436,24.6798],[51.6111,25.2375]]]}},{"type":"Feature","id":"label-QAT-1101","properties":{"kind":"division-label","code":"QAT-1101","countryCode":"QAT","name":"Al Wakrah","localName":"Al Wakrah","labelEnglish":"Al Wakrah","labelLocal":"Al Wakrah","labelBoth":"Al Wakrah","type":"Municipality","iso":"QA-WA","qid":"Q310893"},"geometry":{"type":"Point","coordinates":[51.4743,24.9661]}},{"type":"Feature","id":"QAT-1099","properties":{"kind":"division","code":"QAT-1099","countryCode":"QAT","name":"Doha","localName":"Doha","labelEnglish":"Doha","labelLocal":"Doha","labelBoth":"Doha","type":"Municipality","iso":"QA-DA","qid":"Q3861"},"geometry":{"type":"Polygon","coordinates":[[[51.5157,25.3828],[51.4451,25.3597],[51.5433,25.2182],[51.6111,25.2375],[51.5157,25.3828]]]}},{"type":"Feature","id":"label-QAT-1099","properties":{"kind":"division-label","code":"QAT-1099","countryCode":"QAT","name":"Doha","localName":"Doha","labelEnglish":"Doha","labelLocal":"Doha","labelBoth":"Doha","type":"Municipality","iso":"QA-DA","qid":"Q3861"},"geometry":{"type":"Point","coordinates":[51.5282,25.2686]}},{"type":"Feature","id":"QAT-5487","properties":{"kind":"division","code":"QAT-5487","countryCode":"QAT","name":"Al Daayen","localName":"Al Daayen","labelEnglish":"Al Daayen","labelLocal":"Al Daayen","labelBoth":"Al Daayen","type":"Municipality","iso":"QA-ZA","qid":"Q310786"},"geometry":{"type":"Polygon","coordinates":[[[51.5359,25.6224],[51.4006,25.5509],[51.4451,25.3597],[51.5157,25.3828],[51.5359,25.6224]]]}},{"type":"Feature","id":"label-QAT-5487","properties":{"kind":"division-label","code":"QAT-5487","countryCode":"QAT","name":"Al Daayen","localName":"Al Daayen","labelEnglish":"Al Daayen","labelLocal":"Al Daayen","labelBoth":"Al Daayen","type":"Municipality","iso":"QA-ZA","qid":"Q310786"},"geometry":{"type":"Point","coordinates":[51.4671,25.4579]}},{"type":"Feature","id":"QAT-1105","properties":{"kind":"division","code":"QAT-1105","countryCode":"QAT","name":"Al Khor","localName":"Al Khor","labelEnglish":"Al Khor","labelLocal":"Al Khor","labelBoth":"Al Khor","type":"Municipality","iso":"QA-KH","qid":"Q1156471"},"geometry":{"type":"Polygon","coordinates":[[[51.4165,25.9521],[51.4168,25.8297],[51.1039,25.9283],[50.9724,25.8251],[50.9496,25.7753],[51.2136,25.7324],[51.2874,25.5658],[51.4006,25.5509],[51.5359,25.6224],[51.5775,25.8808],[51.4165,25.9521]]]}},{"type":"Feature","id":"label-QAT-1105","properties":{"kind":"division-label","code":"QAT-1105","countryCode":"QAT","name":"Al Khor","localName":"Al Khor","labelEnglish":"Al Khor","labelLocal":"Al Khor","labelBoth":"Al Khor","type":"Municipality","iso":"QA-KH","qid":"Q1156471"},"geometry":{"type":"Point","coordinates":[51.4212,25.7512]}},{"type":"Feature","id":"QAT-1106","properties":{"kind":"division","code":"QAT-1106","countryCode":"QAT","name":"Madinat ash Shamal","localName":"Madinat ash Shamal","labelEnglish":"Madinat ash Shamal","labelLocal":"Madinat ash Shamal","labelBoth":"Madinat ash Shamal","type":"Municipality","iso":"QA-MS","qid":"Q310872"},"geometry":{"type":"Polygon","coordinates":[[[50.9724,25.8251],[51.1039,25.9283],[51.4168,25.8297],[51.4165,25.9521],[51.2512,26.1601],[50.9842,25.9814],[50.9724,25.8251]]]}},{"type":"Feature","id":"label-QAT-1106","properties":{"kind":"division-label","code":"QAT-1106","countryCode":"QAT","name":"Madinat ash Shamal","localName":"Madinat ash Shamal","labelEnglish":"Madinat ash Shamal","labelLocal":"Madinat ash Shamal","labelBoth":"Madinat ash Shamal","type":"Municipality","iso":"QA-MS","qid":"Q310872"},"geometry":{"type":"Point","coordinates":[51.1832,26.0095]}},{"type":"Feature","id":"QAT-1107","properties":{"kind":"division","code":"QAT-1107","countryCode":"QAT","name":"Umm Salal","localName":"Umm Salal","labelEnglish":"Umm Salal","labelLocal":"Umm Salal","labelBoth":"Umm Salal","type":"Municipality","iso":"QA-US","qid":"Q990414"},"geometry":{"type":"Polygon","coordinates":[[[51.2874,25.5658],[51.4451,25.3597],[51.4006,25.5509],[51.2874,25.5658]]]}},{"type":"Feature","id":"label-QAT-1107","properties":{"kind":"division-label","code":"QAT-1107","countryCode":"QAT","name":"Umm Salal","localName":"Umm Salal","labelEnglish":"Umm Salal","labelLocal":"Umm Salal","labelBoth":"Umm Salal","type":"Municipality","iso":"QA-US","qid":"Q990414"},"geometry":{"type":"Point","coordinates":[51.3552,25.4594]}}]}