{"type":"FeatureCollection","features":[{"type":"Feature","id":"ROU-301","properties":{"kind":"division","code":"ROU-301","countryCode":"ROU","name":"Satu Mare","localName":"Satu Mare","labelEnglish":"Satu Mare","labelLocal":"Satu Mare","labelBoth":"Satu Mare","type":"County","iso":"RO-SM","qid":"Q165459"},"geometry":{"type":"Polygon","coordinates":[[[22.8776,47.9467],[22.2617,47.7158],[22.1676,47.5949],[22.5807,47.3214],[23.0905,47.4043],[22.9688,47.4445],[23.6207,47.8162],[23.4855,47.9742],[23.1186,48.0915],[22.8776,47.9467]]]}},{"type":"Feature","id":"label-ROU-301","properties":{"kind":"division-label","code":"ROU-301","countryCode":"ROU","name":"Satu Mare","localName":"Satu Mare","labelEnglish":"Satu Mare","labelLocal":"Satu Mare","labelBoth":"Satu Mare","type":"County","iso":"RO-SM","qid":"Q165459"},"geometry":{"type":"Point","coordinates":[22.8986,47.6632]}},{"type":"Feature","id":"ROU-276","properties":{"kind":"division","code":"ROU-276","countryCode":"ROU","name":"Arad","localName":"Arad","labelEnglish":"Arad","labelLocal":"Arad","labelBoth":"Arad","type":"County","iso":"RO-AR","qid":"Q179559"},"geometry":{"type":"Polygon","coordinates":[[[21.4235,46.6582],[21.1349,46.2785],[20.7874,46.2634],[20.7044,46.1685],[20.9196,46.0371],[21.6703,45.9017],[22.3549,45.9499],[22.4336,46.1761],[22.7553,46.3338],[22.7067,46.3687],[22.4203,46.3902],[22.1455,46.5827],[21.4235,46.6582]]]}},{"type":"Feature","id":"label-ROU-276","properties":{"kind":"division-label","code":"ROU-276","countryCode":"ROU","name":"Arad","localName":"Arad","labelEnglish":"Arad","labelLocal":"Arad","labelBoth":"Arad","type":"County","iso":"RO-AR","qid":"Q179559"},"geometry":{"type":"Point","coordinates":[21.7296,46.3019]}},{"type":"Feature","id":"ROU-277","properties":{"kind":"division","code":"ROU-277","countryCode":"ROU","name":"Bihor","localName":"Bihor","labelEnglish":"Bihor","labelLocal":"Bihor","labelBoth":"Bihor","type":"County","iso":"RO-BH","qid":"Q179588"},"geometry":{"type":"Polygon","coordinates":[[[21.4235,46.6582],[22.1455,46.5827],[22.4203,46.3902],[22.7067,46.3687],[22.8028,46.5569],[22.7194,46.9794],[22.5807,47.3214],[22.1676,47.5949],[22.1542,47.5822],[21.6343,47.0194],[21.4235,46.6582]]]}},{"type":"Feature","id":"label-ROU-277","properties":{"kind":"division-label","code":"ROU-277","countryCode":"ROU","name":"Bihor","localName":"Bihor","labelEnglish":"Bihor","labelLocal":"Bihor","labelBoth":"Bihor","type":"County","iso":"RO-BH","qid":"Q179588"},"geometry":{"type":"Point","coordinates":[22.1155,47.0865]}},{"type":"Feature","id":"ROU-280","properties":{"kind":"division","code":"ROU-280","countryCode":"ROU","name":"Timiș","localName":"Timiș","labelEnglish":"Timiș","labelLocal":"Timiș","labelBoth":"Timiș","type":"County","iso":"RO-TM","qid":"Q185586"},"geometry":{"type":"Polygon","coordinates":[[[20.7044,46.1685],[20.2428,46.1081],[20.6435,45.7951],[20.7607,45.4933],[21.0167,45.3215],[21.4844,45.1527],[21.5918,45.5487],[22.4454,45.6629],[22.3549,45.9499],[21.6703,45.9017],[20.9196,46.0371],[20.7044,46.1685]]]}},{"type":"Feature","id":"label-ROU-280","properties":{"kind":"division-label","code":"ROU-280","countryCode":"ROU","name":"Timiș","localName":"Timiș","labelEnglish":"Timiș","labelLocal":"Timiș","labelBoth":"Timiș","type":"County","iso":"RO-TM","qid":"Q185586"},"geometry":{"type":"Point","coordinates":[21.393,45.5963]}},{"type":"Feature","id":"ROU-124","properties":{"kind":"division","code":"ROU-124","countryCode":"ROU","name":"Mehedinți","localName":"Mehedinți","labelEnglish":"Mehedinți","labelLocal":"Mehedinți","labelBoth":"Mehedinți","type":"County","iso":"RO-MH","qid":"Q191717"},"geometry":{"type":"Polygon","coordinates":[[[23.0083,44.1004],[23.2189,44.4516],[23.4894,44.5503],[22.9374,44.8416],[22.6411,45.0924],[22.4418,44.7694],[22.2219,44.8062],[22.0342,44.5962],[22.0362,44.5895],[22.1851,44.5151],[22.4261,44.7337],[22.7652,44.5828],[22.4841,44.4998],[22.6916,44.2284],[23.0083,44.1004]]]}},{"type":"Feature","id":"label-ROU-124","properties":{"kind":"division-label","code":"ROU-124","countryCode":"ROU","name":"Mehedinți","localName":"Mehedinți","labelEnglish":"Mehedinți","labelLocal":"Mehedinți","labelBoth":"Mehedinți","type":"County","iso":"RO-MH","qid":"Q191717"},"geometry":{"type":"Point","coordinates":[22.9252,44.5837]}},{"type":"Feature","id":"ROU-122","properties":{"kind":"division","code":"ROU-122","countryCode":"ROU","name":"Dolj","localName":"Dolj","labelEnglish":"Dolj","labelLocal":"Dolj","labelBoth":"Dolj","type":"County","iso":"RO-DJ","qid":"Q191065"},"geometry":{"type":"Polygon","coordinates":[[[23.0083,44.1004],[22.8505,43.897],[23.0526,43.8428],[23.6209,43.834],[24.1496,43.7547],[24.2509,44.2195],[23.9582,44.5297],[23.7755,44.7225],[23.4894,44.5503],[23.2189,44.4516],[23.0083,44.1004]]]}},{"type":"Feature","id":"label-ROU-122","properties":{"kind":"division-label","code":"ROU-122","countryCode":"ROU","name":"Dolj","localName":"Dolj","labelEnglish":"Dolj","labelLocal":"Dolj","labelBoth":"Dolj","type":"County","iso":"RO-DJ","qid":"Q191065"},"geometry":{"type":"Point","coordinates":[23.5718,44.219]}},{"type":"Feature","id":"ROU-129","properties":{"kind":"division","code":"ROU-129","countryCode":"ROU","name":"Călărași","localName":"Călărași","labelEnglish":"Călărași","labelLocal":"Călărași","labelBoth":"Călărași","type":"County","iso":"RO-CL","qid":"Q188948"},"geometry":{"type":"Polygon","coordinates":[[[26.4158,44.0638],[27.0275,44.177],[27.2527,44.1215],[27.934,44.266],[28.0228,44.3547],[27.4658,44.5065],[26.4341,44.5233],[26.28,44.3215],[26.4158,44.0638]]]}},{"type":"Feature","id":"label-ROU-129","properties":{"kind":"division-label","code":"ROU-129","countryCode":"ROU","name":"Călărași","localName":"Călărași","labelEnglish":"Călărași","labelLocal":"Călărași","labelBoth":"Călărași","type":"County","iso":"RO-CL","qid":"Q188948"},"geometry":{"type":"Point","coordinates":[27.1514,44.3144]}},{"type":"Feature","id":"ROU-127","properties":{"kind":"division","code":"ROU-127","countryCode":"ROU","name":"Teleorman","localName":"Teleorman","labelEnglish":"Teleorman","labelLocal":"Teleorman","labelBoth":"Teleorman","type":"County","iso":"RO-TR","qid":"Q191653"},"geometry":{"type":"Polygon","coordinates":[[[25.7329,43.7188],[25.7095,44.2823],[25.5136,44.5059],[25.2785,44.4373],[24.8513,44.3899],[24.8413,44.1158],[24.6316,43.991],[24.6618,43.7557],[25.2854,43.6904],[25.4825,43.6697],[25.7329,43.7188]]]}},{"type":"Feature","id":"label-ROU-127","properties":{"kind":"division-label","code":"ROU-127","countryCode":"ROU","name":"Teleorman","localName":"Teleorman","labelEnglish":"Teleorman","labelLocal":"Teleorman","labelBoth":"Teleorman","type":"County","iso":"RO-TR","qid":"Q191653"},"geometry":{"type":"Point","coordinates":[25.1818,44.0831]}},{"type":"Feature","id":"ROU-131","properties":{"kind":"division","code":"ROU-131","countryCode":"ROU","name":"Giurgiu","localName":"Giurgiu","labelEnglish":"Giurgiu","labelLocal":"Giurgiu","labelBoth":"Giurgiu","type":"County","iso":"RO-GR","qid":"Q193055"},"geometry":{"type":"Polygon","coordinates":[[[26.3323,44.0549],[26.4158,44.0638],[26.28,44.3215],[25.9051,44.3693],[25.9071,44.5659],[25.5136,44.5059],[25.7095,44.2823],[25.7329,43.7188],[26.3323,44.0549]]]}},{"type":"Feature","id":"label-ROU-131","properties":{"kind":"division-label","code":"ROU-131","countryCode":"ROU","name":"Giurgiu","localName":"Giurgiu","labelEnglish":"Giurgiu","labelLocal":"Giurgiu","labelBoth":"Giurgiu","type":"County","iso":"RO-GR","qid":"Q193055"},"geometry":{"type":"Point","coordinates":[25.978,44.1133]}},{"type":"Feature","id":"ROU-133","properties":{"kind":"division","code":"ROU-133","countryCode":"ROU","name":"Constanța","localName":"Constanța","labelEnglish":"Constanța","labelLocal":"Constanța","labelBoth":"Constanța","type":"County","iso":"RO-CT","qid":"Q188505"},"geometry":{"type":"Polygon","coordinates":[[[27.2527,44.1215],[27.6825,43.9873],[27.981,43.8493],[28.5784,43.7413],[28.6409,44.3286],[28.9097,44.5842],[28.7854,44.6797],[28.0548,44.777],[27.9109,44.7753],[28.0228,44.3547],[27.934,44.266],[27.2527,44.1215]]]}},{"type":"Feature","id":"label-ROU-133","properties":{"kind":"division-label","code":"ROU-133","countryCode":"ROU","name":"Constanța","localName":"Constanța","labelEnglish":"Constanța","labelLocal":"Constanța","labelBoth":"Constanța","type":"County","iso":"RO-CT","qid":"Q188505"},"geometry":{"type":"Point","coordinates":[28.4763,44.5099]}},{"type":"Feature","id":"ROU-126","properties":{"kind":"division","code":"ROU-126","countryCode":"ROU","name":"Olt","localName":"Olt","labelEnglish":"Olt","labelLocal":"Olt","labelBoth":"Olt","type":"County","iso":"RO-OT","qid":"Q188945"},"geometry":{"type":"Polygon","coordinates":[[[24.1496,43.7547],[24.3367,43.7593],[24.6618,43.7557],[24.6316,43.991],[24.8413,44.1158],[24.8513,44.3899],[24.7177,44.7416],[24.4378,44.85],[24.2933,44.6179],[23.9582,44.5297],[24.2509,44.2195],[24.1496,43.7547]]]}},{"type":"Feature","id":"label-ROU-126","properties":{"kind":"division-label","code":"ROU-126","countryCode":"ROU","name":"Olt","localName":"Olt","labelEnglish":"Olt","labelLocal":"Olt","labelBoth":"Olt","type":"County","iso":"RO-OT","qid":"Q188945"},"geometry":{"type":"Point","coordinates":[24.3781,44.3288]}},{"type":"Feature","id":"ROU-278","properties":{"kind":"division","code":"ROU-278","countryCode":"ROU","name":"Caraș-Severin","localName":"Caraș-Severin","labelEnglish":"Caraș-Severin","labelLocal":"Caraș-Severin","labelBoth":"Caraș-Severin","type":"County","iso":"RO-CS","qid":"Q187925"},"geometry":{"type":"Polygon","coordinates":[[[21.4844,45.1527],[21.3598,44.8267],[22.0342,44.5962],[22.2219,44.8062],[22.4418,44.7694],[22.6411,45.0924],[22.6691,45.2405],[22.6784,45.4925],[22.4454,45.6629],[21.5918,45.5487],[21.4844,45.1527]]]}},{"type":"Feature","id":"label-ROU-278","properties":{"kind":"division-label","code":"ROU-278","countryCode":"ROU","name":"Caraș-Severin","localName":"Caraș-Severin","labelEnglish":"Caraș-Severin","labelLocal":"Caraș-Severin","labelBoth":"Caraș-Severin","type":"County","iso":"RO-CS","qid":"Q187925"},"geometry":{"type":"Point","coordinates":[22.0247,45.0625]}},{"type":"Feature","id":"ROU-287","properties":{"kind":"division","code":"ROU-287","countryCode":"ROU","name":"Botoșani","localName":"Botoșani","labelEnglish":"Botoșani","labelLocal":"Botoșani","labelBoth":"Botoșani","type":"County","iso":"RO-BT","qid":"Q178861"},"geometry":{"type":"Polygon","coordinates":[[[27.048,48.1214],[26.6179,48.259],[26.3035,48.212],[26.1025,47.9783],[26.6585,47.4267],[27.4313,47.5726],[27.4294,47.5781],[27.2881,47.7507],[27.1783,47.9421],[27.048,48.1214]]]}},{"type":"Feature","id":"label-ROU-287","properties":{"kind":"division-label","code":"ROU-287","countryCode":"ROU","name":"Botoșani","localName":"Botoșani","labelEnglish":"Botoșani","labelLocal":"Botoșani","labelBoth":"Botoșani","type":"County","iso":"RO-BT","qid":"Q178861"},"geometry":{"type":"Point","coordinates":[26.7668,47.868]}},{"type":"Feature","id":"ROU-308","properties":{"kind":"division","code":"ROU-308","countryCode":"ROU","name":"Iași","localName":"Iași","labelEnglish":"Iași","labelLocal":"Iași","labelBoth":"Iași","type":"County","iso":"RO-IS","qid":"Q182888"},"geometry":{"type":"Polygon","coordinates":[[[27.4313,47.5726],[26.6585,47.4267],[26.4823,47.2536],[26.8724,47.0113],[27.148,47.0751],[27.2048,46.8596],[28.1226,46.8423],[28.105,46.9202],[28.0381,47.0155],[27.5887,47.3674],[27.4313,47.5726]]]}},{"type":"Feature","id":"label-ROU-308","properties":{"kind":"division-label","code":"ROU-308","countryCode":"ROU","name":"Iași","localName":"Iași","labelEnglish":"Iași","labelLocal":"Iași","labelBoth":"Iași","type":"County","iso":"RO-IS","qid":"Q182888"},"geometry":{"type":"Point","coordinates":[27.3031,47.2053]}},{"type":"Feature","id":"ROU-316","properties":{"kind":"division","code":"ROU-316","countryCode":"ROU","name":"Vaslui","localName":"Vaslui","labelEnglish":"Vaslui","labelLocal":"Vaslui","labelBoth":"Vaslui","type":"County","iso":"RO-VS","qid":"Q167199"},"geometry":{"type":"Polygon","coordinates":[[[28.1226,46.8423],[27.2048,46.8596],[27.2255,46.7428],[27.5199,46.1626],[27.5332,46.1165],[28.1078,46.0961],[28.1105,46.1015],[28.2268,46.3955],[28.2451,46.6315],[28.1226,46.8423]]]}},{"type":"Feature","id":"label-ROU-316","properties":{"kind":"division-label","code":"ROU-316","countryCode":"ROU","name":"Vaslui","localName":"Vaslui","labelEnglish":"Vaslui","labelLocal":"Vaslui","labelBoth":"Vaslui","type":"County","iso":"RO-VS","qid":"Q167199"},"geometry":{"type":"Point","coordinates":[27.7259,46.5225]}},{"type":"Feature","id":"ROU-315","properties":{"kind":"division","code":"ROU-315","countryCode":"ROU","name":"Galați","localName":"Galați","labelEnglish":"Galați","labelLocal":"Galați","labelBoth":"Galați","type":"County","iso":"RO-GL","qid":"Q188796"},"geometry":{"type":"Polygon","coordinates":[[[28.1078,46.0961],[27.5332,46.1165],[27.2591,45.9426],[27.5801,45.4933],[28.0302,45.3954],[28.2151,45.4504],[28.1995,45.4618],[28.1078,46.0961]]]}},{"type":"Feature","id":"label-ROU-315","properties":{"kind":"division-label","code":"ROU-315","countryCode":"ROU","name":"Galați","localName":"Galați","labelEnglish":"Galați","labelLocal":"Galați","labelBoth":"Galați","type":"County","iso":"RO-GL","qid":"Q188796"},"geometry":{"type":"Point","coordinates":[27.7329,45.7861]}},{"type":"Feature","id":"ROU-311","properties":{"kind":"division","code":"ROU-311","countryCode":"ROU","name":"Suceava","localName":"Suceava","labelEnglish":"Suceava","labelLocal":"Suceava","labelBoth":"Suceava","type":"County","iso":"RO-SV","qid":"Q181209"},"geometry":{"type":"Polygon","coordinates":[[[26.1025,47.9783],[25.2617,47.8986],[24.9424,47.7156],[24.9562,47.5823],[25.0686,47.103],[25.2047,47.0764],[25.6713,47.0579],[25.8194,47.2246],[26.4823,47.2536],[26.6585,47.4267],[26.1025,47.9783]]]}},{"type":"Feature","id":"label-ROU-311","properties":{"kind":"division-label","code":"ROU-311","countryCode":"ROU","name":"Suceava","localName":"Suceava","labelEnglish":"Suceava","labelLocal":"Suceava","labelBoth":"Suceava","type":"County","iso":"RO-SV","qid":"Q181209"},"geometry":{"type":"Point","coordinates":[25.8089,47.2144]}},{"type":"Feature","id":"ROU-298","properties":{"kind":"division","code":"ROU-298","countryCode":"ROU","name":"Maramureș","localName":"Maramureș","labelEnglish":"Maramureș","labelLocal":"Maramureș","labelBoth":"Maramureș","type":"County","iso":"RO-MM","qid":"Q188813"},"geometry":{"type":"Polygon","coordinates":[[[24.5698,47.9373],[24.231,47.897],[23.4855,47.9742],[23.6207,47.8162],[22.9688,47.4445],[23.0905,47.4043],[23.8129,47.3165],[24.0075,47.3246],[24.3833,47.5621],[24.9562,47.5823],[24.9424,47.7156],[24.9289,47.7139],[24.5698,47.9373]]]}},{"type":"Feature","id":"label-ROU-298","properties":{"kind":"division-label","code":"ROU-298","countryCode":"ROU","name":"Maramureș","localName":"Maramureș","labelEnglish":"Maramureș","labelLocal":"Maramureș","labelBoth":"Maramureș","type":"County","iso":"RO-MM","qid":"Q188813"},"geometry":{"type":"Point","coordinates":[23.9992,47.6435]}},{"type":"Feature","id":"ROU-4847","properties":{"kind":"division","code":"ROU-4847","countryCode":"ROU","name":"Tulcea","localName":"Tulcea","labelEnglish":"Tulcea","labelLocal":"Tulcea","labelBoth":"Tulcea","type":"County","iso":"RO-TL","qid":"Q191078"},"geometry":{"type":"Polygon","coordinates":[[[29.659,45.2159],[29.3221,45.4438],[28.7787,45.2311],[28.2151,45.4504],[28.0302,45.3954],[28.1308,45.2377],[28.0548,44.777],[28.7854,44.6797],[29.6178,44.8615],[29.659,45.2159]]]}},{"type":"Feature","id":"label-ROU-4847","properties":{"kind":"division-label","code":"ROU-4847","countryCode":"ROU","name":"Tulcea","localName":"Tulcea","labelEnglish":"Tulcea","labelLocal":"Tulcea","labelBoth":"Tulcea","type":"County","iso":"RO-TL","qid":"Q191078"},"geometry":{"type":"Point","coordinates":[28.6227,45.0257]}},{"type":"Feature","id":"ROU-296","properties":{"kind":"division","code":"ROU-296","countryCode":"ROU","name":"Cluj","localName":"Cluj","labelEnglish":"Cluj","labelLocal":"Cluj","labelBoth":"Cluj","type":"County","iso":"RO-CJ","qid":"Q182624"},"geometry":{"type":"Polygon","coordinates":[[[24.0075,47.3246],[23.8129,47.3165],[23.4857,47.0045],[23.0108,46.8791],[22.7194,46.9794],[22.8028,46.5569],[23.0703,46.4563],[23.4037,46.5271],[23.6182,46.4143],[23.9954,46.4497],[24.1968,46.7845],[24.0075,47.3246]]]}},{"type":"Feature","id":"label-ROU-296","properties":{"kind":"division-label","code":"ROU-296","countryCode":"ROU","name":"Cluj","localName":"Cluj","labelEnglish":"Cluj","labelLocal":"Cluj","labelBoth":"Cluj","type":"County","iso":"RO-CJ","qid":"Q182624"},"geometry":{"type":"Point","coordinates":[23.5307,46.7479]}},{"type":"Feature","id":"ROU-295","properties":{"kind":"division","code":"ROU-295","countryCode":"ROU","name":"Bistrița-Năsăud","localName":"Bistrița-Năsăud","labelEnglish":"Bistrița-Năsăud","labelLocal":"Bistrița-Năsăud","labelBoth":"Bistrița-Năsăud","type":"County","iso":"RO-BN","qid":"Q181513"},"geometry":{"type":"Polygon","coordinates":[[[24.1968,46.7845],[24.4979,46.7736],[25.0686,47.103],[24.9562,47.5823],[24.3833,47.5621],[24.0075,47.3246],[24.1968,46.7845]]]}},{"type":"Feature","id":"label-ROU-295","properties":{"kind":"division-label","code":"ROU-295","countryCode":"ROU","name":"Bistrița-Năsăud","localName":"Bistrița-Năsăud","labelEnglish":"Bistrița-Năsăud","labelLocal":"Bistrița-Năsăud","labelBoth":"Bistrița-Năsăud","type":"County","iso":"RO-BN","qid":"Q181513"},"geometry":{"type":"Point","coordinates":[24.5132,47.1789]}},{"type":"Feature","id":"ROU-300","properties":{"kind":"division","code":"ROU-300","countryCode":"ROU","name":"Sălaj","localName":"Sălaj","labelEnglish":"Sălaj","labelLocal":"Sălaj","labelBoth":"Sălaj","type":"County","iso":"RO-SJ","qid":"Q190690"},"geometry":{"type":"Polygon","coordinates":[[[23.8129,47.3165],[23.0905,47.4043],[22.5807,47.3214],[22.7194,46.9794],[23.0108,46.8791],[23.4857,47.0045],[23.8129,47.3165]]]}},{"type":"Feature","id":"label-ROU-300","properties":{"kind":"division-label","code":"ROU-300","countryCode":"ROU","name":"Sălaj","localName":"Sălaj","labelEnglish":"Sălaj","labelLocal":"Sălaj","labelBoth":"Sălaj","type":"County","iso":"RO-SJ","qid":"Q190690"},"geometry":{"type":"Point","coordinates":[23.1615,47.1483]}},{"type":"Feature","id":"ROU-130","properties":{"kind":"division","code":"ROU-130","countryCode":"ROU","name":"Dâmbovița","localName":"Dâmbovița","labelEnglish":"Dâmbovița","labelLocal":"Dâmbovița","labelBoth":"Dâmbovița","type":"County","iso":"RO-DB","qid":"Q188797"},"geometry":{"type":"Polygon","coordinates":[[[26.0289,44.7381],[25.5257,45.2238],[25.4298,45.4523],[25.3092,45.3885],[25.1907,44.6548],[25.2785,44.4373],[25.5136,44.5059],[25.9071,44.5659],[26.0289,44.7381]]]}},{"type":"Feature","id":"label-ROU-130","properties":{"kind":"division-label","code":"ROU-130","countryCode":"ROU","name":"Dâmbovița","localName":"Dâmbovița","labelEnglish":"Dâmbovița","labelLocal":"Dâmbovița","labelBoth":"Dâmbovița","type":"County","iso":"RO-DB","qid":"Q188797"},"geometry":{"type":"Point","coordinates":[25.596,44.8486]}},{"type":"Feature","id":"ROU-4844","properties":{"kind":"division","code":"ROU-4844","countryCode":"ROU","name":"Ilfov","localName":"Ilfov","labelEnglish":"Ilfov","labelLocal":"Ilfov","labelBoth":"Ilfov","type":"County","iso":"RO-IF","qid":"Q191670"},"geometry":{"type":"Polygon","coordinates":[[[25.9071,44.5659],[25.9051,44.3693],[26.28,44.3215],[26.4341,44.5233],[26.2696,44.7598],[26.0289,44.7381],[25.9071,44.5659]],[[26.1957,44.4027],[25.9758,44.4311],[26.1045,44.5926],[26.1957,44.4027]]]}},{"type":"Feature","id":"label-ROU-4844","properties":{"kind":"division-label","code":"ROU-4844","countryCode":"ROU","name":"Ilfov","localName":"Ilfov","labelEnglish":"Ilfov","labelLocal":"Ilfov","labelBoth":"Ilfov","type":"County","iso":"RO-IF","qid":"Q191670"},"geometry":{"type":"Point","coordinates":[26.2137,44.6465]}},{"type":"Feature","id":"ROU-302","properties":{"kind":"division","code":"ROU-302","countryCode":"ROU","name":"Argeș","localName":"Argeș","labelEnglish":"Argeș","labelLocal":"Argeș","labelBoth":"Argeș","type":"County","iso":"RO-AG","qid":"Q179567"},"geometry":{"type":"Polygon","coordinates":[[[25.3092,45.3885],[25.0951,45.5696],[24.7091,45.5988],[24.5272,45.5618],[24.4378,44.85],[24.7177,44.7416],[24.8513,44.3899],[25.2785,44.4373],[25.1907,44.6548],[25.3092,45.3885]]]}},{"type":"Feature","id":"label-ROU-302","properties":{"kind":"division-label","code":"ROU-302","countryCode":"ROU","name":"Argeș","localName":"Argeș","labelEnglish":"Argeș","labelLocal":"Argeș","labelBoth":"Argeș","type":"County","iso":"RO-AG","qid":"Q179567"},"geometry":{"type":"Point","coordinates":[24.8859,44.9867]}},{"type":"Feature","id":"ROU-123","properties":{"kind":"division","code":"ROU-123","countryCode":"ROU","name":"Gorj","localName":"Gorj","labelEnglish":"Gorj","labelLocal":"Gorj","labelBoth":"Gorj","type":"County","iso":"RO-GJ","qid":"Q190406"},"geometry":{"type":"Polygon","coordinates":[[[23.5858,45.3526],[22.6691,45.2405],[22.6411,45.0924],[22.9374,44.8416],[23.4894,44.5503],[23.7755,44.7225],[23.8433,45.1891],[23.5858,45.3526]]]}},{"type":"Feature","id":"label-ROU-123","properties":{"kind":"division-label","code":"ROU-123","countryCode":"ROU","name":"Gorj","localName":"Gorj","labelEnglish":"Gorj","labelLocal":"Gorj","labelBoth":"Gorj","type":"County","iso":"RO-GJ","qid":"Q190406"},"geometry":{"type":"Point","coordinates":[23.2029,44.9827]}},{"type":"Feature","id":"ROU-297","properties":{"kind":"division","code":"ROU-297","countryCode":"ROU","name":"Hunedoara","localName":"Hunedoara","labelEnglish":"Hunedoara","labelLocal":"Hunedoara","labelBoth":"Hunedoara","type":"County","iso":"RO-HD","qid":"Q191071"},"geometry":{"type":"Polygon","coordinates":[[[23.5858,45.3526],[23.5842,45.4473],[23.3161,45.8768],[22.9043,46.3173],[22.7553,46.3338],[22.4336,46.1761],[22.3549,45.9499],[22.4454,45.6629],[22.6784,45.4925],[22.6691,45.2405],[23.5858,45.3526]]]}},{"type":"Feature","id":"label-ROU-297","properties":{"kind":"division-label","code":"ROU-297","countryCode":"ROU","name":"Hunedoara","localName":"Hunedoara","labelEnglish":"Hunedoara","labelLocal":"Hunedoara","labelBoth":"Hunedoara","type":"County","iso":"RO-HD","qid":"Q191071"},"geometry":{"type":"Point","coordinates":[22.9774,45.7435]}},{"type":"Feature","id":"ROU-304","properties":{"kind":"division","code":"ROU-304","countryCode":"ROU","name":"Vâlcea","localName":"Vâlcea","labelEnglish":"Vâlcea","labelLocal":"Vâlcea","labelBoth":"Vâlcea","type":"County","iso":"RO-VL","qid":"Q186838"},"geometry":{"type":"Polygon","coordinates":[[[23.5858,45.3526],[23.8433,45.1891],[23.7755,44.7225],[23.9582,44.5297],[24.2933,44.6179],[24.4378,44.85],[24.5272,45.5618],[23.6261,45.4519],[23.5842,45.4473],[23.5858,45.3526]]]}},{"type":"Feature","id":"label-ROU-304","properties":{"kind":"division-label","code":"ROU-304","countryCode":"ROU","name":"Vâlcea","localName":"Vâlcea","labelEnglish":"Vâlcea","labelLocal":"Vâlcea","labelBoth":"Vâlcea","type":"County","iso":"RO-VL","qid":"Q186838"},"geometry":{"type":"Point","coordinates":[24.0601,45.0142]}},{"type":"Feature","id":"ROU-310","properties":{"kind":"division","code":"ROU-310","countryCode":"ROU","name":"Prahova","localName":"Prahova","labelEnglish":"Prahova","labelLocal":"Prahova","labelBoth":"Prahova","type":"County","iso":"RO-PH","qid":"Q188665"},"geometry":{"type":"Polygon","coordinates":[[[26.0289,44.7381],[26.2696,44.7598],[26.6039,44.8651],[26.4692,45.1176],[26.046,45.4823],[25.4298,45.4523],[25.5257,45.2238],[26.0289,44.7381]]]}},{"type":"Feature","id":"label-ROU-310","properties":{"kind":"division-label","code":"ROU-310","countryCode":"ROU","name":"Prahova","localName":"Prahova","labelEnglish":"Prahova","labelLocal":"Prahova","labelBoth":"Prahova","type":"County","iso":"RO-PH","qid":"Q188665"},"geometry":{"type":"Point","coordinates":[26.0168,45.1133]}},{"type":"Feature","id":"ROU-306","properties":{"kind":"division","code":"ROU-306","countryCode":"ROU","name":"Covasna","localName":"Covasna","labelEnglish":"Covasna","labelLocal":"Covasna","labelBoth":"Covasna","type":"County","iso":"RO-CV","qid":"Q188959"},"geometry":{"type":"Polygon","coordinates":[[[26.4848,46.0212],[26.2516,46.1503],[25.8985,46.1158],[25.6781,46.2911],[25.4545,46.1059],[25.554,45.8697],[26.1005,45.5644],[26.3804,45.8029],[26.4848,46.0212]]]}},{"type":"Feature","id":"label-ROU-306","properties":{"kind":"division-label","code":"ROU-306","countryCode":"ROU","name":"Covasna","localName":"Covasna","labelEnglish":"Covasna","labelLocal":"Covasna","labelBoth":"Covasna","type":"County","iso":"RO-CV","qid":"Q188959"},"geometry":{"type":"Point","coordinates":[25.9665,45.8885]}},{"type":"Feature","id":"ROU-317","properties":{"kind":"division","code":"ROU-317","countryCode":"ROU","name":"Vrancea","localName":"Vrancea","labelEnglish":"Vrancea","labelLocal":"Vrancea","labelBoth":"Vrancea","type":"County","iso":"RO-VN","qid":"Q182778"},"geometry":{"type":"Polygon","coordinates":[[[26.3804,45.8029],[26.569,45.6248],[27.4235,45.3865],[27.5801,45.4933],[27.2591,45.9426],[27.5332,46.1165],[27.5199,46.1626],[26.4848,46.0212],[26.3804,45.8029]]]}},{"type":"Feature","id":"label-ROU-317","properties":{"kind":"division-label","code":"ROU-317","countryCode":"ROU","name":"Vrancea","localName":"Vrancea","labelEnglish":"Vrancea","labelLocal":"Vrancea","labelBoth":"Vrancea","type":"County","iso":"RO-VN","qid":"Q182778"},"geometry":{"type":"Point","coordinates":[26.9802,45.7963]}},{"type":"Feature","id":"ROU-314","properties":{"kind":"division","code":"ROU-314","countryCode":"ROU","name":"Buzău","localName":"Buzău","labelEnglish":"Buzău","labelLocal":"Buzău","labelBoth":"Buzău","type":"County","iso":"RO-BZ","qid":"Q185309"},"geometry":{"type":"Polygon","coordinates":[[[26.3804,45.8029],[26.1005,45.5644],[26.046,45.4823],[26.4692,45.1176],[26.6039,44.8651],[27.2006,44.8194],[27.1435,45.1878],[27.4235,45.3865],[26.569,45.6248],[26.3804,45.8029]]]}},{"type":"Feature","id":"label-ROU-314","properties":{"kind":"division-label","code":"ROU-314","countryCode":"ROU","name":"Buzău","localName":"Buzău","labelEnglish":"Buzău","labelLocal":"Buzău","labelBoth":"Buzău","type":"County","iso":"RO-BZ","qid":"Q185309"},"geometry":{"type":"Point","coordinates":[26.7347,45.2071]}},{"type":"Feature","id":"ROU-305","properties":{"kind":"division","code":"ROU-305","countryCode":"ROU","name":"Brașov","localName":"Brașov","labelEnglish":"Brașov","labelLocal":"Brașov","labelBoth":"Brașov","type":"County","iso":"RO-BV","qid":"Q182614"},"geometry":{"type":"Polygon","coordinates":[[[25.4298,45.4523],[26.046,45.4823],[26.1005,45.5644],[25.554,45.8697],[25.4545,46.1059],[25.1881,46.1434],[24.9819,46.0636],[24.7216,45.9135],[24.7091,45.5988],[25.0951,45.5696],[25.3092,45.3885],[25.4298,45.4523]]]}},{"type":"Feature","id":"label-ROU-305","properties":{"kind":"division-label","code":"ROU-305","countryCode":"ROU","name":"Brașov","localName":"Brașov","labelEnglish":"Brașov","labelLocal":"Brașov","labelBoth":"Brașov","type":"County","iso":"RO-BV","qid":"Q182614"},"geometry":{"type":"Point","coordinates":[25.3749,45.7729]}},{"type":"Feature","id":"ROU-303","properties":{"kind":"division","code":"ROU-303","countryCode":"ROU","name":"Sibiu","localName":"Sibiu","labelEnglish":"Sibiu","labelLocal":"Sibiu","labelBoth":"Sibiu","type":"County","iso":"RO-SB","qid":"Q184797"},"geometry":{"type":"Polygon","coordinates":[[[24.7091,45.5988],[24.7216,45.9135],[24.9819,46.0636],[24.663,46.242],[24.1918,46.2442],[23.6095,45.6933],[23.6261,45.4519],[24.5272,45.5618],[24.7091,45.5988]]]}},{"type":"Feature","id":"label-ROU-303","properties":{"kind":"division-label","code":"ROU-303","countryCode":"ROU","name":"Sibiu","localName":"Sibiu","labelEnglish":"Sibiu","labelLocal":"Sibiu","labelBoth":"Sibiu","type":"County","iso":"RO-SB","qid":"Q184797"},"geometry":{"type":"Point","coordinates":[24.2957,45.9038]}},{"type":"Feature","id":"ROU-299","properties":{"kind":"division","code":"ROU-299","countryCode":"ROU","name":"Mureș","localName":"Mureș","labelEnglish":"Mureș","labelLocal":"Mureș","labelBoth":"Mureș","type":"County","iso":"RO-MS","qid":"Q190711"},"geometry":{"type":"Polygon","coordinates":[[[23.9954,46.4497],[24.1918,46.2442],[24.663,46.242],[24.9819,46.0636],[25.1881,46.1434],[24.8767,46.3163],[25.2722,46.6574],[25.2047,47.0764],[25.0686,47.103],[24.4979,46.7736],[24.1968,46.7845],[23.9954,46.4497]]]}},{"type":"Feature","id":"label-ROU-299","properties":{"kind":"division-label","code":"ROU-299","countryCode":"ROU","name":"Mureș","localName":"Mureș","labelEnglish":"Mureș","labelLocal":"Mureș","labelBoth":"Mureș","type":"County","iso":"RO-MS","qid":"Q190711"},"geometry":{"type":"Point","coordinates":[24.6284,46.5856]}},{"type":"Feature","id":"ROU-307","properties":{"kind":"division","code":"ROU-307","countryCode":"ROU","name":"Harghita","localName":"Harghita","labelEnglish":"Harghita","labelLocal":"Harghita","labelBoth":"Harghita","type":"County","iso":"RO-HR","qid":"Q190702"},"geometry":{"type":"Polygon","coordinates":[[[25.4545,46.1059],[25.6781,46.2911],[25.8985,46.1158],[26.2516,46.1503],[26.0088,46.668],[25.6713,47.0579],[25.2047,47.0764],[25.2722,46.6574],[24.8767,46.3163],[25.1881,46.1434],[25.4545,46.1059]]]}},{"type":"Feature","id":"label-ROU-307","properties":{"kind":"division-label","code":"ROU-307","countryCode":"ROU","name":"Harghita","localName":"Harghita","labelEnglish":"Harghita","labelLocal":"Harghita","labelBoth":"Harghita","type":"County","iso":"RO-HR","qid":"Q190702"},"geometry":{"type":"Point","coordinates":[25.5853,46.6393]}},{"type":"Feature","id":"ROU-309","properties":{"kind":"division","code":"ROU-309","countryCode":"ROU","name":"Neamț","localName":"Neamț","labelEnglish":"Neamț","labelLocal":"Neamț","labelBoth":"Neamț","type":"County","iso":"RO-NT","qid":"Q188661"},"geometry":{"type":"Polygon","coordinates":[[[25.6713,47.0579],[26.0088,46.668],[27.2255,46.7428],[27.2048,46.8596],[27.148,47.0751],[26.8724,47.0113],[26.4823,47.2536],[25.8194,47.2246],[25.6713,47.0579]]]}},{"type":"Feature","id":"label-ROU-309","properties":{"kind":"division-label","code":"ROU-309","countryCode":"ROU","name":"Neamț","localName":"Neamț","labelEnglish":"Neamț","labelLocal":"Neamț","labelBoth":"Neamț","type":"County","iso":"RO-NT","qid":"Q188661"},"geometry":{"type":"Point","coordinates":[26.4554,46.9704]}},{"type":"Feature","id":"ROU-312","properties":{"kind":"division","code":"ROU-312","countryCode":"ROU","name":"Bacău","localName":"Bacău","labelEnglish":"Bacău","labelLocal":"Bacău","labelBoth":"Bacău","type":"County","iso":"RO-BC","qid":"Q179779"},"geometry":{"type":"Polygon","coordinates":[[[26.4848,46.0212],[27.5199,46.1626],[27.2255,46.7428],[26.0088,46.668],[26.2516,46.1503],[26.4848,46.0212]]]}},{"type":"Feature","id":"label-ROU-312","properties":{"kind":"division-label","code":"ROU-312","countryCode":"ROU","name":"Bacău","localName":"Bacău","labelEnglish":"Bacău","labelLocal":"Bacău","labelBoth":"Bacău","type":"County","iso":"RO-BC","qid":"Q179779"},"geometry":{"type":"Point","coordinates":[26.7643,46.4067]}},{"type":"Feature","id":"ROU-294","properties":{"kind":"division","code":"ROU-294","countryCode":"ROU","name":"Alba","localName":"Alba","labelEnglish":"Alba","labelLocal":"Alba","labelBoth":"Alba","type":"County","iso":"RO-AB","qid":"Q45868"},"geometry":{"type":"Polygon","coordinates":[[[22.7553,46.3338],[22.9043,46.3173],[23.3161,45.8768],[23.5842,45.4473],[23.6261,45.4519],[23.6095,45.6933],[24.1918,46.2442],[23.9954,46.4497],[23.6182,46.4143],[23.4037,46.5271],[23.0703,46.4563],[22.8028,46.5569],[22.7067,46.3687],[22.7553,46.3338]]]}},{"type":"Feature","id":"label-ROU-294","properties":{"kind":"division-label","code":"ROU-294","countryCode":"ROU","name":"Alba","localName":"Alba","labelEnglish":"Alba","labelLocal":"Alba","labelBoth":"Alba","type":"County","iso":"RO-AB","qid":"Q45868"},"geometry":{"type":"Point","coordinates":[23.5651,46.1478]}},{"type":"Feature","id":"ROU-313","properties":{"kind":"division","code":"ROU-313","countryCode":"ROU","name":"Brăila","localName":"Brăila","labelEnglish":"Brăila","labelLocal":"Brăila","labelBoth":"Brăila","type":"County","iso":"RO-BR","qid":"Q188503"},"geometry":{"type":"Polygon","coordinates":[[[27.4235,45.3865],[27.1435,45.1878],[27.2006,44.8194],[27.9109,44.7753],[28.0548,44.777],[28.1308,45.2377],[28.0302,45.3954],[27.5801,45.4933],[27.4235,45.3865]]]}},{"type":"Feature","id":"label-ROU-313","properties":{"kind":"division-label","code":"ROU-313","countryCode":"ROU","name":"Brăila","localName":"Brăila","labelEnglish":"Brăila","labelLocal":"Brăila","labelBoth":"Brăila","type":"County","iso":"RO-BR","qid":"Q188503"},"geometry":{"type":"Point","coordinates":[27.6204,45.1346]}},{"type":"Feature","id":"ROU-132","properties":{"kind":"division","code":"ROU-132","countryCode":"ROU","name":"Ialomița","localName":"Ialomița","labelEnglish":"Ialomița","labelLocal":"Ialomița","labelBoth":"Ialomița","type":"County","iso":"RO-IL","qid":"Q193044"},"geometry":{"type":"Polygon","coordinates":[[[26.4341,44.5233],[27.4658,44.5065],[28.0228,44.3547],[27.9109,44.7753],[27.2006,44.8194],[26.6039,44.8651],[26.2696,44.7598],[26.4341,44.5233]]]}},{"type":"Feature","id":"label-ROU-132","properties":{"kind":"division-label","code":"ROU-132","countryCode":"ROU","name":"Ialomița","localName":"Ialomița","labelEnglish":"Ialomița","labelLocal":"Ialomița","labelBoth":"Ialomița","type":"County","iso":"RO-IL","qid":"Q193044"},"geometry":{"type":"Point","coordinates":[27.1899,44.6345]}},{"type":"Feature","id":"ROU-128","properties":{"kind":"division","code":"ROU-128","countryCode":"ROU","name":"Bucharest","localName":"Bucharest","labelEnglish":"Bucharest","labelLocal":"Bucharest","labelBoth":"Bucharest","type":"City","iso":"RO-B","qid":"Q19660"},"geometry":{"type":"Polygon","coordinates":[[[26.1957,44.4027],[26.1045,44.5926],[25.9758,44.4311],[26.1957,44.4027]]]}},{"type":"Feature","id":"label-ROU-128","properties":{"kind":"division-label","code":"ROU-128","countryCode":"ROU","name":"Bucharest","localName":"Bucharest","labelEnglish":"Bucharest","labelLocal":"Bucharest","labelBoth":"Bucharest","type":"City","iso":"RO-B","qid":"Q19660"},"geometry":{"type":"Point","coordinates":[26.0999,44.467]}}]}