{"type":"FeatureCollection","features":[{"type":"Feature","id":"RWA-3493","properties":{"kind":"division","code":"RWA-3493","countryCode":"RWA","name":"Eastern","localName":"Est","labelEnglish":"Eastern","labelLocal":"Est","labelBoth":"Eastern · Est","type":"Province","iso":"RW-02","qid":"Q853152"},"geometry":{"type":"Polygon","coordinates":[[[30.3486,-2.3224],[30.5546,-2.4006],[30.8344,-2.3453],[30.831,-1.5942],[30.5553,-1.3184],[30.4718,-1.0668],[30.4608,-1.0634],[30.291,-1.1526],[30.066,-1.3869],[30.2471,-1.8432],[30.0178,-2.0721],[29.9568,-2.327],[30.1391,-2.4308],[30.3486,-2.3224]]]}},{"type":"Feature","id":"label-RWA-3493","properties":{"kind":"division-label","code":"RWA-3493","countryCode":"RWA","name":"Eastern","localName":"Est","labelEnglish":"Eastern","labelLocal":"Est","labelBoth":"Eastern · Est","type":"Province","iso":"RW-02","qid":"Q853152"},"geometry":{"type":"Point","coordinates":[30.4223,-1.69059]}},{"type":"Feature","id":"RWA-3491","properties":{"kind":"division","code":"RWA-3491","countryCode":"RWA","name":"Southern","localName":"Sud","labelEnglish":"Southern","labelLocal":"Sud","labelBoth":"Southern · Sud","type":"Province","iso":"RW-05","qid":"Q853162"},"geometry":{"type":"Polygon","coordinates":[[[29.9568,-2.327],[30.0178,-2.0721],[29.9811,-1.9094],[29.6577,-1.7331],[29.6058,-2.1823],[29.3284,-2.3112],[29.3095,-2.6901],[29.4447,-2.807],[29.6371,-2.7916],[29.9037,-2.6379],[29.9568,-2.327]]]}},{"type":"Feature","id":"label-RWA-3491","properties":{"kind":"division-label","code":"RWA-3491","countryCode":"RWA","name":"Southern","localName":"Sud","labelEnglish":"Southern","labelLocal":"Sud","labelBoth":"Southern · Sud","type":"Province","iso":"RW-05","qid":"Q853162"},"geometry":{"type":"Point","coordinates":[29.6424,-2.38388]}},{"type":"Feature","id":"RWA-3492","properties":{"kind":"division","code":"RWA-3492","countryCode":"RWA","name":"Western","localName":"Ouest","labelEnglish":"Western","labelLocal":"Ouest","labelBoth":"Western · Ouest","type":"Province","iso":"RW-04","qid":"Q737354"},"geometry":{"type":"Polygon","coordinates":[[[29.3095,-2.6901],[29.3284,-2.3112],[29.6058,-2.1823],[29.6577,-1.7331],[29.4451,-1.4973],[29.1866,-1.7396],[29.1506,-2.1504],[28.8588,-2.4182],[29.0154,-2.7207],[29.3095,-2.6901]]]}},{"type":"Feature","id":"label-RWA-3492","properties":{"kind":"division-label","code":"RWA-3492","countryCode":"RWA","name":"Western","localName":"Ouest","labelEnglish":"Western","labelLocal":"Ouest","labelBoth":"Western · Ouest","type":"Province","iso":"RW-04","qid":"Q737354"},"geometry":{"type":"Point","coordinates":[29.2644,-2.13156]}},{"type":"Feature","id":"RWA-3494","properties":{"kind":"division","code":"RWA-3494","countryCode":"RWA","name":"Northern","localName":"Nord","labelEnglish":"Northern","labelLocal":"Nord","labelBoth":"Northern · Nord","type":"Province","iso":"RW-03","qid":"Q845807"},"geometry":{"type":"Polygon","coordinates":[[[30.066,-1.3869],[29.825,-1.3239],[29.5779,-1.3884],[29.4451,-1.4973],[29.6577,-1.7331],[29.9811,-1.9094],[30.2471,-1.8432],[30.066,-1.3869]]]}},{"type":"Feature","id":"label-RWA-3494","properties":{"kind":"division-label","code":"RWA-3494","countryCode":"RWA","name":"Northern","localName":"Nord","labelEnglish":"Northern","labelLocal":"Nord","labelBoth":"Northern · Nord","type":"Province","iso":"RW-03","qid":"Q845807"},"geometry":{"type":"Point","coordinates":[29.8587,-1.61148]}},{"type":"Feature","id":"RWA-3495","properties":{"kind":"division","code":"RWA-3495","countryCode":"RWA","name":"Kigali","localName":"Kigali","labelEnglish":"Kigali","labelLocal":"Kigali","labelBoth":"Kigali","type":"Province","iso":"RW-01","qid":"Q3859"},"geometry":{"type":"Polygon","coordinates":[[[30.0178,-2.0721],[30.2471,-1.8432],[29.9811,-1.9094],[30.0178,-2.0721]]]}},{"type":"Feature","id":"label-RWA-3495","properties":{"kind":"division-label","code":"RWA-3495","countryCode":"RWA","name":"Kigali","localName":"Kigali","labelEnglish":"Kigali","labelLocal":"Kigali","labelBoth":"Kigali","type":"Province","iso":"RW-01","qid":"Q3859"},"geometry":{"type":"Point","coordinates":[30.1253,-1.92643]}}]}