{"type":"FeatureCollection","features":[{"type":"Feature","id":"SAH+00?","properties":{"kind":"division","code":"SAH+00?","countryCode":"SAH","name":"Western Sahara","localName":"Western Sahara","labelEnglish":"Western Sahara","labelLocal":"Western Sahara","labelBoth":"Western Sahara","type":null,"iso":"EH-X01~","qid":null},"geometry":{"type":"Polygon","coordinates":[[[-8.6824,27.6614],[-8.817,27.6615],[-8.7939,27.1202],[-9.4121,27.088],[-9.7344,26.8604],[-10.2505,26.8604],[-10.5503,26.9903],[-10.9218,27.0098],[-11.3916,26.8829],[-11.3369,26.6329],[-11.7172,26.1036],[-12.0562,25.9953],[-12.4301,24.8302],[-12.9469,24.4967],[-13.31,23.9806],[-13.77,23.7901],[-14.02,23.4103],[-14.2202,22.3096],[-14.6299,21.8604],[-14.6699,21.5997],[-14.8398,21.4503],[-15.75,21.4903],[-16.73,21.4698],[-17.0137,21.42],[-17.0569,20.7669],[-16.9588,21.3329],[-14.2956,21.3332],[-13.0152,21.3334],[-13.0321,21.5819],[-13.0933,22.4955],[-13.1655,22.7527],[-13.0152,23.018],[-12.6194,23.2708],[-12.0153,23.4952],[-12.0153,25.9949],[-10.2023,25.995],[-8.6808,26.0131],[-8.6824,27.2854],[-8.6824,27.6614]]]}},{"type":"Feature","id":"label-SAH+00?","properties":{"kind":"division-label","code":"SAH+00?","countryCode":"SAH","name":"Western Sahara","localName":"Western Sahara","labelEnglish":"Western Sahara","labelLocal":"Western Sahara","labelBoth":"Western Sahara","type":null,"iso":"EH-X01~","qid":null},"geometry":{"type":"Point","coordinates":[-12.8924,23.813]}}]}