{"type":"FeatureCollection","features":[{"type":"Feature","id":"SAU-1098","properties":{"kind":"division","code":"SAU-1098","countryCode":"SAU","name":"Eastern","localName":"Eastern","labelEnglish":"Eastern","labelLocal":"Eastern","labelBoth":"Eastern","type":"Region","iso":"SA-04","qid":"Q953508"},"geometry":{"type":"Polygon","coordinates":[[[50.8079,24.7466],[50.5454,25.1186],[50.4629,25.4469],[50.1447,25.7333],[50.1013,25.9895],[50.1916,26.4036],[50.0306,26.4946],[49.9421,26.8583],[49.3226,27.2057],[49.2398,27.5451],[48.8733,27.6125],[48.8779,27.8368],[48.6065,28.1265],[48.4328,28.5405],[47.6681,28.5335],[47.4463,28.9762],[46.5324,29.0957],[46.4273,29.0761],[45.801,28.8382],[45.5648,28.6023],[45.2127,28.0165],[44.9953,27.773],[44.99,27.5326],[45.2453,27.2319],[45.6706,27.0637],[45.8691,26.8883],[46.2938,26.7861],[46.5406,26.6271],[46.8518,26.6101],[47.465,26.1746],[47.4876,24.8337],[47.5346,24.7346],[48.1412,24.2701],[48.2896,23.9999],[48.2991,23.655],[48.0142,21.5002],[47.7451,19.5313],[47.4286,17.0931],[47.589,17.4633],[48.1619,18.1489],[49.1288,18.6121],[51.0198,18.8666],[51.9786,18.9956],[53.63,19.546],[54.9784,19.9954],[55.3446,21.0969],[55.6002,21.8661],[55.6267,22.0238],[55.1868,22.7036],[55.1053,22.6209],[52.5831,22.9311],[51.5935,24.0783],[51.5693,24.2562],[51.2822,24.303],[51.4437,24.5548],[51.2153,24.6259],[50.9789,24.5677],[50.8079,24.7466]]]}},{"type":"Feature","id":"label-SAU-1098","properties":{"kind":"division-label","code":"SAU-1098","countryCode":"SAU","name":"Eastern","localName":"Eastern","labelEnglish":"Eastern","labelLocal":"Eastern","labelBoth":"Eastern","type":"Region","iso":"SA-04","qid":"Q953508"},"geometry":{"type":"Point","coordinates":[50.1714,22.9875]}},{"type":"Feature","id":"SAU-861","properties":{"kind":"division","code":"SAU-861","countryCode":"SAU","name":"Northern Borders","localName":"Northern Borders","labelEnglish":"Northern Borders","labelLocal":"Northern Borders","labelBoth":"Northern Borders","type":"Region","iso":"SA-08","qid":"Q201781"},"geometry":{"type":"Polygon","coordinates":[[[42.7834,30.551],[42.0754,31.0799],[40.4241,31.9205],[39.1464,32.1181],[38.9633,31.9944],[37.9865,31.7534],[37.8765,31.2311],[38.3057,30.883],[39.1919,30.9581],[39.8678,30.8682],[40.1754,30.7363],[40.9511,30.711],[41.4643,30.5299],[41.8792,30.1399],[41.7547,29.9642],[40.9196,29.511],[40.7418,29.3336],[40.7165,29.0004],[40.5436,28.8163],[40.7396,28.7601],[41.2706,28.8679],[42.3424,28.7606],[42.6184,28.5461],[42.9682,28.5987],[43.0872,28.3895],[43.4961,28.3184],[43.7155,28.4154],[44.0353,27.9035],[44.4908,27.7576],[44.7989,27.5204],[44.99,27.5326],[44.9953,27.773],[45.2127,28.0165],[45.5648,28.6023],[45.801,28.8382],[46.4273,29.0761],[44.6918,29.2018],[43.824,29.814],[42.7834,30.551]]]}},{"type":"Feature","id":"label-SAU-861","properties":{"kind":"division-label","code":"SAU-861","countryCode":"SAU","name":"Northern Borders","localName":"Northern Borders","labelEnglish":"Northern Borders","labelLocal":"Northern Borders","labelBoth":"Northern Borders","type":"Region","iso":"SA-08","qid":"Q201781"},"geometry":{"type":"Point","coordinates":[43.3124,29.227]}},{"type":"Feature","id":"SAU-862","properties":{"kind":"division","code":"SAU-862","countryCode":"SAU","name":"Al-Jowf","localName":"Al-Jowf","labelEnglish":"Al-Jowf","labelLocal":"Al-Jowf","labelBoth":"Al-Jowf","type":"Region","iso":"SA-12","qid":"Q1471266"},"geometry":{"type":"Polygon","coordinates":[[[37.2217,31.2473],[37.9811,30.4995],[37.6345,30.3128],[37.4702,29.9946],[36.7562,29.8655],[36.4771,29.4946],[36.0695,29.2],[35.7403,29.2317],[34.9494,29.3517],[34.8428,28.8846],[35.2199,28.8612],[35.8552,28.9843],[36.1524,28.8794],[36.41,28.5831],[36.8545,28.6446],[37.4496,28.5847],[37.7724,28.8071],[37.8444,28.3631],[38.1282,28.2461],[39.0001,28.1679],[39.1563,28.3027],[40.0804,28.6904],[40.5436,28.8163],[40.7165,29.0004],[40.7418,29.3336],[40.9196,29.511],[41.7547,29.9642],[41.8792,30.1399],[41.4643,30.5299],[40.9511,30.711],[40.1754,30.7363],[39.8678,30.8682],[39.1919,30.9581],[38.3057,30.883],[37.8765,31.2311],[37.9865,31.7534],[37.7614,31.6961],[36.9979,31.5008],[37.2217,31.2473]]]}},{"type":"Feature","id":"label-SAU-862","properties":{"kind":"division-label","code":"SAU-862","countryCode":"SAU","name":"Al-Jowf","localName":"Al-Jowf","labelEnglish":"Al-Jowf","labelLocal":"Al-Jowf","labelBoth":"Al-Jowf","type":"Region","iso":"SA-12","qid":"Q1471266"},"geometry":{"type":"Point","coordinates":[38.3651,29.5589]}},{"type":"Feature","id":"SAU-1096","properties":{"kind":"division","code":"SAU-1096","countryCode":"SAU","name":"Najran","localName":"Najran","labelEnglish":"Najran","labelLocal":"Najran","labelBoth":"Najran","type":"Region","iso":"SA-10","qid":"Q464718"},"geometry":{"type":"Polygon","coordinates":[[[47.4286,17.0931],[47.7451,19.5313],[47.615,19.4961],[45.2726,19.2569],[44.795,19.3477],[44.5168,19.5126],[44.3598,19.1685],[44.3325,18.8165],[44.0611,18.6915],[43.6941,18.2906],[43.6384,17.4385],[43.7506,17.3457],[44.9725,17.4297],[45.4304,17.312],[46.3226,17.2241],[46.7101,17.2754],[46.997,16.9485],[47.4286,17.0931]]]}},{"type":"Feature","id":"label-SAU-1096","properties":{"kind":"division-label","code":"SAU-1096","countryCode":"SAU","name":"Najran","localName":"Najran","labelEnglish":"Najran","labelLocal":"Najran","labelBoth":"Najran","type":"Region","iso":"SA-10","qid":"Q464718"},"geometry":{"type":"Point","coordinates":[45.6917,18.2931]}},{"type":"Feature","id":"SAU-886","properties":{"kind":"division","code":"SAU-886","countryCode":"SAU","name":"'Asir","localName":"'Asir","labelEnglish":"'Asir","labelLocal":"'Asir","labelBoth":"'Asir","type":"Region","iso":"SA-14","qid":"Q779855"},"geometry":{"type":"Polygon","coordinates":[[[43.6384,17.4385],[43.6941,18.2906],[44.0611,18.6915],[44.3325,18.8165],[44.3598,19.1685],[44.5168,19.5126],[44.1064,19.867],[43.9368,20.1069],[44.062,20.5391],[43.6675,20.9762],[43.404,20.8506],[42.9517,20.8105],[42.2313,20.3449],[42.032,20.6249],[42.0306,20.373],[41.8435,20.1783],[41.6987,19.7971],[41.8586,19.7622],[41.8317,19.2448],[41.3905,19.1534],[41.4709,18.7856],[41.7344,18.7229],[41.7707,18.314],[41.9226,18.3121],[41.9267,18.0647],[42.3678,17.9051],[42.6291,17.6608],[42.7899,17.9433],[42.9626,17.8672],[43.342,17.4825],[43.6384,17.4385]]]}},{"type":"Feature","id":"label-SAU-886","properties":{"kind":"division-label","code":"SAU-886","countryCode":"SAU","name":"'Asir","localName":"'Asir","labelEnglish":"'Asir","labelLocal":"'Asir","labelBoth":"'Asir","type":"Region","iso":"SA-14","qid":"Q779855"},"geometry":{"type":"Point","coordinates":[42.9503,19.3484]}},{"type":"Feature","id":"SAU-887","properties":{"kind":"division","code":"SAU-887","countryCode":"SAU","name":"Jazan","localName":"Jazan","labelEnglish":"Jazan","labelLocal":"Jazan","labelBoth":"Jazan","type":"Region","iso":"SA-09","qid":"Q269973"},"geometry":{"type":"Polygon","coordinates":[[[43.1857,16.6848],[43.1087,16.927],[43.165,17.3259],[43.342,17.4825],[42.9626,17.8672],[42.7899,17.9433],[42.6291,17.6608],[42.3678,17.9051],[41.9267,18.0647],[41.9226,18.3121],[41.7707,18.314],[41.5971,18.1211],[41.7192,17.9092],[42.3015,17.4536],[42.3391,17.1736],[42.7373,16.6711],[42.7895,16.371],[43.1857,16.6848]]]}},{"type":"Feature","id":"label-SAU-887","properties":{"kind":"division-label","code":"SAU-887","countryCode":"SAU","name":"Jazan","localName":"Jazan","labelEnglish":"Jazan","labelLocal":"Jazan","labelBoth":"Jazan","type":"Region","iso":"SA-09","qid":"Q269973"},"geometry":{"type":"Point","coordinates":[42.726,17.3028]}},{"type":"Feature","id":"SAU-848","properties":{"kind":"division","code":"SAU-848","countryCode":"SAU","name":"Tabuk","localName":"Tabuk","labelEnglish":"Tabuk","labelLocal":"Tabuk","labelBoth":"Tabuk","type":"Region","iso":"SA-07","qid":"Q1315953"},"geometry":{"type":"Polygon","coordinates":[[[37.3828,24.5396],[38.0005,24.8726],[38.0234,25.4291],[37.5463,26.0197],[37.2723,26.0778],[37.1669,26.3355],[37.2539,26.5927],[37.0538,26.6741],[36.9851,27.1199],[36.7833,27.1825],[37.1957,27.3745],[37.5451,27.303],[37.7322,27.3933],[37.9405,27.0953],[38.2047,27.018],[38.3434,26.7886],[38.8103,26.8481],[39.1159,26.6888],[39.7196,26.7296],[39.8162,26.6568],[40.1656,27.1873],[39.9198,27.361],[39.7875,27.7955],[39.472,28.0244],[39.0001,28.1679],[38.1282,28.2461],[37.8444,28.3631],[37.7724,28.8071],[37.4496,28.5847],[36.8545,28.6446],[36.41,28.5831],[36.1524,28.8794],[35.8552,28.9843],[35.2199,28.8612],[34.8428,28.8846],[34.8038,28.5271],[34.6471,28.0991],[35.2163,28.0544],[35.5596,27.4556],[36.2298,26.6256],[36.6634,25.8557],[36.9363,25.6461],[37.2305,25.1937],[37.1486,24.851],[37.3828,24.5396]]]}},{"type":"Feature","id":"label-SAU-848","properties":{"kind":"division-label","code":"SAU-848","countryCode":"SAU","name":"Tabuk","localName":"Tabuk","labelEnglish":"Tabuk","labelLocal":"Tabuk","labelBoth":"Tabuk","type":"Region","iso":"SA-07","qid":"Q1315953"},"geometry":{"type":"Point","coordinates":[36.8014,27.9146]}},{"type":"Feature","id":"SAU-845","properties":{"kind":"division","code":"SAU-845","countryCode":"SAU","name":"Al Madinah","localName":"Al Madinah","labelEnglish":"Al Madinah","labelLocal":"Al Madinah","labelBoth":"Al Madinah","type":"Region","iso":"SA-03","qid":"Q236027"},"geometry":{"type":"Polygon","coordinates":[[[38.6438,23.4195],[38.9002,23.4492],[39.2068,23.1665],[39.4867,23.0681],[39.9127,23.1464],[39.8984,22.8051],[40.1004,22.5009],[40.4089,22.6163],[40.6649,22.5863],[41.4301,23.2708],[41.2817,23.3574],[41.6688,23.6024],[41.7364,23.9232],[41.9864,23.9493],[42.0013,24.4052],[42.0963,24.6115],[41.8734,24.999],[41.6374,25.1472],[41.6101,25.486],[41.4098,25.5365],[40.8713,25.5915],[40.6282,25.4186],[40.1138,25.3164],[39.9475,25.4221],[39.9042,25.9528],[39.9597,26.2884],[39.7907,26.3635],[39.8162,26.6568],[39.7196,26.7296],[39.1159,26.6888],[38.8103,26.8481],[38.3434,26.7886],[38.2047,27.018],[37.9405,27.0953],[37.7322,27.3933],[37.5451,27.303],[37.1957,27.3745],[36.7833,27.1825],[36.9851,27.1199],[37.0538,26.6741],[37.2539,26.5927],[37.1669,26.3355],[37.2723,26.0778],[37.5463,26.0197],[38.0234,25.4291],[38.0005,24.8726],[37.3828,24.5396],[37.5227,24.2677],[37.6761,24.2912],[38.4526,23.784],[38.6438,23.4195]]]}},{"type":"Feature","id":"label-SAU-845","properties":{"kind":"division-label","code":"SAU-845","countryCode":"SAU","name":"Al Madinah","localName":"Al Madinah","labelEnglish":"Al Madinah","labelLocal":"Al Madinah","labelBoth":"Al Madinah","type":"Region","iso":"SA-03","qid":"Q236027"},"geometry":{"type":"Point","coordinates":[39.4378,24.9279]}},{"type":"Feature","id":"SAU-888","properties":{"kind":"division","code":"SAU-888","countryCode":"SAU","name":"Makkah","localName":"Makkah","labelEnglish":"Makkah","labelLocal":"Makkah","labelBoth":"Makkah","type":"Region","iso":"SA-02","qid":"Q234167"},"geometry":{"type":"Polygon","coordinates":[[[41.5971,18.1211],[41.7707,18.314],[41.7344,18.7229],[41.4709,18.7856],[41.3905,19.1534],[41.8317,19.2448],[41.8586,19.7622],[41.6987,19.7971],[41.5054,19.7687],[41.3486,19.3985],[40.9691,19.5796],[40.958,19.9113],[40.8056,20.0467],[41.1148,20.245],[41.3308,20.7629],[41.5279,20.5722],[42.032,20.6249],[42.2313,20.3449],[42.9517,20.8105],[43.404,20.8506],[43.6675,20.9762],[43.4064,21.3412],[43.5083,21.9756],[43.4862,22.4977],[43.0153,22.5674],[42.9159,22.9003],[42.3531,23.0007],[41.9864,23.9493],[41.7364,23.9232],[41.6688,23.6024],[41.2817,23.3574],[41.4301,23.2708],[40.6649,22.5863],[40.4089,22.6163],[40.1004,22.5009],[39.8984,22.8051],[39.9127,23.1464],[39.4867,23.0681],[39.2068,23.1665],[38.9002,23.4492],[38.6438,23.4195],[39.0815,22.5468],[38.9496,21.9219],[39.1711,21.4041],[39.0807,21.315],[39.2971,20.924],[39.6465,20.4616],[40.0676,20.2865],[40.5226,19.9725],[40.9447,19.5057],[41.2102,18.6979],[41.4382,18.4642],[41.5971,18.1211]]]}},{"type":"Feature","id":"label-SAU-888","properties":{"kind":"division-label","code":"SAU-888","countryCode":"SAU","name":"Makkah","localName":"Makkah","labelEnglish":"Makkah","labelLocal":"Makkah","labelBoth":"Makkah","type":"Region","iso":"SA-02","qid":"Q234167"},"geometry":{"type":"Point","coordinates":[40.2542,21.4348]}},{"type":"Feature","id":"SAU-1097","properties":{"kind":"division","code":"SAU-1097","countryCode":"SAU","name":"Riyadh","localName":"Riyadh","labelEnglish":"Riyadh","labelLocal":"Riyadh","labelBoth":"Riyadh","type":"Region","iso":"SA-01","qid":"Q1249255"},"geometry":{"type":"Polygon","coordinates":[[[44.6276,27.2224],[44.8209,26.9542],[44.3917,26.6483],[44.3757,26.4062],[44.676,26.0009],[44.7121,25.5785],[43.9898,25.548],[43.6798,25.2637],[43.3459,25.1915],[43.0099,24.6822],[42.2904,24.7823],[42.0963,24.6115],[42.0013,24.4052],[41.9864,23.9493],[42.3531,23.0007],[42.9159,22.9003],[43.0153,22.5674],[43.4862,22.4977],[43.5083,21.9756],[43.4064,21.3412],[43.6675,20.9762],[44.062,20.5391],[43.9368,20.1069],[44.1064,19.867],[44.5168,19.5126],[44.795,19.3477],[45.2726,19.2569],[47.615,19.4961],[47.7451,19.5313],[48.0142,21.5002],[48.2991,23.655],[48.2896,23.9999],[48.1412,24.2701],[47.5346,24.7346],[47.4876,24.8337],[47.465,26.1746],[46.8518,26.6101],[46.5406,26.6271],[46.2938,26.7861],[45.8691,26.8883],[45.6706,27.0637],[45.2453,27.2319],[44.99,27.5326],[44.7989,27.5204],[44.6276,27.2224]]]}},{"type":"Feature","id":"label-SAU-1097","properties":{"kind":"division-label","code":"SAU-1097","countryCode":"SAU","name":"Riyadh","localName":"Riyadh","labelEnglish":"Riyadh","labelLocal":"Riyadh","labelBoth":"Riyadh","type":"Region","iso":"SA-01","qid":"Q1249255"},"geometry":{"type":"Point","coordinates":[45.1404,23.3432]}},{"type":"Feature","id":"SAU-846","properties":{"kind":"division","code":"SAU-846","countryCode":"SAU","name":"Al-Qassim","localName":"Al-Qassim","labelEnglish":"Al-Qassim","labelLocal":"Al-Qassim","labelBoth":"Al-Qassim","type":"Region","iso":"SA-05","qid":"Q1105411"},"geometry":{"type":"Polygon","coordinates":[[[44.6276,27.2224],[44.4357,27.0702],[43.8925,27.3279],[43.4175,27.1313],[43.1471,26.8589],[42.5351,26.5105],[41.9585,25.9728],[41.9498,25.7259],[41.4098,25.5365],[41.6101,25.486],[41.6374,25.1472],[41.8734,24.999],[42.0963,24.6115],[42.2904,24.7823],[43.0099,24.6822],[43.3459,25.1915],[43.6798,25.2637],[43.9898,25.548],[44.7121,25.5785],[44.676,26.0009],[44.3757,26.4062],[44.3917,26.6483],[44.8209,26.9542],[44.6276,27.2224]]]}},{"type":"Feature","id":"label-SAU-846","properties":{"kind":"division-label","code":"SAU-846","countryCode":"SAU","name":"Al-Qassim","localName":"Al-Qassim","labelEnglish":"Al-Qassim","labelLocal":"Al-Qassim","labelBoth":"Al-Qassim","type":"Region","iso":"SA-05","qid":"Q1105411"},"geometry":{"type":"Point","coordinates":[43.2716,25.9478]}},{"type":"Feature","id":"SAU-847","properties":{"kind":"division","code":"SAU-847","countryCode":"SAU","name":"Ha'il","localName":"Ha'il","labelEnglish":"Ha'il","labelLocal":"Ha'il","labelBoth":"Ha'il","type":"Region","iso":"SA-06","qid":"Q243656"},"geometry":{"type":"Polygon","coordinates":[[[41.4098,25.5365],[41.9498,25.7259],[41.9585,25.9728],[42.5351,26.5105],[43.1471,26.8589],[43.4175,27.1313],[43.8925,27.3279],[44.4357,27.0702],[44.6276,27.2224],[44.7989,27.5204],[44.4908,27.7576],[44.0353,27.9035],[43.7155,28.4154],[43.4961,28.3184],[43.0872,28.3895],[42.9682,28.5987],[42.6184,28.5461],[42.3424,28.7606],[41.2706,28.8679],[40.7396,28.7601],[40.5436,28.8163],[40.0804,28.6904],[39.1563,28.3027],[39.0001,28.1679],[39.472,28.0244],[39.7875,27.7955],[39.9198,27.361],[40.1656,27.1873],[39.8162,26.6568],[39.7907,26.3635],[39.9597,26.2884],[39.9042,25.9528],[39.9475,25.4221],[40.1138,25.3164],[40.6282,25.4186],[40.8713,25.5915],[41.4098,25.5365]]]}},{"type":"Feature","id":"label-SAU-847","properties":{"kind":"division-label","code":"SAU-847","countryCode":"SAU","name":"Ha'il","localName":"Ha'il","labelEnglish":"Ha'il","labelLocal":"Ha'il","labelBoth":"Ha'il","type":"Region","iso":"SA-06","qid":"Q243656"},"geometry":{"type":"Point","coordinates":[41.7076,27.2652]}},{"type":"Feature","id":"SAU-885","properties":{"kind":"division","code":"SAU-885","countryCode":"SAU","name":"Al-Baha","localName":"Al-Baha","labelEnglish":"Al-Baha","labelLocal":"Al-Baha","labelBoth":"Al-Baha","type":"Region","iso":"SA-11","qid":"Q852774"},"geometry":{"type":"Polygon","coordinates":[[[42.032,20.6249],[41.5279,20.5722],[41.3308,20.7629],[41.1148,20.245],[40.8056,20.0467],[40.958,19.9113],[40.9691,19.5796],[41.3486,19.3985],[41.5054,19.7687],[41.6987,19.7971],[41.8435,20.1783],[42.0306,20.373],[42.032,20.6249]]]}},{"type":"Feature","id":"label-SAU-885","properties":{"kind":"division-label","code":"SAU-885","countryCode":"SAU","name":"Al-Baha","localName":"Al-Baha","labelEnglish":"Al-Baha","labelLocal":"Al-Baha","labelBoth":"Al-Baha","type":"Region","iso":"SA-11","qid":"Q852774"},"geometry":{"type":"Point","coordinates":[41.4165,20.1605]}}]}