{"type":"FeatureCollection","features":[{"type":"Feature","id":"SDN-5859","properties":{"kind":"division","code":"SDN-5859","countryCode":"SDN","name":"Central Darfur","localName":"Central Darfur","labelEnglish":"Central Darfur","labelLocal":"Central Darfur","labelBoth":"Central Darfur","type":"State","iso":"SD-DE","qid":"Q4116493"},"geometry":{"type":"Polygon","coordinates":[[[23.0056,10.6868],[23.2973,11.1079],[23.7661,11.4112],[24.0904,12.5873],[24.6164,13.0994],[24.3554,13.1629],[24.5919,13.4782],[24.4021,13.5546],[23.963,13.389],[23.5232,13.5567],[23.2146,13.3876],[22.6263,12.6338],[22.6814,12.2753],[22.6124,12.0728],[22.5371,11.6809],[22.6281,11.5098],[22.9148,11.3961],[22.8611,10.9192],[23.0056,10.6868]]]}},{"type":"Feature","id":"label-SDN-5859","properties":{"kind":"division-label","code":"SDN-5859","countryCode":"SDN","name":"Central Darfur","localName":"Central Darfur","labelEnglish":"Central Darfur","labelLocal":"Central Darfur","labelBoth":"Central Darfur","type":"State","iso":"SD-DE","qid":"Q4116493"},"geometry":{"type":"Point","coordinates":[23.3467,12.1983]}},{"type":"Feature","id":"SDN-5856","properties":{"kind":"division","code":"SDN-5856","countryCode":"SDN","name":"South Darfur","localName":"South Darfur","labelEnglish":"South Darfur","labelLocal":"South Darfur","labelBoth":"South Darfur","type":"State","iso":"SD-DS","qid":"Q838778"},"geometry":{"type":"Polygon","coordinates":[[[23.0056,10.6868],[23.2912,10.4397],[23.624,9.9078],[23.6322,9.2776],[23.4628,9.1537],[23.4823,8.7834],[24.1703,8.6893],[24.5584,8.8867],[24.7927,9.7984],[24.9763,9.9674],[25.0841,10.2932],[25.8393,10.4206],[25.6046,11.1814],[25.1909,11.5859],[25.1817,12.2661],[25.2829,12.404],[25.2448,13.0643],[24.6164,13.0994],[24.0904,12.5873],[23.7661,11.4112],[23.2973,11.1079],[23.0056,10.6868]]]}},{"type":"Feature","id":"label-SDN-5856","properties":{"kind":"division-label","code":"SDN-5856","countryCode":"SDN","name":"South Darfur","localName":"South Darfur","labelEnglish":"South Darfur","labelLocal":"South Darfur","labelBoth":"South Darfur","type":"State","iso":"SD-DS","qid":"Q838778"},"geometry":{"type":"Point","coordinates":[24.5964,11.3694]}},{"type":"Feature","id":"SDN-876","properties":{"kind":"division","code":"SDN-876","countryCode":"SDN","name":"Al Qadarif","localName":"Al Qadarif","labelEnglish":"Al Qadarif","labelLocal":"Al Qadarif","labelBoth":"Al Qadarif","type":"State","iso":"SD-GD","qid":"Q309478"},"geometry":{"type":"Polygon","coordinates":[[[36.4399,13.7762],[36.5264,14.2635],[36.4622,14.7938],[35.9771,14.7778],[35.5098,14.6119],[35.1306,14.8879],[34.8399,15.3854],[34.3622,15.5774],[33.7956,15.7066],[33.5441,15.432],[34.0225,15.171],[34.2512,14.7608],[33.9078,14.1625],[33.9817,14.0247],[34.4233,13.3609],[35.3675,12.7392],[35.7014,12.6654],[36.0994,12.6957],[36.2336,13.3616],[36.4399,13.7762]]]}},{"type":"Feature","id":"label-SDN-876","properties":{"kind":"division-label","code":"SDN-876","countryCode":"SDN","name":"Al Qadarif","localName":"Al Qadarif","labelEnglish":"Al Qadarif","labelLocal":"Al Qadarif","labelBoth":"Al Qadarif","type":"State","iso":"SD-GD","qid":"Q309478"},"geometry":{"type":"Point","coordinates":[35.0351,14.0283]}},{"type":"Feature","id":"SDN-148","properties":{"kind":"division","code":"SDN-148","countryCode":"SDN","name":"Blue Nile","localName":"Blue Nile","labelEnglish":"Blue Nile","labelLocal":"Blue Nile","labelBoth":"Blue Nile","type":"State","iso":"SD-NB","qid":"Q309489"},"geometry":{"type":"Polygon","coordinates":[[[35.1486,11.8712],[34.7746,12.2865],[34.5541,12.6261],[34.3625,12.7305],[33.5087,12.2335],[33.2092,12.2104],[33.0829,11.5846],[33.1821,10.8432],[33.9021,10.192],[33.9691,9.8383],[33.9009,9.4553],[34.0707,9.4546],[34.0982,9.6797],[34.3249,10.2687],[34.2795,10.5655],[34.5871,10.8793],[34.8385,10.7291],[34.9507,10.8692],[34.9471,11.2749],[35.1486,11.8712]]]}},{"type":"Feature","id":"label-SDN-148","properties":{"kind":"division-label","code":"SDN-148","countryCode":"SDN","name":"Blue Nile","localName":"Blue Nile","labelEnglish":"Blue Nile","labelLocal":"Blue Nile","labelBoth":"Blue Nile","type":"State","iso":"SD-NB","qid":"Q309489"},"geometry":{"type":"Point","coordinates":[34.1155,11.1657]}},{"type":"Feature","id":"SDN-880","properties":{"kind":"division","code":"SDN-880","countryCode":"SDN","name":"Sennar","localName":"Sennar","labelEnglish":"Sennar","labelLocal":"Sennar","labelBoth":"Sennar","type":"Region","iso":"SD-SI","qid":"Q865534"},"geometry":{"type":"Polygon","coordinates":[[[35.2484,11.9579],[35.7014,12.6654],[35.3675,12.7392],[34.4233,13.3609],[33.9817,14.0247],[33.5768,14.0665],[33.3773,13.9155],[33.0792,13.9953],[32.8031,13.6411],[32.9115,13.2038],[33.0883,12.9223],[33.075,12.6629],[33.2092,12.2104],[33.5087,12.2335],[34.3625,12.7305],[34.5541,12.6261],[34.7746,12.2865],[35.1486,11.8712],[35.2484,11.9579]]]}},{"type":"Feature","id":"label-SDN-880","properties":{"kind":"division-label","code":"SDN-880","countryCode":"SDN","name":"Sennar","localName":"Sennar","labelEnglish":"Sennar","labelLocal":"Sennar","labelBoth":"Sennar","type":"Region","iso":"SD-SI","qid":"Q865534"},"geometry":{"type":"Point","coordinates":[34.252,13.21]}},{"type":"Feature","id":"SDN-878","properties":{"kind":"division","code":"SDN-878","countryCode":"SDN","name":"Northern","localName":"Northern","labelEnglish":"Northern","labelLocal":"Northern","labelBoth":"Northern","type":"State","iso":"SD-NO","qid":"Q310118"},"geometry":{"type":"Polygon","coordinates":[[[31.4947,21.9954],[31.3144,22.1023],[31.2484,21.9944],[29.4582,21.9946],[28.2903,21.9948],[26.3438,21.9951],[24.9812,21.9954],[24.9805,20.0084],[27.4823,20.0001],[27.4964,16.6788],[31.062,16.5623],[31.6024,16.5388],[31.8519,16.6711],[32.6855,17.8649],[32.5647,18.2631],[32.582,18.6856],[32.167,18.9187],[32.5245,21.9954],[31.4947,21.9954]]]}},{"type":"Feature","id":"label-SDN-878","properties":{"kind":"division-label","code":"SDN-878","countryCode":"SDN","name":"Northern","localName":"Northern","labelEnglish":"Northern","labelLocal":"Northern","labelBoth":"Northern","type":"State","iso":"SD-NO","qid":"Q310118"},"geometry":{"type":"Point","coordinates":[28.8329,19.3151]}},{"type":"Feature","id":"SDN-877","properties":{"kind":"division","code":"SDN-877","countryCode":"SDN","name":"River Nile","localName":"River Nile","labelEnglish":"River Nile","labelLocal":"River Nile","labelBoth":"River Nile","type":"State","iso":"SD-NR","qid":"Q849297"},"geometry":{"type":"Polygon","coordinates":[[[32.5245,21.9954],[32.167,18.9187],[32.582,18.6856],[32.5647,18.2631],[32.6855,17.8649],[31.8519,16.6711],[32.114,16.4016],[32.6397,16.3197],[33.0043,16.1355],[33.7076,15.9178],[34.1963,16.0173],[34.4871,16.4192],[35.2516,16.4394],[35.6192,16.6326],[35.6563,17.1774],[35.1632,17.4956],[34.7071,18.1141],[34.119,18.3844],[33.6471,19.4667],[33.6588,20.5297],[33.2727,20.9454],[33.3427,21.2558],[33.273,21.4969],[33.5553,21.7106],[33.1598,21.9954],[32.5245,21.9954]]]}},{"type":"Feature","id":"label-SDN-877","properties":{"kind":"division-label","code":"SDN-877","countryCode":"SDN","name":"River Nile","localName":"River Nile","labelEnglish":"River Nile","labelLocal":"River Nile","labelBoth":"River Nile","type":"State","iso":"SD-NR","qid":"Q849297"},"geometry":{"type":"Point","coordinates":[33.7623,17.558]}},{"type":"Feature","id":"SDN-881","properties":{"kind":"division","code":"SDN-881","countryCode":"SDN","name":"North Darfur","localName":"North Darfur","labelEnglish":"North Darfur","labelLocal":"North Darfur","labelBoth":"North Darfur","type":"State","iso":"SD-DN","qid":"Q688306"},"geometry":{"type":"Polygon","coordinates":[[[24.9805,20.0084],[23.9813,19.9954],[23.9813,19.4961],[23.9828,17.8702],[23.9844,15.7219],[23.9614,15.0519],[24.1298,14.8004],[24.1268,14.5563],[23.9152,14.2116],[23.5945,13.8679],[23.5232,13.5567],[23.963,13.389],[24.4021,13.5546],[24.5919,13.4782],[24.3554,13.1629],[24.6164,13.0994],[25.2448,13.0643],[25.3943,13.0203],[26.0141,12.5191],[25.8536,12.4235],[26.2268,12.0184],[26.6591,11.8489],[27.1917,11.8273],[27.0216,12.4203],[27.1127,12.8781],[27.5226,13.6068],[27.484,14.0013],[27.2277,14.7464],[27.1305,14.8761],[26.9165,16.6471],[27.4964,16.6788],[27.4823,20.0001],[24.9805,20.0084]]]}},{"type":"Feature","id":"label-SDN-881","properties":{"kind":"division-label","code":"SDN-881","countryCode":"SDN","name":"North Darfur","localName":"North Darfur","labelEnglish":"North Darfur","labelLocal":"North Darfur","labelBoth":"North Darfur","type":"State","iso":"SD-DN","qid":"Q688306"},"geometry":{"type":"Point","coordinates":[25.506,16.4602]}},{"type":"Feature","id":"SDN-5858","properties":{"kind":"division","code":"SDN-5858","countryCode":"SDN","name":"West Soudan","localName":"West Soudan","labelEnglish":"West Soudan","labelLocal":"West Soudan","labelBoth":"West Soudan","type":"State","iso":"SD-DW","qid":"Q846331"},"geometry":{"type":"Polygon","coordinates":[[[23.9844,15.7219],[23.1192,15.7072],[22.9257,15.5639],[22.9657,15.2239],[22.7389,14.9798],[22.6663,14.6817],[22.3635,14.5435],[22.5315,14.1226],[22.1808,13.9206],[22.0737,13.7714],[22.2676,13.3346],[21.9351,13.0592],[21.8094,12.7937],[21.936,12.6395],[22.2049,12.7434],[22.4457,12.6111],[22.3728,12.4631],[22.6124,12.0728],[22.6814,12.2753],[22.6263,12.6338],[23.2146,13.3876],[23.5232,13.5567],[23.5945,13.8679],[23.9152,14.2116],[24.1268,14.5563],[24.1298,14.8004],[23.9614,15.0519],[23.9844,15.7219]]]}},{"type":"Feature","id":"label-SDN-5858","properties":{"kind":"division-label","code":"SDN-5858","countryCode":"SDN","name":"West Soudan","localName":"West Soudan","labelEnglish":"West Soudan","labelLocal":"West Soudan","labelBoth":"West Soudan","type":"State","iso":"SD-DW","qid":"Q846331"},"geometry":{"type":"Point","coordinates":[23.0863,14.2109]}},{"type":"Feature","id":"SDN-149","properties":{"kind":"division","code":"SDN-149","countryCode":"SDN","name":"Red Sea","localName":"Red Sea","labelEnglish":"Red Sea","labelLocal":"Red Sea","labelBoth":"Red Sea","type":"State","iso":"SD-RS","qid":"Q310120"},"geometry":{"type":"Polygon","coordinates":[[[38.6016,18.0048],[38.5428,18.1184],[38.0761,18.3481],[38.1219,18.4133],[37.6747,18.741],[37.551,18.7099],[37.3335,19.1597],[37.1751,20.3492],[37.228,20.565],[37.0867,21.0571],[37.1136,21.2781],[36.8879,21.6501],[36.8836,21.9957],[35.4864,21.9956],[33.1598,21.9954],[33.5553,21.7106],[33.273,21.4969],[33.3427,21.2558],[33.2727,20.9454],[33.6588,20.5297],[33.6471,19.4667],[34.119,18.3844],[34.7071,18.1141],[35.1632,17.4956],[35.6563,17.1774],[36.0588,16.9892],[36.9734,17.0621],[37.4034,17.0299],[37.5068,17.3185],[38.0144,17.5393],[38.2097,17.5223],[38.6016,18.0048]]]}},{"type":"Feature","id":"label-SDN-149","properties":{"kind":"division-label","code":"SDN-149","countryCode":"SDN","name":"Red Sea","localName":"Red Sea","labelEnglish":"Red Sea","labelLocal":"Red Sea","labelBoth":"Red Sea","type":"State","iso":"SD-RS","qid":"Q310120"},"geometry":{"type":"Point","coordinates":[35.8873,19.5289]}},{"type":"Feature","id":"SDN-884","properties":{"kind":"division","code":"SDN-884","countryCode":"SDN","name":"Kassala","localName":"Kassala","labelEnglish":"Kassala","labelLocal":"Kassala","labelBoth":"Kassala","type":"State","iso":"SD-KA","qid":"Q954963"},"geometry":{"type":"Polygon","coordinates":[[[36.9273,16.4354],[36.9734,17.0621],[36.0588,16.9892],[35.6563,17.1774],[35.6192,16.6326],[35.2516,16.4394],[34.4871,16.4192],[34.1963,16.0173],[34.3622,15.5774],[34.8399,15.3854],[35.1306,14.8879],[35.5098,14.6119],[35.9771,14.7778],[36.4622,14.7938],[36.4236,15.1115],[36.6279,15.4456],[36.671,15.7231],[36.944,16.2529],[36.9273,16.4354]]]}},{"type":"Feature","id":"label-SDN-884","properties":{"kind":"division-label","code":"SDN-884","countryCode":"SDN","name":"Kassala","localName":"Kassala","labelEnglish":"Kassala","labelLocal":"Kassala","labelBoth":"Kassala","type":"State","iso":"SD-KA","qid":"Q954963"},"geometry":{"type":"Point","coordinates":[35.5979,15.6265]}},{"type":"Feature","id":"SDN-879","properties":{"kind":"division","code":"SDN-879","countryCode":"SDN","name":"White Nile","localName":"White Nile","labelEnglish":"White Nile","labelLocal":"White Nile","labelBoth":"White Nile","type":"State","iso":"SD-NW","qid":"Q311371"},"geometry":{"type":"Polygon","coordinates":[[[33.2092,12.2104],[33.075,12.6629],[33.0883,12.9223],[32.9115,13.2038],[32.8031,13.6411],[32.6407,13.573],[32.6306,13.8181],[32.4213,14.2642],[32.6554,14.647],[32.6148,15.1935],[32.3078,15.2093],[31.9871,15.077],[31.5177,14.3436],[31.5878,13.9807],[32.0489,13.5032],[32.0489,13.2783],[31.6428,12.965],[31.6895,12.5926],[31.7517,12.2219],[32.0822,11.9998],[32.7467,12.0027],[32.7318,12.2162],[33.2092,12.2104]]]}},{"type":"Feature","id":"label-SDN-879","properties":{"kind":"division-label","code":"SDN-879","countryCode":"SDN","name":"White Nile","localName":"White Nile","labelEnglish":"White Nile","labelLocal":"White Nile","labelBoth":"White Nile","type":"State","iso":"SD-NW","qid":"Q311371"},"geometry":{"type":"Point","coordinates":[32.3633,13.5951]}},{"type":"Feature","id":"SDN-882","properties":{"kind":"division","code":"SDN-882","countryCode":"SDN","name":"South Kordofan","localName":"South Kordofan","labelEnglish":"South Kordofan","labelLocal":"South Kordofan","labelBoth":"South Kordofan","type":"State","iso":"SD-KS","qid":"Q465490"},"geometry":{"type":"Polygon","coordinates":[[[32.0822,11.9998],[31.7517,12.2219],[31.6895,12.5926],[31.4935,12.6964],[31.1161,12.6128],[30.731,12.2757],[30.4659,12.4691],[30.0816,12.4988],[29.9814,12.7193],[29.7695,12.6852],[29.5001,12.2814],[29.2448,12.2984],[28.9764,12.4879],[28.6922,12.2774],[28.6291,11.9774],[28.0291,11.9458],[27.8923,11.6459],[27.645,11.4038],[27.2249,11.4227],[27.3062,11],[27.8951,9.5954],[28.0451,9.3314],[28.8438,9.3245],[29.0095,9.6032],[29.4831,9.7617],[29.6154,10.0581],[30.013,10.2705],[30.7493,9.7358],[30.9499,9.7524],[31.2348,9.7923],[31.6648,10.2142],[31.9429,10.6556],[32.4141,11.0509],[32.3452,11.7091],[32.0822,11.9998]]]}},{"type":"Feature","id":"label-SDN-882","properties":{"kind":"division-label","code":"SDN-882","countryCode":"SDN","name":"South Kordofan","localName":"South Kordofan","labelEnglish":"South Kordofan","labelLocal":"South Kordofan","labelBoth":"South Kordofan","type":"State","iso":"SD-KS","qid":"Q465490"},"geometry":{"type":"Point","coordinates":[29.83,11.4504]}},{"type":"Feature","id":"SDN-5857","properties":{"kind":"division","code":"SDN-5857","countryCode":"SDN","name":"East Darfur","localName":"East Darfur","labelEnglish":"East Darfur","labelLocal":"East Darfur","labelBoth":"East Darfur","type":"State","iso":"SD-DS","qid":"Q3545641"},"geometry":{"type":"Polygon","coordinates":[[[26.1023,9.9882],[26.5569,9.5205],[26.6943,9.4769],[27.0804,9.6068],[27.8951,9.5954],[27.3062,11],[27.2249,11.4227],[27.1917,11.8273],[26.6591,11.8489],[26.2268,12.0184],[25.8536,12.4235],[26.0141,12.5191],[25.3943,13.0203],[25.2448,13.0643],[25.2829,12.404],[25.1817,12.2661],[25.1909,11.5859],[25.6046,11.1814],[25.8393,10.4206],[26.1023,9.9882]]]}},{"type":"Feature","id":"label-SDN-5857","properties":{"kind":"division-label","code":"SDN-5857","countryCode":"SDN","name":"East Darfur","localName":"East Darfur","labelEnglish":"East Darfur","labelLocal":"East Darfur","labelBoth":"East Darfur","type":"State","iso":"SD-DS","qid":"Q3545641"},"geometry":{"type":"Point","coordinates":[26.5295,11.0263]}},{"type":"Feature","id":"SDN-875","properties":{"kind":"division","code":"SDN-875","countryCode":"SDN","name":"Al Jazirah","localName":"Al Jazirah","labelEnglish":"Al Jazirah","labelLocal":"Al Jazirah","labelBoth":"Al Jazirah","type":"State","iso":"SD-GZ","qid":"Q309469"},"geometry":{"type":"Polygon","coordinates":[[[33.5441,15.432],[32.8633,15.3039],[32.6148,15.1935],[32.6554,14.647],[32.4213,14.2642],[32.6306,13.8181],[32.6407,13.573],[32.8031,13.6411],[33.0792,13.9953],[33.3773,13.9155],[33.5768,14.0665],[33.9817,14.0247],[33.9078,14.1625],[34.2512,14.7608],[34.0225,15.171],[33.5441,15.432]]]}},{"type":"Feature","id":"label-SDN-875","properties":{"kind":"division-label","code":"SDN-875","countryCode":"SDN","name":"Al Jazirah","localName":"Al Jazirah","labelEnglish":"Al Jazirah","labelLocal":"Al Jazirah","labelBoth":"Al Jazirah","type":"State","iso":"SD-GZ","qid":"Q309469"},"geometry":{"type":"Point","coordinates":[33.3362,14.6771]}},{"type":"Feature","id":"SDN-874","properties":{"kind":"division","code":"SDN-874","countryCode":"SDN","name":"Khartoum","localName":"Khartoum","labelEnglish":"Khartoum","labelLocal":"Khartoum","labelBoth":"Khartoum","type":"Region","iso":"SD-KH","qid":"Q310385"},"geometry":{"type":"Polygon","coordinates":[[[33.5441,15.432],[33.7956,15.7066],[34.3622,15.5774],[34.1963,16.0173],[33.7076,15.9178],[33.0043,16.1355],[32.6397,16.3197],[32.114,16.4016],[31.8519,16.6711],[31.6024,16.5388],[31.8516,15.9964],[32.2216,15.4415],[32.3078,15.2093],[32.6148,15.1935],[32.8633,15.3039],[33.5441,15.432]]]}},{"type":"Feature","id":"label-SDN-874","properties":{"kind":"division-label","code":"SDN-874","countryCode":"SDN","name":"Khartoum","localName":"Khartoum","labelEnglish":"Khartoum","labelLocal":"Khartoum","labelBoth":"Khartoum","type":"Region","iso":"SD-KH","qid":"Q310385"},"geometry":{"type":"Point","coordinates":[32.9823,15.7338]}},{"type":"Feature","id":"SDN-883","properties":{"kind":"division","code":"SDN-883","countryCode":"SDN","name":"North Kordofan","localName":"North Kordofan","labelEnglish":"North Kordofan","labelLocal":"North Kordofan","labelBoth":"North Kordofan","type":"State","iso":"SD-KN","qid":"Q864093"},"geometry":{"type":"Polygon","coordinates":[[[27.2249,11.4227],[27.645,11.4038],[27.8923,11.6459],[28.0291,11.9458],[28.6291,11.9774],[28.6922,12.2774],[28.9764,12.4879],[29.2448,12.2984],[29.5001,12.2814],[29.7695,12.6852],[29.9814,12.7193],[30.0816,12.4988],[30.4659,12.4691],[30.731,12.2757],[31.1161,12.6128],[31.4935,12.6964],[31.6895,12.5926],[31.6428,12.965],[32.0489,13.2783],[32.0489,13.5032],[31.5878,13.9807],[31.5177,14.3436],[31.9871,15.077],[32.3078,15.2093],[32.2216,15.4415],[31.8516,15.9964],[31.6024,16.5388],[31.062,16.5623],[27.4964,16.6788],[26.9165,16.6471],[27.1305,14.8761],[27.2277,14.7464],[27.484,14.0013],[27.5226,13.6068],[27.1127,12.8781],[27.0216,12.4203],[27.1917,11.8273],[27.2249,11.4227]]]}},{"type":"Feature","id":"label-SDN-883","properties":{"kind":"division-label","code":"SDN-883","countryCode":"SDN","name":"North Kordofan","localName":"North Kordofan","labelEnglish":"North Kordofan","labelLocal":"North Kordofan","labelBoth":"North Kordofan","type":"State","iso":"SD-KN","qid":"Q864093"},"geometry":{"type":"Point","coordinates":[29.6122,14.5295]}}]}