{"type":"FeatureCollection","features":[{"type":"Feature","id":"SDS-892","properties":{"kind":"division","code":"SDS-892","countryCode":"SDS","name":"Eastern Equatoria","localName":"Eastern Equatoria","labelEnglish":"Eastern Equatoria","labelLocal":"Eastern Equatoria","labelBoth":"Eastern Equatoria","type":"State","iso":"SS-EE","qid":"Q488519"},"geometry":{"type":"Polygon","coordinates":[[[35.9208,4.6193],[35.7845,4.7642],[35.8091,5.3091],[35.4302,5.4272],[35.3208,5.3487],[35.0987,5.6225],[34.968,6.0081],[34.1881,5.7755],[32.2082,5.8963],[32.1924,5.1566],[32.3347,4.8201],[32.1144,4.2822],[31.8011,3.8065],[32.0222,3.5864],[32.0542,3.5596],[32.1759,3.5272],[32.3718,3.7311],[33.0172,3.8772],[33.2637,3.7537],[33.5277,3.7714],[33.9771,4.2197],[34.3812,4.6202],[35.4116,5.0304],[35.5708,4.9043],[35.6106,4.62],[35.9208,4.6193]]]}},{"type":"Feature","id":"label-SDS-892","properties":{"kind":"division-label","code":"SDS-892","countryCode":"SDS","name":"Eastern Equatoria","localName":"Eastern Equatoria","labelEnglish":"Eastern Equatoria","labelLocal":"Eastern Equatoria","labelBoth":"Eastern Equatoria","type":"State","iso":"SS-EE","qid":"Q488519"},"geometry":{"type":"Point","coordinates":[33.5351,4.79636]}},{"type":"Feature","id":"SDS-873","properties":{"kind":"division","code":"SDS-873","countryCode":"SDS","name":"Western Bahr el Ghazal","localName":"Western Bahr el Ghazal","labelEnglish":"Western Bahr el Ghazal","labelLocal":"Western Bahr el Ghazal","labelBoth":"Western Bahr el Ghazal","type":"State","iso":"SS-BW","qid":"Q332095"},"geometry":{"type":"Polygon","coordinates":[[[24.2632,8.2685],[24.8321,8.1657],[25.2794,7.6595],[25.1652,7.5799],[25.36,7.3356],[26.0261,6.9967],[26.081,6.8423],[26.3792,6.6314],[27.9354,6.8165],[28.132,6.6932],[28.6396,6.736],[28.6105,7.4083],[28.5496,7.6172],[27.9934,7.8739],[27.7001,8.2511],[26.7348,7.8086],[26.3039,8.0407],[26.1486,8.2913],[26.0702,8.9053],[26.1023,9.9882],[25.8393,10.4206],[25.0841,10.2932],[24.9763,9.9674],[24.7927,9.7984],[24.5584,8.8867],[24.1703,8.6893],[24.1216,8.3723],[24.2632,8.2685]]]}},{"type":"Feature","id":"label-SDS-873","properties":{"kind":"division-label","code":"SDS-873","countryCode":"SDS","name":"Western Bahr el Ghazal","localName":"Western Bahr el Ghazal","labelEnglish":"Western Bahr el Ghazal","labelLocal":"Western Bahr el Ghazal","labelBoth":"Western Bahr el Ghazal","type":"State","iso":"SS-BW","qid":"Q332095"},"geometry":{"type":"Point","coordinates":[26.3804,7.31134]}},{"type":"Feature","id":"SDS-864","properties":{"kind":"division","code":"SDS-864","countryCode":"SDS","name":"Western Equatoria","localName":"Western Equatoria","labelEnglish":"Western Equatoria","labelLocal":"Western Equatoria","labelBoth":"Western Equatoria","type":"State","iso":"SS-EW","qid":"Q319979"},"geometry":{"type":"Polygon","coordinates":[[[26.3792,6.6314],[26.2896,6.3872],[26.4811,6.105],[27.1238,5.7687],[27.2607,5.5503],[27.3013,5.2052],[27.4413,5.0707],[27.7669,4.7354],[27.7724,4.5958],[28.4041,4.2778],[28.7554,4.554],[29.1735,4.348],[29.4492,4.6571],[29.7883,4.5394],[30.085,4.7771],[30.3179,4.6867],[30.8162,4.9764],[30.9602,5.5806],[30.4352,6.1203],[30.1844,6.4766],[29.9376,6.4675],[29.9115,6.1054],[29.7044,5.7287],[29.1468,5.741],[28.7044,6.1192],[28.6023,6.4475],[28.6396,6.736],[28.132,6.6932],[27.9354,6.8165],[26.3792,6.6314]]]}},{"type":"Feature","id":"label-SDS-864","properties":{"kind":"division-label","code":"SDS-864","countryCode":"SDS","name":"Western Equatoria","localName":"Western Equatoria","labelEnglish":"Western Equatoria","labelLocal":"Western Equatoria","labelBoth":"Western Equatoria","type":"State","iso":"SS-EW","qid":"Q319979"},"geometry":{"type":"Point","coordinates":[28.6169,5.41296]}},{"type":"Feature","id":"SDS-865","properties":{"kind":"division","code":"SDS-865","countryCode":"SDS","name":"Central Equatoria","localName":"Central Equatoria","labelEnglish":"Central Equatoria","labelLocal":"Central Equatoria","labelBoth":"Central Equatoria","type":"State","iso":"SS-EC","qid":"Q487709"},"geometry":{"type":"Polygon","coordinates":[[[29.7883,4.5394],[29.7762,4.4056],[30.2059,3.9504],[30.5252,3.8675],[30.543,3.6129],[30.7469,3.6749],[30.8395,3.4902],[31.0687,3.7317],[31.6139,3.697],[31.8011,3.8065],[32.1144,4.2822],[32.3347,4.8201],[32.1924,5.1566],[32.2082,5.8963],[31.6715,5.9265],[31.1779,5.9828],[30.87,6.1927],[30.4352,6.1203],[30.9602,5.5806],[30.8162,4.9764],[30.3179,4.6867],[30.085,4.7771],[29.7883,4.5394]]]}},{"type":"Feature","id":"label-SDS-865","properties":{"kind":"division-label","code":"SDS-865","countryCode":"SDS","name":"Central Equatoria","localName":"Central Equatoria","labelEnglish":"Central Equatoria","labelLocal":"Central Equatoria","labelBoth":"Central Equatoria","type":"State","iso":"SS-EC","qid":"Q487709"},"geometry":{"type":"Point","coordinates":[31.2854,4.68142]}},{"type":"Feature","id":"SDS-869","properties":{"kind":"division","code":"SDS-869","countryCode":"SDS","name":"Upper Nile","localName":"Upper Nile","labelEnglish":"Upper Nile","labelLocal":"Upper Nile","labelBoth":"Upper Nile","type":"State","iso":"SS-NU","qid":"Q487702"},"geometry":{"type":"Polygon","coordinates":[[[34.1073,8.6015],[34.0831,9.2051],[34.0707,9.4546],[33.9009,9.4553],[33.9691,9.8383],[33.9021,10.192],[33.1821,10.8432],[33.0829,11.5846],[33.2092,12.2104],[32.7318,12.2162],[32.7467,12.0027],[32.0822,11.9998],[32.3452,11.7091],[32.4141,11.0509],[31.9429,10.6556],[31.6648,10.2142],[31.2348,9.7923],[30.9499,9.7524],[30.9386,9.5177],[31.5387,9.3526],[31.8709,8.9126],[32.3182,9.0319],[32.608,8.569],[32.8961,8.323],[32.841,8.0337],[33.0076,7.9441],[33.2083,8.2537],[33.1741,8.4045],[33.9708,8.4454],[34.1073,8.6015]]]}},{"type":"Feature","id":"label-SDS-869","properties":{"kind":"division-label","code":"SDS-869","countryCode":"SDS","name":"Upper Nile","localName":"Upper Nile","labelEnglish":"Upper Nile","labelLocal":"Upper Nile","labelBoth":"Upper Nile","type":"State","iso":"SS-NU","qid":"Q487702"},"geometry":{"type":"Point","coordinates":[32.5251,10.3577]}},{"type":"Feature","id":"SDS-870","properties":{"kind":"division","code":"SDS-870","countryCode":"SDS","name":"Jonglei","localName":"Jonglei","labelEnglish":"Jonglei","labelLocal":"Jonglei","labelBoth":"Jonglei","type":"State","iso":"SS-JG","qid":"Q488904"},"geometry":{"type":"Polygon","coordinates":[[[33.0076,7.9441],[32.841,8.0337],[32.8961,8.323],[32.608,8.569],[32.3182,9.0319],[31.8709,8.9126],[31.5387,9.3526],[30.9386,9.5177],[30.5234,9.5402],[30.3249,9.3478],[30.1933,8.9733],[30.3601,8.4603],[30.3111,8.1497],[30.5362,7.8243],[30.4999,7.6486],[30.8157,7.0808],[31.3182,6.6217],[31.6715,5.9265],[32.2082,5.8963],[34.1881,5.7755],[34.968,6.0081],[34.7335,6.6376],[34.1958,7.0977],[34.0065,7.4099],[33.7161,7.6572],[33.0513,7.8011],[33.0076,7.9441]]]}},{"type":"Feature","id":"label-SDS-870","properties":{"kind":"division-label","code":"SDS-870","countryCode":"SDS","name":"Jonglei","localName":"Jonglei","labelEnglish":"Jonglei","labelLocal":"Jonglei","labelBoth":"Jonglei","type":"State","iso":"SS-JG","qid":"Q488904"},"geometry":{"type":"Point","coordinates":[32.5795,7.2461]}},{"type":"Feature","id":"SDS-871","properties":{"kind":"division","code":"SDS-871","countryCode":"SDS","name":"Unity","localName":"Unity","labelEnglish":"Unity","labelLocal":"Unity","labelBoth":"Unity","type":"State","iso":"SS-UY","qid":"Q319965"},"geometry":{"type":"Polygon","coordinates":[[[30.9499,9.7524],[30.7493,9.7358],[30.013,10.2705],[29.6154,10.0581],[29.4831,9.7617],[29.0095,9.6032],[28.8438,9.3245],[28.9997,9.2717],[28.834,9.0317],[29.0952,9.0295],[29.3507,8.6417],[29.6623,8.4043],[29.6986,7.8212],[29.8961,7.7835],[30.2149,7.1295],[30.8157,7.0808],[30.4999,7.6486],[30.5362,7.8243],[30.3111,8.1497],[30.3601,8.4603],[30.1933,8.9733],[30.3249,9.3478],[30.5234,9.5402],[30.9386,9.5177],[30.9499,9.7524]]]}},{"type":"Feature","id":"label-SDS-871","properties":{"kind":"division-label","code":"SDS-871","countryCode":"SDS","name":"Unity","localName":"Unity","labelEnglish":"Unity","labelLocal":"Unity","labelBoth":"Unity","type":"State","iso":"SS-UY","qid":"Q319965"},"geometry":{"type":"Point","coordinates":[29.8883,8.99929]}},{"type":"Feature","id":"SDS-147","properties":{"kind":"division","code":"SDS-147","countryCode":"SDS","name":"Northern Bahr el Ghazal","localName":"Northern Bahr el Ghazal","labelEnglish":"Northern Bahr el Ghazal","labelLocal":"Northern Bahr el Ghazal","labelBoth":"Northern Bahr el Ghazal","type":"State","iso":"SS-BN","qid":"Q491111"},"geometry":{"type":"Polygon","coordinates":[[[27.8951,9.5954],[27.0804,9.6068],[26.6943,9.4769],[26.5569,9.5205],[26.1023,9.9882],[26.0702,8.9053],[26.1486,8.2913],[26.3039,8.0407],[26.7348,7.8086],[27.7001,8.2511],[27.871,8.8722],[27.961,8.987],[28.834,9.0317],[28.9997,9.2717],[28.8438,9.3245],[28.0451,9.3314],[27.8951,9.5954]]]}},{"type":"Feature","id":"label-SDS-147","properties":{"kind":"division-label","code":"SDS-147","countryCode":"SDS","name":"Northern Bahr el Ghazal","localName":"Northern Bahr el Ghazal","labelEnglish":"Northern Bahr el Ghazal","labelLocal":"Northern Bahr el Ghazal","labelBoth":"Northern Bahr el Ghazal","type":"State","iso":"SS-BN","qid":"Q491111"},"geometry":{"type":"Point","coordinates":[27.535,8.90381]}},{"type":"Feature","id":"SDS-863","properties":{"kind":"division","code":"SDS-863","countryCode":"SDS","name":"Lakes","localName":"Lakes","labelEnglish":"Lakes","labelLocal":"Lakes","labelBoth":"Lakes","type":"State","iso":"SS-LK","qid":"Q491096"},"geometry":{"type":"Polygon","coordinates":[[[29.6986,7.8212],[29.1577,7.1315],[29.0346,6.7305],[28.8017,6.6399],[28.6396,6.736],[28.6023,6.4475],[28.7044,6.1192],[29.1468,5.741],[29.7044,5.7287],[29.9115,6.1054],[29.9376,6.4675],[30.1844,6.4766],[30.4352,6.1203],[30.87,6.1927],[31.1779,5.9828],[31.6715,5.9265],[31.3182,6.6217],[30.8157,7.0808],[30.2149,7.1295],[29.8961,7.7835],[29.6986,7.8212]]]}},{"type":"Feature","id":"label-SDS-863","properties":{"kind":"division-label","code":"SDS-863","countryCode":"SDS","name":"Lakes","localName":"Lakes","labelEnglish":"Lakes","labelLocal":"Lakes","labelBoth":"Lakes","type":"State","iso":"SS-LK","qid":"Q491096"},"geometry":{"type":"Point","coordinates":[30.1369,6.88023]}},{"type":"Feature","id":"SDS-872","properties":{"kind":"division","code":"SDS-872","countryCode":"SDS","name":"Warrap","localName":"Warrap","labelEnglish":"Warrap","labelLocal":"Warrap","labelBoth":"Warrap","type":"State","iso":"SS-WR","qid":"Q491138"},"geometry":{"type":"Polygon","coordinates":[[[28.834,9.0317],[27.961,8.987],[27.871,8.8722],[27.7001,8.2511],[27.9934,7.8739],[28.5496,7.6172],[28.6105,7.4083],[28.6396,6.736],[28.8017,6.6399],[29.0346,6.7305],[29.1577,7.1315],[29.6986,7.8212],[29.6623,8.4043],[29.3507,8.6417],[29.0952,9.0295],[28.834,9.0317]]]}},{"type":"Feature","id":"label-SDS-872","properties":{"kind":"division-label","code":"SDS-872","countryCode":"SDS","name":"Warrap","localName":"Warrap","labelEnglish":"Warrap","labelLocal":"Warrap","labelBoth":"Warrap","type":"State","iso":"SS-WR","qid":"Q491138"},"geometry":{"type":"Point","coordinates":[28.6994,7.85589]}}]}