{"type":"FeatureCollection","features":[{"type":"Feature","id":"SEN-5515","properties":{"kind":"division","code":"SEN-5515","countryCode":"SEN","name":"Kédougou","localName":"Kédougou","labelEnglish":"Kédougou","labelLocal":"Kédougou","labelBoth":"Kédougou","type":"Region","iso":"SN-KE","qid":"Q1046666"},"geometry":{"type":"Polygon","coordinates":[[[-11.9,13.3822],[-12.7008,13.1603],[-12.8534,12.9842],[-13.3284,13.0437],[-13.3557,13.3249],[-13.6228,13.2401],[-13.3598,12.6497],[-13.0765,12.6359],[-12.5781,12.3615],[-12.3609,12.3056],[-12.0792,12.4081],[-11.3884,12.4039],[-11.4678,12.5435],[-11.3844,12.9331],[-11.6131,13.3608],[-11.9,13.3822]]]}},{"type":"Feature","id":"label-SEN-5515","properties":{"kind":"division-label","code":"SEN-5515","countryCode":"SEN","name":"Kédougou","localName":"Kédougou","labelEnglish":"Kédougou","labelLocal":"Kédougou","labelBoth":"Kédougou","type":"Region","iso":"SN-KE","qid":"Q1046666"},"geometry":{"type":"Point","coordinates":[-12.1903,12.842]}},{"type":"Feature","id":"SEN-779","properties":{"kind":"division","code":"SEN-779","countryCode":"SEN","name":"Tambacounda","localName":"Tambacounda","labelEnglish":"Tambacounda","labelLocal":"Tambacounda","labelBoth":"Tambacounda","type":"Region","iso":"SN-TC","qid":"Q848554"},"geometry":{"type":"Polygon","coordinates":[[[-12.2641,14.7749],[-12.6896,15.0925],[-12.5726,14.8937],[-12.7555,14.5655],[-13.2189,14.5946],[-13.5112,14.3985],[-13.8341,14.4018],[-14.3566,14.6437],[-14.633,14.5109],[-14.5775,14.0648],[-14.8603,13.7656],[-14.4621,13.5167],[-14.3473,13.4524],[-13.9885,13.5791],[-13.8825,13.5038],[-13.6228,13.2401],[-13.3557,13.3249],[-13.3284,13.0437],[-12.8534,12.9842],[-12.7008,13.1603],[-11.9,13.3822],[-12.0976,13.7044],[-11.9629,13.9092],[-12.0345,14.2503],[-12.2217,14.3912],[-12.2641,14.7749]]]}},{"type":"Feature","id":"label-SEN-779","properties":{"kind":"division-label","code":"SEN-779","countryCode":"SEN","name":"Tambacounda","localName":"Tambacounda","labelEnglish":"Tambacounda","labelLocal":"Tambacounda","labelBoth":"Tambacounda","type":"Region","iso":"SN-TC","qid":"Q848554"},"geometry":{"type":"Point","coordinates":[-13.2878,13.9278]}},{"type":"Feature","id":"SEN-774","properties":{"kind":"division","code":"SEN-774","countryCode":"SEN","name":"Kolda","localName":"Kolda","labelEnglish":"Kolda","labelLocal":"Kolda","labelBoth":"Kolda","type":"Region","iso":"SN-KD","qid":"Q738081"},"geometry":{"type":"Polygon","coordinates":[[[-13.3598,12.6497],[-13.6228,13.2401],[-13.8825,13.5038],[-13.851,13.3358],[-14.2017,13.2296],[-14.5521,13.3231],[-15.1813,13.5598],[-15.3424,13.3626],[-15.1308,12.8844],[-15.1462,12.6792],[-14.8722,12.6781],[-14.3431,12.6759],[-13.7283,12.6734],[-13.3598,12.6497]]]}},{"type":"Feature","id":"label-SEN-774","properties":{"kind":"division-label","code":"SEN-774","countryCode":"SEN","name":"Kolda","localName":"Kolda","labelEnglish":"Kolda","labelLocal":"Kolda","labelBoth":"Kolda","type":"Region","iso":"SN-KD","qid":"Q738081"},"geometry":{"type":"Point","coordinates":[-14.422,12.9574]}},{"type":"Feature","id":"SEN-5514","properties":{"kind":"division","code":"SEN-5514","countryCode":"SEN","name":"Sédhiou","localName":"Sédhiou","labelEnglish":"Sédhiou","labelLocal":"Sédhiou","labelBoth":"Sédhiou","type":"Region","iso":"SN-SE","qid":"Q589848"},"geometry":{"type":"Polygon","coordinates":[[[-15.1462,12.6792],[-15.1308,12.8844],[-15.3424,13.3626],[-15.8071,13.3398],[-15.8244,13.2485],[-15.8974,13.1574],[-16.0221,12.729],[-15.9639,12.6022],[-15.884,12.4422],[-15.4217,12.5571],[-15.1462,12.6792]]]}},{"type":"Feature","id":"label-SEN-5514","properties":{"kind":"division-label","code":"SEN-5514","countryCode":"SEN","name":"Sédhiou","localName":"Sédhiou","labelEnglish":"Sédhiou","labelLocal":"Sédhiou","labelBoth":"Sédhiou","type":"Region","iso":"SN-SE","qid":"Q589848"},"geometry":{"type":"Point","coordinates":[-15.6151,12.8803]}},{"type":"Feature","id":"SEN-775","properties":{"kind":"division","code":"SEN-775","countryCode":"SEN","name":"Ziguinchor","localName":"Ziguinchor","labelEnglish":"Ziguinchor","labelLocal":"Ziguinchor","labelBoth":"Ziguinchor","type":"Region","iso":"SN-ZG","qid":"Q822692"},"geometry":{"type":"MultiPolygon","coordinates":[[[[-16.7284,12.3325],[-16.2329,12.4529],[-15.884,12.4422],[-15.9639,12.6022],[-16.3883,12.5516],[-16.5797,12.6328],[-16.803,12.4854],[-16.7284,12.3325]]],[[[-15.8974,13.1574],[-16.6735,13.1643],[-16.7537,13.065],[-16.7731,12.583],[-16.5657,12.6739],[-16.371,12.5645],[-16.0221,12.729],[-15.8974,13.1574]]]]}},{"type":"Feature","id":"label-SEN-775","properties":{"kind":"division-label","code":"SEN-775","countryCode":"SEN","name":"Ziguinchor","localName":"Ziguinchor","labelEnglish":"Ziguinchor","labelLocal":"Ziguinchor","labelBoth":"Ziguinchor","type":"Region","iso":"SN-ZG","qid":"Q822692"},"geometry":{"type":"Point","coordinates":[-16.3435,12.4818]}},{"type":"Feature","id":"SEN-5517","properties":{"kind":"division","code":"SEN-5517","countryCode":"SEN","name":"Saint-Louis","localName":"Saint-Louis","labelEnglish":"Saint-Louis","labelLocal":"Saint-Louis","labelBoth":"Saint-Louis","type":"Region","iso":"SN-SL","qid":"Q178872"},"geometry":{"type":"Polygon","coordinates":[[[-14.9489,16.6706],[-15.6722,16.4814],[-16.3274,16.4746],[-16.5423,15.8088],[-16.5409,15.8057],[-16.2575,15.8445],[-15.8411,16.1818],[-15.5912,15.9212],[-15.4267,15.9985],[-14.8545,15.9974],[-14.5414,15.8047],[-14.2983,15.6378],[-13.7196,16.1356],[-13.7183,16.1593],[-13.8113,16.1221],[-14.3433,16.6367],[-14.9489,16.6706]]]}},{"type":"Feature","id":"label-SEN-5517","properties":{"kind":"division-label","code":"SEN-5517","countryCode":"SEN","name":"Saint-Louis","localName":"Saint-Louis","labelEnglish":"Saint-Louis","labelLocal":"Saint-Louis","labelBoth":"Saint-Louis","type":"Region","iso":"SN-SL","qid":"Q178872"},"geometry":{"type":"Point","coordinates":[-14.9945,16.3051]}},{"type":"Feature","id":"SEN-767","properties":{"kind":"division","code":"SEN-767","countryCode":"SEN","name":"Matam","localName":"Matam","labelEnglish":"Matam","labelLocal":"Matam","labelBoth":"Matam","type":"Region","iso":"SN-MT","qid":"Q856275"},"geometry":{"type":"Polygon","coordinates":[[[-13.7196,16.1356],[-14.2983,15.6378],[-14.5414,15.8047],[-14.741,15.6778],[-14.7845,15.4419],[-14.5342,15.3693],[-14.585,15.1226],[-14.8027,15.0392],[-14.7301,14.8469],[-14.8627,14.6377],[-14.633,14.5109],[-14.3566,14.6437],[-13.8341,14.4018],[-13.5112,14.3985],[-13.2189,14.5946],[-12.7555,14.5655],[-12.5726,14.8937],[-12.6896,15.0925],[-12.7466,15.1311],[-12.9643,15.5092],[-13.2378,15.6234],[-13.4849,16.155],[-13.7196,16.1356]]]}},{"type":"Feature","id":"label-SEN-767","properties":{"kind":"division-label","code":"SEN-767","countryCode":"SEN","name":"Matam","localName":"Matam","labelEnglish":"Matam","labelLocal":"Matam","labelBoth":"Matam","type":"Region","iso":"SN-MT","qid":"Q856275"},"geometry":{"type":"Point","coordinates":[-13.5063,15.4647]}},{"type":"Feature","id":"SEN-5516","properties":{"kind":"division","code":"SEN-5516","countryCode":"SEN","name":"Kaffrine","localName":"Kaffrine","labelEnglish":"Kaffrine","labelLocal":"Kaffrine","labelBoth":"Kaffrine","type":"Region","iso":"SN-KA","qid":"Q1059694"},"geometry":{"type":"Polygon","coordinates":[[[-14.8603,13.7656],[-14.5775,14.0648],[-14.633,14.5109],[-14.8627,14.6377],[-15.3796,14.6983],[-15.4313,14.5743],[-15.799,14.3849],[-15.8549,14.0378],[-15.6227,13.7656],[-15.3941,13.7715],[-14.8603,13.7656]]]}},{"type":"Feature","id":"label-SEN-5516","properties":{"kind":"division-label","code":"SEN-5516","countryCode":"SEN","name":"Kaffrine","localName":"Kaffrine","labelEnglish":"Kaffrine","labelLocal":"Kaffrine","labelBoth":"Kaffrine","type":"Region","iso":"SN-KA","qid":"Q1059694"},"geometry":{"type":"Point","coordinates":[-15.2014,14.2364]}},{"type":"Feature","id":"SEN-765","properties":{"kind":"division","code":"SEN-765","countryCode":"SEN","name":"Kaolack","localName":"Kaolack","labelEnglish":"Kaolack","labelLocal":"Kaolack","labelBoth":"Kaolack","type":"Region","iso":"SN-KL","qid":"Q847671"},"geometry":{"type":"Polygon","coordinates":[[[-15.498,13.6415],[-15.3941,13.7715],[-15.6227,13.7656],[-15.8549,14.0378],[-15.799,14.3849],[-16.2571,14.3396],[-16.3802,14.1684],[-16.3723,14.1627],[-16.2488,14.1233],[-16.2373,13.7964],[-16.0854,13.5852],[-15.498,13.6415]]]}},{"type":"Feature","id":"label-SEN-765","properties":{"kind":"division-label","code":"SEN-765","countryCode":"SEN","name":"Kaolack","localName":"Kaolack","labelEnglish":"Kaolack","labelLocal":"Kaolack","labelBoth":"Kaolack","type":"Region","iso":"SN-KL","qid":"Q847671"},"geometry":{"type":"Point","coordinates":[-15.9845,13.8846]}},{"type":"Feature","id":"SEN-764","properties":{"kind":"division","code":"SEN-764","countryCode":"SEN","name":"Fatick","localName":"Fatick","labelEnglish":"Fatick","labelLocal":"Fatick","labelBoth":"Fatick","type":"Region","iso":"SN-FK","qid":"Q856282"},"geometry":{"type":"MultiPolygon","coordinates":[[[[-16.0854,13.5852],[-16.2373,13.7964],[-16.2488,14.1233],[-16.3723,14.1627],[-16.7468,13.9514],[-16.5614,13.5869],[-16.0854,13.5852]]],[[[-16.3802,14.1684],[-16.2571,14.3396],[-15.799,14.3849],[-15.4313,14.5743],[-15.8034,14.7152],[-16.0307,14.5262],[-16.5313,14.5806],[-16.8113,14.1249],[-16.7646,13.9706],[-16.3802,14.1684]]]]}},{"type":"Feature","id":"label-SEN-764","properties":{"kind":"division-label","code":"SEN-764","countryCode":"SEN","name":"Fatick","localName":"Fatick","labelEnglish":"Fatick","labelLocal":"Fatick","labelBoth":"Fatick","type":"Region","iso":"SN-FK","qid":"Q856282"},"geometry":{"type":"Point","coordinates":[-16.4165,13.8699]}},{"type":"Feature","id":"SEN-766","properties":{"kind":"division","code":"SEN-766","countryCode":"SEN","name":"Louga","localName":"Louga","labelEnglish":"Louga","labelLocal":"Louga","labelBoth":"Louga","type":"Region","iso":"SN-LG","qid":"Q738061"},"geometry":{"type":"Polygon","coordinates":[[[-16.7353,15.4773],[-16.5991,15.128],[-16.3437,15.3178],[-16.1324,14.969],[-15.8319,15.0034],[-15.3796,14.6983],[-14.8627,14.6377],[-14.7301,14.8469],[-14.8027,15.0392],[-14.585,15.1226],[-14.5342,15.3693],[-14.7845,15.4419],[-14.741,15.6778],[-14.5414,15.8047],[-14.8545,15.9974],[-15.4267,15.9985],[-15.5912,15.9212],[-15.8411,16.1818],[-16.2575,15.8445],[-16.5409,15.8057],[-16.7353,15.4773]]]}},{"type":"Feature","id":"label-SEN-766","properties":{"kind":"division-label","code":"SEN-766","countryCode":"SEN","name":"Louga","localName":"Louga","labelEnglish":"Louga","labelLocal":"Louga","labelBoth":"Louga","type":"Region","iso":"SN-LG","qid":"Q738061"},"geometry":{"type":"Point","coordinates":[-15.5162,15.4183]}},{"type":"Feature","id":"SEN-768","properties":{"kind":"division","code":"SEN-768","countryCode":"SEN","name":"Thiès","localName":"Thiès","labelEnglish":"Thiès","labelLocal":"Thiès","labelBoth":"Thiès","type":"Region","iso":"SN-TH","qid":"Q847682"},"geometry":{"type":"Polygon","coordinates":[[[-17.182,14.8971],[-17.1484,14.6132],[-16.8113,14.1249],[-16.5313,14.5806],[-16.6783,14.8775],[-16.3995,15.0116],[-16.1324,14.969],[-16.3437,15.3178],[-16.5991,15.128],[-16.7353,15.4773],[-17.182,14.8971]]]}},{"type":"Feature","id":"label-SEN-768","properties":{"kind":"division-label","code":"SEN-768","countryCode":"SEN","name":"Thiès","localName":"Thiès","labelEnglish":"Thiès","labelLocal":"Thiès","labelBoth":"Thiès","type":"Region","iso":"SN-TH","qid":"Q847682"},"geometry":{"type":"Point","coordinates":[-16.8671,14.6931]}},{"type":"Feature","id":"SEN-759","properties":{"kind":"division","code":"SEN-759","countryCode":"SEN","name":"Dakar","localName":"Dakar","labelEnglish":"Dakar","labelLocal":"Dakar","labelBoth":"Dakar","type":"Region","iso":"SN-DK","qid":"Q856268"},"geometry":{"type":"Polygon","coordinates":[[[-17.1484,14.6132],[-17.182,14.8971],[-17.536,14.7574],[-17.1484,14.6132]]]}},{"type":"Feature","id":"label-SEN-759","properties":{"kind":"division-label","code":"SEN-759","countryCode":"SEN","name":"Dakar","localName":"Dakar","labelEnglish":"Dakar","labelLocal":"Dakar","labelBoth":"Dakar","type":"Region","iso":"SN-DK","qid":"Q856268"},"geometry":{"type":"Point","coordinates":[-17.3327,14.7835]}},{"type":"Feature","id":"SEN-763","properties":{"kind":"division","code":"SEN-763","countryCode":"SEN","name":"Diourbel","localName":"Diourbel","labelEnglish":"Diourbel","labelLocal":"Diourbel","labelBoth":"Diourbel","type":"Region","iso":"SN-DB","qid":"Q856261"},"geometry":{"type":"Polygon","coordinates":[[[-15.3796,14.6983],[-15.8319,15.0034],[-16.1324,14.969],[-16.3995,15.0116],[-16.6783,14.8775],[-16.5313,14.5806],[-16.0307,14.5262],[-15.8034,14.7152],[-15.4313,14.5743],[-15.3796,14.6983]]]}},{"type":"Feature","id":"label-SEN-763","properties":{"kind":"division-label","code":"SEN-763","countryCode":"SEN","name":"Diourbel","localName":"Diourbel","labelEnglish":"Diourbel","labelLocal":"Diourbel","labelBoth":"Diourbel","type":"Region","iso":"SN-DB","qid":"Q856261"},"geometry":{"type":"Point","coordinates":[-16.1895,14.7509]}}]}