{"type":"FeatureCollection","features":[{"type":"Feature","id":"SGP-4872","properties":{"kind":"division","code":"SGP-4872","countryCode":"SGP","name":"South West Community Development Council","localName":"South West Community Development Council","labelEnglish":"South West Community Development Council","labelLocal":"South West Community Development Council","labelBoth":"South West Community Development Council","type":null,"iso":"SG-05","qid":"Q5784126"},"geometry":{"type":"Polygon","coordinates":[[[103.8469,1.2719],[103.8064,1.3249],[103.7622,1.431],[103.6476,1.3084],[103.8469,1.2719]]]}},{"type":"Feature","id":"label-SGP-4872","properties":{"kind":"division-label","code":"SGP-4872","countryCode":"SGP","name":"South West Community Development Council","localName":"South West Community Development Council","labelEnglish":"South West Community Development Council","labelLocal":"South West Community Development Council","labelBoth":"South West Community Development Council","type":null,"iso":"SG-05","qid":"Q5784126"},"geometry":{"type":"Point","coordinates":[103.705,1.33718]}},{"type":"Feature","id":"SGP-4871","properties":{"kind":"division","code":"SGP-4871","countryCode":"SGP","name":"Central Singapore Community Development Council","localName":"Central Singapore Community Development Council","labelEnglish":"Central Singapore Community Development Council","labelLocal":"Central Singapore Community Development Council","labelBoth":"Central Singapore Community Development Council","type":null,"iso":"SG-01","qid":"Q2544592"},"geometry":{"type":"Polygon","coordinates":[[[103.8981,1.3052],[103.8989,1.3864],[103.9094,1.4126],[103.8815,1.4266],[103.8064,1.3249],[103.8469,1.2719],[103.8981,1.3052]]]}},{"type":"Feature","id":"label-SGP-4871","properties":{"kind":"division-label","code":"SGP-4871","countryCode":"SGP","name":"Central Singapore Community Development Council","localName":"Central Singapore Community Development Council","labelEnglish":"Central Singapore Community Development Council","labelLocal":"Central Singapore Community Development Council","labelBoth":"Central Singapore Community Development Council","type":null,"iso":"SG-01","qid":"Q2544592"},"geometry":{"type":"Point","coordinates":[103.846,1.31704]}},{"type":"Feature","id":"SGP-4875","properties":{"kind":"division","code":"SGP-4875","countryCode":"SGP","name":"South East Community Development Council","localName":"South East Community Development Council","labelEnglish":"South East Community Development Council","labelLocal":"South East Community Development Council","labelBoth":"South East Community Development Council","type":null,"iso":"SG-04","qid":"Q1687545"},"geometry":{"type":"Polygon","coordinates":[[[103.9658,1.39],[103.8989,1.3864],[103.8981,1.3052],[103.9658,1.39]]]}},{"type":"Feature","id":"label-SGP-4875","properties":{"kind":"division-label","code":"SGP-4875","countryCode":"SGP","name":"South East Community Development Council","localName":"South East Community Development Council","labelEnglish":"South East Community Development Council","labelLocal":"South East Community Development Council","labelBoth":"South East Community Development Council","type":null,"iso":"SG-04","qid":"Q1687545"},"geometry":{"type":"Point","coordinates":[103.932,1.33524]}},{"type":"Feature","id":"SGP-4874","properties":{"kind":"division","code":"SGP-4874","countryCode":"SGP","name":"North East Community Development Council","localName":"North East Community Development Council","labelEnglish":"North East Community Development Council","labelLocal":"North East Community Development Council","labelBoth":"North East Community Development Council","type":null,"iso":"SG-02","qid":"Q3710534"},"geometry":{"type":"Polygon","coordinates":[[[103.9094,1.4126],[103.8989,1.3864],[103.9658,1.39],[103.9094,1.4126]]]}},{"type":"Feature","id":"label-SGP-4874","properties":{"kind":"division-label","code":"SGP-4874","countryCode":"SGP","name":"North East Community Development Council","localName":"North East Community Development Council","labelEnglish":"North East Community Development Council","labelLocal":"North East Community Development Council","labelBoth":"North East Community Development Council","type":null,"iso":"SG-02","qid":"Q3710534"},"geometry":{"type":"Point","coordinates":[103.925,1.38379]}},{"type":"Feature","id":"SGP-4873","properties":{"kind":"division","code":"SGP-4873","countryCode":"SGP","name":"North West","localName":"North West","labelEnglish":"North West","labelLocal":"North West","labelBoth":"North West","type":null,"iso":"SG-03","qid":null},"geometry":{"type":"Polygon","coordinates":[[[103.7622,1.431],[103.8064,1.3249],[103.8815,1.4266],[103.7622,1.431]]]}},{"type":"Feature","id":"label-SGP-4873","properties":{"kind":"division-label","code":"SGP-4873","countryCode":"SGP","name":"North West","localName":"North West","labelEnglish":"North West","labelLocal":"North West","labelBoth":"North West","type":null,"iso":"SG-03","qid":null},"geometry":{"type":"Point","coordinates":[103.808,1.41809]}}]}