{"type":"FeatureCollection","features":[{"type":"Feature","id":"SGS+00?","properties":{"kind":"division","code":"SGS+00?","countryCode":"SGS","name":"South Georgia and the South Sandwich Islands","localName":"South Georgia and the South Sandwich Islands","labelEnglish":"South Georgia and the South Sandwich Islands","labelLocal":"South Georgia and the South Sandwich Islands","labelBoth":"South Georgia and the South Sandwich Islands","type":null,"iso":"GS-X01~","qid":null},"geometry":{"type":"Polygon","coordinates":[[[-35.9088,-54.6873],[-35.8873,-54.5512],[-36.6756,-54.2494],[-36.6551,-54.1061],[-37.4639,-54.0304],[-37.1534,-54.2575],[-36.4633,-54.5375],[-36.1018,-54.8875],[-35.9088,-54.6873]]]}},{"type":"Feature","id":"label-SGS+00?","properties":{"kind":"division-label","code":"SGS+00?","countryCode":"SGS","name":"South Georgia and the South Sandwich Islands","localName":"South Georgia and the South Sandwich Islands","labelEnglish":"South Georgia and the South Sandwich Islands","labelLocal":"South Georgia and the South Sandwich Islands","labelBoth":"South Georgia and the South Sandwich Islands","type":null,"iso":"GS-X01~","qid":null},"geometry":{"type":"Point","coordinates":[-27.1942,-59.4548]}}]}