{"type":"FeatureCollection","features":[{"type":"Feature","id":"SHN-4865","properties":{"kind":"division","code":"SHN-4865","countryCode":"SHN","name":"Tristan da Cunha","localName":"Tristan da Cunha","labelEnglish":"Tristan da Cunha","labelLocal":"Tristan da Cunha","labelBoth":"Tristan da Cunha","type":null,"iso":"SH-TA","qid":"Q220982"},"geometry":{"type":"Polygon","coordinates":[[[-9.9264,-40.3488],[-10.0394,-40.3386],[-9.9252,-40.3979],[-9.9264,-40.3488]]]}},{"type":"Feature","id":"label-SHN-4865","properties":{"kind":"division-label","code":"SHN-4865","countryCode":"SHN","name":"Tristan da Cunha","localName":"Tristan da Cunha","labelEnglish":"Tristan da Cunha","labelLocal":"Tristan da Cunha","labelBoth":"Tristan da Cunha","type":null,"iso":"SH-TA","qid":"Q220982"},"geometry":{"type":"Point","coordinates":[-12.2667,-37.1226]}},{"type":"Feature","id":"SHN-4864","properties":{"kind":"division","code":"SHN-4864","countryCode":"SHN","name":"Saint Helena","localName":"Saint Helena","labelEnglish":"Saint Helena","labelLocal":"Saint Helena","labelBoth":"Saint Helena","type":null,"iso":"SH-HL","qid":"Q34497"},"geometry":{"type":"Polygon","coordinates":[[[-5.7218,-15.9089],[-5.7637,-16.0157],[-5.6627,-15.9796],[-5.7218,-15.9089]]]}},{"type":"Feature","id":"label-SHN-4864","properties":{"kind":"division-label","code":"SHN-4864","countryCode":"SHN","name":"Saint Helena","localName":"Saint Helena","labelEnglish":"Saint Helena","labelLocal":"Saint Helena","labelBoth":"Saint Helena","type":null,"iso":"SH-HL","qid":"Q34497"},"geometry":{"type":"Point","coordinates":[-5.70643,-15.9317]}},{"type":"Feature","id":"SHN-4863","properties":{"kind":"division","code":"SHN-4863","countryCode":"SHN","name":"Ascension","localName":"Ascension","labelEnglish":"Ascension","labelLocal":"Ascension","labelBoth":"Ascension","type":null,"iso":"SH-AC","qid":"Q46197"},"geometry":{"type":"Polygon","coordinates":[[[-14.3563,-7.8847],[-14.4064,-7.9739],[-14.2948,-7.9455],[-14.3563,-7.8847]]]}},{"type":"Feature","id":"label-SHN-4863","properties":{"kind":"division-label","code":"SHN-4863","countryCode":"SHN","name":"Ascension","localName":"Ascension","labelEnglish":"Ascension","labelLocal":"Ascension","labelBoth":"Ascension","type":null,"iso":"SH-AC","qid":"Q46197"},"geometry":{"type":"Point","coordinates":[-14.3701,-7.91916]}}]}