{"type":"FeatureCollection","features":[{"type":"Feature","id":"SLB-1261","properties":{"kind":"division","code":"SLB-1261","countryCode":"SLB","name":"Rennell and Bellona","localName":"Rennell and Bellona","labelEnglish":"Rennell and Bellona","labelLocal":"Rennell and Bellona","labelBoth":"Rennell and Bellona","type":"Province","iso":"SB-RB","qid":"Q1051475"},"geometry":{"type":"Polygon","coordinates":[[[160.5037,-11.736],[160.0033,-11.4611],[160.0237,-11.6007],[160.5037,-11.736]]]}},{"type":"Feature","id":"label-SLB-1261","properties":{"kind":"division-label","code":"SLB-1261","countryCode":"SLB","name":"Rennell and Bellona","localName":"Rennell and Bellona","labelEnglish":"Rennell and Bellona","labelLocal":"Rennell and Bellona","labelBoth":"Rennell and Bellona","type":"Province","iso":"SB-RB","qid":"Q1051475"},"geometry":{"type":"Point","coordinates":[160.273,-11.6204]}},{"type":"Feature","id":"SLB-3509","properties":{"kind":"division","code":"SLB-3509","countryCode":"SLB","name":"Makira-Ulawa","localName":"Makira-Ulawa","labelEnglish":"Makira-Ulawa","labelLocal":"Makira-Ulawa","labelBoth":"Makira-Ulawa","type":"Province","iso":"SB-MK","qid":"Q1116700"},"geometry":{"type":"Polygon","coordinates":[[[162.3748,-10.8237],[162.1136,-10.4565],[161.8357,-10.447],[161.396,-10.204],[161.6366,-10.631],[162.1011,-10.8215],[162.3748,-10.8237]]]}},{"type":"Feature","id":"label-SLB-3509","properties":{"kind":"division-label","code":"SLB-3509","countryCode":"SLB","name":"Makira-Ulawa","localName":"Makira-Ulawa","labelEnglish":"Makira-Ulawa","labelLocal":"Makira-Ulawa","labelBoth":"Makira-Ulawa","type":"Province","iso":"SB-MK","qid":"Q1116700"},"geometry":{"type":"Point","coordinates":[161.744,-10.2782]}},{"type":"Feature","id":"SLB-1934","properties":{"kind":"division","code":"SLB-1934","countryCode":"SLB","name":"Temotu","localName":"Temotu","labelEnglish":"Temotu","labelLocal":"Temotu","labelBoth":"Temotu","type":"Province","iso":"SB-TE","qid":"Q936088"},"geometry":{"type":"Polygon","coordinates":[[[166.1479,-10.694],[165.8781,-10.6568],[165.862,-10.8685],[166.1479,-10.694]]]}},{"type":"Feature","id":"label-SLB-1934","properties":{"kind":"division-label","code":"SLB-1934","countryCode":"SLB","name":"Temotu","localName":"Temotu","labelEnglish":"Temotu","labelLocal":"Temotu","labelBoth":"Temotu","type":"Province","iso":"SB-TE","qid":"Q936088"},"geometry":{"type":"Point","coordinates":[168.812,-12.277]}},{"type":"Feature","id":"SLB-1260","properties":{"kind":"division","code":"SLB-1260","countryCode":"SLB","name":"Malaita","localName":"Malaita","labelEnglish":"Malaita","labelLocal":"Malaita","labelBoth":"Malaita","type":"Province","iso":"SB-ML","qid":"Q1190896"},"geometry":{"type":"MultiPolygon","coordinates":[[[[161.3948,-9.4128],[161.3948,-9.649],[161.5586,-9.789],[161.3948,-9.4128]]],[[[161.3607,-9.6176],[161.169,-8.9745],[160.9466,-8.8137],[160.9968,-8.6038],[160.7466,-8.3097],[160.5935,-8.3849],[160.8679,-9.1521],[161.3607,-9.6176]]]]}},{"type":"Feature","id":"label-SLB-1260","properties":{"kind":"division-label","code":"SLB-1260","countryCode":"SLB","name":"Malaita","localName":"Malaita","labelEnglish":"Malaita","labelLocal":"Malaita","labelBoth":"Malaita","type":"Province","iso":"SB-ML","qid":"Q1190896"},"geometry":{"type":"Point","coordinates":[161.956,-9.75831]}},{"type":"Feature","id":"SLB-5130","properties":{"kind":"division","code":"SLB-5130","countryCode":"SLB","name":"Honiara","localName":"Honiara","labelEnglish":"Honiara","labelLocal":"Honiara","labelBoth":"Honiara","type":"Province","iso":"SB-CT","qid":"Q40921"},"geometry":{"type":"Polygon","coordinates":[[[159.9397,-9.4329],[160.0371,-9.4616],[160.028,-9.4221],[159.9397,-9.4329]]]}},{"type":"Feature","id":"label-SLB-5130","properties":{"kind":"division-label","code":"SLB-5130","countryCode":"SLB","name":"Honiara","localName":"Honiara","labelEnglish":"Honiara","labelLocal":"Honiara","labelBoth":"Honiara","type":"Province","iso":"SB-CT","qid":"Q40921"},"geometry":{"type":"Point","coordinates":[160.019,-9.44658]}},{"type":"Feature","id":"SLB-1263","properties":{"kind":"division","code":"SLB-1263","countryCode":"SLB","name":"Guadalcanal","localName":"Guadalcanal","labelEnglish":"Guadalcanal","labelLocal":"Guadalcanal","labelBoth":"Guadalcanal","type":"Province","iso":"SB-GU","qid":"Q760888"},"geometry":{"type":"Polygon","coordinates":[[[160.028,-9.4221],[160.0371,-9.4616],[159.9397,-9.4329],[159.709,-9.2477],[159.5991,-9.5124],[159.8356,-9.7939],[160.3203,-9.8151],[160.6448,-9.9371],[160.7854,-9.7275],[160.3664,-9.4128],[160.028,-9.4221]]]}},{"type":"Feature","id":"label-SLB-1263","properties":{"kind":"division-label","code":"SLB-1263","countryCode":"SLB","name":"Guadalcanal","localName":"Guadalcanal","labelEnglish":"Guadalcanal","labelLocal":"Guadalcanal","labelBoth":"Guadalcanal","type":"Province","iso":"SB-GU","qid":"Q760888"},"geometry":{"type":"Point","coordinates":[160.209,-9.61695]}},{"type":"Feature","id":"SLB-1262","properties":{"kind":"division","code":"SLB-1262","countryCode":"SLB","name":"Central","localName":"Central","labelEnglish":"Central","labelLocal":"Central","labelBoth":"Central","type":"Province","iso":"SB-CE","qid":"Q293722"},"geometry":{"type":"Polygon","coordinates":[[[160.0967,-9.0566],[160.2645,-9.1316],[160.2951,-9.0395],[160.0967,-9.0566]]]}},{"type":"Feature","id":"label-SLB-1262","properties":{"kind":"division-label","code":"SLB-1262","countryCode":"SLB","name":"Central","localName":"Central","labelEnglish":"Central","labelLocal":"Central","labelBoth":"Central","type":"Province","iso":"SB-CE","qid":"Q293722"},"geometry":{"type":"Point","coordinates":[159.825,-9.14003]}},{"type":"Feature","id":"SLB-3507","properties":{"kind":"division","code":"SLB-3507","countryCode":"SLB","name":"Western","localName":"Western","labelEnglish":"Western","labelLocal":"Western","labelBoth":"Western","type":"Province","iso":"SB-CH","qid":"Q150325"},"geometry":{"type":"MultiPolygon","coordinates":[[[[158.0569,-8.5283],[157.8792,-8.6826],[158.1057,-8.6911],[158.0569,-8.5283]]],[[[157.7974,-8.5624],[157.9033,-8.4991],[157.5026,-7.9597],[157.2282,-8.3167],[157.5671,-8.2763],[157.7974,-8.5624]]],[[[157.1047,-8.1249],[157.0911,-7.8505],[156.947,-7.9797],[157.1047,-8.1249]]],[[[156.8071,-7.7201],[156.5042,-7.6301],[156.6597,-7.9392],[156.8071,-7.7201]]]]}},{"type":"Feature","id":"label-SLB-3507","properties":{"kind":"division-label","code":"SLB-3507","countryCode":"SLB","name":"Western","localName":"Western","labelEnglish":"Western","labelLocal":"Western","labelBoth":"Western","type":"Province","iso":"SB-CH","qid":"Q150325"},"geometry":{"type":"Point","coordinates":[157.551,-8.72999]}},{"type":"Feature","id":"SLB-1264","properties":{"kind":"division","code":"SLB-1264","countryCode":"SLB","name":"Isabel","localName":"Isabel","labelEnglish":"Isabel","labelLocal":"Isabel","labelBoth":"Isabel","type":"Province","iso":"SB-IS","qid":"Q1139082"},"geometry":{"type":"Polygon","coordinates":[[[159.8594,-8.5113],[159.8421,-8.3256],[159.4317,-8.0315],[159.1268,-7.9195],[158.7517,-7.5934],[158.452,-7.532],[158.8457,-7.9734],[159.8594,-8.5113]]]}},{"type":"Feature","id":"label-SLB-1264","properties":{"kind":"division-label","code":"SLB-1264","countryCode":"SLB","name":"Isabel","localName":"Isabel","labelEnglish":"Isabel","labelLocal":"Isabel","labelBoth":"Isabel","type":"Province","iso":"SB-IS","qid":"Q1139082"},"geometry":{"type":"Point","coordinates":[159.619,-8.44695]}},{"type":"Feature","id":"SLB-3508","properties":{"kind":"division","code":"SLB-3508","countryCode":"SLB","name":"Choiseul","localName":"Choiseul","labelEnglish":"Choiseul","labelLocal":"Choiseul","labelBoth":"Choiseul","type":"Province","iso":"SB-CH","qid":"Q399063"},"geometry":{"type":"Polygon","coordinates":[[[157.5298,-7.3332],[157.1525,-7.1243],[157.0427,-6.8971],[156.4878,-6.603],[156.4611,-6.7333],[157.1043,-7.3322],[157.4417,-7.4142],[157.5298,-7.3332]]]}},{"type":"Feature","id":"label-SLB-3508","properties":{"kind":"division-label","code":"SLB-3508","countryCode":"SLB","name":"Choiseul","localName":"Choiseul","labelEnglish":"Choiseul","labelLocal":"Choiseul","labelBoth":"Choiseul","type":"Province","iso":"SB-CH","qid":"Q399063"},"geometry":{"type":"Point","coordinates":[157.547,-7.40991]}}]}