{"type":"FeatureCollection","features":[{"type":"Feature","id":"SLE-762","properties":{"kind":"division","code":"SLE-762","countryCode":"SLE","name":"Northern","localName":"Northern","labelEnglish":"Northern","labelLocal":"Northern","labelBoth":"Northern","type":"Province","iso":"SL-N","qid":"Q912359"},"geometry":{"type":"Polygon","coordinates":[[[-10.5931,9.0476],[-10.7463,9.0838],[-10.6751,9.3065],[-10.8549,9.4553],[-11.1996,9.9822],[-11.4492,9.995],[-11.5875,9.9943],[-11.9101,9.9925],[-12.1098,9.8817],[-12.5083,9.8604],[-12.6016,9.6517],[-12.7016,9.4202],[-12.9579,9.2724],[-13.0289,9.096],[-13.3011,9.0415],[-13.1426,8.9167],[-13.2412,8.6722],[-13.0424,8.3754],[-12.9005,8.2745],[-12.8228,8.3702],[-12.4528,8.2646],[-11.8441,8.3463],[-11.5802,8.5081],[-11.3649,8.5249],[-11.3415,8.7769],[-11.0623,9.0702],[-10.815,8.9467],[-10.5922,9.0417],[-10.5931,9.0476]]]}},{"type":"Feature","id":"label-SLE-762","properties":{"kind":"division-label","code":"SLE-762","countryCode":"SLE","name":"Northern","localName":"Northern","labelEnglish":"Northern","labelLocal":"Northern","labelBoth":"Northern","type":"Province","iso":"SL-N","qid":"Q912359"},"geometry":{"type":"Point","coordinates":[-11.9468,9.14067]}},{"type":"Feature","id":"SLE-790","properties":{"kind":"division","code":"SLE-790","countryCode":"SLE","name":"Eastern","localName":"Eastern","labelEnglish":"Eastern","labelLocal":"Eastern","labelBoth":"Eastern","type":"Province","iso":"SL-E","qid":"Q1050497"},"geometry":{"type":"Polygon","coordinates":[[[-10.5922,9.0417],[-10.815,8.9467],[-11.0623,9.0702],[-11.3415,8.7769],[-11.3649,8.5249],[-11.5802,8.5081],[-11.3752,8.2056],[-11.4395,7.8807],[-11.3579,7.4244],[-11.1442,7.3452],[-10.864,7.5437],[-10.6152,7.769],[-10.6162,8.0225],[-10.3649,8.1482],[-10.2822,8.4846],[-10.725,8.3199],[-10.4819,8.6725],[-10.5922,9.0417]]]}},{"type":"Feature","id":"label-SLE-790","properties":{"kind":"division-label","code":"SLE-790","countryCode":"SLE","name":"Eastern","localName":"Eastern","labelEnglish":"Eastern","labelLocal":"Eastern","labelBoth":"Eastern","type":"Province","iso":"SL-E","qid":"Q1050497"},"geometry":{"type":"Point","coordinates":[-10.9314,8.27415]}},{"type":"Feature","id":"SLE-760","properties":{"kind":"division","code":"SLE-760","countryCode":"SLE","name":"Southern","localName":"Southern","labelEnglish":"Southern","labelLocal":"Southern","labelBoth":"Southern","type":"Province","iso":"SL-S","qid":"Q772185"},"geometry":{"type":"MultiPolygon","coordinates":[[[[-11.1442,7.3452],[-11.3579,7.4244],[-11.4395,7.8807],[-11.3752,8.2056],[-11.5802,8.5081],[-11.8441,8.3463],[-12.4528,8.2646],[-12.8228,8.3702],[-12.9005,8.2745],[-12.9762,8.2465],[-12.8213,7.9174],[-12.9591,7.9112],[-12.4036,7.5475],[-12.5066,7.3898],[-11.8396,7.149],[-11.4762,6.9194],[-11.1442,7.3452]]],[[[-12.493,7.568],[-12.9517,7.568],[-12.6055,7.4787],[-12.493,7.568]]]]}},{"type":"Feature","id":"label-SLE-760","properties":{"kind":"division-label","code":"SLE-760","countryCode":"SLE","name":"Southern","localName":"Southern","labelEnglish":"Southern","labelLocal":"Southern","labelBoth":"Southern","type":"Province","iso":"SL-S","qid":"Q772185"},"geometry":{"type":"Point","coordinates":[-12.0512,7.85416]}},{"type":"Feature","id":"SLE-761","properties":{"kind":"division","code":"SLE-761","countryCode":"SLE","name":"Western Area","localName":"Western Area","labelEnglish":"Western Area","labelLocal":"Western Area","labelBoth":"Western Area","type":"Province","iso":"SL-W","qid":"Q1050475"},"geometry":{"type":"Polygon","coordinates":[[[-12.9762,8.2465],[-12.9005,8.2745],[-13.0424,8.3754],[-13.2868,8.5002],[-13.1577,8.1713],[-12.9762,8.2465]]]}},{"type":"Feature","id":"label-SLE-761","properties":{"kind":"division-label","code":"SLE-761","countryCode":"SLE","name":"Western Area","localName":"Western Area","labelEnglish":"Western Area","labelLocal":"Western Area","labelBoth":"Western Area","type":"Province","iso":"SL-W","qid":"Q1050475"},"geometry":{"type":"Point","coordinates":[-13.0935,8.31041]}}]}