{"type":"FeatureCollection","features":[{"type":"Feature","id":"SLV-1343","properties":{"kind":"division","code":"SLV-1343","countryCode":"SLV","name":"Ahuachapán","localName":"Ahuachapán","labelEnglish":"Ahuachapán","labelLocal":"Ahuachapán","labelBoth":"Ahuachapán","type":"Department","iso":"SV-AH","qid":"Q572993"},"geometry":{"type":"Polygon","coordinates":[[[-90.0983,13.7314],[-89.9535,13.6651],[-89.7188,13.909],[-89.748,14.0449],[-90.099,13.8585],[-90.0983,13.7314]]]}},{"type":"Feature","id":"label-SLV-1343","properties":{"kind":"division-label","code":"SLV-1343","countryCode":"SLV","name":"Ahuachapán","localName":"Ahuachapán","labelEnglish":"Ahuachapán","labelLocal":"Ahuachapán","labelBoth":"Ahuachapán","type":"Department","iso":"SV-AH","qid":"Q572993"},"geometry":{"type":"Point","coordinates":[-89.9057,13.8657]}},{"type":"Feature","id":"SLV-1358","properties":{"kind":"division","code":"SLV-1358","countryCode":"SLV","name":"Santa Ana","localName":"Santa Ana","labelEnglish":"Santa Ana","labelLocal":"Santa Ana","labelBoth":"Santa Ana","type":"Department","iso":"SV-SA","qid":"Q671158"},"geometry":{"type":"Polygon","coordinates":[[[-89.748,14.0449],[-89.7188,13.909],[-89.4566,13.7751],[-89.3714,14.0406],[-89.2465,14.3228],[-89.3462,14.4131],[-89.3616,14.4155],[-89.4961,14.4229],[-89.5309,14.2256],[-89.748,14.0449]]]}},{"type":"Feature","id":"label-SLV-1358","properties":{"kind":"division-label","code":"SLV-1358","countryCode":"SLV","name":"Santa Ana","localName":"Santa Ana","labelEnglish":"Santa Ana","labelLocal":"Santa Ana","labelBoth":"Santa Ana","type":"Department","iso":"SV-SA","qid":"Q671158"},"geometry":{"type":"Point","coordinates":[-89.5013,14.1024]}},{"type":"Feature","id":"SLV-1357","properties":{"kind":"division","code":"SLV-1357","countryCode":"SLV","name":"Chalatenango","localName":"Chalatenango","labelEnglish":"Chalatenango","labelLocal":"Chalatenango","labelBoth":"Chalatenango","type":"Department","iso":"SV-CH","qid":"Q522221"},"geometry":{"type":"Polygon","coordinates":[[[-89.3462,14.4131],[-89.2465,14.3228],[-89.3714,14.0406],[-89.2673,14.0521],[-89.1413,14.067],[-88.9297,13.9479],[-88.6908,14.0118],[-88.9702,14.2102],[-89.1075,14.396],[-89.3462,14.4131]]]}},{"type":"Feature","id":"label-SLV-1357","properties":{"kind":"division-label","code":"SLV-1357","countryCode":"SLV","name":"Chalatenango","localName":"Chalatenango","labelEnglish":"Chalatenango","labelLocal":"Chalatenango","labelBoth":"Chalatenango","type":"Department","iso":"SV-CH","qid":"Q522221"},"geometry":{"type":"Point","coordinates":[-89.0591,14.1895]}},{"type":"Feature","id":"SLV-1344","properties":{"kind":"division","code":"SLV-1344","countryCode":"SLV","name":"Cabañas","localName":"Cabañas","labelEnglish":"Cabañas","labelLocal":"Cabañas","labelBoth":"Cabañas","type":"Department","iso":"SV-CA","qid":"Q914058"},"geometry":{"type":"Polygon","coordinates":[[[-88.6908,14.0118],[-88.9297,13.9479],[-88.8503,13.7506],[-88.5323,13.7594],[-88.4968,13.8512],[-88.4971,13.9691],[-88.6908,14.0118]]]}},{"type":"Feature","id":"label-SLV-1344","properties":{"kind":"division-label","code":"SLV-1344","countryCode":"SLV","name":"Cabañas","localName":"Cabañas","labelEnglish":"Cabañas","labelLocal":"Cabañas","labelBoth":"Cabañas","type":"Department","iso":"SV-CA","qid":"Q914058"},"geometry":{"type":"Point","coordinates":[-88.7326,13.9079]}},{"type":"Feature","id":"SLV-1351","properties":{"kind":"division","code":"SLV-1351","countryCode":"SLV","name":"Morazán","localName":"Morazán","labelEnglish":"Morazán","labelLocal":"Morazán","labelBoth":"Morazán","type":"Department","iso":"SV-MO","qid":"Q1122836"},"geometry":{"type":"Polygon","coordinates":[[[-88.2177,13.9908],[-88.2742,13.9191],[-88.2594,13.6858],[-88.0085,13.5514],[-87.9526,13.892],[-88.2177,13.9908]]]}},{"type":"Feature","id":"label-SLV-1351","properties":{"kind":"division-label","code":"SLV-1351","countryCode":"SLV","name":"Morazán","localName":"Morazán","labelEnglish":"Morazán","labelLocal":"Morazán","labelBoth":"Morazán","type":"Department","iso":"SV-MO","qid":"Q1122836"},"geometry":{"type":"Point","coordinates":[-88.1055,13.7736]}},{"type":"Feature","id":"SLV-1352","properties":{"kind":"division","code":"SLV-1352","countryCode":"SLV","name":"San Miguel","localName":"San Miguel","labelEnglish":"San Miguel","labelLocal":"San Miguel","labelBoth":"San Miguel","type":"Department","iso":"SV-SM","qid":"Q930804"},"geometry":{"type":"Polygon","coordinates":[[[-88.2742,13.9191],[-88.4968,13.8512],[-88.5323,13.7594],[-88.4873,13.6883],[-88.3629,13.6494],[-88.3339,13.3388],[-88.1125,13.1712],[-88.0915,13.1727],[-88.0085,13.5514],[-88.2594,13.6858],[-88.2742,13.9191]]]}},{"type":"Feature","id":"label-SLV-1352","properties":{"kind":"division-label","code":"SLV-1352","countryCode":"SLV","name":"San Miguel","localName":"San Miguel","labelEnglish":"San Miguel","labelLocal":"San Miguel","labelBoth":"San Miguel","type":"Department","iso":"SV-SM","qid":"Q930804"},"geometry":{"type":"Point","coordinates":[-88.1953,13.4882]}},{"type":"Feature","id":"SLV-1350","properties":{"kind":"division","code":"SLV-1350","countryCode":"SLV","name":"La Unión","localName":"La Unión","labelEnglish":"La Unión","labelLocal":"La Unión","labelBoth":"La Unión","type":"Department","iso":"SV-UN","qid":"Q1130688"},"geometry":{"type":"Polygon","coordinates":[[[-87.7495,13.8456],[-87.9526,13.892],[-88.0085,13.5514],[-88.0915,13.1727],[-87.7981,13.2657],[-87.8172,13.4066],[-87.7495,13.8456]]]}},{"type":"Feature","id":"label-SLV-1350","properties":{"kind":"division-label","code":"SLV-1350","countryCode":"SLV","name":"La Unión","localName":"La Unión","labelEnglish":"La Unión","labelLocal":"La Unión","labelBoth":"La Unión","type":"Department","iso":"SV-UN","qid":"Q1130688"},"geometry":{"type":"Point","coordinates":[-87.9301,13.302]}},{"type":"Feature","id":"SLV-1348","properties":{"kind":"division","code":"SLV-1348","countryCode":"SLV","name":"Sonsonate","localName":"Sonsonate","labelEnglish":"Sonsonate","labelLocal":"Sonsonate","labelBoth":"Sonsonate","type":"Department","iso":"SV-SO","qid":"Q212540"},"geometry":{"type":"Polygon","coordinates":[[[-89.6094,13.5131],[-89.4566,13.7751],[-89.7188,13.909],[-89.9535,13.6651],[-89.6094,13.5131]]]}},{"type":"Feature","id":"label-SLV-1348","properties":{"kind":"division-label","code":"SLV-1348","countryCode":"SLV","name":"Sonsonate","localName":"Sonsonate","labelEnglish":"Sonsonate","labelLocal":"Sonsonate","labelBoth":"Sonsonate","type":"Department","iso":"SV-SO","qid":"Q212540"},"geometry":{"type":"Point","coordinates":[-89.6937,13.7165]}},{"type":"Feature","id":"SLV-1346","properties":{"kind":"division","code":"SLV-1346","countryCode":"SLV","name":"La Libertad","localName":"La Libertad","labelEnglish":"La Libertad","labelLocal":"La Libertad","labelBoth":"La Libertad","type":"Department","iso":"SV-LI","qid":"Q930820"},"geometry":{"type":"Polygon","coordinates":[[[-89.1357,13.4145],[-89.1444,13.4893],[-89.2627,13.7421],[-89.2673,14.0521],[-89.3714,14.0406],[-89.4566,13.7751],[-89.6094,13.5131],[-89.1357,13.4145]]]}},{"type":"Feature","id":"label-SLV-1346","properties":{"kind":"division-label","code":"SLV-1346","countryCode":"SLV","name":"La Libertad","localName":"La Libertad","labelEnglish":"La Libertad","labelLocal":"La Libertad","labelBoth":"La Libertad","type":"Department","iso":"SV-LI","qid":"Q930820"},"geometry":{"type":"Point","coordinates":[-89.3593,13.7727]}},{"type":"Feature","id":"SLV-1347","properties":{"kind":"division","code":"SLV-1347","countryCode":"SLV","name":"La Paz","localName":"La Paz","labelEnglish":"La Paz","labelLocal":"La Paz","labelBoth":"La Paz","type":"Department","iso":"SV-PA","qid":"Q1129788"},"geometry":{"type":"Polygon","coordinates":[[[-88.8316,13.2661],[-88.8961,13.6626],[-89.0236,13.6729],[-89.1444,13.4893],[-89.1357,13.4145],[-88.8316,13.2661]]]}},{"type":"Feature","id":"label-SLV-1347","properties":{"kind":"division-label","code":"SLV-1347","countryCode":"SLV","name":"La Paz","localName":"La Paz","labelEnglish":"La Paz","labelLocal":"La Paz","labelBoth":"La Paz","type":"Department","iso":"SV-PA","qid":"Q1129788"},"geometry":{"type":"Point","coordinates":[-88.9628,13.4872]}},{"type":"Feature","id":"SLV-1353","properties":{"kind":"division","code":"SLV-1353","countryCode":"SLV","name":"San Vicente","localName":"San Vicente","labelEnglish":"San Vicente","labelLocal":"San Vicente","labelBoth":"San Vicente","type":"Department","iso":"SV-SV","qid":"Q1130180"},"geometry":{"type":"Polygon","coordinates":[[[-88.8166,13.2593],[-88.4873,13.6883],[-88.5323,13.7594],[-88.8503,13.7506],[-88.8961,13.6626],[-88.8316,13.2661],[-88.8166,13.2593]]]}},{"type":"Feature","id":"label-SLV-1353","properties":{"kind":"division-label","code":"SLV-1353","countryCode":"SLV","name":"San Vicente","localName":"San Vicente","labelEnglish":"San Vicente","labelLocal":"San Vicente","labelBoth":"San Vicente","type":"Department","iso":"SV-SV","qid":"Q1130180"},"geometry":{"type":"Point","coordinates":[-88.6917,13.6291]}},{"type":"Feature","id":"SLV-1354","properties":{"kind":"division","code":"SLV-1354","countryCode":"SLV","name":"Usulután","localName":"Usulután","labelEnglish":"Usulután","labelLocal":"Usulután","labelBoth":"Usulután","type":"Department","iso":"SV-US","qid":"Q1122748"},"geometry":{"type":"Polygon","coordinates":[[[-88.1125,13.1712],[-88.3339,13.3388],[-88.3629,13.6494],[-88.4873,13.6883],[-88.8166,13.2593],[-88.1125,13.1712]]]}},{"type":"Feature","id":"label-SLV-1354","properties":{"kind":"division-label","code":"SLV-1354","countryCode":"SLV","name":"Usulután","localName":"Usulután","labelEnglish":"Usulután","labelLocal":"Usulután","labelBoth":"Usulután","type":"Department","iso":"SV-US","qid":"Q1122748"},"geometry":{"type":"Point","coordinates":[-88.5293,13.4104]}},{"type":"Feature","id":"SLV-1345","properties":{"kind":"division","code":"SLV-1345","countryCode":"SLV","name":"Cuscatlán","localName":"Cuscatlán","labelEnglish":"Cuscatlán","labelLocal":"Cuscatlán","labelBoth":"Cuscatlán","type":"Department","iso":"SV-CU","qid":"Q1130677"},"geometry":{"type":"Polygon","coordinates":[[[-88.9297,13.9479],[-89.1413,14.067],[-89.0236,13.6729],[-88.8961,13.6626],[-88.8503,13.7506],[-88.9297,13.9479]]]}},{"type":"Feature","id":"label-SLV-1345","properties":{"kind":"division-label","code":"SLV-1345","countryCode":"SLV","name":"Cuscatlán","localName":"Cuscatlán","labelEnglish":"Cuscatlán","labelLocal":"Cuscatlán","labelBoth":"Cuscatlán","type":"Department","iso":"SV-CU","qid":"Q1130677"},"geometry":{"type":"Point","coordinates":[-89.0055,13.8166]}},{"type":"Feature","id":"SLV-1349","properties":{"kind":"division","code":"SLV-1349","countryCode":"SLV","name":"San Salvador","localName":"San Salvador","labelEnglish":"San Salvador","labelLocal":"San Salvador","labelBoth":"San Salvador","type":"Department","iso":"SV-SS","qid":"Q1543219"},"geometry":{"type":"Polygon","coordinates":[[[-89.1413,14.067],[-89.2673,14.0521],[-89.2627,13.7421],[-89.1444,13.4893],[-89.0236,13.6729],[-89.1413,14.067]]]}},{"type":"Feature","id":"label-SLV-1349","properties":{"kind":"division-label","code":"SLV-1349","countryCode":"SLV","name":"San Salvador","localName":"San Salvador","labelEnglish":"San Salvador","labelLocal":"San Salvador","labelBoth":"San Salvador","type":"Department","iso":"SV-SS","qid":"Q1543219"},"geometry":{"type":"Point","coordinates":[-89.1488,13.713]}}]}