{"type":"FeatureCollection","features":[{"type":"Feature","id":"SMR-4886","properties":{"kind":"division","code":"SMR-4886","countryCode":"SMR","name":"Serravalle","localName":"Serravalle","labelEnglish":"Serravalle","labelLocal":"Serravalle","labelBoth":"Serravalle","type":null,"iso":"SM-09","qid":"Q185412"},"geometry":{"type":"Polygon","coordinates":[[[12.4907,43.965],[12.4272,43.9694],[12.4481,43.9547],[12.4907,43.965]]]}},{"type":"Feature","id":"label-SMR-4886","properties":{"kind":"division-label","code":"SMR-4886","countryCode":"SMR","name":"Serravalle","localName":"Serravalle","labelEnglish":"Serravalle","labelLocal":"Serravalle","labelBoth":"Serravalle","type":null,"iso":"SM-09","qid":"Q185412"},"geometry":{"type":"Point","coordinates":[12.4721,43.9676]}},{"type":"Feature","id":"SMR-4887","properties":{"kind":"division","code":"SMR-4887","countryCode":"SMR","name":"Domagnano","localName":"Domagnano","labelEnglish":"Domagnano","labelLocal":"Domagnano","labelBoth":"Domagnano","type":null,"iso":"SM-03","qid":"Q202202"},"geometry":{"type":"Polygon","coordinates":[[[12.4907,43.965],[12.4481,43.9547],[12.4572,43.9334],[12.4915,43.9491],[12.4907,43.965]]]}},{"type":"Feature","id":"label-SMR-4887","properties":{"kind":"division-label","code":"SMR-4887","countryCode":"SMR","name":"Domagnano","localName":"Domagnano","labelEnglish":"Domagnano","labelLocal":"Domagnano","labelBoth":"Domagnano","type":null,"iso":"SM-03","qid":"Q202202"},"geometry":{"type":"Point","coordinates":[12.4721,43.9466]}},{"type":"Feature","id":"SMR-4888","properties":{"kind":"division","code":"SMR-4888","countryCode":"SMR","name":"Faetano","localName":"Faetano","labelEnglish":"Faetano","labelLocal":"Faetano","labelBoth":"Faetano","type":null,"iso":"SM-04","qid":"Q206356"},"geometry":{"type":"Polygon","coordinates":[[[12.4915,43.9491],[12.4572,43.9334],[12.4645,43.9245],[12.468,43.9226],[12.478,43.9232],[12.4831,43.9292],[12.4915,43.9491]]]}},{"type":"Feature","id":"label-SMR-4888","properties":{"kind":"division-label","code":"SMR-4888","countryCode":"SMR","name":"Faetano","localName":"Faetano","labelEnglish":"Faetano","labelLocal":"Faetano","labelBoth":"Faetano","type":null,"iso":"SM-04","qid":"Q206356"},"geometry":{"type":"Point","coordinates":[12.4761,43.9312]}},{"type":"Feature","id":"SMR-4889","properties":{"kind":"division","code":"SMR-4889","countryCode":"SMR","name":"Montegiardino","localName":"Montegiardino","labelEnglish":"Montegiardino","labelLocal":"Montegiardino","labelBoth":"Montegiardino","type":null,"iso":"SM-08","qid":"Q206962"},"geometry":{"type":"Polygon","coordinates":[[[12.478,43.9232],[12.468,43.9226],[12.4644,43.9001],[12.478,43.9232]]]}},{"type":"Feature","id":"label-SMR-4889","properties":{"kind":"division-label","code":"SMR-4889","countryCode":"SMR","name":"Montegiardino","localName":"Montegiardino","labelEnglish":"Montegiardino","labelLocal":"Montegiardino","labelBoth":"Montegiardino","type":null,"iso":"SM-08","qid":"Q206962"},"geometry":{"type":"Point","coordinates":[12.4699,43.9134]}},{"type":"Feature","id":"SMR-4890","properties":{"kind":"division","code":"SMR-4890","countryCode":"SMR","name":"Fiorentino","localName":"Fiorentino","labelEnglish":"Fiorentino","labelLocal":"Fiorentino","labelBoth":"Fiorentino","type":null,"iso":"SM-05","qid":"Q206968"},"geometry":{"type":"Polygon","coordinates":[[[12.4644,43.9001],[12.468,43.9226],[12.4645,43.9245],[12.4411,43.9145],[12.4351,43.904],[12.4413,43.8933],[12.4644,43.9001]]]}},{"type":"Feature","id":"label-SMR-4890","properties":{"kind":"division-label","code":"SMR-4890","countryCode":"SMR","name":"Fiorentino","localName":"Fiorentino","labelEnglish":"Fiorentino","labelLocal":"Fiorentino","labelBoth":"Fiorentino","type":null,"iso":"SM-05","qid":"Q206968"},"geometry":{"type":"Point","coordinates":[12.4521,43.9021]}},{"type":"Feature","id":"SMR-4891","properties":{"kind":"division","code":"SMR-4891","countryCode":"SMR","name":"Chiesanuova","localName":"Chiesanuova","labelEnglish":"Chiesanuova","labelLocal":"Chiesanuova","labelBoth":"Chiesanuova","type":null,"iso":"SM-02","qid":"Q206980"},"geometry":{"type":"Polygon","coordinates":[[[12.4413,43.8933],[12.4351,43.904],[12.39,43.9179],[12.4211,43.8952],[12.4413,43.8933]]]}},{"type":"Feature","id":"label-SMR-4891","properties":{"kind":"division-label","code":"SMR-4891","countryCode":"SMR","name":"Chiesanuova","localName":"Chiesanuova","labelEnglish":"Chiesanuova","labelLocal":"Chiesanuova","labelBoth":"Chiesanuova","type":null,"iso":"SM-02","qid":"Q206980"},"geometry":{"type":"Point","coordinates":[12.4095,43.9069]}},{"type":"Feature","id":"SMR-4884","properties":{"kind":"division","code":"SMR-4884","countryCode":"SMR","name":"San Marino","localName":"San Marino","labelEnglish":"San Marino","labelLocal":"San Marino","labelBoth":"San Marino","type":null,"iso":"SM-07","qid":"Q1848"},"geometry":{"type":"Polygon","coordinates":[[[12.39,43.9179],[12.4351,43.904],[12.4411,43.9145],[12.4181,43.9406],[12.3856,43.9245],[12.39,43.9179]]]}},{"type":"Feature","id":"label-SMR-4884","properties":{"kind":"division-label","code":"SMR-4884","countryCode":"SMR","name":"San Marino","localName":"San Marino","labelEnglish":"San Marino","labelLocal":"San Marino","labelBoth":"San Marino","type":null,"iso":"SM-07","qid":"Q1848"},"geometry":{"type":"Point","coordinates":[12.4243,43.9215]}},{"type":"Feature","id":"SMR-4885","properties":{"kind":"division","code":"SMR-4885","countryCode":"SMR","name":"Acquaviva","localName":"Acquaviva","labelEnglish":"Acquaviva","labelLocal":"Acquaviva","labelBoth":"Acquaviva","type":null,"iso":"SM-01","qid":"Q206363"},"geometry":{"type":"Polygon","coordinates":[[[12.3856,43.9245],[12.4181,43.9406],[12.4166,43.9637],[12.3856,43.9245]]]}},{"type":"Feature","id":"label-SMR-4885","properties":{"kind":"division-label","code":"SMR-4885","countryCode":"SMR","name":"Acquaviva","localName":"Acquaviva","labelEnglish":"Acquaviva","labelLocal":"Acquaviva","labelBoth":"Acquaviva","type":null,"iso":"SM-01","qid":"Q206363"},"geometry":{"type":"Point","coordinates":[12.4052,43.9425]}},{"type":"Feature","id":"SMR-4883","properties":{"kind":"division","code":"SMR-4883","countryCode":"SMR","name":"Borgo Maggiore","localName":"Borgo Maggiore","labelEnglish":"Borgo Maggiore","labelLocal":"Borgo Maggiore","labelBoth":"Borgo Maggiore","type":null,"iso":"SM-06","qid":"Q201368"},"geometry":{"type":"Polygon","coordinates":[[[12.4166,43.9637],[12.4181,43.9406],[12.4411,43.9145],[12.4645,43.9245],[12.4572,43.9334],[12.4481,43.9547],[12.4272,43.9694],[12.4166,43.9637]]]}},{"type":"Feature","id":"label-SMR-4883","properties":{"kind":"division-label","code":"SMR-4883","countryCode":"SMR","name":"Borgo Maggiore","localName":"Borgo Maggiore","labelEnglish":"Borgo Maggiore","labelLocal":"Borgo Maggiore","labelBoth":"Borgo Maggiore","type":null,"iso":"SM-06","qid":"Q201368"},"geometry":{"type":"Point","coordinates":[12.4389,43.9337]}}]}