{"type":"FeatureCollection","features":[{"type":"Feature","id":"SOL+00?","properties":{"kind":"division","code":"SOL+00?","countryCode":"SOL","name":"Somaliland","localName":"Somaliland","labelEnglish":"Somaliland","labelLocal":"Somaliland","labelBoth":"Somaliland","type":null,"iso":"-99-X11~","qid":null},"geometry":{"type":"Polygon","coordinates":[[[48.9391,9.5627],[48.9391,11.2491],[48.6548,11.3306],[48.1608,11.1457],[47.6777,11.108],[47.3669,11.1728],[46.6597,10.7543],[46.4478,10.6931],[45.8027,10.8753],[45.3373,10.6708],[44.962,10.4158],[44.5861,10.3836],[44.2743,10.4567],[43.8296,10.803],[43.2407,11.4879],[43.1888,11.4078],[42.9237,10.9988],[42.6472,10.6322],[42.8363,10.2081],[43.419,9.413],[43.6215,9.3369],[44.0239,8.9855],[45.5144,8.4965],[46.9792,7.9966],[47.9792,7.9966],[48.9391,9.4512],[48.9391,9.5627]]]}},{"type":"Feature","id":"label-SOL+00?","properties":{"kind":"division-label","code":"SOL+00?","countryCode":"SOL","name":"Somaliland","localName":"Somaliland","labelEnglish":"Somaliland","labelLocal":"Somaliland","labelBoth":"Somaliland","type":null,"iso":"-99-X11~","qid":null},"geometry":{"type":"Point","coordinates":[45.7932,9.63996]}}]}