{"type":"FeatureCollection","features":[{"type":"Feature","id":"SOM-2413","properties":{"kind":"division","code":"SOM-2413","countryCode":"SOM","name":"Nugal","localName":"Nugal","labelEnglish":"Nugal","labelLocal":"Nugal","labelBoth":"Nugal","type":"Region","iso":"SO-NU","qid":"Q1046329"},"geometry":{"type":"Polygon","coordinates":[[[47.5324,7.5659],[48.5,7.4099],[49.03,7.7099],[49.5,7.57],[49.6408,7.4091],[49.8421,7.9627],[50.166,8.3334],[49.7799,8.5299],[49.4499,8.5899],[49.11,8.8999],[49.06,9.57],[48.9391,9.5627],[48.9391,9.4512],[47.9792,7.9966],[47.5324,7.5659]]]}},{"type":"Feature","id":"label-SOM-2413","properties":{"kind":"division-label","code":"SOM-2413","countryCode":"SOM","name":"Nugal","localName":"Nugal","labelEnglish":"Nugal","labelLocal":"Nugal","labelBoth":"Nugal","type":"Region","iso":"SO-NU","qid":"Q1046329"},"geometry":{"type":"Point","coordinates":[48.849,8.46102]}},{"type":"Feature","id":"SOM-2412","properties":{"kind":"division","code":"SOM-2412","countryCode":"SOM","name":"Mudug","localName":"Mudug","labelEnglish":"Mudug","labelLocal":"Mudug","labelBoth":"Mudug","type":"Region","iso":"SO-MU","qid":"Q877034"},"geometry":{"type":"Polygon","coordinates":[[[46.467,6.5383],[47.6,6.2799],[47.35,5.7499],[47.6099,5.1899],[47.5,4.49],[47.8406,4.3414],[48.2024,4.9089],[48.6467,5.48],[49.0361,6.1442],[49.0747,6.4153],[49.367,7.0257],[49.6408,7.4091],[49.5,7.57],[49.03,7.7099],[48.5,7.4099],[47.5324,7.5659],[46.467,6.5383]]]}},{"type":"Feature","id":"label-SOM-2412","properties":{"kind":"division-label","code":"SOM-2412","countryCode":"SOM","name":"Mudug","localName":"Mudug","labelEnglish":"Mudug","labelLocal":"Mudug","labelBoth":"Mudug","type":"Region","iso":"SO-MU","qid":"Q877034"},"geometry":{"type":"Point","coordinates":[48.1009,5.51036]}},{"type":"Feature","id":"SOM-2408","properties":{"kind":"division","code":"SOM-2408","countryCode":"SOM","name":"Galguduud","localName":"Galguduud","labelEnglish":"Galguduud","labelLocal":"Galguduud","labelBoth":"Galguduud","type":"Region","iso":"SO-GA","qid":"Q876772"},"geometry":{"type":"Polygon","coordinates":[[[45.5185,5.5406],[45.71,5.1099],[46.23,5.0799],[46.11,4.7399],[46.15,4.43],[46.4,4.2299],[46.39,3.8899],[47.0398,3.4693],[47.8406,4.3414],[47.5,4.49],[47.6099,5.1899],[47.35,5.7499],[47.6,6.2799],[46.467,6.5383],[45.5185,5.5406]]]}},{"type":"Feature","id":"label-SOM-2408","properties":{"kind":"division-label","code":"SOM-2408","countryCode":"SOM","name":"Galguduud","localName":"Galguduud","labelEnglish":"Galguduud","labelLocal":"Galguduud","labelBoth":"Galguduud","type":"Region","iso":"SO-GA","qid":"Q876772"},"geometry":{"type":"Point","coordinates":[46.6795,5.09616]}},{"type":"Feature","id":"SOM-2409","properties":{"kind":"division","code":"SOM-2409","countryCode":"SOM","name":"Hiran","localName":"Hiran","labelEnglish":"Hiran","labelLocal":"Hiran","labelBoth":"Hiran","type":"Region","iso":"SO-HI","qid":"Q660040"},"geometry":{"type":"Polygon","coordinates":[[[45.5185,5.5406],[44.9415,4.9115],[44.5968,4.9176],[44.8,3.8599],[44.7799,3.27],[45.0699,3.25],[45.2699,3.2],[45.94,3.25],[46.03,3.5199],[46.39,3.8899],[46.4,4.2299],[46.15,4.43],[46.11,4.7399],[46.23,5.0799],[45.71,5.1099],[45.5185,5.5406]]]}},{"type":"Feature","id":"label-SOM-2409","properties":{"kind":"division-label","code":"SOM-2409","countryCode":"SOM","name":"Hiran","localName":"Hiran","labelEnglish":"Hiran","labelLocal":"Hiran","labelBoth":"Hiran","type":"Region","iso":"SO-HI","qid":"Q660040"},"geometry":{"type":"Point","coordinates":[45.4984,4.36813]}},{"type":"Feature","id":"SOM-2312","properties":{"kind":"division","code":"SOM-2312","countryCode":"SOM","name":"Bakool","localName":"Bakool","labelEnglish":"Bakool","labelLocal":"Bakool","labelBoth":"Bakool","type":"Region","iso":"SO-BK","qid":"Q282471"},"geometry":{"type":"Polygon","coordinates":[[[44.5968,4.9176],[43.969,4.954],[43.5285,4.8416],[43.1193,4.6477],[42.8702,4.3282],[43.1399,3.8499],[43.12,3.67],[43.58,3.61],[43.8799,3.9199],[44.18,3.8499],[44.31,3.57],[44.28,3.34],[44.6599,3.25],[44.7799,3.27],[44.8,3.8599],[44.5968,4.9176]]]}},{"type":"Feature","id":"label-SOM-2312","properties":{"kind":"division-label","code":"SOM-2312","countryCode":"SOM","name":"Bakool","localName":"Bakool","labelEnglish":"Bakool","labelLocal":"Bakool","labelBoth":"Bakool","type":"Region","iso":"SO-BK","qid":"Q282471"},"geometry":{"type":"Point","coordinates":[43.835,4.40611]}},{"type":"Feature","id":"SOM-2314","properties":{"kind":"division","code":"SOM-2314","countryCode":"SOM","name":"Gedo","localName":"Gedo","labelEnglish":"Gedo","labelLocal":"Gedo","labelBoth":"Gedo","type":"Region","iso":"SO-GE","qid":"Q856719"},"geometry":{"type":"Polygon","coordinates":[[[41.885,3.9772],[41.3427,3.2011],[40.9654,2.8141],[40.9685,1.2303],[41.4199,1.26],[41.64,1.9399],[42.4,1.95],[42.6,3.0699],[43.0999,3.0599],[43.12,3.67],[43.1399,3.8499],[42.8702,4.3282],[42.1353,4.2001],[41.885,3.9772]]]}},{"type":"Feature","id":"label-SOM-2314","properties":{"kind":"division-label","code":"SOM-2314","countryCode":"SOM","name":"Gedo","localName":"Gedo","labelEnglish":"Gedo","labelLocal":"Gedo","labelBoth":"Gedo","type":"Region","iso":"SO-GE","qid":"Q856719"},"geometry":{"type":"Point","coordinates":[42.0524,3.05384]}},{"type":"Feature","id":"SOM-1","properties":{"kind":"division","code":"SOM-1","countryCode":"SOM","name":"Bari","localName":"Bari","labelEnglish":"Bari","labelLocal":"Bari","labelBoth":"Bari","type":"Region","iso":"SO-BR","qid":"Q729170"},"geometry":{"type":"Polygon","coordinates":[[[48.9391,9.5627],[49.06,9.57],[49.11,8.8999],[49.4499,8.5899],[49.7799,8.5299],[50.166,8.3334],[50.422,8.8571],[50.8403,9.4561],[50.8062,9.6245],[50.9274,10.3278],[51.3952,10.479],[51.1761,10.5628],[51.0859,11.188],[51.1209,11.5053],[51.2927,11.8331],[50.7979,11.9891],[50.5759,11.921],[50.2683,11.5893],[49.5768,11.46],[48.9391,11.2491],[48.9391,9.5627]]]}},{"type":"Feature","id":"label-SOM-1","properties":{"kind":"division-label","code":"SOM-1","countryCode":"SOM","name":"Bari","localName":"Bari","labelEnglish":"Bari","labelLocal":"Bari","labelBoth":"Bari","type":"Region","iso":"SO-BR","qid":"Q729170"},"geometry":{"type":"Point","coordinates":[50.1777,9.95583]}},{"type":"Feature","id":"SOM-2645","properties":{"kind":"division","code":"SOM-2645","countryCode":"SOM","name":"Lower Juba","localName":"Lower Juba","labelEnglish":"Lower Juba","labelLocal":"Lower Juba","labelBoth":"Lower Juba","type":"Region","iso":"SO-JH","qid":"Q877042"},"geometry":{"type":"Polygon","coordinates":[[[41.5359,-1.6763],[41.5351,-1.6963],[42.0809,-0.8629],[43.1849,0.3163],[42.7299,0.31],[42.43,1.3199],[41.4199,1.26],[40.9685,1.2303],[40.9798,-0.8708],[41.5229,-1.5728],[41.5359,-1.6763]]]}},{"type":"Feature","id":"label-SOM-2645","properties":{"kind":"division-label","code":"SOM-2645","countryCode":"SOM","name":"Lower Juba","localName":"Lower Juba","labelEnglish":"Lower Juba","labelLocal":"Lower Juba","labelBoth":"Lower Juba","type":"Region","iso":"SO-JH","qid":"Q877042"},"geometry":{"type":"Point","coordinates":[41.8088,0.0078977]}},{"type":"Feature","id":"SOM-2315","properties":{"kind":"division","code":"SOM-2315","countryCode":"SOM","name":"Middle Juba","localName":"Middle Juba","labelEnglish":"Middle Juba","labelLocal":"Middle Juba","labelBoth":"Middle Juba","type":"Region","iso":"SO-JD","qid":"Q1046324"},"geometry":{"type":"Polygon","coordinates":[[[43.5213,0.6723],[42.9799,1.46],[42.4,1.95],[41.64,1.9399],[41.4199,1.26],[42.43,1.3199],[42.7299,0.31],[43.1849,0.3163],[43.5213,0.6723]]]}},{"type":"Feature","id":"label-SOM-2315","properties":{"kind":"division-label","code":"SOM-2315","countryCode":"SOM","name":"Middle Juba","localName":"Middle Juba","labelEnglish":"Middle Juba","labelLocal":"Middle Juba","labelBoth":"Middle Juba","type":"Region","iso":"SO-JD","qid":"Q1046324"},"geometry":{"type":"Point","coordinates":[42.4706,1.55342]}},{"type":"Feature","id":"SOM-2316","properties":{"kind":"division","code":"SOM-2316","countryCode":"SOM","name":"Lower Shebelle","localName":"Lower Shebelle","labelEnglish":"Lower Shebelle","labelLocal":"Lower Shebelle","labelBoth":"Lower Shebelle","type":"Region","iso":"SO-SH","qid":"Q877028"},"geometry":{"type":"Polygon","coordinates":[[[45.2662,1.9873],[45.39,2.1499],[45.34,2.7199],[45.0699,3.25],[44.7799,3.27],[44.6599,3.25],[44.65,2.2199],[43.58,1.7599],[42.9799,1.46],[43.5213,0.6723],[44.5501,1.5591],[45.2662,1.9873]]]}},{"type":"Feature","id":"label-SOM-2316","properties":{"kind":"division-label","code":"SOM-2316","countryCode":"SOM","name":"Lower Shebelle","localName":"Lower Shebelle","labelEnglish":"Lower Shebelle","labelLocal":"Lower Shebelle","labelBoth":"Lower Shebelle","type":"Region","iso":"SO-SH","qid":"Q877028"},"geometry":{"type":"Point","coordinates":[44.185,1.63602]}},{"type":"Feature","id":"SOM-2407","properties":{"kind":"division","code":"SOM-2407","countryCode":"SOM","name":"Banaadir","localName":"Banaadir","labelEnglish":"Banaadir","labelLocal":"Banaadir","labelBoth":"Banaadir","type":"Region","iso":"SO-BN","qid":"Q806070"},"geometry":{"type":"Polygon","coordinates":[[[45.6056,2.183],[45.39,2.1499],[45.2662,1.9873],[45.6056,2.183]]]}},{"type":"Feature","id":"label-SOM-2407","properties":{"kind":"division-label","code":"SOM-2407","countryCode":"SOM","name":"Banaadir","localName":"Banaadir","labelEnglish":"Banaadir","labelLocal":"Banaadir","labelBoth":"Banaadir","type":"Region","iso":"SO-BN","qid":"Q806070"},"geometry":{"type":"Point","coordinates":[45.436,2.12409]}},{"type":"Feature","id":"SOM-2410","properties":{"kind":"division","code":"SOM-2410","countryCode":"SOM","name":"Middle Shebelle","localName":"Middle Shebelle","labelEnglish":"Middle Shebelle","labelLocal":"Middle Shebelle","labelBoth":"Middle Shebelle","type":"Region","iso":"SO-SD","qid":"Q678435"},"geometry":{"type":"Polygon","coordinates":[[[47.0398,3.4693],[46.39,3.8899],[46.03,3.5199],[45.94,3.25],[45.2699,3.2],[45.0699,3.25],[45.34,2.7199],[45.39,2.1499],[45.6056,2.183],[46.027,2.4381],[47.0398,3.4693]]]}},{"type":"Feature","id":"label-SOM-2410","properties":{"kind":"division-label","code":"SOM-2410","countryCode":"SOM","name":"Middle Shebelle","localName":"Middle Shebelle","labelEnglish":"Middle Shebelle","labelLocal":"Middle Shebelle","labelBoth":"Middle Shebelle","type":"Region","iso":"SO-SD","qid":"Q678435"},"geometry":{"type":"Point","coordinates":[46.0549,3.00561]}},{"type":"Feature","id":"SOM-2313","properties":{"kind":"division","code":"SOM-2313","countryCode":"SOM","name":"Bay","localName":"Bay","labelEnglish":"Bay","labelLocal":"Bay","labelBoth":"Bay","type":"Region","iso":"SO-BY","qid":"Q812064"},"geometry":{"type":"Polygon","coordinates":[[[44.6599,3.25],[44.28,3.34],[44.31,3.57],[44.18,3.8499],[43.8799,3.9199],[43.58,3.61],[43.12,3.67],[43.0999,3.0599],[42.6,3.0699],[42.4,1.95],[42.9799,1.46],[43.58,1.7599],[44.65,2.2199],[44.6599,3.25]]]}},{"type":"Feature","id":"label-SOM-2313","properties":{"kind":"division-label","code":"SOM-2313","countryCode":"SOM","name":"Bay","localName":"Bay","labelEnglish":"Bay","labelLocal":"Bay","labelBoth":"Bay","type":"Region","iso":"SO-BY","qid":"Q812064"},"geometry":{"type":"Point","coordinates":[43.545,2.67209]}}]}