{"type":"FeatureCollection","features":[{"type":"Feature","id":"SPM-4866","properties":{"kind":"division","code":"SPM-4866","countryCode":"SPM","name":"Saint Pierre and Miquelon","localName":"Saint Pierre and Miquelon","labelEnglish":"Saint Pierre and Miquelon","labelLocal":"Saint Pierre and Miquelon","labelBoth":"Saint Pierre and Miquelon","type":"Commune","iso":"PM-X01~","qid":"Q34617"},"geometry":{"type":"Polygon","coordinates":[[[-56.1509,46.7936],[-56.2403,46.7657],[-56.1448,46.7657],[-56.1509,46.7936]]]}},{"type":"Feature","id":"label-SPM-4866","properties":{"kind":"division-label","code":"SPM-4866","countryCode":"SPM","name":"Saint Pierre and Miquelon","localName":"Saint Pierre and Miquelon","labelEnglish":"Saint Pierre and Miquelon","labelLocal":"Saint Pierre and Miquelon","labelBoth":"Saint Pierre and Miquelon","type":"Commune","iso":"PM-X01~","qid":"Q34617"},"geometry":{"type":"Point","coordinates":[-56.1918,46.7795]}},{"type":"Feature","id":"SPM-4867","properties":{"kind":"division","code":"SPM-4867","countryCode":"SPM","name":"Miquelon-Langlade","localName":"Miquelon-Langlade","labelEnglish":"Miquelon-Langlade","labelLocal":"Miquelon-Langlade","labelBoth":"Miquelon-Langlade","type":"Commune","iso":"PM-X02~","qid":null},"geometry":{"type":"Polygon","coordinates":[[[-56.2738,46.8955],[-56.2533,47.0537],[-56.3959,47.1136],[-56.2738,46.8955]]]}},{"type":"Feature","id":"label-SPM-4867","properties":{"kind":"division-label","code":"SPM-4867","countryCode":"SPM","name":"Miquelon-Langlade","localName":"Miquelon-Langlade","labelEnglish":"Miquelon-Langlade","labelLocal":"Miquelon-Langlade","labelBoth":"Miquelon-Langlade","type":"Commune","iso":"PM-X02~","qid":null},"geometry":{"type":"Point","coordinates":[-56.3418,47.0461]}}]}