{"type":"FeatureCollection","features":[{"type":"Feature","id":"SRB-274","properties":{"kind":"division","code":"SRB-274","countryCode":"SRB","name":"North Bačka","localName":"Севернобачки","labelEnglish":"North Bačka","labelLocal":"Севернобачки","labelBoth":"North Bačka · Севернобачки","type":"District","iso":"RS-01","qid":"Q648758"},"geometry":{"type":"Polygon","coordinates":[[[19.7119,46.1587],[19.2983,46.0221],[19.5865,45.66],[19.8606,45.7722],[19.8736,46.153],[19.7119,46.1587]]]}},{"type":"Feature","id":"label-SRB-274","properties":{"kind":"division-label","code":"SRB-274","countryCode":"SRB","name":"North Bačka","localName":"Севернобачки","labelEnglish":"North Bačka","labelLocal":"Севернобачки","labelBoth":"North Bačka · Севернобачки","type":"District","iso":"RS-01","qid":"Q648758"},"geometry":{"type":"Point","coordinates":[19.5801,45.9326]}},{"type":"Feature","id":"SRB-273","properties":{"kind":"division","code":"SRB-273","countryCode":"SRB","name":"West Bačka","localName":"Западнобачки","labelEnglish":"West Bačka","labelLocal":"Западнобачки","labelBoth":"West Bačka · Западнобачки","type":"District","iso":"RS-05","qid":"Q735169"},"geometry":{"type":"Polygon","coordinates":[[[19.2983,46.0221],[18.9013,45.9312],[19.0179,45.4978],[19.3643,45.4384],[19.5865,45.66],[19.2983,46.0221]]]}},{"type":"Feature","id":"label-SRB-273","properties":{"kind":"division-label","code":"SRB-273","countryCode":"SRB","name":"West Bačka","localName":"Западнобачки","labelEnglish":"West Bačka","labelLocal":"Западнобачки","labelBoth":"West Bačka · Западнобачки","type":"District","iso":"RS-05","qid":"Q735169"},"geometry":{"type":"Point","coordinates":[19.2283,45.7092]}},{"type":"Feature","id":"SRB-275","properties":{"kind":"division","code":"SRB-275","countryCode":"SRB","name":"North Banat","localName":"Севернобанатски","labelEnglish":"North Banat","labelLocal":"Севернобанатски","labelBoth":"North Banat · Севернобанатски","type":"District","iso":"RS-03","qid":"Q728041"},"geometry":{"type":"Polygon","coordinates":[[[20.0634,46.1453],[19.8736,46.153],[19.8606,45.7722],[20.1142,45.7243],[20.3496,45.7885],[20.5291,45.6131],[20.6435,45.7951],[20.2428,46.1081],[20.1148,46.1522],[20.0634,46.1453]]]}},{"type":"Feature","id":"label-SRB-275","properties":{"kind":"division-label","code":"SRB-275","countryCode":"SRB","name":"North Banat","localName":"Севернобанатски","labelEnglish":"North Banat","labelLocal":"Севернобанатски","labelBoth":"North Banat · Севернобанатски","type":"District","iso":"RS-03","qid":"Q728041"},"geometry":{"type":"Point","coordinates":[20.2047,45.9589]}},{"type":"Feature","id":"SRB-841","properties":{"kind":"division","code":"SRB-841","countryCode":"SRB","name":"Pčinja","localName":"Пчињски","labelEnglish":"Pčinja","labelLocal":"Пчињски","labelBoth":"Pčinja · Пчињски","type":"District","iso":"RS-24","qid":"Q1061099"},"geometry":{"type":"Polygon","coordinates":[[[22.345,42.3134],[22.4413,42.6329],[22.4304,42.8171],[22.086,42.8208],[21.7443,42.6794],[21.619,42.4492],[21.5641,42.2463],[21.6769,42.2349],[21.7195,42.261],[22.0454,42.3024],[22.1381,42.3191],[22.345,42.3134]]]}},{"type":"Feature","id":"label-SRB-841","properties":{"kind":"division-label","code":"SRB-841","countryCode":"SRB","name":"Pčinja","localName":"Пчињски","labelEnglish":"Pčinja","labelLocal":"Пчињски","labelBoth":"Pčinja · Пчињски","type":"District","iso":"RS-24","qid":"Q1061099"},"geometry":{"type":"Point","coordinates":[22.0252,42.5543]}},{"type":"Feature","id":"SRB-125","properties":{"kind":"division","code":"SRB-125","countryCode":"SRB","name":"Bor","localName":"Борски","labelEnglish":"Bor","labelLocal":"Борски","labelBoth":"Bor · Борски","type":"District","iso":"RS-14","qid":"Q477586"},"geometry":{"type":"Polygon","coordinates":[[[22.6916,44.2284],[22.4841,44.4998],[22.7652,44.5828],[22.4261,44.7337],[22.1851,44.5151],[22.0362,44.5895],[21.7956,44.3585],[21.8178,44.0656],[21.7724,43.9918],[22.1217,43.8756],[22.2327,44.1686],[22.4659,44.0176],[22.6916,44.2284]]]}},{"type":"Feature","id":"label-SRB-125","properties":{"kind":"division-label","code":"SRB-125","countryCode":"SRB","name":"Bor","localName":"Борски","labelEnglish":"Bor","labelLocal":"Борски","labelBoth":"Bor · Борски","type":"District","iso":"RS-14","qid":"Q477586"},"geometry":{"type":"Point","coordinates":[22.2686,44.3824]}},{"type":"Feature","id":"SRB-844","properties":{"kind":"division","code":"SRB-844","countryCode":"SRB","name":"Zaječar","localName":"Зајечарски","labelEnglish":"Zaječar","labelLocal":"Зајечарски","labelBoth":"Zaječar · Зајечарски","type":"District","iso":"RS-15","qid":"Q967339"},"geometry":{"type":"Polygon","coordinates":[[[22.4659,44.0176],[22.2327,44.1686],[22.1217,43.8756],[21.7724,43.9918],[21.646,43.8029],[21.9127,43.5136],[22.3373,43.3824],[22.6589,43.4013],[22.3495,43.8079],[22.4659,44.0176]]]}},{"type":"Feature","id":"label-SRB-844","properties":{"kind":"division-label","code":"SRB-844","countryCode":"SRB","name":"Zaječar","localName":"Зајечарски","labelEnglish":"Zaječar","labelLocal":"Зајечарски","labelBoth":"Zaječar · Зајечарски","type":"District","iso":"RS-15","qid":"Q967339"},"geometry":{"type":"Point","coordinates":[22.1524,43.6834]}},{"type":"Feature","id":"SRB-121","properties":{"kind":"division","code":"SRB-121","countryCode":"SRB","name":"Pirot","localName":"Пиротски","labelEnglish":"Pirot","labelLocal":"Пиротски","labelBoth":"Pirot · Пиротски","type":"District","iso":"RS-22","qid":"Q580069"},"geometry":{"type":"Polygon","coordinates":[[[22.6589,43.4013],[22.3373,43.3824],[22.1374,43.3369],[22.234,43.074],[22.5448,42.8717],[22.7396,42.8989],[22.9829,43.1873],[22.7243,43.3861],[22.6589,43.4013]]]}},{"type":"Feature","id":"label-SRB-121","properties":{"kind":"division-label","code":"SRB-121","countryCode":"SRB","name":"Pirot","localName":"Пиротски","labelEnglish":"Pirot","labelLocal":"Пиротски","labelBoth":"Pirot · Пиротски","type":"District","iso":"RS-22","qid":"Q580069"},"geometry":{"type":"Point","coordinates":[22.5488,43.1029]}},{"type":"Feature","id":"SRB-843","properties":{"kind":"division","code":"SRB-843","countryCode":"SRB","name":"Jablanica","localName":"Јабланички","labelEnglish":"Jablanica","labelLocal":"Јабланички","labelBoth":"Jablanica · Јабланички","type":"District","iso":"RS-23","qid":"Q876541"},"geometry":{"type":"Polygon","coordinates":[[[22.5448,42.8717],[22.234,43.074],[21.8055,43.1378],[21.4084,42.8417],[21.3871,42.755],[21.4795,42.7323],[21.7443,42.6794],[22.086,42.8208],[22.4304,42.8171],[22.5448,42.8717]]]}},{"type":"Feature","id":"label-SRB-843","properties":{"kind":"division-label","code":"SRB-843","countryCode":"SRB","name":"Jablanica","localName":"Јабланички","labelEnglish":"Jablanica","labelLocal":"Јабланички","labelBoth":"Jablanica · Јабланички","type":"District","iso":"RS-23","qid":"Q876541"},"geometry":{"type":"Point","coordinates":[21.9611,42.964]}},{"type":"Feature","id":"SRB-834","properties":{"kind":"division","code":"SRB-834","countryCode":"SRB","name":"Raška","localName":"Рашки","labelEnglish":"Raška","labelLocal":"Рашки","labelBoth":"Raška · Рашки","type":"District","iso":"RS-18","qid":"Q1061082"},"geometry":{"type":"Polygon","coordinates":[[[20.8097,43.2596],[20.7603,43.5092],[20.957,43.7282],[20.9084,43.8074],[20.6208,43.8592],[20.3053,43.5332],[20.2674,43.2985],[20.0544,43.0222],[20.0563,43.0208],[20.1295,42.9736],[20.3454,42.8274],[20.4944,42.8875],[20.6173,43.0221],[20.6438,43.0523],[20.8097,43.2596]]]}},{"type":"Feature","id":"label-SRB-834","properties":{"kind":"division-label","code":"SRB-834","countryCode":"SRB","name":"Raška","localName":"Рашки","labelEnglish":"Raška","labelLocal":"Рашки","labelBoth":"Raška · Рашки","type":"District","iso":"RS-18","qid":"Q1061082"},"geometry":{"type":"Point","coordinates":[20.5783,43.3811]}},{"type":"Feature","id":"SRB-833","properties":{"kind":"division","code":"SRB-833","countryCode":"SRB","name":"Rasina","localName":"Расински","labelEnglish":"Rasina","labelLocal":"Расински","labelBoth":"Rasina · Расински","type":"District","iso":"RS-19","qid":"Q1043446"},"geometry":{"type":"Polygon","coordinates":[[[20.8097,43.2596],[20.9125,43.1388],[20.968,43.2511],[21.4694,43.3678],[21.4659,43.7494],[20.957,43.7282],[20.7603,43.5092],[20.8097,43.2596]]]}},{"type":"Feature","id":"label-SRB-833","properties":{"kind":"division-label","code":"SRB-833","countryCode":"SRB","name":"Rasina","localName":"Расински","labelEnglish":"Rasina","labelLocal":"Расински","labelBoth":"Rasina · Расински","type":"District","iso":"RS-19","qid":"Q1043446"},"geometry":{"type":"Point","coordinates":[21.1638,43.5211]}},{"type":"Feature","id":"SRB-835","properties":{"kind":"division","code":"SRB-835","countryCode":"SRB","name":"Toplica","localName":"Топлички","labelEnglish":"Toplica","labelLocal":"Топлички","labelBoth":"Toplica · Топлички","type":"District","iso":"RS-21","qid":"Q1048184"},"geometry":{"type":"Polygon","coordinates":[[[20.9934,43.1041],[21.4084,42.8417],[21.8055,43.1378],[21.4694,43.3678],[20.968,43.2511],[20.9125,43.1388],[20.9934,43.1041]]]}},{"type":"Feature","id":"label-SRB-835","properties":{"kind":"division-label","code":"SRB-835","countryCode":"SRB","name":"Toplica","localName":"Топлички","labelEnglish":"Toplica","labelLocal":"Топлички","labelBoth":"Toplica · Топлички","type":"District","iso":"RS-21","qid":"Q1048184"},"geometry":{"type":"Point","coordinates":[21.3637,43.1198]}},{"type":"Feature","id":"SRB-1505","properties":{"kind":"division","code":"SRB-1505","countryCode":"SRB","name":"Zlatibor","localName":"Златиборски","labelEnglish":"Zlatibor","labelLocal":"Златиборски","labelBoth":"Zlatibor · Златиборски","type":"District","iso":"RS-16","qid":"Q478278"},"geometry":{"type":"Polygon","coordinates":[[[19.5478,43.2188],[20.0544,43.0222],[20.2674,43.2985],[19.9148,43.5116],[20.1628,43.7219],[20.062,44.0853],[19.6182,44.1437],[19.5162,44.0912],[19.241,43.9524],[19.4817,43.5608],[19.1953,43.5328],[19.5478,43.2188]]]}},{"type":"Feature","id":"label-SRB-1505","properties":{"kind":"division-label","code":"SRB-1505","countryCode":"SRB","name":"Zlatibor","localName":"Златиборски","labelEnglish":"Zlatibor","labelLocal":"Златиборски","labelBoth":"Zlatibor · Златиборски","type":"District","iso":"RS-16","qid":"Q478278"},"geometry":{"type":"Point","coordinates":[19.7284,43.6263]}},{"type":"Feature","id":"SRB-281","properties":{"kind":"division","code":"SRB-281","countryCode":"SRB","name":"Srem","localName":"Сремски","labelEnglish":"Srem","labelLocal":"Сремски","labelBoth":"Srem · Сремски","type":"District","iso":"RS-07","qid":"Q217331"},"geometry":{"type":"Polygon","coordinates":[[[19.0158,44.8656],[19.357,44.8959],[19.7569,44.9154],[19.9734,44.6412],[20.339,45.0803],[20.2778,45.141],[19.3939,45.1716],[19.0601,45.1469],[19.0158,44.8656]]]}},{"type":"Feature","id":"label-SRB-281","properties":{"kind":"division-label","code":"SRB-281","countryCode":"SRB","name":"Srem","localName":"Сремски","labelEnglish":"Srem","labelLocal":"Сремски","labelBoth":"Srem · Сремски","type":"District","iso":"RS-07","qid":"Q217331"},"geometry":{"type":"Point","coordinates":[19.6739,45.0381]}},{"type":"Feature","id":"SRB-838","properties":{"kind":"division","code":"SRB-838","countryCode":"SRB","name":"Mačva","localName":"Мачвански","labelEnglish":"Mačva","labelLocal":"Мачвански","labelBoth":"Mačva · Мачвански","type":"District","iso":"RS-08","qid":"Q867803"},"geometry":{"type":"Polygon","coordinates":[[[19.1796,44.5383],[19.1072,44.3827],[19.5162,44.0912],[19.6182,44.1437],[19.4845,44.4325],[19.8371,44.39],[19.9711,44.5648],[19.9734,44.6412],[19.7569,44.9154],[19.357,44.8959],[19.1796,44.5383]]]}},{"type":"Feature","id":"label-SRB-838","properties":{"kind":"division-label","code":"SRB-838","countryCode":"SRB","name":"Mačva","localName":"Мачвански","labelEnglish":"Mačva","labelLocal":"Мачвански","labelBoth":"Mačva · Мачвански","type":"District","iso":"RS-08","qid":"Q867803"},"geometry":{"type":"Point","coordinates":[19.4948,44.5988]}},{"type":"Feature","id":"SRB-1059","properties":{"kind":"division","code":"SRB-1059","countryCode":"SRB","name":"South Bačka","localName":"Јужнобачки","labelEnglish":"South Bačka","labelLocal":"Јужнобачки","labelBoth":"South Bačka · Јужнобачки","type":"District","iso":"RS-06","qid":"Q648718"},"geometry":{"type":"Polygon","coordinates":[[[19.0023,45.4437],[19.3939,45.1716],[20.2778,45.141],[20.1142,45.7243],[19.8606,45.7722],[19.5865,45.66],[19.3643,45.4384],[19.0179,45.4978],[19.0023,45.4437]]]}},{"type":"Feature","id":"label-SRB-1059","properties":{"kind":"division-label","code":"SRB-1059","countryCode":"SRB","name":"South Bačka","localName":"Јужнобачки","labelEnglish":"South Bačka","labelLocal":"Јужнобачки","labelBoth":"South Bačka · Јужнобачки","type":"District","iso":"RS-06","qid":"Q648718"},"geometry":{"type":"Point","coordinates":[19.647,45.3888]}},{"type":"Feature","id":"SRB-1061","properties":{"kind":"division","code":"SRB-1061","countryCode":"SRB","name":"Central Banat","localName":"Средњебанатски","labelEnglish":"Central Banat","labelLocal":"Средњебанатски","labelBoth":"Central Banat · Средњебанатски","type":"District","iso":"RS-02","qid":"Q425782"},"geometry":{"type":"Polygon","coordinates":[[[20.6435,45.7951],[20.5291,45.6131],[20.3496,45.7885],[20.1142,45.7243],[20.2778,45.141],[20.339,45.0803],[20.3952,45.0652],[21.0167,45.3215],[20.7607,45.4933],[20.6435,45.7951]]]}},{"type":"Feature","id":"label-SRB-1061","properties":{"kind":"division-label","code":"SRB-1061","countryCode":"SRB","name":"Central Banat","localName":"Средњебанатски","labelEnglish":"Central Banat","labelLocal":"Средњебанатски","labelBoth":"Central Banat · Средњебанатски","type":"District","iso":"RS-02","qid":"Q425782"},"geometry":{"type":"Point","coordinates":[20.5398,45.4421]}},{"type":"Feature","id":"SRB-1060","properties":{"kind":"division","code":"SRB-1060","countryCode":"SRB","name":"South Banat","localName":"Јужнобанатски","labelEnglish":"South Banat","labelLocal":"Јужнобанатски","labelBoth":"South Banat · Јужнобанатски","type":"District","iso":"RS-04","qid":"Q720030"},"geometry":{"type":"Polygon","coordinates":[[[21.0167,45.3215],[20.3952,45.0652],[20.7948,44.6647],[21.0368,44.722],[21.3598,44.8267],[21.4844,45.1527],[21.0167,45.3215]]]}},{"type":"Feature","id":"label-SRB-1060","properties":{"kind":"division-label","code":"SRB-1060","countryCode":"SRB","name":"South Banat","localName":"Јужнобанатски","labelEnglish":"South Banat","labelLocal":"Јужнобанатски","labelBoth":"South Banat · Јужнобанатски","type":"District","iso":"RS-04","qid":"Q720030"},"geometry":{"type":"Point","coordinates":[20.9652,45.0065]}},{"type":"Feature","id":"SRB-279","properties":{"kind":"division","code":"SRB-279","countryCode":"SRB","name":"Braničevo","localName":"Браничевски","labelEnglish":"Braničevo","labelLocal":"Браничевски","labelBoth":"Braničevo · Браничевски","type":"District","iso":"RS-11","qid":"Q861539"},"geometry":{"type":"Polygon","coordinates":[[[21.3598,44.8267],[21.0368,44.722],[21.134,44.2866],[21.8178,44.0656],[21.7956,44.3585],[22.0362,44.5895],[22.0342,44.5962],[21.3598,44.8267]]]}},{"type":"Feature","id":"label-SRB-279","properties":{"kind":"division-label","code":"SRB-279","countryCode":"SRB","name":"Braničevo","localName":"Браничевски","labelEnglish":"Braničevo","labelLocal":"Браничевски","labelBoth":"Braničevo · Браничевски","type":"District","iso":"RS-11","qid":"Q861539"},"geometry":{"type":"Point","coordinates":[21.5363,44.4632]}},{"type":"Feature","id":"SRB-836","properties":{"kind":"division","code":"SRB-836","countryCode":"SRB","name":"Belgrade","localName":"Београд","labelEnglish":"Belgrade","labelLocal":"Београд","labelBoth":"Belgrade · Београд","type":"City","iso":"RS-00","qid":"Q3711"},"geometry":{"type":"Polygon","coordinates":[[[19.9734,44.6412],[19.9711,44.5648],[20.3891,44.2943],[20.772,44.2978],[20.7948,44.6647],[20.3952,45.0652],[20.339,45.0803],[19.9734,44.6412]]]}},{"type":"Feature","id":"label-SRB-836","properties":{"kind":"division-label","code":"SRB-836","countryCode":"SRB","name":"Belgrade","localName":"Београд","labelEnglish":"Belgrade","labelLocal":"Београд","labelBoth":"Belgrade · Београд","type":"City","iso":"RS-00","qid":"Q3711"},"geometry":{"type":"Point","coordinates":[20.4001,44.6408]}},{"type":"Feature","id":"SRB-831","properties":{"kind":"division","code":"SRB-831","countryCode":"SRB","name":"Podunavlje","localName":"Подунавски","labelEnglish":"Podunavlje","labelLocal":"Подунавски","labelBoth":"Podunavlje · Подунавски","type":"District","iso":"RS-10","qid":"Q778561"},"geometry":{"type":"Polygon","coordinates":[[[20.7948,44.6647],[20.772,44.2978],[21.1392,44.1833],[21.134,44.2866],[21.0368,44.722],[20.7948,44.6647]]]}},{"type":"Feature","id":"label-SRB-831","properties":{"kind":"division-label","code":"SRB-831","countryCode":"SRB","name":"Podunavlje","localName":"Подунавски","labelEnglish":"Podunavlje","labelLocal":"Подунавски","labelBoth":"Podunavlje · Подунавски","type":"District","iso":"RS-10","qid":"Q778561"},"geometry":{"type":"Point","coordinates":[20.9527,44.4765]}},{"type":"Feature","id":"SRB-830","properties":{"kind":"division","code":"SRB-830","countryCode":"SRB","name":"Nišava","localName":"Нишавски","labelEnglish":"Nišava","labelLocal":"Нишавски","labelBoth":"Nišava · Нишавски","type":"District","iso":"RS-20","qid":"Q1061076"},"geometry":{"type":"Polygon","coordinates":[[[21.4694,43.3678],[21.8055,43.1378],[22.234,43.074],[22.1374,43.3369],[22.3373,43.3824],[21.9127,43.5136],[21.646,43.8029],[21.4659,43.7494],[21.4694,43.3678]]]}},{"type":"Feature","id":"label-SRB-830","properties":{"kind":"division-label","code":"SRB-830","countryCode":"SRB","name":"Nišava","localName":"Нишавски","labelEnglish":"Nišava","labelLocal":"Нишавски","labelBoth":"Nišava · Нишавски","type":"District","iso":"RS-20","qid":"Q1061076"},"geometry":{"type":"Point","coordinates":[21.9087,43.3388]}},{"type":"Feature","id":"SRB-832","properties":{"kind":"division","code":"SRB-832","countryCode":"SRB","name":"Pomoravski","localName":"Поморавски","labelEnglish":"Pomoravski","labelLocal":"Поморавски","labelBoth":"Pomoravski · Поморавски","type":"District","iso":"RS-13","qid":null},"geometry":{"type":"Polygon","coordinates":[[[20.957,43.7282],[21.4659,43.7494],[21.646,43.8029],[21.7724,43.9918],[21.8178,44.0656],[21.134,44.2866],[21.1392,44.1833],[20.9084,43.8074],[20.957,43.7282]]]}},{"type":"Feature","id":"label-SRB-832","properties":{"kind":"division-label","code":"SRB-832","countryCode":"SRB","name":"Pomoravski","localName":"Поморавски","labelEnglish":"Pomoravski","labelLocal":"Поморавски","labelBoth":"Pomoravski · Поморавски","type":"District","iso":"RS-13","qid":null},"geometry":{"type":"Point","coordinates":[21.3631,43.9757]}},{"type":"Feature","id":"SRB-839","properties":{"kind":"division","code":"SRB-839","countryCode":"SRB","name":"Šumadija","localName":"Шумадијски","labelEnglish":"Šumadija","labelLocal":"Шумадијски","labelBoth":"Šumadija · Шумадијски","type":"District","iso":"RS-12","qid":"Q544118"},"geometry":{"type":"Polygon","coordinates":[[[20.6208,43.8592],[20.9084,43.8074],[21.1392,44.1833],[20.772,44.2978],[20.3891,44.2943],[20.4231,44.2418],[20.6208,43.8592]]]}},{"type":"Feature","id":"label-SRB-839","properties":{"kind":"division-label","code":"SRB-839","countryCode":"SRB","name":"Šumadija","localName":"Шумадијски","labelEnglish":"Šumadija","labelLocal":"Шумадијски","labelBoth":"Šumadija · Шумадијски","type":"District","iso":"RS-12","qid":"Q544118"},"geometry":{"type":"Point","coordinates":[20.8116,44.0985]}},{"type":"Feature","id":"SRB-829","properties":{"kind":"division","code":"SRB-829","countryCode":"SRB","name":"Moravica","localName":"Моравички","labelEnglish":"Moravica","labelLocal":"Моравички","labelBoth":"Moravica · Моравички","type":"District","iso":"RS-17","qid":"Q915380"},"geometry":{"type":"Polygon","coordinates":[[[20.6208,43.8592],[20.4231,44.2418],[20.062,44.0853],[20.1628,43.7219],[19.9148,43.5116],[20.2674,43.2985],[20.3053,43.5332],[20.6208,43.8592]]]}},{"type":"Feature","id":"label-SRB-829","properties":{"kind":"division-label","code":"SRB-829","countryCode":"SRB","name":"Moravica","localName":"Моравички","labelEnglish":"Moravica","labelLocal":"Моравички","labelBoth":"Moravica · Моравички","type":"District","iso":"RS-17","qid":"Q915380"},"geometry":{"type":"Point","coordinates":[20.2653,43.7127]}},{"type":"Feature","id":"SRB-837","properties":{"kind":"division","code":"SRB-837","countryCode":"SRB","name":"Kolubara","localName":"Колубарски","labelEnglish":"Kolubara","labelLocal":"Колубарски","labelBoth":"Kolubara · Колубарски","type":"District","iso":"RS-09","qid":"Q1048139"},"geometry":{"type":"Polygon","coordinates":[[[19.6182,44.1437],[20.062,44.0853],[20.4231,44.2418],[20.3891,44.2943],[19.9711,44.5648],[19.8371,44.39],[19.4845,44.4325],[19.6182,44.1437]]]}},{"type":"Feature","id":"label-SRB-837","properties":{"kind":"division-label","code":"SRB-837","countryCode":"SRB","name":"Kolubara","localName":"Колубарски","labelEnglish":"Kolubara","labelLocal":"Колубарски","labelBoth":"Kolubara · Колубарски","type":"District","iso":"RS-09","qid":"Q1048139"},"geometry":{"type":"Point","coordinates":[19.9249,44.3209]}}]}