{"type":"FeatureCollection","features":[{"type":"Feature","id":"STP-4861","properties":{"kind":"division","code":"STP-4861","countryCode":"STP","name":"São Tomé","localName":"São Tomé","labelEnglish":"São Tomé","labelLocal":"São Tomé","labelBoth":"São Tomé","type":null,"iso":"ST-S","qid":null},"geometry":{"type":"Polygon","coordinates":[[[6.6814,0.4071],[6.4617,0.2222],[6.5164,0.0336],[6.7401,0.2186],[6.6814,0.4071]]]}},{"type":"Feature","id":"label-STP-4861","properties":{"kind":"division-label","code":"STP-4861","countryCode":"STP","name":"São Tomé","localName":"São Tomé","labelEnglish":"São Tomé","labelLocal":"São Tomé","labelBoth":"São Tomé","type":null,"iso":"ST-S","qid":null},"geometry":{"type":"Point","coordinates":[6.61185,0.234574]}},{"type":"Feature","id":"STP-4862","properties":{"kind":"division","code":"STP-4862","countryCode":"STP","name":"Príncipe","localName":"Príncipe","labelEnglish":"Príncipe","labelLocal":"Príncipe","labelBoth":"Príncipe","type":null,"iso":"ST-P","qid":"Q2366966"},"geometry":{"type":"Polygon","coordinates":[[[7.4627,1.6745],[7.3325,1.5653],[7.4014,1.5312],[7.4627,1.6745]]]}},{"type":"Feature","id":"label-STP-4862","properties":{"kind":"division-label","code":"STP-4862","countryCode":"STP","name":"Príncipe","localName":"Príncipe","labelEnglish":"Príncipe","labelLocal":"Príncipe","labelBoth":"Príncipe","type":null,"iso":"ST-P","qid":"Q2366966"},"geometry":{"type":"Point","coordinates":[7.39374,1.60769]}}]}