{"type":"FeatureCollection","features":[{"type":"Feature","id":"SUR-69","properties":{"kind":"division","code":"SUR-69","countryCode":"SUR","name":"Sipaliwini","localName":"Sipaliwini","labelEnglish":"Sipaliwini","labelLocal":"Sipaliwini","labelBoth":"Sipaliwini","type":"District","iso":"SR-SI","qid":"Q1130138"},"geometry":{"type":"Polygon","coordinates":[[[-54.6153,2.3263],[-54.3594,2.508],[-54.1634,2.9697],[-54.2112,3.1274],[-54.003,3.4554],[-54.0501,3.6345],[-54.3444,4.0249],[-54.4821,4.9128],[-54.3207,5.2125],[-54.6549,5.3746],[-54.8513,4.9809],[-54.7401,4.8903],[-54.875,4.2893],[-55.2493,4.0156],[-55.311,4.0699],[-55.3765,4.8537],[-55.503,5.0805],[-55.6334,4.9872],[-55.9988,5.1029],[-55.9169,5.5399],[-56.06,5.395],[-56.4839,5.3168],[-57.2325,5.2606],[-57.2805,5.0261],[-57.7205,4.9898],[-57.9185,4.8298],[-57.8374,4.6509],[-58.0677,4.1511],[-57.8298,3.6624],[-57.5651,3.3498],[-57.3084,3.3949],[-57.1746,2.819],[-56.7052,2.0296],[-56.4818,1.9416],[-56.0197,1.8335],[-55.9151,2.0377],[-56.1168,2.3331],[-55.9892,2.5208],[-55.7243,2.3969],[-54.9786,2.5431],[-54.7755,2.4573],[-54.6153,2.3263]]]}},{"type":"Feature","id":"label-SUR-69","properties":{"kind":"division-label","code":"SUR-69","countryCode":"SUR","name":"Sipaliwini","localName":"Sipaliwini","labelEnglish":"Sipaliwini","labelLocal":"Sipaliwini","labelBoth":"Sipaliwini","type":"District","iso":"SR-SI","qid":"Q1130138"},"geometry":{"type":"Point","coordinates":[-55.9918,3.53162]}},{"type":"Feature","id":"SUR-37","properties":{"kind":"division","code":"SUR-37","countryCode":"SUR","name":"Nickerie","localName":"Nickerie","labelEnglish":"Nickerie","labelLocal":"Nickerie","labelBoth":"Nickerie","type":"District","iso":"SR-NI","qid":"Q1147515"},"geometry":{"type":"Polygon","coordinates":[[[-57.2477,5.4849],[-57.2325,5.2606],[-56.4839,5.3168],[-56.6037,5.9503],[-57.066,5.9501],[-57.1795,5.5306],[-57.2477,5.4849]]]}},{"type":"Feature","id":"label-SUR-37","properties":{"kind":"division-label","code":"SUR-37","countryCode":"SUR","name":"Nickerie","localName":"Nickerie","labelEnglish":"Nickerie","labelLocal":"Nickerie","labelBoth":"Nickerie","type":"District","iso":"SR-NI","qid":"Q1147515"},"geometry":{"type":"Point","coordinates":[-56.8988,5.64956]}},{"type":"Feature","id":"SUR-67","properties":{"kind":"division","code":"SUR-67","countryCode":"SUR","name":"Marowijne","localName":"Marowijne","labelEnglish":"Marowijne","labelLocal":"Marowijne","labelBoth":"Marowijne","type":"District","iso":"SR-MA","qid":"Q1140897"},"geometry":{"type":"Polygon","coordinates":[[[-54.171,5.3484],[-53.9864,5.7457],[-54.0367,5.8424],[-54.7049,5.9748],[-54.628,5.5593],[-54.6549,5.3746],[-54.3207,5.2125],[-54.171,5.3484]]]}},{"type":"Feature","id":"label-SUR-67","properties":{"kind":"division-label","code":"SUR-67","countryCode":"SUR","name":"Marowijne","localName":"Marowijne","labelEnglish":"Marowijne","labelLocal":"Marowijne","labelBoth":"Marowijne","type":"District","iso":"SR-MA","qid":"Q1140897"},"geometry":{"type":"Point","coordinates":[-54.3667,5.57938]}},{"type":"Feature","id":"SUR-71","properties":{"kind":"division","code":"SUR-71","countryCode":"SUR","name":"Coronie","localName":"Coronie","labelEnglish":"Coronie","labelLocal":"Coronie","labelBoth":"Coronie","type":"District","iso":"SR-CR","qid":"Q1130141"},"geometry":{"type":"Polygon","coordinates":[[[-56.6037,5.9503],[-56.4839,5.3168],[-56.06,5.395],[-55.9169,5.5399],[-55.8972,5.6767],[-55.8977,5.763],[-56.6037,5.9503]]]}},{"type":"Feature","id":"label-SUR-71","properties":{"kind":"division-label","code":"SUR-71","countryCode":"SUR","name":"Coronie","localName":"Coronie","labelEnglish":"Coronie","labelLocal":"Coronie","labelBoth":"Coronie","type":"District","iso":"SR-CR","qid":"Q1130141"},"geometry":{"type":"Point","coordinates":[-56.2504,5.64121]}},{"type":"Feature","id":"SUR-73","properties":{"kind":"division","code":"SUR-73","countryCode":"SUR","name":"Saramacca","localName":"Saramacca","labelEnglish":"Saramacca","labelLocal":"Saramacca","labelBoth":"Saramacca","type":"District","iso":"SR-SA","qid":"Q1351157"},"geometry":{"type":"Polygon","coordinates":[[[-55.8972,5.6767],[-55.9169,5.5399],[-55.9073,5.4125],[-55.3985,5.4565],[-55.3522,5.6727],[-55.2532,5.9178],[-55.8444,5.976],[-55.8972,5.6767]]]}},{"type":"Feature","id":"label-SUR-73","properties":{"kind":"division-label","code":"SUR-73","countryCode":"SUR","name":"Saramacca","localName":"Saramacca","labelEnglish":"Saramacca","labelLocal":"Saramacca","labelBoth":"Saramacca","type":"District","iso":"SR-SA","qid":"Q1351157"},"geometry":{"type":"Point","coordinates":[-55.6138,5.70188]}},{"type":"Feature","id":"SUR-74","properties":{"kind":"division","code":"SUR-74","countryCode":"SUR","name":"Wanica","localName":"Wanica","labelEnglish":"Wanica","labelLocal":"Wanica","labelBoth":"Wanica","type":"District","iso":"SR-WA","qid":"Q1147524"},"geometry":{"type":"Polygon","coordinates":[[[-55.2532,5.9178],[-55.3522,5.6727],[-55.0392,5.6668],[-55.1438,5.7662],[-55.2298,5.9024],[-55.2532,5.9178]]]}},{"type":"Feature","id":"label-SUR-74","properties":{"kind":"division-label","code":"SUR-74","countryCode":"SUR","name":"Wanica","localName":"Wanica","labelEnglish":"Wanica","labelLocal":"Wanica","labelBoth":"Wanica","type":"District","iso":"SR-WA","qid":"Q1147524"},"geometry":{"type":"Point","coordinates":[-55.1929,5.72606]}},{"type":"Feature","id":"SUR-72","properties":{"kind":"division","code":"SUR-72","countryCode":"SUR","name":"Paramaribo","localName":"Paramaribo","labelEnglish":"Paramaribo","labelLocal":"Paramaribo","labelBoth":"Paramaribo","type":"District","iso":"SR-PM","qid":"Q1130134"},"geometry":{"type":"Polygon","coordinates":[[[-55.2298,5.9024],[-55.1438,5.7662],[-55.1286,5.8214],[-55.2298,5.9024]]]}},{"type":"Feature","id":"label-SUR-72","properties":{"kind":"division-label","code":"SUR-72","countryCode":"SUR","name":"Paramaribo","localName":"Paramaribo","labelEnglish":"Paramaribo","labelLocal":"Paramaribo","labelBoth":"Paramaribo","type":"District","iso":"SR-PM","qid":"Q1130134"},"geometry":{"type":"Point","coordinates":[-55.1707,5.84317]}},{"type":"Feature","id":"SUR-70","properties":{"kind":"division","code":"SUR-70","countryCode":"SUR","name":"Commewijne","localName":"Commewijne","labelEnglish":"Commewijne","labelLocal":"Commewijne","labelBoth":"Commewijne","type":"District","iso":"SR-CM","qid":"Q952510"},"geometry":{"type":"Polygon","coordinates":[[[-55.1286,5.8214],[-55.1438,5.7662],[-55.0392,5.6668],[-55.0492,5.5381],[-54.628,5.5593],[-54.7049,5.9748],[-55.0853,5.9906],[-55.1286,5.8214]]]}},{"type":"Feature","id":"label-SUR-70","properties":{"kind":"division-label","code":"SUR-70","countryCode":"SUR","name":"Commewijne","localName":"Commewijne","labelEnglish":"Commewijne","labelLocal":"Commewijne","labelBoth":"Commewijne","type":"District","iso":"SR-CM","qid":"Q952510"},"geometry":{"type":"Point","coordinates":[-54.8961,5.7072]}},{"type":"Feature","id":"SUR-68","properties":{"kind":"division","code":"SUR-68","countryCode":"SUR","name":"Para","localName":"Para","labelEnglish":"Para","labelLocal":"Para","labelBoth":"Para","type":"District","iso":"SR-PR","qid":"Q1140891"},"geometry":{"type":"Polygon","coordinates":[[[-55.0392,5.6668],[-55.3522,5.6727],[-55.3985,5.4565],[-55.9073,5.4125],[-55.9169,5.5399],[-55.9988,5.1029],[-55.6334,4.9872],[-55.503,5.0805],[-55.3243,5.32],[-55.0258,5.3226],[-54.8513,4.9809],[-54.6549,5.3746],[-54.628,5.5593],[-55.0492,5.5381],[-55.0392,5.6668]]]}},{"type":"Feature","id":"label-SUR-68","properties":{"kind":"division-label","code":"SUR-68","countryCode":"SUR","name":"Para","localName":"Para","labelEnglish":"Para","labelLocal":"Para","labelBoth":"Para","type":"District","iso":"SR-PR","qid":"Q1140891"},"geometry":{"type":"Point","coordinates":[-55.3042,5.49368]}},{"type":"Feature","id":"SUR-66","properties":{"kind":"division","code":"SUR-66","countryCode":"SUR","name":"Brokopondo","localName":"Brokopondo","labelEnglish":"Brokopondo","labelLocal":"Brokopondo","labelBoth":"Brokopondo","type":"District","iso":"SR-BR","qid":"Q847680"},"geometry":{"type":"Polygon","coordinates":[[[-54.8513,4.9809],[-55.0258,5.3226],[-55.3243,5.32],[-55.503,5.0805],[-55.3765,4.8537],[-55.311,4.0699],[-55.2493,4.0156],[-54.875,4.2893],[-54.7401,4.8903],[-54.8513,4.9809]]]}},{"type":"Feature","id":"label-SUR-66","properties":{"kind":"division-label","code":"SUR-66","countryCode":"SUR","name":"Brokopondo","localName":"Brokopondo","labelEnglish":"Brokopondo","labelLocal":"Brokopondo","labelBoth":"Brokopondo","type":"District","iso":"SR-BR","qid":"Q847680"},"geometry":{"type":"Point","coordinates":[-55.1215,4.71274]}}]}