{"type":"FeatureCollection","features":[{"type":"Feature","id":"SVK-1053","properties":{"kind":"division","code":"SVK-1053","countryCode":"SVK","name":"Žilina","localName":"Žilina","labelEnglish":"Žilina","labelLocal":"Žilina","labelBoth":"Žilina","type":"Region","iso":"SK-ZI","qid":"Q184228"},"geometry":{"type":"Polygon","coordinates":[[[19.4489,49.6004],[19.1725,49.4023],[18.8332,49.5103],[18.387,49.3776],[18.3616,49.3302],[18.833,48.7442],[19.0392,48.8767],[19.9962,48.9066],[19.8683,49.2008],[19.4489,49.6004]]]}},{"type":"Feature","id":"label-SVK-1053","properties":{"kind":"division-label","code":"SVK-1053","countryCode":"SVK","name":"Žilina","localName":"Žilina","labelEnglish":"Žilina","labelLocal":"Žilina","labelBoth":"Žilina","type":"Region","iso":"SK-ZI","qid":"Q184228"},"geometry":{"type":"Point","coordinates":[19.2076,49.1656]}},{"type":"Feature","id":"SVK-1058","properties":{"kind":"division","code":"SVK-1058","countryCode":"SVK","name":"Prešov","localName":"Prešov","labelEnglish":"Prešov","labelLocal":"Prešov","labelBoth":"Prešov","type":"Region","iso":"SK-PV","qid":"Q189001"},"geometry":{"type":"Polygon","coordinates":[[[21.5144,49.4172],[20.9424,49.2959],[20.3074,49.3866],[19.8683,49.2008],[19.9962,48.9066],[20.2727,48.8728],[20.7682,49.0005],[21.2829,48.8132],[21.7856,48.8953],[22.3708,48.8582],[22.5396,49.0722],[21.5144,49.4172]]]}},{"type":"Feature","id":"label-SVK-1058","properties":{"kind":"division-label","code":"SVK-1058","countryCode":"SVK","name":"Prešov","localName":"Prešov","labelEnglish":"Prešov","labelLocal":"Prešov","labelBoth":"Prešov","type":"Region","iso":"SK-PV","qid":"Q189001"},"geometry":{"type":"Point","coordinates":[21.2037,49.1426]}},{"type":"Feature","id":"SVK-1057","properties":{"kind":"division","code":"SVK-1057","countryCode":"SVK","name":"Košice","localName":"Košice","labelEnglish":"Košice","labelLocal":"Košice","labelBoth":"Košice","type":"Region","iso":"SK-KI","qid":"Q186295"},"geometry":{"type":"Polygon","coordinates":[[[22.3708,48.8582],[21.7856,48.8953],[21.2829,48.8132],[20.7682,49.0005],[20.2727,48.8728],[20.1883,48.7274],[20.466,48.4638],[20.7841,48.5691],[21.4246,48.5613],[21.7277,48.3409],[22.1328,48.4048],[22.3708,48.8582]]]}},{"type":"Feature","id":"label-SVK-1057","properties":{"kind":"division-label","code":"SVK-1057","countryCode":"SVK","name":"Košice","localName":"Košice","labelEnglish":"Košice","labelLocal":"Košice","labelBoth":"Košice","type":"Region","iso":"SK-KI","qid":"Q186295"},"geometry":{"type":"Point","coordinates":[21.2753,48.6623]}},{"type":"Feature","id":"SVK-1051","properties":{"kind":"division","code":"SVK-1051","countryCode":"SVK","name":"Bratislava","localName":"Bratislava","labelEnglish":"Bratislava","labelLocal":"Bratislava","labelBoth":"Bratislava","type":"Region","iso":"SK-BL","qid":"Q183498"},"geometry":{"type":"Polygon","coordinates":[[[17.1483,48.0054],[17.2623,48.0073],[17.5322,48.202],[17.2299,48.5735],[16.9491,48.5448],[16.8445,48.3656],[17.0625,48.1127],[17.1483,48.0054]]]}},{"type":"Feature","id":"label-SVK-1051","properties":{"kind":"division-label","code":"SVK-1051","countryCode":"SVK","name":"Bratislava","localName":"Bratislava","labelEnglish":"Bratislava","labelLocal":"Bratislava","labelBoth":"Bratislava","type":"Region","iso":"SK-BL","qid":"Q183498"},"geometry":{"type":"Point","coordinates":[17.1882,48.2935]}},{"type":"Feature","id":"SVK-1056","properties":{"kind":"division","code":"SVK-1056","countryCode":"SVK","name":"Trnava","localName":"Trnava","labelEnglish":"Trnava","labelLocal":"Trnava","labelBoth":"Trnava","type":"Region","iso":"SK-TA","qid":"Q181342"},"geometry":{"type":"Polygon","coordinates":[[[16.9491,48.5448],[17.2299,48.5735],[17.5322,48.202],[17.2623,48.0073],[17.7192,47.7737],[17.886,47.9117],[17.9881,48.6161],[17.5336,48.6284],[17.4112,48.8302],[17.1675,48.8598],[16.945,48.6042],[16.9491,48.5448]]]}},{"type":"Feature","id":"label-SVK-1056","properties":{"kind":"division-label","code":"SVK-1056","countryCode":"SVK","name":"Trnava","localName":"Trnava","labelEnglish":"Trnava","labelLocal":"Trnava","labelBoth":"Trnava","type":"Region","iso":"SK-TA","qid":"Q181342"},"geometry":{"type":"Point","coordinates":[17.6989,48.3422]}},{"type":"Feature","id":"SVK-1055","properties":{"kind":"division","code":"SVK-1055","countryCode":"SVK","name":"Trenčín","localName":"Trenčín","labelEnglish":"Trenčín","labelLocal":"Trenčín","labelBoth":"Trenčín","type":"Region","iso":"SK-TC","qid":"Q183139"},"geometry":{"type":"Polygon","coordinates":[[[18.3616,49.3302],[17.646,48.8418],[17.4112,48.8302],[17.5336,48.6284],[17.9881,48.6161],[18.4899,48.5492],[18.833,48.7442],[18.3616,49.3302]]]}},{"type":"Feature","id":"label-SVK-1055","properties":{"kind":"division-label","code":"SVK-1055","countryCode":"SVK","name":"Trenčín","localName":"Trenčín","labelEnglish":"Trenčín","labelLocal":"Trenčín","labelBoth":"Trenčín","type":"Region","iso":"SK-TC","qid":"Q183139"},"geometry":{"type":"Point","coordinates":[18.0952,48.8824]}},{"type":"Feature","id":"SVK-1052","properties":{"kind":"division","code":"SVK-1052","countryCode":"SVK","name":"Banská Bystrica","localName":"Banská Bystrica","labelEnglish":"Banská Bystrica","labelLocal":"Banská Bystrica","labelBoth":"Banská Bystrica","type":"Region","iso":"SK-BC","qid":"Q183640"},"geometry":{"type":"Polygon","coordinates":[[[20.466,48.4638],[20.1883,48.7274],[20.2727,48.8728],[19.9962,48.9066],[19.0392,48.8767],[18.833,48.7442],[18.4899,48.5492],[18.5312,48.3311],[18.7548,48.4141],[19.019,48.0655],[19.7667,48.159],[19.9051,48.1243],[20.0383,48.1772],[20.466,48.4638]]]}},{"type":"Feature","id":"label-SVK-1052","properties":{"kind":"division-label","code":"SVK-1052","countryCode":"SVK","name":"Banská Bystrica","localName":"Banská Bystrica","labelEnglish":"Banská Bystrica","labelLocal":"Banská Bystrica","labelBoth":"Banská Bystrica","type":"Region","iso":"SK-BC","qid":"Q183640"},"geometry":{"type":"Point","coordinates":[19.477,48.5213]}},{"type":"Feature","id":"SVK-1054","properties":{"kind":"division","code":"SVK-1054","countryCode":"SVK","name":"Nitra","localName":"Nitra","labelEnglish":"Nitra","labelLocal":"Nitra","labelBoth":"Nitra","type":"Region","iso":"SK-NI","qid":"Q184548"},"geometry":{"type":"Polygon","coordinates":[[[19.019,48.0655],[18.7548,48.4141],[18.5312,48.3311],[18.4899,48.5492],[17.9881,48.6161],[17.886,47.9117],[17.7192,47.7737],[17.8835,47.7525],[18.8149,47.8322],[18.9336,48.0543],[19.019,48.0655]]]}},{"type":"Feature","id":"label-SVK-1054","properties":{"kind":"division-label","code":"SVK-1054","countryCode":"SVK","name":"Nitra","localName":"Nitra","labelEnglish":"Nitra","labelLocal":"Nitra","labelBoth":"Nitra","type":"Region","iso":"SK-NI","qid":"Q184548"},"geometry":{"type":"Point","coordinates":[18.3966,48.1443]}}]}