{"type":"FeatureCollection","features":[{"type":"Feature","id":"SWE-190","properties":{"kind":"division","code":"SWE-190","countryCode":"SWE","name":"Norrbotten","localName":"Norrbotten","labelEnglish":"Norrbotten","labelLocal":"Norrbotten","labelBoth":"Norrbotten","type":"County","iso":"SE-BD","qid":"Q103686"},"geometry":{"type":"Polygon","coordinates":[[[20.6232,69.0364],[20.3411,68.9101],[20.2459,68.4774],[19.931,68.3502],[19.0381,68.5056],[18.1893,68.5384],[18.1667,68.1585],[17.8954,67.9697],[17.3215,68.1053],[16.808,67.9106],[16.1271,67.4228],[16.4156,67.0527],[15.4263,66.4912],[15.4761,66.3549],[16.8814,66.0059],[17.7806,65.6571],[19.4032,65.1623],[20.1149,65.3116],[21.5817,65.0677],[21.9422,65.4118],[22.4053,65.5419],[22.2576,65.693],[22.6853,65.8625],[23.1296,65.715],[23.3743,65.8227],[24.1631,65.8227],[23.6423,66.4363],[24.0013,66.8124],[23.5813,67.1531],[23.7652,67.4201],[23.4313,67.4855],[23.4989,67.8822],[22.8083,68.3949],[22.0722,68.477],[20.6232,69.0364]]]}},{"type":"Feature","id":"label-SWE-190","properties":{"kind":"division-label","code":"SWE-190","countryCode":"SWE","name":"Norrbotten","localName":"Norrbotten","labelEnglish":"Norrbotten","labelLocal":"Norrbotten","labelBoth":"Norrbotten","type":"County","iso":"SE-BD","qid":"Q103686"},"geometry":{"type":"Point","coordinates":[20.4529,66.837]}},{"type":"Feature","id":"SWE-192","properties":{"kind":"division","code":"SWE-192","countryCode":"SWE","name":"Västerbotten","localName":"Västerbotten","labelEnglish":"Västerbotten","labelLocal":"Västerbotten","labelBoth":"Västerbotten","type":"County","iso":"SE-AC","qid":"Q104877"},"geometry":{"type":"Polygon","coordinates":[[[14.3329,65.115],[16.0846,64.263],[16.745,64.0175],[17.7299,63.8895],[18.3623,63.9828],[18.9562,63.7703],[19.3156,63.4577],[19.6873,63.4313],[20.0736,63.6662],[20.7865,63.8786],[20.9485,64.1301],[21.492,64.4543],[21.0423,64.8199],[21.5817,65.0677],[20.1149,65.3116],[19.4032,65.1623],[17.7806,65.6571],[16.8814,66.0059],[15.4761,66.3549],[15.0534,66.1533],[14.5405,66.1254],[14.6444,65.8429],[14.3329,65.115]]]}},{"type":"Feature","id":"label-SWE-192","properties":{"kind":"division-label","code":"SWE-192","countryCode":"SWE","name":"Västerbotten","localName":"Västerbotten","labelEnglish":"Västerbotten","labelLocal":"Västerbotten","labelBoth":"Västerbotten","type":"County","iso":"SE-AC","qid":"Q104877"},"geometry":{"type":"Point","coordinates":[18.3726,64.7048]}},{"type":"Feature","id":"SWE-189","properties":{"kind":"division","code":"SWE-189","countryCode":"SWE","name":"Jämtland","localName":"Jämtland","labelEnglish":"Jämtland","labelLocal":"Jämtland","labelBoth":"Jämtland","type":"County","iso":"SE-Z","qid":"Q103679"},"geometry":{"type":"Polygon","coordinates":[[[14.3321,65.114],[13.6428,64.584],[14.1156,64.4412],[13.9394,64.0095],[13.2341,64.0909],[12.6819,63.9564],[12.1703,63.5981],[12.0598,63.2048],[12.0912,62.5863],[12.2795,62.3442],[12.3151,62.2718],[13.3821,62.0044],[13.6065,61.6585],[14.4816,61.5915],[14.6017,61.812],[15.1256,61.8513],[15.3587,62.282],[15.066,62.2977],[14.8248,62.5847],[16.3921,62.7451],[16.9691,62.9934],[16.0205,63.4619],[15.9378,63.6638],[16.592,63.7369],[16.745,64.0175],[16.0846,64.263],[14.3329,65.115],[14.3321,65.114]]]}},{"type":"Feature","id":"label-SWE-189","properties":{"kind":"division-label","code":"SWE-189","countryCode":"SWE","name":"Jämtland","localName":"Jämtland","labelEnglish":"Jämtland","labelLocal":"Jämtland","labelBoth":"Jämtland","type":"County","iso":"SE-Z","qid":"Q103679"},"geometry":{"type":"Point","coordinates":[14.4806,63.3306]}},{"type":"Feature","id":"SWE-181","properties":{"kind":"division","code":"SWE-181","countryCode":"SWE","name":"Dalarna","localName":"Dalarna","labelEnglish":"Dalarna","labelLocal":"Dalarna","labelBoth":"Dalarna","type":"County","iso":"SE-W","qid":"Q103732"},"geometry":{"type":"Polygon","coordinates":[[[12.7108,61.057],[13.5279,60.4465],[14.4511,60.0366],[14.7692,60.0985],[15.4547,59.8832],[15.7497,60.1468],[16.32,60.0776],[16.7174,60.2159],[16.2025,60.58],[16.4041,60.7948],[15.8009,61.0634],[15.1855,61.5442],[14.4816,61.5915],[13.6065,61.6585],[13.3821,62.0044],[12.3151,62.2718],[12.1617,61.7248],[12.8771,61.371],[12.7108,61.057]]]}},{"type":"Feature","id":"label-SWE-181","properties":{"kind":"division-label","code":"SWE-181","countryCode":"SWE","name":"Dalarna","localName":"Dalarna","labelEnglish":"Dalarna","labelLocal":"Dalarna","labelBoth":"Dalarna","type":"County","iso":"SE-W","qid":"Q103732"},"geometry":{"type":"Point","coordinates":[14.4404,60.814]}},{"type":"Feature","id":"SWE-188","properties":{"kind":"division","code":"SWE-188","countryCode":"SWE","name":"Värmland","localName":"Värmland","labelEnglish":"Värmland","labelLocal":"Värmland","labelBoth":"Värmland","type":"County","iso":"SE-S","qid":"Q106789"},"geometry":{"type":"Polygon","coordinates":[[[12.7108,61.057],[12.281,61.0152],[12.5944,60.5149],[12.5109,60.118],[11.8746,59.8849],[11.8837,59.8054],[11.6774,59.5591],[11.8111,59.2487],[12.7563,59.1368],[12.9281,58.8152],[13.2882,58.7422],[13.6145,59.0546],[14.3126,59.0163],[14.4688,59.4982],[14.4511,60.0366],[13.5279,60.4465],[12.7108,61.057]]]}},{"type":"Feature","id":"label-SWE-188","properties":{"kind":"division-label","code":"SWE-188","countryCode":"SWE","name":"Värmland","localName":"Värmland","labelEnglish":"Värmland","labelLocal":"Värmland","labelBoth":"Värmland","type":"County","iso":"SE-S","qid":"Q106789"},"geometry":{"type":"Point","coordinates":[13.0764,59.8068]}},{"type":"Feature","id":"SWE-3428","properties":{"kind":"division","code":"SWE-3428","countryCode":"SWE","name":"Västra Götaland","localName":"Västra Götaland","labelEnglish":"Västra Götaland","labelLocal":"Västra Götaland","labelBoth":"Västra Götaland","type":"County","iso":"SE-O","qid":"Q103093"},"geometry":{"type":"Polygon","coordinates":[[[11.8111,59.2487],[11.6644,58.9201],[11.4375,58.9917],[11.1174,58.9688],[11.2317,58.3397],[11.8259,58.3166],[11.6868,57.8376],[11.9128,57.5829],[12.3019,57.6164],[12.4345,57.3059],[13.1166,57.157],[13.6827,57.5651],[13.7506,57.8531],[14.212,57.9159],[14.4286,58.2244],[14.8115,58.6455],[14.4964,58.7346],[14.3126,59.0163],[13.6145,59.0546],[13.2882,58.7422],[12.9281,58.8152],[12.7563,59.1368],[11.8111,59.2487]]]}},{"type":"Feature","id":"label-SWE-3428","properties":{"kind":"division-label","code":"SWE-3428","countryCode":"SWE","name":"Västra Götaland","localName":"Västra Götaland","labelEnglish":"Västra Götaland","labelLocal":"Västra Götaland","labelBoth":"Västra Götaland","type":"County","iso":"SE-O","qid":"Q103093"},"geometry":{"type":"Point","coordinates":[12.8371,58.2428]}},{"type":"Feature","id":"SWE-191","properties":{"kind":"division","code":"SWE-191","countryCode":"SWE","name":"Västernorrland","localName":"Västernorrland","labelEnglish":"Västernorrland","labelLocal":"Västernorrland","labelBoth":"Västernorrland","type":"County","iso":"SE-Y","qid":"Q104891"},"geometry":{"type":"Polygon","coordinates":[[[19.3156,63.4577],[18.9562,63.7703],[18.3623,63.9828],[17.7299,63.8895],[16.745,64.0175],[16.592,63.7369],[15.9378,63.6638],[16.0205,63.4619],[16.9691,62.9934],[16.3921,62.7451],[14.8248,62.5847],[15.066,62.2977],[15.3587,62.282],[15.6271,62.355],[17.4985,62.1476],[17.3374,62.404],[17.8235,62.4858],[18.0773,62.7739],[18.4714,62.8677],[18.6431,63.1469],[19.0368,63.1779],[19.3156,63.4577]]]}},{"type":"Feature","id":"label-SWE-191","properties":{"kind":"division-label","code":"SWE-191","countryCode":"SWE","name":"Västernorrland","localName":"Västernorrland","labelEnglish":"Västernorrland","labelLocal":"Västernorrland","labelBoth":"Västernorrland","type":"County","iso":"SE-Y","qid":"Q104891"},"geometry":{"type":"Point","coordinates":[17.3697,62.9145]}},{"type":"Feature","id":"SWE-178","properties":{"kind":"division","code":"SWE-178","countryCode":"SWE","name":"Gävleborg","localName":"Gävleborg","labelEnglish":"Gävleborg","labelLocal":"Gävleborg","labelBoth":"Gävleborg","type":"County","iso":"SE-X","qid":"Q103699"},"geometry":{"type":"Polygon","coordinates":[[[17.4985,62.1476],[15.6271,62.355],[15.3587,62.282],[15.1256,61.8513],[14.6017,61.812],[14.4816,61.5915],[15.1855,61.5442],[15.8009,61.0634],[16.4041,60.7948],[16.2025,60.58],[16.7174,60.2159],[17.2262,60.3096],[17.3766,60.6239],[17.1677,60.9922],[17.177,61.4869],[17.3992,61.7224],[17.4985,62.1476]]]}},{"type":"Feature","id":"label-SWE-178","properties":{"kind":"division-label","code":"SWE-178","countryCode":"SWE","name":"Gävleborg","localName":"Gävleborg","labelEnglish":"Gävleborg","labelLocal":"Gävleborg","labelBoth":"Gävleborg","type":"County","iso":"SE-X","qid":"Q103699"},"geometry":{"type":"Point","coordinates":[16.5023,61.3691]}},{"type":"Feature","id":"SWE-195","properties":{"kind":"division","code":"SWE-195","countryCode":"SWE","name":"Uppsala","localName":"Uppsala","labelEnglish":"Uppsala","labelLocal":"Uppsala","labelBoth":"Uppsala","type":"County","iso":"SE-C","qid":"Q104926"},"geometry":{"type":"Polygon","coordinates":[[[17.3766,60.6239],[17.2262,60.3096],[17.3941,60.2246],[17.0504,59.8391],[16.7914,59.8069],[16.9664,59.5321],[17.4445,59.3853],[17.5817,59.6662],[18.39,59.882],[18.5545,60.1214],[17.9675,60.5121],[17.3766,60.6239]]]}},{"type":"Feature","id":"label-SWE-195","properties":{"kind":"division-label","code":"SWE-195","countryCode":"SWE","name":"Uppsala","localName":"Uppsala","labelEnglish":"Uppsala","labelLocal":"Uppsala","labelBoth":"Uppsala","type":"County","iso":"SE-C","qid":"Q104926"},"geometry":{"type":"Point","coordinates":[17.7896,60.1522]}},{"type":"Feature","id":"SWE-194","properties":{"kind":"division","code":"SWE-194","countryCode":"SWE","name":"Stockholm","localName":"Stockholm","labelEnglish":"Stockholm","labelLocal":"Stockholm","labelBoth":"Stockholm","type":"County","iso":"SE-AB","qid":"Q104231"},"geometry":{"type":"Polygon","coordinates":[[[18.5545,60.1214],[18.39,59.882],[17.5817,59.6662],[17.4445,59.3853],[17.2853,59.2272],[17.5863,58.9649],[18.4143,59.14],[18.009,59.4085],[18.4131,59.491],[19.042,59.785],[18.8205,60.1137],[18.5545,60.1214]]]}},{"type":"Feature","id":"label-SWE-194","properties":{"kind":"division-label","code":"SWE-194","countryCode":"SWE","name":"Stockholm","localName":"Stockholm","labelEnglish":"Stockholm","labelLocal":"Stockholm","labelBoth":"Stockholm","type":"County","iso":"SE-AB","qid":"Q104231"},"geometry":{"type":"Point","coordinates":[17.8652,59.3659]}},{"type":"Feature","id":"SWE-185","properties":{"kind":"division","code":"SWE-185","countryCode":"SWE","name":"Södermanland","localName":"Södermanland","labelEnglish":"Södermanland","labelLocal":"Södermanland","labelBoth":"Södermanland","type":"County","iso":"SE-D","qid":"Q106915"},"geometry":{"type":"Polygon","coordinates":[[[17.5863,58.9649],[17.2853,59.2272],[17.4445,59.3853],[16.9664,59.5321],[16.2871,59.4537],[15.7786,59.2062],[15.7236,58.9845],[16.7814,58.6345],[17.4597,58.7914],[17.5863,58.9649]]]}},{"type":"Feature","id":"label-SWE-185","properties":{"kind":"division-label","code":"SWE-185","countryCode":"SWE","name":"Södermanland","localName":"Södermanland","labelEnglish":"Södermanland","labelLocal":"Södermanland","labelBoth":"Södermanland","type":"County","iso":"SE-D","qid":"Q106915"},"geometry":{"type":"Point","coordinates":[16.6334,59.0778]}},{"type":"Feature","id":"SWE-184","properties":{"kind":"division","code":"SWE-184","countryCode":"SWE","name":"Östergötland","localName":"Östergötland","labelEnglish":"Östergötland","labelLocal":"Östergötland","labelBoth":"Östergötland","type":"County","iso":"SE-E","qid":"Q104940"},"geometry":{"type":"Polygon","coordinates":[[[16.7814,58.6345],[15.7236,58.9845],[14.8115,58.6455],[14.4286,58.2244],[14.9928,58.1551],[15.1535,57.7403],[15.4431,57.7116],[16.0416,57.8629],[16.0389,58.0796],[16.6869,57.9892],[16.9402,58.4911],[16.7814,58.6345]]]}},{"type":"Feature","id":"label-SWE-184","properties":{"kind":"division-label","code":"SWE-184","countryCode":"SWE","name":"Östergötland","localName":"Östergötland","labelEnglish":"Östergötland","labelLocal":"Östergötland","labelBoth":"Östergötland","type":"County","iso":"SE-E","qid":"Q104940"},"geometry":{"type":"Point","coordinates":[15.7022,58.3655]}},{"type":"Feature","id":"SWE-180","properties":{"kind":"division","code":"SWE-180","countryCode":"SWE","name":"Kalmar","localName":"Kalmar","labelEnglish":"Kalmar","labelLocal":"Kalmar","labelBoth":"Kalmar","type":"County","iso":"SE-H","qid":"Q103707"},"geometry":{"type":"MultiPolygon","coordinates":[[[[16.6869,57.9892],[16.0389,58.0796],[16.0416,57.8629],[15.4431,57.7116],[15.6631,57.6027],[15.5508,57.2114],[15.8056,57.0205],[15.3924,56.7572],[15.363,56.4821],[16.0662,56.3359],[16.4681,56.9493],[16.689,57.4717],[16.4194,57.8947],[16.6869,57.9892]]],[[[17.1245,57.3193],[16.9665,57.3046],[16.3989,56.5447],[16.4126,56.2293],[17.1245,57.3193]]]]}},{"type":"Feature","id":"label-SWE-180","properties":{"kind":"division-label","code":"SWE-180","countryCode":"SWE","name":"Kalmar","localName":"Kalmar","labelEnglish":"Kalmar","labelLocal":"Kalmar","labelBoth":"Kalmar","type":"County","iso":"SE-H","qid":"Q103707"},"geometry":{"type":"Point","coordinates":[16.0875,57.2764]}},{"type":"Feature","id":"SWE-262","properties":{"kind":"division","code":"SWE-262","countryCode":"SWE","name":"Blekinge","localName":"Blekinge","labelEnglish":"Blekinge","labelLocal":"Blekinge","labelBoth":"Blekinge","type":"County","iso":"SE-K","qid":"Q102377"},"geometry":{"type":"Polygon","coordinates":[[[16.0662,56.3359],[15.363,56.4821],[14.9152,56.3819],[14.5407,56.4775],[14.5534,56.054],[14.6858,56.1474],[15.5728,56.2063],[15.8517,56.0864],[16.0662,56.3359]]]}},{"type":"Feature","id":"label-SWE-262","properties":{"kind":"division-label","code":"SWE-262","countryCode":"SWE","name":"Blekinge","localName":"Blekinge","labelEnglish":"Blekinge","labelLocal":"Blekinge","labelBoth":"Blekinge","type":"County","iso":"SE-K","qid":"Q102377"},"geometry":{"type":"Point","coordinates":[15.2163,56.2929]}},{"type":"Feature","id":"SWE-3429","properties":{"kind":"division","code":"SWE-3429","countryCode":"SWE","name":"Skåne","localName":"Skåne","labelEnglish":"Skåne","labelLocal":"Skåne","labelBoth":"Skåne","type":"County","iso":"SE-M","qid":"Q103659"},"geometry":{"type":"Polygon","coordinates":[[[14.5534,56.054],[14.5407,56.4775],[14.0947,56.5412],[13.5014,56.4238],[13.2306,56.3428],[12.9109,56.4744],[12.5046,56.2753],[13.0614,55.6745],[12.9529,55.425],[13.2805,55.3454],[14.363,55.5236],[14.1958,55.7257],[14.5534,56.054]]]}},{"type":"Feature","id":"label-SWE-3429","properties":{"kind":"division-label","code":"SWE-3429","countryCode":"SWE","name":"Skåne","localName":"Skåne","labelEnglish":"Skåne","labelLocal":"Skåne","labelBoth":"Skåne","type":"County","iso":"SE-M","qid":"Q103659"},"geometry":{"type":"Point","coordinates":[13.5193,55.9073]}},{"type":"Feature","id":"SWE-187","properties":{"kind":"division","code":"SWE-187","countryCode":"SWE","name":"Halland","localName":"Halland","labelEnglish":"Halland","labelLocal":"Halland","labelBoth":"Halland","type":"County","iso":"SE-N","qid":"Q103691"},"geometry":{"type":"Polygon","coordinates":[[[12.9109,56.4744],[13.2306,56.3428],[13.5014,56.4238],[13.3521,56.8676],[13.6937,56.9834],[13.1166,57.157],[12.4345,57.3059],[12.3019,57.6164],[11.9128,57.5829],[12.375,56.9121],[12.9109,56.4744]]]}},{"type":"Feature","id":"label-SWE-187","properties":{"kind":"division-label","code":"SWE-187","countryCode":"SWE","name":"Halland","localName":"Halland","labelEnglish":"Halland","labelLocal":"Halland","labelBoth":"Halland","type":"County","iso":"SE-N","qid":"Q103691"},"geometry":{"type":"Point","coordinates":[12.8007,56.9745]}},{"type":"Feature","id":"SWE-193","properties":{"kind":"division","code":"SWE-193","countryCode":"SWE","name":"Gotland","localName":"Gotland","labelEnglish":"Gotland","labelLocal":"Gotland","labelBoth":"Gotland","type":"County","iso":"SE-I","qid":"Q103738"},"geometry":{"type":"Polygon","coordinates":[[[19.0402,57.8679],[18.7424,57.9179],[18.112,57.5111],[18.2985,56.9416],[18.3858,57.1274],[18.93,57.4045],[18.8071,57.7344],[19.0402,57.8679]]]}},{"type":"Feature","id":"label-SWE-193","properties":{"kind":"division-label","code":"SWE-193","countryCode":"SWE","name":"Gotland","localName":"Gotland","labelEnglish":"Gotland","labelLocal":"Gotland","labelBoth":"Gotland","type":"County","iso":"SE-I","qid":"Q103738"},"geometry":{"type":"Point","coordinates":[18.4826,57.4733]}},{"type":"Feature","id":"SWE-186","properties":{"kind":"division","code":"SWE-186","countryCode":"SWE","name":"Västmanland","localName":"Västmanland","labelEnglish":"Västmanland","labelLocal":"Västmanland","labelBoth":"Västmanland","type":"County","iso":"SE-U","qid":"Q105075"},"geometry":{"type":"Polygon","coordinates":[[[16.9664,59.5321],[16.7914,59.8069],[17.0504,59.8391],[17.3941,60.2246],[17.2262,60.3096],[16.7174,60.2159],[16.32,60.0776],[15.7497,60.1468],[15.4547,59.8832],[15.7396,59.5398],[15.7786,59.2062],[16.2871,59.4537],[16.9664,59.5321]]]}},{"type":"Feature","id":"label-SWE-186","properties":{"kind":"division-label","code":"SWE-186","countryCode":"SWE","name":"Västmanland","localName":"Västmanland","labelEnglish":"Västmanland","labelLocal":"Västmanland","labelBoth":"Västmanland","type":"County","iso":"SE-U","qid":"Q105075"},"geometry":{"type":"Point","coordinates":[16.4244,59.7979]}},{"type":"Feature","id":"SWE-179","properties":{"kind":"division","code":"SWE-179","countryCode":"SWE","name":"Jönköping","localName":"Jönköping","labelEnglish":"Jönköping","labelLocal":"Jönköping","labelBoth":"Jönköping","type":"County","iso":"SE-F","qid":"Q103672"},"geometry":{"type":"Polygon","coordinates":[[[13.1166,57.157],[13.6937,56.9834],[14.3931,56.9553],[14.3819,57.1424],[14.8087,57.2278],[15.5508,57.2114],[15.6631,57.6027],[15.4431,57.7116],[15.1535,57.7403],[14.9928,58.1551],[14.4286,58.2244],[14.212,57.9159],[13.7506,57.8531],[13.6827,57.5651],[13.1166,57.157]]]}},{"type":"Feature","id":"label-SWE-179","properties":{"kind":"division-label","code":"SWE-179","countryCode":"SWE","name":"Jönköping","localName":"Jönköping","labelEnglish":"Jönköping","labelLocal":"Jönköping","labelBoth":"Jönköping","type":"County","iso":"SE-F","qid":"Q103672"},"geometry":{"type":"Point","coordinates":[14.424,57.5478]}},{"type":"Feature","id":"SWE-183","properties":{"kind":"division","code":"SWE-183","countryCode":"SWE","name":"Örebro","localName":"Örebro","labelEnglish":"Örebro","labelLocal":"Örebro","labelBoth":"Örebro","type":"County","iso":"SE-T","qid":"Q104257"},"geometry":{"type":"Polygon","coordinates":[[[14.4511,60.0366],[14.4688,59.4982],[14.3126,59.0163],[14.4964,58.7346],[14.8115,58.6455],[15.7236,58.9845],[15.7786,59.2062],[15.7396,59.5398],[15.4547,59.8832],[14.7692,60.0985],[14.4511,60.0366]]]}},{"type":"Feature","id":"label-SWE-183","properties":{"kind":"division-label","code":"SWE-183","countryCode":"SWE","name":"Örebro","localName":"Örebro","labelEnglish":"Örebro","labelLocal":"Örebro","labelBoth":"Örebro","type":"County","iso":"SE-T","qid":"Q104257"},"geometry":{"type":"Point","coordinates":[15.0594,59.3913]}},{"type":"Feature","id":"SWE-182","properties":{"kind":"division","code":"SWE-182","countryCode":"SWE","name":"Kronoberg","localName":"Kronoberg","labelEnglish":"Kronoberg","labelLocal":"Kronoberg","labelBoth":"Kronoberg","type":"County","iso":"SE-G","qid":"Q104746"},"geometry":{"type":"Polygon","coordinates":[[[13.5014,56.4238],[14.0947,56.5412],[14.5407,56.4775],[14.9152,56.3819],[15.363,56.4821],[15.3924,56.7572],[15.8056,57.0205],[15.5508,57.2114],[14.8087,57.2278],[14.3819,57.1424],[14.3931,56.9553],[13.6937,56.9834],[13.3521,56.8676],[13.5014,56.4238]]]}},{"type":"Feature","id":"label-SWE-182","properties":{"kind":"division-label","code":"SWE-182","countryCode":"SWE","name":"Kronoberg","localName":"Kronoberg","labelEnglish":"Kronoberg","labelLocal":"Kronoberg","labelBoth":"Kronoberg","type":"County","iso":"SE-G","qid":"Q104746"},"geometry":{"type":"Point","coordinates":[14.5773,56.8265]}}]}