{"type":"FeatureCollection","features":[{"type":"Feature","id":"SWZ-535","properties":{"kind":"division","code":"SWZ-535","countryCode":"SWZ","name":"Lubombo","localName":"Lubombo","labelEnglish":"Lubombo","labelLocal":"Lubombo","labelBoth":"Lubombo","type":"Region","iso":"SZ-LU","qid":"Q856657"},"geometry":{"type":"Polygon","coordinates":[[[31.9492,-25.9581],[31.747,-25.9308],[31.6698,-26.1519],[31.6001,-26.6162],[31.4882,-26.7621],[31.4966,-26.8968],[31.9442,-27.1623],[31.9901,-26.8083],[32.1139,-26.84],[31.9492,-25.9581]]]}},{"type":"Feature","id":"label-SWZ-535","properties":{"kind":"division-label","code":"SWZ-535","countryCode":"SWZ","name":"Lubombo","localName":"Lubombo","labelEnglish":"Lubombo","labelLocal":"Lubombo","labelBoth":"Lubombo","type":"Region","iso":"SZ-LU","qid":"Q856657"},"geometry":{"type":"Point","coordinates":[31.8026,-26.5247]}},{"type":"Feature","id":"SWZ-534","properties":{"kind":"division","code":"SWZ-534","countryCode":"SWZ","name":"Hhohho","localName":"Hhohho","labelEnglish":"Hhohho","labelLocal":"Hhohho","labelBoth":"Hhohho","type":"Region","iso":"SZ-HH","qid":"Q735570"},"geometry":{"type":"Polygon","coordinates":[[[31.747,-25.9308],[31.4269,-25.7436],[31.1198,-25.91],[30.8973,-26.2917],[31.2611,-26.4543],[31.2846,-26.3227],[31.6698,-26.1519],[31.747,-25.9308]]]}},{"type":"Feature","id":"label-SWZ-534","properties":{"kind":"division-label","code":"SWZ-534","countryCode":"SWZ","name":"Hhohho","localName":"Hhohho","labelEnglish":"Hhohho","labelLocal":"Hhohho","labelBoth":"Hhohho","type":"Region","iso":"SZ-HH","qid":"Q735570"},"geometry":{"type":"Point","coordinates":[31.322,-26.0265]}},{"type":"Feature","id":"SWZ-536","properties":{"kind":"division","code":"SWZ-536","countryCode":"SWZ","name":"Manzini","localName":"Manzini","labelEnglish":"Manzini","labelLocal":"Manzini","labelBoth":"Manzini","type":"Region","iso":"SZ-MA","qid":"Q305395"},"geometry":{"type":"Polygon","coordinates":[[[30.8973,-26.2917],[30.7829,-26.4724],[30.8853,-26.7856],[31.0728,-26.877],[31.4882,-26.7621],[31.6001,-26.6162],[31.6698,-26.1519],[31.2846,-26.3227],[31.2611,-26.4543],[30.8973,-26.2917]]]}},{"type":"Feature","id":"label-SWZ-536","properties":{"kind":"division-label","code":"SWZ-536","countryCode":"SWZ","name":"Manzini","localName":"Manzini","labelEnglish":"Manzini","labelLocal":"Manzini","labelBoth":"Manzini","type":"Region","iso":"SZ-MA","qid":"Q305395"},"geometry":{"type":"Point","coordinates":[31.2402,-26.6342]}},{"type":"Feature","id":"SWZ-537","properties":{"kind":"division","code":"SWZ-537","countryCode":"SWZ","name":"Shiselweni","localName":"Shiselweni","labelEnglish":"Shiselweni","labelLocal":"Shiselweni","labelBoth":"Shiselweni","type":"Region","iso":"SZ-SH","qid":"Q845934"},"geometry":{"type":"Polygon","coordinates":[[[31.2447,-27.2326],[31.9683,-27.3163],[31.9442,-27.1623],[31.4966,-26.8968],[31.4882,-26.7621],[31.0728,-26.877],[30.8853,-26.7856],[30.9761,-27.035],[31.2447,-27.2326]]]}},{"type":"Feature","id":"label-SWZ-537","properties":{"kind":"division-label","code":"SWZ-537","countryCode":"SWZ","name":"Shiselweni","localName":"Shiselweni","labelEnglish":"Shiselweni","labelLocal":"Shiselweni","labelBoth":"Shiselweni","type":"Region","iso":"SZ-SH","qid":"Q845934"},"geometry":{"type":"Point","coordinates":[31.4265,-27.0243]}}]}