{"type":"FeatureCollection","features":[{"type":"Feature","id":"SXM-5146","properties":{"kind":"division","code":"SXM-5146","countryCode":"SXM","name":"Sint Maarten","localName":"Sint Maarten","labelEnglish":"Sint Maarten","labelLocal":"Sint Maarten","labelBoth":"Sint Maarten","type":null,"iso":"NL-SX","qid":"Q26273"},"geometry":{"type":"Polygon","coordinates":[[[-63.107,18.0621],[-63.0976,18.036],[-63.0176,18.0334],[-63.107,18.0621]]]}},{"type":"Feature","id":"label-SXM-5146","properties":{"kind":"division-label","code":"SXM-5146","countryCode":"SXM","name":"Sint Maarten","localName":"Sint Maarten","labelEnglish":"Sint Maarten","labelLocal":"Sint Maarten","labelBoth":"Sint Maarten","type":null,"iso":"NL-SX","qid":"Q26273"},"geometry":{"type":"Point","coordinates":[-63.0677,18.0401]}}]}