{"type":"FeatureCollection","features":[{"type":"Feature","id":"SYC-5197","properties":{"kind":"division","code":"SYC-5197","countryCode":"SYC","name":"Coralline Seychelles","localName":"Coralline Seychelles","labelEnglish":"Coralline Seychelles","labelLocal":"Coralline Seychelles","labelBoth":"Coralline Seychelles","type":null,"iso":"SC-X02~","qid":null},"geometry":{"type":"Polygon","coordinates":[[[46.4955,-9.3576],[46.2344,-9.4523],[46.4546,-9.4264],[46.4955,-9.3576]]]}},{"type":"Feature","id":"label-SYC-5197","properties":{"kind":"division-label","code":"SYC-5197","countryCode":"SYC","name":"Coralline Seychelles","localName":"Coralline Seychelles","labelEnglish":"Coralline Seychelles","labelLocal":"Coralline Seychelles","labelBoth":"Coralline Seychelles","type":null,"iso":"SC-X02~","qid":null},"geometry":{"type":"Point","coordinates":[46.4946,-9.73919]}},{"type":"Feature","id":"SYC-5212","properties":{"kind":"division","code":"SYC-5212","countryCode":"SYC","name":"La Digue","localName":"La Digue","labelEnglish":"La Digue","labelLocal":"La Digue","labelBoth":"La Digue","type":null,"iso":"SC-15","qid":"Q581154"},"geometry":{"type":"Polygon","coordinates":[[[55.2603,-4.5001],[55.2254,-4.4449],[55.228,-4.4875],[55.2603,-4.5001]]]}},{"type":"Feature","id":"label-SYC-5212","properties":{"kind":"division-label","code":"SYC-5212","countryCode":"SYC","name":"La Digue","localName":"La Digue","labelEnglish":"La Digue","labelLocal":"La Digue","labelBoth":"La Digue","type":null,"iso":"SC-15","qid":"Q581154"},"geometry":{"type":"Point","coordinates":[55.8393,-4.35949]}},{"type":"Feature","id":"SYC-5210","properties":{"kind":"division","code":"SYC-5210","countryCode":"SYC","name":"Grand'Anse Praslin","localName":"Grand'Anse Praslin","labelEnglish":"Grand'Anse Praslin","labelLocal":"Grand'Anse Praslin","labelBoth":"Grand'Anse Praslin","type":null,"iso":"SC-13","qid":"Q1231388"},"geometry":{"type":"Polygon","coordinates":[[[55.478,-4.7064],[55.4952,-4.6778],[55.4827,-4.6623],[55.4775,-4.6651],[55.4592,-4.6576],[55.449,-4.6779],[55.478,-4.7064]]]}},{"type":"Feature","id":"label-SYC-5210","properties":{"kind":"division-label","code":"SYC-5210","countryCode":"SYC","name":"Grand'Anse Praslin","localName":"Grand'Anse Praslin","labelEnglish":"Grand'Anse Praslin","labelLocal":"Grand'Anse Praslin","labelBoth":"Grand'Anse Praslin","type":null,"iso":"SC-13","qid":"Q1231388"},"geometry":{"type":"Point","coordinates":[55.4738,-4.68654]}},{"type":"Feature","id":"SYC-5199","properties":{"kind":"division","code":"SYC-5199","countryCode":"SYC","name":"Anse Boileau","localName":"Anse Boileau","labelEnglish":"Anse Boileau","labelLocal":"Anse Boileau","labelBoth":"Anse Boileau","type":null,"iso":"SC-02","qid":"Q569453"},"geometry":{"type":"Polygon","coordinates":[[[55.4916,-4.7364],[55.505,-4.7391],[55.5079,-4.7198],[55.5002,-4.6796],[55.4952,-4.6778],[55.478,-4.7064],[55.4916,-4.7364]]]}},{"type":"Feature","id":"label-SYC-5199","properties":{"kind":"division-label","code":"SYC-5199","countryCode":"SYC","name":"Anse Boileau","localName":"Anse Boileau","labelEnglish":"Anse Boileau","labelLocal":"Anse Boileau","labelBoth":"Anse Boileau","type":null,"iso":"SC-02","qid":"Q569453"},"geometry":{"type":"Point","coordinates":[55.4923,-4.71357]}},{"type":"Feature","id":"SYC-5203","properties":{"kind":"division","code":"SYC-5203","countryCode":"SYC","name":"Baie Lazare","localName":"Baie Lazare","labelEnglish":"Baie Lazare","labelLocal":"Baie Lazare","labelBoth":"Baie Lazare","type":null,"iso":"SC-06","qid":"Q2494551"},"geometry":{"type":"Polygon","coordinates":[[[55.4932,-4.7766],[55.5097,-4.7713],[55.505,-4.7391],[55.4916,-4.7364],[55.4932,-4.7766]]]}},{"type":"Feature","id":"label-SYC-5203","properties":{"kind":"division-label","code":"SYC-5203","countryCode":"SYC","name":"Baie Lazare","localName":"Baie Lazare","labelEnglish":"Baie Lazare","labelLocal":"Baie Lazare","labelBoth":"Baie Lazare","type":null,"iso":"SC-06","qid":"Q2494551"},"geometry":{"type":"Point","coordinates":[55.4918,-4.75461]}},{"type":"Feature","id":"SYC-5220","properties":{"kind":"division","code":"SYC-5220","countryCode":"SYC","name":"Takamaka","localName":"Takamaka","labelEnglish":"Takamaka","labelLocal":"Takamaka","labelBoth":"Takamaka","type":null,"iso":"SC-23","qid":"Q2287379"},"geometry":{"type":"Polygon","coordinates":[[[55.5257,-4.7701],[55.5097,-4.7713],[55.4932,-4.7766],[55.5257,-4.7701]]]}},{"type":"Feature","id":"label-SYC-5220","properties":{"kind":"division-label","code":"SYC-5220","countryCode":"SYC","name":"Takamaka","localName":"Takamaka","labelEnglish":"Takamaka","labelLocal":"Takamaka","labelBoth":"Takamaka","type":null,"iso":"SC-23","qid":"Q2287379"},"geometry":{"type":"Point","coordinates":[55.5173,-4.79065]}},{"type":"Feature","id":"SYC-5202","properties":{"kind":"division","code":"SYC-5202","countryCode":"SYC","name":"Anse Royale","localName":"Anse Royale","labelEnglish":"Anse Royale","labelLocal":"Anse Royale","labelBoth":"Anse Royale","type":null,"iso":"SC-05","qid":"Q3241674"},"geometry":{"type":"Polygon","coordinates":[[[55.5281,-4.7368],[55.5079,-4.7198],[55.505,-4.7391],[55.5097,-4.7713],[55.5257,-4.7701],[55.5281,-4.7368]]]}},{"type":"Feature","id":"label-SYC-5202","properties":{"kind":"division-label","code":"SYC-5202","countryCode":"SYC","name":"Anse Royale","localName":"Anse Royale","labelEnglish":"Anse Royale","labelLocal":"Anse Royale","labelBoth":"Anse Royale","type":null,"iso":"SC-05","qid":"Q3241674"},"geometry":{"type":"Point","coordinates":[55.5118,-4.7456]}},{"type":"Feature","id":"SYC-5201","properties":{"kind":"division","code":"SYC-5201","countryCode":"SYC","name":"Au Cap","localName":"Au Cap","labelEnglish":"Au Cap","labelLocal":"Au Cap","labelBoth":"Au Cap","type":null,"iso":"SC-04","qid":"Q2667004"},"geometry":{"type":"Polygon","coordinates":[[[55.5263,-4.6891],[55.504,-4.6809],[55.5002,-4.6796],[55.5079,-4.7198],[55.5281,-4.7368],[55.5263,-4.6891]]]}},{"type":"Feature","id":"label-SYC-5201","properties":{"kind":"division-label","code":"SYC-5201","countryCode":"SYC","name":"Au Cap","localName":"Au Cap","labelEnglish":"Au Cap","labelLocal":"Au Cap","labelBoth":"Au Cap","type":null,"iso":"SC-04","qid":"Q2667004"},"geometry":{"type":"Point","coordinates":[55.5138,-4.70356]}},{"type":"Feature","id":"SYC-5198","properties":{"kind":"division","code":"SYC-5198","countryCode":"SYC","name":"Anse-aux-Pins","localName":"Anse-aux-Pins","labelEnglish":"Anse-aux-Pins","labelLocal":"Anse-aux-Pins","labelBoth":"Anse-aux-Pins","type":null,"iso":"SC-01","qid":"Q569458"},"geometry":{"type":"Polygon","coordinates":[[[55.5286,-4.6802],[55.5063,-4.6774],[55.504,-4.6809],[55.5263,-4.6891],[55.5286,-4.6802]]]}},{"type":"Feature","id":"label-SYC-5198","properties":{"kind":"division-label","code":"SYC-5198","countryCode":"SYC","name":"Anse-aux-Pins","localName":"Anse-aux-Pins","labelEnglish":"Anse-aux-Pins","labelLocal":"Anse-aux-Pins","labelBoth":"Anse-aux-Pins","type":null,"iso":"SC-01","qid":"Q569458"},"geometry":{"type":"Point","coordinates":[55.5208,-4.68304]}},{"type":"Feature","id":"SYC-5217","properties":{"kind":"division","code":"SYC-5217","countryCode":"SYC","name":"Pointe La Rue","localName":"Pointe La Rue","labelEnglish":"Pointe La Rue","labelLocal":"Pointe La Rue","labelBoth":"Pointe La Rue","type":null,"iso":"SC-20","qid":"Q2877260"},"geometry":{"type":"Polygon","coordinates":[[[55.5136,-4.6662],[55.5063,-4.6774],[55.5286,-4.6802],[55.5136,-4.6662]]]}},{"type":"Feature","id":"label-SYC-5217","properties":{"kind":"division-label","code":"SYC-5217","countryCode":"SYC","name":"Pointe La Rue","localName":"Pointe La Rue","labelEnglish":"Pointe La Rue","labelLocal":"Pointe La Rue","labelBoth":"Pointe La Rue","type":null,"iso":"SC-20","qid":"Q2877260"},"geometry":{"type":"Point","coordinates":[55.5163,-4.67403]}},{"type":"Feature","id":"SYC-5208","properties":{"kind":"division","code":"SYC-5208","countryCode":"SYC","name":"Cascade","localName":"Cascade","labelEnglish":"Cascade","labelLocal":"Cascade","labelBoth":"Cascade","type":null,"iso":"SC-11","qid":"Q1928685"},"geometry":{"type":"Polygon","coordinates":[[[55.492,-4.6514],[55.4895,-4.6585],[55.4827,-4.6623],[55.4952,-4.6778],[55.5002,-4.6796],[55.504,-4.6809],[55.5063,-4.6774],[55.5136,-4.6662],[55.492,-4.6514]]]}},{"type":"Feature","id":"label-SYC-5208","properties":{"kind":"division-label","code":"SYC-5208","countryCode":"SYC","name":"Cascade","localName":"Cascade","labelEnglish":"Cascade","labelLocal":"Cascade","labelBoth":"Cascade","type":null,"iso":"SC-11","qid":"Q1928685"},"geometry":{"type":"Point","coordinates":[55.4988,-4.66702]}},{"type":"Feature","id":"SYC-5222","properties":{"kind":"division","code":"SYC-5222","countryCode":"SYC","name":"Roche Caiman","localName":"Roche Caiman","labelEnglish":"Roche Caiman","labelLocal":"Roche Caiman","labelBoth":"Roche Caiman","type":null,"iso":"SC-25","qid":"Q2718315"},"geometry":{"type":"Polygon","coordinates":[[[55.4757,-4.6399],[55.475,-4.6475],[55.4895,-4.6585],[55.492,-4.6514],[55.4757,-4.6399]]]}},{"type":"Feature","id":"label-SYC-5222","properties":{"kind":"division-label","code":"SYC-5222","countryCode":"SYC","name":"Roche Caiman","localName":"Roche Caiman","labelEnglish":"Roche Caiman","labelLocal":"Roche Caiman","labelBoth":"Roche Caiman","type":null,"iso":"SC-25","qid":"Q2718315"},"geometry":{"type":"Point","coordinates":[55.4828,-4.6495]}},{"type":"Feature","id":"SYC-5216","properties":{"kind":"division","code":"SYC-5216","countryCode":"SYC","name":"Plaisance","localName":"Plaisance","labelEnglish":"Plaisance","labelLocal":"Plaisance","labelBoth":"Plaisance","type":null,"iso":"SC-19","qid":"Q2199897"},"geometry":{"type":"Polygon","coordinates":[[[55.4718,-4.6349],[55.4645,-4.6471],[55.4592,-4.6576],[55.4775,-4.6651],[55.475,-4.6475],[55.4757,-4.6399],[55.4718,-4.6349]]]}},{"type":"Feature","id":"label-SYC-5216","properties":{"kind":"division-label","code":"SYC-5216","countryCode":"SYC","name":"Plaisance","localName":"Plaisance","labelEnglish":"Plaisance","labelLocal":"Plaisance","labelBoth":"Plaisance","type":null,"iso":"SC-19","qid":"Q2199897"},"geometry":{"type":"Point","coordinates":[55.4693,-4.65451]}},{"type":"Feature","id":"SYC-5215","properties":{"kind":"division","code":"SYC-5215","countryCode":"SYC","name":"Mont Fleuri","localName":"Mont Fleuri","labelEnglish":"Mont Fleuri","labelLocal":"Mont Fleuri","labelBoth":"Mont Fleuri","type":null,"iso":"SC-18","qid":"Q1945413"},"geometry":{"type":"Polygon","coordinates":[[[55.4605,-4.6256],[55.4645,-4.6471],[55.4718,-4.6349],[55.4605,-4.6256]]]}},{"type":"Feature","id":"label-SYC-5215","properties":{"kind":"division-label","code":"SYC-5215","countryCode":"SYC","name":"Mont Fleuri","localName":"Mont Fleuri","labelEnglish":"Mont Fleuri","labelLocal":"Mont Fleuri","labelBoth":"Mont Fleuri","type":null,"iso":"SC-18","qid":"Q1945413"},"geometry":{"type":"Point","coordinates":[55.4633,-4.63449]}},{"type":"Feature","id":"SYC-5206","properties":{"kind":"division","code":"SYC-5206","countryCode":"SYC","name":"Bel Air","localName":"Bel Air","labelEnglish":"Bel Air","labelLocal":"Bel Air","labelBoth":"Bel Air","type":null,"iso":"SC-09","qid":"Q815077"},"geometry":{"type":"Polygon","coordinates":[[[55.4588,-4.6181],[55.4473,-4.6208],[55.435,-4.6304],[55.4592,-4.6576],[55.4645,-4.6471],[55.4605,-4.6256],[55.4588,-4.6181]]]}},{"type":"Feature","id":"label-SYC-5206","properties":{"kind":"division-label","code":"SYC-5206","countryCode":"SYC","name":"Bel Air","localName":"Bel Air","labelEnglish":"Bel Air","labelLocal":"Bel Air","labelBoth":"Bel Air","type":null,"iso":"SC-09","qid":"Q815077"},"geometry":{"type":"Point","coordinates":[55.4483,-4.63198]}},{"type":"Feature","id":"SYC-5213","properties":{"kind":"division","code":"SYC-5213","countryCode":"SYC","name":"La Rivière Anglaise","localName":"La Rivière Anglaise","labelEnglish":"La Rivière Anglaise","labelLocal":"La Rivière Anglaise","labelBoth":"La Rivière Anglaise","type":null,"iso":"SC-16","qid":"Q1819963"},"geometry":{"type":"Polygon","coordinates":[[[55.4599,-4.5985],[55.4407,-4.6045],[55.4473,-4.6208],[55.4588,-4.6181],[55.4599,-4.5985]]]}},{"type":"Feature","id":"label-SYC-5213","properties":{"kind":"division-label","code":"SYC-5213","countryCode":"SYC","name":"La Rivière Anglaise","localName":"La Rivière Anglaise","labelEnglish":"La Rivière Anglaise","labelLocal":"La Rivière Anglaise","labelBoth":"La Rivière Anglaise","type":null,"iso":"SC-16","qid":"Q1819963"},"geometry":{"type":"Point","coordinates":[55.4533,-4.60746]}},{"type":"Feature","id":"SYC-5200","properties":{"kind":"division","code":"SYC-5200","countryCode":"SYC","name":"Anse Etoile","localName":"Anse Etoile","labelEnglish":"Anse Etoile","labelLocal":"Anse Etoile","labelBoth":"Anse Etoile","type":null,"iso":"SC-03","qid":"Q387293"},"geometry":{"type":"Polygon","coordinates":[[[55.4639,-4.5714],[55.4407,-4.587],[55.4407,-4.6045],[55.4599,-4.5985],[55.4639,-4.5714]]]}},{"type":"Feature","id":"label-SYC-5200","properties":{"kind":"division-label","code":"SYC-5200","countryCode":"SYC","name":"Anse Etoile","localName":"Anse Etoile","labelEnglish":"Anse Etoile","labelLocal":"Anse Etoile","labelBoth":"Anse Etoile","type":null,"iso":"SC-03","qid":"Q387293"},"geometry":{"type":"Point","coordinates":[55.4543,-4.58794]}},{"type":"Feature","id":"SYC-5209","properties":{"kind":"division","code":"SYC-5209","countryCode":"SYC","name":"Glacis","localName":"Glacis","labelEnglish":"Glacis","labelLocal":"Glacis","labelBoth":"Glacis","type":null,"iso":"SC-12","qid":"Q3241696"},"geometry":{"type":"Polygon","coordinates":[[[55.4327,-4.5869],[55.4407,-4.587],[55.4639,-4.5714],[55.4327,-4.5869]]]}},{"type":"Feature","id":"label-SYC-5209","properties":{"kind":"division-label","code":"SYC-5209","countryCode":"SYC","name":"Glacis","localName":"Glacis","labelEnglish":"Glacis","labelLocal":"Glacis","labelBoth":"Glacis","type":null,"iso":"SC-12","qid":"Q3241696"},"geometry":{"type":"Point","coordinates":[55.4433,-4.56942]}},{"type":"Feature","id":"SYC-5205","properties":{"kind":"division","code":"SYC-5205","countryCode":"SYC","name":"Beau Vallon","localName":"Beau Vallon","labelEnglish":"Beau Vallon","labelLocal":"Beau Vallon","labelBoth":"Beau Vallon","type":null,"iso":"SC-08","qid":"Q7479348"},"geometry":{"type":"Polygon","coordinates":[[[55.4144,-4.6128],[55.4315,-4.6238],[55.4385,-4.6151],[55.4407,-4.6045],[55.4407,-4.587],[55.4327,-4.5869],[55.4144,-4.6128]]]}},{"type":"Feature","id":"label-SYC-5205","properties":{"kind":"division-label","code":"SYC-5205","countryCode":"SYC","name":"Beau Vallon","localName":"Beau Vallon","labelEnglish":"Beau Vallon","labelLocal":"Beau Vallon","labelBoth":"Beau Vallon","type":null,"iso":"SC-08","qid":"Q7479348"},"geometry":{"type":"Point","coordinates":[55.4317,-4.60295]}},{"type":"Feature","id":"SYC-5207","properties":{"kind":"division","code":"SYC-5207","countryCode":"SYC","name":"Bel Ombre","localName":"Bel Ombre","labelEnglish":"Bel Ombre","labelLocal":"Bel Ombre","labelBoth":"Bel Ombre","type":null,"iso":"SC-10","qid":"Q3245439"},"geometry":{"type":"Polygon","coordinates":[[[55.3805,-4.6272],[55.4315,-4.6238],[55.4144,-4.6128],[55.3805,-4.6272]]]}},{"type":"Feature","id":"label-SYC-5207","properties":{"kind":"division-label","code":"SYC-5207","countryCode":"SYC","name":"Bel Ombre","localName":"Bel Ombre","labelEnglish":"Bel Ombre","labelLocal":"Bel Ombre","labelBoth":"Bel Ombre","type":null,"iso":"SC-10","qid":"Q3245439"},"geometry":{"type":"Point","coordinates":[55.4092,-4.62448]}},{"type":"Feature","id":"SYC-5218","properties":{"kind":"division","code":"SYC-5218","countryCode":"SYC","name":"Port Glaud","localName":"Port Glaud","labelEnglish":"Port Glaud","labelLocal":"Port Glaud","labelBoth":"Port Glaud","type":null,"iso":"SC-21","qid":"Q1808165"},"geometry":{"type":"Polygon","coordinates":[[[55.449,-4.6779],[55.4592,-4.6576],[55.435,-4.6304],[55.4315,-4.6238],[55.3805,-4.6272],[55.449,-4.6779]]]}},{"type":"Feature","id":"label-SYC-5218","properties":{"kind":"division-label","code":"SYC-5218","countryCode":"SYC","name":"Port Glaud","localName":"Port Glaud","labelEnglish":"Port Glaud","labelLocal":"Port Glaud","labelBoth":"Port Glaud","type":null,"iso":"SC-21","qid":"Q1808165"},"geometry":{"type":"Point","coordinates":[55.4262,-4.65351]}},{"type":"Feature","id":"SYC-5204","properties":{"kind":"division","code":"SYC-5204","countryCode":"SYC","name":"Baie Sainte Anne","localName":"Baie Sainte Anne","labelEnglish":"Baie Sainte Anne","labelLocal":"Baie Sainte Anne","labelBoth":"Baie Sainte Anne","type":null,"iso":"SC-07","qid":"Q803716"},"geometry":{"type":"Polygon","coordinates":[[[55.6828,-4.2944],[55.768,-4.3503],[55.7545,-4.3211],[55.6828,-4.2944]]]}},{"type":"Feature","id":"label-SYC-5204","properties":{"kind":"division-label","code":"SYC-5204","countryCode":"SYC","name":"Baie Sainte Anne","localName":"Baie Sainte Anne","labelEnglish":"Baie Sainte Anne","labelLocal":"Baie Sainte Anne","labelBoth":"Baie Sainte Anne","type":null,"iso":"SC-07","qid":"Q803716"},"geometry":{"type":"Point","coordinates":[55.76,-4.32918]}},{"type":"Feature","id":"SYC-5211","properties":{"kind":"division","code":"SYC-5211","countryCode":"SYC","name":"Grand'Anse Praslin","localName":"Grand'Anse Praslin","labelEnglish":"Grand'Anse Praslin","labelLocal":"Grand'Anse Praslin","labelBoth":"Grand'Anse Praslin","type":null,"iso":"SC-14","qid":"Q1231388"},"geometry":{"type":"Polygon","coordinates":[[[55.768,-4.3503],[55.6828,-4.2944],[55.692,-4.3263],[55.768,-4.3503]]]}},{"type":"Feature","id":"label-SYC-5211","properties":{"kind":"division-label","code":"SYC-5211","countryCode":"SYC","name":"Grand'Anse Praslin","localName":"Grand'Anse Praslin","labelEnglish":"Grand'Anse Praslin","labelLocal":"Grand'Anse Praslin","labelBoth":"Grand'Anse Praslin","type":null,"iso":"SC-14","qid":"Q1231388"},"geometry":{"type":"Point","coordinates":[55.7435,-4.34469]}},{"type":"Feature","id":"SYC-5214","properties":{"kind":"division","code":"SYC-5214","countryCode":"SYC","name":"Mont Buxton","localName":"Mont Buxton","labelEnglish":"Mont Buxton","labelLocal":"Mont Buxton","labelBoth":"Mont Buxton","type":null,"iso":"SC-17","qid":"Q3241682"},"geometry":{"type":"Polygon","coordinates":[[[55.4385,-4.6151],[55.4473,-4.6208],[55.4407,-4.6045],[55.4385,-4.6151]]]}},{"type":"Feature","id":"label-SYC-5214","properties":{"kind":"division-label","code":"SYC-5214","countryCode":"SYC","name":"Mont Buxton","localName":"Mont Buxton","labelEnglish":"Mont Buxton","labelLocal":"Mont Buxton","labelBoth":"Mont Buxton","type":null,"iso":"SC-17","qid":"Q3241682"},"geometry":{"type":"Point","coordinates":[55.4428,-4.61246]}},{"type":"Feature","id":"SYC-5219","properties":{"kind":"division","code":"SYC-5219","countryCode":"SYC","name":"Saint Louis","localName":"Saint Louis","labelEnglish":"Saint Louis","labelLocal":"Saint Louis","labelBoth":"Saint Louis","type":null,"iso":"SC-22","qid":"Q2278695"},"geometry":{"type":"Polygon","coordinates":[[[55.4315,-4.6238],[55.435,-4.6304],[55.4473,-4.6208],[55.4385,-4.6151],[55.4315,-4.6238]]]}},{"type":"Feature","id":"label-SYC-5219","properties":{"kind":"division-label","code":"SYC-5219","countryCode":"SYC","name":"Saint Louis","localName":"Saint Louis","labelEnglish":"Saint Louis","labelLocal":"Saint Louis","labelBoth":"Saint Louis","type":null,"iso":"SC-22","qid":"Q2278695"},"geometry":{"type":"Point","coordinates":[55.4388,-4.62247]}},{"type":"Feature","id":"SYC-5221","properties":{"kind":"division","code":"SYC-5221","countryCode":"SYC","name":"Les Mamelles","localName":"Les Mamelles","labelEnglish":"Les Mamelles","labelLocal":"Les Mamelles","labelBoth":"Les Mamelles","type":null,"iso":"SC-24","qid":"Q2280357"},"geometry":{"type":"Polygon","coordinates":[[[55.4775,-4.6651],[55.4827,-4.6623],[55.4895,-4.6585],[55.475,-4.6475],[55.4775,-4.6651]]]}},{"type":"Feature","id":"label-SYC-5221","properties":{"kind":"division-label","code":"SYC-5221","countryCode":"SYC","name":"Les Mamelles","localName":"Les Mamelles","labelEnglish":"Les Mamelles","labelLocal":"Les Mamelles","labelBoth":"Les Mamelles","type":null,"iso":"SC-24","qid":"Q2280357"},"geometry":{"type":"Point","coordinates":[55.4808,-4.65751]}}]}