{"type":"FeatureCollection","features":[{"type":"Feature","id":"SYR-5261","properties":{"kind":"division","code":"SYR-5261","countryCode":"SYR","name":"Western al-Samadania","localName":"Western al-Samadania","labelEnglish":"Western al-Samadania","labelLocal":"Western al-Samadania","labelBoth":"Western al-Samadania","type":null,"iso":"SY-X01~","qid":null},"geometry":{"type":"Polygon","coordinates":[[[35.7576,32.7443],[35.7697,32.7481],[35.8468,32.8358],[35.9238,32.9677],[35.843,33.3228],[35.8701,33.4312],[35.8451,33.4187],[35.8211,33.4067],[35.8881,32.9449],[35.7576,32.7443]]]}},{"type":"Feature","id":"label-SYR-5261","properties":{"kind":"division-label","code":"SYR-5261","countryCode":"SYR","name":"Western al-Samadania","localName":"Western al-Samadania","labelEnglish":"Western al-Samadania","labelLocal":"Western al-Samadania","labelBoth":"Western al-Samadania","type":null,"iso":"SY-X01~","qid":null},"geometry":{"type":"Point","coordinates":[35.8621,33.1509]}},{"type":"Feature","id":"SYR-139","properties":{"kind":"division","code":"SYR-139","countryCode":"SYR","name":"Homs","localName":"Homs","labelEnglish":"Homs","labelLocal":"Homs","labelBoth":"Homs","type":"Province","iso":"SY-HI","qid":"Q214094"},"geometry":{"type":"Polygon","coordinates":[[[36.1121,34.6295],[36.3299,34.4986],[36.6036,34.2001],[36.8701,34.2279],[37.2555,33.942],[37.648,33.5279],[38.3157,33.1312],[38.7745,33.3717],[40.1731,34.0723],[39.4445,34.9364],[39.242,35.2493],[38.3017,35.3823],[38.2326,35.0861],[37.986,34.8985],[37.7368,35.1186],[36.9728,34.8609],[36.8736,34.9783],[36.3132,34.9009],[36.1121,34.6295]]]}},{"type":"Feature","id":"label-SYR-139","properties":{"kind":"division-label","code":"SYR-139","countryCode":"SYR","name":"Homs","localName":"Homs","labelEnglish":"Homs","labelLocal":"Homs","labelBoth":"Homs","type":"Province","iso":"SY-HI","qid":"Q214094"},"geometry":{"type":"Point","coordinates":[38.1425,34.1503]}},{"type":"Feature","id":"SYR-135","properties":{"kind":"division","code":"SYR-135","countryCode":"SYR","name":"Tartus","localName":"Tartus","labelEnglish":"Tartus","labelLocal":"Tartus","labelBoth":"Tartus","type":"Province","iso":"SY-TA","qid":"Q232382"},"geometry":{"type":"Polygon","coordinates":[[[35.9699,34.6498],[36.1121,34.6295],[36.3132,34.9009],[36.144,34.9753],[36.253,35.2234],[35.9312,35.2615],[35.8669,34.9242],[35.9699,34.6498]]]}},{"type":"Feature","id":"label-SYR-135","properties":{"kind":"division-label","code":"SYR-135","countryCode":"SYR","name":"Tartus","localName":"Tartus","labelEnglish":"Tartus","labelLocal":"Tartus","labelBoth":"Tartus","type":"Province","iso":"SY-TA","qid":"Q232382"},"geometry":{"type":"Point","coordinates":[36.0901,34.9274]}},{"type":"Feature","id":"SYR-144","properties":{"kind":"division","code":"SYR-144","countryCode":"SYR","name":"Rif Dimashq","localName":"Rif Dimashq","labelEnglish":"Rif Dimashq","labelLocal":"Rif Dimashq","labelBoth":"Rif Dimashq","type":"Province","iso":"SY-RD","qid":"Q232399"},"geometry":{"type":"Polygon","coordinates":[[[36.6036,34.2001],[35.9216,33.6403],[35.8701,33.4312],[35.843,33.3228],[35.9617,33.2048],[36.5709,33.194],[36.8238,33.2247],[37.2642,32.9401],[37.4946,32.6901],[38.3157,33.1312],[37.648,33.5279],[37.2555,33.942],[36.8701,34.2279],[36.6036,34.2001]],[[36.3166,33.4607],[36.1907,33.5132],[36.3511,33.5439],[36.3166,33.4607]]]}},{"type":"Feature","id":"label-SYR-144","properties":{"kind":"division-label","code":"SYR-144","countryCode":"SYR","name":"Rif Dimashq","localName":"Rif Dimashq","labelEnglish":"Rif Dimashq","labelLocal":"Rif Dimashq","labelBoth":"Rif Dimashq","type":"Province","iso":"SY-RD","qid":"Q232399"},"geometry":{"type":"Point","coordinates":[37.0728,33.5286]}},{"type":"Feature","id":"SYR-141","properties":{"kind":"division","code":"SYR-141","countryCode":"SYR","name":"Al-Hasakah","localName":"Al-Hasakah","labelEnglish":"Al-Hasakah","labelLocal":"Al-Hasakah","labelBoth":"Al-Hasakah","type":"Province","iso":"SY-HA","qid":"Q233914"},"geometry":{"type":"Polygon","coordinates":[[[42.3572,37.11],[42.2112,37.3249],[41.8964,37.1543],[41.4798,37.0756],[40.709,37.1005],[40.2614,36.9228],[39.4417,36.6924],[39.8045,36.4637],[39.9007,36.3243],[40.775,35.6263],[41.3085,35.5522],[41.2406,36.043],[41.4149,36.5274],[41.8438,36.6179],[42.3768,37.062],[42.3572,37.11]]]}},{"type":"Feature","id":"label-SYR-141","properties":{"kind":"division-label","code":"SYR-141","countryCode":"SYR","name":"Al-Hasakah","localName":"Al-Hasakah","labelEnglish":"Al-Hasakah","labelLocal":"Al-Hasakah","labelBoth":"Al-Hasakah","type":"Province","iso":"SY-HA","qid":"Q233914"},"geometry":{"type":"Point","coordinates":[40.9092,36.3536]}},{"type":"Feature","id":"SYR-136","properties":{"kind":"division","code":"SYR-136","countryCode":"SYR","name":"Al-Raqqah","localName":"Al-Raqqah","labelEnglish":"Al-Raqqah","labelLocal":"Al-Raqqah","labelBoth":"Al-Raqqah","type":"Province","iso":"SY-RA","qid":"Q235563"},"geometry":{"type":"Polygon","coordinates":[[[39.4417,36.6924],[38.6352,36.744],[38.6314,36.4294],[38.066,36.1477],[38.1752,35.973],[38.0208,35.643],[38.2348,35.4359],[38.3017,35.3823],[39.242,35.2493],[39.6666,35.7576],[39.8045,36.4637],[39.4417,36.6924]]]}},{"type":"Feature","id":"label-SYR-136","properties":{"kind":"division-label","code":"SYR-136","countryCode":"SYR","name":"Al-Raqqah","localName":"Al-Raqqah","labelEnglish":"Al-Raqqah","labelLocal":"Al-Raqqah","labelBoth":"Al-Raqqah","type":"Province","iso":"SY-RA","qid":"Q235563"},"geometry":{"type":"Point","coordinates":[38.9127,36.0067]}},{"type":"Feature","id":"SYR-137","properties":{"kind":"division","code":"SYR-137","countryCode":"SYR","name":"Aleppo","localName":"Aleppo","labelEnglish":"Aleppo","labelLocal":"Aleppo","labelBoth":"Aleppo","type":"Province","iso":"SY-HL","qid":"Q214064"},"geometry":{"type":"Polygon","coordinates":[[[38.6352,36.744],[38.1901,36.9055],[38.026,36.835],[37.5221,36.6736],[37.0145,36.6423],[36.6596,36.8272],[36.5355,36.494],[36.6488,36.3057],[37.2164,35.5515],[37.8085,35.4349],[38.2348,35.4359],[38.0208,35.643],[38.1752,35.973],[38.066,36.1477],[38.6314,36.4294],[38.6352,36.744]]]}},{"type":"Feature","id":"label-SYR-137","properties":{"kind":"division-label","code":"SYR-137","countryCode":"SYR","name":"Aleppo","localName":"Aleppo","labelEnglish":"Aleppo","labelLocal":"Aleppo","labelBoth":"Aleppo","type":"Province","iso":"SY-HL","qid":"Q214064"},"geometry":{"type":"Point","coordinates":[37.601,36.1054]}},{"type":"Feature","id":"SYR-140","properties":{"kind":"division","code":"SYR-140","countryCode":"SYR","name":"Idlib","localName":"Idlib","labelEnglish":"Idlib","labelLocal":"Idlib","labelBoth":"Idlib","type":"Province","iso":"SY-ID","qid":"Q233218"},"geometry":{"type":"Polygon","coordinates":[[[36.6488,36.3057],[36.373,36.2276],[36.358,35.994],[36.1553,35.8222],[36.2548,35.7559],[36.4261,35.4366],[37.0251,35.3168],[37.2164,35.5515],[36.6488,36.3057]]]}},{"type":"Feature","id":"label-SYR-140","properties":{"kind":"division-label","code":"SYR-140","countryCode":"SYR","name":"Idlib","localName":"Idlib","labelEnglish":"Idlib","labelLocal":"Idlib","labelBoth":"Idlib","type":"Province","iso":"SY-ID","qid":"Q233218"},"geometry":{"type":"Point","coordinates":[36.6829,35.8528]}},{"type":"Feature","id":"SYR-134","properties":{"kind":"division","code":"SYR-134","countryCode":"SYR","name":"Latakia","localName":"Latakia","labelEnglish":"Latakia","labelLocal":"Latakia","labelBoth":"Latakia","type":"Province","iso":"SY-LA","qid":"Q233236"},"geometry":{"type":"Polygon","coordinates":[[[36.1553,35.8222],[35.9113,35.9178],[35.7371,35.5617],[35.9312,35.2615],[36.253,35.2234],[36.2548,35.7559],[36.1553,35.8222]]]}},{"type":"Feature","id":"label-SYR-134","properties":{"kind":"division-label","code":"SYR-134","countryCode":"SYR","name":"Latakia","localName":"Latakia","labelEnglish":"Latakia","labelLocal":"Latakia","labelBoth":"Latakia","type":"Province","iso":"SY-LA","qid":"Q233236"},"geometry":{"type":"Point","coordinates":[36.0061,35.5494]}},{"type":"Feature","id":"SYR-143","properties":{"kind":"division","code":"SYR-143","countryCode":"SYR","name":"As-Suwayda","localName":"As-Suwayda","labelEnglish":"As-Suwayda","labelLocal":"As-Suwayda","labelBoth":"As-Suwayda","type":"Province","iso":"SY-SU","qid":"Q236797"},"geometry":{"type":"Polygon","coordinates":[[[37.4946,32.6901],[37.2642,32.9401],[36.8238,33.2247],[36.5709,33.194],[36.3412,32.9439],[36.5167,32.357],[36.8194,32.3168],[37.4946,32.6901]]]}},{"type":"Feature","id":"label-SYR-143","properties":{"kind":"division-label","code":"SYR-143","countryCode":"SYR","name":"As-Suwayda","localName":"As-Suwayda","labelEnglish":"As-Suwayda","labelLocal":"As-Suwayda","labelBoth":"As-Suwayda","type":"Province","iso":"SY-SU","qid":"Q236797"},"geometry":{"type":"Point","coordinates":[36.9153,32.7577]}},{"type":"Feature","id":"SYR-146","properties":{"kind":"division","code":"SYR-146","countryCode":"SYR","name":"Daraa","localName":"Daraa","labelEnglish":"Daraa","labelLocal":"Daraa","labelBoth":"Daraa","type":"Province","iso":"SY-DR","qid":"Q1689560"},"geometry":{"type":"Polygon","coordinates":[[[35.7697,32.7481],[36.0819,32.5163],[36.5167,32.357],[36.3412,32.9439],[36.5709,33.194],[35.9617,33.2048],[35.9873,32.9507],[35.8468,32.8358],[35.7697,32.7481]]]}},{"type":"Feature","id":"label-SYR-146","properties":{"kind":"division-label","code":"SYR-146","countryCode":"SYR","name":"Daraa","localName":"Daraa","labelEnglish":"Daraa","labelLocal":"Daraa","labelBoth":"Daraa","type":"Province","iso":"SY-DR","qid":"Q1689560"},"geometry":{"type":"Point","coordinates":[36.1698,32.8686]}},{"type":"Feature","id":"SYR-142","properties":{"kind":"division","code":"SYR-142","countryCode":"SYR","name":"Deir ez-Zor","localName":"Deir ez-Zor","labelEnglish":"Deir ez-Zor","labelLocal":"Deir ez-Zor","labelBoth":"Deir ez-Zor","type":"Province","iso":"SY-DY","qid":"Q232387"},"geometry":{"type":"Polygon","coordinates":[[[41.3085,35.5522],[40.775,35.6263],[39.9007,36.3243],[39.8045,36.4637],[39.6666,35.7576],[39.242,35.2493],[39.4445,34.9364],[40.1731,34.0723],[40.988,34.4285],[41.1957,34.7685],[41.1923,35.1589],[41.3085,35.5522]]]}},{"type":"Feature","id":"label-SYR-142","properties":{"kind":"division-label","code":"SYR-142","countryCode":"SYR","name":"Deir ez-Zor","localName":"Deir ez-Zor","labelEnglish":"Deir ez-Zor","labelLocal":"Deir ez-Zor","labelBoth":"Deir ez-Zor","type":"Province","iso":"SY-DY","qid":"Q232387"},"geometry":{"type":"Point","coordinates":[40.275,35.0736]}},{"type":"Feature","id":"SYR-145","properties":{"kind":"division","code":"SYR-145","countryCode":"SYR","name":"Quneitra","localName":"Quneitra","labelEnglish":"Quneitra","labelLocal":"Quneitra","labelBoth":"Quneitra","type":"Province","iso":"SY-QU","qid":"Q219690"},"geometry":{"type":"Polygon","coordinates":[[[35.8468,32.8358],[35.9873,32.9507],[35.9617,33.2048],[35.843,33.3228],[35.9238,32.9677],[35.8468,32.8358]]]}},{"type":"Feature","id":"label-SYR-145","properties":{"kind":"division-label","code":"SYR-145","countryCode":"SYR","name":"Quneitra","localName":"Quneitra","labelEnglish":"Quneitra","labelLocal":"Quneitra","labelBoth":"Quneitra","type":"Province","iso":"SY-QU","qid":"Q219690"},"geometry":{"type":"Point","coordinates":[35.9145,33.053]}},{"type":"Feature","id":"SYR-138","properties":{"kind":"division","code":"SYR-138","countryCode":"SYR","name":"Hama","localName":"Hama","labelEnglish":"Hama","labelLocal":"Hama","labelBoth":"Hama","type":"Province","iso":"SY-HM","qid":"Q232355"},"geometry":{"type":"Polygon","coordinates":[[[37.2164,35.5515],[37.0251,35.3168],[36.4261,35.4366],[36.2548,35.7559],[36.253,35.2234],[36.144,34.9753],[36.3132,34.9009],[36.8736,34.9783],[36.9728,34.8609],[37.7368,35.1186],[37.986,34.8985],[38.2326,35.0861],[38.3017,35.3823],[38.2348,35.4359],[37.8085,35.4349],[37.2164,35.5515]]]}},{"type":"Feature","id":"label-SYR-138","properties":{"kind":"division-label","code":"SYR-138","countryCode":"SYR","name":"Hama","localName":"Hama","labelEnglish":"Hama","labelLocal":"Hama","labelBoth":"Hama","type":"Province","iso":"SY-HM","qid":"Q232355"},"geometry":{"type":"Point","coordinates":[37.22,35.2352]}},{"type":"Feature","id":"SYR-4843","properties":{"kind":"division","code":"SYR-4843","countryCode":"SYR","name":"Damascus","localName":"Damascus","labelEnglish":"Damascus","labelLocal":"Damascus","labelBoth":"Damascus","type":"Province","iso":"SY-DI","qid":"Q2007044"},"geometry":{"type":"Polygon","coordinates":[[[36.3166,33.4607],[36.3511,33.5439],[36.1907,33.5132],[36.3166,33.4607]]]}},{"type":"Feature","id":"label-SYR-4843","properties":{"kind":"division-label","code":"SYR-4843","countryCode":"SYR","name":"Damascus","localName":"Damascus","labelEnglish":"Damascus","labelLocal":"Damascus","labelBoth":"Damascus","type":"Province","iso":"SY-DI","qid":"Q2007044"},"geometry":{"type":"Point","coordinates":[36.2897,33.5101]}}]}