{"type":"FeatureCollection","features":[{"type":"Feature","id":"TCA-5005","properties":{"kind":"division","code":"TCA-5005","countryCode":"TCA","name":"Providenciales and West Caicos","localName":"Providenciales and West Caicos","labelEnglish":"Providenciales and West Caicos","labelLocal":"Providenciales and West Caicos","labelBoth":"Providenciales and West Caicos","type":null,"iso":"TC-X03~","qid":null},"geometry":{"type":"Polygon","coordinates":[[[-72.3372,21.801],[-72.245,21.7979],[-72.3304,21.8625],[-72.3372,21.801]]]}},{"type":"Feature","id":"label-TCA-5005","properties":{"kind":"division-label","code":"TCA-5005","countryCode":"TCA","name":"Providenciales and West Caicos","localName":"Providenciales and West Caicos","labelEnglish":"Providenciales and West Caicos","labelLocal":"Providenciales and West Caicos","labelBoth":"Providenciales and West Caicos","type":null,"iso":"TC-X03~","qid":null},"geometry":{"type":"Point","coordinates":[-72.2861,21.7987]}},{"type":"Feature","id":"TCA-5006","properties":{"kind":"division","code":"TCA-5006","countryCode":"TCA","name":"South Caicos and East Caicos","localName":"South Caicos and East Caicos","labelEnglish":"South Caicos and East Caicos","labelLocal":"South Caicos and East Caicos","labelBoth":"South Caicos and East Caicos","type":null,"iso":"TC-X04~","qid":null},"geometry":{"type":"Polygon","coordinates":[[[-71.508,21.7054],[-71.4809,21.7255],[-71.5763,21.7668],[-71.508,21.7054]]]}},{"type":"Feature","id":"label-TCA-5006","properties":{"kind":"division-label","code":"TCA-5006","countryCode":"TCA","name":"South Caicos and East Caicos","localName":"South Caicos and East Caicos","labelEnglish":"South Caicos and East Caicos","labelLocal":"South Caicos and East Caicos","labelBoth":"South Caicos and East Caicos","type":null,"iso":"TC-X04~","qid":null},"geometry":{"type":"Point","coordinates":[-71.4782,21.7034]}},{"type":"Feature","id":"TCA-5003","properties":{"kind":"division","code":"TCA-5003","countryCode":"TCA","name":"Middle Caicos","localName":"Middle Caicos","labelEnglish":"Middle Caicos","labelLocal":"Middle Caicos","labelBoth":"Middle Caicos","type":null,"iso":"TC-X01~","qid":null},"geometry":{"type":"Polygon","coordinates":[[[-71.8028,21.7879],[-71.6452,21.7464],[-71.6788,21.8419],[-71.8028,21.7879]]]}},{"type":"Feature","id":"label-TCA-5003","properties":{"kind":"division-label","code":"TCA-5003","countryCode":"TCA","name":"Middle Caicos","localName":"Middle Caicos","labelEnglish":"Middle Caicos","labelLocal":"Middle Caicos","labelBoth":"Middle Caicos","type":null,"iso":"TC-X01~","qid":null},"geometry":{"type":"Point","coordinates":[-71.7669,21.8196]}},{"type":"Feature","id":"TCA-5004","properties":{"kind":"division","code":"TCA-5004","countryCode":"TCA","name":"North Caicos","localName":"North Caicos","labelEnglish":"North Caicos","labelLocal":"North Caicos","labelBoth":"North Caicos","type":null,"iso":"TC-X02~","qid":null},"geometry":{"type":"Polygon","coordinates":[[[-72.022,21.9046],[-71.8773,21.8283],[-71.911,21.9484],[-72.022,21.9046]]]}},{"type":"Feature","id":"label-TCA-5004","properties":{"kind":"division-label","code":"TCA-5004","countryCode":"TCA","name":"North Caicos","localName":"North Caicos","labelEnglish":"North Caicos","labelLocal":"North Caicos","labelBoth":"North Caicos","type":null,"iso":"TC-X02~","qid":null},"geometry":{"type":"Point","coordinates":[-71.9298,21.8916]}},{"type":"Feature","id":"TCA-5007","properties":{"kind":"division","code":"TCA-5007","countryCode":"TCA","name":"Grand Turk","localName":"Grand Turk","labelEnglish":"Grand Turk","labelLocal":"Grand Turk","labelBoth":"Grand Turk","type":null,"iso":"TC-X05~","qid":null},"geometry":{"type":"Polygon","coordinates":[[[-71.1381,21.5136],[-71.151,21.4728],[-71.1336,21.4465],[-71.1381,21.5136]]]}},{"type":"Feature","id":"label-TCA-5007","properties":{"kind":"division-label","code":"TCA-5007","countryCode":"TCA","name":"Grand Turk","localName":"Grand Turk","labelEnglish":"Grand Turk","labelLocal":"Grand Turk","labelBoth":"Grand Turk","type":null,"iso":"TC-X05~","qid":null},"geometry":{"type":"Point","coordinates":[-71.137,21.4725]}},{"type":"Feature","id":"TCA-5008","properties":{"kind":"division","code":"TCA-5008","countryCode":"TCA","name":"Salt Cay","localName":"Salt Cay","labelEnglish":"Salt Cay","labelLocal":"Salt Cay","labelBoth":"Salt Cay","type":null,"iso":"TC-X06~","qid":null},"geometry":{"type":"Polygon","coordinates":[[[-71.2098,21.3414],[-71.2137,21.3106],[-71.1925,21.335],[-71.2098,21.3414]]]}},{"type":"Feature","id":"label-TCA-5008","properties":{"kind":"division-label","code":"TCA-5008","countryCode":"TCA","name":"Salt Cay","localName":"Salt Cay","labelEnglish":"Salt Cay","labelLocal":"Salt Cay","labelBoth":"Salt Cay","type":null,"iso":"TC-X06~","qid":null},"geometry":{"type":"Point","coordinates":[-71.2072,21.3295]}}]}