{"type":"FeatureCollection","features":[{"type":"Feature","id":"TCD-1466","properties":{"kind":"division","code":"TCD-1466","countryCode":"TCD","name":"Lac","localName":"Lac","labelEnglish":"Lac","labelLocal":"Lac","labelBoth":"Lac","type":"Prefecture","iso":"TD-LC","qid":"Q867869"},"geometry":{"type":"Polygon","coordinates":[[[14.0649,13.078],[14.481,13.0005],[14.9984,12.9998],[15.0043,13.2601],[15.2699,13.102],[15.2195,13.3614],[15.5601,13.2648],[15.3758,13.752],[14.7957,13.6712],[14.4774,14.1045],[13.9505,14.4661],[13.6081,14.5183],[13.4492,14.3801],[13.6073,13.7041],[14.0649,13.078]]]}},{"type":"Feature","id":"label-TCD-1466","properties":{"kind":"division-label","code":"TCD-1466","countryCode":"TCD","name":"Lac","localName":"Lac","labelEnglish":"Lac","labelLocal":"Lac","labelBoth":"Lac","type":"Prefecture","iso":"TD-LC","qid":"Q867869"},"geometry":{"type":"Point","coordinates":[14.6744,13.431]}},{"type":"Feature","id":"TCD-5582","properties":{"kind":"division","code":"TCD-5582","countryCode":"TCD","name":"Sila","localName":"Sila","labelEnglish":"Sila","labelLocal":"Sila","labelBoth":"Sila","type":"Prefecture","iso":"TD-SI","qid":"Q1149611"},"geometry":{"type":"Polygon","coordinates":[[[22.3647,10.9542],[22.8611,10.9192],[22.9148,11.3961],[22.6281,11.5098],[22.5371,11.6809],[22.6124,12.0728],[22.3728,12.4631],[22.4457,12.6111],[22.2049,12.7434],[21.936,12.6395],[21.8094,12.7937],[21.5745,12.882],[21.2375,12.6777],[20.8495,12.7186],[20.6759,13.0454],[20.2946,13.0923],[19.9903,12.9706],[20.1749,12.8043],[19.9155,12.4076],[19.82,12.087],[20.2725,12.0647],[21.0291,11.6496],[21.2614,11.5964],[21.8211,11.6981],[22.0826,11.5948],[22.3647,10.9542]]]}},{"type":"Feature","id":"label-TCD-5582","properties":{"kind":"division-label","code":"TCD-5582","countryCode":"TCD","name":"Sila","localName":"Sila","labelEnglish":"Sila","labelLocal":"Sila","labelBoth":"Sila","type":"Prefecture","iso":"TD-SI","qid":"Q1149611"},"geometry":{"type":"Point","coordinates":[21.1347,12.2336]}},{"type":"Feature","id":"TCD-1489","properties":{"kind":"division","code":"TCD-1489","countryCode":"TCD","name":"Salamat","localName":"Salamat","labelEnglish":"Salamat","labelLocal":"Salamat","labelBoth":"Salamat","type":"Prefecture","iso":"TD-SA","qid":"Q385584"},"geometry":{"type":"Polygon","coordinates":[[[22.3647,10.9542],[22.0826,11.5948],[21.8211,11.6981],[21.2614,11.5964],[21.0291,11.6496],[20.2725,12.0647],[19.82,12.087],[19.3896,12.1589],[19.2192,11.9994],[19.2858,11.845],[19.0526,11.6167],[18.8651,11.6798],[18.8575,11.3504],[19.633,10.989],[19.6584,10.6185],[19.5761,10.0645],[19.9321,9.0633],[20.4352,9.1381],[20.5418,9.3216],[20.8139,9.4188],[21.0174,9.7436],[21.3395,9.9599],[21.7511,10.4118],[21.7226,10.6367],[22.3647,10.9542]]]}},{"type":"Feature","id":"label-TCD-1489","properties":{"kind":"division-label","code":"TCD-1489","countryCode":"TCD","name":"Salamat","localName":"Salamat","labelEnglish":"Salamat","labelLocal":"Salamat","labelBoth":"Salamat","type":"Prefecture","iso":"TD-SA","qid":"Q385584"},"geometry":{"type":"Point","coordinates":[20.6054,10.5811]}},{"type":"Feature","id":"TCD-5583","properties":{"kind":"division","code":"TCD-5583","countryCode":"TCD","name":"Moyen-Chari","localName":"Moyen-Chari","labelEnglish":"Moyen-Chari","labelLocal":"Moyen-Chari","labelBoth":"Moyen-Chari","type":"Prefecture","iso":"TD-MC","qid":"Q177799"},"geometry":{"type":"Polygon","coordinates":[[[19.9321,9.0633],[19.5761,10.0645],[19.6584,10.6185],[19.3368,10.4196],[18.9989,10.007],[18.7664,9.8925],[18.4455,10.1849],[17.8272,10.4739],[17.5337,10.4637],[17.3295,9.8158],[17.5365,9.5871],[17.7952,9.2913],[18.1417,9.188],[17.9675,9.0074],[18.1754,8.022],[18.5893,8.0479],[19.0723,8.6319],[18.8697,8.8641],[19.1006,9.0153],[19.9321,9.0633]]]}},{"type":"Feature","id":"label-TCD-5583","properties":{"kind":"division-label","code":"TCD-5583","countryCode":"TCD","name":"Moyen-Chari","localName":"Moyen-Chari","labelEnglish":"Moyen-Chari","labelLocal":"Moyen-Chari","labelBoth":"Moyen-Chari","type":"Prefecture","iso":"TD-MC","qid":"Q177799"},"geometry":{"type":"Point","coordinates":[18.4827,9.0852]}},{"type":"Feature","id":"TCD-1488","properties":{"kind":"division","code":"TCD-1488","countryCode":"TCD","name":"Mandoul","localName":"Mandoul","labelEnglish":"Mandoul","labelLocal":"Mandoul","labelBoth":"Mandoul","type":"Prefecture","iso":"TD-MA","qid":"Q597410"},"geometry":{"type":"Polygon","coordinates":[[[18.1754,8.022],[17.9675,9.0074],[18.1417,9.188],[17.7952,9.2913],[17.5365,9.5871],[17.1989,9.5609],[17.072,9.2755],[17.1048,9.0698],[17.0335,8.6327],[17.2495,8.2906],[17.0909,8.1204],[17.2338,7.8108],[17.6798,7.9852],[18.1754,8.022]]]}},{"type":"Feature","id":"label-TCD-1488","properties":{"kind":"division-label","code":"TCD-1488","countryCode":"TCD","name":"Mandoul","localName":"Mandoul","labelEnglish":"Mandoul","labelLocal":"Mandoul","labelBoth":"Mandoul","type":"Prefecture","iso":"TD-MA","qid":"Q597410"},"geometry":{"type":"Point","coordinates":[17.5493,8.67832]}},{"type":"Feature","id":"TCD-1485","properties":{"kind":"division","code":"TCD-1485","countryCode":"TCD","name":"Logone Oriental","localName":"Logone Oriental","labelEnglish":"Logone Oriental","labelLocal":"Logone Oriental","labelBoth":"Logone Oriental","type":"Prefecture","iso":"TD-LR","qid":"Q167514"},"geometry":{"type":"Polygon","coordinates":[[[17.2338,7.8108],[17.0909,8.1204],[17.2495,8.2906],[17.0335,8.6327],[17.1048,9.0698],[16.4354,9.1276],[16.5971,8.8811],[16.365,8.6486],[16.1452,8.5975],[15.8186,8.319],[15.5765,8.2576],[15.2732,8.4486],[15.2107,8.4218],[15.4407,7.8394],[15.5629,7.7924],[15.481,7.5233],[15.7939,7.458],[16.3708,7.6725],[16.5487,7.87],[16.8151,7.5495],[17.2338,7.8108]]]}},{"type":"Feature","id":"label-TCD-1485","properties":{"kind":"division-label","code":"TCD-1485","countryCode":"TCD","name":"Logone Oriental","localName":"Logone Oriental","labelEnglish":"Logone Oriental","labelLocal":"Logone Oriental","labelBoth":"Logone Oriental","type":"Prefecture","iso":"TD-LR","qid":"Q167514"},"geometry":{"type":"Point","coordinates":[16.23,8.12559]}},{"type":"Feature","id":"TCD-1464","properties":{"kind":"division","code":"TCD-1464","countryCode":"TCD","name":"Hadjer-Lamis","localName":"Hadjer-Lamis","labelEnglish":"Hadjer-Lamis","labelLocal":"Hadjer-Lamis","labelBoth":"Hadjer-Lamis","type":"Prefecture","iso":"TD-HL","qid":"Q1042437"},"geometry":{"type":"Polygon","coordinates":[[[14.481,13.0005],[14.5849,12.7464],[14.8192,12.6388],[14.9049,12.2487],[15.9785,12.3714],[16.0602,12.4633],[16.6423,12.2284],[16.7852,11.7383],[17.2652,11.4932],[17.6256,11.7151],[17.5601,12.1556],[17.4021,12.1917],[17.2575,12.5155],[16.947,12.9],[17.1317,13.144],[16.9973,13.1821],[16.4478,13.051],[16,13.0476],[15.8836,13.1879],[15.5601,13.2648],[15.2195,13.3614],[15.2699,13.102],[15.0043,13.2601],[14.9984,12.9998],[14.481,13.0005]]]}},{"type":"Feature","id":"label-TCD-1464","properties":{"kind":"division-label","code":"TCD-1464","countryCode":"TCD","name":"Hadjer-Lamis","localName":"Hadjer-Lamis","labelEnglish":"Hadjer-Lamis","labelLocal":"Hadjer-Lamis","labelBoth":"Hadjer-Lamis","type":"Prefecture","iso":"TD-HL","qid":"Q1042437"},"geometry":{"type":"Point","coordinates":[15.8235,12.7695]}},{"type":"Feature","id":"TCD-5580","properties":{"kind":"division","code":"TCD-5580","countryCode":"TCD","name":"Chari-Baguirmi","localName":"Chari-Baguirmi","labelEnglish":"Chari-Baguirmi","labelLocal":"Chari-Baguirmi","labelBoth":"Chari-Baguirmi","type":"Prefecture","iso":"TD-CB","qid":"Q843975"},"geometry":{"type":"Polygon","coordinates":[[[14.9049,12.2487],[15.0118,12.1086],[15.0362,12.1745],[15.1225,12.0906],[15.0406,12.0556],[15.1356,11.5308],[15.0288,11.0802],[15.2313,11.1845],[15.4321,11.1163],[15.7456,10.8112],[16.1392,10.7344],[16.1265,10.315],[16.2194,10.1959],[16.5622,10.2508],[16.6441,10.0859],[17.3295,9.8158],[17.5337,10.4637],[17.2958,10.5844],[17.2652,11.4932],[16.7852,11.7383],[16.6423,12.2284],[16.0602,12.4633],[15.9785,12.3714],[14.9049,12.2487]]]}},{"type":"Feature","id":"label-TCD-5580","properties":{"kind":"division-label","code":"TCD-5580","countryCode":"TCD","name":"Chari-Baguirmi","localName":"Chari-Baguirmi","labelEnglish":"Chari-Baguirmi","labelLocal":"Chari-Baguirmi","labelBoth":"Chari-Baguirmi","type":"Prefecture","iso":"TD-CB","qid":"Q843975"},"geometry":{"type":"Point","coordinates":[16.2095,11.468]}},{"type":"Feature","id":"TCD-4857","properties":{"kind":"division","code":"TCD-4857","countryCode":"TCD","name":"N'Djamena","localName":"N'Djamena","labelEnglish":"N'Djamena","labelLocal":"N'Djamena","labelBoth":"N'Djamena","type":"Capital","iso":"TD-ND","qid":"Q3659"},"geometry":{"type":"Polygon","coordinates":[[[15.0406,12.0556],[15.1225,12.0906],[15.0362,12.1745],[15.0118,12.1086],[15.0406,12.0556]]]}},{"type":"Feature","id":"label-TCD-4857","properties":{"kind":"division-label","code":"TCD-4857","countryCode":"TCD","name":"N'Djamena","localName":"N'Djamena","labelEnglish":"N'Djamena","labelLocal":"N'Djamena","labelBoth":"N'Djamena","type":"Capital","iso":"TD-ND","qid":"Q3659"},"geometry":{"type":"Point","coordinates":[15.0579,12.1413]}},{"type":"Feature","id":"TCD-1486","properties":{"kind":"division","code":"TCD-1486","countryCode":"TCD","name":"Mayo-Kebbi Est","localName":"Mayo-Kebbi Est","labelEnglish":"Mayo-Kebbi Est","labelLocal":"Mayo-Kebbi Est","labelBoth":"Mayo-Kebbi Est","type":"Prefecture","iso":"TD-ME","qid":"Q911421"},"geometry":{"type":"Polygon","coordinates":[[[15.0288,11.0802],[15.0659,10.7931],[15.3014,10.3117],[15.6812,9.9913],[14.7325,9.9238],[14.7375,9.6658],[15.0265,9.6416],[15.0896,9.3944],[15.4383,9.1868],[15.8307,9.7413],[15.9739,9.6832],[16.2115,9.9552],[16.2194,10.1959],[16.1265,10.315],[16.1392,10.7344],[15.7456,10.8112],[15.4321,11.1163],[15.2313,11.1845],[15.0288,11.0802]]]}},{"type":"Feature","id":"label-TCD-1486","properties":{"kind":"division-label","code":"TCD-1486","countryCode":"TCD","name":"Mayo-Kebbi Est","localName":"Mayo-Kebbi Est","labelEnglish":"Mayo-Kebbi Est","labelLocal":"Mayo-Kebbi Est","labelBoth":"Mayo-Kebbi Est","type":"Prefecture","iso":"TD-ME","qid":"Q911421"},"geometry":{"type":"Point","coordinates":[15.4373,9.71626]}},{"type":"Feature","id":"TCD-4858","properties":{"kind":"division","code":"TCD-4858","countryCode":"TCD","name":"Mayo-Kebbi Ouest","localName":"Mayo-Kebbi Ouest","labelEnglish":"Mayo-Kebbi Ouest","labelLocal":"Mayo-Kebbi Ouest","labelBoth":"Mayo-Kebbi Ouest","type":"Prefecture","iso":"TD-MO","qid":"Q910393"},"geometry":{"type":"Polygon","coordinates":[[[14.7325,9.9238],[14.1963,9.9791],[13.9476,9.6378],[14.3495,9.1684],[15.2107,8.4218],[15.2732,8.4486],[15.4639,9.0267],[15.4383,9.1868],[15.0896,9.3944],[15.0265,9.6416],[14.7375,9.6658],[14.7325,9.9238]]]}},{"type":"Feature","id":"label-TCD-4858","properties":{"kind":"division-label","code":"TCD-4858","countryCode":"TCD","name":"Mayo-Kebbi Ouest","localName":"Mayo-Kebbi Ouest","labelEnglish":"Mayo-Kebbi Ouest","labelLocal":"Mayo-Kebbi Ouest","labelBoth":"Mayo-Kebbi Ouest","type":"Prefecture","iso":"TD-MO","qid":"Q910393"},"geometry":{"type":"Point","coordinates":[14.7357,9.26179]}},{"type":"Feature","id":"TCD-5579","properties":{"kind":"division","code":"TCD-5579","countryCode":"TCD","name":"Ennedi","localName":"Ennedi","labelEnglish":"Ennedi","labelLocal":"Ennedi","labelBoth":"Ennedi","type":"Préfecture","iso":"TD-X01~","qid":"Q748093"},"geometry":{"type":"Polygon","coordinates":[[[20.8933,21.0209],[20.0043,19.2795],[20.1526,18.6864],[20.4244,17.9697],[20.3997,17.1788],[20.3009,16.7587],[20.637,15.8437],[20.4835,15.7116],[20.8329,15.7994],[21.0915,15.9838],[21.2934,15.8901],[21.7626,15.9982],[22.1813,15.9984],[22.5445,15.8152],[23.0696,15.7848],[23.1192,15.7072],[23.9844,15.7219],[23.9828,17.8702],[23.9813,19.4961],[22.2521,20.3501],[20.8933,21.0209]]]}},{"type":"Feature","id":"label-TCD-5579","properties":{"kind":"division-label","code":"TCD-5579","countryCode":"TCD","name":"Ennedi","localName":"Ennedi","labelEnglish":"Ennedi","labelLocal":"Ennedi","labelBoth":"Ennedi","type":"Préfecture","iso":"TD-X01~","qid":"Q748093"},"geometry":{"type":"Point","coordinates":[22.1045,18.1286]}},{"type":"Feature","id":"TCD-5577","properties":{"kind":"division","code":"TCD-5577","countryCode":"TCD","name":"Borkou","localName":"Borkou","labelEnglish":"Borkou","labelLocal":"Borkou","labelBoth":"Borkou","type":"Préfecture","iso":"TD-BO","qid":"Q1139666"},"geometry":{"type":"Polygon","coordinates":[[[19.1858,21.8642],[18.9171,21.9968],[18.7191,21.8498],[18.7438,21.1331],[18.1507,20.9354],[17.8294,20.713],[17.4093,20.6882],[17.3598,20.4164],[16.2714,18.4999],[15.4902,17.1245],[15.4685,16.9049],[16.6714,16.3419],[17.8428,15.7925],[17.9929,15.6164],[18.48,15.3839],[18.9354,15.522],[19.1304,15.7307],[19.215,16.1733],[19.555,15.8864],[20.0001,15.7838],[20.4835,15.7116],[20.637,15.8437],[20.3009,16.7587],[20.3997,17.1788],[20.4244,17.9697],[20.1526,18.6864],[20.0043,19.2795],[20.8933,21.0209],[19.1858,21.8642]]]}},{"type":"Feature","id":"label-TCD-5577","properties":{"kind":"division-label","code":"TCD-5577","countryCode":"TCD","name":"Borkou","localName":"Borkou","labelEnglish":"Borkou","labelLocal":"Borkou","labelBoth":"Borkou","type":"Préfecture","iso":"TD-BO","qid":"Q1139666"},"geometry":{"type":"Point","coordinates":[19.4819,18.8249]}},{"type":"Feature","id":"TCD-5578","properties":{"kind":"division","code":"TCD-5578","countryCode":"TCD","name":"Tibesti","localName":"Tibesti","labelEnglish":"Tibesti","labelLocal":"Tibesti","labelBoth":"Tibesti","type":"Préfecture","iso":"TD-TI","qid":"Q737711"},"geometry":{"type":"Polygon","coordinates":[[[18.9171,21.9968],[17.4348,22.7288],[15.9851,23.4447],[14.9799,22.9957],[15.172,21.9934],[15.1804,21.5073],[15.6093,20.9507],[15.5442,20.799],[15.954,20.3746],[15.736,19.9035],[15.5677,18],[15.4902,17.1245],[16.2714,18.4999],[17.3598,20.4164],[17.4093,20.6882],[17.8294,20.713],[18.1507,20.9354],[18.7438,21.1331],[18.7191,21.8498],[18.9171,21.9968]]]}},{"type":"Feature","id":"label-TCD-5578","properties":{"kind":"division-label","code":"TCD-5578","countryCode":"TCD","name":"Tibesti","localName":"Tibesti","labelEnglish":"Tibesti","labelLocal":"Tibesti","labelBoth":"Tibesti","type":"Préfecture","iso":"TD-TI","qid":"Q737711"},"geometry":{"type":"Point","coordinates":[16.6178,21.4716]}},{"type":"Feature","id":"TCD-1465","properties":{"kind":"division","code":"TCD-1465","countryCode":"TCD","name":"Kanem","localName":"Kanem","labelEnglish":"Kanem","labelLocal":"Kanem","labelBoth":"Kanem","type":"Prefecture","iso":"TD-KA","qid":"Q849841"},"geometry":{"type":"Polygon","coordinates":[[[13.6081,14.5183],[13.9505,14.4661],[14.4774,14.1045],[14.7957,13.6712],[15.3758,13.752],[15.5601,13.2648],[15.8836,13.1879],[15.8418,13.7658],[15.6007,13.7539],[15.5905,14.0767],[15.7743,14.1482],[16.1113,14.5771],[16.1317,14.812],[16.4891,16.0374],[16.6714,16.3419],[15.4685,16.9049],[14.369,15.7496],[13.8339,15.0196],[13.6081,14.5183]]]}},{"type":"Feature","id":"label-TCD-1465","properties":{"kind":"division-label","code":"TCD-1465","countryCode":"TCD","name":"Kanem","localName":"Kanem","labelEnglish":"Kanem","labelLocal":"Kanem","labelBoth":"Kanem","type":"Prefecture","iso":"TD-KA","qid":"Q849841"},"geometry":{"type":"Point","coordinates":[15.8001,15.2641]}},{"type":"Feature","id":"TCD-1475","properties":{"kind":"division","code":"TCD-1475","countryCode":"TCD","name":"Ouaddaï","localName":"Ouaddaï","labelEnglish":"Ouaddaï","labelLocal":"Ouaddaï","labelBoth":"Ouaddaï","type":"Prefecture","iso":"TD-OD","qid":"Q841338"},"geometry":{"type":"Polygon","coordinates":[[[22.1808,13.9206],[21.7023,14.1109],[21.1682,14.1015],[20.8442,14.355],[20.5588,14.469],[20.288,14.4414],[20.0001,14.156],[20.2385,13.8862],[20.2946,13.0923],[20.6759,13.0454],[20.8495,12.7186],[21.2375,12.6777],[21.5745,12.882],[21.8094,12.7937],[21.9351,13.0592],[22.2676,13.3346],[22.0737,13.7714],[22.1808,13.9206]]]}},{"type":"Feature","id":"label-TCD-1475","properties":{"kind":"division-label","code":"TCD-1475","countryCode":"TCD","name":"Ouaddaï","localName":"Ouaddaï","labelEnglish":"Ouaddaï","labelLocal":"Ouaddaï","labelBoth":"Ouaddaï","type":"Prefecture","iso":"TD-OD","qid":"Q841338"},"geometry":{"type":"Point","coordinates":[21.1068,13.4714]}},{"type":"Feature","id":"TCD-1473","properties":{"kind":"division","code":"TCD-1473","countryCode":"TCD","name":"Wadi Fira","localName":"Wadi Fira","labelEnglish":"Wadi Fira","labelLocal":"Wadi Fira","labelBoth":"Wadi Fira","type":"Prefecture","iso":"TD-WF","qid":"Q860813"},"geometry":{"type":"Polygon","coordinates":[[[23.1192,15.7072],[23.0696,15.7848],[22.5445,15.8152],[22.1813,15.9984],[21.7626,15.9982],[21.2934,15.8901],[21.0915,15.9838],[20.8329,15.7994],[20.4835,15.7116],[20.0001,15.7838],[20.0001,14.156],[20.288,14.4414],[20.5588,14.469],[20.8442,14.355],[21.1682,14.1015],[21.7023,14.1109],[22.1808,13.9206],[22.5315,14.1226],[22.3635,14.5435],[22.6663,14.6817],[22.7389,14.9798],[22.9657,15.2239],[22.9257,15.5639],[23.1192,15.7072]]]}},{"type":"Feature","id":"label-TCD-1473","properties":{"kind":"division-label","code":"TCD-1473","countryCode":"TCD","name":"Wadi Fira","localName":"Wadi Fira","labelEnglish":"Wadi Fira","labelLocal":"Wadi Fira","labelBoth":"Wadi Fira","type":"Prefecture","iso":"TD-WF","qid":"Q860813"},"geometry":{"type":"Point","coordinates":[21.5596,15.0457]}},{"type":"Feature","id":"TCD-5581","properties":{"kind":"division","code":"TCD-5581","countryCode":"TCD","name":"Bahr el Gazel","localName":"Bahr el Gazel","labelEnglish":"Bahr el Gazel","labelLocal":"Bahr el Gazel","labelBoth":"Bahr el Gazel","type":"Prefecture","iso":"TD-BG","qid":"Q1050621"},"geometry":{"type":"Polygon","coordinates":[[[15.8836,13.1879],[16,13.0476],[16.4478,13.051],[16.9973,13.1821],[17.1317,13.144],[17.2496,13.7277],[17.5514,13.8201],[17.9929,15.6164],[17.8428,15.7925],[16.6714,16.3419],[16.4891,16.0374],[16.1317,14.812],[16.1113,14.5771],[15.7743,14.1482],[15.5905,14.0767],[15.6007,13.7539],[15.8418,13.7658],[15.8836,13.1879]]]}},{"type":"Feature","id":"label-TCD-5581","properties":{"kind":"division-label","code":"TCD-5581","countryCode":"TCD","name":"Bahr el Gazel","localName":"Bahr el Gazel","labelEnglish":"Bahr el Gazel","labelLocal":"Bahr el Gazel","labelBoth":"Bahr el Gazel","type":"Prefecture","iso":"TD-BG","qid":"Q1050621"},"geometry":{"type":"Point","coordinates":[16.9496,14.5304]}},{"type":"Feature","id":"TCD-1487","properties":{"kind":"division","code":"TCD-1487","countryCode":"TCD","name":"Tandjilé","localName":"Tandjilé","labelEnglish":"Tandjilé","labelLocal":"Tandjilé","labelBoth":"Tandjilé","type":"Prefecture","iso":"TD-TA","qid":"Q867856"},"geometry":{"type":"Polygon","coordinates":[[[16.4354,9.1276],[17.1048,9.0698],[17.072,9.2755],[17.1989,9.5609],[17.5365,9.5871],[17.3295,9.8158],[16.6441,10.0859],[16.5622,10.2508],[16.2194,10.1959],[16.2115,9.9552],[15.9739,9.6832],[15.8307,9.7413],[15.4383,9.1868],[15.4639,9.0267],[16.1414,9.0883],[16.371,9.2376],[16.4354,9.1276]]]}},{"type":"Feature","id":"label-TCD-1487","properties":{"kind":"division-label","code":"TCD-1487","countryCode":"TCD","name":"Tandjilé","localName":"Tandjilé","labelEnglish":"Tandjilé","labelLocal":"Tandjilé","labelBoth":"Tandjilé","type":"Prefecture","iso":"TD-TA","qid":"Q867856"},"geometry":{"type":"Point","coordinates":[16.4994,9.67051]}},{"type":"Feature","id":"TCD-1484","properties":{"kind":"division","code":"TCD-1484","countryCode":"TCD","name":"Logone Occidental","localName":"Logone Occidental","labelEnglish":"Logone Occidental","labelLocal":"Logone Occidental","labelBoth":"Logone Occidental","type":"Prefecture","iso":"TD-LO","qid":"Q305257"},"geometry":{"type":"Polygon","coordinates":[[[16.4354,9.1276],[16.371,9.2376],[16.1414,9.0883],[15.4639,9.0267],[15.2732,8.4486],[15.5765,8.2576],[15.8186,8.319],[16.1452,8.5975],[16.365,8.6486],[16.5971,8.8811],[16.4354,9.1276]]]}},{"type":"Feature","id":"label-TCD-1484","properties":{"kind":"division-label","code":"TCD-1484","countryCode":"TCD","name":"Logone Occidental","localName":"Logone Occidental","labelEnglish":"Logone Occidental","labelLocal":"Logone Occidental","labelBoth":"Logone Occidental","type":"Prefecture","iso":"TD-LO","qid":"Q305257"},"geometry":{"type":"Point","coordinates":[15.9306,8.77035]}},{"type":"Feature","id":"TCD-1474","properties":{"kind":"division","code":"TCD-1474","countryCode":"TCD","name":"Guéra","localName":"Guéra","labelEnglish":"Guéra","labelLocal":"Guéra","labelBoth":"Guéra","type":"Prefecture","iso":"TD-GR","qid":"Q175706"},"geometry":{"type":"Polygon","coordinates":[[[17.2652,11.4932],[17.2958,10.5844],[17.5337,10.4637],[17.8272,10.4739],[18.4455,10.1849],[18.7664,9.8925],[18.9989,10.007],[19.3368,10.4196],[19.6584,10.6185],[19.633,10.989],[18.8575,11.3504],[18.8651,11.6798],[19.0526,11.6167],[19.2858,11.845],[19.2192,11.9994],[19.3896,12.1589],[19.82,12.087],[19.9155,12.4076],[20.1749,12.8043],[19.9903,12.9706],[19.7057,13.0556],[19.0814,12.7479],[18.4727,12.7706],[17.8259,12.4572],[17.5601,12.1556],[17.6256,11.7151],[17.2652,11.4932]]]}},{"type":"Feature","id":"label-TCD-1474","properties":{"kind":"division-label","code":"TCD-1474","countryCode":"TCD","name":"Guéra","localName":"Guéra","labelEnglish":"Guéra","labelLocal":"Guéra","labelBoth":"Guéra","type":"Prefecture","iso":"TD-GR","qid":"Q175706"},"geometry":{"type":"Point","coordinates":[18.0946,11.3122]}},{"type":"Feature","id":"TCD-1472","properties":{"kind":"division","code":"TCD-1472","countryCode":"TCD","name":"Batha","localName":"Batha","labelEnglish":"Batha","labelLocal":"Batha","labelBoth":"Batha","type":"Prefecture","iso":"TD-BA","qid":"Q180414"},"geometry":{"type":"Polygon","coordinates":[[[17.1317,13.144],[16.947,12.9],[17.2575,12.5155],[17.4021,12.1917],[17.5601,12.1556],[17.8259,12.4572],[18.4727,12.7706],[19.0814,12.7479],[19.7057,13.0556],[19.9903,12.9706],[20.2946,13.0923],[20.2385,13.8862],[20.0001,14.156],[20.0001,15.7838],[19.555,15.8864],[19.215,16.1733],[19.1304,15.7307],[18.9354,15.522],[18.48,15.3839],[17.9929,15.6164],[17.5514,13.8201],[17.2496,13.7277],[17.1317,13.144]]]}},{"type":"Feature","id":"label-TCD-1472","properties":{"kind":"division-label","code":"TCD-1472","countryCode":"TCD","name":"Batha","localName":"Batha","labelEnglish":"Batha","labelLocal":"Batha","labelBoth":"Batha","type":"Prefecture","iso":"TD-BA","qid":"Q180414"},"geometry":{"type":"Point","coordinates":[18.6222,14.0823]}}]}