{"type":"FeatureCollection","features":[{"type":"Feature","id":"TGO-90","properties":{"kind":"division","code":"TGO-90","countryCode":"TGO","name":"Savanes","localName":"Savanes","labelEnglish":"Savanes","labelLocal":"Savanes","labelBoth":"Savanes","type":"Region","iso":"TG-S","qid":"Q279945"},"geometry":{"type":"Polygon","coordinates":[[[-0.1661,11.135],[0.0162,11.0626],[-0.0916,10.7003],[0.177,10.3977],[0.3966,10.2832],[0.3946,10.0356],[0.6791,9.8783],[0.7369,10.1699],[0.9971,10.2165],[0.7688,10.3671],[0.7813,10.693],[0.9015,10.9927],[0.4876,10.9332],[0.3748,11.0258],[-0.1151,11.1247],[-0.1661,11.135]]]}},{"type":"Feature","id":"label-TGO-90","properties":{"kind":"division-label","code":"TGO-90","countryCode":"TGO","name":"Savanes","localName":"Savanes","labelEnglish":"Savanes","labelLocal":"Savanes","labelBoth":"Savanes","type":"Region","iso":"TG-S","qid":"Q279945"},"geometry":{"type":"Point","coordinates":[0.415303,10.5136]}},{"type":"Feature","id":"TGO-88","properties":{"kind":"division","code":"TGO-88","countryCode":"TGO","name":"Kara","localName":"Kara","labelEnglish":"Kara","labelLocal":"Kara","labelBoth":"Kara","type":"Region","iso":"TG-K","qid":"Q316216"},"geometry":{"type":"Polygon","coordinates":[[[0.3946,10.0356],[0.2302,9.5757],[0.5314,9.4011],[0.4313,9.0276],[0.4836,8.835],[0.727,9.046],[0.9966,9.062],[1.0007,9.2058],[1.4201,9.2923],[1.3439,9.9548],[0.9971,10.2165],[0.7369,10.1699],[0.6791,9.8783],[0.3946,10.0356]]]}},{"type":"Feature","id":"label-TGO-88","properties":{"kind":"division-label","code":"TGO-88","countryCode":"TGO","name":"Kara","localName":"Kara","labelEnglish":"Kara","labelLocal":"Kara","labelBoth":"Kara","type":"Region","iso":"TG-K","qid":"Q316216"},"geometry":{"type":"Point","coordinates":[0.821351,9.58879]}},{"type":"Feature","id":"TGO-89","properties":{"kind":"division","code":"TGO-89","countryCode":"TGO","name":"Centre","localName":"Centre","labelEnglish":"Centre","labelLocal":"Centre","labelBoth":"Centre","type":"Region","iso":"TG-C","qid":"Q515655"},"geometry":{"type":"Polygon","coordinates":[[[0.4836,8.835],[0.3681,8.7615],[0.7052,8.2828],[0.5738,8.2039],[0.6027,7.8931],[1.2403,8],[1.2364,8.372],[1.6039,8.3675],[1.6072,8.5886],[1.6012,9.0495],[1.4201,9.2923],[1.0007,9.2058],[0.9966,9.062],[0.727,9.046],[0.4836,8.835]]]}},{"type":"Feature","id":"label-TGO-89","properties":{"kind":"division-label","code":"TGO-89","countryCode":"TGO","name":"Centre","localName":"Centre","labelEnglish":"Centre","labelLocal":"Centre","labelBoth":"Centre","type":"Region","iso":"TG-C","qid":"Q515655"},"geometry":{"type":"Point","coordinates":[1.00462,8.5878]}},{"type":"Feature","id":"TGO-86","properties":{"kind":"division","code":"TGO-86","countryCode":"TGO","name":"Plateaux","localName":"Plateaux","labelEnglish":"Plateaux","labelLocal":"Plateaux","labelBoth":"Plateaux","type":"Region","iso":"TG-P","qid":"Q316306"},"geometry":{"type":"Polygon","coordinates":[[[0.6027,7.8931],[0.4994,7.5624],[0.6457,7.3236],[0.5193,6.8322],[0.7131,6.5339],[0.9526,6.8181],[1.2409,6.7217],[1.5642,6.9031],[1.6233,7.5364],[1.6229,7.6225],[1.6039,8.3675],[1.2364,8.372],[1.2403,8],[0.6027,7.8931]]]}},{"type":"Feature","id":"label-TGO-86","properties":{"kind":"division-label","code":"TGO-86","countryCode":"TGO","name":"Plateaux","localName":"Plateaux","labelEnglish":"Plateaux","labelLocal":"Plateaux","labelBoth":"Plateaux","type":"Region","iso":"TG-P","qid":"Q316306"},"geometry":{"type":"Point","coordinates":[1.05973,7.38285]}},{"type":"Feature","id":"TGO-87","properties":{"kind":"division","code":"TGO-87","countryCode":"TGO","name":"Maritime","localName":"Maritime","labelEnglish":"Maritime","labelLocal":"Maritime","labelBoth":"Maritime","type":"Region","iso":"TG-M","qid":"Q316291"},"geometry":{"type":"Polygon","coordinates":[[[1.1854,6.1005],[1.6196,6.2139],[1.7824,6.2773],[1.5892,6.7205],[1.5642,6.9031],[1.2409,6.7217],[0.9526,6.8181],[0.7131,6.5339],[1.1854,6.1005]]]}},{"type":"Feature","id":"label-TGO-87","properties":{"kind":"division-label","code":"TGO-87","countryCode":"TGO","name":"Maritime","localName":"Maritime","labelEnglish":"Maritime","labelLocal":"Maritime","labelBoth":"Maritime","type":"Region","iso":"TG-M","qid":"Q316291"},"geometry":{"type":"Point","coordinates":[1.24665,6.42521]}}]}