{"type":"FeatureCollection","features":[{"type":"Feature","id":"THA-443","properties":{"kind":"division","code":"THA-443","countryCode":"THA","name":"Surin","localName":"จังหวัดสุรินทร์","labelEnglish":"Surin","labelLocal":"จังหวัดสุรินทร์","labelBoth":"Surin · จังหวัดสุรินทร์","type":"Province","iso":"TH-32","qid":"Q380757"},"geometry":{"type":"Polygon","coordinates":[[[103.2433,14.3419],[103.6715,14.4296],[104.0451,14.357],[104.0457,14.3573],[104.0581,14.664],[103.9329,14.8992],[104.0707,15.3427],[103.986,15.4102],[103.4175,15.4279],[103.1158,15.4823],[103.2571,15.3118],[103.5,15.2999],[103.4443,14.9381],[103.288,14.7701],[103.2433,14.3419]]]}},{"type":"Feature","id":"label-THA-443","properties":{"kind":"division-label","code":"THA-443","countryCode":"THA","name":"Surin","localName":"จังหวัดสุรินทร์","labelEnglish":"Surin","labelLocal":"จังหวัดสุรินทร์","labelBoth":"Surin · จังหวัดสุรินทร์","type":"Province","iso":"TH-32","qid":"Q380757"},"geometry":{"type":"Point","coordinates":[103.588,14.9355]}},{"type":"Feature","id":"THA-425","properties":{"kind":"division","code":"THA-425","countryCode":"THA","name":"Si Sa Ket","localName":"จังหวัดศรีสะเกษ","labelEnglish":"Si Sa Ket","labelLocal":"จังหวัดศรีสะเกษ","labelBoth":"Si Sa Ket · จังหวัดศรีสะเกษ","type":"Province","iso":"TH-33","qid":"Q380761"},"geometry":{"type":"Polygon","coordinates":[[[104.4585,14.357],[104.9156,14.3932],[104.9148,14.6548],[104.6943,14.9716],[104.6832,15.2452],[104.4183,15.2848],[104.1295,15.5645],[103.986,15.4102],[104.0707,15.3427],[103.9329,14.8992],[104.0581,14.664],[104.0457,14.3573],[104.4585,14.357]]]}},{"type":"Feature","id":"label-THA-425","properties":{"kind":"division-label","code":"THA-425","countryCode":"THA","name":"Si Sa Ket","localName":"จังหวัดศรีสะเกษ","labelEnglish":"Si Sa Ket","labelLocal":"จังหวัดศรีสะเกษ","labelBoth":"Si Sa Ket · จังหวัดศรีสะเกษ","type":"Province","iso":"TH-33","qid":"Q380761"},"geometry":{"type":"Point","coordinates":[104.418,14.8248]}},{"type":"Feature","id":"THA-426","properties":{"kind":"division","code":"THA-426","countryCode":"THA","name":"Ubon Ratchathani","localName":"จังหวัดอุบลราชธานี","labelEnglish":"Ubon Ratchathani","labelLocal":"จังหวัดอุบลราชธานี","labelBoth":"Ubon Ratchathani · จังหวัดอุบลราชธานี","type":"Province","iso":"TH-34","qid":"Q629024"},"geometry":{"type":"Polygon","coordinates":[[[104.9156,14.3932],[105.0473,14.2141],[105.1843,14.3457],[105.416,14.4282],[105.5931,14.9908],[105.4519,15.0948],[105.5922,15.4275],[105.6129,15.7215],[105.412,15.7998],[105.4232,16.005],[105.107,16.0959],[104.9086,15.4739],[104.6847,15.6289],[104.5121,15.5834],[104.4183,15.2848],[104.6832,15.2452],[104.6943,14.9716],[104.9148,14.6548],[104.9156,14.3932]]]}},{"type":"Feature","id":"label-THA-426","properties":{"kind":"division-label","code":"THA-426","countryCode":"THA","name":"Ubon Ratchathani","localName":"จังหวัดอุบลราชธานี","labelEnglish":"Ubon Ratchathani","labelLocal":"จังหวัดอุบลราชธานี","labelBoth":"Ubon Ratchathani · จังหวัดอุบลราชธานี","type":"Province","iso":"TH-34","qid":"Q629024"},"geometry":{"type":"Point","coordinates":[105.016,15.0137]}},{"type":"Feature","id":"THA-433","properties":{"kind":"division","code":"THA-433","countryCode":"THA","name":"Sa Kaeo","localName":"จังหวัดสระแก้ว","labelEnglish":"Sa Kaeo","labelLocal":"จังหวัดสระแก้ว","labelBoth":"Sa Kaeo · จังหวัดสระแก้ว","type":"Province","iso":"TH-27","qid":"Q381889"},"geometry":{"type":"Polygon","coordinates":[[[102.9139,14.1649],[102.5942,14.1487],[102.0528,14.1856],[101.9068,14.0213],[101.8762,13.7231],[101.9954,13.3362],[102.0389,13.1614],[102.3292,13.2726],[102.3295,13.4846],[102.6986,13.7618],[102.9139,14.1649]]]}},{"type":"Feature","id":"label-THA-433","properties":{"kind":"division-label","code":"THA-433","countryCode":"THA","name":"Sa Kaeo","localName":"จังหวัดสระแก้ว","labelEnglish":"Sa Kaeo","labelLocal":"จังหวัดสระแก้ว","labelBoth":"Sa Kaeo · จังหวัดสระแก้ว","type":"Province","iso":"TH-27","qid":"Q381889"},"geometry":{"type":"Point","coordinates":[102.384,13.8589]}},{"type":"Feature","id":"THA-436","properties":{"kind":"division","code":"THA-436","countryCode":"THA","name":"Buri Ram","localName":"จังหวัดบุรีรัมย์","labelEnglish":"Buri Ram","labelLocal":"จังหวัดบุรีรัมย์","labelBoth":"Buri Ram · จังหวัดบุรีรัมย์","type":"Province","iso":"TH-31","qid":"Q327510"},"geometry":{"type":"Polygon","coordinates":[[[103.0169,14.2389],[103.2433,14.3419],[103.288,14.7701],[103.4443,14.9381],[103.5,15.2999],[103.2571,15.3118],[103.1158,15.4823],[102.9465,15.7892],[102.7893,15.6395],[103.0184,15.445],[102.9829,15.1938],[102.4446,14.8361],[102.6172,14.2857],[102.5942,14.1487],[102.9139,14.1649],[103.0169,14.2389]]]}},{"type":"Feature","id":"label-THA-436","properties":{"kind":"division-label","code":"THA-436","countryCode":"THA","name":"Buri Ram","localName":"จังหวัดบุรีรัมย์","labelEnglish":"Buri Ram","labelLocal":"จังหวัดบุรีรัมย์","labelBoth":"Buri Ram · จังหวัดบุรีรัมย์","type":"Province","iso":"TH-31","qid":"Q327510"},"geometry":{"type":"Point","coordinates":[102.971,14.699]}},{"type":"Feature","id":"THA-435","properties":{"kind":"division","code":"THA-435","countryCode":"THA","name":"Trat","localName":"จังหวัดตราด","labelEnglish":"Trat","labelLocal":"จังหวัดตราด","labelBoth":"Trat · จังหวัดตราด","type":"Province","iso":"TH-23","qid":"Q241884"},"geometry":{"type":"Polygon","coordinates":[[[102.765,12.0446],[102.7638,12.4253],[102.4959,12.6542],[102.4952,12.746],[102.3297,12.5569],[102.3555,12.3583],[102.2959,12.19],[102.7497,12.0403],[102.9136,11.6459],[102.765,12.0446]]]}},{"type":"Feature","id":"label-THA-435","properties":{"kind":"division-label","code":"THA-435","countryCode":"THA","name":"Trat","localName":"จังหวัดตราด","labelEnglish":"Trat","labelLocal":"จังหวัดตราด","labelBoth":"Trat · จังหวัดตราด","type":"Province","iso":"TH-23","qid":"Q241884"},"geometry":{"type":"Point","coordinates":[102.541,12.3925]}},{"type":"Feature","id":"THA-432","properties":{"kind":"division","code":"THA-432","countryCode":"THA","name":"Chanthaburi","localName":"จันทบุรี","labelEnglish":"Chanthaburi","labelLocal":"จันทบุรี","labelBoth":"Chanthaburi · จันทบุรี","type":"Province","iso":"TH-22","qid":"Q327730"},"geometry":{"type":"Polygon","coordinates":[[[102.4901,12.9952],[102.3292,13.2726],[102.0389,13.1614],[101.9954,13.3362],[101.7176,13.1717],[101.6926,13.134],[101.7891,12.6978],[102.2283,12.3237],[102.3555,12.3583],[102.3297,12.5569],[102.4952,12.746],[102.4901,12.9952]]]}},{"type":"Feature","id":"label-THA-432","properties":{"kind":"division-label","code":"THA-432","countryCode":"THA","name":"Chanthaburi","localName":"จันทบุรี","labelEnglish":"Chanthaburi","labelLocal":"จันทบุรี","labelBoth":"Chanthaburi · จันทบุรี","type":"Province","iso":"TH-22","qid":"Q327730"},"geometry":{"type":"Point","coordinates":[102.139,12.8117]}},{"type":"Feature","id":"THA-385","properties":{"kind":"division","code":"THA-385","countryCode":"THA","name":"Satun","localName":"จังหวัดสตูล","labelEnglish":"Satun","labelLocal":"จังหวัดสตูล","labelBoth":"Satun · จังหวัดสตูล","type":"Province","iso":"TH-91","qid":"Q236263"},"geometry":{"type":"Polygon","coordinates":[[[100.1992,6.6994],[100.0464,7.0634],[99.7456,7.1297],[99.6858,6.8773],[100.1273,6.4423],[100.1992,6.6994]]]}},{"type":"Feature","id":"label-THA-385","properties":{"kind":"division-label","code":"THA-385","countryCode":"THA","name":"Satun","localName":"จังหวัดสตูล","labelEnglish":"Satun","labelLocal":"จังหวัดสตูล","labelBoth":"Satun · จังหวัดสตูล","type":"Province","iso":"TH-91","qid":"Q236263"},"geometry":{"type":"Point","coordinates":[99.9633,6.85827]}},{"type":"Feature","id":"THA-386","properties":{"kind":"division","code":"THA-386","countryCode":"THA","name":"Songkhla","localName":"จังหวัดสงขลา","labelEnglish":"Songkhla","labelLocal":"จังหวัดสงขลา","labelBoth":"Songkhla · จังหวัดสงขลา","type":"Province","iso":"TH-90","qid":"Q235574"},"geometry":{"type":"MultiPolygon","coordinates":[[[[100.1992,6.6994],[100.3777,6.5268],[100.8056,6.4148],[100.8237,6.2986],[101.1011,6.6379],[101.068,6.8577],[100.7651,6.9831],[100.5854,7.2244],[100.3788,7.3098],[100.0306,7.0917],[100.0464,7.0634],[100.1992,6.6994]]],[[[100.3425,7.9388],[100.1296,7.8017],[100.2009,7.7723],[100.307,7.7579],[100.439,7.2941],[100.3425,7.9388]]]]}},{"type":"Feature","id":"label-THA-386","properties":{"kind":"division-label","code":"THA-386","countryCode":"THA","name":"Songkhla","localName":"จังหวัดสงขลา","labelEnglish":"Songkhla","labelLocal":"จังหวัดสงขลา","labelBoth":"Songkhla · จังหวัดสงขลา","type":"Province","iso":"TH-90","qid":"Q235574"},"geometry":{"type":"Point","coordinates":[100.568,6.81212]}},{"type":"Feature","id":"THA-388","properties":{"kind":"division","code":"THA-388","countryCode":"THA","name":"Yala","localName":"จังหวัดยะลา","labelEnglish":"Yala","labelLocal":"จังหวัดยะลา","labelBoth":"Yala · จังหวัดยะลา","type":"Province","iso":"TH-95","qid":"Q242977"},"geometry":{"type":"Polygon","coordinates":[[[100.8237,6.2986],[101.0817,6.2465],[100.9724,5.7729],[101.1054,5.6376],[101.5002,5.8927],[101.3823,6.1965],[101.6017,6.5554],[101.1011,6.6379],[100.8237,6.2986]]]}},{"type":"Feature","id":"label-THA-388","properties":{"kind":"division-label","code":"THA-388","countryCode":"THA","name":"Yala","localName":"จังหวัดยะลา","labelEnglish":"Yala","labelLocal":"จังหวัดยะลา","labelBoth":"Yala · จังหวัดยะลา","type":"Province","iso":"TH-95","qid":"Q242977"},"geometry":{"type":"Point","coordinates":[101.218,6.14264]}},{"type":"Feature","id":"THA-493","properties":{"kind":"division","code":"THA-493","countryCode":"THA","name":"Narathiwat","localName":"จังหวัดนราธิวาส","labelEnglish":"Narathiwat","labelLocal":"จังหวัดนราธิวาส","labelBoth":"Narathiwat · จังหวัดนราธิวาส","type":"Province","iso":"TH-96","qid":"Q271442"},"geometry":{"type":"Polygon","coordinates":[[[102.0731,6.2575],[101.7235,6.5744],[101.6017,6.5554],[101.3823,6.1965],[101.5002,5.8927],[101.6976,5.7671],[101.8005,5.7399],[102.06,6.0948],[102.0731,6.2575]]]}},{"type":"Feature","id":"label-THA-493","properties":{"kind":"division-label","code":"THA-493","countryCode":"THA","name":"Narathiwat","localName":"จังหวัดนราธิวาส","labelEnglish":"Narathiwat","labelLocal":"จังหวัดนราธิวาส","labelBoth":"Narathiwat · จังหวัดนราธิวาส","type":"Province","iso":"TH-96","qid":"Q271442"},"geometry":{"type":"Point","coordinates":[101.727,6.17758]}},{"type":"Feature","id":"THA-389","properties":{"kind":"division","code":"THA-389","countryCode":"THA","name":"Chiang Rai","localName":"จังหวัดเชียงราย","labelEnglish":"Chiang Rai","labelLocal":"จังหวัดเชียงราย","labelBoth":"Chiang Rai · จังหวัดเชียงราย","type":"Province","iso":"TH-57","qid":"Q236419"},"geometry":{"type":"Polygon","coordinates":[[[100.0993,20.3178],[99.942,20.444],[99.6519,20.3068],[99.4206,20.3756],[99.5087,20.1528],[99.2706,19.6605],[99.3999,18.9984],[99.5337,19.0729],[99.5898,19.4718],[99.6874,19.4298],[100.0812,19.4298],[100.39,19.7244],[100.4077,19.7943],[100.5487,20.158],[100.3065,20.3997],[100.0993,20.3178]]]}},{"type":"Feature","id":"label-THA-389","properties":{"kind":"division-label","code":"THA-389","countryCode":"THA","name":"Chiang Rai","localName":"จังหวัดเชียงราย","labelEnglish":"Chiang Rai","labelLocal":"จังหวัดเชียงราย","labelBoth":"Chiang Rai · จังหวัดเชียงราย","type":"Province","iso":"TH-57","qid":"Q236419"},"geometry":{"type":"Point","coordinates":[99.9059,19.9607]}},{"type":"Feature","id":"THA-390","properties":{"kind":"division","code":"THA-390","countryCode":"THA","name":"Chiang Mai","localName":"จังหวัดเชียงใหม่","labelEnglish":"Chiang Mai","labelLocal":"จังหวัดเชียงใหม่","labelBoth":"Chiang Mai · จังหวัดเชียงใหม่","type":"Province","iso":"TH-50","qid":"Q233588"},"geometry":{"type":"Polygon","coordinates":[[[99.5087,20.1528],[99.1175,20.1178],[99.0088,19.8459],[98.4778,19.7056],[98.6083,19.479],[98.6367,19.0552],[98.4576,19.0073],[98.1561,19.1452],[98.0835,18.8304],[98.1025,17.9676],[98.3026,17.6959],[98.3372,17.3011],[98.5628,17.2881],[98.533,17.469],[98.7104,17.7562],[98.9106,17.8186],[98.7,18.4226],[99.1765,18.7063],[99.3148,18.5298],[99.3999,18.9984],[99.2706,19.6605],[99.5087,20.1528]]]}},{"type":"Feature","id":"label-THA-390","properties":{"kind":"division-label","code":"THA-390","countryCode":"THA","name":"Chiang Mai","localName":"จังหวัดเชียงใหม่","labelEnglish":"Chiang Mai","labelLocal":"จังหวัดเชียงใหม่","labelBoth":"Chiang Mai · จังหวัดเชียงใหม่","type":"Province","iso":"TH-50","qid":"Q233588"},"geometry":{"type":"Point","coordinates":[98.6967,18.8368]}},{"type":"Feature","id":"THA-374","properties":{"kind":"division","code":"THA-374","countryCode":"THA","name":"Mae Hong Son","localName":"จังหวัดแม่ฮ่องสอน","labelEnglish":"Mae Hong Son","labelLocal":"จังหวัดแม่ฮ่องสอน","labelBoth":"Mae Hong Son · จังหวัดแม่ฮ่องสอน","type":"Province","iso":"TH-58","qid":"Q269270"},"geometry":{"type":"Polygon","coordinates":[[[98.4778,19.7056],[98.2375,19.6647],[98.0245,19.803],[97.8691,19.5705],[97.7671,19.3975],[97.8108,19.1122],[97.6578,18.9257],[97.7457,18.5711],[97.3729,18.5486],[97.7541,17.969],[97.6761,17.8303],[97.908,17.5549],[98.3026,17.6959],[98.1025,17.9676],[98.0835,18.8304],[98.1561,19.1452],[98.4576,19.0073],[98.6367,19.0552],[98.6083,19.479],[98.4778,19.7056]]]}},{"type":"Feature","id":"label-THA-374","properties":{"kind":"division-label","code":"THA-374","countryCode":"THA","name":"Mae Hong Son","localName":"จังหวัดแม่ฮ่องสอน","labelEnglish":"Mae Hong Son","labelLocal":"จังหวัดแม่ฮ่องสอน","labelBoth":"Mae Hong Son · จังหวัดแม่ฮ่องสอน","type":"Province","iso":"TH-58","qid":"Q269270"},"geometry":{"type":"Point","coordinates":[97.8911,18.4043]}},{"type":"Feature","id":"THA-404","properties":{"kind":"division","code":"THA-404","countryCode":"THA","name":"Tak","localName":"จังหวัดตาก","labelEnglish":"Tak","labelLocal":"จังหวัดตาก","labelBoth":"Tak · จังหวัดตาก","type":"Province","iso":"TH-63","qid":"Q275758"},"geometry":{"type":"Polygon","coordinates":[[[97.908,17.5549],[98.4362,17.0116],[98.4567,16.7232],[98.6824,16.2735],[98.9033,16.3634],[98.8354,16.1445],[98.6587,16.1163],[98.5441,15.6751],[98.9804,15.2206],[99.1214,15.7698],[99.0788,15.8689],[99.0062,16.48],[99.2394,16.5412],[99.346,16.8879],[99.3174,17.2607],[99.0454,17.3814],[99.0121,17.6106],[98.7213,17.4853],[98.7104,17.7562],[98.533,17.469],[98.5628,17.2881],[98.3372,17.3011],[98.3026,17.6959],[97.908,17.5549]]]}},{"type":"Feature","id":"label-THA-404","properties":{"kind":"division-label","code":"THA-404","countryCode":"THA","name":"Tak","localName":"จังหวัดตาก","labelEnglish":"Tak","labelLocal":"จังหวัดตาก","labelBoth":"Tak · จังหวัดตาก","type":"Province","iso":"TH-63","qid":"Q275758"},"geometry":{"type":"Point","coordinates":[98.8441,17.0043]}},{"type":"Feature","id":"THA-399","properties":{"kind":"division","code":"THA-399","countryCode":"THA","name":"Kanchanaburi","localName":"อำเภอเมืองกาญจนบุรี","labelEnglish":"Kanchanaburi","labelLocal":"อำเภอเมืองกาญจนบุรี","labelBoth":"Kanchanaburi · อำเภอเมืองกาญจนบุรี","type":"Province","iso":"TH-71","qid":"Q275740"},"geometry":{"type":"Polygon","coordinates":[[[98.5441,15.6751],[98.5336,15.326],[98.2077,15.2192],[98.1912,14.9932],[98.5477,14.3777],[98.9453,14.0691],[99.1468,13.7237],[99.797,13.8153],[99.8801,13.9445],[99.8115,14.0618],[99.8252,14.5184],[99.6782,14.7942],[99.459,14.6908],[99.28,14.9998],[99.08,15.0119],[98.9804,15.2206],[98.5441,15.6751]]]}},{"type":"Feature","id":"label-THA-399","properties":{"kind":"division-label","code":"THA-399","countryCode":"THA","name":"Kanchanaburi","localName":"อำเภอเมืองกาญจนบุรี","labelEnglish":"Kanchanaburi","labelLocal":"อำเภอเมืองกาญจนบุรี","labelBoth":"Kanchanaburi · อำเภอเมืองกาญจนบุรี","type":"Province","iso":"TH-71","qid":"Q275740"},"geometry":{"type":"Point","coordinates":[99.2969,14.3317]}},{"type":"Feature","id":"THA-420","properties":{"kind":"division","code":"THA-420","countryCode":"THA","name":"Prachuap Khiri Khan","localName":"จังหวัดประจวบคีรีขันธ์","labelEnglish":"Prachuap Khiri Khan","labelLocal":"จังหวัดประจวบคีรีขันธ์","labelBoth":"Prachuap Khiri Khan · จังหวัดประจวบคีรีขันธ์","type":"Province","iso":"TH-77","qid":"Q244628"},"geometry":{"type":"Polygon","coordinates":[[[99.4047,12.5669],[99.4663,12.126],[99.63,11.8158],[99.1409,11.0394],[99.5034,10.9971],[99.5693,11.334],[99.8553,11.9684],[100.02,12.1927],[99.9608,12.6362],[99.4047,12.5669]]]}},{"type":"Feature","id":"label-THA-420","properties":{"kind":"division-label","code":"THA-420","countryCode":"THA","name":"Prachuap Khiri Khan","localName":"จังหวัดประจวบคีรีขันธ์","labelEnglish":"Prachuap Khiri Khan","labelLocal":"จังหวัดประจวบคีรีขันธ์","labelBoth":"Prachuap Khiri Khan · จังหวัดประจวบคีรีขันธ์","type":"Province","iso":"TH-77","qid":"Q244628"},"geometry":{"type":"Point","coordinates":[99.7274,12.3053]}},{"type":"Feature","id":"THA-419","properties":{"kind":"division","code":"THA-419","countryCode":"THA","name":"Phetchaburi","localName":"จังหวัดเพชรบุรี","labelEnglish":"Phetchaburi","labelLocal":"จังหวัดเพชรบุรี","labelBoth":"Phetchaburi · จังหวัดเพชรบุรี","type":"Province","iso":"TH-76","qid":"Q244699"},"geometry":{"type":"Polygon","coordinates":[[[99.4047,12.5669],[99.9608,12.6362],[100.1043,13.0573],[99.9609,13.2916],[99.8587,13.3284],[99.663,13.2135],[99.1865,13.2116],[99.1021,13.1713],[99.2141,12.7347],[99.4047,12.5669]]]}},{"type":"Feature","id":"label-THA-419","properties":{"kind":"division-label","code":"THA-419","countryCode":"THA","name":"Phetchaburi","localName":"จังหวัดเพชรบุรี","labelEnglish":"Phetchaburi","labelLocal":"จังหวัดเพชรบุรี","labelBoth":"Phetchaburi · จังหวัดเพชรบุรี","type":"Province","iso":"TH-76","qid":"Q244699"},"geometry":{"type":"Point","coordinates":[99.5964,12.8727]}},{"type":"Feature","id":"THA-421","properties":{"kind":"division","code":"THA-421","countryCode":"THA","name":"Ratchaburi","localName":"จังหวัดราชบุรี","labelEnglish":"Ratchaburi","labelLocal":"จังหวัดราชบุรี","labelBoth":"Ratchaburi · จังหวัดราชบุรี","type":"Province","iso":"TH-70","qid":"Q335492"},"geometry":{"type":"Polygon","coordinates":[[[99.1865,13.2116],[99.663,13.2135],[99.8587,13.3284],[100.0379,13.5045],[100.0787,13.6837],[99.8801,13.9445],[99.797,13.8153],[99.1468,13.7237],[99.1865,13.2116]]]}},{"type":"Feature","id":"label-THA-421","properties":{"kind":"division-label","code":"THA-421","countryCode":"THA","name":"Ratchaburi","localName":"จังหวัดราชบุรี","labelEnglish":"Ratchaburi","labelLocal":"จังหวัดราชบุรี","labelBoth":"Ratchaburi · จังหวัดราชบุรี","type":"Province","iso":"TH-70","qid":"Q335492"},"geometry":{"type":"Point","coordinates":[99.6128,13.4964]}},{"type":"Feature","id":"THA-375","properties":{"kind":"division","code":"THA-375","countryCode":"THA","name":"Chumphon","localName":"จังหวัดชุมพร","labelEnglish":"Chumphon","labelLocal":"จังหวัดชุมพร","labelBoth":"Chumphon · จังหวัดชุมพร","type":"Province","iso":"TH-86","qid":"Q244695"},"geometry":{"type":"Polygon","coordinates":[[[99.1409,11.0394],[98.8792,10.7882],[98.9742,10.5953],[98.9033,10.0173],[98.641,9.7861],[98.7498,9.6012],[99.1449,9.7912],[99.3024,10.631],[99.5034,10.9971],[99.1409,11.0394]]]}},{"type":"Feature","id":"label-THA-375","properties":{"kind":"division-label","code":"THA-375","countryCode":"THA","name":"Chumphon","localName":"จังหวัดชุมพร","labelEnglish":"Chumphon","labelLocal":"จังหวัดชุมพร","labelBoth":"Chumphon · จังหวัดชุมพร","type":"Province","iso":"TH-86","qid":"Q244695"},"geometry":{"type":"Point","coordinates":[99.0755,10.3809]}},{"type":"Feature","id":"THA-379","properties":{"kind":"division","code":"THA-379","countryCode":"THA","name":"Ranong","localName":"จังหวัดระนอง","labelEnglish":"Ranong","labelLocal":"จังหวัดระนอง","labelBoth":"Ranong · จังหวัดระนอง","type":"Province","iso":"TH-85","qid":"Q236802"},"geometry":{"type":"Polygon","coordinates":[[[98.7474,10.3505],[98.5127,9.8369],[98.3896,9.3449],[98.511,9.3064],[98.673,9.3575],[98.7498,9.6012],[98.641,9.7861],[98.9033,10.0173],[98.9742,10.5953],[98.8792,10.7882],[98.7667,10.6888],[98.7474,10.3505]]]}},{"type":"Feature","id":"label-THA-379","properties":{"kind":"division-label","code":"THA-379","countryCode":"THA","name":"Ranong","localName":"จังหวัดระนอง","labelEnglish":"Ranong","labelLocal":"จังหวัดระนอง","labelBoth":"Ranong · จังหวัดระนอง","type":"Province","iso":"TH-85","qid":"Q236802"},"geometry":{"type":"Point","coordinates":[98.58,9.51717]}},{"type":"Feature","id":"THA-394","properties":{"kind":"division","code":"THA-394","countryCode":"THA","name":"Phayao","localName":"จังหวัดพะเยา","labelEnglish":"Phayao","labelLocal":"จังหวัดพะเยา","labelBoth":"Phayao · จังหวัดพะเยา","type":"Province","iso":"TH-56","qid":"Q244618"},"geometry":{"type":"Polygon","coordinates":[[[100.39,19.7244],[100.0812,19.4298],[99.6874,19.4298],[99.843,19.0008],[100.1209,18.8117],[100.3526,18.8151],[100.6325,19.1353],[100.5748,19.5083],[100.39,19.7244]]]}},{"type":"Feature","id":"label-THA-394","properties":{"kind":"division-label","code":"THA-394","countryCode":"THA","name":"Phayao","localName":"จังหวัดพะเยา","labelEnglish":"Phayao","labelLocal":"จังหวัดพะเยา","labelBoth":"Phayao · จังหวัดพะเยา","type":"Province","iso":"TH-56","qid":"Q244618"},"geometry":{"type":"Point","coordinates":[100.16,19.1866]}},{"type":"Feature","id":"THA-393","properties":{"kind":"division","code":"THA-393","countryCode":"THA","name":"Nan","localName":"จังหวัดน่าน","labelEnglish":"Nan","labelLocal":"จังหวัดน่าน","labelBoth":"Nan · จังหวัดน่าน","type":"Province","iso":"TH-55","qid":"Q244698"},"geometry":{"type":"Polygon","coordinates":[[[101.0741,18.3716],[101.2401,18.6736],[101.3179,19.0501],[101.2291,19.1436],[101.2462,19.5703],[100.8746,19.6129],[100.5748,19.5083],[100.6325,19.1353],[100.3526,18.8151],[100.4086,18.4968],[100.5302,18.4752],[100.4221,18.016],[100.7605,18.0261],[101.0741,18.3716]]]}},{"type":"Feature","id":"label-THA-393","properties":{"kind":"division-label","code":"THA-393","countryCode":"THA","name":"Nan","localName":"จังหวัดน่าน","labelEnglish":"Nan","labelLocal":"จังหวัดน่าน","labelBoth":"Nan · จังหวัดน่าน","type":"Province","iso":"TH-55","qid":"Q244698"},"geometry":{"type":"Point","coordinates":[100.837,18.8264]}},{"type":"Feature","id":"THA-398","properties":{"kind":"division","code":"THA-398","countryCode":"THA","name":"Uttaradit","localName":"จังหวัดอุตรดิตถ์","labelEnglish":"Uttaradit","labelLocal":"จังหวัดอุตรดิตถ์","labelBoth":"Uttaradit · จังหวัดอุตรดิตถ์","type":"Province","iso":"TH-53","qid":"Q273794"},"geometry":{"type":"Polygon","coordinates":[[[101.0741,18.3716],[100.7605,18.0261],[100.4221,18.016],[99.8966,17.8037],[100.0198,17.4737],[99.9828,17.1656],[100.2943,17.3667],[100.5871,17.4244],[100.9559,17.7075],[101.1652,18.0534],[101.0741,18.3716]]]}},{"type":"Feature","id":"label-THA-398","properties":{"kind":"division-label","code":"THA-398","countryCode":"THA","name":"Uttaradit","localName":"จังหวัดอุตรดิตถ์","labelEnglish":"Uttaradit","labelLocal":"จังหวัดอุตรดิตถ์","labelBoth":"Uttaradit · จังหวัดอุตรดิตถ์","type":"Province","iso":"TH-53","qid":"Q273794"},"geometry":{"type":"Point","coordinates":[100.531,17.7188]}},{"type":"Feature","id":"THA-396","properties":{"kind":"division","code":"THA-396","countryCode":"THA","name":"Phitsanulok","localName":"จังหวัดพิษณุโลก","labelEnglish":"Phitsanulok","labelLocal":"จังหวัดพิษณุโลก","labelBoth":"Phitsanulok · จังหวัดพิษณุโลก","type":"Province","iso":"TH-65","qid":"Q275781"},"geometry":{"type":"Polygon","coordinates":[[[100.9559,17.7075],[100.5871,17.4244],[100.2943,17.3667],[99.9828,17.1656],[100.1319,16.9564],[99.9044,16.6881],[100.0322,16.4962],[100.5486,16.5266],[100.6682,16.347],[100.8955,16.7656],[101.0656,16.9062],[101.093,17.2266],[100.9229,17.3288],[100.9377,17.5555],[100.9559,17.7075]]]}},{"type":"Feature","id":"label-THA-396","properties":{"kind":"division-label","code":"THA-396","countryCode":"THA","name":"Phitsanulok","localName":"จังหวัดพิษณุโลก","labelEnglish":"Phitsanulok","labelLocal":"จังหวัดพิษณุโลก","labelBoth":"Phitsanulok · จังหวัดพิษณุโลก","type":"Province","iso":"TH-65","qid":"Q275781"},"geometry":{"type":"Point","coordinates":[100.49,16.9748]}},{"type":"Feature","id":"THA-445","properties":{"kind":"division","code":"THA-445","countryCode":"THA","name":"Loei","localName":"จังหวัดเลย","labelEnglish":"Loei","labelLocal":"จังหวัดเลย","labelBoth":"Loei · จังหวัดเลย","type":"Province","iso":"TH-42","qid":"Q275388"},"geometry":{"type":"Polygon","coordinates":[[[100.9377,17.5555],[100.9229,17.3288],[101.093,17.2266],[101.0656,16.9062],[101.2096,17.116],[101.6474,17.0426],[101.7906,16.7665],[102.0713,16.8854],[102.1466,17.0153],[101.9464,17.1983],[102.1212,17.5832],[102.0251,17.7333],[102.0584,18.0884],[102.1074,18.2124],[102.0555,18.1923],[101.5455,17.8137],[101.1323,17.4617],[100.9377,17.5555]]]}},{"type":"Feature","id":"label-THA-445","properties":{"kind":"division-label","code":"THA-445","countryCode":"THA","name":"Loei","localName":"จังหวัดเลย","labelEnglish":"Loei","labelLocal":"จังหวัดเลย","labelBoth":"Loei · จังหวัดเลย","type":"Province","iso":"TH-42","qid":"Q275388"},"geometry":{"type":"Point","coordinates":[101.517,17.4099]}},{"type":"Feature","id":"THA-5499","properties":{"kind":"division","code":"THA-5499","countryCode":"THA","name":"Bueng Kan","localName":"จังหวัดหนองคาย","labelEnglish":"Bueng Kan","labelLocal":"จังหวัดหนองคาย","labelBoth":"Bueng Kan · จังหวัดหนองคาย","type":"Province","iso":"TH-38","qid":"Q1001862"},"geometry":{"type":"Polygon","coordinates":[[[104.2033,18.0186],[104,18.3184],[103.3866,18.4415],[103.2963,18.2952],[103.4357,17.99],[103.5415,18.0617],[104.0103,17.8012],[104.2033,18.0186]]]}},{"type":"Feature","id":"label-THA-5499","properties":{"kind":"division-label","code":"THA-5499","countryCode":"THA","name":"Bueng Kan","localName":"จังหวัดหนองคาย","labelEnglish":"Bueng Kan","labelLocal":"จังหวัดหนองคาย","labelBoth":"Bueng Kan · จังหวัดหนองคาย","type":"Province","iso":"TH-38","qid":"Q1001862"},"geometry":{"type":"Point","coordinates":[103.752,18.1565]}},{"type":"Feature","id":"THA-446","properties":{"kind":"division","code":"THA-446","countryCode":"THA","name":"Nong Khai","localName":"จังหวัดหนองคาย","labelEnglish":"Nong Khai","labelLocal":"จังหวัดหนองคาย","labelBoth":"Nong Khai · จังหวัดหนองคาย","type":"Province","iso":"TH-43","qid":"Q327737"},"geometry":{"type":"Polygon","coordinates":[[[103.2963,18.2952],[103.0877,18.1387],[102.6676,17.8501],[102.1074,18.2124],[102.0584,18.0884],[102.7359,17.6002],[102.885,17.8853],[103.1651,17.8025],[103.3996,17.8664],[103.4357,17.99],[103.2963,18.2952]]]}},{"type":"Feature","id":"label-THA-446","properties":{"kind":"division-label","code":"THA-446","countryCode":"THA","name":"Nong Khai","localName":"จังหวัดหนองคาย","labelEnglish":"Nong Khai","labelLocal":"จังหวัดหนองคาย","labelBoth":"Nong Khai · จังหวัดหนองคาย","type":"Province","iso":"TH-43","qid":"Q327737"},"geometry":{"type":"Point","coordinates":[102.754,17.7553]}},{"type":"Feature","id":"THA-472","properties":{"kind":"division","code":"THA-472","countryCode":"THA","name":"Nakhon Phanom","localName":"จังหวัดนครพนม","labelEnglish":"Nakhon Phanom","labelLocal":"จังหวัดนครพนม","labelBoth":"Nakhon Phanom · จังหวัดนครพนม","type":"Province","iso":"TH-48","qid":"Q468547"},"geometry":{"type":"Polygon","coordinates":[[[104.2033,18.0186],[104.0103,17.8012],[104.0589,17.386],[104.4135,17.4209],[104.3944,17.0374],[104.239,16.8962],[104.7579,16.8189],[104.7463,16.9435],[104.8164,17.3728],[104.282,17.8615],[104.2033,18.0186]]]}},{"type":"Feature","id":"label-THA-472","properties":{"kind":"division-label","code":"THA-472","countryCode":"THA","name":"Nakhon Phanom","localName":"จังหวัดนครพนม","labelEnglish":"Nakhon Phanom","labelLocal":"จังหวัดนครพนม","labelBoth":"Nakhon Phanom · จังหวัดนครพนม","type":"Province","iso":"TH-48","qid":"Q468547"},"geometry":{"type":"Point","coordinates":[104.628,17.2227]}},{"type":"Feature","id":"THA-473","properties":{"kind":"division","code":"THA-473","countryCode":"THA","name":"Mukdahan","localName":"จังหวัดมุกดาหาร","labelEnglish":"Mukdahan","labelLocal":"จังหวัดมุกดาหาร","labelBoth":"Mukdahan · จังหวัดมุกดาหาร","type":"Province","iso":"TH-49","qid":"Q335119"},"geometry":{"type":"Polygon","coordinates":[[[104.7579,16.8189],[104.239,16.8962],[104.0729,16.8326],[104.2443,16.4329],[104.3559,16.3234],[104.8129,16.1906],[104.988,16.294],[104.7545,16.5289],[104.7579,16.8189]]]}},{"type":"Feature","id":"label-THA-473","properties":{"kind":"division-label","code":"THA-473","countryCode":"THA","name":"Mukdahan","localName":"จังหวัดมุกดาหาร","labelEnglish":"Mukdahan","labelLocal":"จังหวัดมุกดาหาร","labelBoth":"Mukdahan · จังหวัดมุกดาหาร","type":"Province","iso":"TH-49","qid":"Q335119"},"geometry":{"type":"Point","coordinates":[104.531,16.5636]}},{"type":"Feature","id":"THA-427","properties":{"kind":"division","code":"THA-427","countryCode":"THA","name":"Amnat Charoen","localName":"จังหวัดอำนาจเจริญ","labelEnglish":"Amnat Charoen","labelLocal":"จังหวัดอำนาจเจริญ","labelBoth":"Amnat Charoen · จังหวัดอำนาจเจริญ","type":"Province","iso":"TH-37","qid":"Q243791"},"geometry":{"type":"Polygon","coordinates":[[[104.988,16.294],[104.8129,16.1906],[104.6163,16.1206],[104.4246,15.7213],[104.5121,15.5834],[104.6847,15.6289],[104.9086,15.4739],[105.107,16.0959],[104.988,16.294]]]}},{"type":"Feature","id":"label-THA-427","properties":{"kind":"division-label","code":"THA-427","countryCode":"THA","name":"Amnat Charoen","localName":"จังหวัดอำนาจเจริญ","labelEnglish":"Amnat Charoen","labelLocal":"จังหวัดอำนาจเจริญ","labelBoth":"Amnat Charoen · จังหวัดอำนาจเจริญ","type":"Province","iso":"TH-37","qid":"Q243791"},"geometry":{"type":"Point","coordinates":[104.766,15.8583]}},{"type":"Feature","id":"THA-378","properties":{"kind":"division","code":"THA-378","countryCode":"THA","name":"Phang Nga","localName":"จังหวัดพังงา","labelEnglish":"Phang Nga","labelLocal":"จังหวัดพังงา","labelBoth":"Phang Nga · จังหวัดพังงา","type":"Province","iso":"TH-82","qid":"Q273306"},"geometry":{"type":"Polygon","coordinates":[[[98.6492,8.3687],[98.7133,8.6251],[98.4587,8.8872],[98.511,9.3064],[98.3896,9.3449],[98.382,9.0719],[98.1995,8.5344],[98.3913,8.1365],[98.4456,8.3251],[98.6492,8.3687]]]}},{"type":"Feature","id":"label-THA-378","properties":{"kind":"division-label","code":"THA-378","countryCode":"THA","name":"Phang Nga","localName":"จังหวัดพังงา","labelEnglish":"Phang Nga","labelLocal":"จังหวัดพังงา","labelBoth":"Phang Nga · จังหวัดพังงา","type":"Province","iso":"TH-82","qid":"Q273306"},"geometry":{"type":"Point","coordinates":[98.394,8.57678]}},{"type":"Feature","id":"THA-382","properties":{"kind":"division","code":"THA-382","countryCode":"THA","name":"Krabi","localName":"จังหวัดกระบี่","labelEnglish":"Krabi","labelLocal":"จังหวัดกระบี่","labelBoth":"Krabi · จังหวัดกระบี่","type":"Province","iso":"TH-81","qid":"Q236769"},"geometry":{"type":"Polygon","coordinates":[[[99.2568,7.6551],[99.3381,7.9431],[99.2661,8.3416],[98.9166,8.3136],[98.9264,8.559],[98.7133,8.6251],[98.6492,8.3687],[98.7474,8.0683],[99.2568,7.6551]]]}},{"type":"Feature","id":"label-THA-382","properties":{"kind":"division-label","code":"THA-382","countryCode":"THA","name":"Krabi","localName":"จังหวัดกระบี่","labelEnglish":"Krabi","labelLocal":"จังหวัดกระบี่","labelBoth":"Krabi · จังหวัดกระบี่","type":"Province","iso":"TH-81","qid":"Q236769"},"geometry":{"type":"Point","coordinates":[98.984,8.1333]}},{"type":"Feature","id":"THA-387","properties":{"kind":"division","code":"THA-387","countryCode":"THA","name":"Trang","localName":"จังหวัดตรัง","labelEnglish":"Trang","labelLocal":"จังหวัดตรัง","labelBoth":"Trang · จังหวัดตรัง","type":"Province","iso":"TH-92","qid":"Q243805"},"geometry":{"type":"Polygon","coordinates":[[[99.7456,7.1297],[100.0464,7.0634],[100.0306,7.0917],[99.7443,7.8509],[99.3381,7.9431],[99.2568,7.6551],[99.3366,7.3836],[99.5081,7.385],[99.7456,7.1297]]]}},{"type":"Feature","id":"label-THA-387","properties":{"kind":"division-label","code":"THA-387","countryCode":"THA","name":"Trang","localName":"จังหวัดตรัง","labelEnglish":"Trang","labelLocal":"จังหวัดตรัง","labelBoth":"Trang · จังหวัดตรัง","type":"Province","iso":"TH-92","qid":"Q243805"},"geometry":{"type":"Point","coordinates":[99.6467,7.56967]}},{"type":"Feature","id":"THA-494","properties":{"kind":"division","code":"THA-494","countryCode":"THA","name":"Pattani","localName":"จังหวัดปัตตานี","labelEnglish":"Pattani","labelLocal":"จังหวัดปัตตานี","labelBoth":"Pattani · จังหวัดปัตตานี","type":"Province","iso":"TH-94","qid":"Q236781"},"geometry":{"type":"Polygon","coordinates":[[[101.068,6.8577],[101.1011,6.6379],[101.6017,6.5554],[101.7235,6.5744],[101.5663,6.8322],[101.3208,6.9493],[101.068,6.8577]]]}},{"type":"Feature","id":"label-THA-494","properties":{"kind":"division-label","code":"THA-494","countryCode":"THA","name":"Pattani","localName":"จังหวัดปัตตานี","labelEnglish":"Pattani","labelLocal":"จังหวัดปัตตานี","labelBoth":"Pattani · จังหวัดปัตตานี","type":"Province","iso":"TH-94","qid":"Q236781"},"geometry":{"type":"Point","coordinates":[101.381,6.7391]}},{"type":"Feature","id":"THA-383","properties":{"kind":"division","code":"THA-383","countryCode":"THA","name":"Phatthalung","localName":"จังหวัดพัทลุง","labelEnglish":"Phatthalung","labelLocal":"จังหวัดพัทลุง","labelBoth":"Phatthalung · จังหวัดพัทลุง","type":"Province","iso":"TH-93","qid":"Q243808"},"geometry":{"type":"Polygon","coordinates":[[[100.2009,7.7723],[100.1296,7.8017],[99.7443,7.8509],[100.0306,7.0917],[100.3788,7.3098],[100.1854,7.5142],[100.2009,7.7723]]]}},{"type":"Feature","id":"label-THA-383","properties":{"kind":"division-label","code":"THA-383","countryCode":"THA","name":"Phatthalung","localName":"จังหวัดพัทลุง","labelEnglish":"Phatthalung","labelLocal":"จังหวัดพัทลุง","labelBoth":"Phatthalung · จังหวัดพัทลุง","type":"Province","iso":"TH-93","qid":"Q243808"},"geometry":{"type":"Point","coordinates":[100.062,7.47276]}},{"type":"Feature","id":"THA-376","properties":{"kind":"division","code":"THA-376","countryCode":"THA","name":"Nakhon Si Thammarat","localName":"จังหวัดนครศรีธรรมราช","labelEnglish":"Nakhon Si Thammarat","labelLocal":"จังหวัดนครศรีธรรมราช","labelBoth":"Nakhon Si Thammarat · จังหวัดนครศรีธรรมราช","type":"Province","iso":"TH-80","qid":"Q244691"},"geometry":{"type":"Polygon","coordinates":[[[99.7718,9.3123],[99.6861,8.9277],[99.5277,8.8426],[99.2661,8.3416],[99.3381,7.9431],[99.7443,7.8509],[100.1296,7.8017],[100.3425,7.9388],[100.2715,8.3171],[99.9592,8.6376],[99.9163,9.102],[99.7718,9.3123]]]}},{"type":"Feature","id":"label-THA-376","properties":{"kind":"division-label","code":"THA-376","countryCode":"THA","name":"Nakhon Si Thammarat","localName":"จังหวัดนครศรีธรรมราช","labelEnglish":"Nakhon Si Thammarat","labelLocal":"จังหวัดนครศรีธรรมราช","labelBoth":"Nakhon Si Thammarat · จังหวัดนครศรีธรรมราช","type":"Province","iso":"TH-80","qid":"Q244691"},"geometry":{"type":"Point","coordinates":[99.7819,8.37448]}},{"type":"Feature","id":"THA-380","properties":{"kind":"division","code":"THA-380","countryCode":"THA","name":"Surat Thani","localName":"จังหวัดสุราษฎร์ธานี","labelEnglish":"Surat Thani","labelLocal":"จังหวัดสุราษฎร์ธานี","labelBoth":"Surat Thani · จังหวัดสุราษฎร์ธานี","type":"Province","iso":"TH-84","qid":"Q240463"},"geometry":{"type":"Polygon","coordinates":[[[99.1449,9.7912],[98.7498,9.6012],[98.673,9.3575],[98.511,9.3064],[98.4587,8.8872],[98.7133,8.6251],[98.9264,8.559],[98.9166,8.3136],[99.2661,8.3416],[99.5277,8.8426],[99.6861,8.9277],[99.7718,9.3123],[99.2551,9.2325],[99.3236,9.3915],[99.1449,9.7912]]]}},{"type":"Feature","id":"label-THA-380","properties":{"kind":"division-label","code":"THA-380","countryCode":"THA","name":"Surat Thani","localName":"จังหวัดสุราษฎร์ธานี","labelEnglish":"Surat Thani","labelLocal":"จังหวัดสุราษฎร์ธานี","labelBoth":"Surat Thani · จังหวัดสุราษฎร์ธานี","type":"Province","iso":"TH-84","qid":"Q240463"},"geometry":{"type":"Point","coordinates":[99.0107,9.0048]}},{"type":"Feature","id":"THA-424","properties":{"kind":"division","code":"THA-424","countryCode":"THA","name":"Samut Songkhram","localName":"จังหวัดสมุทรสงคราม","labelEnglish":"Samut Songkhram","labelLocal":"จังหวัดสมุทรสงคราม","labelBoth":"Samut Songkhram · จังหวัดสมุทรสงคราม","type":"Province","iso":"TH-75","qid":"Q459742"},"geometry":{"type":"Polygon","coordinates":[[[100.089,13.426],[100.0379,13.5045],[99.8587,13.3284],[99.9609,13.2916],[100.089,13.426]]]}},{"type":"Feature","id":"label-THA-424","properties":{"kind":"division-label","code":"THA-424","countryCode":"THA","name":"Samut Songkhram","localName":"จังหวัดสมุทรสงคราม","labelEnglish":"Samut Songkhram","labelLocal":"จังหวัดสมุทรสงคราม","labelBoth":"Samut Songkhram · จังหวัดสมุทรสงคราม","type":"Province","iso":"TH-75","qid":"Q459742"},"geometry":{"type":"Point","coordinates":[99.9736,13.4036]}},{"type":"Feature","id":"THA-423","properties":{"kind":"division","code":"THA-423","countryCode":"THA","name":"Samut Sakhon","localName":"จังหวัดสมุทรสาคร","labelEnglish":"Samut Sakhon","labelLocal":"จังหวัดสมุทรสาคร","labelBoth":"Samut Sakhon · จังหวัดสมุทรสาคร","type":"Province","iso":"TH-74","qid":"Q334686"},"geometry":{"type":"Polygon","coordinates":[[[100.4008,13.4906],[100.3318,13.7301],[100.0787,13.6837],[100.0379,13.5045],[100.089,13.426],[100.4008,13.4906]]]}},{"type":"Feature","id":"label-THA-423","properties":{"kind":"division-label","code":"THA-423","countryCode":"THA","name":"Samut Sakhon","localName":"จังหวัดสมุทรสาคร","labelEnglish":"Samut Sakhon","labelLocal":"จังหวัดสมุทรสาคร","labelBoth":"Samut Sakhon · จังหวัดสมุทรสาคร","type":"Province","iso":"TH-74","qid":"Q334686"},"geometry":{"type":"Point","coordinates":[100.225,13.5655]}},{"type":"Feature","id":"THA-416","properties":{"kind":"division","code":"THA-416","countryCode":"THA","name":"Bangkok","localName":"จังหวัดเชียงใหม่","labelEnglish":"Bangkok","labelLocal":"จังหวัดเชียงใหม่","labelBoth":"Bangkok · จังหวัดเชียงใหม่","type":"Province","iso":"TH-10","qid":"Q1861"},"geometry":{"type":"Polygon","coordinates":[[[100.467,13.4957],[100.5008,13.6671],[100.8554,13.692],[100.9048,13.9498],[100.5515,13.9479],[100.3357,13.7987],[100.3318,13.7301],[100.4008,13.4906],[100.467,13.4957]]]}},{"type":"Feature","id":"label-THA-416","properties":{"kind":"division-label","code":"THA-416","countryCode":"THA","name":"Bangkok","localName":"จังหวัดเชียงใหม่","labelEnglish":"Bangkok","labelLocal":"จังหวัดเชียงใหม่","labelBoth":"Bangkok · จังหวัดเชียงใหม่","type":"Province","iso":"TH-10","qid":"Q1861"},"geometry":{"type":"Point","coordinates":[100.626,13.793]}},{"type":"Feature","id":"THA-422","properties":{"kind":"division","code":"THA-422","countryCode":"THA","name":"Samut Prakan","localName":"จังหวัดสมุทรปราการ","labelEnglish":"Samut Prakan","labelLocal":"จังหวัดสมุทรปราการ","labelBoth":"Samut Prakan · จังหวัดสมุทรปราการ","type":"Province","iso":"TH-11","qid":"Q271529"},"geometry":{"type":"Polygon","coordinates":[[[100.841,13.4782],[100.8554,13.692],[100.5008,13.6671],[100.467,13.4957],[100.841,13.4782]]]}},{"type":"Feature","id":"label-THA-422","properties":{"kind":"division-label","code":"THA-422","countryCode":"THA","name":"Samut Prakan","localName":"จังหวัดสมุทรปราการ","labelEnglish":"Samut Prakan","labelLocal":"จังหวัดสมุทรปราการ","labelBoth":"Samut Prakan · จังหวัดสมุทรปราการ","type":"Province","iso":"TH-11","qid":"Q271529"},"geometry":{"type":"Point","coordinates":[100.704,13.606]}},{"type":"Feature","id":"THA-431","properties":{"kind":"division","code":"THA-431","countryCode":"THA","name":"Chachoengsao","localName":"จังหวัดฉะเชิงเทรา","labelEnglish":"Chachoengsao","labelLocal":"จังหวัดฉะเชิงเทรา","labelBoth":"Chachoengsao · จังหวัดฉะเชิงเทรา","type":"Province","iso":"TH-24","qid":"Q334906"},"geometry":{"type":"Polygon","coordinates":[[[100.9807,13.4629],[101.1533,13.5894],[101.5209,13.4011],[101.7176,13.1717],[101.9954,13.3362],[101.8762,13.7231],[101.1618,13.8506],[101.1408,13.9684],[100.9053,13.9554],[100.9048,13.9498],[100.8554,13.692],[100.841,13.4782],[100.9807,13.4629]]]}},{"type":"Feature","id":"label-THA-431","properties":{"kind":"division-label","code":"THA-431","countryCode":"THA","name":"Chachoengsao","localName":"จังหวัดฉะเชิงเทรา","labelEnglish":"Chachoengsao","labelLocal":"จังหวัดฉะเชิงเทรา","labelBoth":"Chachoengsao · จังหวัดฉะเชิงเทรา","type":"Province","iso":"TH-24","qid":"Q334906"},"geometry":{"type":"Point","coordinates":[101.419,13.6342]}},{"type":"Feature","id":"THA-430","properties":{"kind":"division","code":"THA-430","countryCode":"THA","name":"Chon Buri","localName":"จังหวัดชลบุรี","labelEnglish":"Chon Buri","labelLocal":"จังหวัดชลบุรี","labelBoth":"Chon Buri · จังหวัดชลบุรี","type":"Province","iso":"TH-20","qid":"Q207068"},"geometry":{"type":"Polygon","coordinates":[[[100.978,12.6396],[101.1779,13.0758],[101.3846,13.0219],[101.6926,13.134],[101.7176,13.1717],[101.5209,13.4011],[101.1533,13.5894],[100.9807,13.4629],[100.8783,13.0983],[100.978,12.6396]]]}},{"type":"Feature","id":"label-THA-430","properties":{"kind":"division-label","code":"THA-430","countryCode":"THA","name":"Chon Buri","localName":"จังหวัดชลบุรี","labelEnglish":"Chon Buri","labelLocal":"จังหวัดชลบุรี","labelBoth":"Chon Buri · จังหวัดชลบุรี","type":"Province","iso":"TH-20","qid":"Q207068"},"geometry":{"type":"Point","coordinates":[101.278,13.2988]}},{"type":"Feature","id":"THA-434","properties":{"kind":"division","code":"THA-434","countryCode":"THA","name":"Rayong","localName":"จังหวัดระยอง","labelEnglish":"Rayong","labelLocal":"จังหวัดระยอง","labelBoth":"Rayong · จังหวัดระยอง","type":"Province","iso":"TH-21","qid":"Q335221"},"geometry":{"type":"Polygon","coordinates":[[[101.7891,12.6978],[101.6926,13.134],[101.3846,13.0219],[101.1779,13.0758],[100.978,12.6396],[101.4429,12.6248],[101.7891,12.6978]]]}},{"type":"Feature","id":"label-THA-434","properties":{"kind":"division-label","code":"THA-434","countryCode":"THA","name":"Rayong","localName":"จังหวัดระยอง","labelEnglish":"Rayong","labelLocal":"จังหวัดระยอง","labelBoth":"Rayong · จังหวัดระยอง","type":"Province","iso":"TH-21","qid":"Q335221"},"geometry":{"type":"Point","coordinates":[101.402,12.8125]}},{"type":"Feature","id":"THA-377","properties":{"kind":"division","code":"THA-377","countryCode":"THA","name":"Phuket","localName":"จังหวัดภูเก็ต","labelEnglish":"Phuket","labelLocal":"จังหวัดภูเก็ต","labelBoth":"Phuket · จังหวัดภูเก็ต","type":"Province","iso":"TH-83","qid":"Q182565"},"geometry":{"type":"Polygon","coordinates":[[[98.4186,7.9038],[98.2814,8.1918],[98.3091,7.7677],[98.4186,7.9038]]]}},{"type":"Feature","id":"label-THA-377","properties":{"kind":"division-label","code":"THA-377","countryCode":"THA","name":"Phuket","localName":"จังหวัดภูเก็ต","labelEnglish":"Phuket","labelLocal":"จังหวัดภูเก็ต","labelBoth":"Phuket · จังหวัดภูเก็ต","type":"Province","iso":"TH-83","qid":"Q182565"},"geometry":{"type":"Point","coordinates":[98.3472,7.97108]}},{"type":"Feature","id":"THA-438","properties":{"kind":"division","code":"THA-438","countryCode":"THA","name":"Khon Kaen","localName":"จังหวัดขอนแก่น","labelEnglish":"Khon Kaen","labelLocal":"จังหวัดขอนแก่น","labelBoth":"Khon Kaen · จังหวัดขอนแก่น","type":"Province","iso":"TH-40","qid":"Q327533"},"geometry":{"type":"Polygon","coordinates":[[[102.0713,16.8854],[101.7906,16.7665],[101.7514,16.6704],[102.4532,16.4068],[102.267,16.0733],[102.3317,15.8058],[102.7893,15.6395],[102.9465,15.7892],[102.8548,16.2781],[103.1626,16.6434],[103.1131,16.9128],[102.6758,16.9437],[102.6118,16.77],[102.0713,16.8854]]]}},{"type":"Feature","id":"label-THA-438","properties":{"kind":"division-label","code":"THA-438","countryCode":"THA","name":"Khon Kaen","localName":"จังหวัดขอนแก่น","labelEnglish":"Khon Kaen","labelLocal":"จังหวัดขอนแก่น","labelBoth":"Khon Kaen · จังหวัดขอนแก่น","type":"Province","iso":"TH-40","qid":"Q327533"},"geometry":{"type":"Point","coordinates":[102.683,16.5762]}},{"type":"Feature","id":"THA-447","properties":{"kind":"division","code":"THA-447","countryCode":"THA","name":"Sakon Nakhon","localName":"จังหวัดสกลนคร","labelEnglish":"Sakon Nakhon","labelLocal":"จังหวัดสกลนคร","labelBoth":"Sakon Nakhon · จังหวัดสกลนคร","type":"Province","iso":"TH-47","qid":"Q382125"},"geometry":{"type":"Polygon","coordinates":[[[103.4357,17.99],[103.3996,17.8664],[103.2698,17.2669],[103.6501,17.0439],[103.9376,16.7801],[104.0729,16.8326],[104.239,16.8962],[104.3944,17.0374],[104.4135,17.4209],[104.0589,17.386],[104.0103,17.8012],[103.5415,18.0617],[103.4357,17.99]]]}},{"type":"Feature","id":"label-THA-447","properties":{"kind":"division-label","code":"THA-447","countryCode":"THA","name":"Sakon Nakhon","localName":"จังหวัดสกลนคร","labelEnglish":"Sakon Nakhon","labelLocal":"จังหวัดสกลนคร","labelBoth":"Sakon Nakhon · จังหวัดสกลนคร","type":"Province","iso":"TH-47","qid":"Q382125"},"geometry":{"type":"Point","coordinates":[103.845,17.3577]}},{"type":"Feature","id":"THA-403","properties":{"kind":"division","code":"THA-403","countryCode":"THA","name":"Suphan Buri","localName":"จังหวัดสุพรรณบุรี","labelEnglish":"Suphan Buri","labelLocal":"จังหวัดสุพรรณบุรี","labelBoth":"Suphan Buri · จังหวัดสุพรรณบุรี","type":"Province","iso":"TH-72","qid":"Q272247"},"geometry":{"type":"Polygon","coordinates":[[[100.2115,14.9551],[99.726,14.9612],[99.28,14.9998],[99.459,14.6908],[99.6782,14.7942],[99.8252,14.5184],[99.8115,14.0618],[100.221,14.1771],[100.2541,14.4865],[100.2324,14.7898],[100.2115,14.9551]]]}},{"type":"Feature","id":"label-THA-403","properties":{"kind":"division-label","code":"THA-403","countryCode":"THA","name":"Suphan Buri","localName":"จังหวัดสุพรรณบุรี","labelEnglish":"Suphan Buri","labelLocal":"จังหวัดสุพรรณบุรี","labelBoth":"Suphan Buri · จังหวัดสุพรรณบุรี","type":"Province","iso":"TH-72","qid":"Q272247"},"geometry":{"type":"Point","coordinates":[100.034,14.4298]}},{"type":"Feature","id":"THA-414","properties":{"kind":"division","code":"THA-414","countryCode":"THA","name":"Sing Buri","localName":"จังหวัดสิงห์บุรี","labelEnglish":"Sing Buri","labelLocal":"จังหวัดสิงห์บุรี","labelBoth":"Sing Buri · จังหวัดสิงห์บุรี","type":"Province","iso":"TH-17","qid":"Q334836"},"geometry":{"type":"Polygon","coordinates":[[[100.2115,14.9551],[100.2324,14.7898],[100.4771,14.7248],[100.4429,15.0604],[100.3093,15.1676],[100.2115,14.9551]]]}},{"type":"Feature","id":"label-THA-414","properties":{"kind":"division-label","code":"THA-414","countryCode":"THA","name":"Sing Buri","localName":"จังหวัดสิงห์บุรี","labelEnglish":"Sing Buri","labelLocal":"จังหวัดสิงห์บุรี","labelBoth":"Sing Buri · จังหวัดสิงห์บุรี","type":"Province","iso":"TH-17","qid":"Q334836"},"geometry":{"type":"Point","coordinates":[100.343,14.9746]}},{"type":"Feature","id":"THA-407","properties":{"kind":"division","code":"THA-407","countryCode":"THA","name":"Chai Nat","localName":"จังหวัดชัยนาท","labelEnglish":"Chai Nat","labelLocal":"จังหวัดชัยนาท","labelBoth":"Chai Nat · จังหวัดชัยนาท","type":"Province","iso":"TH-18","qid":"Q459759"},"geometry":{"type":"Polygon","coordinates":[[[99.726,14.9612],[100.2115,14.9551],[100.3093,15.1676],[100.0576,15.4197],[100.0506,15.2644],[99.7606,15.3172],[99.726,14.9612]]]}},{"type":"Feature","id":"label-THA-407","properties":{"kind":"division-label","code":"THA-407","countryCode":"THA","name":"Chai Nat","localName":"จังหวัดชัยนาท","labelEnglish":"Chai Nat","labelLocal":"จังหวัดชัยนาท","labelBoth":"Chai Nat · จังหวัดชัยนาท","type":"Province","iso":"TH-18","qid":"Q459759"},"geometry":{"type":"Point","coordinates":[100.013,15.1055]}},{"type":"Feature","id":"THA-406","properties":{"kind":"division","code":"THA-406","countryCode":"THA","name":"Ang Thong","localName":"จังหวัดอ่างทอง","labelEnglish":"Ang Thong","labelLocal":"จังหวัดอ่างทอง","labelBoth":"Ang Thong · จังหวัดอ่างทอง","type":"Province","iso":"TH-15","qid":"Q243795"},"geometry":{"type":"Polygon","coordinates":[[[100.2541,14.4865],[100.4993,14.4555],[100.5157,14.6859],[100.4771,14.7248],[100.2324,14.7898],[100.2541,14.4865]]]}},{"type":"Feature","id":"label-THA-406","properties":{"kind":"division-label","code":"THA-406","countryCode":"THA","name":"Ang Thong","localName":"จังหวัดอ่างทอง","labelEnglish":"Ang Thong","labelLocal":"จังหวัดอ่างทอง","labelBoth":"Ang Thong · จังหวัดอ่างทอง","type":"Province","iso":"TH-15","qid":"Q243795"},"geometry":{"type":"Point","coordinates":[100.357,14.6335]}},{"type":"Feature","id":"THA-415","properties":{"kind":"division","code":"THA-415","countryCode":"THA","name":"Saraburi","localName":"จังหวัดสระบุรี","labelEnglish":"Saraburi","labelLocal":"จังหวัดสระบุรี","labelBoth":"Saraburi · จังหวัดสระบุรี","type":"Province","iso":"TH-19","qid":"Q337627"},"geometry":{"type":"Polygon","coordinates":[[[101.1931,14.7559],[100.8294,14.8826],[100.594,14.6559],[100.7703,14.5615],[100.8228,14.2418],[100.9124,14.2139],[101.2429,14.4798],[101.1931,14.7559]]]}},{"type":"Feature","id":"label-THA-415","properties":{"kind":"division-label","code":"THA-415","countryCode":"THA","name":"Saraburi","localName":"จังหวัดสระบุรี","labelEnglish":"Saraburi","labelLocal":"จังหวัดสระบุรี","labelBoth":"Saraburi · จังหวัดสระบุรี","type":"Province","iso":"TH-19","qid":"Q337627"},"geometry":{"type":"Point","coordinates":[100.909,14.4914]}},{"type":"Feature","id":"THA-441","properties":{"kind":"division","code":"THA-441","countryCode":"THA","name":"Nakhon Ratchasima","localName":"จังหวัดนครราชสีมา","labelEnglish":"Nakhon Ratchasima","labelLocal":"จังหวัดนครราชสีมา","labelBoth":"Nakhon Ratchasima · จังหวัดนครราชสีมา","type":"Province","iso":"TH-30","qid":"Q271737"},"geometry":{"type":"Polygon","coordinates":[[[101.2429,14.4798],[101.4093,14.4248],[101.7487,14.317],[101.8969,14.393],[102.0528,14.1856],[102.5942,14.1487],[102.6172,14.2857],[102.4446,14.8361],[102.9829,15.1938],[103.0184,15.445],[102.7893,15.6395],[102.3317,15.8058],[102.0403,15.6587],[101.8849,15.385],[101.4065,15.2141],[101.3004,15.302],[101.2807,15.0877],[101.447,14.8615],[101.1931,14.7559],[101.2429,14.4798]]]}},{"type":"Feature","id":"label-THA-441","properties":{"kind":"division-label","code":"THA-441","countryCode":"THA","name":"Nakhon Ratchasima","localName":"จังหวัดนครราชสีมา","labelEnglish":"Nakhon Ratchasima","labelLocal":"จังหวัดนครราชสีมา","labelBoth":"Nakhon Ratchasima · จังหวัดนครราชสีมา","type":"Province","iso":"TH-30","qid":"Q271737"},"geometry":{"type":"Point","coordinates":[102.103,14.8923]}},{"type":"Feature","id":"THA-409","properties":{"kind":"division","code":"THA-409","countryCode":"THA","name":"Nakhon Nayok","localName":"จังหวัดนครนายก","labelEnglish":"Nakhon Nayok","labelLocal":"จังหวัดนครนายก","labelBoth":"Nakhon Nayok · จังหวัดนครนายก","type":"Province","iso":"TH-26","qid":"Q466212"},"geometry":{"type":"Polygon","coordinates":[[[101.2429,14.4798],[100.9124,14.2139],[100.9053,13.9554],[101.1408,13.9684],[101.5156,14.3063],[101.4093,14.4248],[101.2429,14.4798]]]}},{"type":"Feature","id":"label-THA-409","properties":{"kind":"division-label","code":"THA-409","countryCode":"THA","name":"Nakhon Nayok","localName":"จังหวัดนครนายก","labelEnglish":"Nakhon Nayok","labelLocal":"จังหวัดนครนายก","labelBoth":"Nakhon Nayok · จังหวัดนครนายก","type":"Province","iso":"TH-26","qid":"Q466212"},"geometry":{"type":"Point","coordinates":[101.21,14.2249]}},{"type":"Feature","id":"THA-413","properties":{"kind":"division","code":"THA-413","countryCode":"THA","name":"Pathum Thani","localName":"จังหวัดปทุมธานี","labelEnglish":"Pathum Thani","labelLocal":"จังหวัดปทุมธานี","labelBoth":"Pathum Thani · จังหวัดปทุมธานี","type":"Province","iso":"TH-13","qid":"Q459748"},"geometry":{"type":"Polygon","coordinates":[[[100.9124,14.2139],[100.8228,14.2418],[100.3503,14.1137],[100.5515,13.9479],[100.9048,13.9498],[100.9053,13.9554],[100.9124,14.2139]]]}},{"type":"Feature","id":"label-THA-413","properties":{"kind":"division-label","code":"THA-413","countryCode":"THA","name":"Pathum Thani","localName":"จังหวัดปทุมธานี","labelEnglish":"Pathum Thani","labelLocal":"จังหวัดปทุมธานี","labelBoth":"Pathum Thani · จังหวัดปทุมธานี","type":"Province","iso":"TH-13","qid":"Q459748"},"geometry":{"type":"Point","coordinates":[100.625,14.034]}},{"type":"Feature","id":"THA-405","properties":{"kind":"division","code":"THA-405","countryCode":"THA","name":"Uthai Thani","localName":"จังหวัดอุทัยธานี","labelEnglish":"Uthai Thani","labelLocal":"จังหวัดอุทัยธานี","labelBoth":"Uthai Thani · จังหวัดอุทัยธานี","type":"Province","iso":"TH-61","qid":"Q244649"},"geometry":{"type":"Polygon","coordinates":[[[99.28,14.9998],[99.726,14.9612],[99.7606,15.3172],[100.0506,15.2644],[100.0576,15.4197],[99.7271,15.6796],[99.511,15.5603],[99.1214,15.7698],[98.9804,15.2206],[99.08,15.0119],[99.28,14.9998]]]}},{"type":"Feature","id":"label-THA-405","properties":{"kind":"division-label","code":"THA-405","countryCode":"THA","name":"Uthai Thani","localName":"จังหวัดอุทัยธานี","labelEnglish":"Uthai Thani","labelLocal":"จังหวัดอุทัยธานี","labelBoth":"Uthai Thani · จังหวัดอุทัยธานี","type":"Province","iso":"TH-61","qid":"Q244649"},"geometry":{"type":"Point","coordinates":[99.5275,15.27]}},{"type":"Feature","id":"THA-439","properties":{"kind":"division","code":"THA-439","countryCode":"THA","name":"Kalasin","localName":"จังหวัดกาฬสินธุ์","labelEnglish":"Kalasin","labelLocal":"จังหวัดกาฬสินธุ์","labelBoth":"Kalasin · จังหวัดกาฬสินธุ์","type":"Province","iso":"TH-46","qid":"Q382144"},"geometry":{"type":"Polygon","coordinates":[[[103.1131,16.9128],[103.1626,16.6434],[103.1823,16.3731],[103.5256,16.2097],[103.7266,16.2214],[103.8056,16.4572],[104.2443,16.4329],[104.0729,16.8326],[103.9376,16.7801],[103.6501,17.0439],[103.4335,16.8278],[103.1131,16.9128]]]}},{"type":"Feature","id":"label-THA-439","properties":{"kind":"division-label","code":"THA-439","countryCode":"THA","name":"Kalasin","localName":"จังหวัดกาฬสินธุ์","labelEnglish":"Kalasin","labelLocal":"จังหวัดกาฬสินธุ์","labelBoth":"Kalasin · จังหวัดกาฬสินธุ์","type":"Province","iso":"TH-46","qid":"Q382144"},"geometry":{"type":"Point","coordinates":[103.679,16.6224]}},{"type":"Feature","id":"THA-442","properties":{"kind":"division","code":"THA-442","countryCode":"THA","name":"Roi Et","localName":"ร้อยเอ็ด","labelEnglish":"Roi Et","labelLocal":"ร้อยเอ็ด","labelBoth":"Roi Et · ร้อยเอ็ด","type":"Province","iso":"TH-45","qid":"Q625463"},"geometry":{"type":"Polygon","coordinates":[[[104.2443,16.4329],[103.8056,16.4572],[103.7266,16.2214],[103.5256,16.2097],[103.4175,15.4279],[103.986,15.4102],[104.1295,15.5645],[104.0192,15.9763],[104.3559,16.3234],[104.2443,16.4329]]]}},{"type":"Feature","id":"label-THA-442","properties":{"kind":"division-label","code":"THA-442","countryCode":"THA","name":"Roi Et","localName":"ร้อยเอ็ด","labelEnglish":"Roi Et","labelLocal":"ร้อยเอ็ด","labelBoth":"Roi Et · ร้อยเอ็ด","type":"Province","iso":"TH-45","qid":"Q625463"},"geometry":{"type":"Point","coordinates":[103.827,15.9601]}},{"type":"Feature","id":"THA-440","properties":{"kind":"division","code":"THA-440","countryCode":"THA","name":"Maha Sarakham","localName":"จังหวัดมหาสารคาม","labelEnglish":"Maha Sarakham","labelLocal":"จังหวัดมหาสารคาม","labelBoth":"Maha Sarakham · จังหวัดมหาสารคาม","type":"Province","iso":"TH-44","qid":"Q468554"},"geometry":{"type":"Polygon","coordinates":[[[103.1626,16.6434],[102.8548,16.2781],[102.9465,15.7892],[103.1158,15.4823],[103.4175,15.4279],[103.5256,16.2097],[103.1823,16.3731],[103.1626,16.6434]]]}},{"type":"Feature","id":"label-THA-440","properties":{"kind":"division-label","code":"THA-440","countryCode":"THA","name":"Maha Sarakham","localName":"จังหวัดมหาสารคาม","labelEnglish":"Maha Sarakham","labelLocal":"จังหวัดมหาสารคาม","labelBoth":"Maha Sarakham · จังหวัดมหาสารคาม","type":"Province","iso":"TH-44","qid":"Q468554"},"geometry":{"type":"Point","coordinates":[103.188,15.9151]}},{"type":"Feature","id":"THA-449","properties":{"kind":"division","code":"THA-449","countryCode":"THA","name":"Nong Bua Lam Phu","localName":"จังหวัดหนองบัวลำภู","labelEnglish":"Nong Bua Lam Phu","labelLocal":"จังหวัดหนองบัวลำภู","labelBoth":"Nong Bua Lam Phu · จังหวัดหนองบัวลำภู","type":"Province","iso":"TH-39","qid":"Q261241"},"geometry":{"type":"Polygon","coordinates":[[[102.6758,16.9437],[102.5131,17.1331],[102.3703,17.622],[102.1212,17.5832],[101.9464,17.1983],[102.1466,17.0153],[102.0713,16.8854],[102.6118,16.77],[102.6758,16.9437]]]}},{"type":"Feature","id":"label-THA-449","properties":{"kind":"division-label","code":"THA-449","countryCode":"THA","name":"Nong Bua Lam Phu","localName":"จังหวัดหนองบัวลำภู","labelEnglish":"Nong Bua Lam Phu","labelLocal":"จังหวัดหนองบัวลำภู","labelBoth":"Nong Bua Lam Phu · จังหวัดหนองบัวลำภู","type":"Province","iso":"TH-39","qid":"Q261241"},"geometry":{"type":"Point","coordinates":[102.311,17.2392]}},{"type":"Feature","id":"THA-408","properties":{"kind":"division","code":"THA-408","countryCode":"THA","name":"Lopburi","localName":"ลพบุรี","labelEnglish":"Lopburi","labelLocal":"ลพบุรี","labelBoth":"Lopburi · ลพบุรี","type":"Province","iso":"TH-16","qid":"Q336122"},"geometry":{"type":"Polygon","coordinates":[[[101.3004,15.302],[100.9734,15.4827],[100.7396,15.4976],[100.4429,15.0604],[100.4771,14.7248],[100.5157,14.6859],[100.594,14.6559],[100.8294,14.8826],[101.1931,14.7559],[101.447,14.8615],[101.2807,15.0877],[101.3004,15.302]]]}},{"type":"Feature","id":"label-THA-408","properties":{"kind":"division-label","code":"THA-408","countryCode":"THA","name":"Lopburi","localName":"ลพบุรี","labelEnglish":"Lopburi","labelLocal":"ลพบุรี","labelBoth":"Lopburi · ลพบุรี","type":"Province","iso":"TH-16","qid":"Q336122"},"geometry":{"type":"Point","coordinates":[100.944,15.1147]}},{"type":"Feature","id":"THA-448","properties":{"kind":"division","code":"THA-448","countryCode":"THA","name":"Udon Thani","localName":"จังหวัดอุดรธานี","labelEnglish":"Udon Thani","labelLocal":"จังหวัดอุดรธานี","labelBoth":"Udon Thani · จังหวัดอุดรธานี","type":"Province","iso":"TH-41","qid":"Q380752"},"geometry":{"type":"Polygon","coordinates":[[[102.6758,16.9437],[103.1131,16.9128],[103.4335,16.8278],[103.6501,17.0439],[103.2698,17.2669],[103.3996,17.8664],[103.1651,17.8025],[102.885,17.8853],[102.7359,17.6002],[102.0584,18.0884],[102.0251,17.7333],[102.1212,17.5832],[102.3703,17.622],[102.5131,17.1331],[102.6758,16.9437]]]}},{"type":"Feature","id":"label-THA-448","properties":{"kind":"division-label","code":"THA-448","countryCode":"THA","name":"Udon Thani","localName":"จังหวัดอุดรธานี","labelEnglish":"Udon Thani","labelLocal":"จังหวัดอุดรธานี","labelBoth":"Udon Thani · จังหวัดอุดรธานี","type":"Province","iso":"TH-41","qid":"Q380752"},"geometry":{"type":"Point","coordinates":[102.882,17.4511]}},{"type":"Feature","id":"THA-412","properties":{"kind":"division","code":"THA-412","countryCode":"THA","name":"Phra Nakhon Si Ayutthaya","localName":"จังหวัดพระนครศรีอยุธยา","labelEnglish":"Phra Nakhon Si Ayutthaya","labelLocal":"จังหวัดพระนครศรีอยุธยา","labelBoth":"Phra Nakhon Si Ayutthaya · จังหวัดพระนครศรีอยุธยา","type":"Province","iso":"TH-14","qid":"Q476222"},"geometry":{"type":"Polygon","coordinates":[[[100.221,14.1771],[100.2832,14.1162],[100.3503,14.1137],[100.8228,14.2418],[100.7703,14.5615],[100.594,14.6559],[100.5157,14.6859],[100.4993,14.4555],[100.2541,14.4865],[100.221,14.1771]]]}},{"type":"Feature","id":"label-THA-412","properties":{"kind":"division-label","code":"THA-412","countryCode":"THA","name":"Phra Nakhon Si Ayutthaya","localName":"จังหวัดพระนครศรีอยุธยา","labelEnglish":"Phra Nakhon Si Ayutthaya","labelLocal":"จังหวัดพระนครศรีอยุธยา","labelBoth":"Phra Nakhon Si Ayutthaya · จังหวัดพระนครศรีอยุธยา","type":"Province","iso":"TH-14","qid":"Q476222"},"geometry":{"type":"Point","coordinates":[100.522,14.402]}},{"type":"Feature","id":"THA-417","properties":{"kind":"division","code":"THA-417","countryCode":"THA","name":"Nonthaburi","localName":"จังหวัดนนทบุรี","labelEnglish":"Nonthaburi","labelLocal":"จังหวัดนนทบุรี","labelBoth":"Nonthaburi · จังหวัดนนทบุรี","type":"Province","iso":"TH-12","qid":"Q242932"},"geometry":{"type":"Polygon","coordinates":[[[100.3503,14.1137],[100.2832,14.1162],[100.3357,13.7987],[100.5515,13.9479],[100.3503,14.1137]]]}},{"type":"Feature","id":"label-THA-417","properties":{"kind":"division-label","code":"THA-417","countryCode":"THA","name":"Nonthaburi","localName":"จังหวัดนนทบุรี","labelEnglish":"Nonthaburi","labelLocal":"จังหวัดนนทบุรี","labelBoth":"Nonthaburi · จังหวัดนนทบุรี","type":"Province","iso":"TH-12","qid":"Q242932"},"geometry":{"type":"Point","coordinates":[100.407,13.8933]}},{"type":"Feature","id":"THA-418","properties":{"kind":"division","code":"THA-418","countryCode":"THA","name":"Nakhon Pathom","localName":"อำเภอเมืองนครปฐม","labelEnglish":"Nakhon Pathom","labelLocal":"อำเภอเมืองนครปฐม","labelBoth":"Nakhon Pathom · อำเภอเมืองนครปฐม","type":"Province","iso":"TH-73","qid":"Q334841"},"geometry":{"type":"Polygon","coordinates":[[[100.221,14.1771],[99.8115,14.0618],[99.8801,13.9445],[100.0787,13.6837],[100.3318,13.7301],[100.3357,13.7987],[100.2832,14.1162],[100.221,14.1771]]]}},{"type":"Feature","id":"label-THA-418","properties":{"kind":"division-label","code":"THA-418","countryCode":"THA","name":"Nakhon Pathom","localName":"อำเภอเมืองนครปฐม","labelEnglish":"Nakhon Pathom","labelLocal":"อำเภอเมืองนครปฐม","labelBoth":"Nakhon Pathom · อำเภอเมืองนครปฐม","type":"Province","iso":"TH-73","qid":"Q334841"},"geometry":{"type":"Point","coordinates":[100.072,13.917]}},{"type":"Feature","id":"THA-400","properties":{"kind":"division","code":"THA-400","countryCode":"THA","name":"Kamphaeng Phet","localName":"จังหวัดกำแพงเพชร","labelEnglish":"Kamphaeng Phet","labelLocal":"จังหวัดกำแพงเพชร","labelBoth":"Kamphaeng Phet · จังหวัดกำแพงเพชร","type":"Province","iso":"TH-62","qid":"Q273807"},"geometry":{"type":"Polygon","coordinates":[[[99.9044,16.6881],[99.346,16.8879],[99.2394,16.5412],[99.0062,16.48],[99.0788,15.8689],[99.5389,15.9167],[99.6647,15.7846],[99.9946,16.3379],[100.0322,16.4962],[99.9044,16.6881]]]}},{"type":"Feature","id":"label-THA-400","properties":{"kind":"division-label","code":"THA-400","countryCode":"THA","name":"Kamphaeng Phet","localName":"จังหวัดกำแพงเพชร","labelEnglish":"Kamphaeng Phet","labelLocal":"จังหวัดกำแพงเพชร","labelBoth":"Kamphaeng Phet · จังหวัดกำแพงเพชร","type":"Province","iso":"TH-62","qid":"Q273807"},"geometry":{"type":"Point","coordinates":[99.5098,16.4009]}},{"type":"Feature","id":"THA-391","properties":{"kind":"division","code":"THA-391","countryCode":"THA","name":"Lampang","localName":"จังหวัดลำปาง","labelEnglish":"Lampang","labelLocal":"จังหวัดลำปาง","labelBoth":"Lampang · จังหวัดลำปาง","type":"Province","iso":"TH-52","qid":"Q240495"},"geometry":{"type":"Polygon","coordinates":[[[99.6874,19.4298],[99.5898,19.4718],[99.5337,19.0729],[99.3999,18.9984],[99.3148,18.5298],[99.0153,18.2423],[99.1647,17.8121],[99.0121,17.6106],[99.0454,17.3814],[99.3174,17.2607],[99.4399,17.2269],[99.4734,17.7289],[99.3154,17.7323],[99.7238,18.0709],[100.1245,18.6035],[100.1209,18.8117],[99.843,19.0008],[99.6874,19.4298]]]}},{"type":"Feature","id":"label-THA-391","properties":{"kind":"division-label","code":"THA-391","countryCode":"THA","name":"Lampang","localName":"จังหวัดลำปาง","labelEnglish":"Lampang","labelLocal":"จังหวัดลำปาง","labelBoth":"Lampang · จังหวัดลำปาง","type":"Province","iso":"TH-52","qid":"Q240495"},"geometry":{"type":"Point","coordinates":[99.5707,18.6296]}},{"type":"Feature","id":"THA-397","properties":{"kind":"division","code":"THA-397","countryCode":"THA","name":"Sukhothai","localName":"จังหวัดสุโขทัย","labelEnglish":"Sukhothai","labelLocal":"จังหวัดสุโขทัย","labelBoth":"Sukhothai · จังหวัดสุโขทัย","type":"Province","iso":"TH-64","qid":"Q380764"},"geometry":{"type":"Polygon","coordinates":[[[99.9044,16.6881],[100.1319,16.9564],[99.9828,17.1656],[100.0198,17.4737],[99.8966,17.8037],[99.4734,17.7289],[99.4399,17.2269],[99.3174,17.2607],[99.346,16.8879],[99.9044,16.6881]]]}},{"type":"Feature","id":"label-THA-397","properties":{"kind":"division-label","code":"THA-397","countryCode":"THA","name":"Sukhothai","localName":"จังหวัดสุโขทัย","labelEnglish":"Sukhothai","labelLocal":"จังหวัดสุโขทัย","labelBoth":"Sukhothai · จังหวัดสุโขทัย","type":"Province","iso":"TH-64","qid":"Q380764"},"geometry":{"type":"Point","coordinates":[99.7009,17.2435]}},{"type":"Feature","id":"THA-411","properties":{"kind":"division","code":"THA-411","countryCode":"THA","name":"Nakhon Sawan","localName":"จังหวัดนครสวรรค์","labelEnglish":"Nakhon Sawan","labelLocal":"จังหวัดนครสวรรค์","labelBoth":"Nakhon Sawan · จังหวัดนครสวรรค์","type":"Province","iso":"TH-60","qid":"Q239844"},"geometry":{"type":"Polygon","coordinates":[[[100.4429,15.0604],[100.7396,15.4976],[100.8325,15.6255],[100.7551,15.9306],[100.1713,15.9544],[99.9946,16.3379],[99.6647,15.7846],[99.5389,15.9167],[99.0788,15.8689],[99.1214,15.7698],[99.511,15.5603],[99.7271,15.6796],[100.0576,15.4197],[100.3093,15.1676],[100.4429,15.0604]]]}},{"type":"Feature","id":"label-THA-411","properties":{"kind":"division-label","code":"THA-411","countryCode":"THA","name":"Nakhon Sawan","localName":"จังหวัดนครสวรรค์","labelEnglish":"Nakhon Sawan","labelLocal":"จังหวัดนครสวรรค์","labelBoth":"Nakhon Sawan · จังหวัดนครสวรรค์","type":"Province","iso":"TH-60","qid":"Q239844"},"geometry":{"type":"Point","coordinates":[100.25,15.6943]}},{"type":"Feature","id":"THA-402","properties":{"kind":"division","code":"THA-402","countryCode":"THA","name":"Phetchabun","localName":"อำเภอเมืองเพชรบูรณ์","labelEnglish":"Phetchabun","labelLocal":"อำเภอเมืองเพชรบูรณ์","labelBoth":"Phetchabun · อำเภอเมืองเพชรบูรณ์","type":"Province","iso":"TH-67","qid":"Q240520"},"geometry":{"type":"Polygon","coordinates":[[[101.7906,16.7665],[101.6474,17.0426],[101.2096,17.116],[101.0656,16.9062],[100.8955,16.7656],[100.6682,16.347],[100.6323,16.0511],[100.7551,15.9306],[100.8325,15.6255],[100.7396,15.4976],[100.9734,15.4827],[101.3004,15.302],[101.3702,15.4063],[101.324,16.0756],[101.5105,16.6753],[101.7514,16.6704],[101.7906,16.7665]]]}},{"type":"Feature","id":"label-THA-402","properties":{"kind":"division-label","code":"THA-402","countryCode":"THA","name":"Phetchabun","localName":"อำเภอเมืองเพชรบูรณ์","labelEnglish":"Phetchabun","labelLocal":"อำเภอเมืองเพชรบูรณ์","labelBoth":"Phetchabun · อำเภอเมืองเพชรบูรณ์","type":"Province","iso":"TH-67","qid":"Q240520"},"geometry":{"type":"Point","coordinates":[101.21,16.2589]}},{"type":"Feature","id":"THA-401","properties":{"kind":"division","code":"THA-401","countryCode":"THA","name":"Phichit","localName":"จังหวัดพิจิตร","labelEnglish":"Phichit","labelLocal":"จังหวัดพิจิตร","labelBoth":"Phichit · จังหวัดพิจิตร","type":"Province","iso":"TH-66","qid":"Q237874"},"geometry":{"type":"Polygon","coordinates":[[[100.6682,16.347],[100.5486,16.5266],[100.0322,16.4962],[99.9946,16.3379],[100.1713,15.9544],[100.7551,15.9306],[100.6323,16.0511],[100.6682,16.347]]]}},{"type":"Feature","id":"label-THA-401","properties":{"kind":"division-label","code":"THA-401","countryCode":"THA","name":"Phichit","localName":"จังหวัดพิจิตร","labelEnglish":"Phichit","labelLocal":"จังหวัดพิจิตร","labelBoth":"Phichit · จังหวัดพิจิตร","type":"Province","iso":"TH-66","qid":"Q237874"},"geometry":{"type":"Point","coordinates":[100.374,16.2321]}},{"type":"Feature","id":"THA-437","properties":{"kind":"division","code":"THA-437","countryCode":"THA","name":"Chaiyaphum","localName":"จังหวัดชัยนาท","labelEnglish":"Chaiyaphum","labelLocal":"จังหวัดชัยนาท","labelBoth":"Chaiyaphum · จังหวัดชัยนาท","type":"Province","iso":"TH-36","qid":"Q275377"},"geometry":{"type":"Polygon","coordinates":[[[102.3317,15.8058],[102.267,16.0733],[102.4532,16.4068],[101.7514,16.6704],[101.5105,16.6753],[101.324,16.0756],[101.3702,15.4063],[101.3004,15.302],[101.4065,15.2141],[101.8849,15.385],[102.0403,15.6587],[102.3317,15.8058]]]}},{"type":"Feature","id":"label-THA-437","properties":{"kind":"division-label","code":"THA-437","countryCode":"THA","name":"Chaiyaphum","localName":"จังหวัดชัยนาท","labelEnglish":"Chaiyaphum","labelLocal":"จังหวัดชัยนาท","labelBoth":"Chaiyaphum · จังหวัดชัยนาท","type":"Province","iso":"TH-36","qid":"Q275377"},"geometry":{"type":"Point","coordinates":[101.877,16.0138]}},{"type":"Feature","id":"THA-395","properties":{"kind":"division","code":"THA-395","countryCode":"THA","name":"Phrae","localName":"จังหวัดแพร่","labelEnglish":"Phrae","labelLocal":"จังหวัดแพร่","labelBoth":"Phrae · จังหวัดแพร่","type":"Province","iso":"TH-54","qid":"Q244652"},"geometry":{"type":"Polygon","coordinates":[[[100.3526,18.8151],[100.1209,18.8117],[100.1245,18.6035],[99.7238,18.0709],[99.3154,17.7323],[99.4734,17.7289],[99.8966,17.8037],[100.4221,18.016],[100.5302,18.4752],[100.4086,18.4968],[100.3526,18.8151]]]}},{"type":"Feature","id":"label-THA-395","properties":{"kind":"division-label","code":"THA-395","countryCode":"THA","name":"Phrae","localName":"จังหวัดแพร่","labelEnglish":"Phrae","labelLocal":"จังหวัดแพร่","labelBoth":"Phrae · จังหวัดแพร่","type":"Province","iso":"TH-54","qid":"Q244652"},"geometry":{"type":"Point","coordinates":[99.9263,18.0577]}},{"type":"Feature","id":"THA-392","properties":{"kind":"division","code":"THA-392","countryCode":"THA","name":"Lamphun","localName":"จังหวัดลำพูน","labelEnglish":"Lamphun","labelLocal":"จังหวัดลำพูน","labelBoth":"Lamphun · จังหวัดลำพูน","type":"Province","iso":"TH-51","qid":"Q240540"},"geometry":{"type":"Polygon","coordinates":[[[99.3148,18.5298],[99.1765,18.7063],[98.7,18.4226],[98.9106,17.8186],[98.7104,17.7562],[98.7213,17.4853],[99.0121,17.6106],[99.1647,17.8121],[99.0153,18.2423],[99.3148,18.5298]]]}},{"type":"Feature","id":"label-THA-392","properties":{"kind":"division-label","code":"THA-392","countryCode":"THA","name":"Lamphun","localName":"จังหวัดลำพูน","labelEnglish":"Lamphun","labelLocal":"จังหวัดลำพูน","labelBoth":"Lamphun · จังหวัดลำพูน","type":"Province","iso":"TH-51","qid":"Q240540"},"geometry":{"type":"Point","coordinates":[98.9979,18.1333]}},{"type":"Feature","id":"THA-410","properties":{"kind":"division","code":"THA-410","countryCode":"THA","name":"Prachin Buri","localName":"จังหวัดปราจีนบุรี","labelEnglish":"Prachin Buri","labelLocal":"จังหวัดปราจีนบุรี","labelBoth":"Prachin Buri · จังหวัดปราจีนบุรี","type":"Province","iso":"TH-25","qid":"Q321324"},"geometry":{"type":"Polygon","coordinates":[[[101.1408,13.9684],[101.1618,13.8506],[101.8762,13.7231],[101.9068,14.0213],[102.0528,14.1856],[101.8969,14.393],[101.7487,14.317],[101.4093,14.4248],[101.5156,14.3063],[101.1408,13.9684]]]}},{"type":"Feature","id":"label-THA-410","properties":{"kind":"division-label","code":"THA-410","countryCode":"THA","name":"Prachin Buri","localName":"จังหวัดปราจีนบุรี","labelEnglish":"Prachin Buri","labelLocal":"จังหวัดปราจีนบุรี","labelBoth":"Prachin Buri · จังหวัดปราจีนบุรี","type":"Province","iso":"TH-25","qid":"Q321324"},"geometry":{"type":"Point","coordinates":[101.594,14.1081]}},{"type":"Feature","id":"THA-428","properties":{"kind":"division","code":"THA-428","countryCode":"THA","name":"Yasothon","localName":"จังหวัดยโสธร","labelEnglish":"Yasothon","labelLocal":"จังหวัดยโสธร","labelBoth":"Yasothon · จังหวัดยโสธร","type":"Province","iso":"TH-35","qid":"Q506598"},"geometry":{"type":"Polygon","coordinates":[[[104.1295,15.5645],[104.4183,15.2848],[104.5121,15.5834],[104.4246,15.7213],[104.6163,16.1206],[104.8129,16.1906],[104.3559,16.3234],[104.0192,15.9763],[104.1295,15.5645]]]}},{"type":"Feature","id":"label-THA-428","properties":{"kind":"division-label","code":"THA-428","countryCode":"THA","name":"Yasothon","localName":"จังหวัดยโสธร","labelEnglish":"Yasothon","labelLocal":"จังหวัดยโสธร","labelBoth":"Yasothon · จังหวัดยโสธร","type":"Province","iso":"TH-35","qid":"Q506598"},"geometry":{"type":"Point","coordinates":[104.324,16.0225]}}]}