{"type":"FeatureCollection","features":[{"type":"Feature","id":"TJK-369","properties":{"kind":"division","code":"TJK-369","countryCode":"TJK","name":"Khujand","localName":"Khujand","labelEnglish":"Khujand","labelLocal":"Khujand","labelBoth":"Khujand","type":"Region","iso":"TJ-SU","qid":"Q373808"},"geometry":{"type":"Polygon","coordinates":[[[70.959,40.2384],[70.5818,40.2217],[70.3538,40.4561],[70.7563,40.6956],[70.458,41.0157],[69.6601,40.6387],[69.4358,40.8027],[69.198,40.5458],[69.2853,40.195],[69.0736,40.2169],[68.6427,40.1837],[68.6965,40.1117],[68.9307,40.1468],[68.6403,39.8481],[68.5175,39.5484],[67.7645,39.6226],[67.4365,39.4857],[67.3587,39.2904],[67.6733,39.003],[68.1534,38.8994],[68.7745,39.0773],[69.0655,39.0304],[69.6665,39.2616],[70.1166,39.3115],[70.6556,39.4946],[69.6694,39.5778],[69.3003,39.5156],[69.314,39.9869],[69.9696,40.2116],[70.5255,40.0337],[70.959,40.2384]]]}},{"type":"Feature","id":"label-TJK-369","properties":{"kind":"division-label","code":"TJK-369","countryCode":"TJK","name":"Khujand","localName":"Khujand","labelEnglish":"Khujand","labelLocal":"Khujand","labelBoth":"Khujand","type":"Region","iso":"TJ-SU","qid":"Q373808"},"geometry":{"type":"Point","coordinates":[69.1609,39.6335]}},{"type":"Feature","id":"TJK-368","properties":{"kind":"division","code":"TJK-368","countryCode":"TJK","name":"districts of Republican Subordination","localName":"districts of Republican Subordination","labelEnglish":"districts of Republican Subordination","labelLocal":"districts of Republican Subordination","labelBoth":"districts of Republican Subordination","type":"Region","iso":"TJ-X01~","qid":"Q633490"},"geometry":{"type":"Polygon","coordinates":[[[71.5097,39.585],[70.7976,39.3853],[70.6556,39.4946],[70.1166,39.3115],[69.6665,39.2616],[69.0655,39.0304],[68.7745,39.0773],[68.1534,38.8994],[68.0552,38.5363],[68.3607,38.1741],[68.238,37.9427],[68.4659,37.9164],[68.6093,38.3282],[69.1771,38.4358],[69.3813,38.328],[69.7073,38.6119],[70.033,38.7242],[70.4391,38.5157],[70.7327,38.804],[71.0126,38.7966],[71.0717,38.5997],[71.4308,38.4774],[72.0627,38.8081],[72.2287,39.1895],[72.0498,39.3689],[71.7329,39.2851],[71.5097,39.585]],[[68.8008,38.592],[68.7296,38.4796],[68.7095,38.5911],[68.8008,38.592]]]}},{"type":"Feature","id":"label-TJK-368","properties":{"kind":"division-label","code":"TJK-368","countryCode":"TJK","name":"districts of Republican Subordination","localName":"districts of Republican Subordination","labelEnglish":"districts of Republican Subordination","labelLocal":"districts of Republican Subordination","labelBoth":"districts of Republican Subordination","type":"Region","iso":"TJ-X01~","qid":"Q633490"},"geometry":{"type":"Point","coordinates":[70.1331,38.9773]}},{"type":"Feature","id":"TJK-366","properties":{"kind":"division","code":"TJK-366","countryCode":"TJK","name":"Gorno-Badakhshan","localName":"Gorno-Badakhshan","labelEnglish":"Gorno-Badakhshan","labelLocal":"Gorno-Badakhshan","labelBoth":"Gorno-Badakhshan","type":"Region","iso":"TJ-GB","qid":"Q207319"},"geometry":{"type":"Polygon","coordinates":[[[73.6326,39.4483],[73.136,39.3535],[72.6505,39.3938],[72.2287,39.1895],[72.0627,38.8081],[71.4308,38.4774],[71.0717,38.5997],[71.0126,38.7966],[70.7327,38.804],[70.4391,38.5157],[70.2986,37.9981],[70.5958,38.3382],[70.974,38.4737],[71.3344,38.2807],[71.2583,37.9265],[71.5977,37.8984],[71.4311,37.067],[71.6111,36.7048],[71.8366,36.6992],[72.2598,36.9673],[72.6577,37.0288],[72.761,37.1875],[73.2761,37.4595],[73.7535,37.4284],[73.6177,37.2332],[74.6604,37.394],[74.8923,37.2311],[75.1641,37.4006],[74.8919,37.5992],[74.9652,37.7675],[74.7907,38.0814],[74.7763,38.5107],[74.3342,38.667],[74.0289,38.5272],[73.7974,38.6028],[73.6837,38.8549],[73.816,38.9938],[73.6023,39.2358],[73.6326,39.4483]]]}},{"type":"Feature","id":"label-TJK-366","properties":{"kind":"division-label","code":"TJK-366","countryCode":"TJK","name":"Gorno-Badakhshan","localName":"Gorno-Badakhshan","labelEnglish":"Gorno-Badakhshan","labelLocal":"Gorno-Badakhshan","labelBoth":"Gorno-Badakhshan","type":"Region","iso":"TJ-GB","qid":"Q207319"},"geometry":{"type":"Point","coordinates":[72.7189,38.2492]}},{"type":"Feature","id":"TJK-367","properties":{"kind":"division","code":"TJK-367","countryCode":"TJK","name":"Khatlon","localName":"Khatlon","labelEnglish":"Khatlon","labelLocal":"Khatlon","labelBoth":"Khatlon","type":"Region","iso":"TJ-KT","qid":"Q633511"},"geometry":{"type":"Polygon","coordinates":[[[67.7805,37.1889],[68.0248,36.9255],[68.3073,37.1142],[68.9654,37.3291],[69.3086,37.1169],[69.5287,37.586],[70.0042,37.5514],[70.2831,37.7048],[70.2986,37.9981],[70.4391,38.5157],[70.033,38.7242],[69.7073,38.6119],[69.3813,38.328],[69.1771,38.4358],[68.6093,38.3282],[68.4659,37.9164],[68.238,37.9427],[67.8292,37.5279],[67.7805,37.1889]]]}},{"type":"Feature","id":"label-TJK-367","properties":{"kind":"division-label","code":"TJK-367","countryCode":"TJK","name":"Khatlon","localName":"Khatlon","labelEnglish":"Khatlon","labelLocal":"Khatlon","labelBoth":"Khatlon","type":"Region","iso":"TJ-KT","qid":"Q633511"},"geometry":{"type":"Point","coordinates":[69.1055,37.8063]}},{"type":"Feature","id":"TJK-5491","properties":{"kind":"division","code":"TJK-5491","countryCode":"TJK","name":"Dushanbe","localName":"Dushanbe","labelEnglish":"Dushanbe","labelLocal":"Dushanbe","labelBoth":"Dushanbe","type":"Independent City","iso":"TJ-DU","qid":"Q9365"},"geometry":{"type":"Polygon","coordinates":[[[68.8008,38.592],[68.7095,38.5911],[68.7296,38.4796],[68.8008,38.592]]]}},{"type":"Feature","id":"label-TJK-5491","properties":{"kind":"division-label","code":"TJK-5491","countryCode":"TJK","name":"Dushanbe","localName":"Dushanbe","labelEnglish":"Dushanbe","labelLocal":"Dushanbe","labelBoth":"Dushanbe","type":"Independent City","iso":"TJ-DU","qid":"Q9365"},"geometry":{"type":"Point","coordinates":[68.7695,38.5518]}}]}