{"type":"FeatureCollection","features":[{"type":"Feature","id":"TKM-359","properties":{"kind":"division","code":"TKM-359","countryCode":"TKM","name":"Lebap","localName":"Lebap","labelEnglish":"Lebap","labelLocal":"Lebap","labelBoth":"Lebap","type":"Province","iso":"TM-L","qid":"Q487389"},"geometry":{"type":"Polygon","coordinates":[[[65.4879,37.242],[65.6688,37.5206],[66.2508,37.3597],[66.5196,37.3642],[66.5188,37.7827],[66.6365,37.9666],[65.8767,38.273],[65.6041,38.2374],[64.3676,38.9404],[64.1206,38.9617],[63.4776,39.4029],[62.4528,40.0092],[62.3533,40.4304],[62.1871,40.5055],[61.8779,41.125],[61.4701,41.2972],[61.2814,41.1573],[61.0043,41.2295],[60.9807,41.0026],[60.2475,41.0005],[60.253,40.3534],[60.4918,40.3017],[60.5172,39.489],[61.0223,39.514],[61.222,39.5006],[62.8292,38.193],[63.2287,38.06],[63.7086,37.6184],[63.4888,37.3442],[63.537,36.8505],[64.7285,36.8506],[64.7602,37.0926],[65.0631,37.2332],[65.4879,37.242]]]}},{"type":"Feature","id":"label-TKM-359","properties":{"kind":"division-label","code":"TKM-359","countryCode":"TKM","name":"Lebap","localName":"Lebap","labelEnglish":"Lebap","labelLocal":"Lebap","labelBoth":"Lebap","type":"Province","iso":"TM-L","qid":"Q487389"},"geometry":{"type":"Point","coordinates":[63.4465,38.6421]}},{"type":"Feature","id":"TKM-360","properties":{"kind":"division","code":"TKM-360","countryCode":"TKM","name":"Mary","localName":"Mary","labelEnglish":"Mary","labelLocal":"Mary","labelBoth":"Mary","type":"Province","iso":"TM-M","qid":"Q487401"},"geometry":{"type":"Polygon","coordinates":[[[64.7285,36.8506],[63.537,36.8505],[63.4888,37.3442],[63.7086,37.6184],[63.2287,38.06],[62.8292,38.193],[61.222,39.5006],[61.0223,39.514],[60.7702,39.2473],[60.6912,38.9398],[60.4595,38.754],[60.6031,38.3018],[60.8538,38.0962],[60.9643,37.3912],[61.4101,37.2879],[61.2306,37.1957],[61.0043,37.3534],[61.5055,36.6642],[61.5755,35.7679],[61.4193,35.5459],[61.5387,35.4523],[62.0338,35.424],[62.302,35.1475],[62.8231,35.3275],[63.0802,35.4371],[63.3429,35.8563],[63.9063,36.0317],[64.4446,36.25],[64.7285,36.8506]]]}},{"type":"Feature","id":"label-TKM-360","properties":{"kind":"division-label","code":"TKM-360","countryCode":"TKM","name":"Mary","localName":"Mary","labelEnglish":"Mary","labelLocal":"Mary","labelBoth":"Mary","type":"Province","iso":"TM-M","qid":"Q487401"},"geometry":{"type":"Point","coordinates":[62.5938,36.7994]}},{"type":"Feature","id":"TKM-352","properties":{"kind":"division","code":"TKM-352","countryCode":"TKM","name":"Ahal","localName":"Ahal","labelEnglish":"Ahal","labelLocal":"Ahal","labelBoth":"Ahal","type":"Province","iso":"TM-A","qid":"Q399899"},"geometry":{"type":"Polygon","coordinates":[[[61.2697,35.6185],[61.4193,35.5459],[61.5755,35.7679],[61.5055,36.6642],[61.0043,37.3534],[61.2306,37.1957],[61.4101,37.2879],[60.9643,37.3912],[60.8538,38.0962],[60.6031,38.3018],[60.4595,38.754],[60.6912,38.9398],[60.7702,39.2473],[61.0223,39.514],[60.5172,39.489],[60.0019,39.6622],[59.9814,40.0005],[59.1847,40.0042],[58.3986,40.2142],[57.8847,40.097],[57.1652,40.0923],[56.9838,39.9902],[57.1011,39.6429],[56.9771,39.5667],[56.5724,38.5035],[56.8895,38.4672],[57.1379,38.2624],[57.3524,37.9675],[57.7348,37.8983],[58.3718,37.6304],[58.8011,37.6947],[59.3517,37.4938],[59.3704,37.3194],[60.0192,37.0258],[60.3423,36.6371],[61.0755,36.6478],[61.2228,36.1175],[61.2697,35.6185]]]}},{"type":"Feature","id":"label-TKM-352","properties":{"kind":"division-label","code":"TKM-352","countryCode":"TKM","name":"Ahal","localName":"Ahal","labelEnglish":"Ahal","labelLocal":"Ahal","labelBoth":"Ahal","type":"Province","iso":"TM-A","qid":"Q399899"},"geometry":{"type":"Point","coordinates":[59.0838,38.8103]}},{"type":"Feature","id":"TKM-351","properties":{"kind":"division","code":"TKM-351","countryCode":"TKM","name":"Balkan","localName":"Balkan","labelEnglish":"Balkan","labelLocal":"Balkan","labelBoth":"Balkan","type":"Province","iso":"TM-B","qid":"Q486073"},"geometry":{"type":"Polygon","coordinates":[[[55.9784,41.3217],[55.4295,41.2908],[54.9071,41.9321],[54.1953,42.3181],[53.4123,42.2582],[52.9787,42.1266],[52.4377,41.7489],[52.8157,41.3887],[52.8215,41.7649],[53.1638,42.1037],[53.8967,42.0788],[54.0894,41.4748],[54.7161,41.1152],[54.76,40.965],[54.3311,40.7202],[53.721,40.6257],[53.5417,40.7616],[53.1074,40.7739],[52.9313,40.9757],[52.7366,40.4846],[52.7385,40.0536],[53.5671,39.9495],[53.4152,39.7821],[53.7116,39.5434],[53.0947,39.4199],[53.5813,39.3305],[53.6838,39.0834],[53.9776,38.9018],[53.827,38.5255],[53.8249,37.7449],[53.9137,37.3428],[54.1866,37.3237],[54.7837,37.5175],[54.8566,37.7611],[55.4231,38.0759],[56.1667,38.0808],[56.4365,38.2551],[57.0384,38.1873],[57.1379,38.2624],[56.8895,38.4672],[56.5724,38.5035],[56.9771,39.5667],[57.1011,39.6429],[56.9838,39.9902],[57.1652,40.0923],[57.029,40.5537],[56.5337,41.299],[55.9784,41.3217]]]}},{"type":"Feature","id":"label-TKM-351","properties":{"kind":"division-label","code":"TKM-351","countryCode":"TKM","name":"Balkan","localName":"Balkan","labelEnglish":"Balkan","labelLocal":"Balkan","labelBoth":"Balkan","type":"Province","iso":"TM-B","qid":"Q486073"},"geometry":{"type":"Point","coordinates":[55.2571,39.7244]}},{"type":"Feature","id":"TKM-353","properties":{"kind":"division","code":"TKM-353","countryCode":"TKM","name":"Daşoguz","localName":"Daşoguz","labelEnglish":"Daşoguz","labelLocal":"Daşoguz","labelBoth":"Daşoguz","type":"Province","iso":"TM-D","qid":"Q487672"},"geometry":{"type":"Polygon","coordinates":[[[60.1411,41.8742],[59.9318,41.9476],[60.0282,42.1995],[59.4782,42.2856],[59.122,42.538],[58.8944,42.5478],[58.6123,42.7809],[58.4932,42.6455],[58.1306,42.6388],[58.4941,42.3057],[57.9977,42.4934],[57.8505,42.1914],[57.3823,42.1636],[56.9501,41.8661],[57.0102,41.2541],[56.5337,41.299],[57.029,40.5537],[57.1652,40.0923],[57.8847,40.097],[58.3986,40.2142],[59.1847,40.0042],[59.9814,40.0005],[60.0019,39.6622],[60.5172,39.489],[60.4918,40.3017],[60.253,40.3534],[60.2475,41.0005],[60.9807,41.0026],[61.0043,41.2295],[60.4145,41.2353],[60.0942,41.3895],[60.1411,41.8742]]]}},{"type":"Feature","id":"label-TKM-353","properties":{"kind":"division-label","code":"TKM-353","countryCode":"TKM","name":"Daşoguz","localName":"Daşoguz","labelEnglish":"Daşoguz","labelLocal":"Daşoguz","labelBoth":"Daşoguz","type":"Province","iso":"TM-D","qid":"Q487672"},"geometry":{"type":"Point","coordinates":[58.769,41.3981]}}]}