{"type":"FeatureCollection","features":[{"type":"Feature","id":"TLS-543","properties":{"kind":"division","code":"TLS-543","countryCode":"TLS","name":"Oe-Cusse Ambeno","localName":"Oe-Cusse Ambeno","labelEnglish":"Oe-Cusse Ambeno","labelLocal":"Oe-Cusse Ambeno","labelBoth":"Oe-Cusse Ambeno","type":"District|Regencies","iso":"TL-OE","qid":"Q860639"},"geometry":{"type":"Polygon","coordinates":[[[124.4505,-9.1802],[124.03,-9.342],[124.2575,-9.5012],[124.4505,-9.1802]]]}},{"type":"Feature","id":"label-TLS-543","properties":{"kind":"division-label","code":"TLS-543","countryCode":"TLS","name":"Oe-Cusse Ambeno","localName":"Oe-Cusse Ambeno","labelEnglish":"Oe-Cusse Ambeno","labelLocal":"Oe-Cusse Ambeno","labelBoth":"Oe-Cusse Ambeno","type":"District|Regencies","iso":"TL-OE","qid":"Q860639"},"geometry":{"type":"Point","coordinates":[124.241,-9.32323]}},{"type":"Feature","id":"TLS-547","properties":{"kind":"division","code":"TLS-547","countryCode":"TLS","name":"Bobonaro","localName":"Bobonaro","labelEnglish":"Bobonaro","labelLocal":"Bobonaro","labelBoth":"Bobonaro","type":"District|Regencies","iso":"TL-BO","qid":"Q860913"},"geometry":{"type":"Polygon","coordinates":[[[124.9195,-8.962],[125.1527,-9.1708],[125.4106,-9.0341],[125.4131,-8.9822],[125.1792,-8.7545],[125.1029,-8.7403],[124.9195,-8.962]]]}},{"type":"Feature","id":"label-TLS-547","properties":{"kind":"division-label","code":"TLS-547","countryCode":"TLS","name":"Bobonaro","localName":"Bobonaro","labelEnglish":"Bobonaro","labelLocal":"Bobonaro","labelBoth":"Bobonaro","type":"District|Regencies","iso":"TL-BO","qid":"Q860913"},"geometry":{"type":"Point","coordinates":[125.219,-8.98073]}},{"type":"Feature","id":"TLS-548","properties":{"kind":"division","code":"TLS-548","countryCode":"TLS","name":"Cova Lima","localName":"Cova Lima","labelEnglish":"Cova Lima","labelLocal":"Cova Lima","labelBoth":"Cova Lima","type":"District|Regencies","iso":"TL-CO","qid":"Q165575"},"geometry":{"type":"Polygon","coordinates":[[[125.1527,-9.1708],[124.9541,-9.2415],[125.0616,-9.4858],[125.488,-9.2408],[125.4106,-9.0341],[125.1527,-9.1708]]]}},{"type":"Feature","id":"label-TLS-548","properties":{"kind":"division-label","code":"TLS-548","countryCode":"TLS","name":"Cova Lima","localName":"Cova Lima","labelEnglish":"Cova Lima","labelLocal":"Cova Lima","labelBoth":"Cova Lima","type":"District|Regencies","iso":"TL-CO","qid":"Q165575"},"geometry":{"type":"Point","coordinates":[125.233,-9.30758]}},{"type":"Feature","id":"TLS-545","properties":{"kind":"division","code":"TLS-545","countryCode":"TLS","name":"Ainaro","localName":"Ainaro","labelEnglish":"Ainaro","labelLocal":"Ainaro","labelBoth":"Ainaro","type":"District|Regencies","iso":"TL-AN","qid":"Q405926"},"geometry":{"type":"Polygon","coordinates":[[[125.6701,-9.1933],[125.6883,-8.7946],[125.488,-8.8556],[125.4131,-8.9822],[125.4106,-9.0341],[125.488,-9.2408],[125.6701,-9.1933]]]}},{"type":"Feature","id":"label-TLS-545","properties":{"kind":"division-label","code":"TLS-545","countryCode":"TLS","name":"Ainaro","localName":"Ainaro","labelEnglish":"Ainaro","labelLocal":"Ainaro","labelBoth":"Ainaro","type":"District|Regencies","iso":"TL-AN","qid":"Q405926"},"geometry":{"type":"Point","coordinates":[125.551,-9.03099]}},{"type":"Feature","id":"TLS-551","properties":{"kind":"division","code":"TLS-551","countryCode":"TLS","name":"Manufahi","localName":"Manufahi","labelEnglish":"Manufahi","labelLocal":"Manufahi","labelBoth":"Manufahi","type":"District|Regencies","iso":"TL-MF","qid":"Q629934"},"geometry":{"type":"Polygon","coordinates":[[[126.0475,-9.0573],[125.8052,-8.7532],[125.6883,-8.7946],[125.6701,-9.1933],[126.0475,-9.0573]]]}},{"type":"Feature","id":"label-TLS-551","properties":{"kind":"division-label","code":"TLS-551","countryCode":"TLS","name":"Manufahi","localName":"Manufahi","labelEnglish":"Manufahi","labelLocal":"Manufahi","labelBoth":"Manufahi","type":"District|Regencies","iso":"TL-MF","qid":"Q629934"},"geometry":{"type":"Point","coordinates":[125.813,-9.00434]}},{"type":"Feature","id":"TLS-550","properties":{"kind":"division","code":"TLS-550","countryCode":"TLS","name":"Manatuto","localName":"Manatuto","labelEnglish":"Manatuto","labelLocal":"Manatuto","labelBoth":"Manatuto","type":"District|Regencies","iso":"TL-MT","qid":"Q860630"},"geometry":{"type":"Polygon","coordinates":[[[126.138,-8.9999],[126.14,-8.6811],[126.1418,-8.5028],[125.8285,-8.4909],[125.7637,-8.5828],[125.8052,-8.7532],[126.0475,-9.0573],[126.138,-8.9999]]]}},{"type":"Feature","id":"label-TLS-550","properties":{"kind":"division-label","code":"TLS-550","countryCode":"TLS","name":"Manatuto","localName":"Manatuto","labelEnglish":"Manatuto","labelLocal":"Manatuto","labelBoth":"Manatuto","type":"District|Regencies","iso":"TL-MT","qid":"Q860630"},"geometry":{"type":"Point","coordinates":[125.968,-8.737]}},{"type":"Feature","id":"TLS-552","properties":{"kind":"division","code":"TLS-552","countryCode":"TLS","name":"Viqueque","localName":"Viqueque","labelEnglish":"Viqueque","labelLocal":"Viqueque","labelBoth":"Viqueque","type":"District|Regencies","iso":"TL-VI","qid":"Q610726"},"geometry":{"type":"Polygon","coordinates":[[[126.7284,-8.761],[126.739,-8.6965],[126.14,-8.6811],[126.138,-8.9999],[126.4302,-8.9547],[126.7284,-8.761]]]}},{"type":"Feature","id":"label-TLS-552","properties":{"kind":"division-label","code":"TLS-552","countryCode":"TLS","name":"Viqueque","localName":"Viqueque","labelEnglish":"Viqueque","labelLocal":"Viqueque","labelBoth":"Viqueque","type":"District|Regencies","iso":"TL-VI","qid":"Q610726"},"geometry":{"type":"Point","coordinates":[126.386,-8.8247]}},{"type":"Feature","id":"TLS-553","properties":{"kind":"division","code":"TLS-553","countryCode":"TLS","name":"Lautém","localName":"Lautém","labelEnglish":"Lautém","labelLocal":"Lautém","labelBoth":"Lautém","type":"District|Regencies","iso":"TL-LA","qid":"Q686554"},"geometry":{"type":"Polygon","coordinates":[[[126.6882,-8.4312],[126.739,-8.6965],[126.7284,-8.761],[127.0093,-8.6767],[127.3132,-8.4152],[126.9671,-8.309],[126.6882,-8.4312]]]}},{"type":"Feature","id":"label-TLS-553","properties":{"kind":"division-label","code":"TLS-553","countryCode":"TLS","name":"Lautém","localName":"Lautém","labelEnglish":"Lautém","labelLocal":"Lautém","labelBoth":"Lautém","type":"District|Regencies","iso":"TL-LA","qid":"Q686554"},"geometry":{"type":"Point","coordinates":[127.001,-8.50164]}},{"type":"Feature","id":"TLS-546","properties":{"kind":"division","code":"TLS-546","countryCode":"TLS","name":"Baucau","localName":"Baucau","labelEnglish":"Baucau","labelLocal":"Baucau","labelBoth":"Baucau","type":"District|Regencies","iso":"TL-BA","qid":"Q811132"},"geometry":{"type":"Polygon","coordinates":[[[126.1418,-8.5028],[126.14,-8.6811],[126.739,-8.6965],[126.6882,-8.4312],[126.1418,-8.5028]]]}},{"type":"Feature","id":"label-TLS-546","properties":{"kind":"division-label","code":"TLS-546","countryCode":"TLS","name":"Baucau","localName":"Baucau","labelEnglish":"Baucau","labelLocal":"Baucau","labelBoth":"Baucau","type":"District|Regencies","iso":"TL-BA","qid":"Q811132"},"geometry":{"type":"Point","coordinates":[126.476,-8.53729]}},{"type":"Feature","id":"TLS-541","properties":{"kind":"division","code":"TLS-541","countryCode":"TLS","name":"Dili","localName":"Dili","labelEnglish":"Dili","labelLocal":"Dili","labelBoth":"Dili","type":"District|Regencies","iso":"TL-DI","qid":"Q860901"},"geometry":{"type":"Polygon","coordinates":[[[125.4898,-8.5682],[125.5119,-8.6202],[125.7637,-8.5828],[125.8285,-8.4909],[125.4898,-8.5682]]]}},{"type":"Feature","id":"label-TLS-541","properties":{"kind":"division-label","code":"TLS-541","countryCode":"TLS","name":"Dili","localName":"Dili","labelEnglish":"Dili","labelLocal":"Dili","labelBoth":"Dili","type":"District|Regencies","iso":"TL-DI","qid":"Q860901"},"geometry":{"type":"Point","coordinates":[125.668,-8.55429]}},{"type":"Feature","id":"TLS-542","properties":{"kind":"division","code":"TLS-542","countryCode":"TLS","name":"Liquiçá","localName":"Liquiçá","labelEnglish":"Liquiçá","labelLocal":"Liquiçá","labelBoth":"Liquiçá","type":"District|Regencies","iso":"TL-LI","qid":"Q860897"},"geometry":{"type":"Polygon","coordinates":[[[125.1029,-8.7403],[125.1792,-8.7545],[125.4947,-8.6498],[125.5119,-8.6202],[125.4898,-8.5682],[125.1443,-8.6314],[125.1029,-8.7403]]]}},{"type":"Feature","id":"label-TLS-542","properties":{"kind":"division-label","code":"TLS-542","countryCode":"TLS","name":"Liquiçá","localName":"Liquiçá","labelEnglish":"Liquiçá","labelLocal":"Liquiçá","labelBoth":"Liquiçá","type":"District|Regencies","iso":"TL-LI","qid":"Q860897"},"geometry":{"type":"Point","coordinates":[125.308,-8.65272]}},{"type":"Feature","id":"TLS-549","properties":{"kind":"division","code":"TLS-549","countryCode":"TLS","name":"Ermera","localName":"Ermera","labelEnglish":"Ermera","labelLocal":"Ermera","labelBoth":"Ermera","type":"District|Regencies","iso":"TL-ER","qid":"Q668171"},"geometry":{"type":"Polygon","coordinates":[[[125.4947,-8.6498],[125.1792,-8.7545],[125.4131,-8.9822],[125.488,-8.8556],[125.4947,-8.6498]]]}},{"type":"Feature","id":"label-TLS-549","properties":{"kind":"division-label","code":"TLS-549","countryCode":"TLS","name":"Ermera","localName":"Ermera","labelEnglish":"Ermera","labelLocal":"Ermera","labelBoth":"Ermera","type":"District|Regencies","iso":"TL-ER","qid":"Q668171"},"geometry":{"type":"Point","coordinates":[125.344,-8.84722]}},{"type":"Feature","id":"TLS-544","properties":{"kind":"division","code":"TLS-544","countryCode":"TLS","name":"Aileu","localName":"Aileu","labelEnglish":"Aileu","labelLocal":"Aileu","labelBoth":"Aileu","type":"District|Regencies","iso":"TL-AL","qid":"Q405100"},"geometry":{"type":"Polygon","coordinates":[[[125.7637,-8.5828],[125.5119,-8.6202],[125.4947,-8.6498],[125.488,-8.8556],[125.6883,-8.7946],[125.8052,-8.7532],[125.7637,-8.5828]]]}},{"type":"Feature","id":"label-TLS-544","properties":{"kind":"division-label","code":"TLS-544","countryCode":"TLS","name":"Aileu","localName":"Aileu","labelEnglish":"Aileu","labelLocal":"Aileu","labelBoth":"Aileu","type":"District|Regencies","iso":"TL-AL","qid":"Q405100"},"geometry":{"type":"Point","coordinates":[125.619,-8.69661]}}]}