{"type":"FeatureCollection","features":[{"type":"Feature","id":"TON-4946","properties":{"kind":"division","code":"TON-4946","countryCode":"TON","name":"Vavaʻu","localName":"Vavaʻu","labelEnglish":"Vavaʻu","labelLocal":"Vavaʻu","labelBoth":"Vavaʻu","type":null,"iso":"TO-05","qid":"Q859666"},"geometry":{"type":"Polygon","coordinates":[[[-173.9564,-18.5673],[-174.0725,-18.634],[-173.923,-18.637],[-173.9564,-18.5673]]]}},{"type":"Feature","id":"label-TON-4946","properties":{"kind":"division-label","code":"TON-4946","countryCode":"TON","name":"Vavaʻu","localName":"Vavaʻu","labelEnglish":"Vavaʻu","labelLocal":"Vavaʻu","labelBoth":"Vavaʻu","type":null,"iso":"TO-05","qid":"Q859666"},"geometry":{"type":"Point","coordinates":[-173.988,-18.6118]}},{"type":"Feature","id":"TON-4949","properties":{"kind":"division","code":"TON-4949","countryCode":"TON","name":"ʻEua","localName":"ʻEua","labelEnglish":"ʻEua","labelLocal":"ʻEua","labelBoth":"ʻEua","type":null,"iso":"TO-01","qid":"Q423528"},"geometry":{"type":"Polygon","coordinates":[[[-174.9147,-21.2922],[-174.9836,-21.3977],[-174.9203,-21.4542],[-174.9147,-21.2922]]]}},{"type":"Feature","id":"label-TON-4949","properties":{"kind":"division-label","code":"TON-4949","countryCode":"TON","name":"ʻEua","localName":"ʻEua","labelEnglish":"ʻEua","labelLocal":"ʻEua","labelBoth":"ʻEua","type":null,"iso":"TO-01","qid":"Q423528"},"geometry":{"type":"Point","coordinates":[-174.941,-21.3672]}},{"type":"Feature","id":"TON-4945","properties":{"kind":"division","code":"TON-4945","countryCode":"TON","name":"Tongatapu","localName":"Tongatapu","labelEnglish":"Tongatapu","labelLocal":"Tongatapu","labelBoth":"Tongatapu","type":null,"iso":"TO-04","qid":"Q620452"},"geometry":{"type":"Polygon","coordinates":[[[-175.0655,-21.124],[-175.3648,-21.1139],[-175.1488,-21.268],[-175.0655,-21.124]]]}},{"type":"Feature","id":"label-TON-4945","properties":{"kind":"division-label","code":"TON-4945","countryCode":"TON","name":"Tongatapu","localName":"Tongatapu","labelEnglish":"Tongatapu","labelLocal":"Tongatapu","labelBoth":"Tongatapu","type":null,"iso":"TO-04","qid":"Q620452"},"geometry":{"type":"Point","coordinates":[-175.155,-21.1718]}},{"type":"Feature","id":"TON-4948","properties":{"kind":"division","code":"TON-4948","countryCode":"TON","name":"Haʻapai","localName":"Haʻapai","labelEnglish":"Haʻapai","labelLocal":"Haʻapai","labelBoth":"Haʻapai","type":null,"iso":"TO-02","qid":"Q612098"},"geometry":{"type":"Polygon","coordinates":[[[-175.0693,-19.712],[-175.0995,-19.7498],[-175.0478,-19.7812],[-175.0693,-19.712]]]}},{"type":"Feature","id":"label-TON-4948","properties":{"kind":"division-label","code":"TON-4948","countryCode":"TON","name":"Haʻapai","localName":"Haʻapai","labelEnglish":"Haʻapai","labelLocal":"Haʻapai","labelBoth":"Haʻapai","type":null,"iso":"TO-02","qid":"Q612098"},"geometry":{"type":"Point","coordinates":[-174.317,-19.757]}},{"type":"Feature","id":"TON-4947","properties":{"kind":"division","code":"TON-4947","countryCode":"TON","name":"Niuas","localName":"Niuas","labelEnglish":"Niuas","labelLocal":"Niuas","labelBoth":"Niuas","type":null,"iso":"TO-03","qid":"Q1200954"},"geometry":{"type":"Polygon","coordinates":[[[-175.6313,-15.5595],[-175.6863,-15.6023],[-175.6391,-15.6243],[-175.6313,-15.5595]]]}},{"type":"Feature","id":"label-TON-4947","properties":{"kind":"division-label","code":"TON-4947","countryCode":"TON","name":"Niuas","localName":"Niuas","labelEnglish":"Niuas","labelLocal":"Niuas","labelBoth":"Niuas","type":null,"iso":"TO-03","qid":"Q1200954"},"geometry":{"type":"Point","coordinates":[-173.757,-15.9558]}}]}