{"type":"FeatureCollection","features":[{"type":"Feature","id":"TTO-61","properties":{"kind":"division","code":"TTO-61","countryCode":"TTO","name":"Tunapuna-Piarco Regional Corporation","localName":"Tunapuna-Piarco Regional Corporation","labelEnglish":"Tunapuna-Piarco Regional Corporation","labelLocal":"Tunapuna-Piarco Regional Corporation","labelBoth":"Tunapuna-Piarco Regional Corporation","type":"Region","iso":"TT-TUP","qid":"Q1899163"},"geometry":{"type":"Polygon","coordinates":[[[-61.3526,10.8041],[-61.4098,10.5663],[-61.369,10.5655],[-61.2392,10.5914],[-61.1716,10.8039],[-61.3526,10.8041]],[[-61.2745,10.6074],[-61.2956,10.6139],[-61.2854,10.654],[-61.2745,10.6074]]]}},{"type":"Feature","id":"label-TTO-61","properties":{"kind":"division-label","code":"TTO-61","countryCode":"TTO","name":"Tunapuna-Piarco Regional Corporation","localName":"Tunapuna-Piarco Regional Corporation","labelEnglish":"Tunapuna-Piarco Regional Corporation","labelLocal":"Tunapuna-Piarco Regional Corporation","labelBoth":"Tunapuna-Piarco Regional Corporation","type":"Region","iso":"TT-TUP","qid":"Q1899163"},"geometry":{"type":"Point","coordinates":[-61.3254,10.6903]}},{"type":"Feature","id":"TTO-56","properties":{"kind":"division","code":"TTO-56","countryCode":"TTO","name":"San Juan–Laventille","localName":"San Juan–Laventille","labelEnglish":"San Juan–Laventille","labelLocal":"San Juan–Laventille","labelBoth":"San Juan–Laventille","type":"Region","iso":"TT-SJL","qid":"Q979608"},"geometry":{"type":"Polygon","coordinates":[[[-61.4901,10.7546],[-61.5114,10.6758],[-61.4957,10.6356],[-61.4622,10.5381],[-61.4098,10.5663],[-61.3526,10.8041],[-61.4901,10.7546]]]}},{"type":"Feature","id":"label-TTO-56","properties":{"kind":"division-label","code":"TTO-56","countryCode":"TTO","name":"San Juan–Laventille","localName":"San Juan–Laventille","labelEnglish":"San Juan–Laventille","labelLocal":"San Juan–Laventille","labelBoth":"San Juan–Laventille","type":"Region","iso":"TT-SJL","qid":"Q979608"},"geometry":{"type":"Point","coordinates":[-61.4498,10.613]}},{"type":"Feature","id":"TTO-51","properties":{"kind":"division","code":"TTO-51","countryCode":"TTO","name":"Diego Martin Regional Corporation","localName":"Diego Martin Regional Corporation","labelEnglish":"Diego Martin Regional Corporation","labelLocal":"Diego Martin Regional Corporation","labelBoth":"Diego Martin Regional Corporation","type":"Region","iso":"TT-DMN","qid":"Q2679107"},"geometry":{"type":"Polygon","coordinates":[[[-61.5491,10.6671],[-61.5114,10.6758],[-61.4901,10.7546],[-61.5491,10.6671]]]}},{"type":"Feature","id":"label-TTO-51","properties":{"kind":"division-label","code":"TTO-51","countryCode":"TTO","name":"Diego Martin Regional Corporation","localName":"Diego Martin Regional Corporation","labelEnglish":"Diego Martin Regional Corporation","labelLocal":"Diego Martin Regional Corporation","labelBoth":"Diego Martin Regional Corporation","type":"Region","iso":"TT-DMN","qid":"Q2679107"},"geometry":{"type":"Point","coordinates":[-61.5778,10.7128]}},{"type":"Feature","id":"TTO-64","properties":{"kind":"division","code":"TTO-64","countryCode":"TTO","name":"Port of Spain","localName":"Port of Spain","labelEnglish":"Port of Spain","labelLocal":"Port of Spain","labelBoth":"Port of Spain","type":"City","iso":"TT-POS","qid":"Q39178"},"geometry":{"type":"Polygon","coordinates":[[[-61.4957,10.6356],[-61.5114,10.6758],[-61.5491,10.6671],[-61.4957,10.6356]]]}},{"type":"Feature","id":"label-TTO-64","properties":{"kind":"division-label","code":"TTO-64","countryCode":"TTO","name":"Port of Spain","localName":"Port of Spain","labelEnglish":"Port of Spain","labelLocal":"Port of Spain","labelBoth":"Port of Spain","type":"City","iso":"TT-POS","qid":"Q39178"},"geometry":{"type":"Point","coordinates":[-61.5204,10.6647]}},{"type":"Feature","id":"TTO-63","properties":{"kind":"division","code":"TTO-63","countryCode":"TTO","name":"Chaguanas","localName":"Chaguanas","labelEnglish":"Chaguanas","labelLocal":"Chaguanas","labelBoth":"Chaguanas","type":"City","iso":"TT-CHA","qid":"Q1444575"},"geometry":{"type":"Polygon","coordinates":[[[-61.4623,10.5226],[-61.369,10.5655],[-61.4098,10.5663],[-61.4622,10.5381],[-61.4623,10.5226]]]}},{"type":"Feature","id":"label-TTO-63","properties":{"kind":"division-label","code":"TTO-63","countryCode":"TTO","name":"Chaguanas","localName":"Chaguanas","labelEnglish":"Chaguanas","labelLocal":"Chaguanas","labelBoth":"Chaguanas","type":"City","iso":"TT-CHA","qid":"Q1444575"},"geometry":{"type":"Point","coordinates":[-61.4134,10.5359]}},{"type":"Feature","id":"TTO-58","properties":{"kind":"division","code":"TTO-58","countryCode":"TTO","name":"Couva-Tabaquite-Talparo","localName":"Couva-Tabaquite-Talparo","labelEnglish":"Couva-Tabaquite-Talparo","labelLocal":"Couva-Tabaquite-Talparo","labelBoth":"Couva-Tabaquite-Talparo","type":"Region","iso":"TT-CTT","qid":"Q2679127"},"geometry":{"type":"Polygon","coordinates":[[[-61.4596,10.3097],[-61.4278,10.31],[-61.2436,10.3071],[-61.1971,10.4564],[-61.2392,10.5914],[-61.369,10.5655],[-61.4623,10.5226],[-61.4596,10.3097]]]}},{"type":"Feature","id":"label-TTO-58","properties":{"kind":"division-label","code":"TTO-58","countryCode":"TTO","name":"Couva-Tabaquite-Talparo","localName":"Couva-Tabaquite-Talparo","labelEnglish":"Couva-Tabaquite-Talparo","labelLocal":"Couva-Tabaquite-Talparo","labelBoth":"Couva-Tabaquite-Talparo","type":"Region","iso":"TT-CTT","qid":"Q2679127"},"geometry":{"type":"Point","coordinates":[-61.3425,10.4519]}},{"type":"Feature","id":"TTO-62","properties":{"kind":"division","code":"TTO-62","countryCode":"TTO","name":"San Fernando","localName":"San Fernando","labelEnglish":"San Fernando","labelLocal":"San Fernando","labelBoth":"San Fernando","type":"City","iso":"TT-SFO","qid":"Q1023712"},"geometry":{"type":"Polygon","coordinates":[[[-61.4899,10.2493],[-61.4415,10.2591],[-61.4278,10.31],[-61.4596,10.3097],[-61.4899,10.2493]]]}},{"type":"Feature","id":"label-TTO-62","properties":{"kind":"division-label","code":"TTO-62","countryCode":"TTO","name":"San Fernando","localName":"San Fernando","labelEnglish":"San Fernando","labelLocal":"San Fernando","labelBoth":"San Fernando","type":"City","iso":"TT-SFO","qid":"Q1023712"},"geometry":{"type":"Point","coordinates":[-61.4589,10.2772]}},{"type":"Feature","id":"TTO-59","properties":{"kind":"division","code":"TTO-59","countryCode":"TTO","name":"Penal-Debe Regional Corporation","localName":"Penal-Debe Regional Corporation","labelEnglish":"Penal-Debe Regional Corporation","labelLocal":"Penal-Debe Regional Corporation","labelBoth":"Penal-Debe Regional Corporation","type":"Region","iso":"TT-PED","qid":"Q2056273"},"geometry":{"type":"Polygon","coordinates":[[[-61.5208,10.2402],[-61.5041,10.0695],[-61.3791,10.0728],[-61.4415,10.2591],[-61.4899,10.2493],[-61.5208,10.2402]]]}},{"type":"Feature","id":"label-TTO-59","properties":{"kind":"division-label","code":"TTO-59","countryCode":"TTO","name":"Penal-Debe Regional Corporation","localName":"Penal-Debe Regional Corporation","labelEnglish":"Penal-Debe Regional Corporation","labelLocal":"Penal-Debe Regional Corporation","labelBoth":"Penal-Debe Regional Corporation","type":"Region","iso":"TT-PED","qid":"Q2056273"},"geometry":{"type":"Point","coordinates":[-61.4269,10.1459]}},{"type":"Feature","id":"TTO-52","properties":{"kind":"division","code":"TTO-52","countryCode":"TTO","name":"Siparia Regional Corporation","localName":"Siparia Regional Corporation","labelEnglish":"Siparia Regional Corporation","labelLocal":"Siparia Regional Corporation","labelBoth":"Siparia Regional Corporation","type":"Region","iso":"TT-SIP","qid":"Q2679119"},"geometry":{"type":"Polygon","coordinates":[[[-61.6393,10.2101],[-61.6711,10.147],[-61.7074,10.1659],[-61.9287,10.0565],[-61.5041,10.0695],[-61.5208,10.2402],[-61.6393,10.2101]]]}},{"type":"Feature","id":"label-TTO-52","properties":{"kind":"division-label","code":"TTO-52","countryCode":"TTO","name":"Siparia Regional Corporation","localName":"Siparia Regional Corporation","labelEnglish":"Siparia Regional Corporation","labelLocal":"Siparia Regional Corporation","labelBoth":"Siparia Regional Corporation","type":"Region","iso":"TT-SIP","qid":"Q2679119"},"geometry":{"type":"Point","coordinates":[-61.6987,10.118]}},{"type":"Feature","id":"TTO-60","properties":{"kind":"division","code":"TTO-60","countryCode":"TTO","name":"Point Fortin","localName":"Point Fortin","labelEnglish":"Point Fortin","labelLocal":"Point Fortin","labelBoth":"Point Fortin","type":"City","iso":"TT-PTF","qid":"Q786957"},"geometry":{"type":"Polygon","coordinates":[[[-61.7074,10.1659],[-61.6711,10.147],[-61.6393,10.2101],[-61.7074,10.1659]]]}},{"type":"Feature","id":"label-TTO-60","properties":{"kind":"division-label","code":"TTO-60","countryCode":"TTO","name":"Point Fortin","localName":"Point Fortin","labelEnglish":"Point Fortin","labelLocal":"Point Fortin","labelBoth":"Point Fortin","type":"City","iso":"TT-PTF","qid":"Q786957"},"geometry":{"type":"Point","coordinates":[-61.6685,10.1669]}},{"type":"Feature","id":"TTO-57","properties":{"kind":"division","code":"TTO-57","countryCode":"TTO","name":"Princes Town","localName":"Princes Town","labelEnglish":"Princes Town","labelLocal":"Princes Town","labelBoth":"Princes Town","type":"Region","iso":"TT-PRT","qid":"Q2228167"},"geometry":{"type":"Polygon","coordinates":[[[-61.1777,10.0752],[-61.2436,10.3071],[-61.4278,10.31],[-61.4415,10.2591],[-61.3791,10.0728],[-61.1777,10.0752]]]}},{"type":"Feature","id":"label-TTO-57","properties":{"kind":"division-label","code":"TTO-57","countryCode":"TTO","name":"Princes Town","localName":"Princes Town","labelEnglish":"Princes Town","labelLocal":"Princes Town","labelBoth":"Princes Town","type":"Region","iso":"TT-PRT","qid":"Q2228167"},"geometry":{"type":"Point","coordinates":[-61.3096,10.2039]}},{"type":"Feature","id":"TTO-55","properties":{"kind":"division","code":"TTO-55","countryCode":"TTO","name":"Mayaro-Rio Claro","localName":"Mayaro-Rio Claro","labelEnglish":"Mayaro-Rio Claro","labelLocal":"Mayaro-Rio Claro","labelBoth":"Mayaro-Rio Claro","type":"Region","iso":"TT-RCM","qid":"Q2487249"},"geometry":{"type":"Polygon","coordinates":[[[-61.0384,10.4637],[-61.1971,10.4564],[-61.2436,10.3071],[-61.1777,10.0752],[-60.996,10.1383],[-61.0384,10.4637]]]}},{"type":"Feature","id":"label-TTO-55","properties":{"kind":"division-label","code":"TTO-55","countryCode":"TTO","name":"Mayaro-Rio Claro","localName":"Mayaro-Rio Claro","labelEnglish":"Mayaro-Rio Claro","labelLocal":"Mayaro-Rio Claro","labelBoth":"Mayaro-Rio Claro","type":"Region","iso":"TT-RCM","qid":"Q2487249"},"geometry":{"type":"Point","coordinates":[-61.1024,10.2814]}},{"type":"Feature","id":"TTO-54","properties":{"kind":"division","code":"TTO-54","countryCode":"TTO","name":"Sangre Grande Regional Corporation","localName":"Sangre Grande Regional Corporation","labelEnglish":"Sangre Grande Regional Corporation","labelLocal":"Sangre Grande Regional Corporation","labelBoth":"Sangre Grande Regional Corporation","type":"Region","iso":"TT-SGE","qid":"Q290292"},"geometry":{"type":"Polygon","coordinates":[[[-61.1716,10.8039],[-61.2392,10.5914],[-61.1971,10.4564],[-61.0384,10.4637],[-60.9073,10.8371],[-61.1716,10.8039]]]}},{"type":"Feature","id":"label-TTO-54","properties":{"kind":"division-label","code":"TTO-54","countryCode":"TTO","name":"Sangre Grande Regional Corporation","localName":"Sangre Grande Regional Corporation","labelEnglish":"Sangre Grande Regional Corporation","labelLocal":"Sangre Grande Regional Corporation","labelBoth":"Sangre Grande Regional Corporation","type":"Region","iso":"TT-SGE","qid":"Q290292"},"geometry":{"type":"Point","coordinates":[-61.1277,10.6838]}},{"type":"Feature","id":"TTO-50","properties":{"kind":"division","code":"TTO-50","countryCode":"TTO","name":"Tobago","localName":"Tobago","labelEnglish":"Tobago","labelLocal":"Tobago","labelBoth":"Tobago","type":"Region","iso":"TT-ETO","qid":"Q185111"},"geometry":{"type":"Polygon","coordinates":[[[-60.6547,11.308],[-60.6471,11.2042],[-60.5231,11.3437],[-60.6547,11.308]]]}},{"type":"Feature","id":"label-TTO-50","properties":{"kind":"division-label","code":"TTO-50","countryCode":"TTO","name":"Tobago","localName":"Tobago","labelEnglish":"Tobago","labelLocal":"Tobago","labelBoth":"Tobago","type":"Region","iso":"TT-ETO","qid":"Q185111"},"geometry":{"type":"Point","coordinates":[-60.6001,11.2899]}},{"type":"Feature","id":"TTO-5090","properties":{"kind":"division","code":"TTO-5090","countryCode":"TTO","name":"Tobago","localName":"Tobago","labelEnglish":"Tobago","labelLocal":"Tobago","labelBoth":"Tobago","type":"Region","iso":"TT-WTO","qid":"Q185111"},"geometry":{"type":"Polygon","coordinates":[[[-60.6471,11.2042],[-60.6547,11.308],[-60.8475,11.164],[-60.6471,11.2042]]]}},{"type":"Feature","id":"label-TTO-5090","properties":{"kind":"division-label","code":"TTO-5090","countryCode":"TTO","name":"Tobago","localName":"Tobago","labelEnglish":"Tobago","labelLocal":"Tobago","labelBoth":"Tobago","type":"Region","iso":"TT-WTO","qid":"Q185111"},"geometry":{"type":"Point","coordinates":[-60.7709,11.1959]}},{"type":"Feature","id":"TTO-53","properties":{"kind":"division","code":"TTO-53","countryCode":"TTO","name":"Arima","localName":"Arima","labelEnglish":"Arima","labelLocal":"Arima","labelBoth":"Arima","type":"City","iso":"TT-ARI","qid":"Q661405"},"geometry":{"type":"Polygon","coordinates":[[[-61.2745,10.6074],[-61.2854,10.654],[-61.2956,10.6139],[-61.2745,10.6074]]]}},{"type":"Feature","id":"label-TTO-53","properties":{"kind":"division-label","code":"TTO-53","countryCode":"TTO","name":"Arima","localName":"Arima","labelEnglish":"Arima","labelLocal":"Arima","labelBoth":"Arima","type":"City","iso":"TT-ARI","qid":"Q661405"},"geometry":{"type":"Point","coordinates":[-61.2804,10.6284]}}]}