{"type":"FeatureCollection","features":[{"type":"Feature","id":"TUN-98","properties":{"kind":"division","code":"TUN-98","countryCode":"TUN","name":"Tataouine","localName":"Tataouine","labelEnglish":"Tataouine","labelLocal":"Tataouine","labelBoth":"Tataouine","type":"Governorate","iso":"TN-83","qid":"Q327045"},"geometry":{"type":"Polygon","coordinates":[[[11.1823,32.2622],[11.4186,32.4609],[11.1073,32.6781],[11.0016,33.0616],[10.5086,33.2541],[9.9095,33.0748],[9.9112,32.6753],[9.7503,32.7956],[8.3326,32.5264],[9.0199,32.1049],[9.0633,32.0002],[9.5197,30.2289],[9.8713,30.3552],[10.2702,30.9156],[10.1081,31.4118],[10.264,31.6805],[10.5135,31.757],[10.6059,31.9536],[11.1823,32.2622]]]}},{"type":"Feature","id":"label-TUN-98","properties":{"kind":"division-label","code":"TUN-98","countryCode":"TUN","name":"Tataouine","localName":"Tataouine","labelEnglish":"Tataouine","labelLocal":"Tataouine","labelBoth":"Tataouine","type":"Governorate","iso":"TN-83","qid":"Q327045"},"geometry":{"type":"Point","coordinates":[9.88514,32.154]}},{"type":"Feature","id":"TUN-96","properties":{"kind":"division","code":"TUN-96","countryCode":"TUN","name":"Medenine","localName":"Medenine","labelEnglish":"Medenine","labelLocal":"Medenine","labelBoth":"Medenine","type":"Governorate","iso":"TN-82","qid":"Q327087"},"geometry":{"type":"MultiPolygon","coordinates":[[[[11.5261,32.4179],[11.4499,32.638],[11.5051,33.1812],[11.1795,33.2111],[10.9779,33.6431],[10.7171,33.4835],[10.7166,33.7069],[10.4602,33.6527],[10.0594,33.3287],[9.7407,33.2912],[9.9095,33.0748],[10.5086,33.2541],[11.0016,33.0616],[11.1073,32.6781],[11.4186,32.4609],[11.1823,32.2622],[11.5261,32.4179]]],[[[10.9915,33.8417],[10.736,33.8848],[10.8937,33.6582],[10.9915,33.8417]]]]}},{"type":"Feature","id":"label-TUN-96","properties":{"kind":"division-label","code":"TUN-96","countryCode":"TUN","name":"Medenine","localName":"Medenine","labelEnglish":"Medenine","labelLocal":"Medenine","labelBoth":"Medenine","type":"Governorate","iso":"TN-82","qid":"Q327087"},"geometry":{"type":"Point","coordinates":[10.6522,33.4403]}},{"type":"Feature","id":"TUN-106","properties":{"kind":"division","code":"TUN-106","countryCode":"TUN","name":"Jendouba","localName":"Jendouba","labelEnglish":"Jendouba","labelLocal":"Jendouba","labelBoth":"Jendouba","type":"Governorate","iso":"TN-32","qid":"Q276580"},"geometry":{"type":"Polygon","coordinates":[[[8.6025,36.9395],[8.1679,36.492],[8.3554,36.3561],[8.9173,36.4381],[9.0117,36.4492],[9.0737,36.5422],[8.896,37.0189],[8.6025,36.9395]]]}},{"type":"Feature","id":"label-TUN-106","properties":{"kind":"division-label","code":"TUN-106","countryCode":"TUN","name":"Jendouba","localName":"Jendouba","labelEnglish":"Jendouba","labelLocal":"Jendouba","labelBoth":"Jendouba","type":"Governorate","iso":"TN-32","qid":"Q276580"},"geometry":{"type":"Point","coordinates":[8.62064,36.6155]}},{"type":"Feature","id":"TUN-97","properties":{"kind":"division","code":"TUN-97","countryCode":"TUN","name":"Kebili","localName":"Kebili","labelEnglish":"Kebili","labelLocal":"Kebili","labelBoth":"Kebili","type":"Governorate","iso":"TN-73","qid":"Q286063"},"geometry":{"type":"Polygon","coordinates":[[[7.7083,33.4107],[7.7507,33.2077],[8.0868,33.0943],[8.2829,32.8364],[8.3326,32.5264],[9.7503,32.7956],[9.9112,32.6753],[9.9095,33.0748],[9.7407,33.2912],[9.376,33.7205],[9.2678,34.2048],[8.6692,34.0909],[8.534,33.9141],[7.7083,33.4107]]]}},{"type":"Feature","id":"label-TUN-97","properties":{"kind":"division-label","code":"TUN-97","countryCode":"TUN","name":"Kebili","localName":"Kebili","labelEnglish":"Kebili","labelLocal":"Kebili","labelBoth":"Kebili","type":"Governorate","iso":"TN-73","qid":"Q286063"},"geometry":{"type":"Point","coordinates":[8.84791,33.3621]}},{"type":"Feature","id":"TUN-101","properties":{"kind":"division","code":"TUN-101","countryCode":"TUN","name":"Tozeur","localName":"Tozeur","labelEnglish":"Tozeur","labelLocal":"Tozeur","labelBoth":"Tozeur","type":"Governorate","iso":"TN-72","qid":"Q388059"},"geometry":{"type":"Polygon","coordinates":[[[7.7083,33.4107],[8.534,33.9141],[8.6692,34.0909],[8.3578,34.0921],[8.031,34.3145],[8.1025,34.5364],[7.8315,34.4144],[7.5392,34.1138],[7.4798,33.8939],[7.7083,33.4107]]]}},{"type":"Feature","id":"label-TUN-101","properties":{"kind":"division-label","code":"TUN-101","countryCode":"TUN","name":"Tozeur","localName":"Tozeur","labelEnglish":"Tozeur","labelLocal":"Tozeur","labelBoth":"Tozeur","type":"Governorate","iso":"TN-72","qid":"Q388059"},"geometry":{"type":"Point","coordinates":[8.07434,33.9476]}},{"type":"Feature","id":"TUN-112","properties":{"kind":"division","code":"TUN-112","countryCode":"TUN","name":"Gafsa","localName":"Gafsa","labelEnglish":"Gafsa","labelLocal":"Gafsa","labelBoth":"Gafsa","type":"Governorate","iso":"TN-71","qid":"Q269968"},"geometry":{"type":"Polygon","coordinates":[[[8.1025,34.5364],[8.031,34.3145],[8.3578,34.0921],[8.6692,34.0909],[9.2678,34.2048],[9.5585,34.2523],[9.2924,34.65],[8.8059,34.7506],[8.5696,34.6374],[8.2587,34.7413],[8.1025,34.5364]]]}},{"type":"Feature","id":"label-TUN-112","properties":{"kind":"division-label","code":"TUN-112","countryCode":"TUN","name":"Gafsa","localName":"Gafsa","labelEnglish":"Gafsa","labelLocal":"Gafsa","labelBoth":"Gafsa","type":"Governorate","iso":"TN-71","qid":"Q269968"},"geometry":{"type":"Point","coordinates":[8.79521,34.4233]}},{"type":"Feature","id":"TUN-110","properties":{"kind":"division","code":"TUN-110","countryCode":"TUN","name":"Kasserine","localName":"Kasserine","labelEnglish":"Kasserine","labelLocal":"Kasserine","labelBoth":"Kasserine","type":"Governorate","iso":"TN-42","qid":"Q388047"},"geometry":{"type":"Polygon","coordinates":[[[8.2587,34.7413],[8.5696,34.6374],[8.8059,34.7506],[9.2711,35.052],[9.1482,35.2496],[9.327,35.4807],[9.0022,35.7034],[8.6993,35.7841],[8.3272,35.6214],[8.2587,34.7413]]]}},{"type":"Feature","id":"label-TUN-110","properties":{"kind":"division-label","code":"TUN-110","countryCode":"TUN","name":"Kasserine","localName":"Kasserine","labelEnglish":"Kasserine","labelLocal":"Kasserine","labelBoth":"Kasserine","type":"Governorate","iso":"TN-42","qid":"Q388047"},"geometry":{"type":"Point","coordinates":[8.78774,35.2529]}},{"type":"Feature","id":"TUN-109","properties":{"kind":"division","code":"TUN-109","countryCode":"TUN","name":"Kef","localName":"Kef","labelEnglish":"Kef","labelLocal":"Kef","labelBoth":"Kef","type":"Governorate","iso":"TN-33","qid":"Q328199"},"geometry":{"type":"Polygon","coordinates":[[[8.3272,35.6214],[8.6993,35.7841],[9.0022,35.7034],[9.1502,36.0452],[8.9173,36.4381],[8.3554,36.3561],[8.2684,35.9699],[8.3272,35.6214]]]}},{"type":"Feature","id":"label-TUN-109","properties":{"kind":"division-label","code":"TUN-109","countryCode":"TUN","name":"Kef","localName":"Kef","labelEnglish":"Kef","labelLocal":"Kef","labelBoth":"Kef","type":"Governorate","iso":"TN-33","qid":"Q328199"},"geometry":{"type":"Point","coordinates":[8.69565,36.0965]}},{"type":"Feature","id":"TUN-111","properties":{"kind":"division","code":"TUN-111","countryCode":"TUN","name":"Gabès","localName":"Gabès","labelEnglish":"Gabès","labelLocal":"Gabès","labelBoth":"Gabès","type":"Governorate","iso":"TN-81","qid":"Q242263"},"geometry":{"type":"Polygon","coordinates":[[[10.0101,34.1731],[9.7137,34.2487],[9.5585,34.2523],[9.2678,34.2048],[9.376,33.7205],[9.7407,33.2912],[10.0594,33.3287],[10.4602,33.6527],[10.1631,33.8362],[10.0101,34.1731]]]}},{"type":"Feature","id":"label-TUN-111","properties":{"kind":"division-label","code":"TUN-111","countryCode":"TUN","name":"Gabès","localName":"Gabès","labelEnglish":"Gabès","labelLocal":"Gabès","labelBoth":"Gabès","type":"Governorate","iso":"TN-81","qid":"Q242263"},"geometry":{"type":"Point","coordinates":[9.85987,33.7571]}},{"type":"Feature","id":"TUN-114","properties":{"kind":"division","code":"TUN-114","countryCode":"TUN","name":"Sfax","localName":"Sfax","labelEnglish":"Sfax","labelLocal":"Sfax","labelBoth":"Sfax","type":"Governorate","iso":"TN-61","qid":"Q241145"},"geometry":{"type":"Polygon","coordinates":[[[11.0159,35.0928],[10.7705,35.2713],[10.4208,35.1086],[10.2287,35.1465],[10.0516,35.014],[9.8265,34.6507],[10.0607,34.5301],[9.7137,34.2487],[10.0101,34.1731],[10.1267,34.3256],[10.597,34.5447],[11.0159,35.0928]]]}},{"type":"Feature","id":"label-TUN-114","properties":{"kind":"division-label","code":"TUN-114","countryCode":"TUN","name":"Sfax","localName":"Sfax","labelEnglish":"Sfax","labelLocal":"Sfax","labelBoth":"Sfax","type":"Governorate","iso":"TN-61","qid":"Q241145"},"geometry":{"type":"Point","coordinates":[11.0329,34.6495]}},{"type":"Feature","id":"TUN-116","properties":{"kind":"division","code":"TUN-116","countryCode":"TUN","name":"Mahdia","localName":"Mahdia","labelEnglish":"Mahdia","labelLocal":"Mahdia","labelBoth":"Mahdia","type":"Governorate","iso":"TN-53","qid":"Q328164"},"geometry":{"type":"Polygon","coordinates":[[[11.0139,35.5629],[10.6011,35.502],[10.3057,35.5762],[10.2287,35.1465],[10.4208,35.1086],[10.7705,35.2713],[11.0159,35.0928],[11.1608,35.2382],[11.0139,35.5629]]]}},{"type":"Feature","id":"label-TUN-116","properties":{"kind":"division-label","code":"TUN-116","countryCode":"TUN","name":"Mahdia","localName":"Mahdia","labelEnglish":"Mahdia","labelLocal":"Mahdia","labelBoth":"Mahdia","type":"Governorate","iso":"TN-53","qid":"Q328164"},"geometry":{"type":"Point","coordinates":[10.6621,35.3594]}},{"type":"Feature","id":"TUN-117","properties":{"kind":"division","code":"TUN-117","countryCode":"TUN","name":"Monastir","localName":"Monastir","labelEnglish":"Monastir","labelLocal":"Monastir","labelBoth":"Monastir","type":"Governorate","iso":"TN-52","qid":"Q318102"},"geometry":{"type":"Polygon","coordinates":[[[10.6913,35.7896],[10.6011,35.502],[11.0139,35.5629],[10.6913,35.7896]]]}},{"type":"Feature","id":"label-TUN-117","properties":{"kind":"division-label","code":"TUN-117","countryCode":"TUN","name":"Monastir","localName":"Monastir","labelEnglish":"Monastir","labelLocal":"Monastir","labelBoth":"Monastir","type":"Governorate","iso":"TN-52","qid":"Q318102"},"geometry":{"type":"Point","coordinates":[10.7538,35.6225]}},{"type":"Feature","id":"TUN-119","properties":{"kind":"division","code":"TUN-119","countryCode":"TUN","name":"Sousse","localName":"Sousse","labelEnglish":"Sousse","labelLocal":"Sousse","labelBoth":"Sousse","type":"Governorate","iso":"TN-51","qid":"Q276565"},"geometry":{"type":"Polygon","coordinates":[[[10.5294,36.3503],[10.3655,36.3651],[10.2065,36.1331],[10.1624,35.8198],[10.3057,35.5762],[10.6011,35.502],[10.6913,35.7896],[10.4795,36.0793],[10.5294,36.3503]]]}},{"type":"Feature","id":"label-TUN-119","properties":{"kind":"division-label","code":"TUN-119","countryCode":"TUN","name":"Sousse","localName":"Sousse","labelEnglish":"Sousse","labelLocal":"Sousse","labelBoth":"Sousse","type":"Governorate","iso":"TN-51","qid":"Q276565"},"geometry":{"type":"Point","coordinates":[10.4255,35.9323]}},{"type":"Feature","id":"TUN-107","properties":{"kind":"division","code":"TUN-107","countryCode":"TUN","name":"Nabeul","localName":"Nabeul","labelEnglish":"Nabeul","labelLocal":"Nabeul","labelBoth":"Nabeul","type":"Governorate","iso":"TN-21","qid":"Q328145"},"geometry":{"type":"Polygon","coordinates":[[[10.4168,36.7296],[10.3412,36.4706],[10.3655,36.3651],[10.5294,36.3503],[10.7999,36.4519],[11.1362,36.8705],[11.051,37.0803],[10.4168,36.7296]]]}},{"type":"Feature","id":"label-TUN-107","properties":{"kind":"division-label","code":"TUN-107","countryCode":"TUN","name":"Nabeul","localName":"Nabeul","labelEnglish":"Nabeul","labelLocal":"Nabeul","labelBoth":"Nabeul","type":"Governorate","iso":"TN-21","qid":"Q328145"},"geometry":{"type":"Point","coordinates":[10.7319,36.6794]}},{"type":"Feature","id":"TUN-104","properties":{"kind":"division","code":"TUN-104","countryCode":"TUN","name":"Ben Arous","localName":"Ben Arous","labelEnglish":"Ben Arous","labelLocal":"Ben Arous","labelBoth":"Ben Arous","type":"Governorate","iso":"TN-13","qid":"Q238555"},"geometry":{"type":"Polygon","coordinates":[[[10.2539,36.7914],[10.0547,36.6895],[9.9714,36.6354],[10.3412,36.4706],[10.4168,36.7296],[10.2539,36.7914]]]}},{"type":"Feature","id":"label-TUN-104","properties":{"kind":"division-label","code":"TUN-104","countryCode":"TUN","name":"Ben Arous","localName":"Ben Arous","labelEnglish":"Ben Arous","labelLocal":"Ben Arous","labelBoth":"Ben Arous","type":"Governorate","iso":"TN-13","qid":"Q238555"},"geometry":{"type":"Point","coordinates":[10.1941,36.6125]}},{"type":"Feature","id":"TUN-108","properties":{"kind":"division","code":"TUN-108","countryCode":"TUN","name":"Tunis","localName":"Tunis","labelEnglish":"Tunis","labelLocal":"Tunis","labelBoth":"Tunis","type":"Governorate","iso":"TN-11","qid":"Q328109"},"geometry":{"type":"Polygon","coordinates":[[[10.337,36.8918],[10.0547,36.6895],[10.2539,36.7914],[10.337,36.8918]]]}},{"type":"Feature","id":"label-TUN-108","properties":{"kind":"division-label","code":"TUN-108","countryCode":"TUN","name":"Tunis","localName":"Tunis","labelEnglish":"Tunis","labelLocal":"Tunis","labelBoth":"Tunis","type":"Governorate","iso":"TN-11","qid":"Q328109"},"geometry":{"type":"Point","coordinates":[10.1724,36.7791]}},{"type":"Feature","id":"TUN-102","properties":{"kind":"division","code":"TUN-102","countryCode":"TUN","name":"Manouba","localName":"Manouba","labelEnglish":"Manouba","labelLocal":"Manouba","labelBoth":"Manouba","type":"Governorate","iso":"TN-14","qid":"Q734328"},"geometry":{"type":"Polygon","coordinates":[[[10.2182,37.1289],[9.9858,36.9348],[9.553,36.8293],[9.8561,36.5704],[9.9714,36.6354],[10.0547,36.6895],[10.337,36.8918],[10.2182,37.1289]]]}},{"type":"Feature","id":"label-TUN-102","properties":{"kind":"division-label","code":"TUN-102","countryCode":"TUN","name":"Manouba","localName":"Manouba","labelEnglish":"Manouba","labelLocal":"Manouba","labelBoth":"Manouba","type":"Governorate","iso":"TN-14","qid":"Q734328"},"geometry":{"type":"Point","coordinates":[9.94514,36.7903]}},{"type":"Feature","id":"TUN-105","properties":{"kind":"division","code":"TUN-105","countryCode":"TUN","name":"Bizerte","localName":"Bizerte","labelEnglish":"Bizerte","labelLocal":"Bizerte","labelBoth":"Bizerte","type":"Governorate","iso":"TN-23","qid":"Q241129"},"geometry":{"type":"Polygon","coordinates":[[[9.0794,37.1668],[9.3696,36.8426],[9.553,36.8293],[9.9858,36.9348],[10.2182,37.1289],[9.6663,37.3354],[9.0794,37.1668]]]}},{"type":"Feature","id":"label-TUN-105","properties":{"kind":"division-label","code":"TUN-105","countryCode":"TUN","name":"Bizerte","localName":"Bizerte","labelEnglish":"Bizerte","labelLocal":"Bizerte","labelBoth":"Bizerte","type":"Governorate","iso":"TN-23","qid":"Q241129"},"geometry":{"type":"Point","coordinates":[9.67332,37.1109]}},{"type":"Feature","id":"TUN-103","properties":{"kind":"division","code":"TUN-103","countryCode":"TUN","name":"Beja","localName":"Beja","labelEnglish":"Beja","labelLocal":"Beja","labelBoth":"Beja","type":"Governorate","iso":"TN-31","qid":"Q276576"},"geometry":{"type":"Polygon","coordinates":[[[8.896,37.0189],[9.0737,36.5422],[9.0117,36.4492],[9.3181,36.3561],[9.7308,36.4429],[9.8561,36.5704],[9.553,36.8293],[9.3696,36.8426],[9.0794,37.1668],[8.896,37.0189]]]}},{"type":"Feature","id":"label-TUN-103","properties":{"kind":"division-label","code":"TUN-103","countryCode":"TUN","name":"Beja","localName":"Beja","labelEnglish":"Beja","labelLocal":"Beja","labelBoth":"Beja","type":"Governorate","iso":"TN-31","qid":"Q276576"},"geometry":{"type":"Point","coordinates":[9.37605,36.5828]}},{"type":"Feature","id":"TUN-115","properties":{"kind":"division","code":"TUN-115","countryCode":"TUN","name":"Siliana","localName":"Siliana","labelEnglish":"Siliana","labelLocal":"Siliana","labelBoth":"Siliana","type":"Governorate","iso":"TN-34","qid":"Q328115"},"geometry":{"type":"Polygon","coordinates":[[[9.4542,35.4879],[9.2775,35.6961],[9.7281,36.0667],[9.5737,36.2529],[9.7308,36.4429],[9.3181,36.3561],[9.0117,36.4492],[8.9173,36.4381],[9.1502,36.0452],[9.0022,35.7034],[9.327,35.4807],[9.4542,35.4879]]]}},{"type":"Feature","id":"label-TUN-115","properties":{"kind":"division-label","code":"TUN-115","countryCode":"TUN","name":"Siliana","localName":"Siliana","labelEnglish":"Siliana","labelLocal":"Siliana","labelBoth":"Siliana","type":"Governorate","iso":"TN-34","qid":"Q328115"},"geometry":{"type":"Point","coordinates":[9.33745,35.5597]}},{"type":"Feature","id":"TUN-113","properties":{"kind":"division","code":"TUN-113","countryCode":"TUN","name":"Sidi Bouzid","localName":"Sidi Bouzid","labelEnglish":"Sidi Bouzid","labelLocal":"Sidi Bouzid","labelBoth":"Sidi Bouzid","type":"Governorate","iso":"TN-43","qid":"Q327097"},"geometry":{"type":"Polygon","coordinates":[[[9.4542,35.4879],[9.327,35.4807],[9.1482,35.2496],[9.2711,35.052],[8.8059,34.7506],[9.2924,34.65],[9.5585,34.2523],[9.7137,34.2487],[10.0607,34.5301],[9.8265,34.6507],[10.0516,35.014],[9.7079,35.1958],[9.4542,35.4879]]]}},{"type":"Feature","id":"label-TUN-113","properties":{"kind":"division-label","code":"TUN-113","countryCode":"TUN","name":"Sidi Bouzid","localName":"Sidi Bouzid","labelEnglish":"Sidi Bouzid","labelLocal":"Sidi Bouzid","labelBoth":"Sidi Bouzid","type":"Governorate","iso":"TN-43","qid":"Q327097"},"geometry":{"type":"Point","coordinates":[9.43328,34.9757]}},{"type":"Feature","id":"TUN-118","properties":{"kind":"division","code":"TUN-118","countryCode":"TUN","name":"Kairouan","localName":"Kairouan","labelEnglish":"Kairouan","labelLocal":"Kairouan","labelBoth":"Kairouan","type":"Governorate","iso":"TN-41","qid":"Q276574"},"geometry":{"type":"Polygon","coordinates":[[[10.2065,36.1331],[10.0425,36.0095],[9.7281,36.0667],[9.2775,35.6961],[9.4542,35.4879],[9.7079,35.1958],[10.0516,35.014],[10.2287,35.1465],[10.3057,35.5762],[10.1624,35.8198],[10.2065,36.1331]]]}},{"type":"Feature","id":"label-TUN-118","properties":{"kind":"division-label","code":"TUN-118","countryCode":"TUN","name":"Kairouan","localName":"Kairouan","labelEnglish":"Kairouan","labelLocal":"Kairouan","labelBoth":"Kairouan","type":"Governorate","iso":"TN-41","qid":"Q276574"},"geometry":{"type":"Point","coordinates":[9.78892,35.6154]}},{"type":"Feature","id":"TUN-120","properties":{"kind":"division","code":"TUN-120","countryCode":"TUN","name":"Zaghouan","localName":"Zaghouan","labelEnglish":"Zaghouan","labelLocal":"Zaghouan","labelBoth":"Zaghouan","type":"Governorate","iso":"TN-22","qid":"Q27916"},"geometry":{"type":"Polygon","coordinates":[[[10.3412,36.4706],[9.9714,36.6354],[9.8561,36.5704],[9.7308,36.4429],[9.5737,36.2529],[9.7281,36.0667],[10.0425,36.0095],[10.2065,36.1331],[10.3655,36.3651],[10.3412,36.4706]]]}},{"type":"Feature","id":"label-TUN-120","properties":{"kind":"division-label","code":"TUN-120","countryCode":"TUN","name":"Zaghouan","localName":"Zaghouan","labelEnglish":"Zaghouan","labelLocal":"Zaghouan","labelBoth":"Zaghouan","type":"Governorate","iso":"TN-22","qid":"Q27916"},"geometry":{"type":"Point","coordinates":[9.96916,36.3427]}}]}