{"type":"FeatureCollection","features":[{"type":"Feature","id":"TUR-4839","properties":{"kind":"division","code":"TUR-4839","countryCode":"TUR","name":"Ardahan","localName":"Ardahan","labelEnglish":"Ardahan","labelLocal":"Ardahan","labelBoth":"Ardahan","type":"Province","iso":"TR-75","qid":"Q79840"},"geometry":{"type":"Polygon","coordinates":[[[43.4404,41.1066],[43.2306,41.1726],[42.8199,41.5723],[42.5866,41.5791],[42.451,41.4314],[42.5387,41.1912],[42.2792,40.9249],[42.537,40.5992],[42.7719,40.6253],[42.8294,40.8935],[43.4404,41.1066]]]}},{"type":"Feature","id":"label-TUR-4839","properties":{"kind":"division-label","code":"TUR-4839","countryCode":"TUR","name":"Ardahan","localName":"Ardahan","labelEnglish":"Ardahan","labelLocal":"Ardahan","labelBoth":"Ardahan","type":"Province","iso":"TR-75","qid":"Q79840"},"geometry":{"type":"Point","coordinates":[42.8342,41.1809]}},{"type":"Feature","id":"TUR-2298","properties":{"kind":"division","code":"TUR-2298","countryCode":"TUR","name":"Artvin","localName":"Artvin","labelEnglish":"Artvin","labelLocal":"Artvin","labelBoth":"Artvin","type":"Province","iso":"TR-08","qid":"Q43745"},"geometry":{"type":"Polygon","coordinates":[[[42.451,41.4314],[41.5208,41.5142],[41.1997,41.3013],[41.3858,41.0753],[41.1274,40.8129],[41.3653,40.7547],[41.4013,40.5556],[41.8208,40.5876],[42.0244,40.9119],[42.2792,40.9249],[42.5387,41.1912],[42.451,41.4314]]]}},{"type":"Feature","id":"label-TUR-2298","properties":{"kind":"division-label","code":"TUR-2298","countryCode":"TUR","name":"Artvin","localName":"Artvin","labelEnglish":"Artvin","labelLocal":"Artvin","labelBoth":"Artvin","type":"Province","iso":"TR-08","qid":"Q43745"},"geometry":{"type":"Point","coordinates":[41.8331,41.0175]}},{"type":"Feature","id":"TUR-3044","properties":{"kind":"division","code":"TUR-3044","countryCode":"TUR","name":"Şırnak","localName":"Şırnak","labelEnglish":"Şırnak","labelLocal":"Şırnak","labelBoth":"Şırnak","type":"Province","iso":"TR-73","qid":"Q647378"},"geometry":{"type":"Polygon","coordinates":[[[42.3572,37.11],[42.7222,37.3589],[43.3625,37.3039],[43.3868,37.7336],[43.0233,37.7317],[42.9505,37.626],[41.8169,37.7138],[41.8926,37.4359],[41.6983,37.2871],[41.8964,37.1543],[42.2112,37.3249],[42.3572,37.11]]]}},{"type":"Feature","id":"label-TUR-3044","properties":{"kind":"division-label","code":"TUR-3044","countryCode":"TUR","name":"Şırnak","localName":"Şırnak","labelEnglish":"Şırnak","labelLocal":"Şırnak","labelBoth":"Şırnak","type":"Province","iso":"TR-73","qid":"Q647378"},"geometry":{"type":"Point","coordinates":[42.5455,37.4047]}},{"type":"Feature","id":"TUR-3047","properties":{"kind":"division","code":"TUR-3047","countryCode":"TUR","name":"Hakkâri","localName":"Hakkâri","labelEnglish":"Hakkâri","labelLocal":"Hakkâri","labelBoth":"Hakkâri","type":"Province","iso":"TR-30","qid":"Q93209"},"geometry":{"type":"Polygon","coordinates":[[[43.3625,37.3039],[43.8936,37.2249],[44.069,37.3137],[44.3066,36.9772],[44.7661,37.1419],[44.5659,37.4472],[44.5961,37.7164],[44.205,37.9048],[43.9778,37.7913],[43.3868,37.7336],[43.3625,37.3039]]]}},{"type":"Feature","id":"label-TUR-3047","properties":{"kind":"division-label","code":"TUR-3047","countryCode":"TUR","name":"Hakkâri","localName":"Hakkâri","labelEnglish":"Hakkâri","labelLocal":"Hakkâri","labelBoth":"Hakkâri","type":"Province","iso":"TR-30","qid":"Q93209"},"geometry":{"type":"Point","coordinates":[44.0804,37.6097]}},{"type":"Feature","id":"TUR-4840","properties":{"kind":"division","code":"TUR-4840","countryCode":"TUR","name":"Iğdır","localName":"Iğdır","labelEnglish":"Iğdır","labelLocal":"Iğdır","labelBoth":"Iğdır","type":"Province","iso":"TR-76","qid":"Q125506"},"geometry":{"type":"Polygon","coordinates":[[[44.807,39.6399],[44.7746,39.7028],[44.3809,40.0098],[43.6654,40.1102],[43.3184,39.9693],[43.8809,39.6549],[44.4583,39.6425],[44.807,39.6399]]]}},{"type":"Feature","id":"label-TUR-4840","properties":{"kind":"division-label","code":"TUR-4840","countryCode":"TUR","name":"Iğdır","localName":"Iğdır","labelEnglish":"Iğdır","labelLocal":"Iğdır","labelBoth":"Iğdır","type":"Province","iso":"TR-76","qid":"Q125506"},"geometry":{"type":"Point","coordinates":[44.0317,39.811]}},{"type":"Feature","id":"TUR-2307","properties":{"kind":"division","code":"TUR-2307","countryCode":"TUR","name":"Ağrı","localName":"Ağrı","labelEnglish":"Ağrı","labelLocal":"Ağrı","labelBoth":"Ağrı","type":"Province","iso":"TR-04","qid":"Q80051"},"geometry":{"type":"Polygon","coordinates":[[[44.4583,39.6425],[43.8809,39.6549],[43.3184,39.9693],[42.5637,39.9519],[42.2716,39.8694],[42.4949,39.7481],[42.4313,39.4914],[42.6413,39.2354],[42.6276,39.0024],[42.972,39.1041],[43.2437,39.4099],[43.4923,39.3133],[44.0474,39.3375],[44.4048,39.4344],[44.4583,39.6425]]]}},{"type":"Feature","id":"label-TUR-2307","properties":{"kind":"division-label","code":"TUR-2307","countryCode":"TUR","name":"Ağrı","localName":"Ağrı","labelEnglish":"Ağrı","labelLocal":"Ağrı","labelBoth":"Ağrı","type":"Province","iso":"TR-04","qid":"Q80051"},"geometry":{"type":"Point","coordinates":[43.3647,39.5925]}},{"type":"Feature","id":"TUR-3048","properties":{"kind":"division","code":"TUR-3048","countryCode":"TUR","name":"Van","localName":"Van","labelEnglish":"Van","labelLocal":"Van","labelBoth":"Van","type":"Province","iso":"TR-65","qid":"Q80550"},"geometry":{"type":"Polygon","coordinates":[[[44.0474,39.3375],[43.4923,39.3133],[43.2437,39.4099],[42.972,39.1041],[43.1612,38.8723],[42.678,38.4049],[42.7869,38.1811],[43.0163,38.1518],[43.0233,37.7317],[43.3868,37.7336],[43.9778,37.7913],[44.205,37.9048],[44.4592,38.3224],[44.2895,38.3823],[44.275,38.8436],[44.0474,39.3375]]]}},{"type":"Feature","id":"label-TUR-3048","properties":{"kind":"division-label","code":"TUR-3048","countryCode":"TUR","name":"Van","localName":"Van","labelEnglish":"Van","labelLocal":"Van","labelBoth":"Van","type":"Province","iso":"TR-65","qid":"Q80550"},"geometry":{"type":"Point","coordinates":[43.5684,38.5212]}},{"type":"Feature","id":"TUR-2241","properties":{"kind":"division","code":"TUR-2241","countryCode":"TUR","name":"Kırklareli","localName":"Kırklareli","labelEnglish":"Kırklareli","labelLocal":"Kırklareli","labelBoth":"Kırklareli","type":"Province","iso":"TR-39","qid":"Q131597"},"geometry":{"type":"Polygon","coordinates":[[[28.0168,41.9726],[27.5464,41.9012],[27.0479,42.0829],[26.8379,41.9752],[26.9062,41.6669],[26.8098,41.3303],[28.1557,41.4922],[28.203,41.5402],[27.972,41.8223],[28.0168,41.9726]]]}},{"type":"Feature","id":"label-TUR-2241","properties":{"kind":"division-label","code":"TUR-2241","countryCode":"TUR","name":"Kırklareli","localName":"Kırklareli","labelEnglish":"Kırklareli","labelLocal":"Kırklareli","labelBoth":"Kırklareli","type":"Province","iso":"TR-39","qid":"Q131597"},"geometry":{"type":"Point","coordinates":[27.4916,41.6201]}},{"type":"Feature","id":"TUR-2240","properties":{"kind":"division","code":"TUR-2240","countryCode":"TUR","name":"Edirne","localName":"Edirne","labelEnglish":"Edirne","labelLocal":"Edirne","labelBoth":"Edirne","type":"Province","iso":"TR-22","qid":"Q83102"},"geometry":{"type":"Polygon","coordinates":[[[26.8379,41.9752],[26.5529,41.8816],[26.3334,41.713],[26.5955,41.6124],[26.6366,41.3785],[26.3317,41.2541],[26.3591,40.9647],[26.044,40.7385],[26.0769,40.6118],[26.7805,40.6594],[26.7864,40.7258],[26.7163,40.935],[26.8098,41.3303],[26.9062,41.6669],[26.8379,41.9752]]]}},{"type":"Feature","id":"label-TUR-2240","properties":{"kind":"division-label","code":"TUR-2240","countryCode":"TUR","name":"Edirne","localName":"Edirne","labelEnglish":"Edirne","labelLocal":"Edirne","labelBoth":"Edirne","type":"Province","iso":"TR-22","qid":"Q83102"},"geometry":{"type":"Point","coordinates":[26.4697,40.9579]}},{"type":"Feature","id":"TUR-3040","properties":{"kind":"division","code":"TUR-3040","countryCode":"TUR","name":"Kars","localName":"Kars","labelEnglish":"Kars","labelLocal":"Kars","labelBoth":"Kars","type":"Province","iso":"TR-36","qid":"Q83077"},"geometry":{"type":"Polygon","coordinates":[[[43.4404,41.1066],[42.8294,40.8935],[42.7719,40.6253],[42.537,40.5992],[42.5382,40.4307],[42.1812,40.2944],[42.5637,39.9519],[43.3184,39.9693],[43.6654,40.1102],[43.6903,40.2404],[43.6245,40.4111],[43.7294,40.6771],[43.4404,41.1066]]]}},{"type":"Feature","id":"label-TUR-3040","properties":{"kind":"division-label","code":"TUR-3040","countryCode":"TUR","name":"Kars","localName":"Kars","labelEnglish":"Kars","labelLocal":"Kars","labelBoth":"Kars","type":"Province","iso":"TR-36","qid":"Q83077"},"geometry":{"type":"Point","coordinates":[43.074,40.3671]}},{"type":"Feature","id":"TUR-3041","properties":{"kind":"division","code":"TUR-3041","countryCode":"TUR","name":"Mardin","localName":"Mardin","labelEnglish":"Mardin","labelLocal":"Mardin","labelBoth":"Mardin","type":"Province","iso":"TR-47","qid":"Q131293"},"geometry":{"type":"Polygon","coordinates":[[[41.8964,37.1543],[41.6983,37.2871],[41.8926,37.4359],[41.8169,37.7138],[41.3677,37.5185],[41.0752,37.7649],[40.5516,37.7299],[40,37.3757],[40.2614,36.9228],[40.709,37.1005],[41.4798,37.0756],[41.8964,37.1543]]]}},{"type":"Feature","id":"label-TUR-3041","properties":{"kind":"division-label","code":"TUR-3041","countryCode":"TUR","name":"Mardin","localName":"Mardin","labelEnglish":"Mardin","labelLocal":"Mardin","labelBoth":"Mardin","type":"Province","iso":"TR-47","qid":"Q131293"},"geometry":{"type":"Point","coordinates":[40.9525,37.4282]}},{"type":"Feature","id":"TUR-3017","properties":{"kind":"division","code":"TUR-3017","countryCode":"TUR","name":"Şanlıurfa","localName":"Şanlıurfa","labelEnglish":"Şanlıurfa","labelLocal":"Şanlıurfa","labelBoth":"Şanlıurfa","type":"Province","iso":"TR-63","qid":"Q388469"},"geometry":{"type":"Polygon","coordinates":[[[39.4417,36.6924],[40.2614,36.9228],[40,37.3757],[39.8632,37.7777],[39.189,38.0431],[38.8685,37.6514],[38.5154,37.5111],[38.0399,37.446],[37.8406,37.2679],[38.026,36.835],[38.1901,36.9055],[38.6352,36.744],[39.4417,36.6924]]]}},{"type":"Feature","id":"label-TUR-3017","properties":{"kind":"division-label","code":"TUR-3017","countryCode":"TUR","name":"Şanlıurfa","localName":"Şanlıurfa","labelEnglish":"Şanlıurfa","labelLocal":"Şanlıurfa","labelBoth":"Şanlıurfa","type":"Province","iso":"TR-63","qid":"Q388469"},"geometry":{"type":"Point","coordinates":[39.0508,37.3189]}},{"type":"Feature","id":"TUR-4841","properties":{"kind":"division","code":"TUR-4841","countryCode":"TUR","name":"Kilis","localName":"Kilis","labelEnglish":"Kilis","labelLocal":"Kilis","labelBoth":"Kilis","type":"Province","iso":"TR-79","qid":"Q128978"},"geometry":{"type":"Polygon","coordinates":[[[37.5221,36.6736],[36.8743,37.0033],[36.6596,36.8272],[37.0145,36.6423],[37.5221,36.6736]]]}},{"type":"Feature","id":"label-TUR-4841","properties":{"kind":"division-label","code":"TUR-4841","countryCode":"TUR","name":"Kilis","localName":"Kilis","labelEnglish":"Kilis","labelLocal":"Kilis","labelBoth":"Kilis","type":"Province","iso":"TR-79","qid":"Q128978"},"geometry":{"type":"Point","coordinates":[37.0035,36.8329]}},{"type":"Feature","id":"TUR-3016","properties":{"kind":"division","code":"TUR-3016","countryCode":"TUR","name":"Gaziantep","localName":"Gaziantep","labelEnglish":"Gaziantep","labelLocal":"Gaziantep","labelBoth":"Gaziantep","type":"Province","iso":"TR-27","qid":"Q483154"},"geometry":{"type":"Polygon","coordinates":[[[38.026,36.835],[37.8406,37.2679],[38.0399,37.446],[37.6251,37.5188],[37.6173,37.4144],[36.7212,37.2712],[36.4519,36.9607],[36.6596,36.8272],[36.8743,37.0033],[37.5221,36.6736],[38.026,36.835]]]}},{"type":"Feature","id":"label-TUR-3016","properties":{"kind":"division-label","code":"TUR-3016","countryCode":"TUR","name":"Gaziantep","localName":"Gaziantep","labelEnglish":"Gaziantep","labelLocal":"Gaziantep","labelBoth":"Gaziantep","type":"Province","iso":"TR-27","qid":"Q483154"},"geometry":{"type":"Point","coordinates":[37.2462,36.9988]}},{"type":"Feature","id":"TUR-2289","properties":{"kind":"division","code":"TUR-2289","countryCode":"TUR","name":"Hatay","localName":"Hatay","labelEnglish":"Hatay","labelLocal":"Hatay","labelBoth":"Hatay","type":"Province","iso":"TR-31","qid":"Q83274"},"geometry":{"type":"Polygon","coordinates":[[[36.6596,36.8272],[36.4519,36.9607],[36.0616,37.0097],[35.9325,36.873],[36.189,36.8017],[36.1891,36.604],[35.7887,36.3203],[35.9113,35.9178],[36.1553,35.8222],[36.358,35.994],[36.373,36.2276],[36.6488,36.3057],[36.5355,36.494],[36.6596,36.8272]]]}},{"type":"Feature","id":"label-TUR-2289","properties":{"kind":"division-label","code":"TUR-2289","countryCode":"TUR","name":"Hatay","localName":"Hatay","labelEnglish":"Hatay","labelLocal":"Hatay","labelBoth":"Hatay","type":"Province","iso":"TR-31","qid":"Q83274"},"geometry":{"type":"Point","coordinates":[36.2284,36.4876]}},{"type":"Feature","id":"TUR-2265","properties":{"kind":"division","code":"TUR-2265","countryCode":"TUR","name":"Istanbul","localName":"Istanbul","labelEnglish":"Istanbul","labelLocal":"Istanbul","labelBoth":"Istanbul","type":"Province","iso":"TR-34","qid":"Q534799"},"geometry":{"type":"MultiPolygon","coordinates":[[[[28.203,41.5402],[28.1557,41.4922],[28.1747,41.0808],[28.5952,40.978],[28.9819,41.0017],[29.1092,41.2353],[28.203,41.5402]]],[[[29.2537,40.8755],[29.5818,40.9253],[29.8846,41.149],[29.2318,41.2407],[29.0281,40.9821],[29.2537,40.8755]]]]}},{"type":"Feature","id":"label-TUR-2265","properties":{"kind":"division-label","code":"TUR-2265","countryCode":"TUR","name":"Istanbul","localName":"Istanbul","labelEnglish":"Istanbul","labelLocal":"Istanbul","labelBoth":"Istanbul","type":"Province","iso":"TR-34","qid":"Q534799"},"geometry":{"type":"Point","coordinates":[28.8463,41.1285]}},{"type":"Feature","id":"TUR-2242","properties":{"kind":"division","code":"TUR-2242","countryCode":"TUR","name":"Tekirdağ","localName":"Tekirdağ","labelEnglish":"Tekirdağ","labelLocal":"Tekirdağ","labelBoth":"Tekirdağ","type":"Province","iso":"TR-59","qid":"Q129387"},"geometry":{"type":"Polygon","coordinates":[[[28.1747,41.0808],[28.1557,41.4922],[26.8098,41.3303],[26.7163,40.935],[26.7864,40.7258],[26.9635,40.561],[27.1777,40.6326],[27.5242,40.9892],[27.9592,40.9753],[28.1747,41.0808]]]}},{"type":"Feature","id":"label-TUR-2242","properties":{"kind":"division-label","code":"TUR-2242","countryCode":"TUR","name":"Tekirdağ","localName":"Tekirdağ","labelEnglish":"Tekirdağ","labelLocal":"Tekirdağ","labelBoth":"Tekirdağ","type":"Province","iso":"TR-59","qid":"Q129387"},"geometry":{"type":"Point","coordinates":[27.4547,41.0824]}},{"type":"Feature","id":"TUR-2239","properties":{"kind":"division","code":"TUR-2239","countryCode":"TUR","name":"Çanakkale","localName":"Çanakkale","labelEnglish":"Çanakkale","labelLocal":"Çanakkale","labelBoth":"Çanakkale","type":"Province","iso":"TR-17","qid":"Q47813"},"geometry":{"type":"MultiPolygon","coordinates":[[[[26.9635,40.561],[26.7864,40.7258],[26.7805,40.6594],[26.8289,40.602],[26.21,40.3219],[26.1575,40.0553],[26.9635,40.561]]],[[[26.6672,39.5508],[26.6967,39.7102],[27.4388,39.8445],[27.5722,40.3157],[27.3034,40.4584],[26.7356,40.4036],[26.1526,39.9426],[26.0742,39.4745],[26.6672,39.5508]]]]}},{"type":"Feature","id":"label-TUR-2239","properties":{"kind":"division-label","code":"TUR-2239","countryCode":"TUR","name":"Çanakkale","localName":"Çanakkale","labelEnglish":"Çanakkale","labelLocal":"Çanakkale","labelBoth":"Çanakkale","type":"Province","iso":"TR-17","qid":"Q47813"},"geometry":{"type":"Point","coordinates":[26.8233,40.0553]}},{"type":"Feature","id":"TUR-2301","properties":{"kind":"division","code":"TUR-2301","countryCode":"TUR","name":"Rize","localName":"Rize","labelEnglish":"Rize","labelLocal":"Rize","labelBoth":"Rize","type":"Province","iso":"TR-53","qid":"Q483481"},"geometry":{"type":"Polygon","coordinates":[[[40.3523,40.9941],[40.4894,40.5421],[41.1274,40.8129],[41.3858,41.0753],[41.1997,41.3013],[40.3523,40.9941]]]}},{"type":"Feature","id":"label-TUR-2301","properties":{"kind":"division-label","code":"TUR-2301","countryCode":"TUR","name":"Rize","localName":"Rize","labelEnglish":"Rize","labelLocal":"Rize","labelBoth":"Rize","type":"Province","iso":"TR-53","qid":"Q483481"},"geometry":{"type":"Point","coordinates":[40.8691,40.9466]}},{"type":"Feature","id":"TUR-2302","properties":{"kind":"division","code":"TUR-2302","countryCode":"TUR","name":"Trabzon","localName":"Trabzon","labelEnglish":"Trabzon","labelLocal":"Trabzon","labelBoth":"Trabzon","type":"Province","iso":"TR-61","qid":"Q388995"},"geometry":{"type":"Polygon","coordinates":[[[39.1483,41.0725],[39.1444,40.7714],[39.834,40.561],[40.4894,40.5421],[40.3523,40.9941],[40.1428,40.9228],[39.1483,41.0725]]]}},{"type":"Feature","id":"label-TUR-2302","properties":{"kind":"division-label","code":"TUR-2302","countryCode":"TUR","name":"Trabzon","localName":"Trabzon","labelEnglish":"Trabzon","labelLocal":"Trabzon","labelBoth":"Trabzon","type":"Province","iso":"TR-61","qid":"Q388995"},"geometry":{"type":"Point","coordinates":[39.8034,40.7988]}},{"type":"Feature","id":"TUR-2292","properties":{"kind":"division","code":"TUR-2292","countryCode":"TUR","name":"Giresun","localName":"Giresun","labelEnglish":"Giresun","labelLocal":"Giresun","labelBoth":"Giresun","type":"Province","iso":"TR-28","qid":"Q482779"},"geometry":{"type":"Polygon","coordinates":[[[38.1142,40.9582],[38.1583,40.5235],[38.2748,40.1861],[38.7616,40.0549],[38.9333,40.0713],[39.0655,40.3884],[38.8423,40.4802],[39.1444,40.7714],[39.1483,41.0725],[38.7176,40.9548],[38.1142,40.9582]]]}},{"type":"Feature","id":"label-TUR-2292","properties":{"kind":"division-label","code":"TUR-2292","countryCode":"TUR","name":"Giresun","localName":"Giresun","labelEnglish":"Giresun","labelLocal":"Giresun","labelBoth":"Giresun","type":"Province","iso":"TR-28","qid":"Q482779"},"geometry":{"type":"Point","coordinates":[38.6055,40.5379]}},{"type":"Feature","id":"TUR-2293","properties":{"kind":"division","code":"TUR-2293","countryCode":"TUR","name":"Ordu","localName":"Ordu","labelEnglish":"Ordu","labelLocal":"Ordu","labelBoth":"Ordu","type":"Province","iso":"TR-52","qid":"Q483180"},"geometry":{"type":"Polygon","coordinates":[[[37.1517,41.1468],[36.7052,40.8625],[37.2197,40.6977],[37.6349,40.4612],[37.8019,40.3357],[38.1583,40.5235],[38.1142,40.9582],[37.6898,41.1404],[37.5806,41.0368],[37.1517,41.1468]]]}},{"type":"Feature","id":"label-TUR-2293","properties":{"kind":"division-label","code":"TUR-2293","countryCode":"TUR","name":"Ordu","localName":"Ordu","labelEnglish":"Ordu","labelLocal":"Ordu","labelBoth":"Ordu","type":"Province","iso":"TR-52","qid":"Q483180"},"geometry":{"type":"Point","coordinates":[37.4229,40.8376]}},{"type":"Feature","id":"TUR-2296","properties":{"kind":"division","code":"TUR-2296","countryCode":"TUR","name":"Samsun","localName":"Samsun","labelEnglish":"Samsun","labelLocal":"Samsun","labelBoth":"Samsun","type":"Province","iso":"TR-55","qid":"Q483040"},"geometry":{"type":"Polygon","coordinates":[[[35.5001,41.6416],[35.5048,41.2845],[35.1024,41.3853],[34.888,41.2698],[35.0893,41.0869],[35.7061,40.8788],[36.0314,40.8474],[36.2429,41.007],[36.4431,40.8704],[36.7052,40.8625],[37.1517,41.1468],[36.6199,41.3751],[36.451,41.2404],[36.1345,41.4619],[35.9568,41.7363],[35.5001,41.6416]]]}},{"type":"Feature","id":"label-TUR-2296","properties":{"kind":"division-label","code":"TUR-2296","countryCode":"TUR","name":"Samsun","localName":"Samsun","labelEnglish":"Samsun","labelLocal":"Samsun","labelBoth":"Samsun","type":"Province","iso":"TR-55","qid":"Q483040"},"geometry":{"type":"Point","coordinates":[36.0198,41.2761]}},{"type":"Feature","id":"TUR-2294","properties":{"kind":"division","code":"TUR-2294","countryCode":"TUR","name":"Sinop","localName":"Sinop","labelEnglish":"Sinop","labelLocal":"Sinop","labelBoth":"Sinop","type":"Province","iso":"TR-57","qid":"Q134413"},"geometry":{"type":"Polygon","coordinates":[[[34.2161,41.9601],[34.1404,41.7671],[34.5325,41.7132],[34.4719,41.3108],[34.888,41.2698],[35.1024,41.3853],[35.5048,41.2845],[35.5001,41.6416],[35.2248,41.7619],[34.9481,42.0988],[34.6942,41.946],[34.2161,41.9601]]]}},{"type":"Feature","id":"label-TUR-2294","properties":{"kind":"division-label","code":"TUR-2294","countryCode":"TUR","name":"Sinop","localName":"Sinop","labelEnglish":"Sinop","labelLocal":"Sinop","labelBoth":"Sinop","type":"Province","iso":"TR-57","qid":"Q134413"},"geometry":{"type":"Point","coordinates":[34.8226,41.5894]}},{"type":"Feature","id":"TUR-2270","properties":{"kind":"division","code":"TUR-2270","countryCode":"TUR","name":"Kastamonu","localName":"Kastamonu","labelEnglish":"Kastamonu","labelLocal":"Kastamonu","labelBoth":"Kastamonu","type":"Province","iso":"TR-37","qid":"Q483191"},"geometry":{"type":"Polygon","coordinates":[[[32.7985,41.8597],[32.818,41.5764],[33.1154,41.3954],[32.9194,41.2944],[33.0692,41.093],[33.4089,40.9599],[33.7922,41.094],[34.0272,40.8608],[34.4719,41.3108],[34.5325,41.7132],[34.1404,41.7671],[34.2161,41.9601],[33.3245,42.019],[32.7985,41.8597]]]}},{"type":"Feature","id":"label-TUR-2270","properties":{"kind":"division-label","code":"TUR-2270","countryCode":"TUR","name":"Kastamonu","localName":"Kastamonu","labelEnglish":"Kastamonu","labelLocal":"Kastamonu","labelBoth":"Kastamonu","type":"Province","iso":"TR-37","qid":"Q483191"},"geometry":{"type":"Point","coordinates":[33.6356,41.5114]}},{"type":"Feature","id":"TUR-5521","properties":{"kind":"division","code":"TUR-5521","countryCode":"TUR","name":"Bartın","localName":"Bartın","labelEnglish":"Bartın","labelLocal":"Bartın","labelBoth":"Bartın","type":"Province","iso":"TR-74","qid":"Q83342"},"geometry":{"type":"Polygon","coordinates":[[[32.1341,41.5994],[32.287,41.3308],[32.818,41.5764],[32.7985,41.8597],[32.2634,41.7202],[32.1341,41.5994]]]}},{"type":"Feature","id":"label-TUR-5521","properties":{"kind":"division-label","code":"TUR-5521","countryCode":"TUR","name":"Bartın","localName":"Bartın","labelEnglish":"Bartın","labelLocal":"Bartın","labelBoth":"Bartın","type":"Province","iso":"TR-74","qid":"Q83342"},"geometry":{"type":"Point","coordinates":[32.4688,41.5857]}},{"type":"Feature","id":"TUR-3010","properties":{"kind":"division","code":"TUR-3010","countryCode":"TUR","name":"Zonguldak","localName":"Zonguldak","labelEnglish":"Zonguldak","labelLocal":"Zonguldak","labelBoth":"Zonguldak","type":"Province","iso":"TR-67","qid":"Q219956"},"geometry":{"type":"Polygon","coordinates":[[[31.3464,41.1507],[31.7991,41.0418],[32.1494,41.0192],[32.287,41.3308],[32.1341,41.5994],[31.4036,41.3165],[31.3464,41.1507]]]}},{"type":"Feature","id":"label-TUR-3010","properties":{"kind":"division-label","code":"TUR-3010","countryCode":"TUR","name":"Zonguldak","localName":"Zonguldak","labelEnglish":"Zonguldak","labelLocal":"Zonguldak","labelBoth":"Zonguldak","type":"Province","iso":"TR-67","qid":"Q219956"},"geometry":{"type":"Point","coordinates":[31.8206,41.2481]}},{"type":"Feature","id":"TUR-5519","properties":{"kind":"division","code":"TUR-5519","countryCode":"TUR","name":"Düzce","localName":"Düzce","labelEnglish":"Düzce","labelLocal":"Düzce","labelBoth":"Düzce","type":"Province","iso":"TR-81","qid":"Q432391"},"geometry":{"type":"Polygon","coordinates":[[[30.9559,41.0824],[30.8912,40.7268],[31.2485,40.6721],[31.7991,41.0418],[31.3464,41.1507],[30.9559,41.0824]]]}},{"type":"Feature","id":"label-TUR-5519","properties":{"kind":"division-label","code":"TUR-5519","countryCode":"TUR","name":"Düzce","localName":"Düzce","labelEnglish":"Düzce","labelLocal":"Düzce","labelBoth":"Düzce","type":"Province","iso":"TR-81","qid":"Q432391"},"geometry":{"type":"Point","coordinates":[31.3231,40.8631]}},{"type":"Feature","id":"TUR-2267","properties":{"kind":"division","code":"TUR-2267","countryCode":"TUR","name":"Sakarya","localName":"Sakarya","labelEnglish":"Sakarya","labelLocal":"Sakarya","labelBoth":"Sakarya","type":"Province","iso":"TR-54","qid":"Q83069"},"geometry":{"type":"Polygon","coordinates":[[[30.4293,41.1706],[30.183,40.6463],[29.9262,40.577],[29.9408,40.5335],[30.081,40.3914],[30.626,40.3315],[30.8912,40.7268],[30.9559,41.0824],[30.4293,41.1706]]]}},{"type":"Feature","id":"label-TUR-2267","properties":{"kind":"division-label","code":"TUR-2267","countryCode":"TUR","name":"Sakarya","localName":"Sakarya","labelEnglish":"Sakarya","labelLocal":"Sakarya","labelBoth":"Sakarya","type":"Province","iso":"TR-54","qid":"Q83069"},"geometry":{"type":"Point","coordinates":[30.4439,40.6596]}},{"type":"Feature","id":"TUR-2266","properties":{"kind":"division","code":"TUR-2266","countryCode":"TUR","name":"Kocaeli","localName":"Kocaeli","labelEnglish":"Kocaeli","labelLocal":"Kocaeli","labelBoth":"Kocaeli","type":"Province","iso":"TR-41","qid":"Q83965"},"geometry":{"type":"Polygon","coordinates":[[[29.8846,41.149],[29.5818,40.9253],[29.2537,40.8755],[29.4284,40.6909],[29.4207,40.5632],[29.9262,40.577],[30.183,40.6463],[30.4293,41.1706],[29.8846,41.149]]]}},{"type":"Feature","id":"label-TUR-2266","properties":{"kind":"division-label","code":"TUR-2266","countryCode":"TUR","name":"Kocaeli","localName":"Kocaeli","labelEnglish":"Kocaeli","labelLocal":"Kocaeli","labelBoth":"Kocaeli","type":"Province","iso":"TR-41","qid":"Q83965"},"geometry":{"type":"Point","coordinates":[29.9396,40.9008]}},{"type":"Feature","id":"TUR-5518","properties":{"kind":"division","code":"TUR-5518","countryCode":"TUR","name":"Yalova","localName":"Yalova","labelEnglish":"Yalova","labelLocal":"Yalova","labelBoth":"Yalova","type":"Province","iso":"TR-77","qid":"Q483083"},"geometry":{"type":"Polygon","coordinates":[[[28.9803,40.4645],[28.978,40.5732],[29.4207,40.5632],[29.4284,40.6909],[28.9863,40.6448],[28.7742,40.5228],[28.9803,40.4645]]]}},{"type":"Feature","id":"label-TUR-5518","properties":{"kind":"division-label","code":"TUR-5518","countryCode":"TUR","name":"Yalova","localName":"Yalova","labelEnglish":"Yalova","labelLocal":"Yalova","labelBoth":"Yalova","type":"Province","iso":"TR-77","qid":"Q483083"},"geometry":{"type":"Point","coordinates":[29.2036,40.6154]}},{"type":"Feature","id":"TUR-2264","properties":{"kind":"division","code":"TUR-2264","countryCode":"TUR","name":"Bursa","localName":"Bursa","labelEnglish":"Bursa","labelLocal":"Bursa","labelBoth":"Bursa","type":"Province","iso":"TR-16","qid":"Q43690"},"geometry":{"type":"Polygon","coordinates":[[[28.2081,40.3993],[28.1128,40.1533],[28.2814,39.8958],[28.9672,39.5891],[29.2461,39.5793],[29.3995,39.8959],[29.6777,39.9063],[29.7183,40.1855],[29.9408,40.5335],[29.9262,40.577],[29.4207,40.5632],[28.978,40.5732],[28.9803,40.4645],[28.9566,40.3632],[28.2081,40.3993]]]}},{"type":"Feature","id":"label-TUR-2264","properties":{"kind":"division-label","code":"TUR-2264","countryCode":"TUR","name":"Bursa","localName":"Bursa","labelEnglish":"Bursa","labelLocal":"Bursa","labelBoth":"Bursa","type":"Province","iso":"TR-16","qid":"Q43690"},"geometry":{"type":"Point","coordinates":[29.0593,40.1314]}},{"type":"Feature","id":"TUR-2238","properties":{"kind":"division","code":"TUR-2238","countryCode":"TUR","name":"Balıkesir","localName":"Balıkesir","labelEnglish":"Balıkesir","labelLocal":"Balıkesir","labelBoth":"Balıkesir","type":"Province","iso":"TR-10","qid":"Q47117"},"geometry":{"type":"Polygon","coordinates":[[[27.5722,40.3157],[27.4388,39.8445],[26.6967,39.7102],[26.6672,39.5508],[26.926,39.4858],[26.6092,39.2752],[26.7787,39.17],[27.291,39.4645],[27.4201,39.3803],[27.8712,39.3448],[28.125,39.063],[28.6595,39.1566],[28.9672,39.5891],[28.2814,39.8958],[28.1128,40.1533],[28.2081,40.3993],[27.6843,40.5023],[27.5722,40.3157]]]}},{"type":"Feature","id":"label-TUR-2238","properties":{"kind":"division-label","code":"TUR-2238","countryCode":"TUR","name":"Balıkesir","localName":"Balıkesir","labelEnglish":"Balıkesir","labelLocal":"Balıkesir","labelBoth":"Balıkesir","type":"Province","iso":"TR-10","qid":"Q47117"},"geometry":{"type":"Point","coordinates":[27.8355,39.7193]}},{"type":"Feature","id":"TUR-2230","properties":{"kind":"division","code":"TUR-2230","countryCode":"TUR","name":"İzmir","localName":"İzmir","labelEnglish":"İzmir","labelLocal":"İzmir","labelBoth":"İzmir","type":"Province","iso":"TR-35","qid":"Q344490"},"geometry":{"type":"Polygon","coordinates":[[[27.2618,37.8884],[27.5323,37.9778],[28.2541,38.0201],[28.5623,38.1062],[28.4478,38.2899],[27.9389,38.4068],[27.8483,38.3329],[27.2284,38.7348],[27.5377,39.0413],[27.4201,39.3803],[27.291,39.4645],[26.7787,39.17],[26.8556,38.9175],[26.7191,38.7209],[26.9354,38.4349],[26.6731,38.3072],[26.5056,38.6527],[26.3486,38.6213],[26.4759,38.3669],[26.2346,38.2738],[27.2618,37.8884]]]}},{"type":"Feature","id":"label-TUR-2230","properties":{"kind":"division-label","code":"TUR-2230","countryCode":"TUR","name":"İzmir","localName":"İzmir","labelEnglish":"İzmir","labelLocal":"İzmir","labelBoth":"İzmir","type":"Province","iso":"TR-35","qid":"Q344490"},"geometry":{"type":"Point","coordinates":[27.3977,38.2426]}},{"type":"Feature","id":"TUR-2229","properties":{"kind":"division","code":"TUR-2229","countryCode":"TUR","name":"Aydın","localName":"Aydın","labelEnglish":"Aydın","labelLocal":"Aydın","labelBoth":"Aydın","type":"Province","iso":"TR-09","qid":"Q79846"},"geometry":{"type":"Polygon","coordinates":[[[27.4035,37.4126],[27.5458,37.5545],[28.1414,37.4668],[28.2699,37.5774],[28.6089,37.4775],[28.8996,37.7097],[28.698,38.1038],[28.5623,38.1062],[28.2541,38.0201],[27.5323,37.9778],[27.2618,37.8884],[27.2119,37.3573],[27.4035,37.4126]]]}},{"type":"Feature","id":"label-TUR-2229","properties":{"kind":"division-label","code":"TUR-2229","countryCode":"TUR","name":"Aydın","localName":"Aydın","labelEnglish":"Aydın","labelLocal":"Aydın","labelBoth":"Aydın","type":"Province","iso":"TR-09","qid":"Q79846"},"geometry":{"type":"Point","coordinates":[27.9573,37.7292]}},{"type":"Feature","id":"TUR-2278","properties":{"kind":"division","code":"TUR-2278","countryCode":"TUR","name":"Muğla","localName":"Muğla","labelEnglish":"Muğla","labelLocal":"Muğla","labelBoth":"Muğla","type":"Province","iso":"TR-48","qid":"Q123934"},"geometry":{"type":"Polygon","coordinates":[[[29.2612,36.2936],[29.4773,36.4824],[29.6889,36.9143],[29.3904,37.0686],[29.2704,36.9116],[28.8115,37.2335],[28.6089,37.4775],[28.2699,37.5774],[28.1414,37.4668],[27.5458,37.5545],[27.4035,37.4126],[27.4751,37.0925],[27.2632,36.9634],[28.3047,37.0508],[28.0554,36.8086],[27.6234,36.8017],[27.3628,36.6851],[27.6712,36.6578],[28.2731,36.852],[28.6035,36.8161],[28.8425,36.6379],[29.0964,36.6652],[29.0964,36.3909],[29.2612,36.2936]]]}},{"type":"Feature","id":"label-TUR-2278","properties":{"kind":"division-label","code":"TUR-2278","countryCode":"TUR","name":"Muğla","localName":"Muğla","labelEnglish":"Muğla","labelLocal":"Muğla","labelBoth":"Muğla","type":"Province","iso":"TR-48","qid":"Q123934"},"geometry":{"type":"Point","coordinates":[28.6482,37.0501]}},{"type":"Feature","id":"TUR-2271","properties":{"kind":"division","code":"TUR-2271","countryCode":"TUR","name":"Antalya","localName":"Antalya","labelEnglish":"Antalya","labelLocal":"Antalya","labelBoth":"Antalya","type":"Province","iso":"TR-07","qid":"Q40249"},"geometry":{"type":"Polygon","coordinates":[[[32.5718,36.094],[32.6517,36.438],[32.4562,36.6734],[32.3235,36.9582],[31.8154,37.2985],[31.3319,37.4222],[30.935,37.3803],[30.7855,37.2352],[30.2949,37.3049],[29.906,37.1722],[29.6889,36.9143],[29.4773,36.4824],[29.2612,36.2936],[29.6724,36.1234],[30.2546,36.3083],[30.4004,36.2481],[30.6865,36.8912],[31.3408,36.8086],[32.0261,36.5434],[32.3655,36.178],[32.5718,36.094]]]}},{"type":"Feature","id":"label-TUR-2271","properties":{"kind":"division-label","code":"TUR-2271","countryCode":"TUR","name":"Antalya","localName":"Antalya","labelEnglish":"Antalya","labelLocal":"Antalya","labelBoth":"Antalya","type":"Province","iso":"TR-07","qid":"Q40249"},"geometry":{"type":"Point","coordinates":[30.9564,37.1141]}},{"type":"Feature","id":"TUR-2285","properties":{"kind":"division","code":"TUR-2285","countryCode":"TUR","name":"Mersin","localName":"Mersin","labelEnglish":"Mersin","labelLocal":"Mersin","labelBoth":"Mersin","type":"Province","iso":"TR-33","qid":"Q132637"},"geometry":{"type":"Polygon","coordinates":[[[34.9333,36.7275],[35.0817,37.026],[34.7916,37.3877],[34.5122,37.352],[34.149,37.155],[33.3719,36.988],[32.9795,36.8038],[33.231,36.5607],[32.6517,36.438],[32.5718,36.094],[32.8037,36.0272],[33.134,36.1318],[33.6853,36.1432],[34.5547,36.7676],[34.9333,36.7275]]]}},{"type":"Feature","id":"label-TUR-2285","properties":{"kind":"division-label","code":"TUR-2285","countryCode":"TUR","name":"Mersin","localName":"Mersin","labelEnglish":"Mersin","labelLocal":"Mersin","labelBoth":"Mersin","type":"Province","iso":"TR-33","qid":"Q132637"},"geometry":{"type":"Point","coordinates":[33.8268,36.6614]}},{"type":"Feature","id":"TUR-3018","properties":{"kind":"division","code":"TUR-3018","countryCode":"TUR","name":"Adana","localName":"Adana","labelEnglish":"Adana","labelLocal":"Adana","labelBoth":"Adana","type":"Province","iso":"TR-01","qid":"Q40549"},"geometry":{"type":"Polygon","coordinates":[[[35.9325,36.873],[36.0616,37.0097],[35.9396,37.37],[36.11,37.6643],[36.2799,37.6691],[36.5055,38.3229],[36.1459,38.3951],[35.979,38.155],[35.6077,37.9538],[35.6296,37.7702],[35.1906,37.8181],[34.8597,37.7166],[34.7916,37.3877],[35.0817,37.026],[34.9333,36.7275],[35.348,36.5444],[35.6314,36.6072],[35.9325,36.873]]]}},{"type":"Feature","id":"label-TUR-3018","properties":{"kind":"division-label","code":"TUR-3018","countryCode":"TUR","name":"Adana","localName":"Adana","labelEnglish":"Adana","labelLocal":"Adana","labelBoth":"Adana","type":"Province","iso":"TR-01","qid":"Q40549"},"geometry":{"type":"Point","coordinates":[35.7555,37.4006]}},{"type":"Feature","id":"TUR-2268","properties":{"kind":"division","code":"TUR-2268","countryCode":"TUR","name":"Bolu","localName":"Bolu","labelEnglish":"Bolu","labelLocal":"Bolu","labelBoth":"Bolu","type":"Province","iso":"TR-14","qid":"Q82089"},"geometry":{"type":"Polygon","coordinates":[[[32.5071,40.7052],[32.5262,40.7887],[32.1494,41.0192],[31.7991,41.0418],[31.2485,40.6721],[30.8912,40.7268],[30.626,40.3315],[30.7386,40.1678],[30.8636,40.1428],[31.0692,40.4113],[31.5679,40.3085],[32.4767,40.539],[32.5071,40.7052]]]}},{"type":"Feature","id":"label-TUR-2268","properties":{"kind":"division-label","code":"TUR-2268","countryCode":"TUR","name":"Bolu","localName":"Bolu","labelEnglish":"Bolu","labelLocal":"Bolu","labelBoth":"Bolu","type":"Province","iso":"TR-14","qid":"Q82089"},"geometry":{"type":"Point","coordinates":[31.6806,40.5854]}},{"type":"Feature","id":"TUR-3008","properties":{"kind":"division","code":"TUR-3008","countryCode":"TUR","name":"Ankara","localName":"Ankara","labelEnglish":"Ankara","labelLocal":"Ankara","labelBoth":"Ankara","type":"Province","iso":"TR-06","qid":"Q2297724"},"geometry":{"type":"Polygon","coordinates":[[[32.5071,40.7052],[32.4767,40.539],[31.5679,40.3085],[31.0692,40.4113],[30.8636,40.1428],[30.9221,40.02],[31.727,40.0235],[32.0427,39.2751],[31.8614,39.1714],[32.4787,38.9972],[33.0624,39.2221],[33.3206,39.1199],[33.4666,38.6436],[33.9333,38.7923],[33.9301,39.0011],[33.5245,39.2668],[33.2731,39.7275],[33.3727,39.9816],[33.5621,40.0165],[33.5952,40.3396],[33.2714,40.3311],[32.9586,40.594],[32.5071,40.7052]]]}},{"type":"Feature","id":"label-TUR-3008","properties":{"kind":"division-label","code":"TUR-3008","countryCode":"TUR","name":"Ankara","localName":"Ankara","labelEnglish":"Ankara","labelLocal":"Ankara","labelBoth":"Ankara","type":"Province","iso":"TR-06","qid":"Q2297724"},"geometry":{"type":"Point","coordinates":[32.578,39.829]}},{"type":"Feature","id":"TUR-2263","properties":{"kind":"division","code":"TUR-2263","countryCode":"TUR","name":"Bilecik","localName":"Bilecik","labelEnglish":"Bilecik","labelLocal":"Bilecik","labelBoth":"Bilecik","type":"Province","iso":"TR-11","qid":"Q46763"},"geometry":{"type":"Polygon","coordinates":[[[30.626,40.3315],[30.081,40.3914],[29.9408,40.5335],[29.7183,40.1855],[29.6777,39.9063],[29.7163,39.7093],[30.1361,39.6388],[30.2452,39.8497],[30.7386,40.1678],[30.626,40.3315]]]}},{"type":"Feature","id":"label-TUR-2263","properties":{"kind":"division-label","code":"TUR-2263","countryCode":"TUR","name":"Bilecik","localName":"Bilecik","labelEnglish":"Bilecik","labelLocal":"Bilecik","labelBoth":"Bilecik","type":"Province","iso":"TR-11","qid":"Q46763"},"geometry":{"type":"Point","coordinates":[30.2002,40.0387]}},{"type":"Feature","id":"TUR-2269","properties":{"kind":"division","code":"TUR-2269","countryCode":"TUR","name":"Eskişehir","localName":"Eskişehir","labelEnglish":"Eskişehir","labelLocal":"Eskişehir","labelBoth":"Eskişehir","type":"Province","iso":"TR-26","qid":"Q483053"},"geometry":{"type":"Polygon","coordinates":[[[30.7386,40.1678],[30.2452,39.8497],[30.1361,39.6388],[30.4418,39.2063],[30.6212,39.0869],[31.2577,39.2819],[31.4528,39.0912],[31.6978,39.0926],[31.8614,39.1714],[32.0427,39.2751],[31.727,40.0235],[30.9221,40.02],[30.8636,40.1428],[30.7386,40.1678]]]}},{"type":"Feature","id":"label-TUR-2269","properties":{"kind":"division-label","code":"TUR-2269","countryCode":"TUR","name":"Eskişehir","localName":"Eskişehir","labelEnglish":"Eskişehir","labelLocal":"Eskişehir","labelBoth":"Eskişehir","type":"Province","iso":"TR-26","qid":"Q483053"},"geometry":{"type":"Point","coordinates":[31.0894,39.6297]}},{"type":"Feature","id":"TUR-3009","properties":{"kind":"division","code":"TUR-3009","countryCode":"TUR","name":"Çankırı","localName":"Çankırı","labelEnglish":"Çankırı","labelLocal":"Çankırı","labelBoth":"Çankırı","type":"Province","iso":"TR-18","qid":"Q272662"},"geometry":{"type":"Polygon","coordinates":[[[32.5262,40.7887],[32.5071,40.7052],[32.9586,40.594],[33.2714,40.3311],[33.5952,40.3396],[33.9642,40.2655],[34.1502,40.423],[34.0272,40.8608],[33.7922,41.094],[33.4089,40.9599],[33.0692,41.093],[32.5262,40.7887]]]}},{"type":"Feature","id":"label-TUR-3009","properties":{"kind":"division-label","code":"TUR-3009","countryCode":"TUR","name":"Çankırı","localName":"Çankırı","labelEnglish":"Çankırı","labelLocal":"Çankırı","labelBoth":"Çankırı","type":"Province","iso":"TR-18","qid":"Q272662"},"geometry":{"type":"Point","coordinates":[33.2142,40.7087]}},{"type":"Feature","id":"TUR-5520","properties":{"kind":"division","code":"TUR-5520","countryCode":"TUR","name":"Karabük","localName":"Karabük","labelEnglish":"Karabük","labelLocal":"Karabük","labelBoth":"Karabük","type":"Province","iso":"TR-78","qid":"Q483168"},"geometry":{"type":"Polygon","coordinates":[[[32.5262,40.7887],[33.0692,41.093],[32.9194,41.2944],[33.1154,41.3954],[32.818,41.5764],[32.287,41.3308],[32.1494,41.0192],[32.5262,40.7887]]]}},{"type":"Feature","id":"label-TUR-5520","properties":{"kind":"division-label","code":"TUR-5520","countryCode":"TUR","name":"Karabük","localName":"Karabük","labelEnglish":"Karabük","labelLocal":"Karabük","labelBoth":"Karabük","type":"Province","iso":"TR-78","qid":"Q483168"},"geometry":{"type":"Point","coordinates":[32.5067,41.2347]}},{"type":"Feature","id":"TUR-2297","properties":{"kind":"division","code":"TUR-2297","countryCode":"TUR","name":"Tokat","localName":"Tokat","labelEnglish":"Tokat","labelLocal":"Tokat","labelBoth":"Tokat","type":"Province","iso":"TR-60","qid":"Q483195"},"geometry":{"type":"Polygon","coordinates":[[[36.7052,40.8625],[36.4431,40.8704],[36.3973,40.588],[36.1358,40.4437],[35.8423,40.5052],[35.5098,40.1886],[36.0064,40.1147],[36.0887,39.9237],[36.6669,40.0345],[36.7339,40.1913],[37.3508,40.259],[37.6349,40.4612],[37.2197,40.6977],[36.7052,40.8625]]]}},{"type":"Feature","id":"label-TUR-2297","properties":{"kind":"division-label","code":"TUR-2297","countryCode":"TUR","name":"Tokat","localName":"Tokat","labelEnglish":"Tokat","labelLocal":"Tokat","labelBoth":"Tokat","type":"Province","iso":"TR-60","qid":"Q483195"},"geometry":{"type":"Point","coordinates":[36.5724,40.4442]}},{"type":"Feature","id":"TUR-2295","properties":{"kind":"division","code":"TUR-2295","countryCode":"TUR","name":"Sivas","localName":"Sivas","labelEnglish":"Sivas","labelLocal":"Sivas","labelBoth":"Sivas","type":"Province","iso":"TR-58","qid":"Q483100"},"geometry":{"type":"Polygon","coordinates":[[[38.1583,40.5235],[37.8019,40.3357],[37.6349,40.4612],[37.3508,40.259],[36.7339,40.1913],[36.6669,40.0345],[36.0887,39.9237],[36.1835,39.6426],[35.8199,39.3344],[36.1115,39.2057],[36.8998,39.1335],[36.7475,38.5994],[37.2844,38.6036],[37.5969,38.8343],[37.5516,38.9694],[38.3617,39.1503],[38.4067,39.9507],[38.7616,40.0549],[38.2748,40.1861],[38.1583,40.5235]]]}},{"type":"Feature","id":"label-TUR-2295","properties":{"kind":"division-label","code":"TUR-2295","countryCode":"TUR","name":"Sivas","localName":"Sivas","labelEnglish":"Sivas","labelLocal":"Sivas","labelBoth":"Sivas","type":"Province","iso":"TR-58","qid":"Q483100"},"geometry":{"type":"Point","coordinates":[37.2907,39.429]}},{"type":"Feature","id":"TUR-2291","properties":{"kind":"division","code":"TUR-2291","countryCode":"TUR","name":"Çorum","localName":"Çorum","labelEnglish":"Çorum","labelLocal":"Çorum","labelBoth":"Çorum","type":"Province","iso":"TR-19","qid":"Q272947"},"geometry":{"type":"Polygon","coordinates":[[[34.4719,41.3108],[34.0272,40.8608],[34.1502,40.423],[33.9642,40.2655],[34.0525,39.9076],[35.0726,40.039],[35.3273,40.234],[35.4324,40.6077],[35.1088,40.6891],[35.0893,41.0869],[34.888,41.2698],[34.4719,41.3108]]]}},{"type":"Feature","id":"label-TUR-2291","properties":{"kind":"division-label","code":"TUR-2291","countryCode":"TUR","name":"Çorum","localName":"Çorum","labelEnglish":"Çorum","labelLocal":"Çorum","labelBoth":"Çorum","type":"Province","iso":"TR-19","qid":"Q272947"},"geometry":{"type":"Point","coordinates":[34.711,40.6149]}},{"type":"Feature","id":"TUR-2290","properties":{"kind":"division","code":"TUR-2290","countryCode":"TUR","name":"Amasya","localName":"Amasya","labelEnglish":"Amasya","labelLocal":"Amasya","labelBoth":"Amasya","type":"Province","iso":"TR-05","qid":"Q80036"},"geometry":{"type":"Polygon","coordinates":[[[35.0893,41.0869],[35.1088,40.6891],[35.4324,40.6077],[35.3273,40.234],[35.5098,40.1886],[35.8423,40.5052],[36.1358,40.4437],[36.3973,40.588],[36.4431,40.8704],[36.2429,41.007],[36.0314,40.8474],[35.7061,40.8788],[35.0893,41.0869]]]}},{"type":"Feature","id":"label-TUR-2290","properties":{"kind":"division-label","code":"TUR-2290","countryCode":"TUR","name":"Amasya","localName":"Amasya","labelEnglish":"Amasya","labelLocal":"Amasya","labelBoth":"Amasya","type":"Province","iso":"TR-05","qid":"Q80036"},"geometry":{"type":"Point","coordinates":[35.7627,40.6379]}},{"type":"Feature","id":"TUR-2276","properties":{"kind":"division","code":"TUR-2276","countryCode":"TUR","name":"Kütahya","localName":"Kütahya","labelEnglish":"Kütahya","labelLocal":"Kütahya","labelBoth":"Kütahya","type":"Province","iso":"TR-43","qid":"Q126874"},"geometry":{"type":"Polygon","coordinates":[[[29.6777,39.9063],[29.3995,39.8959],[29.2461,39.5793],[28.9672,39.5891],[28.6595,39.1566],[28.9099,39.0596],[29.0323,38.7301],[29.5293,38.763],[29.6881,38.8851],[29.8881,38.7069],[30.0957,38.8042],[30.4418,39.2063],[30.1361,39.6388],[29.7163,39.7093],[29.6777,39.9063]]]}},{"type":"Feature","id":"label-TUR-2276","properties":{"kind":"division-label","code":"TUR-2276","countryCode":"TUR","name":"Kütahya","localName":"Kütahya","labelEnglish":"Kütahya","labelLocal":"Kütahya","labelBoth":"Kütahya","type":"Province","iso":"TR-43","qid":"Q126874"},"geometry":{"type":"Point","coordinates":[29.5498,39.3471]}},{"type":"Feature","id":"TUR-3011","properties":{"kind":"division","code":"TUR-3011","countryCode":"TUR","name":"Konya","localName":"Konya","labelEnglish":"Konya","labelLocal":"Konya","labelBoth":"Konya","type":"Province","iso":"TR-42","qid":"Q81551"},"geometry":{"type":"Polygon","coordinates":[[[33.4666,38.6436],[33.3206,39.1199],[33.0624,39.2221],[32.4787,38.9972],[31.8614,39.1714],[31.6978,39.0926],[31.5948,38.6664],[31.2544,38.423],[31.6207,38.1047],[31.4471,38.0028],[31.3319,37.4222],[31.8154,37.2985],[32.3235,36.9582],[32.4562,36.6734],[32.7418,36.8932],[32.6287,37.0779],[33.0132,37.4586],[33.7783,37.632],[34.149,37.155],[34.5122,37.352],[34.4455,37.7171],[34.1598,38.0023],[33.4561,37.9332],[33.2647,38.2045],[33.4666,38.6436]]]}},{"type":"Feature","id":"label-TUR-3011","properties":{"kind":"division-label","code":"TUR-3011","countryCode":"TUR","name":"Konya","localName":"Konya","labelEnglish":"Konya","labelLocal":"Konya","labelBoth":"Konya","type":"Province","iso":"TR-42","qid":"Q81551"},"geometry":{"type":"Point","coordinates":[32.469,38.04]}},{"type":"Feature","id":"TUR-3012","properties":{"kind":"division","code":"TUR-3012","countryCode":"TUR","name":"Karaman","localName":"Karaman","labelEnglish":"Karaman","labelLocal":"Karaman","labelBoth":"Karaman","type":"Province","iso":"TR-70","qid":"Q482975"},"geometry":{"type":"Polygon","coordinates":[[[34.149,37.155],[33.7783,37.632],[33.0132,37.4586],[32.6287,37.0779],[32.7418,36.8932],[32.4562,36.6734],[32.6517,36.438],[33.231,36.5607],[32.9795,36.8038],[33.3719,36.988],[34.149,37.155]]]}},{"type":"Feature","id":"label-TUR-3012","properties":{"kind":"division-label","code":"TUR-3012","countryCode":"TUR","name":"Karaman","localName":"Karaman","labelEnglish":"Karaman","labelLocal":"Karaman","labelBoth":"Karaman","type":"Province","iso":"TR-70","qid":"Q482975"},"geometry":{"type":"Point","coordinates":[33.3026,37.2262]}},{"type":"Feature","id":"TUR-3020","properties":{"kind":"division","code":"TUR-3020","countryCode":"TUR","name":"Niğde","localName":"Niğde","labelEnglish":"Niğde","labelLocal":"Niğde","labelBoth":"Niğde","type":"Province","iso":"TR-51","qid":"Q155219"},"geometry":{"type":"Polygon","coordinates":[[[34.5122,37.352],[34.7916,37.3877],[34.8597,37.7166],[35.1906,37.8181],[35.2056,38.1766],[34.915,38.3794],[34.4898,38.3885],[34.1598,38.0023],[34.4455,37.7171],[34.5122,37.352]]]}},{"type":"Feature","id":"label-TUR-3020","properties":{"kind":"division-label","code":"TUR-3020","countryCode":"TUR","name":"Niğde","localName":"Niğde","labelEnglish":"Niğde","labelLocal":"Niğde","labelBoth":"Niğde","type":"Province","iso":"TR-51","qid":"Q155219"},"geometry":{"type":"Point","coordinates":[34.7093,37.8966]}},{"type":"Feature","id":"TUR-2287","properties":{"kind":"division","code":"TUR-2287","countryCode":"TUR","name":"Kayseri","localName":"Kayseri","labelEnglish":"Kayseri","labelLocal":"Kayseri","labelBoth":"Kayseri","type":"Province","iso":"TR-38","qid":"Q483472"},"geometry":{"type":"Polygon","coordinates":[[[35.1906,37.8181],[35.6296,37.7702],[35.6077,37.9538],[35.979,38.155],[36.1459,38.3951],[36.5055,38.3229],[36.7475,38.5994],[36.8998,39.1335],[36.1115,39.2057],[35.8199,39.3344],[35.2548,39.0133],[35.0278,39.0411],[34.9527,38.8481],[35.071,38.5658],[34.915,38.3794],[35.2056,38.1766],[35.1906,37.8181]]]}},{"type":"Feature","id":"label-TUR-2287","properties":{"kind":"division-label","code":"TUR-2287","countryCode":"TUR","name":"Kayseri","localName":"Kayseri","labelEnglish":"Kayseri","labelLocal":"Kayseri","labelBoth":"Kayseri","type":"Province","iso":"TR-38","qid":"Q483472"},"geometry":{"type":"Point","coordinates":[35.9256,38.7168]}},{"type":"Feature","id":"TUR-2275","properties":{"kind":"division","code":"TUR-2275","countryCode":"TUR","name":"Isparta","localName":"Isparta","labelEnglish":"Isparta","labelLocal":"Isparta","labelBoth":"Isparta","type":"Province","iso":"TR-32","qid":"Q268043"},"geometry":{"type":"Polygon","coordinates":[[[31.2544,38.423],[31.0996,38.5152],[30.5302,38.193],[30.0153,37.7765],[30.3366,37.8461],[30.7065,37.6706],[30.935,37.3803],[31.3319,37.4222],[31.4471,38.0028],[31.6207,38.1047],[31.2544,38.423]]]}},{"type":"Feature","id":"label-TUR-2275","properties":{"kind":"division-label","code":"TUR-2275","countryCode":"TUR","name":"Isparta","localName":"Isparta","labelEnglish":"Isparta","labelLocal":"Isparta","labelBoth":"Isparta","type":"Province","iso":"TR-32","qid":"Q268043"},"geometry":{"type":"Point","coordinates":[30.818,37.8923]}},{"type":"Feature","id":"TUR-2277","properties":{"kind":"division","code":"TUR-2277","countryCode":"TUR","name":"Manisa","localName":"Manisa","labelEnglish":"Manisa","labelLocal":"Manisa","labelBoth":"Manisa","type":"Province","iso":"TR-45","qid":"Q130553"},"geometry":{"type":"Polygon","coordinates":[[[28.6595,39.1566],[28.125,39.063],[27.8712,39.3448],[27.4201,39.3803],[27.5377,39.0413],[27.2284,38.7348],[27.8483,38.3329],[27.9389,38.4068],[28.4478,38.2899],[28.5623,38.1062],[28.698,38.1038],[28.931,38.2551],[28.8484,38.6001],[29.0323,38.7301],[28.9099,39.0596],[28.6595,39.1566]]]}},{"type":"Feature","id":"label-TUR-2277","properties":{"kind":"division-label","code":"TUR-2277","countryCode":"TUR","name":"Manisa","localName":"Manisa","labelEnglish":"Manisa","labelLocal":"Manisa","labelBoth":"Manisa","type":"Province","iso":"TR-45","qid":"Q130553"},"geometry":{"type":"Point","coordinates":[28.1324,38.7115]}},{"type":"Feature","id":"TUR-2274","properties":{"kind":"division","code":"TUR-2274","countryCode":"TUR","name":"Denizli","localName":"Denizli","labelEnglish":"Denizli","labelLocal":"Denizli","labelBoth":"Denizli","type":"Province","iso":"TR-20","qid":"Q82096"},"geometry":{"type":"Polygon","coordinates":[[[28.698,38.1038],[28.8996,37.7097],[28.6089,37.4775],[28.8115,37.2335],[29.2704,36.9116],[29.3904,37.0686],[29.5845,37.41],[29.5381,37.5763],[29.8455,37.7593],[29.6648,37.9558],[30.0132,38.1666],[29.7533,38.4502],[29.3483,38.2198],[28.931,38.2551],[28.698,38.1038]]]}},{"type":"Feature","id":"label-TUR-2274","properties":{"kind":"division-label","code":"TUR-2274","countryCode":"TUR","name":"Denizli","localName":"Denizli","labelEnglish":"Denizli","labelLocal":"Denizli","labelBoth":"Denizli","type":"Province","iso":"TR-20","qid":"Q82096"},"geometry":{"type":"Point","coordinates":[29.2821,37.7539]}},{"type":"Feature","id":"TUR-2273","properties":{"kind":"division","code":"TUR-2273","countryCode":"TUR","name":"Burdur","localName":"Burdur","labelEnglish":"Burdur","labelLocal":"Burdur","labelBoth":"Burdur","type":"Province","iso":"TR-15","qid":"Q80088"},"geometry":{"type":"Polygon","coordinates":[[[29.8455,37.7593],[29.5381,37.5763],[29.5845,37.41],[29.3904,37.0686],[29.6889,36.9143],[29.906,37.1722],[30.2949,37.3049],[30.7855,37.2352],[30.935,37.3803],[30.7065,37.6706],[30.3366,37.8461],[30.0153,37.7765],[29.8455,37.7593]]]}},{"type":"Feature","id":"label-TUR-2273","properties":{"kind":"division-label","code":"TUR-2273","countryCode":"TUR","name":"Burdur","localName":"Burdur","labelEnglish":"Burdur","labelLocal":"Burdur","labelBoth":"Burdur","type":"Province","iso":"TR-15","qid":"Q80088"},"geometry":{"type":"Point","coordinates":[30.1627,37.5001]}},{"type":"Feature","id":"TUR-3021","properties":{"kind":"division","code":"TUR-3021","countryCode":"TUR","name":"Aksaray","localName":"Aksaray","labelEnglish":"Aksaray","labelLocal":"Aksaray","labelBoth":"Aksaray","type":"Province","iso":"TR-68","qid":"Q83073"},"geometry":{"type":"Polygon","coordinates":[[[33.9301,39.0011],[33.9333,38.7923],[33.4666,38.6436],[33.2647,38.2045],[33.4561,37.9332],[34.1598,38.0023],[34.4898,38.3885],[34.2204,38.6508],[34.2357,38.9268],[33.9301,39.0011]]]}},{"type":"Feature","id":"label-TUR-3021","properties":{"kind":"division-label","code":"TUR-3021","countryCode":"TUR","name":"Aksaray","localName":"Aksaray","labelEnglish":"Aksaray","labelLocal":"Aksaray","labelBoth":"Aksaray","type":"Province","iso":"TR-68","qid":"Q83073"},"geometry":{"type":"Point","coordinates":[33.8772,38.3566]}},{"type":"Feature","id":"TUR-2288","properties":{"kind":"division","code":"TUR-2288","countryCode":"TUR","name":"Nevşehir","localName":"Nevşehir","labelEnglish":"Nevşehir","labelLocal":"Nevşehir","labelBoth":"Nevşehir","type":"Province","iso":"TR-50","qid":"Q430693"},"geometry":{"type":"Polygon","coordinates":[[[34.4898,38.3885],[34.915,38.3794],[35.071,38.5658],[34.9527,38.8481],[35.0278,39.0411],[34.7371,39.4003],[34.5952,39.3944],[34.6299,39.0695],[34.2357,38.9268],[34.2204,38.6508],[34.4898,38.3885]]]}},{"type":"Feature","id":"label-TUR-2288","properties":{"kind":"division-label","code":"TUR-2288","countryCode":"TUR","name":"Nevşehir","localName":"Nevşehir","labelEnglish":"Nevşehir","labelLocal":"Nevşehir","labelBoth":"Nevşehir","type":"Province","iso":"TR-50","qid":"Q430693"},"geometry":{"type":"Point","coordinates":[34.6408,38.7415]}},{"type":"Feature","id":"TUR-3026","properties":{"kind":"division","code":"TUR-3026","countryCode":"TUR","name":"Yozgat","localName":"Yozgat","labelEnglish":"Yozgat","labelLocal":"Yozgat","labelBoth":"Yozgat","type":"Province","iso":"TR-66","qid":"Q75445"},"geometry":{"type":"Polygon","coordinates":[[[35.5098,40.1886],[35.3273,40.234],[35.0726,40.039],[34.0525,39.9076],[34.0733,39.8257],[34.395,39.7007],[34.7371,39.4003],[35.0278,39.0411],[35.2548,39.0133],[35.8199,39.3344],[36.1835,39.6426],[36.0887,39.9237],[36.0064,40.1147],[35.5098,40.1886]]]}},{"type":"Feature","id":"label-TUR-3026","properties":{"kind":"division-label","code":"TUR-3026","countryCode":"TUR","name":"Yozgat","localName":"Yozgat","labelEnglish":"Yozgat","labelLocal":"Yozgat","labelBoth":"Yozgat","type":"Province","iso":"TR-66","qid":"Q75445"},"geometry":{"type":"Point","coordinates":[35.1328,39.5476]}},{"type":"Feature","id":"TUR-2286","properties":{"kind":"division","code":"TUR-2286","countryCode":"TUR","name":"Kırşehir","localName":"Kırşehir","labelEnglish":"Kırşehir","labelLocal":"Kırşehir","labelBoth":"Kırşehir","type":"Province","iso":"TR-40","qid":"Q134187"},"geometry":{"type":"Polygon","coordinates":[[[33.9301,39.0011],[34.2357,38.9268],[34.6299,39.0695],[34.5952,39.3944],[34.7371,39.4003],[34.395,39.7007],[34.0733,39.8257],[33.5245,39.2668],[33.9301,39.0011]]]}},{"type":"Feature","id":"label-TUR-2286","properties":{"kind":"division-label","code":"TUR-2286","countryCode":"TUR","name":"Kırşehir","localName":"Kırşehir","labelEnglish":"Kırşehir","labelLocal":"Kırşehir","labelBoth":"Kırşehir","type":"Province","iso":"TR-40","qid":"Q134187"},"geometry":{"type":"Point","coordinates":[34.1308,39.3548]}},{"type":"Feature","id":"TUR-3014","properties":{"kind":"division","code":"TUR-3014","countryCode":"TUR","name":"Uşak","localName":"Uşak","labelEnglish":"Uşak","labelLocal":"Uşak","labelBoth":"Uşak","type":"Province","iso":"TR-64","qid":"Q483078"},"geometry":{"type":"Polygon","coordinates":[[[29.8881,38.7069],[29.6881,38.8851],[29.5293,38.763],[29.0323,38.7301],[28.8484,38.6001],[28.931,38.2551],[29.3483,38.2198],[29.7533,38.4502],[29.8881,38.7069]]]}},{"type":"Feature","id":"label-TUR-3014","properties":{"kind":"division-label","code":"TUR-3014","countryCode":"TUR","name":"Uşak","localName":"Uşak","labelEnglish":"Uşak","labelLocal":"Uşak","labelBoth":"Uşak","type":"Province","iso":"TR-64","qid":"Q483078"},"geometry":{"type":"Point","coordinates":[29.3636,38.4942]}},{"type":"Feature","id":"TUR-2300","properties":{"kind":"division","code":"TUR-2300","countryCode":"TUR","name":"Erzincan","localName":"Erzincan","labelEnglish":"Erzincan","labelLocal":"Erzincan","labelBoth":"Erzincan","type":"Province","iso":"TR-24","qid":"Q483173"},"geometry":{"type":"Polygon","coordinates":[[[38.7616,40.0549],[38.4067,39.9507],[38.3617,39.1503],[38.6879,39.023],[38.7457,39.0378],[38.8368,39.3387],[39.3189,39.5008],[39.8564,39.5715],[40.5548,39.549],[40.6188,39.5324],[40.68,39.6877],[40.2814,40.0472],[39.8691,40.0148],[39.3854,39.8933],[38.9333,40.0713],[38.7616,40.0549]]]}},{"type":"Feature","id":"label-TUR-2300","properties":{"kind":"division-label","code":"TUR-2300","countryCode":"TUR","name":"Erzincan","localName":"Erzincan","labelEnglish":"Erzincan","labelLocal":"Erzincan","labelBoth":"Erzincan","type":"Province","iso":"TR-24","qid":"Q483173"},"geometry":{"type":"Point","coordinates":[39.5121,39.6874]}},{"type":"Feature","id":"TUR-3045","properties":{"kind":"division","code":"TUR-3045","countryCode":"TUR","name":"Tunceli","localName":"Tunceli","labelEnglish":"Tunceli","labelLocal":"Tunceli","labelBoth":"Tunceli","type":"Province","iso":"TR-62","qid":"Q620742"},"geometry":{"type":"Polygon","coordinates":[[[40.5548,39.549],[39.8564,39.5715],[39.3189,39.5008],[38.8368,39.3387],[38.7457,39.0378],[39.4756,38.7633],[39.8536,38.8958],[40.0151,39.0974],[40.0416,39.338],[40.5548,39.549]]]}},{"type":"Feature","id":"label-TUR-3045","properties":{"kind":"division-label","code":"TUR-3045","countryCode":"TUR","name":"Tunceli","localName":"Tunceli","labelEnglish":"Tunceli","labelLocal":"Tunceli","labelBoth":"Tunceli","type":"Province","iso":"TR-62","qid":"Q620742"},"geometry":{"type":"Point","coordinates":[39.6357,39.1519]}},{"type":"Feature","id":"TUR-2272","properties":{"kind":"division","code":"TUR-2272","countryCode":"TUR","name":"Afyonkarahisar","localName":"Afyonkarahisar","labelEnglish":"Afyonkarahisar","labelLocal":"Afyonkarahisar","labelBoth":"Afyonkarahisar","type":"Province","iso":"TR-03","qid":"Q45220"},"geometry":{"type":"Polygon","coordinates":[[[29.8881,38.7069],[29.7533,38.4502],[30.0132,38.1666],[29.6648,37.9558],[29.8455,37.7593],[30.0153,37.7765],[30.5302,38.193],[31.0996,38.5152],[31.2544,38.423],[31.5948,38.6664],[31.6978,39.0926],[31.4528,39.0912],[31.2577,39.2819],[30.6212,39.0869],[30.4418,39.2063],[30.0957,38.8042],[29.8881,38.7069]]]}},{"type":"Feature","id":"label-TUR-2272","properties":{"kind":"division-label","code":"TUR-2272","countryCode":"TUR","name":"Afyonkarahisar","localName":"Afyonkarahisar","labelEnglish":"Afyonkarahisar","labelLocal":"Afyonkarahisar","labelBoth":"Afyonkarahisar","type":"Province","iso":"TR-03","qid":"Q45220"},"geometry":{"type":"Point","coordinates":[30.6938,38.6784]}},{"type":"Feature","id":"TUR-3019","properties":{"kind":"division","code":"TUR-3019","countryCode":"TUR","name":"Kırıkkale","localName":"Kırıkkale","labelEnglish":"Kırıkkale","labelLocal":"Kırıkkale","labelBoth":"Kırıkkale","type":"Province","iso":"TR-71","qid":"Q484392"},"geometry":{"type":"Polygon","coordinates":[[[33.5245,39.2668],[34.0733,39.8257],[34.0525,39.9076],[33.9642,40.2655],[33.5952,40.3396],[33.5621,40.0165],[33.3727,39.9816],[33.2731,39.7275],[33.5245,39.2668]]]}},{"type":"Feature","id":"label-TUR-3019","properties":{"kind":"division-label","code":"TUR-3019","countryCode":"TUR","name":"Kırıkkale","localName":"Kırıkkale","labelEnglish":"Kırıkkale","labelLocal":"Kırıkkale","labelBoth":"Kırıkkale","type":"Province","iso":"TR-71","qid":"Q484392"},"geometry":{"type":"Point","coordinates":[33.778,39.9011]}},{"type":"Feature","id":"TUR-2283","properties":{"kind":"division","code":"TUR-2283","countryCode":"TUR","name":"Kahramanmaraş","localName":"Kahramanmaraş","labelEnglish":"Kahramanmaraş","labelLocal":"Kahramanmaraş","labelBoth":"Kahramanmaraş","type":"Province","iso":"TR-46","qid":"Q482834"},"geometry":{"type":"Polygon","coordinates":[[[36.5055,38.3229],[36.2799,37.6691],[36.3036,37.3491],[36.7212,37.2712],[37.6173,37.4144],[37.6251,37.5188],[37.4222,37.6941],[37.5653,37.8205],[37.7823,38.2784],[37.2844,38.6036],[36.7475,38.5994],[36.5055,38.3229]]]}},{"type":"Feature","id":"label-TUR-2283","properties":{"kind":"division-label","code":"TUR-2283","countryCode":"TUR","name":"Kahramanmaraş","localName":"Kahramanmaraş","labelEnglish":"Kahramanmaraş","labelLocal":"Kahramanmaraş","labelBoth":"Kahramanmaraş","type":"Province","iso":"TR-46","qid":"Q482834"},"geometry":{"type":"Point","coordinates":[37.0013,37.9278]}},{"type":"Feature","id":"TUR-2310","properties":{"kind":"division","code":"TUR-2310","countryCode":"TUR","name":"Muş","localName":"Muş","labelEnglish":"Muş","labelLocal":"Muş","labelBoth":"Muş","type":"Province","iso":"TR-49","qid":"Q131387"},"geometry":{"type":"Polygon","coordinates":[[[42.4313,39.4914],[41.8345,39.1688],[41.4456,39.3718],[41.2051,39.3657],[41.2596,38.7392],[41.4206,38.5346],[41.5312,38.5544],[41.8666,38.6028],[42.018,38.8316],[42.6276,39.0024],[42.6413,39.2354],[42.4313,39.4914]]]}},{"type":"Feature","id":"label-TUR-2310","properties":{"kind":"division-label","code":"TUR-2310","countryCode":"TUR","name":"Muş","localName":"Muş","labelEnglish":"Muş","labelLocal":"Muş","labelBoth":"Muş","type":"Province","iso":"TR-49","qid":"Q131387"},"geometry":{"type":"Point","coordinates":[41.9034,38.9124]}},{"type":"Feature","id":"TUR-2299","properties":{"kind":"division","code":"TUR-2299","countryCode":"TUR","name":"Erzurum","localName":"Erzurum","labelEnglish":"Erzurum","labelLocal":"Erzurum","labelBoth":"Erzurum","type":"Province","iso":"TR-25","qid":"Q376797"},"geometry":{"type":"Polygon","coordinates":[[[42.4313,39.4914],[42.4949,39.7481],[42.2716,39.8694],[42.5637,39.9519],[42.1812,40.2944],[42.5382,40.4307],[42.537,40.5992],[42.2792,40.9249],[42.0244,40.9119],[41.8208,40.5876],[41.4013,40.5556],[41.3653,40.7547],[41.1274,40.8129],[40.4894,40.5421],[40.5747,40.2838],[40.7973,40.2322],[40.2814,40.0472],[40.68,39.6877],[40.6188,39.5324],[40.855,39.581],[41.2051,39.3657],[41.4456,39.3718],[41.8345,39.1688],[42.4313,39.4914]]]}},{"type":"Feature","id":"label-TUR-2299","properties":{"kind":"division-label","code":"TUR-2299","countryCode":"TUR","name":"Erzurum","localName":"Erzurum","labelEnglish":"Erzurum","labelLocal":"Erzurum","labelBoth":"Erzurum","type":"Province","iso":"TR-25","qid":"Q376797"},"geometry":{"type":"Point","coordinates":[41.403,39.9678]}},{"type":"Feature","id":"TUR-2284","properties":{"kind":"division","code":"TUR-2284","countryCode":"TUR","name":"Malatya","localName":"Malatya","labelEnglish":"Malatya","labelLocal":"Malatya","labelBoth":"Malatya","type":"Province","iso":"TR-44","qid":"Q131384"},"geometry":{"type":"Polygon","coordinates":[[[38.3617,39.1503],[37.5516,38.9694],[37.5969,38.8343],[37.2844,38.6036],[37.7823,38.2784],[37.5653,37.8205],[38.1892,37.9485],[38.4309,38.2141],[38.8032,38.0903],[39.1149,38.1927],[39.1149,38.3435],[38.4817,38.4759],[38.3489,38.5956],[38.6357,38.7817],[38.6879,39.023],[38.3617,39.1503]]]}},{"type":"Feature","id":"label-TUR-2284","properties":{"kind":"division-label","code":"TUR-2284","countryCode":"TUR","name":"Malatya","localName":"Malatya","labelEnglish":"Malatya","labelLocal":"Malatya","labelBoth":"Malatya","type":"Province","iso":"TR-44","qid":"Q131384"},"geometry":{"type":"Point","coordinates":[38.1872,38.5144]}},{"type":"Feature","id":"TUR-2282","properties":{"kind":"division","code":"TUR-2282","countryCode":"TUR","name":"Elazığ","localName":"Elazığ","labelEnglish":"Elazığ","labelLocal":"Elazığ","labelBoth":"Elazığ","type":"Province","iso":"TR-23","qid":"Q483091"},"geometry":{"type":"Polygon","coordinates":[[[40.0151,39.0974],[39.8536,38.8958],[39.4756,38.7633],[38.7457,39.0378],[38.6879,39.023],[38.6357,38.7817],[38.3489,38.5956],[38.4817,38.4759],[39.1149,38.3435],[39.7843,38.4027],[39.8474,38.4974],[40.3012,38.478],[40.2332,38.6304],[40.3612,39.2294],[40.0151,39.0974]]]}},{"type":"Feature","id":"label-TUR-2282","properties":{"kind":"division-label","code":"TUR-2282","countryCode":"TUR","name":"Elazığ","localName":"Elazığ","labelEnglish":"Elazığ","labelLocal":"Elazığ","labelBoth":"Elazığ","type":"Province","iso":"TR-23","qid":"Q483091"},"geometry":{"type":"Point","coordinates":[39.3702,38.5718]}},{"type":"Feature","id":"TUR-2311","properties":{"kind":"division","code":"TUR-2311","countryCode":"TUR","name":"Bitlis","localName":"Bitlis","labelEnglish":"Bitlis","labelLocal":"Bitlis","labelBoth":"Bitlis","type":"Province","iso":"TR-13","qid":"Q83239"},"geometry":{"type":"Polygon","coordinates":[[[42.6276,39.0024],[42.018,38.8316],[41.8666,38.6028],[41.5312,38.5544],[41.6773,38.2214],[42.0602,38.2272],[42.6685,37.9442],[42.7869,38.1811],[42.678,38.4049],[43.1612,38.8723],[42.972,39.1041],[42.6276,39.0024]]]}},{"type":"Feature","id":"label-TUR-2311","properties":{"kind":"division-label","code":"TUR-2311","countryCode":"TUR","name":"Bitlis","localName":"Bitlis","labelEnglish":"Bitlis","labelLocal":"Bitlis","labelBoth":"Bitlis","type":"Province","iso":"TR-13","qid":"Q83239"},"geometry":{"type":"Point","coordinates":[42.3462,38.5155]}},{"type":"Feature","id":"TUR-2308","properties":{"kind":"division","code":"TUR-2308","countryCode":"TUR","name":"Bingöl","localName":"Bingöl","labelEnglish":"Bingöl","labelLocal":"Bingöl","labelBoth":"Bingöl","type":"Province","iso":"TR-12","qid":"Q79760"},"geometry":{"type":"Polygon","coordinates":[[[40.5548,39.549],[40.0416,39.338],[40.0151,39.0974],[40.3612,39.2294],[40.2332,38.6304],[40.3012,38.478],[41.2596,38.7392],[41.2051,39.3657],[40.855,39.581],[40.6188,39.5324],[40.5548,39.549]]]}},{"type":"Feature","id":"label-TUR-2308","properties":{"kind":"division-label","code":"TUR-2308","countryCode":"TUR","name":"Bingöl","localName":"Bingöl","labelEnglish":"Bingöl","labelLocal":"Bingöl","labelBoth":"Bingöl","type":"Province","iso":"TR-12","qid":"Q79760"},"geometry":{"type":"Point","coordinates":[40.646,39.0743]}},{"type":"Feature","id":"TUR-4842","properties":{"kind":"division","code":"TUR-4842","countryCode":"TUR","name":"Osmaniye","localName":"Osmaniye","labelEnglish":"Osmaniye","labelLocal":"Osmaniye","labelBoth":"Osmaniye","type":"Province","iso":"TR-80","qid":"Q281206"},"geometry":{"type":"Polygon","coordinates":[[[36.2799,37.6691],[36.11,37.6643],[35.9396,37.37],[36.0616,37.0097],[36.4519,36.9607],[36.7212,37.2712],[36.3036,37.3491],[36.2799,37.6691]]]}},{"type":"Feature","id":"label-TUR-4842","properties":{"kind":"division-label","code":"TUR-4842","countryCode":"TUR","name":"Osmaniye","localName":"Osmaniye","labelEnglish":"Osmaniye","labelLocal":"Osmaniye","labelBoth":"Osmaniye","type":"Province","iso":"TR-80","qid":"Q281206"},"geometry":{"type":"Point","coordinates":[36.3011,37.1737]}},{"type":"Feature","id":"TUR-2281","properties":{"kind":"division","code":"TUR-2281","countryCode":"TUR","name":"Adıyaman","localName":"Adıyaman","labelEnglish":"Adıyaman","labelLocal":"Adıyaman","labelBoth":"Adıyaman","type":"Province","iso":"TR-02","qid":"Q43924"},"geometry":{"type":"Polygon","coordinates":[[[37.6251,37.5188],[38.0399,37.446],[38.5154,37.5111],[38.8685,37.6514],[39.189,38.0431],[39.1149,38.1927],[38.8032,38.0903],[38.4309,38.2141],[38.1892,37.9485],[37.5653,37.8205],[37.4222,37.6941],[37.6251,37.5188]]]}},{"type":"Feature","id":"label-TUR-2281","properties":{"kind":"division-label","code":"TUR-2281","countryCode":"TUR","name":"Adıyaman","localName":"Adıyaman","labelEnglish":"Adıyaman","labelLocal":"Adıyaman","labelBoth":"Adıyaman","type":"Province","iso":"TR-02","qid":"Q43924"},"geometry":{"type":"Point","coordinates":[38.339,37.8102]}},{"type":"Feature","id":"TUR-2309","properties":{"kind":"division","code":"TUR-2309","countryCode":"TUR","name":"Diyarbakır","localName":"Diyarbakır","labelEnglish":"Diyarbakır","labelLocal":"Diyarbakır","labelBoth":"Diyarbakır","type":"Province","iso":"TR-21","qid":"Q83081"},"geometry":{"type":"Polygon","coordinates":[[[41.2596,38.7392],[40.3012,38.478],[39.8474,38.4974],[39.7843,38.4027],[39.1149,38.3435],[39.1149,38.1927],[39.189,38.0431],[39.8632,37.7777],[40,37.3757],[40.5516,37.7299],[41.0752,37.7649],[41.2716,38.453],[41.4206,38.5346],[41.2596,38.7392]]]}},{"type":"Feature","id":"label-TUR-2309","properties":{"kind":"division-label","code":"TUR-2309","countryCode":"TUR","name":"Diyarbakır","localName":"Diyarbakır","labelEnglish":"Diyarbakır","labelLocal":"Diyarbakır","labelBoth":"Diyarbakır","type":"Province","iso":"TR-21","qid":"Q83081"},"geometry":{"type":"Point","coordinates":[40.2706,38.0261]}},{"type":"Feature","id":"TUR-3042","properties":{"kind":"division","code":"TUR-3042","countryCode":"TUR","name":"Batman","localName":"Batman","labelEnglish":"Batman","labelLocal":"Batman","labelBoth":"Batman","type":"Province","iso":"TR-72","qid":"Q80370"},"geometry":{"type":"Polygon","coordinates":[[[41.4206,38.5346],[41.2716,38.453],[41.0752,37.7649],[41.3677,37.5185],[41.8169,37.7138],[41.4214,37.9442],[41.6773,38.2214],[41.5312,38.5544],[41.4206,38.5346]]]}},{"type":"Feature","id":"label-TUR-3042","properties":{"kind":"division-label","code":"TUR-3042","countryCode":"TUR","name":"Batman","localName":"Batman","labelEnglish":"Batman","labelLocal":"Batman","labelBoth":"Batman","type":"Province","iso":"TR-72","qid":"Q80370"},"geometry":{"type":"Point","coordinates":[41.4262,37.7343]}},{"type":"Feature","id":"TUR-3043","properties":{"kind":"division","code":"TUR-3043","countryCode":"TUR","name":"Siirt","localName":"Siirt","labelEnglish":"Siirt","labelLocal":"Siirt","labelBoth":"Siirt","type":"Province","iso":"TR-56","qid":"Q482825"},"geometry":{"type":"Polygon","coordinates":[[[42.7869,38.1811],[42.6685,37.9442],[42.0602,38.2272],[41.6773,38.2214],[41.4214,37.9442],[41.8169,37.7138],[42.9505,37.626],[43.0233,37.7317],[43.0163,38.1518],[42.7869,38.1811]]]}},{"type":"Feature","id":"label-TUR-3043","properties":{"kind":"division-label","code":"TUR-3043","countryCode":"TUR","name":"Siirt","localName":"Siirt","labelEnglish":"Siirt","labelLocal":"Siirt","labelBoth":"Siirt","type":"Province","iso":"TR-56","qid":"Q482825"},"geometry":{"type":"Point","coordinates":[42.2212,37.9159]}},{"type":"Feature","id":"TUR-3032","properties":{"kind":"division","code":"TUR-3032","countryCode":"TUR","name":"Bayburt","localName":"Bayburt","labelEnglish":"Bayburt","labelLocal":"Bayburt","labelBoth":"Bayburt","type":"Province","iso":"TR-69","qid":"Q483063"},"geometry":{"type":"Polygon","coordinates":[[[40.2814,40.0472],[40.7973,40.2322],[40.5747,40.2838],[40.4894,40.5421],[39.834,40.561],[39.8691,40.0148],[40.2814,40.0472]]]}},{"type":"Feature","id":"label-TUR-3032","properties":{"kind":"division-label","code":"TUR-3032","countryCode":"TUR","name":"Bayburt","localName":"Bayburt","labelEnglish":"Bayburt","labelLocal":"Bayburt","labelBoth":"Bayburt","type":"Province","iso":"TR-69","qid":"Q483063"},"geometry":{"type":"Point","coordinates":[40.3056,40.2859]}},{"type":"Feature","id":"TUR-3031","properties":{"kind":"division","code":"TUR-3031","countryCode":"TUR","name":"Gümüşhane","localName":"Gümüşhane","labelEnglish":"Gümüşhane","labelLocal":"Gümüşhane","labelBoth":"Gümüşhane","type":"Province","iso":"TR-29","qid":"Q482788"},"geometry":{"type":"Polygon","coordinates":[[[39.834,40.561],[39.1444,40.7714],[38.8423,40.4802],[39.0655,40.3884],[38.9333,40.0713],[39.3854,39.8933],[39.8691,40.0148],[39.834,40.561]]]}},{"type":"Feature","id":"label-TUR-3031","properties":{"kind":"division-label","code":"TUR-3031","countryCode":"TUR","name":"Gümüşhane","localName":"Gümüşhane","labelEnglish":"Gümüşhane","labelLocal":"Gümüşhane","labelBoth":"Gümüşhane","type":"Province","iso":"TR-29","qid":"Q482788"},"geometry":{"type":"Point","coordinates":[39.3544,40.2812]}}]}