{"type":"FeatureCollection","features":[{"type":"Feature","id":"TUV+00?","properties":{"kind":"division","code":"TUV+00?","countryCode":"TUV","name":"Tuvalu","localName":"Tuvalu","labelEnglish":"Tuvalu","labelLocal":"Tuvalu","labelBoth":"Tuvalu","type":null,"iso":"TV-X01~","qid":null},"geometry":{"type":"Polygon","coordinates":[[[179.1913,-8.5421],[179.2175,-8.5206],[179.1994,-8.4606],[179.2041,-8.519],[179.1913,-8.5421]]]}},{"type":"Feature","id":"label-TUV+00?","properties":{"kind":"division-label","code":"TUV+00?","countryCode":"TUV","name":"Tuvalu","localName":"Tuvalu","labelEnglish":"Tuvalu","labelLocal":"Tuvalu","labelBoth":"Tuvalu","type":null,"iso":"TV-X01~","qid":null},"geometry":{"type":"Point","coordinates":[179.903,-9.39381]}}]}