{"type":"FeatureCollection","features":[{"type":"Feature","id":"TWN-1168","properties":{"kind":"division","code":"TWN-1168","countryCode":"TWN","name":"Taoyuan","localName":"Taoyuan","labelEnglish":"Taoyuan","labelLocal":"Taoyuan","labelBoth":"Taoyuan","type":"County","iso":"TW-TAO","qid":"Q115256"},"geometry":{"type":"Polygon","coordinates":[[[120.9717,24.9518],[121.4123,24.5955],[121.4833,24.6811],[121.2874,25.1237],[120.9717,24.9518]]]}},{"type":"Feature","id":"label-TWN-1168","properties":{"kind":"division-label","code":"TWN-1168","countryCode":"TWN","name":"Taoyuan","localName":"Taoyuan","labelEnglish":"Taoyuan","labelLocal":"Taoyuan","labelBoth":"Taoyuan","type":"County","iso":"TW-TAO","qid":"Q115256"},"geometry":{"type":"Point","coordinates":[121.227,24.961]}},{"type":"Feature","id":"TWN-1162","properties":{"kind":"division","code":"TWN-1162","countryCode":"TWN","name":"Hsinchu","localName":"Hsinchu","labelEnglish":"Hsinchu","labelLocal":"Hsinchu","labelBoth":"Hsinchu","type":"County","iso":"TW-HSQ","qid":"Q74054"},"geometry":{"type":"Polygon","coordinates":[[[120.9146,24.8534],[120.9602,24.715],[121.2626,24.4333],[121.3165,24.436],[121.4123,24.5955],[120.9717,24.9518],[120.9146,24.8534]]]}},{"type":"Feature","id":"label-TWN-1162","properties":{"kind":"division-label","code":"TWN-1162","countryCode":"TWN","name":"Hsinchu","localName":"Hsinchu","labelEnglish":"Hsinchu","labelLocal":"Hsinchu","labelBoth":"Hsinchu","type":"County","iso":"TW-HSQ","qid":"Q74054"},"geometry":{"type":"Point","coordinates":[121.163,24.6748]}},{"type":"Feature","id":"TWN-1161","properties":{"kind":"division","code":"TWN-1161","countryCode":"TWN","name":"Hsinchu","localName":"Hsinchu","labelEnglish":"Hsinchu","labelLocal":"Hsinchu","labelBoth":"Hsinchu","type":"Provincial City","iso":"TW-HSZ","qid":"Q249994"},"geometry":{"type":"Polygon","coordinates":[[[120.8727,24.7478],[120.9602,24.715],[120.9146,24.8534],[120.8727,24.7478]]]}},{"type":"Feature","id":"label-TWN-1161","properties":{"kind":"division-label","code":"TWN-1161","countryCode":"TWN","name":"Hsinchu","localName":"Hsinchu","labelEnglish":"Hsinchu","labelLocal":"Hsinchu","labelBoth":"Hsinchu","type":"Provincial City","iso":"TW-HSZ","qid":"Q249994"},"geometry":{"type":"Point","coordinates":[120.959,24.7757]}},{"type":"Feature","id":"TWN-1165","properties":{"kind":"division","code":"TWN-1165","countryCode":"TWN","name":"Miaoli","localName":"Miaoli","labelEnglish":"Miaoli","labelLocal":"Miaoli","labelBoth":"Miaoli","type":"County","iso":"TW-MIA","qid":"Q63706"},"geometry":{"type":"Polygon","coordinates":[[[120.6213,24.456],[120.8526,24.292],[121.2626,24.4333],[120.9602,24.715],[120.8727,24.7478],[120.6213,24.456]]]}},{"type":"Feature","id":"label-TWN-1165","properties":{"kind":"division-label","code":"TWN-1165","countryCode":"TWN","name":"Miaoli","localName":"Miaoli","labelEnglish":"Miaoli","labelLocal":"Miaoli","labelBoth":"Miaoli","type":"County","iso":"TW-MIA","qid":"Q63706"},"geometry":{"type":"Point","coordinates":[120.942,24.5253]}},{"type":"Feature","id":"TWN-1174","properties":{"kind":"division","code":"TWN-1174","countryCode":"TWN","name":"Taichung City","localName":"Taichung City","labelEnglish":"Taichung City","labelLocal":"Taichung City","labelBoth":"Taichung City","type":"Special Municipality","iso":"TW-TXG","qid":null},"geometry":{"type":"Polygon","coordinates":[[[120.4754,24.2071],[120.6672,24.0201],[121.3435,24.2355],[121.4567,24.3728],[121.3165,24.436],[121.2626,24.4333],[120.8526,24.292],[120.6213,24.456],[120.4754,24.2071]]]}},{"type":"Feature","id":"label-TWN-1174","properties":{"kind":"division-label","code":"TWN-1174","countryCode":"TWN","name":"Taichung City","localName":"Taichung City","labelEnglish":"Taichung City","labelLocal":"Taichung City","labelBoth":"Taichung City","type":"Special Municipality","iso":"TW-TXG","qid":null},"geometry":{"type":"Point","coordinates":[120.966,24.238]}},{"type":"Feature","id":"TWN-1169","properties":{"kind":"division","code":"TWN-1169","countryCode":"TWN","name":"Changhua","localName":"Changhua","labelEnglish":"Changhua","labelLocal":"Changhua","labelBoth":"Changhua","type":"County","iso":"TW-CHA","qid":"Q133865"},"geometry":{"type":"Polygon","coordinates":[[[120.2439,23.8385],[120.6474,23.7749],[120.6672,24.0201],[120.4754,24.2071],[120.2439,23.8385]]]}},{"type":"Feature","id":"label-TWN-1169","properties":{"kind":"division-label","code":"TWN-1169","countryCode":"TWN","name":"Changhua","localName":"Changhua","labelEnglish":"Changhua","labelLocal":"Changhua","labelBoth":"Changhua","type":"County","iso":"TW-CHA","qid":"Q133865"},"geometry":{"type":"Point","coordinates":[120.464,24.0016]}},{"type":"Feature","id":"TWN-1176","properties":{"kind":"division","code":"TWN-1176","countryCode":"TWN","name":"Yunlin","localName":"Yunlin","labelEnglish":"Yunlin","labelLocal":"Yunlin","labelBoth":"Yunlin","type":"County","iso":"TW-YUN","qid":"Q153221"},"geometry":{"type":"Polygon","coordinates":[[[120.1243,23.52],[120.3926,23.6237],[120.7407,23.6163],[120.6474,23.7749],[120.2439,23.8385],[120.1243,23.52]]]}},{"type":"Feature","id":"label-TWN-1176","properties":{"kind":"division-label","code":"TWN-1176","countryCode":"TWN","name":"Yunlin","localName":"Yunlin","labelEnglish":"Yunlin","labelLocal":"Yunlin","labelBoth":"Yunlin","type":"County","iso":"TW-YUN","qid":"Q153221"},"geometry":{"type":"Point","coordinates":[120.427,23.7253]}},{"type":"Feature","id":"TWN-1170","properties":{"kind":"division","code":"TWN-1170","countryCode":"TWN","name":"Chiayi","localName":"Chiayi","labelEnglish":"Chiayi","labelLocal":"Chiayi","labelBoth":"Chiayi","type":"County","iso":"TW-CYQ","qid":"Q166977"},"geometry":{"type":"Polygon","coordinates":[[[120.1165,23.3179],[120.4389,23.4139],[120.6534,23.2287],[120.9622,23.4754],[120.7407,23.6163],[120.3926,23.6237],[120.1243,23.52],[120.1165,23.3179]],[[120.4546,23.4453],[120.3769,23.4753],[120.4531,23.5173],[120.4546,23.4453]]]}},{"type":"Feature","id":"label-TWN-1170","properties":{"kind":"division-label","code":"TWN-1170","countryCode":"TWN","name":"Chiayi","localName":"Chiayi","labelEnglish":"Chiayi","labelLocal":"Chiayi","labelBoth":"Chiayi","type":"County","iso":"TW-CYQ","qid":"Q166977"},"geometry":{"type":"Point","coordinates":[120.26,23.4465]}},{"type":"Feature","id":"TWN-1160","properties":{"kind":"division","code":"TWN-1160","countryCode":"TWN","name":"Tainan","localName":"Tainan","labelEnglish":"Tainan","labelLocal":"Tainan","labelBoth":"Tainan","type":"Special Municipality","iso":"TW-TNN","qid":"Q140631"},"geometry":{"type":"Polygon","coordinates":[[[120.1675,22.9319],[120.4257,22.935],[120.6534,23.2287],[120.4389,23.4139],[120.1165,23.3179],[120.1675,22.9319]]]}},{"type":"Feature","id":"label-TWN-1160","properties":{"kind":"division-label","code":"TWN-1160","countryCode":"TWN","name":"Tainan","localName":"Tainan","labelEnglish":"Tainan","labelLocal":"Tainan","labelBoth":"Tainan","type":"Special Municipality","iso":"TW-TNN","qid":"Q140631"},"geometry":{"type":"Point","coordinates":[120.182,23.0464]}},{"type":"Feature","id":"TWN-1156","properties":{"kind":"division","code":"TWN-1156","countryCode":"TWN","name":"Kaohsiung","localName":"Kaohsiung","labelEnglish":"Kaohsiung","labelLocal":"Kaohsiung","labelBoth":"Kaohsiung","type":"Special Municipality","iso":"TW-KHH","qid":"Q181557"},"geometry":{"type":"Polygon","coordinates":[[[120.4119,22.4829],[120.4728,22.8372],[120.8533,22.8583],[120.9209,23.2405],[121.0496,23.2994],[121.0193,23.4367],[120.9622,23.4754],[120.6534,23.2287],[120.4257,22.935],[120.1675,22.9319],[120.4119,22.4829]]]}},{"type":"Feature","id":"label-TWN-1156","properties":{"kind":"division-label","code":"TWN-1156","countryCode":"TWN","name":"Kaohsiung","localName":"Kaohsiung","labelEnglish":"Kaohsiung","labelLocal":"Kaohsiung","labelBoth":"Kaohsiung","type":"Special Municipality","iso":"TW-KHH","qid":"Q181557"},"geometry":{"type":"Point","coordinates":[120.609,23.0157]}},{"type":"Feature","id":"TWN-1158","properties":{"kind":"division","code":"TWN-1158","countryCode":"TWN","name":"Pingtung","localName":"Pingtung","labelEnglish":"Pingtung","labelLocal":"Pingtung","labelBoth":"Pingtung","type":"County","iso":"TW-PIF","qid":"Q194989"},"geometry":{"type":"Polygon","coordinates":[[[120.876,22.2377],[120.7535,22.3676],[120.8533,22.8583],[120.4728,22.8372],[120.4119,22.4829],[120.5697,22.3738],[120.7004,21.9484],[120.8403,21.9046],[120.876,22.2377]]]}},{"type":"Feature","id":"label-TWN-1158","properties":{"kind":"division-label","code":"TWN-1158","countryCode":"TWN","name":"Pingtung","localName":"Pingtung","labelEnglish":"Pingtung","labelLocal":"Pingtung","labelBoth":"Pingtung","type":"County","iso":"TW-PIF","qid":"Q194989"},"geometry":{"type":"Point","coordinates":[120.661,22.5344]}},{"type":"Feature","id":"TWN-1177","properties":{"kind":"division","code":"TWN-1177","countryCode":"TWN","name":"Taitung","localName":"Taitung","labelEnglish":"Taitung","labelLocal":"Taitung","labelBoth":"Taitung","type":"County","iso":"TW-TTT","qid":"Q249904"},"geometry":{"type":"Polygon","coordinates":[[[121.4795,23.4352],[121.27,23.1105],[121.0496,23.2994],[120.9209,23.2405],[120.8533,22.8583],[120.7535,22.3676],[120.876,22.2377],[121.021,22.6479],[121.4001,23.1455],[121.4795,23.4352]]]}},{"type":"Feature","id":"label-TWN-1177","properties":{"kind":"division-label","code":"TWN-1177","countryCode":"TWN","name":"Taitung","localName":"Taitung","labelEnglish":"Taitung","labelLocal":"Taitung","labelBoth":"Taitung","type":"County","iso":"TW-TTT","qid":"Q249904"},"geometry":{"type":"Point","coordinates":[121.54,22.0499]}},{"type":"Feature","id":"TWN-1172","properties":{"kind":"division","code":"TWN-1172","countryCode":"TWN","name":"Hualien","localName":"Hualien","labelEnglish":"Hualien","labelLocal":"Hualien","labelBoth":"Hualien","type":"County","iso":"TW-HUA","qid":"Q249868"},"geometry":{"type":"Polygon","coordinates":[[[121.7633,24.3258],[121.4567,24.3728],[121.3435,24.2355],[121.2213,23.6085],[121.0193,23.4367],[121.0496,23.2994],[121.27,23.1105],[121.4795,23.4352],[121.7633,24.3258]]]}},{"type":"Feature","id":"label-TWN-1172","properties":{"kind":"division-label","code":"TWN-1172","countryCode":"TWN","name":"Hualien","localName":"Hualien","labelEnglish":"Hualien","labelLocal":"Hualien","labelBoth":"Hualien","type":"County","iso":"TW-HUA","qid":"Q249868"},"geometry":{"type":"Point","coordinates":[121.381,23.7743]}},{"type":"Feature","id":"TWN-1163","properties":{"kind":"division","code":"TWN-1163","countryCode":"TWN","name":"Yilan","localName":"Yilan","labelEnglish":"Yilan","labelLocal":"Yilan","labelBoth":"Yilan","type":"County","iso":"TW-ILA","qid":"Q237258"},"geometry":{"type":"Polygon","coordinates":[[[121.9723,24.9871],[121.4833,24.6811],[121.4123,24.5955],[121.3165,24.436],[121.4567,24.3728],[121.7633,24.3258],[121.8088,24.8052],[121.9723,24.9871]]]}},{"type":"Feature","id":"label-TWN-1163","properties":{"kind":"division-label","code":"TWN-1163","countryCode":"TWN","name":"Yilan","localName":"Yilan","labelEnglish":"Yilan","labelLocal":"Yilan","labelBoth":"Yilan","type":"County","iso":"TW-ILA","qid":"Q237258"},"geometry":{"type":"Point","coordinates":[121.644,24.5913]}},{"type":"Feature","id":"TWN-1167","properties":{"kind":"division","code":"TWN-1167","countryCode":"TWN","name":"New Taipei","localName":"New Taipei","labelEnglish":"New Taipei","labelLocal":"New Taipei","labelBoth":"New Taipei","type":"Special Municipality","iso":"TW-TPQ","qid":"Q244898"},"geometry":{"type":"Polygon","coordinates":[[[121.7613,25.1426],[121.7734,25.0692],[121.6331,25.1412],[121.6893,25.1695],[121.5979,25.2714],[121.2874,25.1237],[121.4833,24.6811],[121.9723,24.9871],[121.7613,25.1426]],[[121.6028,24.9706],[121.4622,25.1202],[121.5645,25.2059],[121.6028,24.9706]]]}},{"type":"Feature","id":"label-TWN-1167","properties":{"kind":"division-label","code":"TWN-1167","countryCode":"TWN","name":"New Taipei","localName":"New Taipei","labelEnglish":"New Taipei","labelLocal":"New Taipei","labelBoth":"New Taipei","type":"Special Municipality","iso":"TW-TPQ","qid":"Q244898"},"geometry":{"type":"Point","coordinates":[121.646,24.911]}},{"type":"Feature","id":"TWN-1164","properties":{"kind":"division","code":"TWN-1164","countryCode":"TWN","name":"Keelung","localName":"Keelung","labelEnglish":"Keelung","labelLocal":"Keelung","labelBoth":"Keelung","type":"Provincial City","iso":"TW-KEE","qid":"Q249996"},"geometry":{"type":"Polygon","coordinates":[[[121.6893,25.1695],[121.6331,25.1412],[121.7734,25.0692],[121.7613,25.1426],[121.6893,25.1695]]]}},{"type":"Feature","id":"label-TWN-1164","properties":{"kind":"division-label","code":"TWN-1164","countryCode":"TWN","name":"Keelung","localName":"Keelung","labelEnglish":"Keelung","labelLocal":"Keelung","labelBoth":"Keelung","type":"Provincial City","iso":"TW-KEE","qid":"Q249996"},"geometry":{"type":"Point","coordinates":[121.704,25.1131]}},{"type":"Feature","id":"TWN-3415","properties":{"kind":"division","code":"TWN-3415","countryCode":"TWN","name":"Kinmen","localName":"Kinmen","labelEnglish":"Kinmen","labelLocal":"Kinmen","labelBoth":"Kinmen","type":"County","iso":"TW-KIN","qid":"Q249870"},"geometry":{"type":"Polygon","coordinates":[[[118.3942,24.5227],[118.2839,24.4013],[118.4488,24.4155],[118.3942,24.5227]]]}},{"type":"Feature","id":"label-TWN-3415","properties":{"kind":"division-label","code":"TWN-3415","countryCode":"TWN","name":"Kinmen","localName":"Kinmen","labelEnglish":"Kinmen","labelLocal":"Kinmen","labelBoth":"Kinmen","type":"County","iso":"TW-KIN","qid":"Q249870"},"geometry":{"type":"Point","coordinates":[118.368,24.454]}},{"type":"Feature","id":"TWN-3414","properties":{"kind":"division","code":"TWN-3414","countryCode":"TWN","name":"Penghu","localName":"Penghu","labelEnglish":"Penghu","labelLocal":"Penghu","labelBoth":"Penghu","type":"County","iso":"TW-PEN","qid":"Q198525"},"geometry":{"type":"Polygon","coordinates":[[[119.648,23.6035],[119.5672,23.5885],[119.5872,23.5488],[119.648,23.6035]]]}},{"type":"Feature","id":"label-TWN-3414","properties":{"kind":"division-label","code":"TWN-3414","countryCode":"TWN","name":"Penghu","localName":"Penghu","labelEnglish":"Penghu","labelLocal":"Penghu","labelBoth":"Penghu","type":"County","iso":"TW-PEN","qid":"Q198525"},"geometry":{"type":"Point","coordinates":[119.597,23.5724]}},{"type":"Feature","id":"TWN-1173","properties":{"kind":"division","code":"TWN-1173","countryCode":"TWN","name":"Nantou","localName":"Nantou","labelEnglish":"Nantou","labelLocal":"Nantou","labelBoth":"Nantou","type":"County","iso":"TW-NAN","qid":"Q82357"},"geometry":{"type":"Polygon","coordinates":[[[121.3435,24.2355],[120.6672,24.0201],[120.6474,23.7749],[120.7407,23.6163],[120.9622,23.4754],[121.0193,23.4367],[121.2213,23.6085],[121.3435,24.2355]]]}},{"type":"Feature","id":"label-TWN-1173","properties":{"kind":"division-label","code":"TWN-1173","countryCode":"TWN","name":"Nantou","localName":"Nantou","labelEnglish":"Nantou","labelLocal":"Nantou","labelBoth":"Nantou","type":"County","iso":"TW-NAN","qid":"Q82357"},"geometry":{"type":"Point","coordinates":[120.988,23.7977]}},{"type":"Feature","id":"TWN-1166","properties":{"kind":"division","code":"TWN-1166","countryCode":"TWN","name":"Taipei","localName":"Taipei","labelEnglish":"Taipei","labelLocal":"Taipei","labelBoth":"Taipei","type":"Special Municipality","iso":"TW-TPE","qid":"Q1867"},"geometry":{"type":"Polygon","coordinates":[[[121.6028,24.9706],[121.5645,25.2059],[121.4622,25.1202],[121.6028,24.9706]]]}},{"type":"Feature","id":"label-TWN-1166","properties":{"kind":"division-label","code":"TWN-1166","countryCode":"TWN","name":"Taipei","localName":"Taipei","labelEnglish":"Taipei","labelLocal":"Taipei","labelBoth":"Taipei","type":"Special Municipality","iso":"TW-TPE","qid":"Q1867"},"geometry":{"type":"Point","coordinates":[121.559,25.0904]}},{"type":"Feature","id":"TWN-1171","properties":{"kind":"division","code":"TWN-1171","countryCode":"TWN","name":"Chiayi","localName":"Chiayi","labelEnglish":"Chiayi","labelLocal":"Chiayi","labelBoth":"Chiayi","type":"Provincial City","iso":"TW-CYI","qid":"Q249995"},"geometry":{"type":"Polygon","coordinates":[[[120.4546,23.4453],[120.4531,23.5173],[120.3769,23.4753],[120.4546,23.4453]]]}},{"type":"Feature","id":"label-TWN-1171","properties":{"kind":"division-label","code":"TWN-1171","countryCode":"TWN","name":"Chiayi","localName":"Chiayi","labelEnglish":"Chiayi","labelLocal":"Chiayi","labelBoth":"Chiayi","type":"Provincial City","iso":"TW-CYI","qid":"Q249995"},"geometry":{"type":"Point","coordinates":[120.441,23.4822]}}]}