{"type":"FeatureCollection","features":[{"type":"Feature","id":"TZA-3335","properties":{"kind":"division","code":"TZA-3335","countryCode":"TZA","name":"Mbeya","localName":"Mbeya","labelEnglish":"Mbeya","labelLocal":"Mbeya","labelBoth":"Mbeya","type":"Region","iso":"TZ-14","qid":"Q458382"},"geometry":{"type":"Polygon","coordinates":[[[34.0785,-9.5102],[33.7959,-9.0063],[34.1116,-8.8332],[34.475,-8.8255],[34.7325,-8.6052],[34.6906,-8.434],[35.0635,-8.0356],[34.9096,-7.9351],[34.3599,-7.8136],[33.8418,-7.8027],[33.9385,-7.499],[33.584,-7.1477],[33.4849,-6.9428],[33.0362,-6.8669],[32.5528,-7.1036],[32.2738,-7.2101],[32.0102,-7.7891],[32.5113,-8.0987],[32.7423,-8.4048],[32.6321,-8.4649],[32.5018,-8.2146],[32.2781,-8.3451],[32.2874,-8.5691],[32.009,-8.7826],[32.1456,-9.0703],[32.2314,-9.1338],[32.9209,-9.4079],[33.4042,-9.6049],[33.6501,-9.6109],[33.9119,-9.718],[34.0785,-9.5102]]]}},{"type":"Feature","id":"label-TZA-3335","properties":{"kind":"division-label","code":"TZA-3335","countryCode":"TZA","name":"Mbeya","localName":"Mbeya","labelEnglish":"Mbeya","labelLocal":"Mbeya","labelBoth":"Mbeya","type":"Region","iso":"TZ-14","qid":"Q458382"},"geometry":{"type":"Point","coordinates":[33.5281,-8.29695]}},{"type":"Feature","id":"TZA-5587","properties":{"kind":"division","code":"TZA-5587","countryCode":"TZA","name":"Njombe","localName":"Njombe","labelEnglish":"Njombe","labelLocal":"Njombe","labelBoth":"Njombe","type":"Region","iso":"TZ-29","qid":"Q2086273"},"geometry":{"type":"Polygon","coordinates":[[[34.5801,-10.5318],[34.6916,-10.5227],[35.216,-10.042],[35.1238,-9.7599],[35.697,-9.3399],[35.3654,-9.0086],[35.1027,-8.9602],[35.1139,-8.7817],[34.7325,-8.6052],[34.475,-8.8255],[34.1116,-8.8332],[33.7959,-9.0063],[34.0785,-9.5102],[34.4833,-9.9462],[34.5801,-10.5318]]]}},{"type":"Feature","id":"label-TZA-5587","properties":{"kind":"division-label","code":"TZA-5587","countryCode":"TZA","name":"Njombe","localName":"Njombe","labelEnglish":"Njombe","labelLocal":"Njombe","labelBoth":"Njombe","type":"Region","iso":"TZ-29","qid":"Q2086273"},"geometry":{"type":"Point","coordinates":[34.8871,-9.39902]}},{"type":"Feature","id":"TZA-3389","properties":{"kind":"division","code":"TZA-3389","countryCode":"TZA","name":"Ruvuma","localName":"Ruvuma","labelEnglish":"Ruvuma","labelLocal":"Ruvuma","labelBoth":"Ruvuma","type":"Region","iso":"TZ-21","qid":"Q115318"},"geometry":{"type":"Polygon","coordinates":[[[34.5801,-10.5318],[34.6209,-10.5824],[34.6178,-10.9657],[34.7591,-11.3375],[34.9646,-11.5736],[35.5763,-11.6052],[35.8264,-11.4135],[36.1681,-11.5787],[36.1997,-11.7015],[36.563,-11.7313],[36.8201,-11.5736],[37.4278,-11.7226],[37.7837,-11.5589],[37.8752,-11.3191],[38.0934,-11.2563],[37.993,-10.817],[37.7175,-10.4269],[37.1623,-10.2929],[36.8712,-10.1595],[36.8773,-9.9539],[37.1431,-9.5612],[36.5037,-9.961],[36.5642,-9.7622],[36.4489,-9.564],[36.3644,-9.7273],[35.7249,-9.7169],[35.9335,-9.3841],[35.8998,-9.1887],[35.697,-9.3399],[35.1238,-9.7599],[35.216,-10.042],[34.6916,-10.5227],[34.5801,-10.5318]]]}},{"type":"Feature","id":"label-TZA-3389","properties":{"kind":"division-label","code":"TZA-3389","countryCode":"TZA","name":"Ruvuma","localName":"Ruvuma","labelEnglish":"Ruvuma","labelLocal":"Ruvuma","labelBoth":"Ruvuma","type":"Region","iso":"TZ-21","qid":"Q115318"},"geometry":{"type":"Point","coordinates":[36.3365,-10.7136]}},{"type":"Feature","id":"TZA-3363","properties":{"kind":"division","code":"TZA-3363","countryCode":"TZA","name":"Kigoma","localName":"Kigoma","labelEnglish":"Kigoma","labelLocal":"Kigoma","labelBoth":"Kigoma","type":"Region","iso":"TZ-08","qid":"Q747943"},"geometry":{"type":"Polygon","coordinates":[[[29.3428,-5],[29.5935,-5.6203],[29.4761,-6.0021],[29.5255,-6.2731],[29.7386,-6.6524],[29.9691,-6.803],[30.3932,-6.3936],[30.0074,-5.3347],[30.4087,-5.1902],[30.9573,-5.2604],[31.0622,-5.4986],[31.2117,-5.4618],[31.2276,-4.9592],[31.4909,-4.6205],[31.4166,-4.3563],[31.3762,-3.9669],[31.2179,-3.6364],[30.9821,-2.8387],[30.8188,-2.9905],[30.7998,-3.2746],[30.6103,-3.3764],[30.3731,-3.7043],[30.1759,-4.04],[29.7328,-4.4633],[29.4042,-4.4498],[29.3428,-5]]]}},{"type":"Feature","id":"label-TZA-3363","properties":{"kind":"division-label","code":"TZA-3363","countryCode":"TZA","name":"Kigoma","localName":"Kigoma","labelEnglish":"Kigoma","labelLocal":"Kigoma","labelBoth":"Kigoma","type":"Region","iso":"TZ-08","qid":"Q747943"},"geometry":{"type":"Point","coordinates":[30.4057,-4.41836]}},{"type":"Feature","id":"TZA-5584","properties":{"kind":"division","code":"TZA-5584","countryCode":"TZA","name":"Katavi","localName":"Katavi","labelEnglish":"Katavi","labelLocal":"Katavi","labelBoth":"Katavi","type":"Region","iso":"TZ-28","qid":"Q2682731"},"geometry":{"type":"Polygon","coordinates":[[[30.2945,-7.1494],[30.5778,-6.9457],[30.9917,-6.9348],[31.0789,-7.218],[31.3839,-7.2398],[31.4928,-7.7082],[32.0102,-7.7891],[32.2738,-7.2101],[32.5528,-7.1036],[32.6145,-6.6007],[32.7371,-6.4472],[32.5123,-6.3609],[32.1783,-6.0768],[32.0531,-5.7709],[31.7978,-5.7186],[31.6182,-5.8268],[31.1489,-5.7572],[31.0622,-5.4986],[30.9573,-5.2604],[30.4087,-5.1902],[30.0074,-5.3347],[30.3932,-6.3936],[29.9691,-6.803],[30.2945,-7.1494]]]}},{"type":"Feature","id":"label-TZA-5584","properties":{"kind":"division-label","code":"TZA-5584","countryCode":"TZA","name":"Katavi","localName":"Katavi","labelEnglish":"Katavi","labelLocal":"Katavi","labelBoth":"Katavi","type":"Region","iso":"TZ-28","qid":"Q2682731"},"geometry":{"type":"Point","coordinates":[31.3404,-6.4277]}},{"type":"Feature","id":"TZA-3336","properties":{"kind":"division","code":"TZA-3336","countryCode":"TZA","name":"Rukwa","localName":"Rukwa","labelEnglish":"Rukwa","labelLocal":"Rukwa","labelBoth":"Rukwa","type":"Region","iso":"TZ-20","qid":"Q153329"},"geometry":{"type":"Polygon","coordinates":[[[30.7521,-8.1941],[30.9595,-8.5505],[31.3533,-8.5872],[31.6727,-8.913],[32.1456,-9.0703],[32.009,-8.7826],[32.2874,-8.5691],[32.2781,-8.3451],[32.5018,-8.2146],[32.6321,-8.4649],[32.7423,-8.4048],[32.5113,-8.0987],[32.0102,-7.7891],[31.4928,-7.7082],[31.3839,-7.2398],[31.0789,-7.218],[30.9917,-6.9348],[30.5778,-6.9457],[30.2945,-7.1494],[30.4416,-7.5963],[30.7521,-8.1941]]]}},{"type":"Feature","id":"label-TZA-3336","properties":{"kind":"division-label","code":"TZA-3336","countryCode":"TZA","name":"Rukwa","localName":"Rukwa","labelEnglish":"Rukwa","labelLocal":"Rukwa","labelBoth":"Rukwa","type":"Region","iso":"TZ-20","qid":"Q153329"},"geometry":{"type":"Point","coordinates":[31.3337,-7.8958]}},{"type":"Feature","id":"TZA-3360","properties":{"kind":"division","code":"TZA-3360","countryCode":"TZA","name":"Kagera","localName":"Kagera","labelEnglish":"Kagera","labelLocal":"Kagera","labelBoth":"Kagera","type":"Region","iso":"TZ-05","qid":"Q309190"},"geometry":{"type":"Polygon","coordinates":[[[30.4718,-1.0668],[30.5553,-1.3184],[30.831,-1.5942],[30.8344,-2.3453],[30.5546,-2.4006],[30.4158,-2.8517],[30.4883,-2.9432],[30.8188,-2.9905],[30.9821,-2.8387],[30.8749,-2.6842],[31.1669,-2.2796],[31.5644,-2.3535],[31.8772,-2.148],[32.7039,-1.4688],[32.7223,-1.0026],[31.9862,-1.0026],[31.2805,-1.0026],[30.4718,-1.0668]]]}},{"type":"Feature","id":"label-TZA-3360","properties":{"kind":"division-label","code":"TZA-3360","countryCode":"TZA","name":"Kagera","localName":"Kagera","labelEnglish":"Kagera","labelLocal":"Kagera","labelBoth":"Kagera","type":"Region","iso":"TZ-05","qid":"Q309190"},"geometry":{"type":"Point","coordinates":[31.2578,-1.77904]}},{"type":"Feature","id":"TZA-3388","properties":{"kind":"division","code":"TZA-3388","countryCode":"TZA","name":"Mtwara","localName":"Mtwara","labelEnglish":"Mtwara","labelLocal":"Mtwara","labelBoth":"Mtwara","type":"Region","iso":"TZ-17","qid":"Q499465"},"geometry":{"type":"Polygon","coordinates":[[[40.4369,-10.4748],[40.4494,-10.3454],[39.9764,-10.1783],[39.6804,-10.3634],[39.591,-10.5735],[39.4217,-10.3349],[38.8728,-10.5423],[38.58,-10.5379],[37.993,-10.817],[38.0934,-11.2563],[38.4923,-11.4135],[38.8963,-11.1677],[39.2866,-11.1541],[39.4827,-10.9992],[40.0081,-10.8111],[40.4369,-10.4748]]]}},{"type":"Feature","id":"label-TZA-3388","properties":{"kind":"division-label","code":"TZA-3388","countryCode":"TZA","name":"Mtwara","localName":"Mtwara","labelEnglish":"Mtwara","labelLocal":"Mtwara","labelBoth":"Mtwara","type":"Region","iso":"TZ-17","qid":"Q499465"},"geometry":{"type":"Point","coordinates":[39.2212,-10.814]}},{"type":"Feature","id":"TZA-3394","properties":{"kind":"division","code":"TZA-3394","countryCode":"TZA","name":"Mara","localName":"Mara","labelEnglish":"Mara","labelLocal":"Mara","labelBoth":"Mara","type":"Region","iso":"TZ-13","qid":"Q458406"},"geometry":{"type":"Polygon","coordinates":[[[34.7189,-1.4124],[33.9042,-1.0026],[33.6318,-1.0026],[33.4264,-1.0026],[32.8472,-1.0026],[32.7223,-1.0026],[32.7039,-1.4688],[33.4561,-1.5213],[33.4379,-1.8803],[33.5734,-1.9872],[33.219,-2.0428],[33.3581,-2.1679],[33.8311,-2.1721],[34.2983,-2.2569],[34.6578,-2.4913],[35.2076,-2.487],[35.3274,-2.1874],[35.2249,-2.1012],[35.2464,-1.7068],[34.7189,-1.4124]]]}},{"type":"Feature","id":"label-TZA-3394","properties":{"kind":"division-label","code":"TZA-3394","countryCode":"TZA","name":"Mara","localName":"Mara","labelEnglish":"Mara","labelLocal":"Mara","labelBoth":"Mara","type":"Region","iso":"TZ-13","qid":"Q458406"},"geometry":{"type":"Point","coordinates":[34.0227,-1.58906]}},{"type":"Feature","id":"TZA-3391","properties":{"kind":"division","code":"TZA-3391","countryCode":"TZA","name":"Arusha","localName":"Arusha","labelEnglish":"Arusha","labelLocal":"Arusha","labelBoth":"Arusha","type":"Region","iso":"TZ-01","qid":"Q329261"},"geometry":{"type":"Polygon","coordinates":[[[35.2464,-1.7068],[35.2249,-2.1012],[35.3274,-2.1874],[35.2076,-2.487],[35.1501,-2.8686],[34.9012,-2.8831],[34.8925,-3.5969],[34.7605,-3.8018],[34.8922,-3.9095],[35.3794,-3.6243],[35.4869,-3.7287],[35.7584,-3.6153],[35.7484,-3.8287],[35.9402,-3.6448],[36.2466,-4.1086],[36.5307,-4.0821],[36.501,-3.7842],[36.6694,-3.595],[37.0624,-3.491],[36.9092,-2.9972],[37.1406,-2.8573],[37.4242,-2.9228],[35.2464,-1.7068]]]}},{"type":"Feature","id":"label-TZA-3391","properties":{"kind":"division-label","code":"TZA-3391","countryCode":"TZA","name":"Arusha","localName":"Arusha","labelEnglish":"Arusha","labelLocal":"Arusha","labelBoth":"Arusha","type":"Region","iso":"TZ-01","qid":"Q329261"},"geometry":{"type":"Point","coordinates":[36.0865,-3.02634]}},{"type":"Feature","id":"TZA-3393","properties":{"kind":"division","code":"TZA-3393","countryCode":"TZA","name":"Kilimanjaro","localName":"Kilimanjaro","labelEnglish":"Kilimanjaro","labelLocal":"Kilimanjaro","labelBoth":"Kilimanjaro","type":"Region","iso":"TZ-09","qid":"Q328922"},"geometry":{"type":"Polygon","coordinates":[[[37.4242,-2.9228],[37.1406,-2.8573],[36.9092,-2.9972],[37.0624,-3.491],[37.288,-3.4946],[37.4674,-3.817],[37.4968,-4.3835],[37.761,-4.5869],[38.0299,-4.6386],[38.4162,-4.12],[37.5991,-3.5134],[37.68,-3.1921],[37.4242,-2.9228]]]}},{"type":"Feature","id":"label-TZA-3393","properties":{"kind":"division-label","code":"TZA-3393","countryCode":"TZA","name":"Kilimanjaro","localName":"Kilimanjaro","labelEnglish":"Kilimanjaro","labelLocal":"Kilimanjaro","labelBoth":"Kilimanjaro","type":"Region","iso":"TZ-09","qid":"Q328922"},"geometry":{"type":"Point","coordinates":[37.6511,-4.01115]}},{"type":"Feature","id":"TZA-3395","properties":{"kind":"division","code":"TZA-3395","countryCode":"TZA","name":"Tanga","localName":"Tanga","labelEnglish":"Tanga","labelLocal":"Tanga","labelBoth":"Tanga","type":"Region","iso":"TZ-25","qid":"Q389737"},"geometry":{"type":"Polygon","coordinates":[[[38.4162,-4.12],[38.0299,-4.6386],[38.0491,-4.9989],[37.5917,-4.9782],[37.3893,-5.2055],[37.1796,-5.7871],[37.0607,-5.8679],[37.1685,-6.1109],[37.3908,-5.7894],[37.6279,-5.9802],[37.8015,-5.8946],[38.147,-5.8581],[38.5555,-6.0182],[38.8003,-5.9631],[39.1387,-5.1032],[39.1906,-4.6775],[38.4162,-4.12]]]}},{"type":"Feature","id":"label-TZA-3395","properties":{"kind":"division-label","code":"TZA-3395","countryCode":"TZA","name":"Tanga","localName":"Tanga","labelEnglish":"Tanga","labelLocal":"Tanga","labelBoth":"Tanga","type":"Region","iso":"TZ-25","qid":"Q389737"},"geometry":{"type":"Point","coordinates":[38.1412,-5.18525]}},{"type":"Feature","id":"TZA-3387","properties":{"kind":"division","code":"TZA-3387","countryCode":"TZA","name":"Lindi","localName":"Lindi","labelEnglish":"Lindi","labelLocal":"Lindi","labelBoth":"Lindi","type":"Region","iso":"TZ-12","qid":"Q309339"},"geometry":{"type":"Polygon","coordinates":[[[39.2847,-8.3186],[38.8022,-8.3826],[38.5364,-8.495],[38.2892,-8.1759],[37.8012,-7.9434],[37.3686,-8.4994],[37.3056,-8.8092],[37.3595,-9.1423],[37.1431,-9.5612],[36.8773,-9.9539],[36.8712,-10.1595],[37.1623,-10.2929],[37.7175,-10.4269],[37.993,-10.817],[38.58,-10.5379],[38.8728,-10.5423],[39.4217,-10.3349],[39.591,-10.5735],[39.6804,-10.3634],[39.9764,-10.1783],[39.7142,-9.9521],[39.8073,-9.8522],[39.6159,-9.4249],[39.6438,-9.1891],[39.3543,-8.714],[39.2847,-8.3186]]]}},{"type":"Feature","id":"label-TZA-3387","properties":{"kind":"division-label","code":"TZA-3387","countryCode":"TZA","name":"Lindi","localName":"Lindi","labelEnglish":"Lindi","labelLocal":"Lindi","labelBoth":"Lindi","type":"Region","iso":"TZ-12","qid":"Q309339"},"geometry":{"type":"Point","coordinates":[38.4234,-9.44338]}},{"type":"Feature","id":"TZA-3382","properties":{"kind":"division","code":"TZA-3382","countryCode":"TZA","name":"Pwani","localName":"Pwani","labelEnglish":"Pwani","labelLocal":"Pwani","labelBoth":"Pwani","type":"Region","iso":"TZ-19","qid":"Q458412"},"geometry":{"type":"MultiPolygon","coordinates":[[[[39.4347,-7.1817],[39.3578,-6.9602],[39.0789,-7.056],[39.1292,-6.5619],[38.8522,-6.3487],[38.8003,-5.9631],[38.5555,-6.0182],[38.147,-5.8581],[37.8015,-5.8946],[38.057,-6.2519],[38.0232,-6.6407],[38.3037,-6.6919],[38.286,-6.8854],[38.5156,-7.043],[38.3027,-7.3191],[38.3604,-7.5219],[37.8717,-7.6197],[37.8012,-7.9434],[38.2892,-8.1759],[38.5364,-8.495],[38.8022,-8.3826],[39.2847,-8.3186],[39.4544,-8.0104],[39.2748,-7.5964],[39.4347,-7.1817]]],[[[39.8957,-7.6376],[39.5872,-7.9455],[39.8233,-7.914],[39.8957,-7.6376]]]]}},{"type":"Feature","id":"label-TZA-3382","properties":{"kind":"division-label","code":"TZA-3382","countryCode":"TZA","name":"Pwani","localName":"Pwani","labelEnglish":"Pwani","labelLocal":"Pwani","labelBoth":"Pwani","type":"Region","iso":"TZ-19","qid":"Q458412"},"geometry":{"type":"Point","coordinates":[39.7491,-7.86726]}},{"type":"Feature","id":"TZA-3378","properties":{"kind":"division","code":"TZA-3378","countryCode":"TZA","name":"Dar es Salaam","localName":"Dar es Salaam","labelEnglish":"Dar es Salaam","labelLocal":"Dar es Salaam","labelBoth":"Dar es Salaam","type":"Region","iso":"TZ-02","qid":"Q557539"},"geometry":{"type":"Polygon","coordinates":[[[39.1292,-6.5619],[39.0789,-7.056],[39.3578,-6.9602],[39.4347,-7.1817],[39.5475,-7.1183],[39.4645,-6.8577],[39.2937,-6.8152],[39.1292,-6.5619]]]}},{"type":"Feature","id":"label-TZA-3378","properties":{"kind":"division-label","code":"TZA-3378","countryCode":"TZA","name":"Dar es Salaam","localName":"Dar es Salaam","labelEnglish":"Dar es Salaam","labelLocal":"Dar es Salaam","labelBoth":"Dar es Salaam","type":"Region","iso":"TZ-02","qid":"Q557539"},"geometry":{"type":"Point","coordinates":[39.2857,-6.89289]}},{"type":"Feature","id":"TZA-3337","properties":{"kind":"division","code":"TZA-3337","countryCode":"TZA","name":"Unguja South","localName":"Unguja South","labelEnglish":"Unguja South","labelLocal":"Unguja South","labelBoth":"Unguja South","type":"Region","iso":"TZ-11","qid":"Q643120"},"geometry":{"type":"Polygon","coordinates":[[[39.3907,-6.0004],[39.2741,-6.0339],[39.3081,-6.2457],[39.5085,-6.4628],[39.5249,-6.1751],[39.3907,-6.0004]]]}},{"type":"Feature","id":"label-TZA-3337","properties":{"kind":"division-label","code":"TZA-3337","countryCode":"TZA","name":"Unguja South","localName":"Unguja South","labelEnglish":"Unguja South","labelLocal":"Unguja South","labelBoth":"Unguja South","type":"Region","iso":"TZ-11","qid":"Q643120"},"geometry":{"type":"Point","coordinates":[39.4241,-6.2741]}},{"type":"Feature","id":"TZA-3383","properties":{"kind":"division","code":"TZA-3383","countryCode":"TZA","name":"Unguja North","localName":"Unguja North","labelEnglish":"Unguja North","labelLocal":"Unguja North","labelBoth":"Unguja North","type":"Region","iso":"TZ-07","qid":"Q147116"},"geometry":{"type":"Polygon","coordinates":[[[39.1979,-6.0336],[39.2741,-6.0339],[39.3907,-6.0004],[39.3135,-5.7184],[39.1979,-6.0336]]]}},{"type":"Feature","id":"label-TZA-3383","properties":{"kind":"division-label","code":"TZA-3383","countryCode":"TZA","name":"Unguja North","localName":"Unguja North","labelEnglish":"Unguja North","labelLocal":"Unguja North","labelBoth":"Unguja North","type":"Region","iso":"TZ-07","qid":"Q147116"},"geometry":{"type":"Point","coordinates":[39.2294,-5.84474]}},{"type":"Feature","id":"TZA-3384","properties":{"kind":"division","code":"TZA-3384","countryCode":"TZA","name":"Mjini Magharibi","localName":"Mjini Magharibi","labelEnglish":"Mjini Magharibi","labelLocal":"Mjini Magharibi","labelBoth":"Mjini Magharibi","type":"Region","iso":"TZ-15","qid":"Q180822"},"geometry":{"type":"Polygon","coordinates":[[[39.3081,-6.2457],[39.2741,-6.0339],[39.1979,-6.0336],[39.3081,-6.2457]]]}},{"type":"Feature","id":"label-TZA-3384","properties":{"kind":"division-label","code":"TZA-3384","countryCode":"TZA","name":"Mjini Magharibi","localName":"Mjini Magharibi","labelEnglish":"Mjini Magharibi","labelLocal":"Mjini Magharibi","labelBoth":"Mjini Magharibi","type":"Region","iso":"TZ-15","qid":"Q180822"},"geometry":{"type":"Point","coordinates":[39.2425,-6.1537]}},{"type":"Feature","id":"TZA-3381","properties":{"kind":"division","code":"TZA-3381","countryCode":"TZA","name":"South Pemba","localName":"South Pemba","labelEnglish":"South Pemba","labelLocal":"South Pemba","labelBoth":"South Pemba","type":"Region","iso":"TZ-10","qid":"Q498067"},"geometry":{"type":"Polygon","coordinates":[[[39.8559,-5.1823],[39.7425,-5.1618],[39.6431,-5.414],[39.7961,-5.4068],[39.8559,-5.1823]]]}},{"type":"Feature","id":"label-TZA-3381","properties":{"kind":"division-label","code":"TZA-3381","countryCode":"TZA","name":"South Pemba","localName":"South Pemba","labelEnglish":"South Pemba","labelLocal":"South Pemba","labelBoth":"South Pemba","type":"Region","iso":"TZ-10","qid":"Q498067"},"geometry":{"type":"Point","coordinates":[39.7495,-5.34982]}},{"type":"Feature","id":"TZA-3380","properties":{"kind":"division","code":"TZA-3380","countryCode":"TZA","name":"North Pemba","localName":"North Pemba","labelEnglish":"North Pemba","labelLocal":"North Pemba","labelBoth":"North Pemba","type":"Region","iso":"TZ-06","qid":"Q498073"},"geometry":{"type":"Polygon","coordinates":[[[39.7425,-5.1618],[39.8559,-5.1823],[39.6841,-4.8903],[39.7425,-5.1618]]]}},{"type":"Feature","id":"label-TZA-3380","properties":{"kind":"division-label","code":"TZA-3380","countryCode":"TZA","name":"North Pemba","localName":"North Pemba","labelEnglish":"North Pemba","labelLocal":"North Pemba","labelBoth":"North Pemba","type":"Region","iso":"TZ-06","qid":"Q498073"},"geometry":{"type":"Point","coordinates":[39.777,-5.05108]}},{"type":"Feature","id":"TZA-3379","properties":{"kind":"division","code":"TZA-3379","countryCode":"TZA","name":"Morogoro","localName":"Morogoro","labelEnglish":"Morogoro","labelLocal":"Morogoro","labelBoth":"Morogoro","type":"Region","iso":"TZ-16","qid":"Q458388"},"geometry":{"type":"Polygon","coordinates":[[[37.8012,-7.9434],[37.8717,-7.6197],[38.3604,-7.5219],[38.3027,-7.3191],[38.5156,-7.043],[38.286,-6.8854],[38.3037,-6.6919],[38.0232,-6.6407],[38.057,-6.2519],[37.8015,-5.8946],[37.6279,-5.9802],[37.3908,-5.7894],[37.1685,-6.1109],[37.0607,-5.8679],[36.8617,-6.0021],[36.4778,-7.3704],[36.5173,-7.5008],[36.9683,-7.6538],[36.7658,-7.9563],[36.3155,-8.0604],[35.6273,-8.7308],[35.3412,-8.6881],[35.3654,-9.0086],[35.697,-9.3399],[35.8998,-9.1887],[35.9335,-9.3841],[35.7249,-9.7169],[36.3644,-9.7273],[36.4489,-9.564],[36.5642,-9.7622],[36.5037,-9.961],[37.1431,-9.5612],[37.3595,-9.1423],[37.3056,-8.8092],[37.3686,-8.4994],[37.8012,-7.9434]]]}},{"type":"Feature","id":"label-TZA-3379","properties":{"kind":"division-label","code":"TZA-3379","countryCode":"TZA","name":"Morogoro","localName":"Morogoro","labelEnglish":"Morogoro","labelLocal":"Morogoro","labelBoth":"Morogoro","type":"Region","iso":"TZ-16","qid":"Q458388"},"geometry":{"type":"Point","coordinates":[36.922,-8.69673]}},{"type":"Feature","id":"TZA-3385","properties":{"kind":"division","code":"TZA-3385","countryCode":"TZA","name":"Dodoma","localName":"Dodoma","labelEnglish":"Dodoma","labelLocal":"Dodoma","labelBoth":"Dodoma","type":"Region","iso":"TZ-03","qid":"Q213268"},"geometry":{"type":"Polygon","coordinates":[[[36.8617,-6.0021],[36.2442,-5.4578],[36.3607,-4.6759],[36.2992,-4.1848],[35.8204,-4.3624],[35.5103,-4.8616],[35.3409,-4.8545],[35.0755,-5.1158],[35.1397,-5.4047],[35.3385,-5.7003],[35.2109,-5.9519],[35.186,-6.7152],[35.0809,-6.9205],[35.443,-6.9332],[35.7067,-7.0675],[36.243,-7.1723],[36.4778,-7.3704],[36.8617,-6.0021]]]}},{"type":"Feature","id":"label-TZA-3385","properties":{"kind":"division-label","code":"TZA-3385","countryCode":"TZA","name":"Dodoma","localName":"Dodoma","labelEnglish":"Dodoma","labelLocal":"Dodoma","labelBoth":"Dodoma","type":"Region","iso":"TZ-03","qid":"Q213268"},"geometry":{"type":"Point","coordinates":[35.9608,-5.73233]}},{"type":"Feature","id":"TZA-3392","properties":{"kind":"division","code":"TZA-3392","countryCode":"TZA","name":"Manyara","localName":"Manyara","labelEnglish":"Manyara","labelLocal":"Manyara","labelBoth":"Manyara","type":"Region","iso":"TZ-26","qid":"Q331117"},"geometry":{"type":"Polygon","coordinates":[[[37.0607,-5.8679],[37.1796,-5.7871],[37.3893,-5.2055],[37.5917,-4.9782],[38.0491,-4.9989],[38.0299,-4.6386],[37.761,-4.5869],[37.4968,-4.3835],[37.4674,-3.817],[37.288,-3.4946],[37.0624,-3.491],[36.6694,-3.595],[36.501,-3.7842],[36.5307,-4.0821],[36.2466,-4.1086],[35.9402,-3.6448],[35.7484,-3.8287],[35.7584,-3.6153],[35.4869,-3.7287],[35.3794,-3.6243],[34.8922,-3.9095],[35.017,-4.1076],[34.8692,-4.3811],[35.3409,-4.8545],[35.5103,-4.8616],[35.8204,-4.3624],[36.2992,-4.1848],[36.3607,-4.6759],[36.2442,-5.4578],[36.8617,-6.0021],[37.0607,-5.8679]]]}},{"type":"Feature","id":"label-TZA-3392","properties":{"kind":"division-label","code":"TZA-3392","countryCode":"TZA","name":"Manyara","localName":"Manyara","labelEnglish":"Manyara","labelLocal":"Manyara","labelBoth":"Manyara","type":"Region","iso":"TZ-26","qid":"Q331117"},"geometry":{"type":"Point","coordinates":[36.4591,-4.88783]}},{"type":"Feature","id":"TZA-3390","properties":{"kind":"division","code":"TZA-3390","countryCode":"TZA","name":"Singida","localName":"Singida","labelEnglish":"Singida","labelLocal":"Singida","labelBoth":"Singida","type":"Region","iso":"TZ-23","qid":"Q153326"},"geometry":{"type":"Polygon","coordinates":[[[35.3409,-4.8545],[34.8692,-4.3811],[35.017,-4.1076],[34.8922,-3.9095],[34.7605,-3.8018],[34.4129,-3.9609],[34.2888,-4.0365],[33.9601,-4.4925],[33.9294,-5.1505],[34.2313,-5.39],[34.0569,-5.5935],[34.0153,-6.2189],[33.5186,-6.6206],[33.4849,-6.9428],[33.584,-7.1477],[33.9385,-7.499],[34.174,-7.3138],[34.7207,-7.1571],[34.9195,-6.8897],[35.0809,-6.9205],[35.186,-6.7152],[35.2109,-5.9519],[35.3385,-5.7003],[35.1397,-5.4047],[35.0755,-5.1158],[35.3409,-4.8545]]]}},{"type":"Feature","id":"label-TZA-3390","properties":{"kind":"division-label","code":"TZA-3390","countryCode":"TZA","name":"Singida","localName":"Singida","labelEnglish":"Singida","labelLocal":"Singida","labelBoth":"Singida","type":"Region","iso":"TZ-23","qid":"Q153326"},"geometry":{"type":"Point","coordinates":[34.4149,-5.59564]}},{"type":"Feature","id":"TZA-3359","properties":{"kind":"division","code":"TZA-3359","countryCode":"TZA","name":"Tabora","localName":"Tabora","labelEnglish":"Tabora","labelLocal":"Tabora","labelBoth":"Tabora","type":"Region","iso":"TZ-24","qid":"Q153335"},"geometry":{"type":"Polygon","coordinates":[[[34.2888,-4.0365],[33.984,-4.0221],[33.5955,-3.8796],[32.713,-3.9797],[32.7134,-4.2527],[32.4676,-4.2087],[32.3711,-4.3849],[32.2114,-4.317],[31.9717,-4.4302],[31.9592,-4.144],[31.6906,-4.0379],[31.6818,-4.2123],[31.4166,-4.3563],[31.4909,-4.6205],[31.2276,-4.9592],[31.2117,-5.4618],[31.0622,-5.4986],[31.1489,-5.7572],[31.6182,-5.8268],[31.7978,-5.7186],[32.0531,-5.7709],[32.1783,-6.0768],[32.5123,-6.3609],[32.7371,-6.4472],[32.6145,-6.6007],[32.5528,-7.1036],[33.0362,-6.8669],[33.4849,-6.9428],[33.5186,-6.6206],[34.0153,-6.2189],[34.0569,-5.5935],[34.2313,-5.39],[33.9294,-5.1505],[33.9601,-4.4925],[34.2888,-4.0365]]]}},{"type":"Feature","id":"label-TZA-3359","properties":{"kind":"division-label","code":"TZA-3359","countryCode":"TZA","name":"Tabora","localName":"Tabora","labelEnglish":"Tabora","labelLocal":"Tabora","labelBoth":"Tabora","type":"Region","iso":"TZ-24","qid":"Q153335"},"geometry":{"type":"Point","coordinates":[32.6595,-6.82145]}},{"type":"Feature","id":"TZA-3386","properties":{"kind":"division","code":"TZA-3386","countryCode":"TZA","name":"Iringa","localName":"Iringa","labelEnglish":"Iringa","labelLocal":"Iringa","labelBoth":"Iringa","type":"Region","iso":"TZ-04","qid":"Q309352"},"geometry":{"type":"Polygon","coordinates":[[[36.4778,-7.3704],[36.243,-7.1723],[35.7067,-7.0675],[35.443,-6.9332],[35.0809,-6.9205],[34.9195,-6.8897],[34.7207,-7.1571],[34.174,-7.3138],[33.9385,-7.499],[33.8418,-7.8027],[34.3599,-7.8136],[34.9096,-7.9351],[35.0635,-8.0356],[34.6906,-8.434],[34.7325,-8.6052],[35.1139,-8.7817],[35.1027,-8.9602],[35.3654,-9.0086],[35.3412,-8.6881],[35.6273,-8.7308],[36.3155,-8.0604],[36.7658,-7.9563],[36.9683,-7.6538],[36.5173,-7.5008],[36.4778,-7.3704]]]}},{"type":"Feature","id":"label-TZA-3386","properties":{"kind":"division-label","code":"TZA-3386","countryCode":"TZA","name":"Iringa","localName":"Iringa","labelEnglish":"Iringa","labelLocal":"Iringa","labelBoth":"Iringa","type":"Region","iso":"TZ-04","qid":"Q309352"},"geometry":{"type":"Point","coordinates":[35.5453,-7.83931]}},{"type":"Feature","id":"TZA-3357","properties":{"kind":"division","code":"TZA-3357","countryCode":"TZA","name":"Mwanza","localName":"Mwanza","labelEnglish":"Mwanza","labelLocal":"Mwanza","labelBoth":"Mwanza","type":"Region","iso":"TZ-18","qid":"Q331153"},"geometry":{"type":"Polygon","coordinates":[[[32.7039,-1.4688],[31.8772,-2.148],[31.9805,-2.4116],[32.5348,-2.8111],[32.5104,-3.1978],[32.5338,-3.3711],[32.8621,-3.255],[33.1099,-3.4326],[33.4229,-3.274],[33.4986,-2.8608],[33.7646,-2.7554],[33.3581,-2.1679],[33.219,-2.0428],[33.5734,-1.9872],[33.4379,-1.8803],[33.4561,-1.5213],[32.7039,-1.4688]]]}},{"type":"Feature","id":"label-TZA-3357","properties":{"kind":"division-label","code":"TZA-3357","countryCode":"TZA","name":"Mwanza","localName":"Mwanza","labelEnglish":"Mwanza","labelLocal":"Mwanza","labelBoth":"Mwanza","type":"Region","iso":"TZ-18","qid":"Q331153"},"geometry":{"type":"Point","coordinates":[32.6685,-2.67284]}},{"type":"Feature","id":"TZA-5585","properties":{"kind":"division","code":"TZA-5585","countryCode":"TZA","name":"Simiyu","localName":"Simiyu","labelEnglish":"Simiyu","labelLocal":"Simiyu","labelBoth":"Simiyu","type":"Region","iso":"TZ-30","qid":"Q2787568"},"geometry":{"type":"Polygon","coordinates":[[[35.2076,-2.487],[34.6578,-2.4913],[34.2983,-2.2569],[33.8311,-2.1721],[33.3581,-2.1679],[33.7646,-2.7554],[33.4986,-2.8608],[33.4229,-3.274],[33.9093,-3.5157],[34.1583,-3.5502],[34.4129,-3.9609],[34.7605,-3.8018],[34.8925,-3.5969],[34.9012,-2.8831],[35.1501,-2.8686],[35.2076,-2.487]]]}},{"type":"Feature","id":"label-TZA-5585","properties":{"kind":"division-label","code":"TZA-5585","countryCode":"TZA","name":"Simiyu","localName":"Simiyu","labelEnglish":"Simiyu","labelLocal":"Simiyu","labelBoth":"Simiyu","type":"Region","iso":"TZ-30","qid":"Q2787568"},"geometry":{"type":"Point","coordinates":[34.2172,-2.96688]}},{"type":"Feature","id":"TZA-5586","properties":{"kind":"division","code":"TZA-5586","countryCode":"TZA","name":"Geita","localName":"Geita","labelEnglish":"Geita","labelLocal":"Geita","labelBoth":"Geita","type":"Region","iso":"TZ-27","qid":"Q1848521"},"geometry":{"type":"Polygon","coordinates":[[[31.4166,-4.3563],[31.6818,-4.2123],[31.6906,-4.0379],[31.8352,-3.7429],[32.1342,-3.6726],[32.1166,-3.3947],[32.2502,-3.2364],[32.5104,-3.1978],[32.5348,-2.8111],[31.9805,-2.4116],[31.8772,-2.148],[31.5644,-2.3535],[31.1669,-2.2796],[30.8749,-2.6842],[30.9821,-2.8387],[31.2179,-3.6364],[31.3762,-3.9669],[31.4166,-4.3563]]]}},{"type":"Feature","id":"label-TZA-5586","properties":{"kind":"division-label","code":"TZA-5586","countryCode":"TZA","name":"Geita","localName":"Geita","labelEnglish":"Geita","labelLocal":"Geita","labelBoth":"Geita","type":"Region","iso":"TZ-27","qid":"Q1848521"},"geometry":{"type":"Point","coordinates":[31.6968,-3.09999]}},{"type":"Feature","id":"TZA-3358","properties":{"kind":"division","code":"TZA-3358","countryCode":"TZA","name":"Shinyanga","localName":"Shinyanga","labelEnglish":"Shinyanga","labelLocal":"Shinyanga","labelBoth":"Shinyanga","type":"Region","iso":"TZ-22","qid":"Q153339"},"geometry":{"type":"Polygon","coordinates":[[[31.6906,-4.0379],[31.9592,-4.144],[31.9717,-4.4302],[32.2114,-4.317],[32.3711,-4.3849],[32.4676,-4.2087],[32.7134,-4.2527],[32.713,-3.9797],[33.5955,-3.8796],[33.984,-4.0221],[34.2888,-4.0365],[34.4129,-3.9609],[34.1583,-3.5502],[33.9093,-3.5157],[33.4229,-3.274],[33.1099,-3.4326],[32.8621,-3.255],[32.5338,-3.3711],[32.5104,-3.1978],[32.2502,-3.2364],[32.1166,-3.3947],[32.1342,-3.6726],[31.8352,-3.7429],[31.6906,-4.0379]]]}},{"type":"Feature","id":"label-TZA-3358","properties":{"kind":"division-label","code":"TZA-3358","countryCode":"TZA","name":"Shinyanga","localName":"Shinyanga","labelEnglish":"Shinyanga","labelLocal":"Shinyanga","labelBoth":"Shinyanga","type":"Region","iso":"TZ-22","qid":"Q153339"},"geometry":{"type":"Point","coordinates":[33.2015,-3.65098]}}]}