{"type":"FeatureCollection","features":[{"type":"Feature","id":"UGA-3372","properties":{"kind":"division","code":"UGA-3372","countryCode":"UGA","name":"Ntungamo","localName":"Ntungamo","labelEnglish":"Ntungamo","labelLocal":"Ntungamo","labelBoth":"Ntungamo","type":"District","iso":"UG-411","qid":"Q204642"},"geometry":{"type":"Polygon","coordinates":[[[30.4608,-1.0634],[30.59,-0.8057],[30.2727,-0.7549],[30.1873,-0.7248],[30.0582,-0.76],[30.0684,-1.0867],[30.291,-1.1526],[30.4608,-1.0634]]]}},{"type":"Feature","id":"label-UGA-3372","properties":{"kind":"division-label","code":"UGA-3372","countryCode":"UGA","name":"Ntungamo","localName":"Ntungamo","labelEnglish":"Ntungamo","labelLocal":"Ntungamo","labelBoth":"Ntungamo","type":"District","iso":"UG-411","qid":"Q204642"},"geometry":{"type":"Point","coordinates":[30.3139,-0.976405]}},{"type":"Feature","id":"UGA-3370","properties":{"kind":"division","code":"UGA-3370","countryCode":"UGA","name":"Isingiro","localName":"Isingiro","labelEnglish":"Isingiro","labelLocal":"Isingiro","labelBoth":"Isingiro","type":"County","iso":"UG-417","qid":"Q1318887"},"geometry":{"type":"Polygon","coordinates":[[[30.4718,-1.0668],[31.2805,-1.0026],[31.0749,-0.6527],[30.7652,-0.605],[30.59,-0.8057],[30.4608,-1.0634],[30.4718,-1.0668]]]}},{"type":"Feature","id":"label-UGA-3370","properties":{"kind":"division-label","code":"UGA-3370","countryCode":"UGA","name":"Isingiro","localName":"Isingiro","labelEnglish":"Isingiro","labelLocal":"Isingiro","labelBoth":"Isingiro","type":"County","iso":"UG-417","qid":"Q1318887"},"geometry":{"type":"Point","coordinates":[30.8706,-0.848191]}},{"type":"Feature","id":"UGA-3375","properties":{"kind":"division","code":"UGA-3375","countryCode":"UGA","name":"Kabale","localName":"Kabale","labelEnglish":"Kabale","labelLocal":"Kabale","labelBoth":"Kabale","type":"District","iso":"UG-404","qid":"Q3526470"},"geometry":{"type":"Polygon","coordinates":[[[30.066,-1.3869],[30.291,-1.1526],[30.0684,-1.0867],[29.9001,-1.0441],[29.7546,-1.0756],[29.825,-1.3239],[30.066,-1.3869]]]}},{"type":"Feature","id":"label-UGA-3375","properties":{"kind":"division-label","code":"UGA-3375","countryCode":"UGA","name":"Kabale","localName":"Kabale","labelEnglish":"Kabale","labelLocal":"Kabale","labelBoth":"Kabale","type":"District","iso":"UG-404","qid":"Q3526470"},"geometry":{"type":"Point","coordinates":[30.0088,-1.23122]}},{"type":"Feature","id":"UGA-3376","properties":{"kind":"division","code":"UGA-3376","countryCode":"UGA","name":"Kisoro","localName":"Kisoro","labelEnglish":"Kisoro","labelLocal":"Kisoro","labelBoth":"Kisoro","type":"District","iso":"UG-408","qid":"Q580538"},"geometry":{"type":"Polygon","coordinates":[[[29.825,-1.3239],[29.7546,-1.0756],[29.5515,-0.9903],[29.5779,-1.3884],[29.825,-1.3239]]]}},{"type":"Feature","id":"label-UGA-3376","properties":{"kind":"division-label","code":"UGA-3376","countryCode":"UGA","name":"Kisoro","localName":"Kisoro","labelEnglish":"Kisoro","labelLocal":"Kisoro","labelBoth":"Kisoro","type":"District","iso":"UG-408","qid":"Q580538"},"geometry":{"type":"Point","coordinates":[29.6865,-1.21098]}},{"type":"Feature","id":"UGA-3361","properties":{"kind":"division","code":"UGA-3361","countryCode":"UGA","name":"Rakai","localName":"Rakai","labelEnglish":"Rakai","labelLocal":"Rakai","labelBoth":"Rakai","type":"District","iso":"UG-110","qid":"Q976873"},"geometry":{"type":"Polygon","coordinates":[[[31.9862,-1.0026],[31.9862,-0.7739],[31.7519,-0.7319],[31.6215,-0.47],[31.4592,-0.6037],[31.237,-0.4641],[31.1348,-0.5284],[31.0749,-0.6527],[31.2805,-1.0026],[31.9862,-1.0026]]]}},{"type":"Feature","id":"label-UGA-3361","properties":{"kind":"division-label","code":"UGA-3361","countryCode":"UGA","name":"Rakai","localName":"Rakai","labelEnglish":"Rakai","labelLocal":"Rakai","labelBoth":"Rakai","type":"District","iso":"UG-110","qid":"Q976873"},"geometry":{"type":"Point","coordinates":[31.5253,-0.753019]}},{"type":"Feature","id":"UGA-2631","properties":{"kind":"division","code":"UGA-2631","countryCode":"UGA","name":"Kalangala","localName":"Kalangala","labelEnglish":"Kalangala","labelLocal":"Kalangala","labelBoth":"Kalangala","type":"District","iso":"UG-101","qid":"Q867219"},"geometry":{"type":"Polygon","coordinates":[[[32.7223,-1.0026],[32.8472,-1.0026],[32.8472,-0.4621],[32.8472,-0.1631],[32.605,-0.1631],[32.4931,-0.1631],[32.2482,-0.1584],[31.9357,-0.1268],[31.9745,-0.2304],[31.9862,-0.7739],[31.9862,-1.0026],[32.7223,-1.0026]]]}},{"type":"Feature","id":"label-UGA-2631","properties":{"kind":"division-label","code":"UGA-2631","countryCode":"UGA","name":"Kalangala","localName":"Kalangala","labelEnglish":"Kalangala","labelLocal":"Kalangala","labelBoth":"Kalangala","type":"District","iso":"UG-101","qid":"Q867219"},"geometry":{"type":"Point","coordinates":[32.2457,-0.355954]}},{"type":"Feature","id":"UGA-5598","properties":{"kind":"division","code":"UGA-5598","countryCode":"UGA","name":"Buvuma","localName":"Buvuma","labelEnglish":"Buvuma","labelLocal":"Buvuma","labelBoth":"Buvuma","type":"District","iso":"UG-120","qid":"Q3321608"},"geometry":{"type":"Polygon","coordinates":[[[33.4264,-1.0026],[33.4262,0.2137],[33.387,0.3026],[33.2729,0.3502],[33.0783,0.091],[32.8472,-0.4621],[32.8472,-1.0026],[33.4264,-1.0026]]]}},{"type":"Feature","id":"label-UGA-5598","properties":{"kind":"division-label","code":"UGA-5598","countryCode":"UGA","name":"Buvuma","localName":"Buvuma","labelEnglish":"Buvuma","labelLocal":"Buvuma","labelBoth":"Buvuma","type":"District","iso":"UG-120","qid":"Q3321608"},"geometry":{"type":"Point","coordinates":[33.2585,0.0968329]}},{"type":"Feature","id":"UGA-3120","properties":{"kind":"division","code":"UGA-3120","countryCode":"UGA","name":"Mayuge","localName":"Mayuge","labelEnglish":"Mayuge","labelLocal":"Mayuge","labelBoth":"Mayuge","type":"District","iso":"UG-214","qid":"Q1364824"},"geometry":{"type":"Polygon","coordinates":[[[33.6318,-1.0026],[33.6318,-0.1035],[33.6847,0.3217],[33.6088,0.4422],[33.5657,0.4507],[33.387,0.3026],[33.4262,0.2137],[33.4264,-1.0026],[33.6318,-1.0026]]]}},{"type":"Feature","id":"label-UGA-3120","properties":{"kind":"division-label","code":"UGA-3120","countryCode":"UGA","name":"Mayuge","localName":"Mayuge","labelEnglish":"Mayuge","labelLocal":"Mayuge","labelBoth":"Mayuge","type":"District","iso":"UG-214","qid":"Q1364824"},"geometry":{"type":"Point","coordinates":[33.5556,0.277049]}},{"type":"Feature","id":"UGA-5614","properties":{"kind":"division","code":"UGA-5614","countryCode":"UGA","name":"Namayingo","localName":"Namayingo","labelEnglish":"Namayingo","labelLocal":"Namayingo","labelBoth":"Namayingo","type":"District","iso":"UG-230","qid":"Q1114915"},"geometry":{"type":"Polygon","coordinates":[[[33.9042,-1.0026],[33.9525,-0.1157],[33.9603,0.1987],[33.8925,0.4739],[33.6847,0.3217],[33.6318,-0.1035],[33.6318,-1.0026],[33.9042,-1.0026]]]}},{"type":"Feature","id":"label-UGA-5614","properties":{"kind":"division-label","code":"UGA-5614","countryCode":"UGA","name":"Namayingo","localName":"Namayingo","labelEnglish":"Namayingo","labelLocal":"Namayingo","labelBoth":"Namayingo","type":"District","iso":"UG-230","qid":"Q1114915"},"geometry":{"type":"Point","coordinates":[33.8049,0.246262]}},{"type":"Feature","id":"UGA-3125","properties":{"kind":"division","code":"UGA-3125","countryCode":"UGA","name":"Kaabong","localName":"Kaabong","labelEnglish":"Kaabong","labelLocal":"Kaabong","labelBoth":"Kaabong","type":"District","iso":"UG-315","qid":"Q1229881"},"geometry":{"type":"Polygon","coordinates":[[[33.5277,3.7714],[33.7434,3.3531],[34.3863,3.0817],[34.5456,3.0975],[34.384,3.3883],[34.4397,3.6677],[34.1652,3.7708],[33.9771,4.2197],[33.5277,3.7714]]]}},{"type":"Feature","id":"label-UGA-3125","properties":{"kind":"division-label","code":"UGA-3125","countryCode":"UGA","name":"Kaabong","localName":"Kaabong","labelEnglish":"Kaabong","labelLocal":"Kaabong","labelBoth":"Kaabong","type":"District","iso":"UG-315","qid":"Q1229881"},"geometry":{"type":"Point","coordinates":[34.0364,3.70606]}},{"type":"Feature","id":"UGA-3096","properties":{"kind":"division","code":"UGA-3096","countryCode":"UGA","name":"Kitgum","localName":"Kitgum","labelEnglish":"Kitgum","labelLocal":"Kitgum","labelBoth":"Kitgum","type":"District","iso":"UG-305","qid":"Q500162"},"geometry":{"type":"Polygon","coordinates":[[[33.5277,3.7714],[33.2637,3.7537],[33.1817,3.5351],[32.7695,3.3918],[32.7828,3.1799],[33.1554,3.0177],[33.3893,3.2995],[33.55,3.2687],[33.7434,3.3531],[33.5277,3.7714]]]}},{"type":"Feature","id":"label-UGA-3096","properties":{"kind":"division-label","code":"UGA-3096","countryCode":"UGA","name":"Kitgum","localName":"Kitgum","labelEnglish":"Kitgum","labelLocal":"Kitgum","labelBoth":"Kitgum","type":"District","iso":"UG-305","qid":"Q500162"},"geometry":{"type":"Point","coordinates":[33.3078,3.36108]}},{"type":"Feature","id":"UGA-5603","properties":{"kind":"division","code":"UGA-5603","countryCode":"UGA","name":"Lamwo","localName":"Lamwo","labelEnglish":"Lamwo","labelLocal":"Lamwo","labelBoth":"Lamwo","type":"District","iso":"UG-327","qid":"Q3539277"},"geometry":{"type":"Polygon","coordinates":[[[33.2637,3.7537],[33.0172,3.8772],[32.3718,3.7311],[32.1759,3.5272],[32.3574,3.2867],[32.5152,3.1358],[32.7828,3.1799],[32.7695,3.3918],[33.1817,3.5351],[33.2637,3.7537]]]}},{"type":"Feature","id":"label-UGA-5603","properties":{"kind":"division-label","code":"UGA-5603","countryCode":"UGA","name":"Lamwo","localName":"Lamwo","labelEnglish":"Lamwo","labelLocal":"Lamwo","labelBoth":"Lamwo","type":"District","iso":"UG-327","qid":"Q3539277"},"geometry":{"type":"Point","coordinates":[32.7269,3.56903]}},{"type":"Feature","id":"UGA-5601","properties":{"kind":"division","code":"UGA-5601","countryCode":"UGA","name":"Amuru","localName":"Amuru","labelEnglish":"Amuru","labelLocal":"Amuru","labelBoth":"Amuru","type":"District","iso":"UG-319","qid":"Q1375771"},"geometry":{"type":"Polygon","coordinates":[[[32.1759,3.5272],[32.0542,3.5596],[31.9309,3.0362],[31.4022,2.9555],[31.3928,2.7855],[31.4235,2.6173],[31.7474,2.7968],[32.2011,2.7295],[32.1787,3.0532],[32.3574,3.2867],[32.1759,3.5272]]]}},{"type":"Feature","id":"label-UGA-5601","properties":{"kind":"division-label","code":"UGA-5601","countryCode":"UGA","name":"Amuru","localName":"Amuru","labelEnglish":"Amuru","labelLocal":"Amuru","labelBoth":"Amuru","type":"District","iso":"UG-319","qid":"Q1375771"},"geometry":{"type":"Point","coordinates":[32.0347,2.9511]}},{"type":"Feature","id":"UGA-3079","properties":{"kind":"division","code":"UGA-3079","countryCode":"UGA","name":"Adjumani","localName":"Adjumani","labelEnglish":"Adjumani","labelLocal":"Adjumani","labelBoth":"Adjumani","type":"District","iso":"UG-301","qid":"Q1229734"},"geometry":{"type":"Polygon","coordinates":[[[32.0222,3.5864],[31.6933,3.4864],[31.5245,3.1447],[31.5124,3.1186],[31.4022,2.9555],[31.9309,3.0362],[32.0542,3.5596],[32.0222,3.5864]]]}},{"type":"Feature","id":"label-UGA-3079","properties":{"kind":"division-label","code":"UGA-3079","countryCode":"UGA","name":"Adjumani","localName":"Adjumani","labelEnglish":"Adjumani","labelLocal":"Adjumani","labelBoth":"Adjumani","type":"District","iso":"UG-301","qid":"Q1229734"},"geometry":{"type":"Point","coordinates":[31.7282,3.21788]}},{"type":"Feature","id":"UGA-3085","properties":{"kind":"division","code":"UGA-3085","countryCode":"UGA","name":"Moyo","localName":"Moyo","labelEnglish":"Moyo","labelLocal":"Moyo","labelBoth":"Moyo","type":"District","iso":"UG-309","qid":"Q2183668"},"geometry":{"type":"Polygon","coordinates":[[[31.8011,3.8065],[31.6139,3.697],[31.4637,3.458],[31.5245,3.1447],[31.6933,3.4864],[32.0222,3.5864],[31.8011,3.8065]]]}},{"type":"Feature","id":"label-UGA-3085","properties":{"kind":"division-label","code":"UGA-3085","countryCode":"UGA","name":"Moyo","localName":"Moyo","labelEnglish":"Moyo","labelLocal":"Moyo","labelBoth":"Moyo","type":"District","iso":"UG-309","qid":"Q2183668"},"geometry":{"type":"Point","coordinates":[31.7226,3.62202]}},{"type":"Feature","id":"UGA-3086","properties":{"kind":"division","code":"UGA-3086","countryCode":"UGA","name":"Yumbe","localName":"Yumbe","labelEnglish":"Yumbe","labelLocal":"Yumbe","labelBoth":"Yumbe","type":"District","iso":"UG-313","qid":"Q1362587"},"geometry":{"type":"Polygon","coordinates":[[[31.6139,3.697],[31.0687,3.7317],[31.0537,3.313],[31.2055,3.3349],[31.5124,3.1186],[31.5245,3.1447],[31.4637,3.458],[31.6139,3.697]]]}},{"type":"Feature","id":"label-UGA-3086","properties":{"kind":"division-label","code":"UGA-3086","countryCode":"UGA","name":"Yumbe","localName":"Yumbe","labelEnglish":"Yumbe","labelLocal":"Yumbe","labelBoth":"Yumbe","type":"District","iso":"UG-313","qid":"Q1362587"},"geometry":{"type":"Point","coordinates":[31.2996,3.52312]}},{"type":"Feature","id":"UGA-3081","properties":{"kind":"division","code":"UGA-3081","countryCode":"UGA","name":"Koboko","localName":"Koboko","labelEnglish":"Koboko","labelLocal":"Koboko","labelBoth":"Koboko","type":"County","iso":"UG-316","qid":"Q1318857"},"geometry":{"type":"Polygon","coordinates":[[[31.0687,3.7317],[30.8395,3.4902],[30.9049,3.386],[31.0537,3.313],[31.0687,3.7317]]]}},{"type":"Feature","id":"label-UGA-3081","properties":{"kind":"division-label","code":"UGA-3081","countryCode":"UGA","name":"Koboko","localName":"Koboko","labelEnglish":"Koboko","labelLocal":"Koboko","labelBoth":"Koboko","type":"County","iso":"UG-316","qid":"Q1318857"},"geometry":{"type":"Point","coordinates":[30.9725,3.51005]}},{"type":"Feature","id":"UGA-3127","properties":{"kind":"division","code":"UGA-3127","countryCode":"UGA","name":"Moroto","localName":"Moroto","labelEnglish":"Moroto","labelLocal":"Moroto","labelBoth":"Moroto","type":"District","iso":"UG-308","qid":"Q1375850"},"geometry":{"type":"Polygon","coordinates":[[[34.5456,3.0975],[34.3863,3.0817],[34.2517,2.8328],[34.4385,2.7753],[34.7546,2.4841],[34.8416,2.113],[34.9223,2.2107],[34.9236,2.4773],[34.5456,3.0975]]]}},{"type":"Feature","id":"label-UGA-3127","properties":{"kind":"division-label","code":"UGA-3127","countryCode":"UGA","name":"Moroto","localName":"Moroto","labelEnglish":"Moroto","labelLocal":"Moroto","labelBoth":"Moroto","type":"District","iso":"UG-308","qid":"Q1375850"},"geometry":{"type":"Point","coordinates":[34.712,2.67]}},{"type":"Feature","id":"UGA-3112","properties":{"kind":"division","code":"UGA-3112","countryCode":"UGA","name":"Kapchorwa","localName":"Kapchorwa","labelEnglish":"Kapchorwa","labelLocal":"Kapchorwa","labelBoth":"Kapchorwa","type":"District","iso":"UG-206","qid":"Q1229921"},"geometry":{"type":"Polygon","coordinates":[[[34.5601,1.0931],[34.5484,1.2004],[34.4332,1.4456],[34.3285,1.3],[34.5242,1.1623],[34.5075,1.1025],[34.5601,1.0931]]]}},{"type":"Feature","id":"label-UGA-3112","properties":{"kind":"division-label","code":"UGA-3112","countryCode":"UGA","name":"Kapchorwa","localName":"Kapchorwa","labelEnglish":"Kapchorwa","labelLocal":"Kapchorwa","labelBoth":"Kapchorwa","type":"District","iso":"UG-206","qid":"Q1229921"},"geometry":{"type":"Point","coordinates":[34.4652,1.35008]}},{"type":"Feature","id":"UGA-3113","properties":{"kind":"division","code":"UGA-3113","countryCode":"UGA","name":"Bukwo","localName":"Bukwo","labelEnglish":"Bukwo","labelLocal":"Bukwo","labelBoth":"Bukwo","type":"County","iso":"UG-218","qid":"Q1375868"},"geometry":{"type":"Polygon","coordinates":[[[34.5669,1.103],[34.7979,1.2319],[34.7807,1.3718],[34.7422,1.4194],[34.5484,1.2004],[34.5601,1.0931],[34.5669,1.103]]]}},{"type":"Feature","id":"label-UGA-3113","properties":{"kind":"division-label","code":"UGA-3113","countryCode":"UGA","name":"Bukwo","localName":"Bukwo","labelEnglish":"Bukwo","labelLocal":"Bukwo","labelBoth":"Bukwo","type":"County","iso":"UG-218","qid":"Q1375868"},"geometry":{"type":"Point","coordinates":[34.6781,1.26283]}},{"type":"Feature","id":"UGA-5616","properties":{"kind":"division","code":"UGA-5616","countryCode":"UGA","name":"Amudat","localName":"Amudat","labelEnglish":"Amudat","labelLocal":"Amudat","labelBoth":"Amudat","type":"District","iso":"UG-324","qid":"Q3536116"},"geometry":{"type":"Polygon","coordinates":[[[34.9223,2.2107],[34.8416,2.113],[34.7888,1.6811],[34.6373,1.5409],[34.7422,1.4194],[34.7807,1.3718],[34.9787,1.6759],[34.9223,2.2107]]]}},{"type":"Feature","id":"label-UGA-5616","properties":{"kind":"division-label","code":"UGA-5616","countryCode":"UGA","name":"Amudat","localName":"Amudat","labelEnglish":"Amudat","labelLocal":"Amudat","labelBoth":"Amudat","type":"District","iso":"UG-324","qid":"Q3536116"},"geometry":{"type":"Point","coordinates":[34.883,1.67258]}},{"type":"Feature","id":"UGA-3118","properties":{"kind":"division","code":"UGA-3118","countryCode":"UGA","name":"Busia","localName":"Busia","labelEnglish":"Busia","labelLocal":"Busia","labelBoth":"Busia","type":"District","iso":"UG-202","qid":"Q1229800"},"geometry":{"type":"Polygon","coordinates":[[[34.1316,0.5694],[33.9571,0.5642],[33.8925,0.4739],[33.9603,0.1987],[34.1316,0.5694]]]}},{"type":"Feature","id":"label-UGA-3118","properties":{"kind":"division-label","code":"UGA-3118","countryCode":"UGA","name":"Busia","localName":"Busia","labelEnglish":"Busia","labelLocal":"Busia","labelBoth":"Busia","type":"District","iso":"UG-202","qid":"Q1229800"},"geometry":{"type":"Point","coordinates":[34.0041,0.412014]}},{"type":"Feature","id":"UGA-3121","properties":{"kind":"division","code":"UGA-3121","countryCode":"UGA","name":"Tororo","localName":"Tororo","labelEnglish":"Tororo","labelLocal":"Tororo","labelBoth":"Tororo","type":"District","iso":"UG-212","qid":"Q1186541"},"geometry":{"type":"Polygon","coordinates":[[[34.2963,0.7467],[34.1637,0.8281],[34.085,0.9023],[33.8651,0.6846],[33.9571,0.5642],[34.1316,0.5694],[34.2963,0.7467]]]}},{"type":"Feature","id":"label-UGA-3121","properties":{"kind":"division-label","code":"UGA-3121","countryCode":"UGA","name":"Tororo","localName":"Tororo","labelEnglish":"Tororo","labelLocal":"Tororo","labelBoth":"Tororo","type":"District","iso":"UG-212","qid":"Q1186541"},"geometry":{"type":"Point","coordinates":[34.0805,0.737709]}},{"type":"Feature","id":"UGA-3116","properties":{"kind":"division","code":"UGA-3116","countryCode":"UGA","name":"Manafwa","localName":"Manafwa","labelEnglish":"Manafwa","labelLocal":"Manafwa","labelBoth":"Manafwa","type":"District","iso":"UG-221","qid":"Q1375789"},"geometry":{"type":"Polygon","coordinates":[[[34.4633,1],[34.2636,0.9992],[34.1637,0.8281],[34.2963,0.7467],[34.4633,1]]]}},{"type":"Feature","id":"label-UGA-3116","properties":{"kind":"division-label","code":"UGA-3116","countryCode":"UGA","name":"Manafwa","localName":"Manafwa","labelEnglish":"Manafwa","labelLocal":"Manafwa","labelBoth":"Manafwa","type":"District","iso":"UG-221","qid":"Q1375789"},"geometry":{"type":"Point","coordinates":[34.312,0.886597]}},{"type":"Feature","id":"UGA-5626","properties":{"kind":"division","code":"UGA-5626","countryCode":"UGA","name":"Bududa","localName":"Bududa","labelEnglish":"Bududa","labelLocal":"Bududa","labelBoth":"Bududa","type":"District","iso":"UG-223","qid":"Q1365449"},"geometry":{"type":"Polygon","coordinates":[[[34.5075,1.1025],[34.3571,1.0864],[34.2636,0.9992],[34.4633,1],[34.5075,1.1025]]]}},{"type":"Feature","id":"label-UGA-5626","properties":{"kind":"division-label","code":"UGA-5626","countryCode":"UGA","name":"Bududa","localName":"Bududa","labelEnglish":"Bududa","labelLocal":"Bududa","labelBoth":"Bududa","type":"District","iso":"UG-223","qid":"Q1365449"},"geometry":{"type":"Point","coordinates":[34.3979,1.03321]}},{"type":"Feature","id":"UGA-3087","properties":{"kind":"division","code":"UGA-3087","countryCode":"UGA","name":"Maracha","localName":"Maracha","labelEnglish":"Maracha","labelLocal":"Maracha","labelBoth":"Maracha","type":"District","iso":"UG-320","qid":"Q588927"},"geometry":{"type":"Polygon","coordinates":[[[30.7634,3.1234],[31.0537,3.313],[30.9049,3.386],[30.7634,3.1234]]]}},{"type":"Feature","id":"label-UGA-3087","properties":{"kind":"division-label","code":"UGA-3087","countryCode":"UGA","name":"Maracha","localName":"Maracha","labelEnglish":"Maracha","labelLocal":"Maracha","labelBoth":"Maracha","type":"District","iso":"UG-320","qid":"Q588927"},"geometry":{"type":"Point","coordinates":[30.9101,3.2292]}},{"type":"Feature","id":"UGA-3080","properties":{"kind":"division","code":"UGA-3080","countryCode":"UGA","name":"Arua","localName":"Arua","labelEnglish":"Arua","labelLocal":"Arua","labelBoth":"Arua","type":"County","iso":"UG-303","qid":"Q1229758"},"geometry":{"type":"Polygon","coordinates":[[[30.7708,2.6758],[31.0483,2.5889],[31.3928,2.7855],[31.4022,2.9555],[31.5124,3.1186],[31.2055,3.3349],[31.0537,3.313],[30.7634,3.1234],[30.8548,2.8932],[30.7708,2.6758]]]}},{"type":"Feature","id":"label-UGA-3080","properties":{"kind":"division-label","code":"UGA-3080","countryCode":"UGA","name":"Arua","localName":"Arua","labelEnglish":"Arua","labelLocal":"Arua","labelBoth":"Arua","type":"County","iso":"UG-303","qid":"Q1229758"},"geometry":{"type":"Point","coordinates":[31.1339,2.7887]}},{"type":"Feature","id":"UGA-5589","properties":{"kind":"division","code":"UGA-5589","countryCode":"UGA","name":"Zombo","localName":"Zombo","labelEnglish":"Zombo","labelLocal":"Zombo","labelBoth":"Zombo","type":"District","iso":"UG-331","qid":"Q3539730"},"geometry":{"type":"Polygon","coordinates":[[[30.7708,2.6758],[30.7077,2.4623],[30.968,2.4054],[31.0483,2.5889],[30.7708,2.6758]]]}},{"type":"Feature","id":"label-UGA-5589","properties":{"kind":"division-label","code":"UGA-5589","countryCode":"UGA","name":"Zombo","localName":"Zombo","labelEnglish":"Zombo","labelLocal":"Zombo","labelBoth":"Zombo","type":"District","iso":"UG-331","qid":"Q3539730"},"geometry":{"type":"Point","coordinates":[30.9019,2.54111]}},{"type":"Feature","id":"UGA-3084","properties":{"kind":"division","code":"UGA-3084","countryCode":"UGA","name":"Nebbi","localName":"Nebbi","labelEnglish":"Nebbi","labelLocal":"Nebbi","labelBoth":"Nebbi","type":"District","iso":"UG-310","qid":"Q1375825"},"geometry":{"type":"Polygon","coordinates":[[[30.968,2.4054],[31.2801,2.1514],[31.3457,2.1796],[31.5247,2.5092],[31.4235,2.6173],[31.3928,2.7855],[31.0483,2.5889],[30.968,2.4054]]]}},{"type":"Feature","id":"label-UGA-3084","properties":{"kind":"division-label","code":"UGA-3084","countryCode":"UGA","name":"Nebbi","localName":"Nebbi","labelEnglish":"Nebbi","labelLocal":"Nebbi","labelBoth":"Nebbi","type":"District","iso":"UG-310","qid":"Q1375825"},"geometry":{"type":"Point","coordinates":[31.2582,2.44381]}},{"type":"Feature","id":"UGA-3082","properties":{"kind":"division","code":"UGA-3082","countryCode":"UGA","name":"Buliisa","localName":"Buliisa","labelEnglish":"Buliisa","labelLocal":"Buliisa","labelBoth":"Buliisa","type":"County","iso":"UG-419","qid":"Q1229793"},"geometry":{"type":"Polygon","coordinates":[[[31.0755,1.8406],[31.3614,1.7382],[31.6452,1.921],[31.5459,2.2778],[31.3457,2.1796],[31.2801,2.1514],[31.0755,1.8406]]]}},{"type":"Feature","id":"label-UGA-3082","properties":{"kind":"division-label","code":"UGA-3082","countryCode":"UGA","name":"Buliisa","localName":"Buliisa","labelEnglish":"Buliisa","labelLocal":"Buliisa","labelBoth":"Buliisa","type":"County","iso":"UG-419","qid":"Q1229793"},"geometry":{"type":"Point","coordinates":[31.4315,1.95839]}},{"type":"Feature","id":"UGA-3105","properties":{"kind":"division","code":"UGA-3105","countryCode":"UGA","name":"Hoima","localName":"Hoima","labelEnglish":"Hoima","labelLocal":"Hoima","labelBoth":"Hoima","type":"District","iso":"UG-403","qid":"Q1186535"},"geometry":{"type":"Polygon","coordinates":[[[30.5537,1.3356],[30.5481,1.0742],[31.2905,1.2135],[31.5138,1.3613],[31.3614,1.7382],[31.0755,1.8406],[30.5537,1.3356]]]}},{"type":"Feature","id":"label-UGA-3105","properties":{"kind":"division-label","code":"UGA-3105","countryCode":"UGA","name":"Hoima","localName":"Hoima","labelEnglish":"Hoima","labelLocal":"Hoima","labelBoth":"Hoima","type":"District","iso":"UG-403","qid":"Q1186535"},"geometry":{"type":"Point","coordinates":[31.0319,1.47115]}},{"type":"Feature","id":"UGA-5610","properties":{"kind":"division","code":"UGA-5610","countryCode":"UGA","name":"Ntoroko","localName":"Ntoroko","labelEnglish":"Ntoroko","labelLocal":"Ntoroko","labelBoth":"Ntoroko","type":"District","iso":"UG-423","qid":"Q3539547"},"geometry":{"type":"Polygon","coordinates":[[[30.5537,1.3356],[30.2389,1.136],[30.1835,0.9546],[30.1704,0.7147],[30.5272,0.9859],[30.5481,1.0742],[30.5537,1.3356]]]}},{"type":"Feature","id":"label-UGA-5610","properties":{"kind":"division-label","code":"UGA-5610","countryCode":"UGA","name":"Ntoroko","localName":"Ntoroko","labelEnglish":"Ntoroko","labelLocal":"Ntoroko","labelBoth":"Ntoroko","type":"District","iso":"UG-423","qid":"Q3539547"},"geometry":{"type":"Point","coordinates":[30.3756,1.02038]}},{"type":"Feature","id":"UGA-3104","properties":{"kind":"division","code":"UGA-3104","countryCode":"UGA","name":"Bundibugyo","localName":"Bundibugyo","labelEnglish":"Bundibugyo","labelLocal":"Bundibugyo","labelBoth":"Bundibugyo","type":"District","iso":"UG-401","qid":"Q1362129"},"geometry":{"type":"Polygon","coordinates":[[[29.9822,0.849],[29.9039,0.4382],[30.1704,0.7147],[30.1835,0.9546],[29.9822,0.849]]]}},{"type":"Feature","id":"label-UGA-3104","properties":{"kind":"division-label","code":"UGA-3104","countryCode":"UGA","name":"Bundibugyo","localName":"Bundibugyo","labelEnglish":"Bundibugyo","labelLocal":"Bundibugyo","labelBoth":"Bundibugyo","type":"District","iso":"UG-401","qid":"Q1362129"},"geometry":{"type":"Point","coordinates":[30.0508,0.738092]}},{"type":"Feature","id":"UGA-3106","properties":{"kind":"division","code":"UGA-3106","countryCode":"UGA","name":"Kabarole","localName":"Kabarole","labelEnglish":"Kabarole","labelLocal":"Kabarole","labelBoth":"Kabarole","type":"District","iso":"UG-405","qid":"Q1229910"},"geometry":{"type":"Polygon","coordinates":[[[29.8326,0.337],[30.2687,0.2635],[30.4281,0.5412],[30.5454,0.9295],[30.5272,0.9859],[30.1704,0.7147],[29.9039,0.4382],[29.8326,0.337]]]}},{"type":"Feature","id":"label-UGA-3106","properties":{"kind":"division-label","code":"UGA-3106","countryCode":"UGA","name":"Kabarole","localName":"Kabarole","labelEnglish":"Kabarole","labelLocal":"Kabarole","labelBoth":"Kabarole","type":"District","iso":"UG-405","qid":"Q1229910"},"geometry":{"type":"Point","coordinates":[30.2731,0.596926]}},{"type":"Feature","id":"UGA-3367","properties":{"kind":"division","code":"UGA-3367","countryCode":"UGA","name":"Kasese","localName":"Kasese","labelEnglish":"Kasese","labelLocal":"Kasese","labelBoth":"Kasese","type":"District","iso":"UG-406","qid":"Q1229919"},"geometry":{"type":"Polygon","coordinates":[[[29.8326,0.337],[29.6813,-0.1379],[30.0044,-0.1741],[30.2066,-0.0793],[30.2687,0.2635],[29.8326,0.337]]]}},{"type":"Feature","id":"label-UGA-3367","properties":{"kind":"division-label","code":"UGA-3367","countryCode":"UGA","name":"Kasese","localName":"Kasese","labelEnglish":"Kasese","labelLocal":"Kasese","labelBoth":"Kasese","type":"District","iso":"UG-406","qid":"Q1229919"},"geometry":{"type":"Point","coordinates":[29.9844,0.138279]}},{"type":"Feature","id":"UGA-5621","properties":{"kind":"division","code":"UGA-5621","countryCode":"UGA","name":"Rubirizi","localName":"Rubirizi","labelEnglish":"Rubirizi","labelLocal":"Rubirizi","labelBoth":"Rubirizi","type":"District","iso":"UG-424","qid":"Q3539648"},"geometry":{"type":"Polygon","coordinates":[[[29.6439,-0.358],[29.9141,-0.4017],[30.1378,-0.4174],[30.3234,-0.2116],[30.2497,-0.1199],[30.2066,-0.0793],[30.0044,-0.1741],[29.6813,-0.1379],[29.6439,-0.358]]]}},{"type":"Feature","id":"label-UGA-5621","properties":{"kind":"division-label","code":"UGA-5621","countryCode":"UGA","name":"Rubirizi","localName":"Rubirizi","labelEnglish":"Rubirizi","labelLocal":"Rubirizi","labelBoth":"Rubirizi","type":"District","iso":"UG-424","qid":"Q3539648"},"geometry":{"type":"Point","coordinates":[29.9095,-0.269997]}},{"type":"Feature","id":"UGA-3373","properties":{"kind":"division","code":"UGA-3373","countryCode":"UGA","name":"Rukungiri","localName":"Rukungiri","labelEnglish":"Rukungiri","labelLocal":"Rukungiri","labelBoth":"Rukungiri","type":"District","iso":"UG-412","qid":"Q289419"},"geometry":{"type":"Polygon","coordinates":[[[29.6294,-0.4424],[29.8395,-0.7589],[29.9001,-1.0441],[30.0684,-1.0867],[30.0582,-0.76],[29.9426,-0.505],[29.9141,-0.4017],[29.6439,-0.358],[29.6294,-0.4424]]]}},{"type":"Feature","id":"label-UGA-3373","properties":{"kind":"division-label","code":"UGA-3373","countryCode":"UGA","name":"Rukungiri","localName":"Rukungiri","labelEnglish":"Rukungiri","labelLocal":"Rukungiri","labelBoth":"Rukungiri","type":"District","iso":"UG-412","qid":"Q289419"},"geometry":{"type":"Point","coordinates":[29.9095,-0.710038]}},{"type":"Feature","id":"UGA-3377","properties":{"kind":"division","code":"UGA-3377","countryCode":"UGA","name":"Kanungu","localName":"Kanungu","labelEnglish":"Kanungu","labelLocal":"Kanungu","labelBoth":"Kanungu","type":"District","iso":"UG-414","qid":"Q1032245"},"geometry":{"type":"Polygon","coordinates":[[[29.5515,-0.9903],[29.7546,-1.0756],[29.9001,-1.0441],[29.8395,-0.7589],[29.6294,-0.4424],[29.5515,-0.9903]]]}},{"type":"Feature","id":"label-UGA-3377","properties":{"kind":"division-label","code":"UGA-3377","countryCode":"UGA","name":"Kanungu","localName":"Kanungu","labelEnglish":"Kanungu","labelLocal":"Kanungu","labelBoth":"Kanungu","type":"District","iso":"UG-414","qid":"Q1032245"},"geometry":{"type":"Point","coordinates":[29.7256,-0.835254]}},{"type":"Feature","id":"UGA-3069","properties":{"kind":"division","code":"UGA-3069","countryCode":"UGA","name":"Kamuli","localName":"Kamuli","labelEnglish":"Kamuli","labelLocal":"Kamuli","labelBoth":"Kamuli","type":"District","iso":"UG-205","qid":"Q164474"},"geometry":{"type":"Polygon","coordinates":[[[33.2972,0.9437],[32.9613,1.1817],[33.049,0.6632],[33.2213,0.6718],[33.2972,0.9437]]]}},{"type":"Feature","id":"label-UGA-3069","properties":{"kind":"division-label","code":"UGA-3069","countryCode":"UGA","name":"Kamuli","localName":"Kamuli","labelEnglish":"Kamuli","labelLocal":"Kamuli","labelBoth":"Kamuli","type":"District","iso":"UG-205","qid":"Q164474"},"geometry":{"type":"Point","coordinates":[33.1226,0.888959]}},{"type":"Feature","id":"UGA-5592","properties":{"kind":"division","code":"UGA-5592","countryCode":"UGA","name":"Luuka","localName":"Luuka","labelEnglish":"Luuka","labelLocal":"Luuka","labelBoth":"Luuka","type":"District","iso":"UG-229","qid":"Q1114977"},"geometry":{"type":"Polygon","coordinates":[[[33.2213,0.6718],[33.5171,0.5475],[33.4273,0.8714],[33.3388,1.0793],[33.2972,0.9437],[33.2213,0.6718]]]}},{"type":"Feature","id":"label-UGA-5592","properties":{"kind":"division-label","code":"UGA-5592","countryCode":"UGA","name":"Luuka","localName":"Luuka","labelEnglish":"Luuka","labelLocal":"Luuka","labelBoth":"Luuka","type":"District","iso":"UG-229","qid":"Q1114977"},"geometry":{"type":"Point","coordinates":[33.3432,0.738246]}},{"type":"Feature","id":"UGA-5593","properties":{"kind":"division","code":"UGA-5593","countryCode":"UGA","name":"Buyende","localName":"Buyende","labelEnglish":"Buyende","labelLocal":"Buyende","labelBoth":"Buyende","type":"District","iso":"UG-226","qid":"Q1114938"},"geometry":{"type":"Polygon","coordinates":[[[33.3388,1.0793],[33.4425,1.2876],[33.405,1.3355],[33.208,1.3689],[32.9642,1.4736],[32.8114,1.4752],[32.9613,1.1817],[33.2972,0.9437],[33.3388,1.0793]]]}},{"type":"Feature","id":"label-UGA-5593","properties":{"kind":"division-label","code":"UGA-5593","countryCode":"UGA","name":"Buyende","localName":"Buyende","labelEnglish":"Buyende","labelLocal":"Buyende","labelBoth":"Buyende","type":"District","iso":"UG-226","qid":"Q1114938"},"geometry":{"type":"Point","coordinates":[33.1662,1.24749]}},{"type":"Feature","id":"UGA-3064","properties":{"kind":"division","code":"UGA-3064","countryCode":"UGA","name":"Jinja","localName":"Jinja","labelEnglish":"Jinja","labelLocal":"Jinja","labelBoth":"Jinja","type":"District","iso":"UG-204","qid":"Q983748"},"geometry":{"type":"Polygon","coordinates":[[[33.2213,0.6718],[33.049,0.6632],[33.0986,0.5442],[33.2729,0.3502],[33.387,0.3026],[33.5657,0.4507],[33.5171,0.5475],[33.2213,0.6718]]]}},{"type":"Feature","id":"label-UGA-3064","properties":{"kind":"division-label","code":"UGA-3064","countryCode":"UGA","name":"Jinja","localName":"Jinja","labelEnglish":"Jinja","labelLocal":"Jinja","labelBoth":"Jinja","type":"District","iso":"UG-204","qid":"Q983748"},"geometry":{"type":"Point","coordinates":[33.3074,0.492867]}},{"type":"Feature","id":"UGA-5604","properties":{"kind":"division","code":"UGA-5604","countryCode":"UGA","name":"Apac","localName":"Apac","labelEnglish":"Apac","labelLocal":"Apac","labelBoth":"Apac","type":"District","iso":"UG-302","qid":"Q1229750"},"geometry":{"type":"Polygon","coordinates":[[[32.3029,1.6486],[32.5947,1.6519],[32.7733,1.8015],[32.9893,1.7155],[32.8881,2.0747],[32.8128,2.1067],[32.5497,2.1803],[32.3468,2.0727],[32.3415,1.8679],[32.1015,1.6656],[32.1042,1.6478],[32.3029,1.6486]]]}},{"type":"Feature","id":"label-UGA-5604","properties":{"kind":"division-label","code":"UGA-5604","countryCode":"UGA","name":"Apac","localName":"Apac","labelEnglish":"Apac","labelLocal":"Apac","labelBoth":"Apac","type":"District","iso":"UG-302","qid":"Q1229750"},"geometry":{"type":"Point","coordinates":[32.5241,1.89554]}},{"type":"Feature","id":"UGA-3090","properties":{"kind":"division","code":"UGA-3090","countryCode":"UGA","name":"Nakasongola","localName":"Nakasongola","labelEnglish":"Nakasongola","labelLocal":"Nakasongola","labelBoth":"Nakasongola","type":"District","iso":"UG-109","qid":"Q976859"},"geometry":{"type":"Polygon","coordinates":[[[32.3029,1.6486],[32.1042,1.6478],[31.9595,1.4759],[32.406,1.0904],[32.6239,0.9681],[32.7803,1.0812],[32.688,1.4705],[32.3029,1.6486]]]}},{"type":"Feature","id":"label-UGA-3090","properties":{"kind":"division-label","code":"UGA-3090","countryCode":"UGA","name":"Nakasongola","localName":"Nakasongola","labelEnglish":"Nakasongola","labelLocal":"Nakasongola","labelBoth":"Nakasongola","type":"District","iso":"UG-109","qid":"Q976859"},"geometry":{"type":"Point","coordinates":[32.3765,1.36245]}},{"type":"Feature","id":"UGA-3102","properties":{"kind":"division","code":"UGA-3102","countryCode":"UGA","name":"Masindi","localName":"Masindi","labelEnglish":"Masindi","labelLocal":"Masindi","labelBoth":"Masindi","type":"District","iso":"UG-409","qid":"Q1032238"},"geometry":{"type":"Polygon","coordinates":[[[32.1042,1.6478],[32.1015,1.6656],[31.9044,1.6907],[31.7554,2.2983],[31.5459,2.2778],[31.6452,1.921],[31.3614,1.7382],[31.5138,1.3613],[31.8223,1.3571],[31.9595,1.4759],[32.1042,1.6478]]]}},{"type":"Feature","id":"label-UGA-3102","properties":{"kind":"division-label","code":"UGA-3102","countryCode":"UGA","name":"Masindi","localName":"Masindi","labelEnglish":"Masindi","labelLocal":"Masindi","labelBoth":"Masindi","type":"District","iso":"UG-409","qid":"Q1032238"},"geometry":{"type":"Point","coordinates":[31.735,1.66477]}},{"type":"Feature","id":"UGA-3067","properties":{"kind":"division","code":"UGA-3067","countryCode":"UGA","name":"Kayunga","localName":"Kayunga","labelEnglish":"Kayunga","labelLocal":"Kayunga","labelBoth":"Kayunga","type":"District","iso":"UG-112","qid":"Q1207391"},"geometry":{"type":"Polygon","coordinates":[[[32.7803,1.0812],[32.7927,0.8453],[33.0316,0.587],[33.0986,0.5442],[33.049,0.6632],[32.9613,1.1817],[32.8114,1.4752],[32.688,1.4705],[32.7803,1.0812]]]}},{"type":"Feature","id":"label-UGA-3067","properties":{"kind":"division-label","code":"UGA-3067","countryCode":"UGA","name":"Kayunga","localName":"Kayunga","labelEnglish":"Kayunga","labelLocal":"Kayunga","labelBoth":"Kayunga","type":"District","iso":"UG-112","qid":"Q1207391"},"geometry":{"type":"Point","coordinates":[32.8933,0.984795]}},{"type":"Feature","id":"UGA-3092","properties":{"kind":"division","code":"UGA-3092","countryCode":"UGA","name":"Luwero","localName":"Luwero","labelEnglish":"Luwero","labelLocal":"Luwero","labelBoth":"Luwero","type":"County","iso":"UG-104","qid":"Q1364817"},"geometry":{"type":"Polygon","coordinates":[[[32.7803,1.0812],[32.6239,0.9681],[32.406,1.0904],[32.4548,0.6533],[32.3304,0.5461],[32.6702,0.5565],[32.7927,0.8453],[32.7803,1.0812]]]}},{"type":"Feature","id":"label-UGA-3092","properties":{"kind":"division-label","code":"UGA-3092","countryCode":"UGA","name":"Luwero","localName":"Luwero","labelEnglish":"Luwero","labelLocal":"Luwero","labelBoth":"Luwero","type":"County","iso":"UG-104","qid":"Q1364817"},"geometry":{"type":"Point","coordinates":[32.5615,0.796763]}},{"type":"Feature","id":"UGA-3070","properties":{"kind":"division","code":"UGA-3070","countryCode":"UGA","name":"Amolatar","localName":"Amolatar","labelEnglish":"Amolatar","labelLocal":"Amolatar","labelBoth":"Amolatar","type":"County","iso":"UG-314","qid":"Q1318822"},"geometry":{"type":"Polygon","coordinates":[[[32.9893,1.7155],[32.7733,1.8015],[32.5947,1.6519],[32.3029,1.6486],[32.688,1.4705],[32.8114,1.4752],[32.9642,1.4736],[32.9893,1.7155]]]}},{"type":"Feature","id":"label-UGA-3070","properties":{"kind":"division-label","code":"UGA-3070","countryCode":"UGA","name":"Amolatar","localName":"Amolatar","labelEnglish":"Amolatar","labelLocal":"Amolatar","labelBoth":"Amolatar","type":"County","iso":"UG-314","qid":"Q1318822"},"geometry":{"type":"Point","coordinates":[32.6461,1.57677]}},{"type":"Feature","id":"UGA-3094","properties":{"kind":"division","code":"UGA-3094","countryCode":"UGA","name":"Mityana","localName":"Mityana","labelEnglish":"Mityana","labelLocal":"Mityana","labelBoth":"Mityana","type":"County","iso":"UG-114","qid":"Q1230005"},"geometry":{"type":"Polygon","coordinates":[[[32.1837,0.7024],[31.9534,0.6485],[31.9488,0.2957],[31.8214,0.283],[32.1413,0.2558],[32.2647,0.2672],[32.2631,0.4346],[32.2227,0.5741],[32.1837,0.7024]]]}},{"type":"Feature","id":"label-UGA-3094","properties":{"kind":"division-label","code":"UGA-3094","countryCode":"UGA","name":"Mityana","localName":"Mityana","labelEnglish":"Mityana","labelLocal":"Mityana","labelBoth":"Mityana","type":"County","iso":"UG-114","qid":"Q1230005"},"geometry":{"type":"Point","coordinates":[32.0449,0.42844]}},{"type":"Feature","id":"UGA-3089","properties":{"kind":"division","code":"UGA-3089","countryCode":"UGA","name":"Kiboga","localName":"Kiboga","labelEnglish":"Kiboga","labelLocal":"Kiboga","labelBoth":"Kiboga","type":"District","iso":"UG-103","qid":"Q892064"},"geometry":{"type":"Polygon","coordinates":[[[32.1837,0.7024],[31.953,1.1039],[31.6747,0.8661],[31.9534,0.6485],[32.1837,0.7024]]]}},{"type":"Feature","id":"label-UGA-3089","properties":{"kind":"division-label","code":"UGA-3089","countryCode":"UGA","name":"Kiboga","localName":"Kiboga","labelEnglish":"Kiboga","labelLocal":"Kiboga","labelBoth":"Kiboga","type":"District","iso":"UG-103","qid":"Q892064"},"geometry":{"type":"Point","coordinates":[31.9587,0.841246]}},{"type":"Feature","id":"UGA-3078","properties":{"kind":"division","code":"UGA-3078","countryCode":"UGA","name":"Mpigi","localName":"Mpigi","labelEnglish":"Mpigi","labelLocal":"Mpigi","labelBoth":"Mpigi","type":"District","iso":"UG-106","qid":"Q1362109"},"geometry":{"type":"Polygon","coordinates":[[[32.2647,0.2672],[31.8558,-0.0074],[31.9357,-0.1268],[32.2482,-0.1584],[32.2269,0.0496],[32.4396,0.36],[32.2631,0.4346],[32.2647,0.2672]]]}},{"type":"Feature","id":"label-UGA-3078","properties":{"kind":"division-label","code":"UGA-3078","countryCode":"UGA","name":"Mpigi","localName":"Mpigi","labelEnglish":"Mpigi","labelLocal":"Mpigi","labelBoth":"Mpigi","type":"District","iso":"UG-106","qid":"Q1362109"},"geometry":{"type":"Point","coordinates":[32.0899,-0.00825711]}},{"type":"Feature","id":"UGA-5599","properties":{"kind":"division","code":"UGA-5599","countryCode":"UGA","name":"Butambala","localName":"Butambala","labelEnglish":"Butambala","labelLocal":"Butambala","labelBoth":"Butambala","type":"District","iso":"UG-119","qid":"Q3321622"},"geometry":{"type":"Polygon","coordinates":[[[32.2647,0.2672],[32.1413,0.2558],[31.7935,0.0501],[31.8558,-0.0074],[32.2647,0.2672]]]}},{"type":"Feature","id":"label-UGA-5599","properties":{"kind":"division-label","code":"UGA-5599","countryCode":"UGA","name":"Butambala","localName":"Butambala","labelEnglish":"Butambala","labelLocal":"Butambala","labelBoth":"Butambala","type":"District","iso":"UG-119","qid":"Q3321622"},"geometry":{"type":"Point","coordinates":[32.0026,0.135674]}},{"type":"Feature","id":"UGA-5600","properties":{"kind":"division","code":"UGA-5600","countryCode":"UGA","name":"Gomba","localName":"Gomba","labelEnglish":"Gomba","labelLocal":"Gomba","labelBoth":"Gomba","type":"District","iso":"UG-121","qid":"Q3321637"},"geometry":{"type":"Polygon","coordinates":[[[31.8214,0.283],[31.575,0.3376],[31.3348,0.2006],[31.5918,0.0494],[31.6488,0.0471],[31.7935,0.0501],[32.1413,0.2558],[31.8214,0.283]]]}},{"type":"Feature","id":"label-UGA-5600","properties":{"kind":"division-label","code":"UGA-5600","countryCode":"UGA","name":"Gomba","localName":"Gomba","labelEnglish":"Gomba","labelLocal":"Gomba","labelBoth":"Gomba","type":"District","iso":"UG-121","qid":"Q3321637"},"geometry":{"type":"Point","coordinates":[31.6617,0.196093]}},{"type":"Feature","id":"UGA-3091","properties":{"kind":"division","code":"UGA-3091","countryCode":"UGA","name":"Wakiso","localName":"Wakiso","labelEnglish":"Wakiso","labelLocal":"Wakiso","labelBoth":"Wakiso","type":"District","iso":"UG-113","qid":"Q976848"},"geometry":{"type":"Polygon","coordinates":[[[32.2631,0.4346],[32.4396,0.36],[32.2269,0.0496],[32.2482,-0.1584],[32.4931,-0.1631],[32.6642,0.2876],[32.5473,0.2737],[32.6595,0.5037],[32.6702,0.5565],[32.3304,0.5461],[32.2227,0.5741],[32.2631,0.4346]]]}},{"type":"Feature","id":"label-UGA-3091","properties":{"kind":"division-label","code":"UGA-3091","countryCode":"UGA","name":"Wakiso","localName":"Wakiso","labelEnglish":"Wakiso","labelLocal":"Wakiso","labelBoth":"Wakiso","type":"District","iso":"UG-113","qid":"Q976848"},"geometry":{"type":"Point","coordinates":[32.4268,0.197333]}},{"type":"Feature","id":"UGA-3095","properties":{"kind":"division","code":"UGA-3095","countryCode":"UGA","name":"Nakaseke","localName":"Nakaseke","labelEnglish":"Nakaseke","labelLocal":"Nakaseke","labelBoth":"Nakaseke","type":"District","iso":"UG-115","qid":"Q432438"},"geometry":{"type":"Polygon","coordinates":[[[32.1837,0.7024],[32.2227,0.5741],[32.3304,0.5461],[32.4548,0.6533],[32.406,1.0904],[31.9595,1.4759],[31.8223,1.3571],[31.953,1.1039],[32.1837,0.7024]]]}},{"type":"Feature","id":"label-UGA-3095","properties":{"kind":"division-label","code":"UGA-3095","countryCode":"UGA","name":"Nakaseke","localName":"Nakaseke","labelEnglish":"Nakaseke","labelLocal":"Nakaseke","labelBoth":"Nakaseke","type":"District","iso":"UG-115","qid":"Q432438"},"geometry":{"type":"Point","coordinates":[32.1561,1.10855]}},{"type":"Feature","id":"UGA-5602","properties":{"kind":"division","code":"UGA-5602","countryCode":"UGA","name":"Kyankwanzi","localName":"Kyankwanzi","labelEnglish":"Kyankwanzi","labelLocal":"Kyankwanzi","labelBoth":"Kyankwanzi","type":"District","iso":"UG-123","qid":"Q534203"},"geometry":{"type":"Polygon","coordinates":[[[31.8223,1.3571],[31.5138,1.3613],[31.2905,1.2135],[31.5213,1.0274],[31.4381,0.8615],[31.6747,0.8661],[31.953,1.1039],[31.8223,1.3571]]]}},{"type":"Feature","id":"label-UGA-5602","properties":{"kind":"division-label","code":"UGA-5602","countryCode":"UGA","name":"Kyankwanzi","localName":"Kyankwanzi","labelEnglish":"Kyankwanzi","labelLocal":"Kyankwanzi","labelBoth":"Kyankwanzi","type":"District","iso":"UG-123","qid":"Q534203"},"geometry":{"type":"Point","coordinates":[31.6487,1.14122]}},{"type":"Feature","id":"UGA-3066","properties":{"kind":"division","code":"UGA-3066","countryCode":"UGA","name":"Kaberamaido","localName":"Kaberamaido","labelEnglish":"Kaberamaido","labelLocal":"Kaberamaido","labelBoth":"Kaberamaido","type":"District","iso":"UG-213","qid":"Q1229906"},"geometry":{"type":"Polygon","coordinates":[[[32.9642,1.4736],[33.208,1.3689],[33.3542,1.7168],[33.4438,1.8874],[33.3712,2.0193],[33.2912,2.0395],[32.9893,1.7155],[32.9642,1.4736]]]}},{"type":"Feature","id":"label-UGA-3066","properties":{"kind":"division-label","code":"UGA-3066","countryCode":"UGA","name":"Kaberamaido","localName":"Kaberamaido","labelEnglish":"Kaberamaido","labelLocal":"Kaberamaido","labelBoth":"Kaberamaido","type":"District","iso":"UG-213","qid":"Q1229906"},"geometry":{"type":"Point","coordinates":[33.2,1.66885]}},{"type":"Feature","id":"UGA-3100","properties":{"kind":"division","code":"UGA-3100","countryCode":"UGA","name":"Dokolo","localName":"Dokolo","labelEnglish":"Dokolo","labelLocal":"Dokolo","labelBoth":"Dokolo","type":"County","iso":"UG-318","qid":"Q1318872"},"geometry":{"type":"Polygon","coordinates":[[[32.8881,2.0747],[32.9893,1.7155],[33.2912,2.0395],[33.0859,2.0663],[32.8881,2.0747]]]}},{"type":"Feature","id":"label-UGA-3100","properties":{"kind":"division-label","code":"UGA-3100","countryCode":"UGA","name":"Dokolo","localName":"Dokolo","labelEnglish":"Dokolo","labelLocal":"Dokolo","labelBoth":"Dokolo","type":"County","iso":"UG-318","qid":"Q1318872"},"geometry":{"type":"Point","coordinates":[33.0778,1.88125]}},{"type":"Feature","id":"UGA-3107","properties":{"kind":"division","code":"UGA-3107","countryCode":"UGA","name":"Kyenjojo","localName":"Kyenjojo","labelEnglish":"Kyenjojo","labelLocal":"Kyenjojo","labelBoth":"Kyenjojo","type":"District","iso":"UG-415","qid":"Q1318815"},"geometry":{"type":"Polygon","coordinates":[[[30.5454,0.9295],[30.4281,0.5412],[30.5504,0.2975],[30.8837,0.4143],[30.9373,0.6978],[30.5454,0.9295]]]}},{"type":"Feature","id":"label-UGA-3107","properties":{"kind":"division-label","code":"UGA-3107","countryCode":"UGA","name":"Kyenjojo","localName":"Kyenjojo","labelEnglish":"Kyenjojo","labelLocal":"Kyenjojo","labelBoth":"Kyenjojo","type":"District","iso":"UG-415","qid":"Q1318815"},"geometry":{"type":"Point","coordinates":[30.6742,0.599223]}},{"type":"Feature","id":"UGA-3368","properties":{"kind":"division","code":"UGA-3368","countryCode":"UGA","name":"Kamwenge","localName":"Kamwenge","labelEnglish":"Kamwenge","labelLocal":"Kamwenge","labelBoth":"Kamwenge","type":"District","iso":"UG-413","qid":"Q1318806"},"geometry":{"type":"Polygon","coordinates":[[[30.4281,0.5412],[30.2687,0.2635],[30.2066,-0.0793],[30.2497,-0.1199],[30.4165,-0.1728],[30.4749,0.1004],[30.6441,0.1634],[30.8528,0.1858],[30.8837,0.4143],[30.5504,0.2975],[30.4281,0.5412]]]}},{"type":"Feature","id":"label-UGA-3368","properties":{"kind":"division-label","code":"UGA-3368","countryCode":"UGA","name":"Kamwenge","localName":"Kamwenge","labelEnglish":"Kamwenge","labelLocal":"Kamwenge","labelBoth":"Kamwenge","type":"District","iso":"UG-413","qid":"Q1318806"},"geometry":{"type":"Point","coordinates":[30.5053,0.212247]}},{"type":"Feature","id":"UGA-5611","properties":{"kind":"division","code":"UGA-5611","countryCode":"UGA","name":"Kyegegwa","localName":"Kyegegwa","labelEnglish":"Kyegegwa","labelLocal":"Kyegegwa","labelBoth":"Kyegegwa","type":"District","iso":"UG-421","qid":"Q3539256"},"geometry":{"type":"Polygon","coordinates":[[[31.0088,0.2067],[31.2144,0.6224],[30.9373,0.6978],[30.8837,0.4143],[30.8528,0.1858],[31.0007,0.2023],[31.0088,0.2067]]]}},{"type":"Feature","id":"label-UGA-5611","properties":{"kind":"division-label","code":"UGA-5611","countryCode":"UGA","name":"Kyegegwa","localName":"Kyegegwa","labelEnglish":"Kyegegwa","labelLocal":"Kyegegwa","labelBoth":"Kyegegwa","type":"District","iso":"UG-421","qid":"Q3539256"},"geometry":{"type":"Point","coordinates":[31.023,0.463663]}},{"type":"Feature","id":"UGA-3077","properties":{"kind":"division","code":"UGA-3077","countryCode":"UGA","name":"Sembabule","localName":"Sembabule","labelEnglish":"Sembabule","labelLocal":"Sembabule","labelBoth":"Sembabule","type":"District","iso":"UG-111","qid":"Q976883"},"geometry":{"type":"Polygon","coordinates":[[[31.0007,0.2023],[31.0776,-0.0444],[31.309,-0.1004],[31.2782,-0.2609],[31.6072,-0.2622],[31.5918,0.0494],[31.3348,0.2006],[31.0088,0.2067],[31.0007,0.2023]]]}},{"type":"Feature","id":"label-UGA-3077","properties":{"kind":"division-label","code":"UGA-3077","countryCode":"UGA","name":"Sembabule","localName":"Sembabule","labelEnglish":"Sembabule","labelLocal":"Sembabule","labelBoth":"Sembabule","type":"District","iso":"UG-111","qid":"Q976883"},"geometry":{"type":"Point","coordinates":[31.3783,0.0246698]}},{"type":"Feature","id":"UGA-3108","properties":{"kind":"division","code":"UGA-3108","countryCode":"UGA","name":"Kibaale","localName":"Kibaale","labelEnglish":"Kibaale","labelLocal":"Kibaale","labelBoth":"Kibaale","type":"District","iso":"UG-407","qid":"Q604966"},"geometry":{"type":"Polygon","coordinates":[[[31.4381,0.8615],[31.5213,1.0274],[31.2905,1.2135],[30.5481,1.0742],[30.5272,0.9859],[30.5454,0.9295],[30.9373,0.6978],[31.2144,0.6224],[31.4381,0.8615]]]}},{"type":"Feature","id":"label-UGA-3108","properties":{"kind":"division-label","code":"UGA-3108","countryCode":"UGA","name":"Kibaale","localName":"Kibaale","labelEnglish":"Kibaale","labelLocal":"Kibaale","labelBoth":"Kibaale","type":"District","iso":"UG-407","qid":"Q604966"},"geometry":{"type":"Point","coordinates":[31.0242,0.903428]}},{"type":"Feature","id":"UGA-3093","properties":{"kind":"division","code":"UGA-3093","countryCode":"UGA","name":"Mubende","localName":"Mubende","labelEnglish":"Mubende","labelLocal":"Mubende","labelBoth":"Mubende","type":"District","iso":"UG-107","qid":"Q891962"},"geometry":{"type":"Polygon","coordinates":[[[31.4381,0.8615],[31.2144,0.6224],[31.0088,0.2067],[31.3348,0.2006],[31.575,0.3376],[31.8214,0.283],[31.9488,0.2957],[31.9534,0.6485],[31.6747,0.8661],[31.4381,0.8615]]]}},{"type":"Feature","id":"label-UGA-3093","properties":{"kind":"division-label","code":"UGA-3093","countryCode":"UGA","name":"Mubende","localName":"Mubende","labelEnglish":"Mubende","labelLocal":"Mubende","labelBoth":"Mubende","type":"District","iso":"UG-107","qid":"Q891962"},"geometry":{"type":"Point","coordinates":[31.4889,0.58882]}},{"type":"Feature","id":"UGA-3103","properties":{"kind":"division","code":"UGA-3103","countryCode":"UGA","name":"Oyam","localName":"Oyam","labelEnglish":"Oyam","labelLocal":"Oyam","labelBoth":"Oyam","type":"County","iso":"UG-321","qid":"Q1318833"},"geometry":{"type":"Polygon","coordinates":[[[32.8111,2.4749],[32.7753,2.5786],[32.6637,2.6038],[32.3624,2.4696],[32.2601,2.2568],[32.3468,2.0727],[32.5497,2.1803],[32.5817,2.3637],[32.8111,2.4749]]]}},{"type":"Feature","id":"label-UGA-3103","properties":{"kind":"division-label","code":"UGA-3103","countryCode":"UGA","name":"Oyam","localName":"Oyam","labelEnglish":"Oyam","labelLocal":"Oyam","labelBoth":"Oyam","type":"County","iso":"UG-321","qid":"Q1318833"},"geometry":{"type":"Point","coordinates":[32.5298,2.37882]}},{"type":"Feature","id":"UGA-3099","properties":{"kind":"division","code":"UGA-3099","countryCode":"UGA","name":"Lira","localName":"Lira","labelEnglish":"Lira","labelLocal":"Lira","labelBoth":"Lira","type":"District","iso":"UG-307","qid":"Q206519"},"geometry":{"type":"Polygon","coordinates":[[[32.8111,2.4749],[32.8128,2.1067],[32.8881,2.0747],[33.0859,2.0663],[32.8894,2.354],[32.9654,2.4534],[33.0147,2.5332],[32.7753,2.5786],[32.8111,2.4749]]]}},{"type":"Feature","id":"label-UGA-3099","properties":{"kind":"division-label","code":"UGA-3099","countryCode":"UGA","name":"Lira","localName":"Lira","labelEnglish":"Lira","labelLocal":"Lira","labelBoth":"Lira","type":"District","iso":"UG-307","qid":"Q206519"},"geometry":{"type":"Point","coordinates":[32.9139,2.23366]}},{"type":"Feature","id":"UGA-5605","properties":{"kind":"division","code":"UGA-5605","countryCode":"UGA","name":"Kole","localName":"Kole","labelEnglish":"Kole","labelLocal":"Kole","labelBoth":"Kole","type":"District","iso":"UG-326","qid":"Q3539151"},"geometry":{"type":"Polygon","coordinates":[[[32.8111,2.4749],[32.5817,2.3637],[32.5497,2.1803],[32.8128,2.1067],[32.8111,2.4749]]]}},{"type":"Feature","id":"label-UGA-5605","properties":{"kind":"division-label","code":"UGA-5605","countryCode":"UGA","name":"Kole","localName":"Kole","labelEnglish":"Kole","labelLocal":"Kole","labelBoth":"Kole","type":"District","iso":"UG-326","qid":"Q3539151"},"geometry":{"type":"Point","coordinates":[32.6929,2.28756]}},{"type":"Feature","id":"UGA-3101","properties":{"kind":"division","code":"UGA-3101","countryCode":"UGA","name":"Pader","localName":"Pader","labelEnglish":"Pader","labelLocal":"Pader","labelBoth":"Pader","type":"District","iso":"UG-312","qid":"Q1230035"},"geometry":{"type":"Polygon","coordinates":[[[32.7753,2.5786],[33.0147,2.5332],[33.1287,2.6118],[33.1554,3.0177],[32.7828,3.1799],[32.5152,3.1358],[32.7324,2.7321],[32.6637,2.6038],[32.7753,2.5786]]]}},{"type":"Feature","id":"label-UGA-3101","properties":{"kind":"division-label","code":"UGA-3101","countryCode":"UGA","name":"Pader","localName":"Pader","labelEnglish":"Pader","labelLocal":"Pader","labelBoth":"Pader","type":"District","iso":"UG-312","qid":"Q1230035"},"geometry":{"type":"Point","coordinates":[32.8933,2.87543]}},{"type":"Feature","id":"UGA-3369","properties":{"kind":"division","code":"UGA-3369","countryCode":"UGA","name":"Ibanda","localName":"Ibanda","labelEnglish":"Ibanda","labelLocal":"Ibanda","labelBoth":"Ibanda","type":"County","iso":"UG-416","qid":"Q1318877"},"geometry":{"type":"Polygon","coordinates":[[[30.6215,-0.2272],[30.7344,0.1202],[30.6441,0.1634],[30.4749,0.1004],[30.4165,-0.1728],[30.2497,-0.1199],[30.3234,-0.2116],[30.5036,-0.2559],[30.6215,-0.2272]]]}},{"type":"Feature","id":"label-UGA-3369","properties":{"kind":"division-label","code":"UGA-3369","countryCode":"UGA","name":"Ibanda","localName":"Ibanda","labelEnglish":"Ibanda","labelLocal":"Ibanda","labelBoth":"Ibanda","type":"County","iso":"UG-416","qid":"Q1318877"},"geometry":{"type":"Point","coordinates":[30.4693,-0.0750772]}},{"type":"Feature","id":"UGA-3374","properties":{"kind":"division","code":"UGA-3374","countryCode":"UGA","name":"Mbarara","localName":"Mbarara","labelEnglish":"Mbarara","labelLocal":"Mbarara","labelBoth":"Mbarara","type":"County","iso":"UG-410","qid":"Q1091595"},"geometry":{"type":"Polygon","coordinates":[[[30.5036,-0.2559],[30.47,-0.446],[30.2727,-0.7549],[30.59,-0.8057],[30.7652,-0.605],[30.6215,-0.2272],[30.5036,-0.2559]]]}},{"type":"Feature","id":"label-UGA-3374","properties":{"kind":"division-label","code":"UGA-3374","countryCode":"UGA","name":"Mbarara","localName":"Mbarara","labelEnglish":"Mbarara","labelLocal":"Mbarara","labelBoth":"Mbarara","type":"County","iso":"UG-410","qid":"Q1091595"},"geometry":{"type":"Point","coordinates":[30.5341,-0.534736]}},{"type":"Feature","id":"UGA-3098","properties":{"kind":"division","code":"UGA-3098","countryCode":"UGA","name":"Gulu","localName":"Gulu","labelEnglish":"Gulu","labelLocal":"Gulu","labelBoth":"Gulu","type":"County","iso":"UG-304","qid":"Q1028215"},"geometry":{"type":"Polygon","coordinates":[[[32.5152,3.1358],[32.3574,3.2867],[32.1787,3.0532],[32.2011,2.7295],[32.3624,2.4696],[32.6637,2.6038],[32.7324,2.7321],[32.5152,3.1358]]]}},{"type":"Feature","id":"label-UGA-3098","properties":{"kind":"division-label","code":"UGA-3098","countryCode":"UGA","name":"Gulu","localName":"Gulu","labelEnglish":"Gulu","labelLocal":"Gulu","labelBoth":"Gulu","type":"County","iso":"UG-304","qid":"Q1028215"},"geometry":{"type":"Point","coordinates":[32.463,2.87081]}},{"type":"Feature","id":"UGA-5609","properties":{"kind":"division","code":"UGA-5609","countryCode":"UGA","name":"Kiryandongo","localName":"Kiryandongo","labelEnglish":"Kiryandongo","labelLocal":"Kiryandongo","labelBoth":"Kiryandongo","type":"District","iso":"UG-420","qid":"Q3539116"},"geometry":{"type":"Polygon","coordinates":[[[32.3468,2.0727],[32.2601,2.2568],[31.9198,2.3597],[31.7554,2.2983],[31.9044,1.6907],[32.1015,1.6656],[32.3415,1.8679],[32.3468,2.0727]]]}},{"type":"Feature","id":"label-UGA-5609","properties":{"kind":"division-label","code":"UGA-5609","countryCode":"UGA","name":"Kiryandongo","localName":"Kiryandongo","labelEnglish":"Kiryandongo","labelLocal":"Kiryandongo","labelBoth":"Kiryandongo","type":"District","iso":"UG-420","qid":"Q3539116"},"geometry":{"type":"Point","coordinates":[32.0563,2.02863]}},{"type":"Feature","id":"UGA-3068","properties":{"kind":"division","code":"UGA-3068","countryCode":"UGA","name":"Iganga","localName":"Iganga","labelEnglish":"Iganga","labelLocal":"Iganga","labelBoth":"Iganga","type":"District","iso":"UG-203","qid":"Q1229869"},"geometry":{"type":"Polygon","coordinates":[[[33.5657,0.4507],[33.6088,0.4422],[33.6305,0.7329],[33.5318,0.8809],[33.4273,0.8714],[33.5171,0.5475],[33.5657,0.4507]]]}},{"type":"Feature","id":"label-UGA-3068","properties":{"kind":"division-label","code":"UGA-3068","countryCode":"UGA","name":"Iganga","localName":"Iganga","labelEnglish":"Iganga","labelLocal":"Iganga","labelBoth":"Iganga","type":"District","iso":"UG-203","qid":"Q1229869"},"geometry":{"type":"Point","coordinates":[33.5689,0.699847]}},{"type":"Feature","id":"UGA-5617","properties":{"kind":"division","code":"UGA-5617","countryCode":"UGA","name":"Lwengo","localName":"Lwengo","labelEnglish":"Lwengo","labelLocal":"Lwengo","labelBoth":"Lwengo","type":"District","iso":"UG-124","qid":"Q1114954"},"geometry":{"type":"Polygon","coordinates":[[[31.2782,-0.2609],[31.237,-0.4641],[31.4592,-0.6037],[31.6215,-0.47],[31.7211,-0.2622],[31.6072,-0.2622],[31.2782,-0.2609]]]}},{"type":"Feature","id":"label-UGA-5617","properties":{"kind":"division-label","code":"UGA-5617","countryCode":"UGA","name":"Lwengo","localName":"Lwengo","labelEnglish":"Lwengo","labelLocal":"Lwengo","labelBoth":"Lwengo","type":"District","iso":"UG-124","qid":"Q1114954"},"geometry":{"type":"Point","coordinates":[31.433,-0.421045]}},{"type":"Feature","id":"UGA-5619","properties":{"kind":"division","code":"UGA-5619","countryCode":"UGA","name":"Bukomansimbi","localName":"Bukomansimbi","labelEnglish":"Bukomansimbi","labelLocal":"Bukomansimbi","labelBoth":"Bukomansimbi","type":"District","iso":"UG-118","qid":"Q3321599"},"geometry":{"type":"Polygon","coordinates":[[[31.6072,-0.2622],[31.7211,-0.2622],[31.6488,0.0471],[31.5918,0.0494],[31.6072,-0.2622]]]}},{"type":"Feature","id":"label-UGA-5619","properties":{"kind":"division-label","code":"UGA-5619","countryCode":"UGA","name":"Bukomansimbi","localName":"Bukomansimbi","labelEnglish":"Bukomansimbi","labelLocal":"Bukomansimbi","labelBoth":"Bukomansimbi","type":"District","iso":"UG-118","qid":"Q3321599"},"geometry":{"type":"Point","coordinates":[31.6487,-0.114634]}},{"type":"Feature","id":"UGA-5620","properties":{"kind":"division","code":"UGA-5620","countryCode":"UGA","name":"Kalungu","localName":"Kalungu","labelEnglish":"Kalungu","labelLocal":"Kalungu","labelBoth":"Kalungu","type":"District","iso":"UG-122","qid":"Q3321614"},"geometry":{"type":"Polygon","coordinates":[[[31.8558,-0.0074],[31.7935,0.0501],[31.6488,0.0471],[31.7211,-0.2622],[31.9745,-0.2304],[31.9357,-0.1268],[31.8558,-0.0074]]]}},{"type":"Feature","id":"label-UGA-5620","properties":{"kind":"division-label","code":"UGA-5620","countryCode":"UGA","name":"Kalungu","localName":"Kalungu","labelEnglish":"Kalungu","labelLocal":"Kalungu","labelBoth":"Kalungu","type":"District","iso":"UG-122","qid":"Q3321614"},"geometry":{"type":"Point","coordinates":[31.8386,-0.15779]}},{"type":"Feature","id":"UGA-3088","properties":{"kind":"division","code":"UGA-3088","countryCode":"UGA","name":"Kampala","localName":"Kampala","labelEnglish":"Kampala","labelLocal":"Kampala","labelBoth":"Kampala","type":"District","iso":"UG-102","qid":"Q926417"},"geometry":{"type":"Polygon","coordinates":[[[32.6595,0.5037],[32.5473,0.2737],[32.6642,0.2876],[32.6595,0.5037]]]}},{"type":"Feature","id":"label-UGA-3088","properties":{"kind":"division-label","code":"UGA-3088","countryCode":"UGA","name":"Kampala","localName":"Kampala","labelEnglish":"Kampala","labelLocal":"Kampala","labelBoth":"Kampala","type":"District","iso":"UG-102","qid":"Q926417"},"geometry":{"type":"Point","coordinates":[32.6048,0.360019]}},{"type":"Feature","id":"UGA-3071","properties":{"kind":"division","code":"UGA-3071","countryCode":"UGA","name":"Kaliro","localName":"Kaliro","labelEnglish":"Kaliro","labelLocal":"Kaliro","labelBoth":"Kaliro","type":"County","iso":"UG-220","qid":"Q1375859"},"geometry":{"type":"Polygon","coordinates":[[[33.5318,0.8809],[33.6329,1.0876],[33.4425,1.2876],[33.3388,1.0793],[33.4273,0.8714],[33.5318,0.8809]]]}},{"type":"Feature","id":"label-UGA-3071","properties":{"kind":"division-label","code":"UGA-3071","countryCode":"UGA","name":"Kaliro","localName":"Kaliro","labelEnglish":"Kaliro","labelLocal":"Kaliro","labelBoth":"Kaliro","type":"County","iso":"UG-220","qid":"Q1375859"},"geometry":{"type":"Point","coordinates":[33.4858,1.05681]}},{"type":"Feature","id":"UGA-5608","properties":{"kind":"division","code":"UGA-5608","countryCode":"UGA","name":"Agago","localName":"Agago","labelEnglish":"Agago","labelLocal":"Agago","labelBoth":"Agago","type":"District","iso":"UG-322","qid":"Q3536053"},"geometry":{"type":"Polygon","coordinates":[[[33.55,3.2687],[33.3893,3.2995],[33.1554,3.0177],[33.1287,2.6118],[33.5342,2.5964],[33.6038,2.7833],[33.555,3.1957],[33.55,3.2687]]]}},{"type":"Feature","id":"label-UGA-5608","properties":{"kind":"division-label","code":"UGA-5608","countryCode":"UGA","name":"Agago","localName":"Agago","labelEnglish":"Agago","labelLocal":"Agago","labelBoth":"Agago","type":"District","iso":"UG-322","qid":"Q3536053"},"geometry":{"type":"Point","coordinates":[33.3941,2.89176]}},{"type":"Feature","id":"UGA-3123","properties":{"kind":"division","code":"UGA-3123","countryCode":"UGA","name":"Kotido","localName":"Kotido","labelEnglish":"Kotido","labelLocal":"Kotido","labelBoth":"Kotido","type":"County","iso":"UG-306","qid":"Q1318843"},"geometry":{"type":"Polygon","coordinates":[[[33.555,3.1957],[33.8424,2.9329],[33.9506,2.6169],[34.2517,2.8328],[34.3863,3.0817],[33.7434,3.3531],[33.55,3.2687],[33.555,3.1957]]]}},{"type":"Feature","id":"label-UGA-3123","properties":{"kind":"division-label","code":"UGA-3123","countryCode":"UGA","name":"Kotido","localName":"Kotido","labelEnglish":"Kotido","labelLocal":"Kotido","labelBoth":"Kotido","type":"County","iso":"UG-306","qid":"Q1318843"},"geometry":{"type":"Point","coordinates":[33.9681,2.9427]}},{"type":"Feature","id":"UGA-3126","properties":{"kind":"division","code":"UGA-3126","countryCode":"UGA","name":"Abim","localName":"Abim","labelEnglish":"Abim","labelLocal":"Abim","labelBoth":"Abim","type":"County","iso":"UG-317","qid":"Q1375780"},"geometry":{"type":"Polygon","coordinates":[[[33.555,3.1957],[33.6038,2.7833],[33.5342,2.5964],[33.6512,2.4564],[34.0061,2.5024],[33.9506,2.6169],[33.8424,2.9329],[33.555,3.1957]]]}},{"type":"Feature","id":"label-UGA-3126","properties":{"kind":"division-label","code":"UGA-3126","countryCode":"UGA","name":"Abim","localName":"Abim","labelEnglish":"Abim","labelLocal":"Abim","labelBoth":"Abim","type":"County","iso":"UG-317","qid":"Q1375780"},"geometry":{"type":"Point","coordinates":[33.7723,2.70787]}},{"type":"Feature","id":"UGA-5607","properties":{"kind":"division","code":"UGA-5607","countryCode":"UGA","name":"Otuke","localName":"Otuke","labelEnglish":"Otuke","labelLocal":"Otuke","labelBoth":"Otuke","type":"District","iso":"UG-330","qid":"Q3539602"},"geometry":{"type":"Polygon","coordinates":[[[33.0147,2.5332],[32.9654,2.4534],[33.5461,2.3559],[33.6378,2.3604],[33.6512,2.4564],[33.5342,2.5964],[33.1287,2.6118],[33.0147,2.5332]]]}},{"type":"Feature","id":"label-UGA-5607","properties":{"kind":"division-label","code":"UGA-5607","countryCode":"UGA","name":"Otuke","localName":"Otuke","labelEnglish":"Otuke","labelLocal":"Otuke","labelBoth":"Otuke","type":"District","iso":"UG-330","qid":"Q3539602"},"geometry":{"type":"Point","coordinates":[33.3294,2.47637]}},{"type":"Feature","id":"UGA-5606","properties":{"kind":"division","code":"UGA-5606","countryCode":"UGA","name":"Alebtong","localName":"Alebtong","labelEnglish":"Alebtong","labelLocal":"Alebtong","labelBoth":"Alebtong","type":"District","iso":"UG-323","qid":"Q3536082"},"geometry":{"type":"Polygon","coordinates":[[[33.3712,2.0193],[33.5461,2.3559],[32.9654,2.4534],[32.8894,2.354],[33.0859,2.0663],[33.2912,2.0395],[33.3712,2.0193]]]}},{"type":"Feature","id":"label-UGA-5606","properties":{"kind":"division-label","code":"UGA-5606","countryCode":"UGA","name":"Alebtong","localName":"Alebtong","labelEnglish":"Alebtong","labelLocal":"Alebtong","labelBoth":"Alebtong","type":"District","iso":"UG-323","qid":"Q3536082"},"geometry":{"type":"Point","coordinates":[33.2107,2.27138]}},{"type":"Feature","id":"UGA-3124","properties":{"kind":"division","code":"UGA-3124","countryCode":"UGA","name":"Amuria","localName":"Amuria","labelEnglish":"Amuria","labelLocal":"Amuria","labelBoth":"Amuria","type":"District","iso":"UG-216","qid":"Q1375762"},"geometry":{"type":"Polygon","coordinates":[[[33.4438,1.8874],[33.5309,2.0129],[33.809,1.7083],[33.9057,2.3043],[33.6378,2.3604],[33.5461,2.3559],[33.3712,2.0193],[33.4438,1.8874]]]}},{"type":"Feature","id":"label-UGA-3124","properties":{"kind":"division-label","code":"UGA-3124","countryCode":"UGA","name":"Amuria","localName":"Amuria","labelEnglish":"Amuria","labelLocal":"Amuria","labelBoth":"Amuria","type":"District","iso":"UG-216","qid":"Q1375762"},"geometry":{"type":"Point","coordinates":[33.6359,2.141]}},{"type":"Feature","id":"UGA-3122","properties":{"kind":"division","code":"UGA-3122","countryCode":"UGA","name":"Katakwi","localName":"Katakwi","labelEnglish":"Katakwi","labelLocal":"Katakwi","labelBoth":"Katakwi","type":"County","iso":"UG-207","qid":"Q1229930"},"geometry":{"type":"Polygon","coordinates":[[[33.809,1.7083],[33.8106,1.6683],[33.8958,1.6385],[34.2117,1.6313],[34.2118,1.9546],[34.2029,2.1114],[33.9057,2.3043],[33.809,1.7083]]]}},{"type":"Feature","id":"label-UGA-3122","properties":{"kind":"division-label","code":"UGA-3122","countryCode":"UGA","name":"Katakwi","localName":"Katakwi","labelEnglish":"Katakwi","labelLocal":"Katakwi","labelBoth":"Katakwi","type":"County","iso":"UG-207","qid":"Q1229930"},"geometry":{"type":"Point","coordinates":[34.0087,1.93889]}},{"type":"Feature","id":"UGA-5596","properties":{"kind":"division","code":"UGA-5596","countryCode":"UGA","name":"Serere","localName":"Serere","labelEnglish":"Serere","labelLocal":"Serere","labelBoth":"Serere","type":"District","iso":"UG-232","qid":"Q1114927"},"geometry":{"type":"Polygon","coordinates":[[[33.405,1.3355],[33.5593,1.3301],[33.7154,1.5917],[33.3542,1.7168],[33.208,1.3689],[33.405,1.3355]]]}},{"type":"Feature","id":"label-UGA-5596","properties":{"kind":"division-label","code":"UGA-5596","countryCode":"UGA","name":"Serere","localName":"Serere","labelEnglish":"Serere","labelLocal":"Serere","labelBoth":"Serere","type":"District","iso":"UG-232","qid":"Q1114927"},"geometry":{"type":"Point","coordinates":[33.4424,1.50212]}},{"type":"Feature","id":"UGA-3074","properties":{"kind":"division","code":"UGA-3074","countryCode":"UGA","name":"Soroti","localName":"Soroti","labelEnglish":"Soroti","labelLocal":"Soroti","labelBoth":"Soroti","type":"District","iso":"UG-211","qid":"Q1091337"},"geometry":{"type":"Polygon","coordinates":[[[33.3542,1.7168],[33.7154,1.5917],[33.8106,1.6683],[33.809,1.7083],[33.5309,2.0129],[33.4438,1.8874],[33.3542,1.7168]]]}},{"type":"Feature","id":"label-UGA-3074","properties":{"kind":"division-label","code":"UGA-3074","countryCode":"UGA","name":"Soroti","localName":"Soroti","labelEnglish":"Soroti","labelLocal":"Soroti","labelBoth":"Soroti","type":"District","iso":"UG-211","qid":"Q1091337"},"geometry":{"type":"Point","coordinates":[33.5911,1.73376]}},{"type":"Feature","id":"UGA-3076","properties":{"kind":"division","code":"UGA-3076","countryCode":"UGA","name":"Pallisa","localName":"Pallisa","labelEnglish":"Pallisa","labelLocal":"Pallisa","labelBoth":"Pallisa","type":"District","iso":"UG-210","qid":"Q1375843"},"geometry":{"type":"Polygon","coordinates":[[[33.4425,1.2876],[33.6329,1.0876],[33.9038,1.1679],[34.1298,1.1145],[34.1165,1.1779],[33.9266,1.2462],[33.7892,1.3136],[33.5593,1.3301],[33.405,1.3355],[33.4425,1.2876]]]}},{"type":"Feature","id":"label-UGA-3076","properties":{"kind":"division-label","code":"UGA-3076","countryCode":"UGA","name":"Pallisa","localName":"Pallisa","labelEnglish":"Pallisa","labelLocal":"Pallisa","labelBoth":"Pallisa","type":"District","iso":"UG-210","qid":"Q1375843"},"geometry":{"type":"Point","coordinates":[33.688,1.18799]}},{"type":"Feature","id":"UGA-3371","properties":{"kind":"division","code":"UGA-3371","countryCode":"UGA","name":"Mbarara","localName":"Mbarara","labelEnglish":"Mbarara","labelLocal":"Mbarara","labelBoth":"Mbarara","type":"District","iso":"UG-410","qid":"Q1091595"},"geometry":{"type":"Polygon","coordinates":[[[30.6441,0.1634],[30.7344,0.1202],[30.6215,-0.2272],[30.7652,-0.605],[31.0749,-0.6527],[31.1348,-0.5284],[31.0776,-0.0444],[31.0007,0.2023],[30.8528,0.1858],[30.6441,0.1634]]]}},{"type":"Feature","id":"label-UGA-3371","properties":{"kind":"division-label","code":"UGA-3371","countryCode":"UGA","name":"Mbarara","localName":"Mbarara","labelEnglish":"Mbarara","labelLocal":"Mbarara","labelBoth":"Mbarara","type":"District","iso":"UG-410","qid":"Q1091595"},"geometry":{"type":"Point","coordinates":[30.8704,-0.242298]}},{"type":"Feature","id":"UGA-5618","properties":{"kind":"division","code":"UGA-5618","countryCode":"UGA","name":"Lyantonde","localName":"Lyantonde","labelEnglish":"Lyantonde","labelLocal":"Lyantonde","labelBoth":"Lyantonde","type":"District","iso":"UG-116","qid":"Q1375878"},"geometry":{"type":"Polygon","coordinates":[[[31.2782,-0.2609],[31.309,-0.1004],[31.0776,-0.0444],[31.1348,-0.5284],[31.237,-0.4641],[31.2782,-0.2609]]]}},{"type":"Feature","id":"label-UGA-5618","properties":{"kind":"division-label","code":"UGA-5618","countryCode":"UGA","name":"Lyantonde","localName":"Lyantonde","labelEnglish":"Lyantonde","labelLocal":"Lyantonde","labelBoth":"Lyantonde","type":"District","iso":"UG-116","qid":"Q1375878"},"geometry":{"type":"Point","coordinates":[31.1783,-0.269997]}},{"type":"Feature","id":"UGA-3362","properties":{"kind":"division","code":"UGA-3362","countryCode":"UGA","name":"Masaka","localName":"Masaka","labelEnglish":"Masaka","labelLocal":"Masaka","labelBoth":"Masaka","type":"District","iso":"UG-105","qid":"Q1032233"},"geometry":{"type":"Polygon","coordinates":[[[31.6215,-0.47],[31.7519,-0.7319],[31.9862,-0.7739],[31.9745,-0.2304],[31.7211,-0.2622],[31.6215,-0.47]]]}},{"type":"Feature","id":"label-UGA-3362","properties":{"kind":"division-label","code":"UGA-3362","countryCode":"UGA","name":"Masaka","localName":"Masaka","labelEnglish":"Masaka","labelLocal":"Masaka","labelBoth":"Masaka","type":"District","iso":"UG-105","qid":"Q1032233"},"geometry":{"type":"Point","coordinates":[31.8532,-0.43198]}},{"type":"Feature","id":"UGA-3075","properties":{"kind":"division","code":"UGA-3075","countryCode":"UGA","name":"Mukono","localName":"Mukono","labelEnglish":"Mukono","labelLocal":"Mukono","labelBoth":"Mukono","type":"District","iso":"UG-108","qid":"Q1151066"},"geometry":{"type":"Polygon","coordinates":[[[32.7927,0.8453],[32.6702,0.5565],[32.6595,0.5037],[32.6642,0.2876],[32.4931,-0.1631],[32.605,-0.1631],[33.0205,0.36],[33.0316,0.587],[32.7927,0.8453]]]}},{"type":"Feature","id":"label-UGA-3075","properties":{"kind":"division-label","code":"UGA-3075","countryCode":"UGA","name":"Mukono","localName":"Mukono","labelEnglish":"Mukono","labelLocal":"Mukono","labelBoth":"Mukono","type":"District","iso":"UG-108","qid":"Q1151066"},"geometry":{"type":"Point","coordinates":[32.8051,0.304604]}},{"type":"Feature","id":"UGA-5597","properties":{"kind":"division","code":"UGA-5597","countryCode":"UGA","name":"Buikwe","localName":"Buikwe","labelEnglish":"Buikwe","labelLocal":"Buikwe","labelBoth":"Buikwe","type":"District","iso":"UG-117","qid":"Q3321631"},"geometry":{"type":"Polygon","coordinates":[[[33.0316,0.587],[33.0205,0.36],[32.605,-0.1631],[32.8472,-0.1631],[32.8472,-0.4621],[33.0783,0.091],[33.2729,0.3502],[33.0986,0.5442],[33.0316,0.587]]]}},{"type":"Feature","id":"label-UGA-5597","properties":{"kind":"division-label","code":"UGA-5597","countryCode":"UGA","name":"Buikwe","localName":"Buikwe","labelEnglish":"Buikwe","labelLocal":"Buikwe","labelBoth":"Buikwe","type":"District","iso":"UG-117","qid":"Q3321631"},"geometry":{"type":"Point","coordinates":[33.0039,0.187461]}},{"type":"Feature","id":"UGA-3128","properties":{"kind":"division","code":"UGA-3128","countryCode":"UGA","name":"Nakapiripirit","localName":"Nakapiripirit","labelEnglish":"Nakapiripirit","labelLocal":"Nakapiripirit","labelBoth":"Nakapiripirit","type":"District","iso":"UG-311","qid":"Q1375853"},"geometry":{"type":"Polygon","coordinates":[[[34.3777,1.5572],[34.6373,1.5409],[34.7888,1.6811],[34.8416,2.113],[34.7546,2.4841],[34.6352,2.4778],[34.6304,2.1226],[34.2118,1.9546],[34.2117,1.6313],[34.2297,1.5557],[34.3777,1.5572]]]}},{"type":"Feature","id":"label-UGA-3128","properties":{"kind":"division-label","code":"UGA-3128","countryCode":"UGA","name":"Nakapiripirit","localName":"Nakapiripirit","labelEnglish":"Nakapiripirit","labelLocal":"Nakapiripirit","labelBoth":"Nakapiripirit","type":"District","iso":"UG-311","qid":"Q1375853"},"geometry":{"type":"Point","coordinates":[34.6179,1.76261]}},{"type":"Feature","id":"UGA-5612","properties":{"kind":"division","code":"UGA-5612","countryCode":"UGA","name":"Kween","localName":"Kween","labelEnglish":"Kween","labelLocal":"Kween","labelBoth":"Kween","type":"District","iso":"UG-228","qid":"Q3321998"},"geometry":{"type":"Polygon","coordinates":[[[34.6373,1.5409],[34.3777,1.5572],[34.4332,1.4456],[34.5484,1.2004],[34.7422,1.4194],[34.6373,1.5409]]]}},{"type":"Feature","id":"label-UGA-5612","properties":{"kind":"division-label","code":"UGA-5612","countryCode":"UGA","name":"Kween","localName":"Kween","labelEnglish":"Kween","labelLocal":"Kween","labelBoth":"Kween","type":"District","iso":"UG-228","qid":"Q3321998"},"geometry":{"type":"Point","coordinates":[34.599,1.45896]}},{"type":"Feature","id":"UGA-5624","properties":{"kind":"division","code":"UGA-5624","countryCode":"UGA","name":"Buhweju","localName":"Buhweju","labelEnglish":"Buhweju","labelLocal":"Buhweju","labelBoth":"Buhweju","type":"District","iso":"UG-325","qid":"Q3537661"},"geometry":{"type":"Polygon","coordinates":[[[30.3234,-0.2116],[30.1378,-0.4174],[30.3262,-0.492],[30.47,-0.446],[30.5036,-0.2559],[30.3234,-0.2116]]]}},{"type":"Feature","id":"label-UGA-5624","properties":{"kind":"division-label","code":"UGA-5624","countryCode":"UGA","name":"Buhweju","localName":"Buhweju","labelEnglish":"Buhweju","labelLocal":"Buhweju","labelBoth":"Buhweju","type":"District","iso":"UG-325","qid":"Q3537661"},"geometry":{"type":"Point","coordinates":[30.3282,-0.351995]}},{"type":"Feature","id":"UGA-5623","properties":{"kind":"division","code":"UGA-5623","countryCode":"UGA","name":"Sheema","localName":"Sheema","labelEnglish":"Sheema","labelLocal":"Sheema","labelBoth":"Sheema","type":"District","iso":"UG-425","qid":"Q3539711"},"geometry":{"type":"Polygon","coordinates":[[[30.47,-0.446],[30.3262,-0.492],[30.1653,-0.6333],[30.1873,-0.7248],[30.2727,-0.7549],[30.47,-0.446]]]}},{"type":"Feature","id":"label-UGA-5623","properties":{"kind":"division-label","code":"UGA-5623","countryCode":"UGA","name":"Sheema","localName":"Sheema","labelEnglish":"Sheema","labelLocal":"Sheema","labelBoth":"Sheema","type":"District","iso":"UG-425","qid":"Q3539711"},"geometry":{"type":"Point","coordinates":[30.3454,-0.636828]}},{"type":"Feature","id":"UGA-5622","properties":{"kind":"division","code":"UGA-5622","countryCode":"UGA","name":"Mitooma","localName":"Mitooma","labelEnglish":"Mitooma","labelLocal":"Mitooma","labelBoth":"Mitooma","type":"District","iso":"UG-422","qid":"Q3539414"},"geometry":{"type":"Polygon","coordinates":[[[30.1873,-0.7248],[30.1653,-0.6333],[29.9426,-0.505],[30.0582,-0.76],[30.1873,-0.7248]]]}},{"type":"Feature","id":"label-UGA-5622","properties":{"kind":"division-label","code":"UGA-5622","countryCode":"UGA","name":"Mitooma","localName":"Mitooma","labelEnglish":"Mitooma","labelLocal":"Mitooma","labelBoth":"Mitooma","type":"District","iso":"UG-422","qid":"Q3539414"},"geometry":{"type":"Point","coordinates":[30.0476,-0.636828]}},{"type":"Feature","id":"UGA-3366","properties":{"kind":"division","code":"UGA-3366","countryCode":"UGA","name":"Bushenyi","localName":"Bushenyi","labelEnglish":"Bushenyi","labelLocal":"Bushenyi","labelBoth":"Bushenyi","type":"District","iso":"UG-402","qid":"Q1229797"},"geometry":{"type":"Polygon","coordinates":[[[29.9426,-0.505],[30.1653,-0.6333],[30.3262,-0.492],[30.1378,-0.4174],[29.9141,-0.4017],[29.9426,-0.505]]]}},{"type":"Feature","id":"label-UGA-3366","properties":{"kind":"division-label","code":"UGA-3366","countryCode":"UGA","name":"Bushenyi","localName":"Bushenyi","labelEnglish":"Bushenyi","labelLocal":"Bushenyi","labelBoth":"Bushenyi","type":"District","iso":"UG-402","qid":"Q1229797"},"geometry":{"type":"Point","coordinates":[30.1245,-0.471119]}},{"type":"Feature","id":"UGA-5613","properties":{"kind":"division","code":"UGA-5613","countryCode":"UGA","name":"Bulambuli","localName":"Bulambuli","labelEnglish":"Bulambuli","labelLocal":"Bulambuli","labelBoth":"Bulambuli","type":"County","iso":"UG-225","qid":"Q1114868"},"geometry":{"type":"Polygon","coordinates":[[[34.3777,1.5572],[34.2297,1.5557],[34.2142,1.2416],[34.5242,1.1623],[34.3285,1.3],[34.4332,1.4456],[34.3777,1.5572]]]}},{"type":"Feature","id":"label-UGA-5613","properties":{"kind":"division-label","code":"UGA-5613","countryCode":"UGA","name":"Bulambuli","localName":"Bulambuli","labelEnglish":"Bulambuli","labelLocal":"Bulambuli","labelBoth":"Bulambuli","type":"County","iso":"UG-225","qid":"Q1114868"},"geometry":{"type":"Point","coordinates":[34.2883,1.29497]}},{"type":"Feature","id":"UGA-3114","properties":{"kind":"division","code":"UGA-3114","countryCode":"UGA","name":"Sironko","localName":"Sironko","labelEnglish":"Sironko","labelLocal":"Sironko","labelBoth":"Sironko","type":"County","iso":"UG-215","qid":"Q1375835"},"geometry":{"type":"Polygon","coordinates":[[[34.3571,1.0864],[34.5075,1.1025],[34.5242,1.1623],[34.2142,1.2416],[34.1569,1.1632],[34.3571,1.0864]]]}},{"type":"Feature","id":"label-UGA-3114","properties":{"kind":"division-label","code":"UGA-3114","countryCode":"UGA","name":"Sironko","localName":"Sironko","labelEnglish":"Sironko","labelLocal":"Sironko","labelBoth":"Sironko","type":"County","iso":"UG-215","qid":"Q1375835"},"geometry":{"type":"Point","coordinates":[34.3234,1.15945]}},{"type":"Feature","id":"UGA-3117","properties":{"kind":"division","code":"UGA-3117","countryCode":"UGA","name":"Bugiri","localName":"Bugiri","labelEnglish":"Bugiri","labelLocal":"Bugiri","labelBoth":"Bugiri","type":"District","iso":"UG-201","qid":"Q1229798"},"geometry":{"type":"Polygon","coordinates":[[[33.6305,0.7329],[33.6088,0.4422],[33.6847,0.3217],[33.8925,0.4739],[33.9571,0.5642],[33.8651,0.6846],[33.8374,0.6896],[33.6305,0.7329]]]}},{"type":"Feature","id":"label-UGA-3117","properties":{"kind":"division-label","code":"UGA-3117","countryCode":"UGA","name":"Bugiri","localName":"Bugiri","labelEnglish":"Bugiri","labelLocal":"Bugiri","labelBoth":"Bugiri","type":"District","iso":"UG-201","qid":"Q1229798"},"geometry":{"type":"Point","coordinates":[33.7627,0.536737]}},{"type":"Feature","id":"UGA-5625","properties":{"kind":"division","code":"UGA-5625","countryCode":"UGA","name":"Nwoya","localName":"Nwoya","labelEnglish":"Nwoya","labelLocal":"Nwoya","labelBoth":"Nwoya","type":"District","iso":"UG-329","qid":"Q3539572"},"geometry":{"type":"Polygon","coordinates":[[[32.3624,2.4696],[32.2011,2.7295],[31.7474,2.7968],[31.4235,2.6173],[31.5247,2.5092],[31.3457,2.1796],[31.5459,2.2778],[31.7554,2.2983],[31.9198,2.3597],[32.2601,2.2568],[32.3624,2.4696]]]}},{"type":"Feature","id":"label-UGA-5625","properties":{"kind":"division-label","code":"UGA-5625","countryCode":"UGA","name":"Nwoya","localName":"Nwoya","labelEnglish":"Nwoya","labelLocal":"Nwoya","labelBoth":"Nwoya","type":"District","iso":"UG-329","qid":"Q3539572"},"geometry":{"type":"Point","coordinates":[31.8584,2.57094]}},{"type":"Feature","id":"UGA-3115","properties":{"kind":"division","code":"UGA-3115","countryCode":"UGA","name":"Mbale","localName":"Mbale","labelEnglish":"Mbale","labelLocal":"Mbale","labelBoth":"Mbale","type":"County","iso":"UG-209","qid":"Q581822"},"geometry":{"type":"Polygon","coordinates":[[[34.1298,1.1145],[34.0692,1.034],[34.085,0.9023],[34.1637,0.8281],[34.2636,0.9992],[34.3571,1.0864],[34.1569,1.1632],[34.1165,1.1779],[34.1298,1.1145]]]}},{"type":"Feature","id":"label-UGA-3115","properties":{"kind":"division-label","code":"UGA-3115","countryCode":"UGA","name":"Mbale","localName":"Mbale","labelEnglish":"Mbale","labelLocal":"Mbale","labelBoth":"Mbale","type":"County","iso":"UG-209","qid":"Q581822"},"geometry":{"type":"Point","coordinates":[34.2131,1.03446]}},{"type":"Feature","id":"UGA-5594","properties":{"kind":"division","code":"UGA-5594","countryCode":"UGA","name":"Budaka","localName":"Budaka","labelEnglish":"Budaka","labelLocal":"Budaka","labelBoth":"Budaka","type":"County","iso":"UG-217","qid":"Q1362085"},"geometry":{"type":"Polygon","coordinates":[[[34.1298,1.1145],[33.9038,1.1679],[33.8436,0.939],[34.0692,1.034],[34.1298,1.1145]]]}},{"type":"Feature","id":"label-UGA-5594","properties":{"kind":"division-label","code":"UGA-5594","countryCode":"UGA","name":"Budaka","localName":"Budaka","labelEnglish":"Budaka","labelLocal":"Budaka","labelBoth":"Budaka","type":"County","iso":"UG-217","qid":"Q1362085"},"geometry":{"type":"Point","coordinates":[33.9867,1.09635]}},{"type":"Feature","id":"UGA-3119","properties":{"kind":"division","code":"UGA-3119","countryCode":"UGA","name":"Butaleja","localName":"Butaleja","labelEnglish":"Butaleja","labelLocal":"Butaleja","labelBoth":"Butaleja","type":"County","iso":"UG-219","qid":"Q1375755"},"geometry":{"type":"Polygon","coordinates":[[[34.0692,1.034],[33.8436,0.939],[33.7429,0.9361],[33.8374,0.6896],[33.8651,0.6846],[34.085,0.9023],[34.0692,1.034]]]}},{"type":"Feature","id":"label-UGA-3119","properties":{"kind":"division-label","code":"UGA-3119","countryCode":"UGA","name":"Butaleja","localName":"Butaleja","labelEnglish":"Butaleja","labelLocal":"Butaleja","labelBoth":"Butaleja","type":"County","iso":"UG-219","qid":"Q1375755"},"geometry":{"type":"Point","coordinates":[33.9295,0.881707]}},{"type":"Feature","id":"UGA-5595","properties":{"kind":"division","code":"UGA-5595","countryCode":"UGA","name":"Kibuku","localName":"Kibuku","labelEnglish":"Kibuku","labelLocal":"Kibuku","labelBoth":"Kibuku","type":"County","iso":"UG-227","qid":"Q1114885"},"geometry":{"type":"Polygon","coordinates":[[[33.8436,0.939],[33.9038,1.1679],[33.6329,1.0876],[33.7429,0.9361],[33.8436,0.939]]]}},{"type":"Feature","id":"label-UGA-5595","properties":{"kind":"division-label","code":"UGA-5595","countryCode":"UGA","name":"Kibuku","localName":"Kibuku","labelEnglish":"Kibuku","labelLocal":"Kibuku","labelBoth":"Kibuku","type":"County","iso":"UG-227","qid":"Q1114885"},"geometry":{"type":"Point","coordinates":[33.7704,1.03603]}},{"type":"Feature","id":"UGA-5615","properties":{"kind":"division","code":"UGA-5615","countryCode":"UGA","name":"Napak","localName":"Napak","labelEnglish":"Napak","labelLocal":"Napak","labelBoth":"Napak","type":"District","iso":"UG-328","qid":"Q3539495"},"geometry":{"type":"Polygon","coordinates":[[[34.2517,2.8328],[33.9506,2.6169],[34.0061,2.5024],[33.6512,2.4564],[33.6378,2.3604],[33.9057,2.3043],[34.2029,2.1114],[34.2118,1.9546],[34.6304,2.1226],[34.6352,2.4778],[34.7546,2.4841],[34.4385,2.7753],[34.2517,2.8328]]]}},{"type":"Feature","id":"label-UGA-5615","properties":{"kind":"division-label","code":"UGA-5615","countryCode":"UGA","name":"Napak","localName":"Napak","labelEnglish":"Napak","labelLocal":"Napak","labelBoth":"Napak","type":"District","iso":"UG-328","qid":"Q3539495"},"geometry":{"type":"Point","coordinates":[34.3004,2.42782]}},{"type":"Feature","id":"UGA-3065","properties":{"kind":"division","code":"UGA-3065","countryCode":"UGA","name":"Kumi","localName":"Kumi","labelEnglish":"Kumi","labelLocal":"Kumi","labelBoth":"Kumi","type":"District","iso":"UG-208","qid":"Q1151062"},"geometry":{"type":"Polygon","coordinates":[[[34.2297,1.5557],[34.2117,1.6313],[33.8958,1.6385],[33.7892,1.3136],[33.9266,1.2462],[34.0427,1.495],[34.2297,1.5557]]]}},{"type":"Feature","id":"label-UGA-3065","properties":{"kind":"division-label","code":"UGA-3065","countryCode":"UGA","name":"Kumi","localName":"Kumi","labelEnglish":"Kumi","labelLocal":"Kumi","labelBoth":"Kumi","type":"District","iso":"UG-208","qid":"Q1151062"},"geometry":{"type":"Point","coordinates":[33.9137,1.44461]}},{"type":"Feature","id":"UGA-5590","properties":{"kind":"division","code":"UGA-5590","countryCode":"UGA","name":"Ngora","localName":"Ngora","labelEnglish":"Ngora","labelLocal":"Ngora","labelBoth":"Ngora","type":"District","iso":"UG-231","qid":"Q1114903"},"geometry":{"type":"Polygon","coordinates":[[[33.8106,1.6683],[33.7154,1.5917],[33.5593,1.3301],[33.7892,1.3136],[33.8958,1.6385],[33.8106,1.6683]]]}},{"type":"Feature","id":"label-UGA-5590","properties":{"kind":"division-label","code":"UGA-5590","countryCode":"UGA","name":"Ngora","localName":"Ngora","labelEnglish":"Ngora","labelLocal":"Ngora","labelBoth":"Ngora","type":"District","iso":"UG-231","qid":"Q1114903"},"geometry":{"type":"Point","coordinates":[33.7704,1.51075]}},{"type":"Feature","id":"UGA-5591","properties":{"kind":"division","code":"UGA-5591","countryCode":"UGA","name":"Bukedea","localName":"Bukedea","labelEnglish":"Bukedea","labelLocal":"Bukedea","labelBoth":"Bukedea","type":"District","iso":"UG-224","qid":"Q1375812"},"geometry":{"type":"Polygon","coordinates":[[[34.1165,1.1779],[34.1569,1.1632],[34.2142,1.2416],[34.2297,1.5557],[34.0427,1.495],[33.9266,1.2462],[34.1165,1.1779]]]}},{"type":"Feature","id":"label-UGA-5591","properties":{"kind":"division-label","code":"UGA-5591","countryCode":"UGA","name":"Bukedea","localName":"Bukedea","labelEnglish":"Bukedea","labelLocal":"Bukedea","labelBoth":"Bukedea","type":"District","iso":"UG-224","qid":"Q1375812"},"geometry":{"type":"Point","coordinates":[34.1286,1.34244]}},{"type":"Feature","id":"UGA-3073","properties":{"kind":"division","code":"UGA-3073","countryCode":"UGA","name":"Namutumba","localName":"Namutumba","labelEnglish":"Namutumba","labelLocal":"Namutumba","labelBoth":"Namutumba","type":"County","iso":"UG-222","qid":"Q1375819"},"geometry":{"type":"Polygon","coordinates":[[[33.6305,0.7329],[33.8374,0.6896],[33.7429,0.9361],[33.6329,1.0876],[33.5318,0.8809],[33.6305,0.7329]]]}},{"type":"Feature","id":"label-UGA-3073","properties":{"kind":"division-label","code":"UGA-3073","countryCode":"UGA","name":"Namutumba","localName":"Namutumba","labelEnglish":"Namutumba","labelLocal":"Namutumba","labelBoth":"Namutumba","type":"County","iso":"UG-222","qid":"Q1375819"},"geometry":{"type":"Point","coordinates":[33.6846,0.877569]}}]}