{"type":"FeatureCollection","features":[{"type":"Feature","id":"UKR-285","properties":{"kind":"division","code":"UKR-285","countryCode":"UKR","name":"Chernihiv","localName":"Chernihiv","labelEnglish":"Chernihiv","labelLocal":"Chernihiv","labelBoth":"Chernihiv","type":"Region","iso":"UA-74","qid":"Q167874"},"geometry":{"type":"Polygon","coordinates":[[[31.7643,52.1006],[30.9593,52.0747],[30.5151,51.6037],[30.5547,51.2425],[30.5081,51.0468],[31.0837,50.7687],[31.2752,50.5208],[31.8474,50.6239],[32.1392,50.3501],[32.7273,50.3579],[33.0615,50.5384],[33.2069,51.0484],[32.9445,51.0948],[33.1869,51.5159],[33.062,51.7929],[33.3663,51.9467],[33.4006,52.3443],[32.9269,52.2469],[32.3536,52.3216],[32.2333,52.0809],[31.7643,52.1006]]]}},{"type":"Feature","id":"label-UKR-285","properties":{"kind":"division-label","code":"UKR-285","countryCode":"UKR","name":"Chernihiv","localName":"Chernihiv","labelEnglish":"Chernihiv","labelLocal":"Chernihiv","labelBoth":"Chernihiv","type":"Region","iso":"UA-74","qid":"Q167874"},"geometry":{"type":"Point","coordinates":[32.0287,51.2597]}},{"type":"Feature","id":"UKR-318","properties":{"kind":"division","code":"UKR-318","countryCode":"UKR","name":"Volyn","localName":"Volyn","labelEnglish":"Volyn","labelLocal":"Volyn","labelBoth":"Volyn","type":"Region","iso":"UA-07","qid":"Q167859"},"geometry":{"type":"Polygon","coordinates":[[[25.5474,51.9194],[24.3908,51.88],[23.9813,51.586],[23.6062,51.5174],[23.634,51.3393],[24.1309,50.8391],[24.1082,50.6303],[25.0635,50.2948],[25.3595,50.6779],[25.8365,50.6363],[26.0898,50.976],[26.0564,51.1839],[25.554,51.3575],[25.5474,51.9194]]]}},{"type":"Feature","id":"label-UKR-318","properties":{"kind":"division-label","code":"UKR-318","countryCode":"UKR","name":"Volyn","localName":"Volyn","labelEnglish":"Volyn","labelLocal":"Volyn","labelBoth":"Volyn","type":"Region","iso":"UA-07","qid":"Q167859"},"geometry":{"type":"Point","coordinates":[24.8444,51.1247]}},{"type":"Feature","id":"UKR-286","properties":{"kind":"division","code":"UKR-286","countryCode":"UKR","name":"Rivne","localName":"Rivne","labelEnglish":"Rivne","labelLocal":"Rivne","labelBoth":"Rivne","type":"Region","iso":"UA-56","qid":"Q174187"},"geometry":{"type":"Polygon","coordinates":[[[25.5474,51.9194],[25.554,51.3575],[26.0564,51.1839],[26.0898,50.976],[25.8365,50.6363],[25.3595,50.6779],[25.0635,50.2948],[25.3676,50.0131],[25.9472,50.2645],[26.2332,50.1523],[26.7455,50.4667],[27.1923,50.5412],[27.1982,50.9909],[27.6661,51.4902],[27.5124,51.6231],[26.0808,51.9007],[25.5474,51.9194]]]}},{"type":"Feature","id":"label-UKR-286","properties":{"kind":"division-label","code":"UKR-286","countryCode":"UKR","name":"Rivne","localName":"Rivne","labelEnglish":"Rivne","labelLocal":"Rivne","labelBoth":"Rivne","type":"Region","iso":"UA-56","qid":"Q174187"},"geometry":{"type":"Point","coordinates":[26.3841,51.048]}},{"type":"Feature","id":"UKR-324","properties":{"kind":"division","code":"UKR-324","countryCode":"UKR","name":"Zhytomyr","localName":"Zhytomyr","labelEnglish":"Zhytomyr","labelLocal":"Zhytomyr","labelBoth":"Zhytomyr","type":"Region","iso":"UA-18","qid":"Q40637"},"geometry":{"type":"Polygon","coordinates":[[[29.3533,51.3771],[29.1239,51.625],[28.7288,51.4013],[28.6039,51.5535],[27.8125,51.602],[27.6661,51.4902],[27.1982,50.9909],[27.1923,50.5412],[27.6075,50.2493],[27.5478,50.0075],[27.868,49.7601],[28.7105,49.7936],[28.9096,49.8724],[29.002,49.5905],[29.4472,49.6509],[29.7335,49.9474],[29.6965,50.2578],[29.4794,50.5938],[29.4829,51.0723],[29.3533,51.3771]]]}},{"type":"Feature","id":"label-UKR-324","properties":{"kind":"division-label","code":"UKR-324","countryCode":"UKR","name":"Zhytomyr","localName":"Zhytomyr","labelEnglish":"Zhytomyr","labelLocal":"Zhytomyr","labelBoth":"Zhytomyr","type":"Region","iso":"UA-18","qid":"Q40637"},"geometry":{"type":"Point","coordinates":[28.4643,50.6898]}},{"type":"Feature","id":"UKR-321","properties":{"kind":"division","code":"UKR-321","countryCode":"UKR","name":"Kyiv","localName":"Kyiv","labelEnglish":"Kyiv","labelLocal":"Kyiv","labelBoth":"Kyiv","type":"Region","iso":"UA-32","qid":"Q1899"},"geometry":{"type":"Polygon","coordinates":[[[30.5547,51.2425],[30.1486,51.4844],[29.618,51.4856],[29.3533,51.3771],[29.4829,51.0723],[29.4794,50.5938],[29.6965,50.2578],[29.7335,49.9474],[29.4472,49.6509],[29.6972,49.2273],[30.8682,49.3606],[31.1559,49.5564],[31.212,49.854],[31.7075,49.8467],[32.0695,50.2387],[32.1392,50.3501],[31.8474,50.6239],[31.2752,50.5208],[31.0837,50.7687],[30.5081,51.0468],[30.5547,51.2425]],[[30.7537,50.2892],[30.5856,50.0142],[30.2702,50.6334],[30.6472,50.5752],[30.7537,50.2892]]]}},{"type":"Feature","id":"label-UKR-321","properties":{"kind":"division-label","code":"UKR-321","countryCode":"UKR","name":"Kyiv","localName":"Kyiv","labelEnglish":"Kyiv","labelLocal":"Kyiv","labelBoth":"Kyiv","type":"Region","iso":"UA-32","qid":"Q1899"},"geometry":{"type":"Point","coordinates":[31.0214,50.0894]}},{"type":"Feature","id":"UKR-293","properties":{"kind":"division","code":"UKR-293","countryCode":"UKR","name":"Zakarpattia","localName":"Zakarpattia","labelEnglish":"Zakarpattia","labelLocal":"Zakarpattia","labelBoth":"Zakarpattia","type":"Region","iso":"UA-21","qid":"Q170213"},"geometry":{"type":"Polygon","coordinates":[[[22.1328,48.4048],[22.1583,48.4022],[22.8776,47.9467],[23.1186,48.0915],[23.4855,47.9742],[24.231,47.897],[24.5698,47.9373],[24.4949,48.2666],[24.1446,48.3751],[24.137,48.5275],[23.5329,48.7237],[23.0117,48.8547],[22.865,49.0132],[22.5396,49.0722],[22.3708,48.8582],[22.1328,48.4048]]]}},{"type":"Feature","id":"label-UKR-293","properties":{"kind":"division-label","code":"UKR-293","countryCode":"UKR","name":"Zakarpattia","localName":"Zakarpattia","labelEnglish":"Zakarpattia","labelLocal":"Zakarpattia","labelBoth":"Zakarpattia","type":"Region","iso":"UA-21","qid":"Q170213"},"geometry":{"type":"Point","coordinates":[23.3868,48.3634]}},{"type":"Feature","id":"UKR-288","properties":{"kind":"division","code":"UKR-288","countryCode":"UKR","name":"Chernivtsi","localName":"Chernivtsi","labelEnglish":"Chernivtsi","labelLocal":"Chernivtsi","labelBoth":"Chernivtsi","type":"Region","iso":"UA-77","qid":"Q168856"},"geometry":{"type":"Polygon","coordinates":[[[26.6179,48.259],[26.8428,48.3937],[27.2519,48.3783],[27.5038,48.4724],[27.3704,48.6297],[26.3805,48.5171],[25.6362,48.6781],[25.5851,48.3929],[25.2926,48.3402],[24.9345,48.0135],[24.9289,47.7139],[24.9424,47.7156],[25.2617,47.8986],[26.1025,47.9783],[26.3035,48.212],[26.6179,48.259]]]}},{"type":"Feature","id":"label-UKR-288","properties":{"kind":"division-label","code":"UKR-288","countryCode":"UKR","name":"Chernivtsi","localName":"Chernivtsi","labelEnglish":"Chernivtsi","labelLocal":"Chernivtsi","labelBoth":"Chernivtsi","type":"Region","iso":"UA-77","qid":"Q168856"},"geometry":{"type":"Point","coordinates":[26.2156,48.2892]}},{"type":"Feature","id":"UKR-289","properties":{"kind":"division","code":"UKR-289","countryCode":"UKR","name":"Ivano-Frankivsk","localName":"Ivano-Frankivsk","labelEnglish":"Ivano-Frankivsk","labelLocal":"Ivano-Frankivsk","labelBoth":"Ivano-Frankivsk","type":"Region","iso":"UA-26","qid":"Q178269"},"geometry":{"type":"Polygon","coordinates":[[[24.9289,47.7139],[24.9345,48.0135],[25.2926,48.3402],[25.5851,48.3929],[25.6362,48.6781],[24.9781,48.9771],[24.7071,49.4918],[24.4499,49.5167],[24.4412,49.1941],[23.7548,49.1149],[23.5329,48.7237],[24.137,48.5275],[24.1446,48.3751],[24.4949,48.2666],[24.5698,47.9373],[24.9289,47.7139]]]}},{"type":"Feature","id":"label-UKR-289","properties":{"kind":"division-label","code":"UKR-289","countryCode":"UKR","name":"Ivano-Frankivsk","localName":"Ivano-Frankivsk","labelEnglish":"Ivano-Frankivsk","labelLocal":"Ivano-Frankivsk","labelBoth":"Ivano-Frankivsk","type":"Region","iso":"UA-26","qid":"Q178269"},"geometry":{"type":"Point","coordinates":[24.6363,48.665]}},{"type":"Feature","id":"UKR-322","properties":{"kind":"division","code":"UKR-322","countryCode":"UKR","name":"Odessa","localName":"Odessa","labelEnglish":"Odessa","labelLocal":"Odessa","labelBoth":"Odessa","type":"Region","iso":"UA-51","qid":"Q171852"},"geometry":{"type":"Polygon","coordinates":[[[28.1995,45.4618],[28.2151,45.4504],[28.7787,45.2311],[29.3221,45.4438],[29.659,45.2159],[29.6428,45.8272],[29.7337,45.6143],[30.4942,46.0805],[30.7982,46.4464],[31.1869,46.6291],[31.0373,46.9531],[31.3042,47.1018],[30.9153,47.2767],[30.7799,47.6337],[30.4759,47.6221],[30.216,47.9988],[30.2931,48.1357],[29.7748,48.2031],[29.6798,48.0922],[29.104,48.1436],[28.8621,48.0005],[28.9361,47.9422],[29.236,47.8707],[29.1372,47.484],[29.3709,47.3044],[29.5566,47.324],[29.5606,46.9613],[29.9282,46.8098],[29.8988,46.5531],[30.0811,46.3742],[29.4567,46.4844],[29.1831,46.538],[29.0559,46.4987],[28.9841,46.2212],[28.9569,46.0014],[28.5635,45.7355],[28.5037,45.5661],[28.2704,45.5215],[28.1995,45.4618]]]}},{"type":"Feature","id":"label-UKR-322","properties":{"kind":"division-label","code":"UKR-322","countryCode":"UKR","name":"Odessa","localName":"Odessa","labelEnglish":"Odessa","labelLocal":"Odessa","labelBoth":"Odessa","type":"Region","iso":"UA-51","qid":"Q171852"},"geometry":{"type":"Point","coordinates":[29.7568,46.0315]}},{"type":"Feature","id":"UKR-323","properties":{"kind":"division","code":"UKR-323","countryCode":"UKR","name":"Vinnytsia","localName":"Vinnytsia","labelEnglish":"Vinnytsia","labelLocal":"Vinnytsia","labelBoth":"Vinnytsia","type":"Region","iso":"UA-05","qid":"Q166709"},"geometry":{"type":"Polygon","coordinates":[[[27.5038,48.4724],[27.8854,48.3784],[28.0032,48.3259],[28.4998,48.1089],[28.8621,48.0005],[29.104,48.1436],[29.6798,48.0922],[29.7748,48.2031],[30.0761,48.4551],[29.597,49.0233],[29.6972,49.2273],[29.4472,49.6509],[29.002,49.5905],[28.9096,49.8724],[28.7105,49.7936],[27.868,49.7601],[27.74,49.4402],[27.889,49.1626],[27.5005,49.1261],[27.3704,48.6297],[27.5038,48.4724]]]}},{"type":"Feature","id":"label-UKR-323","properties":{"kind":"division-label","code":"UKR-323","countryCode":"UKR","name":"Vinnytsia","localName":"Vinnytsia","labelEnglish":"Vinnytsia","labelLocal":"Vinnytsia","labelBoth":"Vinnytsia","type":"Region","iso":"UA-05","qid":"Q166709"},"geometry":{"type":"Point","coordinates":[28.7233,48.9623]}},{"type":"Feature","id":"UKR-291","properties":{"kind":"division","code":"UKR-291","countryCode":"UKR","name":"Lviv","localName":"Lviv","labelEnglish":"Lviv","labelLocal":"Lviv","labelBoth":"Lviv","type":"Region","iso":"UA-46","qid":"Q164193"},"geometry":{"type":"Polygon","coordinates":[[[23.6587,50.327],[23.1015,49.9571],[22.6409,49.5288],[22.865,49.0132],[23.0117,48.8547],[23.5329,48.7237],[23.7548,49.1149],[24.4412,49.1941],[24.4499,49.5167],[24.7071,49.4918],[25.3963,49.8895],[25.3676,50.0131],[25.0635,50.2948],[24.1082,50.6303],[23.9813,50.4048],[23.6587,50.327]]]}},{"type":"Feature","id":"label-UKR-291","properties":{"kind":"division-label","code":"UKR-291","countryCode":"UKR","name":"Lviv","localName":"Lviv","labelEnglish":"Lviv","labelLocal":"Lviv","labelBoth":"Lviv","type":"Region","iso":"UA-46","qid":"Q164193"},"geometry":{"type":"Point","coordinates":[24.0372,49.8152]}},{"type":"Feature","id":"UKR-325","properties":{"kind":"division","code":"UKR-325","countryCode":"UKR","name":"Sumy","localName":"Sumy","labelEnglish":"Sumy","labelLocal":"Sumy","labelBoth":"Sumy","type":"Region","iso":"UA-59","qid":"Q170446"},"geometry":{"type":"Polygon","coordinates":[[[34.3711,51.8268],[34.0962,51.9518],[33.8041,52.3546],[33.4006,52.3443],[33.3663,51.9467],[33.062,51.7929],[33.1869,51.5159],[32.9445,51.0948],[33.2069,51.0484],[33.0615,50.5384],[33.7207,50.4627],[34.2124,50.5424],[34.504,50.1754],[34.9082,50.146],[35.6922,50.3442],[35.4464,50.476],[35.2822,50.9611],[35.0992,51.1832],[34.186,51.2489],[34.3002,51.3684],[34.128,51.6807],[34.3711,51.8268]]]}},{"type":"Feature","id":"label-UKR-325","properties":{"kind":"division-label","code":"UKR-325","countryCode":"UKR","name":"Sumy","localName":"Sumy","labelEnglish":"Sumy","labelLocal":"Sumy","labelBoth":"Sumy","type":"Region","iso":"UA-59","qid":"Q170446"},"geometry":{"type":"Point","coordinates":[34.3159,50.8153]}},{"type":"Feature","id":"UKR-328","properties":{"kind":"division","code":"UKR-328","countryCode":"UKR","name":"Kharkiv","localName":"Kharkiv","labelEnglish":"Kharkiv","labelLocal":"Kharkiv","labelBoth":"Kharkiv","type":"Region","iso":"UA-63","qid":"Q170666"},"geometry":{"type":"Polygon","coordinates":[[[38.0229,49.9091],[37.7276,50.0787],[37.4353,50.4249],[36.5944,50.2044],[36.1058,50.4211],[35.6922,50.3442],[34.9082,50.146],[34.8882,49.9177],[35.4197,49.6863],[35.4693,49.5005],[34.9839,49.1637],[36.1707,48.7577],[36.3422,48.5314],[36.7254,48.6259],[36.69,48.7775],[37.1812,48.8315],[37.5469,49.2272],[37.8473,49.2318],[38.0229,49.9091]]]}},{"type":"Feature","id":"label-UKR-328","properties":{"kind":"division-label","code":"UKR-328","countryCode":"UKR","name":"Kharkiv","localName":"Kharkiv","labelEnglish":"Kharkiv","labelLocal":"Kharkiv","labelBoth":"Kharkiv","type":"Region","iso":"UA-63","qid":"Q170666"},"geometry":{"type":"Point","coordinates":[36.4612,49.4655]}},{"type":"Feature","id":"UKR-329","properties":{"kind":"division","code":"UKR-329","countryCode":"UKR","name":"Luhansk","localName":"Luhansk","labelEnglish":"Luhansk","labelLocal":"Luhansk","labelBoth":"Luhansk","type":"Region","iso":"UA-09","qid":"Q171965"},"geometry":{"type":"Polygon","coordinates":[[[39.181,49.8595],[38.9374,49.8035],[38.1739,50.0602],[38.0229,49.9091],[37.8473,49.2318],[38.2101,48.9239],[38.3021,48.459],[39.0362,47.857],[39.7591,47.8329],[39.9932,48.2732],[39.7029,48.7466],[39.9504,48.8528],[39.6811,49.0203],[40.1417,49.2458],[40.1185,49.5885],[39.8015,49.5422],[39.181,49.8595]]]}},{"type":"Feature","id":"label-UKR-329","properties":{"kind":"division-label","code":"UKR-329","countryCode":"UKR","name":"Luhansk","localName":"Luhansk","labelEnglish":"Luhansk","labelLocal":"Luhansk","labelBoth":"Luhansk","type":"Region","iso":"UA-09","qid":"Q171965"},"geometry":{"type":"Point","coordinates":[39.0033,48.9084]}},{"type":"Feature","id":"UKR-327","properties":{"kind":"division","code":"UKR-327","countryCode":"UKR","name":"Donetsk","localName":"Donetsk","labelEnglish":"Donetsk","labelLocal":"Donetsk","labelBoth":"Donetsk","type":"Region","iso":"UA-14","qid":"Q2012050"},"geometry":{"type":"Polygon","coordinates":[[[39.0362,47.857],[38.3021,48.459],[38.2101,48.9239],[37.8473,49.2318],[37.5469,49.2272],[37.1812,48.8315],[36.69,48.7775],[36.7254,48.6259],[36.8921,48.5379],[36.8926,48.0676],[36.5891,48.0789],[36.5761,47.8442],[36.757,47.6002],[37.1637,47.3459],[36.8644,47.1824],[37.1185,47.0282],[37.0378,46.8767],[37.3352,46.8825],[37.5807,47.0904],[38.2166,47.1033],[38.3529,47.6071],[39.0362,47.857]]]}},{"type":"Feature","id":"label-UKR-327","properties":{"kind":"division-label","code":"UKR-327","countryCode":"UKR","name":"Donetsk","localName":"Donetsk","labelEnglish":"Donetsk","labelLocal":"Donetsk","labelBoth":"Donetsk","type":"Region","iso":"UA-14","qid":"Q2012050"},"geometry":{"type":"Point","coordinates":[37.7933,48.145]}},{"type":"Feature","id":"UKR-4827","properties":{"kind":"division","code":"UKR-4827","countryCode":"UKR","name":"Kherson","localName":"Kherson","labelEnglish":"Kherson","labelLocal":"Kherson","labelBoth":"Kherson","type":"Oblast'","iso":"UA-65","qid":"Q163271"},"geometry":{"type":"Polygon","coordinates":[[[35.0019,45.729],[34.8113,46.1662],[35.1051,46.2951],[34.6292,46.6928],[34.7967,46.8317],[34.2984,47.2721],[34.2037,47.4784],[33.3335,47.4957],[33.0893,47.5829],[33.1349,47.231],[33.0151,46.9401],[31.9649,46.7221],[32.361,46.4669],[31.8517,46.522],[31.8163,46.483],[31.8167,46.348],[32.5034,46.0761],[33.6285,46.1249],[33.6703,46.2181],[34.6886,45.974],[35.0019,45.729]]]}},{"type":"Feature","id":"label-UKR-4827","properties":{"kind":"division-label","code":"UKR-4827","countryCode":"UKR","name":"Kherson","localName":"Kherson","labelEnglish":"Kherson","labelLocal":"Kherson","labelBoth":"Kherson","type":"Oblast'","iso":"UA-65","qid":"Q163271"},"geometry":{"type":"Point","coordinates":[33.5787,46.6964]}},{"type":"Feature","id":"UKR-331","properties":{"kind":"division","code":"UKR-331","countryCode":"UKR","name":"Zaporizhzhia","localName":"Zaporizhzhia","labelEnglish":"Zaporizhzhia","labelLocal":"Zaporizhzhia","labelBoth":"Zaporizhzhia","type":"Region","iso":"UA-23","qid":"Q171334"},"geometry":{"type":"Polygon","coordinates":[[[35.2795,46.2551],[35.9016,46.6527],[37.0378,46.8767],[37.1185,47.0282],[36.8644,47.1824],[37.1637,47.3459],[36.757,47.6002],[36.5761,47.8442],[36.1066,47.8347],[35.9423,48.0918],[34.8405,48.1175],[34.9161,47.5309],[34.2037,47.4784],[34.2984,47.2721],[34.7967,46.8317],[34.6292,46.6928],[35.1051,46.2951],[35.2648,46.2605],[35.2795,46.2551]]]}},{"type":"Feature","id":"label-UKR-331","properties":{"kind":"division-label","code":"UKR-331","countryCode":"UKR","name":"Zaporizhzhia","localName":"Zaporizhzhia","labelEnglish":"Zaporizhzhia","labelLocal":"Zaporizhzhia","labelBoth":"Zaporizhzhia","type":"Region","iso":"UA-23","qid":"Q171334"},"geometry":{"type":"Point","coordinates":[35.7123,47.3346]}},{"type":"Feature","id":"UKR-284","properties":{"kind":"division","code":"UKR-284","countryCode":"UKR","name":"Mykolaiv","localName":"Mykolaiv","labelEnglish":"Mykolaiv","labelLocal":"Mykolaiv","labelBoth":"Mykolaiv","type":"Region","iso":"UA-48","qid":"Q181633"},"geometry":{"type":"Polygon","coordinates":[[[31.9649,46.7221],[33.0151,46.9401],[33.1349,47.231],[33.0893,47.5829],[33.0353,47.9665],[32.6827,47.9549],[32.6401,47.7996],[31.8681,47.7951],[31.7603,48.0925],[31.1835,48.208],[30.2931,48.1357],[30.216,47.9988],[30.4759,47.6221],[30.7799,47.6337],[30.9153,47.2767],[31.3042,47.1018],[31.0373,46.9531],[31.1869,46.6291],[31.8584,46.6291],[31.9649,46.7221]]]}},{"type":"Feature","id":"label-UKR-284","properties":{"kind":"division-label","code":"UKR-284","countryCode":"UKR","name":"Mykolaiv","localName":"Mykolaiv","labelEnglish":"Mykolaiv","labelLocal":"Mykolaiv","labelBoth":"Mykolaiv","type":"Region","iso":"UA-48","qid":"Q181633"},"geometry":{"type":"Point","coordinates":[31.6498,47.0902]}},{"type":"Feature","id":"UKR-330","properties":{"kind":"division","code":"UKR-330","countryCode":"UKR","name":"Poltava","localName":"Poltava","labelEnglish":"Poltava","labelLocal":"Poltava","labelBoth":"Poltava","type":"Region","iso":"UA-53","qid":"Q169501"},"geometry":{"type":"Polygon","coordinates":[[[33.0615,50.5384],[32.7273,50.3579],[32.1392,50.3501],[32.0695,50.2387],[32.693,49.6716],[32.7887,49.2618],[33.3757,48.9413],[33.9195,48.8658],[34.2375,48.7463],[34.4304,49.0746],[34.9839,49.1637],[35.4693,49.5005],[35.4197,49.6863],[34.8882,49.9177],[34.9082,50.146],[34.504,50.1754],[34.2124,50.5424],[33.7207,50.4627],[33.0615,50.5384]]]}},{"type":"Feature","id":"label-UKR-330","properties":{"kind":"division-label","code":"UKR-330","countryCode":"UKR","name":"Poltava","localName":"Poltava","labelEnglish":"Poltava","labelLocal":"Poltava","labelBoth":"Poltava","type":"Region","iso":"UA-53","qid":"Q169501"},"geometry":{"type":"Point","coordinates":[33.7723,49.6978]}},{"type":"Feature","id":"UKR-290","properties":{"kind":"division","code":"UKR-290","countryCode":"UKR","name":"Khmelnytskyi","localName":"Khmelnytskyi","labelEnglish":"Khmelnytskyi","labelLocal":"Khmelnytskyi","labelBoth":"Khmelnytskyi","type":"Region","iso":"UA-68","qid":"Q171331"},"geometry":{"type":"Polygon","coordinates":[[[27.1923,50.5412],[26.7455,50.4667],[26.2332,50.1523],[26.1891,48.953],[26.3805,48.5171],[27.3704,48.6297],[27.5005,49.1261],[27.889,49.1626],[27.74,49.4402],[27.868,49.7601],[27.5478,50.0075],[27.6075,50.2493],[27.1923,50.5412]]]}},{"type":"Feature","id":"label-UKR-290","properties":{"kind":"division-label","code":"UKR-290","countryCode":"UKR","name":"Khmelnytskyi","localName":"Khmelnytskyi","labelEnglish":"Khmelnytskyi","labelLocal":"Khmelnytskyi","labelBoth":"Khmelnytskyi","type":"Region","iso":"UA-68","qid":"Q171331"},"geometry":{"type":"Point","coordinates":[27.0187,49.5537]}},{"type":"Feature","id":"UKR-292","properties":{"kind":"division","code":"UKR-292","countryCode":"UKR","name":"Ternopil","localName":"Ternopil","labelEnglish":"Ternopil","labelLocal":"Ternopil","labelBoth":"Ternopil","type":"Region","iso":"UA-61","qid":"Q173407"},"geometry":{"type":"Polygon","coordinates":[[[26.2332,50.1523],[25.9472,50.2645],[25.3676,50.0131],[25.3963,49.8895],[24.7071,49.4918],[24.9781,48.9771],[25.6362,48.6781],[26.3805,48.5171],[26.1891,48.953],[26.2332,50.1523]]]}},{"type":"Feature","id":"label-UKR-292","properties":{"kind":"division-label","code":"UKR-292","countryCode":"UKR","name":"Ternopil","localName":"Ternopil","labelEnglish":"Ternopil","labelLocal":"Ternopil","labelBoth":"Ternopil","type":"Region","iso":"UA-61","qid":"Q173407"},"geometry":{"type":"Point","coordinates":[25.5438,49.4739]}},{"type":"Feature","id":"UKR-326","properties":{"kind":"division","code":"UKR-326","countryCode":"UKR","name":"Dnipropetrovsk","localName":"Dnipropetrovsk","labelEnglish":"Dnipropetrovsk","labelLocal":"Dnipropetrovsk","labelBoth":"Dnipropetrovsk","type":"Region","iso":"UA-12","qid":"Q170672"},"geometry":{"type":"Polygon","coordinates":[[[34.9839,49.1637],[34.4304,49.0746],[34.2375,48.7463],[33.9195,48.8658],[33.5576,48.772],[33.8211,48.6684],[33.4492,48.5284],[33.5162,48.2427],[33.0353,47.9665],[33.0893,47.5829],[33.3335,47.4957],[34.2037,47.4784],[34.9161,47.5309],[34.8405,48.1175],[35.9423,48.0918],[36.1066,47.8347],[36.5761,47.8442],[36.5891,48.0789],[36.8926,48.0676],[36.8921,48.5379],[36.7254,48.6259],[36.3422,48.5314],[36.1707,48.7577],[34.9839,49.1637]]]}},{"type":"Feature","id":"label-UKR-326","properties":{"kind":"division-label","code":"UKR-326","countryCode":"UKR","name":"Dnipropetrovsk","localName":"Dnipropetrovsk","labelEnglish":"Dnipropetrovsk","labelLocal":"Dnipropetrovsk","labelBoth":"Dnipropetrovsk","type":"Region","iso":"UA-12","qid":"Q170672"},"geometry":{"type":"Point","coordinates":[34.9555,48.6313]}},{"type":"Feature","id":"UKR-319","properties":{"kind":"division","code":"UKR-319","countryCode":"UKR","name":"Cherkasy","localName":"Cherkasy","labelEnglish":"Cherkasy","labelLocal":"Cherkasy","labelBoth":"Cherkasy","type":"Region","iso":"UA-71","qid":"Q161808"},"geometry":{"type":"Polygon","coordinates":[[[32.0695,50.2387],[31.7075,49.8467],[31.212,49.854],[31.1559,49.5564],[30.8682,49.3606],[29.6972,49.2273],[29.597,49.0233],[30.0761,48.4551],[30.7023,48.7652],[31.3329,48.7238],[31.5441,48.9242],[31.8949,48.8618],[32.3319,49.0898],[32.5152,48.9313],[32.8449,49.0012],[32.7887,49.2618],[32.693,49.6716],[32.0695,50.2387]]]}},{"type":"Feature","id":"label-UKR-319","properties":{"kind":"division-label","code":"UKR-319","countryCode":"UKR","name":"Cherkasy","localName":"Cherkasy","labelEnglish":"Cherkasy","labelLocal":"Cherkasy","labelBoth":"Cherkasy","type":"Region","iso":"UA-71","qid":"Q161808"},"geometry":{"type":"Point","coordinates":[31.2241,49.1506]}},{"type":"Feature","id":"UKR-320","properties":{"kind":"division","code":"UKR-320","countryCode":"UKR","name":"Kirovohrad","localName":"Kirovohrad","labelEnglish":"Kirovohrad","labelLocal":"Kirovohrad","labelBoth":"Kirovohrad","type":"Region","iso":"UA-35","qid":"Q180981"},"geometry":{"type":"Polygon","coordinates":[[[32.7887,49.2618],[32.8449,49.0012],[32.5152,48.9313],[32.3319,49.0898],[31.8949,48.8618],[31.5441,48.9242],[31.3329,48.7238],[30.7023,48.7652],[30.0761,48.4551],[29.7748,48.2031],[30.2931,48.1357],[31.1835,48.208],[31.7603,48.0925],[31.8681,47.7951],[32.6401,47.7996],[32.6827,47.9549],[33.0353,47.9665],[33.5162,48.2427],[33.4492,48.5284],[33.8211,48.6684],[33.5576,48.772],[33.9195,48.8658],[33.3757,48.9413],[32.7887,49.2618]]]}},{"type":"Feature","id":"label-UKR-320","properties":{"kind":"division-label","code":"UKR-320","countryCode":"UKR","name":"Kirovohrad","localName":"Kirovohrad","labelEnglish":"Kirovohrad","labelLocal":"Kirovohrad","labelBoth":"Kirovohrad","type":"Region","iso":"UA-35","qid":"Q180981"},"geometry":{"type":"Point","coordinates":[31.8288,48.4261]}},{"type":"Feature","id":"UKR-4826","properties":{"kind":"division","code":"UKR-4826","countryCode":"UKR","name":"Kyiv","localName":"Kyïvs'ka mis'ka rada","labelEnglish":"Kyiv","labelLocal":"Kyïvs'ka mis'ka rada","labelBoth":"Kyiv · Kyïvs'ka mis'ka rada","type":"Municipality","iso":"UA-30","qid":"Q1899"},"geometry":{"type":"Polygon","coordinates":[[[30.7537,50.2892],[30.6472,50.5752],[30.2702,50.6334],[30.5856,50.0142],[30.7537,50.2892]]]}},{"type":"Feature","id":"label-UKR-4826","properties":{"kind":"division-label","code":"UKR-4826","countryCode":"UKR","name":"Kyiv","localName":"Kyïvs'ka mis'ka rada","labelEnglish":"Kyiv","labelLocal":"Kyïvs'ka mis'ka rada","labelBoth":"Kyiv · Kyïvs'ka mis'ka rada","type":"Municipality","iso":"UA-30","qid":"Q1899"},"geometry":{"type":"Point","coordinates":[30.5277,50.383]}}]}