{"type":"FeatureCollection","features":[{"type":"Feature","id":"URY-8","properties":{"kind":"division","code":"URY-8","countryCode":"URY","name":"Paysandú","localName":"Paysandú","labelEnglish":"Paysandú","labelLocal":"Paysandú","labelBoth":"Paysandú","type":"Department","iso":"UY-PA","qid":"Q16576"},"geometry":{"type":"Polygon","coordinates":[[[-58.2001,-32.4472],[-58.1915,-32.4919],[-57.7846,-32.6076],[-57.4703,-32.4451],[-57.0397,-32.3634],[-56.5594,-32.4925],[-56.2449,-31.9071],[-56.3216,-31.7513],[-56.4624,-31.8649],[-57.1772,-31.7944],[-58.039,-31.5086],[-58.1686,-31.846],[-58.2001,-32.4472]]]}},{"type":"Feature","id":"label-URY-8","properties":{"kind":"division-label","code":"URY-8","countryCode":"URY","name":"Paysandú","localName":"Paysandú","labelEnglish":"Paysandú","labelLocal":"Paysandú","labelBoth":"Paysandú","type":"Department","iso":"UY-PA","qid":"Q16576"},"geometry":{"type":"Point","coordinates":[-57.224,-32.0933]}},{"type":"Feature","id":"URY-6","properties":{"kind":"division","code":"URY-6","countryCode":"URY","name":"Artigas","localName":"Artigas","labelEnglish":"Artigas","labelLocal":"Artigas","labelBoth":"Artigas","type":"Department","iso":"UY-AR","qid":"Q16603"},"geometry":{"type":"Polygon","coordinates":[[[-57.6028,-30.1905],[-57.6425,-30.1931],[-57.8496,-30.4853],[-57.8087,-30.7473],[-57.7994,-30.7915],[-57.7013,-30.7649],[-57.0714,-31.0779],[-56.6785,-31.0419],[-56.4155,-30.8871],[-56.017,-31.0743],[-56.0114,-30.7982],[-56.8313,-30.102],[-57.0771,-30.1061],[-57.2126,-30.2873],[-57.6028,-30.1905]]]}},{"type":"Feature","id":"label-URY-6","properties":{"kind":"division-label","code":"URY-6","countryCode":"URY","name":"Artigas","localName":"Artigas","labelEnglish":"Artigas","labelLocal":"Artigas","labelBoth":"Artigas","type":"Department","iso":"UY-AR","qid":"Q16603"},"geometry":{"type":"Point","coordinates":[-56.9399,-30.5719]}},{"type":"Feature","id":"URY-10","properties":{"kind":"division","code":"URY-10","countryCode":"URY","name":"Salto","localName":"Salto","labelEnglish":"Salto","labelLocal":"Salto","labelBoth":"Salto","type":"Department","iso":"UY-SA","qid":"Q16595"},"geometry":{"type":"Polygon","coordinates":[[[-57.7994,-30.7915],[-58.039,-31.5086],[-57.1772,-31.7944],[-56.4624,-31.8649],[-56.3216,-31.7513],[-56.158,-31.3047],[-56.0099,-31.0819],[-56.017,-31.0743],[-56.4155,-30.8871],[-56.6785,-31.0419],[-57.0714,-31.0779],[-57.7013,-30.7649],[-57.7994,-30.7915]]]}},{"type":"Feature","id":"label-URY-10","properties":{"kind":"division-label","code":"URY-10","countryCode":"URY","name":"Salto","localName":"Salto","labelEnglish":"Salto","labelLocal":"Salto","labelBoth":"Salto","type":"Department","iso":"UY-SA","qid":"Q16595"},"geometry":{"type":"Point","coordinates":[-57.0428,-31.4398]}},{"type":"Feature","id":"URY-14","properties":{"kind":"division","code":"URY-14","countryCode":"URY","name":"Rivera","localName":"Rivera","labelEnglish":"Rivera","labelLocal":"Rivera","labelBoth":"Rivera","type":"Department","iso":"UY-RV","qid":"Q16609"},"geometry":{"type":"Polygon","coordinates":[[[-54.4672,-31.6642],[-54.5915,-31.471],[-55.26,-31.2287],[-55.5919,-30.8483],[-56.0099,-31.0819],[-56.158,-31.3047],[-55.8569,-31.3669],[-55.6025,-31.8061],[-54.8872,-31.875],[-54.6545,-32.1228],[-54.4672,-31.6642]]]}},{"type":"Feature","id":"label-URY-14","properties":{"kind":"division-label","code":"URY-14","countryCode":"URY","name":"Rivera","localName":"Rivera","labelEnglish":"Rivera","labelLocal":"Rivera","labelBoth":"Rivera","type":"Department","iso":"UY-RV","qid":"Q16609"},"geometry":{"type":"Point","coordinates":[-55.3279,-31.4683]}},{"type":"Feature","id":"URY-22","properties":{"kind":"division","code":"URY-22","countryCode":"URY","name":"Rocha","localName":"Rocha","labelEnglish":"Rocha","labelLocal":"Rocha","labelBoth":"Rocha","type":"Department","iso":"UY-RO","qid":"Q16582"},"geometry":{"type":"Polygon","coordinates":[[[-53.5207,-33.125],[-53.7685,-33.1893],[-54.1257,-33.4653],[-54.3478,-33.6166],[-54.4821,-33.926],[-54.5308,-34.8069],[-54.1459,-34.6676],[-53.7649,-34.3904],[-53.3791,-33.7407],[-53.5396,-33.6493],[-53.5207,-33.125]]]}},{"type":"Feature","id":"label-URY-22","properties":{"kind":"division-label","code":"URY-22","countryCode":"URY","name":"Rocha","localName":"Rocha","labelEnglish":"Rocha","labelLocal":"Rocha","labelBoth":"Rocha","type":"Department","iso":"UY-RO","qid":"Q16582"},"geometry":{"type":"Point","coordinates":[-53.9584,-33.9106]}},{"type":"Feature","id":"URY-16","properties":{"kind":"division","code":"URY-16","countryCode":"URY","name":"Treinta y Tres","localName":"Treinta y Tres","labelEnglish":"Treinta y Tres","labelLocal":"Treinta y Tres","labelBoth":"Treinta y Tres","type":"Department","iso":"UY-TT","qid":"Q16610"},"geometry":{"type":"Polygon","coordinates":[[[-53.1828,-32.7999],[-53.5,-32.7502],[-54.0454,-32.7989],[-54.3161,-32.7147],[-54.8196,-32.8381],[-55.01,-33.025],[-55.1111,-33.1182],[-55.1246,-33.3818],[-54.8357,-33.3377],[-54.1257,-33.4653],[-53.7685,-33.1893],[-53.5207,-33.125],[-53.1828,-32.7999]]]}},{"type":"Feature","id":"label-URY-16","properties":{"kind":"division-label","code":"URY-16","countryCode":"URY","name":"Treinta y Tres","localName":"Treinta y Tres","labelEnglish":"Treinta y Tres","labelLocal":"Treinta y Tres","labelBoth":"Treinta y Tres","type":"Department","iso":"UY-TT","qid":"Q16610"},"geometry":{"type":"Point","coordinates":[-54.1659,-33.1021]}},{"type":"Feature","id":"URY-12","properties":{"kind":"division","code":"URY-12","countryCode":"URY","name":"Cerro Largo","localName":"Cerro Largo","labelEnglish":"Cerro Largo","labelLocal":"Cerro Largo","labelBoth":"Cerro Largo","type":"Department","iso":"UY-CL","qid":"Q16575"},"geometry":{"type":"Polygon","coordinates":[[[-54.4672,-31.6642],[-54.6545,-32.1228],[-55.04,-32.4687],[-55.3284,-32.4939],[-55.3208,-32.8908],[-55.01,-33.025],[-54.8196,-32.8381],[-54.3161,-32.7147],[-54.0454,-32.7989],[-53.5,-32.7502],[-53.1828,-32.7999],[-53.1108,-32.7224],[-53.6487,-32.3386],[-53.7718,-32.0471],[-54.1351,-31.909],[-54.4672,-31.6642]]]}},{"type":"Feature","id":"label-URY-12","properties":{"kind":"division-label","code":"URY-12","countryCode":"URY","name":"Cerro Largo","localName":"Cerro Largo","labelEnglish":"Cerro Largo","labelLocal":"Cerro Largo","labelBoth":"Cerro Largo","type":"Department","iso":"UY-CL","qid":"Q16575"},"geometry":{"type":"Point","coordinates":[-54.2281,-32.2963]}},{"type":"Feature","id":"URY-20","properties":{"kind":"division","code":"URY-20","countryCode":"URY","name":"Maldonado","localName":"Maldonado","labelEnglish":"Maldonado","labelLocal":"Maldonado","labelBoth":"Maldonado","type":"Department","iso":"UY-MA","qid":"Q331196"},"geometry":{"type":"Polygon","coordinates":[[[-54.5308,-34.8069],[-54.4821,-33.926],[-54.6897,-34.0719],[-54.8444,-34.3929],[-55.4733,-34.6219],[-55.3738,-34.8029],[-54.9393,-34.9699],[-54.5308,-34.8069]]]}},{"type":"Feature","id":"label-URY-20","properties":{"kind":"division-label","code":"URY-20","countryCode":"URY","name":"Maldonado","localName":"Maldonado","labelEnglish":"Maldonado","labelLocal":"Maldonado","labelBoth":"Maldonado","type":"Department","iso":"UY-MA","qid":"Q331196"},"geometry":{"type":"Point","coordinates":[-54.9671,-34.6885]}},{"type":"Feature","id":"URY-17","properties":{"kind":"division","code":"URY-17","countryCode":"URY","name":"Canelones","localName":"Canelones","labelEnglish":"Canelones","labelLocal":"Canelones","labelBoth":"Canelones","type":"Department","iso":"UY-CA","qid":"Q16577"},"geometry":{"type":"Polygon","coordinates":[[[-55.3738,-34.8029],[-55.4733,-34.6219],[-55.6191,-34.2077],[-55.9986,-34.2444],[-56.4013,-34.433],[-56.3642,-34.7341],[-56.0384,-34.8858],[-55.7921,-34.7741],[-55.3738,-34.8029]]]}},{"type":"Feature","id":"label-URY-17","properties":{"kind":"division-label","code":"URY-17","countryCode":"URY","name":"Canelones","localName":"Canelones","labelEnglish":"Canelones","labelLocal":"Canelones","labelBoth":"Canelones","type":"Department","iso":"UY-CA","qid":"Q16577"},"geometry":{"type":"Point","coordinates":[-55.9228,-34.5473]}},{"type":"Feature","id":"URY-21","properties":{"kind":"division","code":"URY-21","countryCode":"URY","name":"Montevideo","localName":"Montevideo","labelEnglish":"Montevideo","labelLocal":"Montevideo","labelBoth":"Montevideo","type":"Department","iso":"UY-MO","qid":"Q1335"},"geometry":{"type":"Polygon","coordinates":[[[-56.0384,-34.8858],[-56.3642,-34.7341],[-56.3646,-34.7935],[-56.0384,-34.8858]]]}},{"type":"Feature","id":"label-URY-21","properties":{"kind":"division-label","code":"URY-21","countryCode":"URY","name":"Montevideo","localName":"Montevideo","labelEnglish":"Montevideo","labelLocal":"Montevideo","labelBoth":"Montevideo","type":"Department","iso":"UY-MO","qid":"Q1335"},"geometry":{"type":"Point","coordinates":[-56.2283,-34.8267]}},{"type":"Feature","id":"URY-5","properties":{"kind":"division","code":"URY-5","countryCode":"URY","name":"San José","localName":"San José","labelEnglish":"San José","labelLocal":"San José","labelBoth":"San José","type":"Department","iso":"UY-SJ","qid":"Q16579"},"geometry":{"type":"Polygon","coordinates":[[[-56.3646,-34.7935],[-56.3642,-34.7341],[-56.4013,-34.433],[-56.4627,-33.9024],[-57.0777,-33.963],[-56.9419,-34.1476],[-57.1675,-34.4482],[-56.7953,-34.6985],[-56.3646,-34.7935]]]}},{"type":"Feature","id":"label-URY-5","properties":{"kind":"division-label","code":"URY-5","countryCode":"URY","name":"San José","localName":"San José","labelEnglish":"San José","labelLocal":"San José","labelBoth":"San José","type":"Department","iso":"UY-SJ","qid":"Q16579"},"geometry":{"type":"Point","coordinates":[-56.7651,-34.3117]}},{"type":"Feature","id":"URY-4","properties":{"kind":"division","code":"URY-4","countryCode":"URY","name":"Colonia","localName":"Colonia","labelEnglish":"Colonia","labelLocal":"Colonia","labelBoth":"Colonia","type":"Department","iso":"UY-CO","qid":"Q16580"},"geometry":{"type":"Polygon","coordinates":[[[-57.1675,-34.4482],[-56.9419,-34.1476],[-57.0777,-33.963],[-57.6542,-33.9381],[-58.1856,-33.782],[-58.4156,-33.8756],[-57.8554,-34.471],[-57.1675,-34.4482]]]}},{"type":"Feature","id":"label-URY-4","properties":{"kind":"division-label","code":"URY-4","countryCode":"URY","name":"Colonia","localName":"Colonia","labelEnglish":"Colonia","labelLocal":"Colonia","labelBoth":"Colonia","type":"Department","iso":"UY-CO","qid":"Q16580"},"geometry":{"type":"Point","coordinates":[-57.6787,-34.1954]}},{"type":"Feature","id":"URY-11","properties":{"kind":"division","code":"URY-11","countryCode":"URY","name":"Soriano","localName":"Soriano","labelEnglish":"Soriano","labelLocal":"Soriano","labelBoth":"Soriano","type":"Department","iso":"UY-SO","qid":"Q16584"},"geometry":{"type":"Polygon","coordinates":[[[-58.4156,-33.8756],[-58.1856,-33.782],[-57.6542,-33.9381],[-57.0777,-33.963],[-57.3367,-33.3549],[-57.1271,-33.1231],[-57.8685,-33.0443],[-58.3915,-33.4244],[-58.4156,-33.8756]]]}},{"type":"Feature","id":"label-URY-11","properties":{"kind":"division-label","code":"URY-11","countryCode":"URY","name":"Soriano","localName":"Soriano","labelEnglish":"Soriano","labelLocal":"Soriano","labelBoth":"Soriano","type":"Department","iso":"UY-SO","qid":"Q16584"},"geometry":{"type":"Point","coordinates":[-57.7585,-33.4821]}},{"type":"Feature","id":"URY-9","properties":{"kind":"division","code":"URY-9","countryCode":"URY","name":"Río Negro","localName":"Río Negro","labelEnglish":"Río Negro","labelLocal":"Río Negro","labelBoth":"Río Negro","type":"Department","iso":"UY-RN","qid":"Q16596"},"geometry":{"type":"Polygon","coordinates":[[[-58.3915,-33.4244],[-57.8685,-33.0443],[-57.1271,-33.1231],[-57.0831,-33.0064],[-56.6668,-32.8433],[-56.5594,-32.4925],[-57.0397,-32.3634],[-57.4703,-32.4451],[-57.7846,-32.6076],[-58.1915,-32.4919],[-58.0485,-32.9117],[-58.1744,-33.1104],[-58.3669,-33.1537],[-58.3915,-33.4244]]]}},{"type":"Feature","id":"label-URY-9","properties":{"kind":"division-label","code":"URY-9","countryCode":"URY","name":"Río Negro","localName":"Río Negro","labelEnglish":"Río Negro","labelLocal":"Río Negro","labelBoth":"Río Negro","type":"Department","iso":"UY-RN","qid":"Q16596"},"geometry":{"type":"Point","coordinates":[-57.4891,-32.7441]}},{"type":"Feature","id":"URY-15","properties":{"kind":"division","code":"URY-15","countryCode":"URY","name":"Tacuarembó","localName":"Tacuarembó","labelEnglish":"Tacuarembó","labelLocal":"Tacuarembó","labelBoth":"Tacuarembó","type":"Department","iso":"UY-TA","qid":"Q16587"},"geometry":{"type":"Polygon","coordinates":[[[-56.5594,-32.4925],[-56.6668,-32.8433],[-56.2249,-32.823],[-55.4713,-32.4273],[-55.3284,-32.4939],[-55.04,-32.4687],[-54.6545,-32.1228],[-54.8872,-31.875],[-55.6025,-31.8061],[-55.8569,-31.3669],[-56.158,-31.3047],[-56.3216,-31.7513],[-56.2449,-31.9071],[-56.5594,-32.4925]]]}},{"type":"Feature","id":"label-URY-15","properties":{"kind":"division-label","code":"URY-15","countryCode":"URY","name":"Tacuarembó","localName":"Tacuarembó","labelEnglish":"Tacuarembó","labelLocal":"Tacuarembó","labelBoth":"Tacuarembó","type":"Department","iso":"UY-TA","qid":"Q16587"},"geometry":{"type":"Point","coordinates":[-55.6607,-32.1061]}},{"type":"Feature","id":"URY-13","properties":{"kind":"division","code":"URY-13","countryCode":"URY","name":"Durazno","localName":"Durazno","labelEnglish":"Durazno","labelLocal":"Durazno","labelBoth":"Durazno","type":"Department","iso":"UY-DU","qid":"Q16591"},"geometry":{"type":"Polygon","coordinates":[[[-55.3284,-32.4939],[-55.4713,-32.4273],[-56.2249,-32.823],[-56.6668,-32.8433],[-57.0831,-33.0064],[-57.1271,-33.1231],[-56.6811,-33.2992],[-56.533,-33.4955],[-56.0956,-33.4926],[-55.645,-33.3688],[-55.1111,-33.1182],[-55.01,-33.025],[-55.3208,-32.8908],[-55.3284,-32.4939]]]}},{"type":"Feature","id":"label-URY-13","properties":{"kind":"division-label","code":"URY-13","countryCode":"URY","name":"Durazno","localName":"Durazno","labelEnglish":"Durazno","labelLocal":"Durazno","labelBoth":"Durazno","type":"Department","iso":"UY-DU","qid":"Q16591"},"geometry":{"type":"Point","coordinates":[-56.0945,-33.1016]}},{"type":"Feature","id":"URY-7","properties":{"kind":"division","code":"URY-7","countryCode":"URY","name":"Flores","localName":"Flores","labelEnglish":"Flores","labelLocal":"Flores","labelBoth":"Flores","type":"Department","iso":"UY-FS","qid":"Q16578"},"geometry":{"type":"Polygon","coordinates":[[[-57.1271,-33.1231],[-57.3367,-33.3549],[-57.0777,-33.963],[-56.4627,-33.9024],[-56.533,-33.4955],[-56.6811,-33.2992],[-57.1271,-33.1231]]]}},{"type":"Feature","id":"label-URY-7","properties":{"kind":"division-label","code":"URY-7","countryCode":"URY","name":"Flores","localName":"Flores","labelEnglish":"Flores","labelLocal":"Flores","labelBoth":"Flores","type":"Department","iso":"UY-FS","qid":"Q16578"},"geometry":{"type":"Point","coordinates":[-56.8849,-33.5902]}},{"type":"Feature","id":"URY-18","properties":{"kind":"division","code":"URY-18","countryCode":"URY","name":"Florida","localName":"Florida","labelEnglish":"Florida","labelLocal":"Florida","labelBoth":"Florida","type":"Department","iso":"UY-FD","qid":"Q16593"},"geometry":{"type":"Polygon","coordinates":[[[-55.1111,-33.1182],[-55.645,-33.3688],[-56.0956,-33.4926],[-56.533,-33.4955],[-56.4627,-33.9024],[-56.4013,-34.433],[-55.9986,-34.2444],[-55.6191,-34.2077],[-55.3474,-33.8802],[-55.3216,-33.61],[-55.1246,-33.3818],[-55.1111,-33.1182]]]}},{"type":"Feature","id":"label-URY-18","properties":{"kind":"division-label","code":"URY-18","countryCode":"URY","name":"Florida","localName":"Florida","labelEnglish":"Florida","labelLocal":"Florida","labelBoth":"Florida","type":"Department","iso":"UY-FD","qid":"Q16593"},"geometry":{"type":"Point","coordinates":[-55.812,-33.835]}},{"type":"Feature","id":"URY-19","properties":{"kind":"division","code":"URY-19","countryCode":"URY","name":"Lavalleja","localName":"Lavalleja","labelEnglish":"Lavalleja","labelLocal":"Lavalleja","labelBoth":"Lavalleja","type":"Department","iso":"UY-LA","qid":"Q460435"},"geometry":{"type":"Polygon","coordinates":[[[-55.6191,-34.2077],[-55.4733,-34.6219],[-54.8444,-34.3929],[-54.6897,-34.0719],[-54.4821,-33.926],[-54.3478,-33.6166],[-54.1257,-33.4653],[-54.8357,-33.3377],[-55.1246,-33.3818],[-55.3216,-33.61],[-55.3474,-33.8802],[-55.6191,-34.2077]]]}},{"type":"Feature","id":"label-URY-19","properties":{"kind":"division-label","code":"URY-19","countryCode":"URY","name":"Lavalleja","localName":"Lavalleja","labelEnglish":"Lavalleja","labelLocal":"Lavalleja","labelBoth":"Lavalleja","type":"Department","iso":"UY-LA","qid":"Q460435"},"geometry":{"type":"Point","coordinates":[-54.8724,-33.8788]}}]}