{"type":"FeatureCollection","features":[{"type":"Feature","id":"USA-3519","properties":{"kind":"division","code":"USA-3519","countryCode":"USA","name":"Washington","localName":"Washington","labelEnglish":"Washington","labelLocal":"Washington","labelBoth":"Washington","type":"State","iso":"US-WA","qid":"Q1223"},"geometry":{"type":"Polygon","coordinates":[[[-122.753,48.9925],[-122.4403,48.5807],[-122.6466,48.4038],[-122.2128,47.9868],[-122.4061,47.7779],[-122.3253,47.391],[-122.7225,47.0893],[-123.0294,47.1215],[-122.846,47.3159],[-122.5685,47.2641],[-122.4684,47.7565],[-122.8683,48.1193],[-124.0502,48.1773],[-124.5749,48.3704],[-124.7346,48.1704],[-124.4228,47.7419],[-124.1719,47.0419],[-123.8131,46.959],[-124.1305,46.886],[-123.9,46.7474],[-124.0638,46.3563],[-123.873,46.2402],[-123.1801,46.1791],[-122.9102,46.1079],[-122.7389,45.6628],[-122.2611,45.5663],[-121.7926,45.7214],[-121.1729,45.6318],[-120.2299,45.7371],[-119.5917,45.9211],[-119.0024,45.9995],[-116.8788,46.0015],[-117.044,46.3785],[-117.0429,48.0548],[-117.0382,48.9925],[-119.7957,48.9925],[-122.753,48.9925]]]}},{"type":"Feature","id":"label-USA-3519","properties":{"kind":"division-label","code":"USA-3519","countryCode":"USA","name":"Washington","localName":"Washington","labelEnglish":"Washington","labelLocal":"Washington","labelBoth":"Washington","type":"State","iso":"US-WA","qid":"Q1223"},"geometry":{"type":"Point","coordinates":[-120.361,47.4865]}},{"type":"Feature","id":"USA-3518","properties":{"kind":"division","code":"USA-3518","countryCode":"USA","name":"Idaho","localName":"Idaho","labelEnglish":"Idaho","labelLocal":"Idaho","labelBoth":"Idaho","type":"State","iso":"US-ID","qid":"Q1221"},"geometry":{"type":"Polygon","coordinates":[[[-117.0382,48.9925],[-117.0429,48.0548],[-117.044,46.3785],[-116.8788,46.0015],[-116.463,45.5819],[-116.8328,44.9199],[-117.2038,44.4825],[-117.1951,44.2977],[-116.8969,44.1859],[-117.0202,43.7851],[-117.0166,41.9995],[-114.0425,42.0001],[-111.0502,41.9998],[-111.0514,44.4979],[-111.308,44.7324],[-111.5014,44.5802],[-112.2335,44.5687],[-112.3599,44.4714],[-112.9913,44.46],[-113.1833,44.8044],[-113.3241,44.7921],[-113.9573,45.6926],[-114.3296,45.4833],[-114.541,45.5691],[-114.3891,45.8959],[-114.4544,46.27],[-114.3598,46.678],[-114.567,46.6443],[-115.3417,47.2685],[-115.7173,47.4365],[-115.7189,47.6998],[-116.0489,48.0037],[-116.0482,48.9925],[-117.0382,48.9925]]]}},{"type":"Feature","id":"label-USA-3518","properties":{"kind":"division-label","code":"USA-3518","countryCode":"USA","name":"Idaho","localName":"Idaho","labelEnglish":"Idaho","labelLocal":"Idaho","labelBoth":"Idaho","type":"State","iso":"US-ID","qid":"Q1221"},"geometry":{"type":"Point","coordinates":[-114.133,43.7825]}},{"type":"Feature","id":"USA-3515","properties":{"kind":"division","code":"USA-3515","countryCode":"USA","name":"Montana","localName":"Montana","labelEnglish":"Montana","labelLocal":"Montana","labelBoth":"Montana","type":"State","iso":"US-MT","qid":"Q1212"},"geometry":{"type":"Polygon","coordinates":[[[-116.0482,48.9925],[-116.0489,48.0037],[-115.7189,47.6998],[-115.7173,47.4365],[-115.3417,47.2685],[-114.567,46.6443],[-114.3598,46.678],[-114.4544,46.27],[-114.3891,45.8959],[-114.541,45.5691],[-114.3296,45.4833],[-113.9573,45.6926],[-113.3241,44.7921],[-113.1833,44.8044],[-112.9913,44.46],[-112.3599,44.4714],[-112.2335,44.5687],[-111.5014,44.5802],[-111.308,44.7324],[-111.0514,44.4979],[-111.0508,45],[-107.8451,45],[-106.3219,45.0001],[-104.0567,45.0001],[-104.0449,45.942],[-104.0463,47.1338],[-104.0476,48.9926],[-106.6072,48.9926],[-108.1458,48.9926],[-109.9993,48.9926],[-111.4429,48.9926],[-114.0638,48.9925],[-116.0482,48.9925]]]}},{"type":"Feature","id":"label-USA-3515","properties":{"kind":"division-label","code":"USA-3515","countryCode":"USA","name":"Montana","localName":"Montana","labelEnglish":"Montana","labelLocal":"Montana","labelBoth":"Montana","type":"State","iso":"US-MT","qid":"Q1212"},"geometry":{"type":"Point","coordinates":[-110.044,46.9965]}},{"type":"Feature","id":"USA-3516","properties":{"kind":"division","code":"USA-3516","countryCode":"USA","name":"North Dakota","localName":"North Dakota","labelEnglish":"North Dakota","labelLocal":"North Dakota","labelBoth":"North Dakota","type":"State","iso":"US-ND","qid":"Q1207"},"geometry":{"type":"Polygon","coordinates":[[[-104.0476,48.9926],[-104.0463,47.1338],[-104.0449,45.942],[-101.2155,45.9419],[-99.1189,45.9419],[-96.5563,45.9418],[-96.6016,46.3239],[-96.7947,46.6423],[-96.8529,47.4883],[-97.1297,48.1706],[-97.101,48.6505],[-97.2261,48.9927],[-99.7931,48.9927],[-101.3643,48.9927],[-104.0476,48.9926]]]}},{"type":"Feature","id":"label-USA-3516","properties":{"kind":"division-label","code":"USA-3516","countryCode":"USA","name":"North Dakota","localName":"North Dakota","labelEnglish":"North Dakota","labelLocal":"North Dakota","labelBoth":"North Dakota","type":"State","iso":"US-ND","qid":"Q1207"},"geometry":{"type":"Point","coordinates":[-100.302,47.4675]}},{"type":"Feature","id":"USA-3514","properties":{"kind":"division","code":"USA-3514","countryCode":"USA","name":"Minnesota","localName":"Minnesota","labelEnglish":"Minnesota","labelLocal":"Minnesota","labelBoth":"Minnesota","type":"State","iso":"US-MN","qid":"Q1527"},"geometry":{"type":"Polygon","coordinates":[[[-97.2261,48.9927],[-97.101,48.6505],[-97.1297,48.1706],[-96.8529,47.4883],[-96.7947,46.6423],[-96.6016,46.3239],[-96.5563,45.9418],[-96.8631,45.6008],[-96.4536,45.2966],[-96.4536,43.5001],[-94.8275,43.5003],[-92.8762,43.5006],[-91.2501,43.501],[-91.295,43.919],[-91.6626,44.0733],[-92.1026,44.4369],[-92.8198,44.7578],[-92.6677,45.4454],[-92.8832,45.5761],[-92.7041,45.9131],[-92.2926,46.0833],[-92.2916,46.6597],[-91.4683,46.9241],[-90.654,47.3081],[-89.9576,47.2861],[-89.499,47.9951],[-90.1786,48.1164],[-90.7865,48.1005],[-90.9232,48.2271],[-91.4279,48.0364],[-92.0434,48.3346],[-92.3846,48.2324],[-92.6486,48.5363],[-93.2577,48.6303],[-93.7568,48.5165],[-94.7109,48.8075],[-94.8273,49.2929],[-95.1606,49.3695],[-95.1771,48.9927],[-97.2261,48.9927]]]}},{"type":"Feature","id":"label-USA-3514","properties":{"kind":"division-label","code":"USA-3514","countryCode":"USA","name":"Minnesota","localName":"Minnesota","labelEnglish":"Minnesota","labelLocal":"Minnesota","labelBoth":"Minnesota","type":"State","iso":"US-MN","qid":"Q1527"},"geometry":{"type":"Point","coordinates":[-93.364,46.0592]}},{"type":"Feature","id":"USA-3562","properties":{"kind":"division","code":"USA-3562","countryCode":"USA","name":"Michigan","localName":"Michigan","labelEnglish":"Michigan","labelLocal":"Michigan","labelBoth":"Michigan","type":"State","iso":"US-MI","qid":"Q1166"},"geometry":{"type":"Polygon","coordinates":[[[-89.499,47.9951],[-89.9576,47.2861],[-90.4125,46.5842],[-90.1185,46.3406],[-89.1192,46.1482],[-88.8373,46.0356],[-88.1877,45.9594],[-87.8026,45.687],[-87.8583,45.3576],[-87.436,45.079],[-87.0924,45.4438],[-86.7636,45.4438],[-86.2506,45.2361],[-86.7146,44.8452],[-86.9999,44.1677],[-87.1472,43.3799],[-87.0188,42.4962],[-87.2077,41.7597],[-84.8061,41.7583],[-84.8061,41.6968],[-83.4138,41.7353],[-83.1309,41.938],[-83.1285,42.24],[-82.5113,42.6467],[-82.4111,43.0513],[-82.1536,43.5496],[-82.5321,45.2935],[-83.484,45.7719],[-83.6139,46.1156],[-83.9646,46.0632],[-84.1104,46.5265],[-84.5894,46.4751],[-84.8787,46.8979],[-86.6371,47.6241],[-88.3473,48.2987],[-89.3404,47.9842],[-89.499,47.9951]]]}},{"type":"Feature","id":"label-USA-3562","properties":{"kind":"division-label","code":"USA-3562","countryCode":"USA","name":"Michigan","localName":"Michigan","labelEnglish":"Michigan","labelLocal":"Michigan","labelBoth":"Michigan","type":"State","iso":"US-MI","qid":"Q1166"},"geometry":{"type":"Point","coordinates":[-84.9479,43.4343]}},{"type":"Feature","id":"USA-3550","properties":{"kind":"division","code":"USA-3550","countryCode":"USA","name":"Ohio","localName":"Ohio","labelEnglish":"Ohio","labelLocal":"Ohio","labelBoth":"Ohio","type":"State","iso":"US-OH","qid":"Q1397"},"geometry":{"type":"Polygon","coordinates":[[[-83.1309,41.938],[-83.4138,41.7353],[-84.8061,41.6968],[-84.8141,39.9922],[-84.8235,39.0974],[-84.4442,39.1018],[-84.1956,38.8106],[-83.5343,38.7074],[-83.3051,38.6014],[-82.8863,38.7448],[-82.5894,38.4193],[-82.3317,38.4436],[-82.0584,39.0032],[-81.9017,38.8742],[-81.4789,39.4006],[-81.2269,39.3985],[-80.8752,39.6288],[-80.6146,40.2864],[-80.6768,40.5888],[-80.5202,40.6468],[-80.5202,42.3238],[-81.2767,42.2087],[-82.4249,41.6768],[-82.7111,41.6802],[-83.1309,41.938]]]}},{"type":"Feature","id":"label-USA-3550","properties":{"kind":"division-label","code":"USA-3550","countryCode":"USA","name":"Ohio","localName":"Ohio","labelEnglish":"Ohio","labelLocal":"Ohio","labelBoth":"Ohio","type":"State","iso":"US-OH","qid":"Q1397"},"geometry":{"type":"Point","coordinates":[-82.6719,40.0924]}},{"type":"Feature","id":"USA-3560","properties":{"kind":"division","code":"USA-3560","countryCode":"USA","name":"Pennsylvania","localName":"Pennsylvania","labelEnglish":"Pennsylvania","labelLocal":"Pennsylvania","labelBoth":"Pennsylvania","type":"State","iso":"US-PA","qid":"Q1400"},"geometry":{"type":"Polygon","coordinates":[[[-80.5202,42.3238],[-80.5202,40.6468],[-80.5194,39.7215],[-79.4774,39.7218],[-77.1695,39.7215],[-75.7886,39.7213],[-75.4245,39.8066],[-75.0236,40.0163],[-74.7286,40.1632],[-75.0888,40.5583],[-75.1395,40.9822],[-74.699,41.3563],[-75.0639,41.6157],[-75.0789,41.8281],[-75.339,41.9974],[-78.0941,41.999],[-79.7629,41.9999],[-79.763,42.5377],[-80.5202,42.3238]]]}},{"type":"Feature","id":"label-USA-3560","properties":{"kind":"division-label","code":"USA-3560","countryCode":"USA","name":"Pennsylvania","localName":"Pennsylvania","labelEnglish":"Pennsylvania","labelLocal":"Pennsylvania","labelBoth":"Pennsylvania","type":"State","iso":"US-PA","qid":"Q1400"},"geometry":{"type":"Point","coordinates":[-77.6094,40.8601]}},{"type":"Feature","id":"USA-3559","properties":{"kind":"division","code":"USA-3559","countryCode":"USA","name":"New York","localName":"New York","labelEnglish":"New York","labelLocal":"New York","labelBoth":"New York","type":"State","iso":"US-NY","qid":"Q1384"},"geometry":{"type":"MultiPolygon","coordinates":[[[[-79.763,42.5377],[-79.7629,41.9999],[-78.0941,41.999],[-75.339,41.9974],[-75.0789,41.8281],[-75.0639,41.6157],[-74.699,41.3563],[-73.9071,40.9908],[-73.9268,40.8048],[-73.6429,41.0011],[-73.5447,41.2949],[-73.4805,42.0545],[-73.2655,42.7456],[-73.247,43.552],[-73.4235,43.5946],[-73.4385,44.0528],[-73.2947,44.4697],[-73.3513,45.0046],[-74.713,44.9993],[-75.2702,44.8638],[-76.4546,44.0842],[-76.8415,43.6255],[-78.6881,43.6318],[-79.1743,43.4645],[-79.0538,43.2604],[-79.0194,42.8027],[-79.763,42.5377]]],[[[-71.9189,41.0649],[-73.4857,40.9456],[-73.9086,40.7887],[-73.9881,40.5694],[-72.8791,40.7457],[-71.9189,41.0649]]]]}},{"type":"Feature","id":"label-USA-3559","properties":{"kind":"division-label","code":"USA-3559","countryCode":"USA","name":"New York","localName":"New York","labelEnglish":"New York","labelLocal":"New York","labelBoth":"New York","type":"State","iso":"US-NY","qid":"Q1384"},"geometry":{"type":"Point","coordinates":[-75.3242,43.1988]}},{"type":"Feature","id":"USA-3540","properties":{"kind":"division","code":"USA-3540","countryCode":"USA","name":"Vermont","localName":"Vermont","labelEnglish":"Vermont","labelLocal":"Vermont","labelBoth":"Vermont","type":"State","iso":"US-VT","qid":"Q16551"},"geometry":{"type":"Polygon","coordinates":[[[-73.3513,45.0046],[-73.2947,44.4697],[-73.4385,44.0528],[-73.4235,43.5946],[-73.247,43.552],[-73.2655,42.7456],[-72.4668,42.7293],[-72.5555,42.878],[-72.3979,43.5314],[-72.2135,43.7846],[-72.0423,44.2817],[-71.678,44.4461],[-71.5058,45.0137],[-73.3513,45.0046]]]}},{"type":"Feature","id":"label-USA-3540","properties":{"kind":"division-label","code":"USA-3540","countryCode":"USA","name":"Vermont","localName":"Vermont","labelEnglish":"Vermont","labelLocal":"Vermont","labelBoth":"Vermont","type":"State","iso":"US-VT","qid":"Q16551"},"geometry":{"type":"Point","coordinates":[-72.7317,44.0886]}},{"type":"Feature","id":"USA-3538","properties":{"kind":"division","code":"USA-3538","countryCode":"USA","name":"New Hampshire","localName":"New Hampshire","labelEnglish":"New Hampshire","labelLocal":"New Hampshire","labelBoth":"New Hampshire","type":"State","iso":"US-NH","qid":"Q759"},"geometry":{"type":"Polygon","coordinates":[[[-71.5058,45.0137],[-71.678,44.4461],[-72.0423,44.2817],[-72.2135,43.7846],[-72.3979,43.5314],[-72.5555,42.878],[-72.4668,42.7293],[-71.3063,42.7009],[-70.8143,42.8773],[-70.7441,43.0838],[-70.9578,43.5622],[-71.085,45.3043],[-71.3343,45.2887],[-71.5058,45.0137]]]}},{"type":"Feature","id":"label-USA-3538","properties":{"kind":"division-label","code":"USA-3538","countryCode":"USA","name":"New Hampshire","localName":"New Hampshire","labelEnglish":"New Hampshire","labelLocal":"New Hampshire","labelBoth":"New Hampshire","type":"State","iso":"US-NH","qid":"Q759"},"geometry":{"type":"Point","coordinates":[-71.6301,43.5993]}},{"type":"Feature","id":"USA-3561","properties":{"kind":"division","code":"USA-3561","countryCode":"USA","name":"Maine","localName":"Maine","labelEnglish":"Maine","labelLocal":"Maine","labelBoth":"Maine","type":"State","iso":"US-ME","qid":"Q724"},"geometry":{"type":"Polygon","coordinates":[[[-71.085,45.3043],[-70.9578,43.5622],[-70.7441,43.0838],[-69.9511,43.8491],[-69.8282,43.6983],[-69.5129,43.8349],[-69.3643,44.0605],[-69.0758,44.0525],[-68.9866,44.4212],[-68.5414,44.2373],[-68.5744,44.4108],[-67.1965,44.6442],[-66.9773,44.8155],[-67.176,45.1787],[-67.475,45.2824],[-67.45,45.6108],[-67.8001,45.6998],[-67.8052,47.0356],[-68.197,47.3414],[-68.9062,47.1902],[-69.0636,47.2908],[-69.2676,47.4398],[-70.0078,46.7041],[-70.4074,45.7315],[-70.6868,45.5727],[-70.9069,45.2462],[-71.085,45.3043]]]}},{"type":"Feature","id":"label-USA-3561","properties":{"kind":"division-label","code":"USA-3561","countryCode":"USA","name":"Maine","localName":"Maine","labelEnglish":"Maine","labelLocal":"Maine","labelBoth":"Maine","type":"State","iso":"US-ME","qid":"Q724"},"geometry":{"type":"Point","coordinates":[-69.1973,45.148]}},{"type":"Feature","id":"USA-3520","properties":{"kind":"division","code":"USA-3520","countryCode":"USA","name":"Arizona","localName":"Arizona","labelEnglish":"Arizona","labelLocal":"Arizona","labelBoth":"Arizona","type":"State","iso":"US-AZ","qid":"Q816"},"geometry":{"type":"Polygon","coordinates":[[[-114.8194,32.4994],[-112.3247,31.728],[-111.0671,31.3336],[-109.0474,31.3274],[-109.0471,33.4578],[-109.0469,35.2288],[-109.0466,36.9998],[-110.7632,37.0009],[-112.0116,37.0018],[-114.0402,37.0031],[-114.042,36.2198],[-114.1239,36.0459],[-114.5548,36.1605],[-114.7212,36.0927],[-114.6282,35.0036],[-114.3638,34.467],[-114.1274,34.2797],[-114.5222,33.9414],[-114.4881,33.7251],[-114.7174,33.4166],[-114.6967,33.0894],[-114.4737,32.9853],[-114.5359,32.7382],[-114.7243,32.7128],[-114.8194,32.4994]]]}},{"type":"Feature","id":"label-USA-3520","properties":{"kind":"division-label","code":"USA-3520","countryCode":"USA","name":"Arizona","localName":"Arizona","labelEnglish":"Arizona","labelLocal":"Arizona","labelBoth":"Arizona","type":"State","iso":"US-AZ","qid":"Q816"},"geometry":{"type":"Point","coordinates":[-111.935,34.3046]}},{"type":"Feature","id":"USA-3521","properties":{"kind":"division","code":"USA-3521","countryCode":"USA","name":"California","localName":"California","labelEnglish":"California","labelLocal":"California","labelBoth":"California","type":"State","iso":"US-CA","qid":"Q99"},"geometry":{"type":"Polygon","coordinates":[[[-114.7243,32.7128],[-114.5359,32.7382],[-114.4737,32.9853],[-114.6967,33.0894],[-114.7174,33.4166],[-114.4881,33.7251],[-114.5222,33.9414],[-114.1274,34.2797],[-114.3638,34.467],[-114.6282,35.0036],[-116.1776,36.2104],[-117.3929,37.1401],[-118.8289,38.1818],[-120,38.9992],[-120.0004,40.3509],[-120.0008,41.9995],[-121.8317,41.9995],[-124.2145,41.9995],[-124.0622,41.4359],[-124.1114,41.0417],[-124.4092,40.4438],[-124.3635,40.2615],[-123.854,39.8335],[-123.7262,38.9186],[-123.1287,38.4493],[-122.9068,38.0318],[-122.5284,37.8164],[-122.5023,38.1135],[-122.0386,37.4514],[-122.5152,37.7811],[-122.4045,37.1945],[-121.7898,36.8062],[-121.978,36.5748],[-121.2883,35.6648],[-120.6449,35.1394],[-120.6478,34.5857],[-120.4727,34.4503],[-119.6172,34.4205],[-119.2101,34.1523],[-118.807,33.9994],[-118.5441,34.0389],[-118.412,33.7417],[-118.0905,33.731],[-117.5088,33.3352],[-117.3222,33.1085],[-117.2575,32.7017],[-117.1251,32.5317],[-114.7243,32.7128]]]}},{"type":"Feature","id":"label-USA-3521","properties":{"kind":"division-label","code":"USA-3521","countryCode":"USA","name":"California","localName":"California","labelEnglish":"California","labelLocal":"California","labelBoth":"California","type":"State","iso":"US-CA","qid":"Q99"},"geometry":{"type":"Point","coordinates":[-119.591,36.7496]}},{"type":"Feature","id":"USA-3524","properties":{"kind":"division","code":"USA-3524","countryCode":"USA","name":"New Mexico","localName":"New Mexico","labelEnglish":"New Mexico","labelLocal":"New Mexico","labelBoth":"New Mexico","type":"State","iso":"US-NM","qid":"Q1522"},"geometry":{"type":"Polygon","coordinates":[[[-108.9683,31.3274],[-108.2148,31.3274],[-108.2151,31.7778],[-106.5061,31.7703],[-106.6622,32.0003],[-104.8427,32.001],[-103.0656,32.0017],[-103.0551,33.948],[-103.0477,35.3381],[-103.0421,36.4996],[-103.0002,36.5002],[-103.0008,36.9998],[-105.8347,36.9998],[-107.1573,36.9998],[-109.0466,36.9998],[-109.0469,35.2288],[-109.0471,33.4578],[-109.0474,31.3274],[-108.9683,31.3274]]]}},{"type":"Feature","id":"label-USA-3524","properties":{"kind":"division-label","code":"USA-3524","countryCode":"USA","name":"New Mexico","localName":"New Mexico","labelEnglish":"New Mexico","labelLocal":"New Mexico","labelBoth":"New Mexico","type":"State","iso":"US-NM","qid":"Q1522"},"geometry":{"type":"Point","coordinates":[-106.024,34.5002]}},{"type":"Feature","id":"USA-3536","properties":{"kind":"division","code":"USA-3536","countryCode":"USA","name":"Texas","localName":"Texas","labelEnglish":"Texas","labelLocal":"Texas","labelBoth":"Texas","type":"State","iso":"US-TX","qid":"Q1439"},"geometry":{"type":"Polygon","coordinates":[[[-106.5061,31.7703],[-105.3638,30.8504],[-105.0085,30.677],[-104.6816,30.1929],[-104.5308,29.6679],[-104.0573,29.339],[-103.3115,29.026],[-103.148,28.9851],[-102.8994,29.2761],[-102.6835,29.7437],[-102.321,29.8939],[-102.1093,29.8021],[-101.4051,29.7784],[-100.669,29.1162],[-100.2843,28.2965],[-100.0749,28.1544],[-99.807,27.7714],[-99.7107,27.6701],[-99.5072,27.5738],[-99.4617,27.057],[-99.2483,26.8271],[-99.0855,26.4076],[-98.7959,26.3683],[-98.2227,26.0754],[-97.802,26.0637],[-97.4254,25.8549],[-97.1393,25.9658],[-97.3105,26.1233],[-97.5502,27.0092],[-97.1841,27.8366],[-97.025,28.0414],[-97.2175,28.0748],[-96.4038,28.4349],[-96.4448,28.5974],[-95.6019,28.7639],[-95.1589,29.0457],[-94.8888,29.376],[-94.9858,29.675],[-94.7035,29.7514],[-94.6543,29.4519],[-94.0601,29.6818],[-93.7984,29.9856],[-93.7172,30.0798],[-93.7305,30.5657],[-93.5148,31.042],[-94.0432,31.9982],[-94.0413,33.0109],[-94.0473,33.5542],[-94.4841,33.6474],[-94.8727,33.7559],[-95.2203,33.9629],[-95.9379,33.8956],[-96.3288,33.7019],[-96.6494,33.916],[-96.9145,33.9559],[-97.1125,33.7261],[-97.68,33.9835],[-97.9591,33.893],[-98.0907,34.1383],[-98.4907,34.0752],[-99.193,34.2322],[-99.2655,34.4116],[-99.6808,34.3947],[-99.9993,34.5755],[-100.0024,36.4999],[-101.8075,36.5002],[-103.0002,36.5002],[-103.0421,36.4996],[-103.0477,35.3381],[-103.0551,33.948],[-103.0656,32.0017],[-104.8427,32.001],[-106.6622,32.0003],[-106.5061,31.7703]]]}},{"type":"Feature","id":"label-USA-3536","properties":{"kind":"division-label","code":"USA-3536","countryCode":"USA","name":"Texas","localName":"Texas","labelEnglish":"Texas","labelLocal":"Texas","labelBoth":"Texas","type":"State","iso":"US-TX","qid":"Q1439"},"geometry":{"type":"Point","coordinates":[-98.7607,31.131]}},{"type":"Feature","id":"USA-3563","properties":{"kind":"division","code":"USA-3563","countryCode":"USA","name":"Alaska","localName":"Alaska","labelEnglish":"Alaska","labelLocal":"Alaska","labelBoth":"Alaska","type":"State","iso":"US-AK","qid":"Q797"},"geometry":{"type":"MultiPolygon","coordinates":[[[[-141.0056,69.6509],[-141.4129,69.6504],[-142.6008,70.0131],[-143.3003,70.1166],[-144.5902,69.9828],[-145.3014,69.9997],[-145.8802,70.175],[-147.1237,70.1675],[-149.4885,70.523],[-151.9797,70.4487],[-152.6301,70.5585],[-152.2192,70.818],[-153.3024,70.9287],[-154.131,70.7913],[-155.2097,71.123],[-155.5771,70.8459],[-156.0721,70.9739],[-155.6247,71.1835],[-156.8172,71.3063],[-158.043,70.8369],[-159.6682,70.805],[-160.8607,70.3473],[-161.9057,70.3206],[-162.9498,69.7905],[-163.1258,69.39],[-163.6225,69.1192],[-164.3464,68.9294],[-166.2368,68.8748],[-166.24,68.5643],[-166.5482,68.3588],[-164.1515,67.6196],[-163.6883,67.1032],[-162.4355,66.991],[-161.8352,67.055],[-161.8683,66.7063],[-161.4816,66.5339],[-160.881,66.6724],[-160.2192,66.5321],[-160.7848,66.3745],[-161.1934,66.5361],[-161.6072,66.4539],[-162.0808,66.6662],[-162.3271,66.9604],[-162.6387,66.8996],[-161.8673,66.4813],[-160.997,66.241],[-161.5712,66.258],[-161.8954,65.9795],[-162.1794,66.0759],[-163.6805,66.0786],[-163.9031,66.2069],[-163.7363,66.6035],[-164.7181,66.5563],[-167.3459,65.8986],[-168.081,65.5915],[-167.3986,65.4011],[-166.1404,65.2857],[-166.9615,65.1544],[-166.3902,64.8985],[-166.1897,64.5852],[-165.0355,64.4483],[-164.3891,64.5695],[-163.5366,64.5645],[-163.135,64.4125],[-162.0809,64.7211],[-161.4222,64.7744],[-161.1826,64.9395],[-160.8032,64.6434],[-161.4294,64.4333],[-160.9735,64.2505],[-160.7916,63.7465],[-161.1863,63.5056],[-162.1689,63.4312],[-163.3505,63.0308],[-164.1454,63.2622],[-164.5952,63.1301],[-164.8832,62.8415],[-164.7791,62.619],[-165.133,62.5157],[-165.7056,62.1166],[-165.6091,61.8513],[-166.1028,61.8211],[-165.7824,61.6841],[-166.1999,61.5946],[-165.129,60.9235],[-163.9575,60.8682],[-163.4243,60.7647],[-163.6435,60.6015],[-163.9556,60.7799],[-164.6691,60.8258],[-165.4312,60.553],[-164.6737,60.2952],[-164.1147,60.005],[-164.0983,59.8337],[-163.6149,59.8008],[-162.5258,59.9975],[-162.3172,60.1131],[-161.7139,59.5014],[-162.0515,59.2702],[-161.7174,58.7548],[-162.1761,58.6449],[-161.3639,58.6596],[-160.3522,59.0707],[-159.9061,58.7654],[-159.5869,58.9075],[-159.0513,58.4247],[-158.77,58.5185],[-158.9146,58.7754],[-158.4573,59.0759],[-158.5662,58.8195],[-158.1537,58.614],[-157.0845,58.8867],[-157.0619,58.7262],[-157.5027,58.4637],[-157.6807,57.5725],[-158.3124,57.3149],[-158.6821,57.022],[-158.6396,56.7637],[-158.945,56.8429],[-159.7457,56.5793],[-160.3687,56.2768],[-160.5799,55.9897],[-160.2373,55.8383],[-161.0533,55.9411],[-161.8263,55.8799],[-162.6533,55.3615],[-163.3345,55.1195],[-163.3208,54.8139],[-163.0411,55.0994],[-162.7829,54.9359],[-162.5833,55.3011],[-162.2021,55.0399],[-161.9566,55.1257],[-161.6208,55.613],[-161.5184,55.3834],[-160.9245,55.5191],[-160.6834,55.4647],[-159.8304,55.8527],[-159.6252,55.8127],[-158.6676,55.9693],[-158.2082,56.2839],[-158.51,56.3454],[-157.7729,56.6844],[-157.4552,56.6432],[-156.7949,57.0347],[-156.5498,56.9829],[-156.0205,57.5768],[-155.7416,57.5521],[-155.0402,58.0172],[-154.5831,58.025],[-154.0817,58.4952],[-153.2891,58.8441],[-153.7115,59.0707],[-154.1873,59.035],[-154.1453,59.3812],[-153.7247,59.4661],[-153.7064,59.632],[-153.0553,59.7102],[-152.5903,60.0922],[-152.3401,60.4761],[-151.5668,60.9945],[-151.1548,61.0644],[-150.5403,61.3693],[-150.4506,61.2526],[-149.1261,60.8836],[-150.4525,61.0342],[-151.4173,60.7182],[-151.2828,60.5371],[-151.4654,60.1877],[-151.8829,59.7865],[-151.2733,59.56],[-151.9858,59.3129],[-151.7415,59.1671],[-151.1616,59.2077],[-149.1927,60.0141],[-148.4354,59.9593],[-148.443,60.1837],[-147.9419,60.4431],[-148.2766,60.4949],[-148.3747,60.7796],[-148.1459,61.1179],[-147.8702,60.8377],[-147.0472,61.0098],[-146.2632,60.6537],[-145.629,60.6791],[-145.9388,60.4561],[-145.2359,60.3681],[-144.7464,60.6766],[-144.9416,60.3066],[-143.9186,59.997],[-142.7985,60.1124],[-140.3227,59.7012],[-139.6211,59.8903],[-139.4734,59.7176],[-139.857,59.5463],[-138.2879,59.0808],[-137.6706,58.6332],[-136.6908,58.2304],[-136.0267,58.3881],[-136.5876,58.8483],[-136.9947,58.8934],[-137.0322,59.0675],[-136.2097,58.7508],[-136.0975,58.8769],[-135.8411,58.5284],[-135.4675,58.4674],[-135.3096,58.2521],[-135.0573,58.3515],[-135.3772,58.9363],[-135.3618,59.2708],[-134.7673,58.4003],[-134.2416,58.2143],[-134.0045,58.4086],[-134.0597,58.0722],[-133.3398,57.4118],[-133.552,57.1815],[-133.2259,57.175],[-132.5371,56.7581],[-132.4769,56.6045],[-132.161,56.3802],[-131.9713,56.3564],[-131.8768,56.2231],[-132.0587,55.8048],[-132.2662,55.7563],[-131.9614,55.501],[-131.7359,55.8867],[-131.4144,56.0102],[-131.1964,55.9714],[-130.8899,55.7153],[-130.8732,55.342],[-131.0576,55.1987],[-130.9183,54.8029],[-130.3654,54.9073],[-129.9892,55.284],[-130.1737,55.7495],[-130.0196,55.908],[-130.1168,56.1056],[-131.5859,56.595],[-132.1074,56.8588],[-132.0319,57.0284],[-132.5524,57.4991],[-133.3922,58.4039],[-134.398,59.052],[-135.0958,59.4189],[-135.0162,59.5434],[-135.4828,59.7925],[-136.3503,59.5924],[-136.6135,59.1542],[-136.8408,59.1482],[-137.4231,58.9077],[-137.6114,59.2393],[-139.0602,60.0001],[-139.1016,60.3466],[-139.6283,60.3341],[-140.0158,60.1874],[-141.0012,60.3211],[-141.0018,61.6331],[-141.0026,63.3825],[-141.0031,64.5487],[-141.0042,66.5896],[-141.0047,67.7558],[-141.0056,69.6509]]],[[[-132.703,54.7012],[-133.1214,55.2513],[-133.2169,55.0991],[-132.8429,54.6938],[-132.703,54.7012]]],[[[-130.9619,55.5851],[-131.2803,55.9652],[-131.6706,55.8395],[-131.8202,55.4638],[-131.192,55.1857],[-130.9619,55.5851]]],[[[-132.5484,56.3044],[-132.705,56.1174],[-132.3034,55.9154],[-132.0922,56.1064],[-132.5484,56.3044]]],[[[-131.9767,54.8315],[-131.9693,55.2049],[-132.7364,55.9966],[-133.0628,56.0523],[-133.1821,56.3323],[-133.6147,56.3529],[-133.2855,56.1674],[-133.2177,55.8837],[-133.3791,55.6298],[-132.9698,55.6397],[-133.213,55.2792],[-132.7991,55.2704],[-132.4027,55.0153],[-132.3597,54.8037],[-131.9767,54.8315]]],[[[-132.6129,56.4006],[-132.9242,56.452],[-132.8689,56.2435],[-132.6129,56.4006]]],[[[-132.004,56.3392],[-132.1239,56.3432],[-132.362,56.4946],[-132.0723,56.1195],[-131.9283,56.1946],[-132.004,56.3392]]],[[[-132.9596,56.788],[-132.9375,56.5176],[-132.5334,56.6003],[-132.9596,56.788]]],[[[-133.8847,56.4901],[-133.7057,56.6042],[-134.0127,56.8852],[-134.4086,56.8429],[-134.2107,56.0628],[-133.8956,56.22],[-133.8847,56.4901]]],[[[-133.9127,57.0828],[-134.0182,57.0176],[-133.7406,56.8089],[-133.6594,56.4642],[-133.0791,56.5303],[-132.9804,56.935],[-133.9127,57.0828]]],[[[-152.9079,57.1647],[-153.2605,57.2056],[-153.3427,57.004],[-152.9079,57.1647]]],[[[-134.6215,56.7438],[-134.9095,57.3323],[-135.3812,57.5536],[-135.675,57.3586],[-135.1654,57.0417],[-135.3675,56.8289],[-134.6562,56.1747],[-134.6215,56.7438]]],[[[-152.1609,57.6271],[-152.3573,57.799],[-153.2842,58.0104],[-153.211,57.7856],[-153.6655,57.8947],[-153.9246,57.8105],[-153.8113,57.4123],[-154.2203,57.6755],[-154.7269,57.4285],[-154.5286,56.9916],[-154.238,56.8996],[-154.1212,57.1237],[-153.8057,57.1542],[-154.1226,56.7412],[-153.144,57.3193],[-152.6631,57.2995],[-152.9734,57.5179],[-152.3387,57.4332],[-152.1609,57.6271]]],[[[-135.848,57.3944],[-135.5559,57.4537],[-135.7682,57.7597],[-135.0569,57.4666],[-134.8196,57.4861],[-134.9248,58.0275],[-135.8135,58.2744],[-136.4172,57.835],[-135.9503,57.6209],[-135.848,57.3944]]],[[[-134.354,57.0927],[-133.9393,57.3087],[-133.8884,57.7984],[-134.2038,58.1274],[-134.7978,58.1128],[-134.457,57.3118],[-134.6146,57.0102],[-134.354,57.0927]]],[[[-151.966,58.3328],[-152.6506,58.4836],[-152.7518,58.2727],[-153.1675,58.1112],[-152.8049,57.9915],[-152.1168,58.1479],[-151.966,58.3328]]],[[[-147.1072,60.2862],[-147.7031,59.9975],[-147.4903,59.9392],[-147.1072,60.2862]]],[[[-146.1886,60.4022],[-146.6343,60.4649],[-146.6002,60.2452],[-146.1886,60.4022]]],[[[-176.4372,51.7883],[-176.7818,51.9365],[-176.9171,51.6015],[-176.4372,51.7883]]],[[[-173.1234,52.108],[-174.0594,52.1247],[-173.4842,52.0247],[-173.1234,52.108]]],[[[-174.052,52.2408],[-174.2283,52.2675],[-174.8881,52.0428],[-174.0989,52.113],[-174.052,52.2408]]],[[[-167.8575,53.3928],[-168.0083,53.5703],[-168.3736,53.4602],[-169.0399,52.8537],[-168.4899,53.0421],[-167.8575,53.3928]]],[[[-166.2943,53.728],[-166.3704,54.0085],[-167.0216,53.9612],[-167.1586,53.4771],[-167.85,53.3096],[-166.7522,53.4509],[-166.2943,53.728]]],[[[173.3766,52.8305],[173.1272,52.9949],[172.6604,53.0086],[172.9443,52.7498],[173.3766,52.8305]]],[[[-163.0738,54.6876],[-163.373,54.7927],[-163.5716,55.057],[-164.5474,54.8828],[-164.9582,54.5852],[-164.8453,54.4235],[-164.4056,54.436],[-164.1327,54.6232],[-163.6225,54.6118],[-163.3695,54.7646],[-163.0738,54.6876]]],[[[-160.4974,55.1946],[-160.8536,55.3319],[-160.8189,55.1195],[-160.4974,55.1946]]],[[[-165.5821,59.951],[-165.6844,60.2998],[-166.1313,60.4315],[-166.874,60.2106],[-167.4361,60.1954],[-166.6134,59.8564],[-166.1574,59.8275],[-165.5821,59.951]]],[[[-168.7407,63.281],[-170.0845,63.4858],[-170.2974,63.6955],[-170.937,63.5717],[-171.6163,63.6935],[-171.8529,63.5212],[-171.4393,63.3198],[-170.8562,63.4604],[-169.8669,63.1445],[-169.7556,62.9656],[-169.2873,63.1933],[-168.7407,63.281]]]]}},{"type":"Feature","id":"label-USA-3563","properties":{"kind":"division-label","code":"USA-3563","countryCode":"USA","name":"Alaska","localName":"Alaska","labelEnglish":"Alaska","labelLocal":"Alaska","labelBoth":"Alaska","type":"State","iso":"US-AK","qid":"Q797"},"geometry":{"type":"Point","coordinates":[-151.604,65.3609]}},{"type":"Feature","id":"USA-3535","properties":{"kind":"division","code":"USA-3535","countryCode":"USA","name":"Louisiana","localName":"Louisiana","labelEnglish":"Louisiana","labelLocal":"Louisiana","labelBoth":"Louisiana","type":"State","iso":"US-LA","qid":"Q1588"},"geometry":{"type":"Polygon","coordinates":[[[-89.526,30.1928],[-89.8461,30.6825],[-89.7353,31.0001],[-91.6573,31.0002],[-91.6479,31.2715],[-91.336,31.8581],[-91.0914,32.0141],[-90.9165,32.3398],[-91.093,32.4508],[-91.1665,33.0143],[-94.0413,33.0109],[-94.0432,31.9982],[-93.5148,31.042],[-93.7305,30.5657],[-93.7172,30.0798],[-93.7984,29.9856],[-93.831,29.7001],[-93.1996,29.7728],[-92.2765,29.5338],[-92.1346,29.7362],[-91.8475,29.8312],[-91.5343,29.534],[-91.2675,29.4958],[-91.328,29.2949],[-90.884,29.1338],[-90.6407,29.1406],[-90.4259,29.3504],[-90.2292,29.0867],[-90.0511,29.2294],[-90.182,29.5795],[-89.7501,29.3922],[-89.8181,29.3162],[-89.1505,29.0482],[-89.0325,29.2166],[-89.5446,29.4081],[-89.7023,29.7098],[-89.3317,29.8799],[-89.4791,30.08],[-89.6197,29.8799],[-89.8111,29.9472],[-89.6396,30.1406],[-90.037,30.0403],[-90.433,30.1433],[-90.2224,30.3876],[-89.526,30.1928]]]}},{"type":"Feature","id":"label-USA-3535","properties":{"kind":"division-label","code":"USA-3535","countryCode":"USA","name":"Louisiana","localName":"Louisiana","labelEnglish":"Louisiana","labelLocal":"Louisiana","labelBoth":"Louisiana","type":"State","iso":"US-LA","qid":"Q1588"},"geometry":{"type":"Point","coordinates":[-91.9991,30.5274]}},{"type":"Feature","id":"USA-3544","properties":{"kind":"division","code":"USA-3544","countryCode":"USA","name":"Mississippi","localName":"Mississippi","labelEnglish":"Mississippi","labelLocal":"Mississippi","labelBoth":"Mississippi","type":"State","iso":"US-MS","qid":"Q1494"},"geometry":{"type":"Polygon","coordinates":[[[-88.4022,30.3878],[-88.4862,31.8895],[-88.3085,33.2338],[-88.0882,34.9081],[-88.1791,34.9978],[-90.3042,35.0001],[-90.5939,34.6423],[-90.594,34.4251],[-91.0846,33.9967],[-91.2259,33.6899],[-91.1272,33.4781],[-91.1665,33.0143],[-91.093,32.4508],[-90.9165,32.3398],[-91.0914,32.0141],[-91.336,31.8581],[-91.6479,31.2715],[-91.6573,31.0002],[-89.7353,31.0001],[-89.8461,30.6825],[-89.526,30.1928],[-88.8594,30.4081],[-88.4022,30.3878]]]}},{"type":"Feature","id":"label-USA-3544","properties":{"kind":"division-label","code":"USA-3544","countryCode":"USA","name":"Mississippi","localName":"Mississippi","labelEnglish":"Mississippi","labelLocal":"Mississippi","labelBoth":"Mississippi","type":"State","iso":"US-MS","qid":"Q1494"},"geometry":{"type":"Point","coordinates":[-89.7189,32.8657]}},{"type":"Feature","id":"USA-3541","properties":{"kind":"division","code":"USA-3541","countryCode":"USA","name":"Alabama","localName":"Alabama","labelEnglish":"Alabama","labelLocal":"Alabama","labelBoth":"Alabama","type":"State","iso":"US-AL","qid":"Q173"},"geometry":{"type":"Polygon","coordinates":[[[-87.4196,30.4796],[-87.5936,30.9997],[-85.0066,31.0001],[-85.1102,31.2715],[-85.0425,31.5353],[-85.1439,31.824],[-84.9,32.2763],[-85.1986,32.9444],[-85.6057,34.9852],[-88.1791,34.9978],[-88.0882,34.9081],[-88.3085,33.2338],[-88.4862,31.8895],[-88.4022,30.3878],[-88.1201,30.3383],[-88.0228,30.7236],[-87.9407,30.4831],[-87.6545,30.2521],[-87.4196,30.4796]]]}},{"type":"Feature","id":"label-USA-3541","properties":{"kind":"division-label","code":"USA-3541","countryCode":"USA","name":"Alabama","localName":"Alabama","labelEnglish":"Alabama","labelLocal":"Alabama","labelBoth":"Alabama","type":"State","iso":"US-AL","qid":"Q173"},"geometry":{"type":"Point","coordinates":[-86.7184,32.8551]}},{"type":"Feature","id":"USA-3542","properties":{"kind":"division","code":"USA-3542","countryCode":"USA","name":"Florida","localName":"Florida","labelEnglish":"Florida","labelLocal":"Florida","labelBoth":"Florida","type":"State","iso":"US-FL","qid":"Q812"},"geometry":{"type":"Polygon","coordinates":[[[-87.4473,30.3131],[-87.4463,30.2982],[-87.1568,30.4745],[-87.0445,30.3896],[-86.2071,30.5049],[-86.3648,30.3808],[-85.6709,30.123],[-85.3022,29.7979],[-85.3461,29.6784],[-84.8866,29.73],[-84.3836,30.0319],[-84.024,30.1066],[-83.6806,29.9213],[-83.4048,29.5317],[-83.0239,29.1748],[-82.8009,29.1748],[-82.6311,28.873],[-82.6642,28.4479],[-82.8285,27.805],[-82.3982,27.796],[-82.6984,27.4548],[-82.3138,26.8494],[-82.057,26.8658],[-82.0391,26.5279],[-81.8439,26.4142],[-81.7185,25.9081],[-81.3217,25.7827],[-81.0865,25.1214],[-80.5062,25.2005],[-80.1406,25.9008],[-80.0536,26.5567],[-80.0756,26.9732],[-80.7383,28.3735],[-80.6094,28.6102],[-80.9221,29.0683],[-81.2389,29.7373],[-81.5,30.7122],[-81.9091,30.8185],[-82.0413,30.7367],[-82.0486,30.3754],[-82.2398,30.5647],[-84.867,30.7204],[-85.0066,31.0001],[-87.5936,30.9997],[-87.4196,30.4796],[-87.4473,30.3131]]]}},{"type":"Feature","id":"label-USA-3542","properties":{"kind":"division-label","code":"USA-3542","countryCode":"USA","name":"Florida","localName":"Florida","labelEnglish":"Florida","labelLocal":"Florida","labelBoth":"Florida","type":"State","iso":"US-FL","qid":"Q812"},"geometry":{"type":"Point","coordinates":[-81.6228,28.1568]}},{"type":"Feature","id":"USA-3543","properties":{"kind":"division","code":"USA-3543","countryCode":"USA","name":"Georgia","localName":"Georgia","labelEnglish":"Georgia","labelLocal":"Georgia","labelBoth":"Georgia","type":"State","iso":"US-GA","qid":"Q1428"},"geometry":{"type":"Polygon","coordinates":[[[-80.8903,32.0327],[-81.0779,32.0871],[-81.2008,32.4846],[-81.4058,32.6243],[-81.5176,33.0396],[-81.7597,33.1559],[-81.9381,33.4761],[-82.5705,33.9678],[-82.8573,34.4606],[-83.3555,34.7084],[-83.1148,35.0004],[-84.3246,34.9871],[-85.6057,34.9852],[-85.1986,32.9444],[-84.9,32.2763],[-85.1439,31.824],[-85.0425,31.5353],[-85.1102,31.2715],[-85.0066,31.0001],[-84.867,30.7204],[-82.2398,30.5647],[-82.0486,30.3754],[-82.0413,30.7367],[-81.9091,30.8185],[-81.5,30.7122],[-81.5223,30.8544],[-81.2699,31.2748],[-81.3334,31.5444],[-80.8903,32.0327]]]}},{"type":"Feature","id":"label-USA-3543","properties":{"kind":"division-label","code":"USA-3543","countryCode":"USA","name":"Georgia","localName":"Georgia","labelEnglish":"Georgia","labelLocal":"Georgia","labelBoth":"Georgia","type":"State","iso":"US-GA","qid":"Q1428"},"geometry":{"type":"Point","coordinates":[-83.4078,32.8547]}},{"type":"Feature","id":"USA-3545","properties":{"kind":"division","code":"USA-3545","countryCode":"USA","name":"South Carolina","localName":"South Carolina","labelEnglish":"South Carolina","labelLocal":"South Carolina","labelBoth":"South Carolina","type":"State","iso":"US-SC","qid":"Q1456"},"geometry":{"type":"Polygon","coordinates":[[[-78.5732,33.8826],[-79.6535,34.7957],[-80.7762,34.8257],[-81.0735,35.1542],[-82.3983,35.2162],[-83.1148,35.0004],[-83.3555,34.7084],[-82.8573,34.4606],[-82.5705,33.9678],[-81.9381,33.4761],[-81.7597,33.1559],[-81.5176,33.0396],[-81.4058,32.6243],[-81.2008,32.4846],[-81.0779,32.0871],[-80.8903,32.0327],[-80.3312,32.4864],[-79.1835,33.1838],[-78.938,33.6421],[-78.5732,33.8826]]]}},{"type":"Feature","id":"label-USA-3545","properties":{"kind":"division-label","code":"USA-3545","countryCode":"USA","name":"South Carolina","localName":"South Carolina","labelEnglish":"South Carolina","labelLocal":"South Carolina","labelBoth":"South Carolina","type":"State","iso":"US-SC","qid":"Q1456"},"geometry":{"type":"Point","coordinates":[-80.6471,33.8578]}},{"type":"Feature","id":"USA-3549","properties":{"kind":"division","code":"USA-3549","countryCode":"USA","name":"North Carolina","localName":"North Carolina","labelEnglish":"North Carolina","labelLocal":"North Carolina","labelBoth":"North Carolina","type":"State","iso":"US-NC","qid":"Q1454"},"geometry":{"type":"MultiPolygon","coordinates":[[[[-76.0317,36.5503],[-77.8987,36.5423],[-80.0896,36.5398],[-81.6589,36.6096],[-81.7429,36.3891],[-82.0866,36.1006],[-82.2041,36.1601],[-82.5837,35.9688],[-82.6298,36.0574],[-83.4992,35.57],[-83.7743,35.5562],[-84.2612,35.2557],[-84.3246,34.9871],[-83.1148,35.0004],[-82.3983,35.2162],[-81.0735,35.1542],[-80.7762,34.8257],[-79.6535,34.7957],[-78.5732,33.8826],[-78.0323,33.8923],[-77.6683,34.3762],[-77.1369,34.6824],[-76.5228,34.7319],[-76.3357,34.8995],[-76.9403,34.9798],[-76.5605,35.1244],[-76.5752,35.4975],[-76.0651,35.3842],[-75.7218,35.8292],[-75.8529,35.98],[-76.7298,35.9453],[-76.0574,36.1688],[-75.7855,36.0816],[-76.0317,36.5503]]],[[[-75.909,36.5494],[-75.943,36.5496],[-75.9669,36.5498],[-76.0133,36.5502],[-75.9011,36.496],[-75.909,36.5494]]]]}},{"type":"Feature","id":"label-USA-3549","properties":{"kind":"division-label","code":"USA-3549","countryCode":"USA","name":"North Carolina","localName":"North Carolina","labelEnglish":"North Carolina","labelLocal":"North Carolina","labelBoth":"North Carolina","type":"State","iso":"US-NC","qid":"Q1454"},"geometry":{"type":"Point","coordinates":[-78.866,35.6152]}},{"type":"Feature","id":"USA-3552","properties":{"kind":"division","code":"USA-3552","countryCode":"USA","name":"Virginia","localName":"Virginia","labelEnglish":"Virginia","labelLocal":"Virginia","labelBoth":"Virginia","type":"State","iso":"US-VA","qid":"Q1370"},"geometry":{"type":"MultiPolygon","coordinates":[[[[-76.0133,36.5502],[-75.9669,36.5498],[-75.9627,36.7093],[-75.8806,36.5493],[-75.8531,36.549],[-75.9889,36.912],[-76.476,36.9079],[-76.2962,37.0136],[-76.4427,37.372],[-76.2445,37.4495],[-76.9226,37.9808],[-76.3211,37.624],[-76.2479,37.9035],[-76.6146,38.1504],[-76.8818,38.177],[-77.0408,38.3959],[-77.3502,38.4096],[-77.0683,38.9019],[-77.1198,38.9341],[-77.7347,39.3311],[-77.8357,39.1442],[-78.3222,39.4508],[-78.4139,39.1664],[-78.8807,38.7868],[-78.9882,38.8456],[-79.2974,38.4248],[-79.636,38.5921],[-79.792,38.2802],[-80.2849,37.6851],[-80.2943,37.5092],[-81.2241,37.2443],[-81.8238,37.2864],[-81.9652,37.5387],[-82.6326,37.1639],[-83.1372,36.75],[-83.6675,36.604],[-81.6589,36.6096],[-80.0896,36.5398],[-77.8987,36.5423],[-76.0317,36.5503],[-76.0133,36.5502]]],[[[-75.3774,38.0152],[-75.6479,37.9657],[-75.9347,37.5764],[-75.8873,37.357],[-75.3774,38.0152]]]]}},{"type":"Feature","id":"label-USA-3552","properties":{"kind":"division-label","code":"USA-3552","countryCode":"USA","name":"Virginia","localName":"Virginia","labelEnglish":"Virginia","labelLocal":"Virginia","labelBoth":"Virginia","type":"State","iso":"US-VA","qid":"Q1370"},"geometry":{"type":"Point","coordinates":[-78.2431,37.7403]}},{"type":"Feature","id":"USA-3556","properties":{"kind":"division","code":"USA-3556","countryCode":"USA","name":"Washington","localName":"Washington","labelEnglish":"Washington","labelLocal":"Washington","labelBoth":"Washington","type":"Federal District","iso":"US-DC","qid":"Q61"},"geometry":{"type":"Polygon","coordinates":[[[-77.0229,38.8028],[-76.9093,38.893],[-77.1198,38.9341],[-77.0683,38.9019],[-77.0229,38.8028]]]}},{"type":"Feature","id":"label-USA-3556","properties":{"kind":"division-label","code":"USA-3556","countryCode":"USA","name":"Washington","localName":"Washington","labelEnglish":"Washington","labelLocal":"Washington","labelBoth":"Washington","type":"Federal District","iso":"US-DC","qid":"Q61"},"geometry":{"type":"Point","coordinates":[-77.0113,38.8922]}},{"type":"Feature","id":"USA-3557","properties":{"kind":"division","code":"USA-3557","countryCode":"USA","name":"Maryland","localName":"Maryland","labelEnglish":"Maryland","labelLocal":"Maryland","labelBoth":"Maryland","type":"State","iso":"US-MD","qid":"Q1391"},"geometry":{"type":"Polygon","coordinates":[[[-75.6479,37.9657],[-75.3774,38.0152],[-75.0839,38.4536],[-75.6937,38.4604],[-75.7886,39.7213],[-77.1695,39.7215],[-79.4774,39.7218],[-79.4879,39.2099],[-78.7786,39.6368],[-78.469,39.5336],[-78.133,39.7013],[-77.8469,39.6117],[-77.7347,39.3311],[-77.1198,38.9341],[-76.9093,38.893],[-77.0229,38.8028],[-77.267,38.4941],[-77.0316,38.4814],[-76.8392,38.2572],[-76.3205,38.1388],[-76.512,38.5277],[-76.5375,38.8917],[-76.3252,39.4077],[-75.9347,39.6042],[-76.2727,39.1516],[-76.1061,38.878],[-76.3098,38.7612],[-76.0117,38.5657],[-76.319,38.4739],[-75.7797,38.1552],[-75.858,37.9311],[-75.6479,37.9657]],[[-76.007,37.9543],[-75.9938,37.9541],[-76.0441,37.9544],[-76.0331,37.9547],[-76.0186,37.9545],[-76.007,37.9543]]]}},{"type":"Feature","id":"label-USA-3557","properties":{"kind":"division-label","code":"USA-3557","countryCode":"USA","name":"Maryland","localName":"Maryland","labelEnglish":"Maryland","labelLocal":"Maryland","labelBoth":"Maryland","type":"State","iso":"US-MD","qid":"Q1391"},"geometry":{"type":"Point","coordinates":[-77.0454,39.3874]}},{"type":"Feature","id":"USA-3555","properties":{"kind":"division","code":"USA-3555","countryCode":"USA","name":"Delaware","localName":"Delaware","labelEnglish":"Delaware","labelLocal":"Delaware","labelBoth":"Delaware","type":"State","iso":"US-DE","qid":"Q1393"},"geometry":{"type":"Polygon","coordinates":[[[-75.0839,38.4536],[-75.0577,38.4534],[-75.044,38.4538],[-75.0843,38.796],[-75.3938,39.0556],[-75.6052,39.6167],[-75.4245,39.8066],[-75.7886,39.7213],[-75.6937,38.4604],[-75.0839,38.4536]]]}},{"type":"Feature","id":"label-USA-3555","properties":{"kind":"division-label","code":"USA-3555","countryCode":"USA","name":"Delaware","localName":"Delaware","labelEnglish":"Delaware","labelLocal":"Delaware","labelBoth":"Delaware","type":"State","iso":"US-DE","qid":"Q1393"},"geometry":{"type":"Point","coordinates":[-75.4112,38.8657]}},{"type":"Feature","id":"USA-3558","properties":{"kind":"division","code":"USA-3558","countryCode":"USA","name":"New Jersey","localName":"New Jersey","labelEnglish":"New Jersey","labelLocal":"New Jersey","labelBoth":"New Jersey","type":"State","iso":"US-NJ","qid":"Q1408"},"geometry":{"type":"Polygon","coordinates":[[[-75.0236,40.0163],[-75.4402,39.777],[-75.5316,39.478],[-75.1465,39.1871],[-74.8873,39.1468],[-74.8751,38.9445],[-74.093,39.7763],[-73.9724,40.3277],[-74.2827,40.4973],[-73.9071,40.9908],[-74.699,41.3563],[-75.1395,40.9822],[-75.0888,40.5583],[-74.7286,40.1632],[-75.0236,40.0163]]]}},{"type":"Feature","id":"label-USA-3558","properties":{"kind":"division-label","code":"USA-3558","countryCode":"USA","name":"New Jersey","localName":"New Jersey","labelEnglish":"New Jersey","labelLocal":"New Jersey","labelBoth":"New Jersey","type":"State","iso":"US-NJ","qid":"Q1408"},"geometry":{"type":"Point","coordinates":[-74.4653,40.0449]}},{"type":"Feature","id":"USA-3537","properties":{"kind":"division","code":"USA-3537","countryCode":"USA","name":"Connecticut","localName":"Connecticut","labelEnglish":"Connecticut","labelLocal":"Connecticut","labelBoth":"Connecticut","type":"State","iso":"US-CT","qid":"Q779"},"geometry":{"type":"Polygon","coordinates":[[[-73.6429,41.0011],[-72.8924,41.245],[-71.8604,41.3205],[-71.8008,42.0109],[-73.4805,42.0545],[-73.5447,41.2949],[-73.6429,41.0011]]]}},{"type":"Feature","id":"label-USA-3537","properties":{"kind":"division-label","code":"USA-3537","countryCode":"USA","name":"Connecticut","localName":"Connecticut","labelEnglish":"Connecticut","labelLocal":"Connecticut","labelBoth":"Connecticut","type":"State","iso":"US-CT","qid":"Q779"},"geometry":{"type":"Point","coordinates":[-72.7594,41.6486]}},{"type":"Feature","id":"USA-3539","properties":{"kind":"division","code":"USA-3539","countryCode":"USA","name":"Rhode Island","localName":"Rhode Island","labelEnglish":"Rhode Island","labelLocal":"Rhode Island","labelBoth":"Rhode Island","type":"State","iso":"US-RI","qid":"Q1387"},"geometry":{"type":"Polygon","coordinates":[[[-71.2369,41.7096],[-71.3871,42.0158],[-71.8008,42.0109],[-71.8604,41.3205],[-71.4977,41.3663],[-71.3556,41.7463],[-71.2369,41.7096]]]}},{"type":"Feature","id":"label-USA-3539","properties":{"kind":"division-label","code":"USA-3539","countryCode":"USA","name":"Rhode Island","localName":"Rhode Island","labelEnglish":"Rhode Island","labelLocal":"Rhode Island","labelBoth":"Rhode Island","type":"State","iso":"US-RI","qid":"Q1387"},"geometry":{"type":"Point","coordinates":[-71.5082,41.6242]}},{"type":"Feature","id":"USA-3513","properties":{"kind":"division","code":"USA-3513","countryCode":"USA","name":"Massachusetts","localName":"Massachusetts","labelEnglish":"Massachusetts","labelLocal":"Massachusetts","labelBoth":"Massachusetts","type":"State","iso":"US-MA","qid":"Q771"},"geometry":{"type":"Polygon","coordinates":[[[-71.194,41.6769],[-71.1219,41.513],[-70.6583,41.722],[-70.6856,41.5308],[-69.9389,41.6742],[-70.5331,41.8162],[-70.7163,42.2119],[-71.0384,42.3079],[-70.878,42.5375],[-70.597,42.6345],[-70.8143,42.8773],[-71.3063,42.7009],[-72.4668,42.7293],[-73.2655,42.7456],[-73.4805,42.0545],[-71.8008,42.0109],[-71.3871,42.0158],[-71.2369,41.7096],[-71.194,41.6769]]]}},{"type":"Feature","id":"label-USA-3513","properties":{"kind":"division-label","code":"USA-3513","countryCode":"USA","name":"Massachusetts","localName":"Massachusetts","labelEnglish":"Massachusetts","labelLocal":"Massachusetts","labelBoth":"Massachusetts","type":"State","iso":"US-MA","qid":"Q771"},"geometry":{"type":"Point","coordinates":[-71.9993,42.3739]}},{"type":"Feature","id":"USA-3525","properties":{"kind":"division","code":"USA-3525","countryCode":"USA","name":"Oregon","localName":"Oregon","labelEnglish":"Oregon","labelLocal":"Oregon","labelBoth":"Oregon","type":"State","iso":"US-OR","qid":"Q824"},"geometry":{"type":"Polygon","coordinates":[[[-123.1801,46.1791],[-123.9905,46.2005],[-123.8961,45.5603],[-124.0652,44.8233],[-124.151,43.8817],[-124.5477,42.8454],[-124.4145,42.6624],[-124.4328,42.3293],[-124.2145,41.9995],[-121.8317,41.9995],[-120.0008,41.9995],[-117.0166,41.9995],[-117.0202,43.7851],[-116.8969,44.1859],[-117.1951,44.2977],[-117.2038,44.4825],[-116.8328,44.9199],[-116.463,45.5819],[-116.8788,46.0015],[-119.0024,45.9995],[-119.5917,45.9211],[-120.2299,45.7371],[-121.1729,45.6318],[-121.7926,45.7214],[-122.2611,45.5663],[-122.7389,45.6628],[-122.9102,46.1079],[-123.1801,46.1791]]]}},{"type":"Feature","id":"label-USA-3525","properties":{"kind":"division-label","code":"USA-3525","countryCode":"USA","name":"Oregon","localName":"Oregon","labelEnglish":"Oregon","labelLocal":"Oregon","labelBoth":"Oregon","type":"State","iso":"US-OR","qid":"Q824"},"geometry":{"type":"Point","coordinates":[-120.386,43.8333]}},{"type":"Feature","id":"USA-3517","properties":{"kind":"division","code":"USA-3517","countryCode":"USA","name":"Hawaii","localName":"Hawaii","labelEnglish":"Hawaii","labelLocal":"Hawaii","labelBoth":"Hawaii","type":"State","iso":"US-HI","qid":"Q782"},"geometry":{"type":"MultiPolygon","coordinates":[[[[-154.8996,19.567],[-155.0871,19.8604],[-155.3323,20.0467],[-155.8672,20.2631],[-155.8241,20.0201],[-156.0602,19.7312],[-155.8855,19.3342],[-155.8781,19.0291],[-155.6748,18.9061],[-155.5028,19.1377],[-154.9823,19.3392],[-154.8996,19.567]]],[[[-156.0017,20.8004],[-156.2983,20.9527],[-156.6665,21.0034],[-156.4077,20.5872],[-156.0031,20.6859],[-156.0017,20.8004]]],[[[-156.749,21.171],[-157.2598,21.2219],[-157.2731,21.0873],[-156.8696,21.0534],[-156.749,21.171]]],[[[-157.7068,21.352],[-157.9624,21.705],[-158.2789,21.5753],[-158.0943,21.2936],[-157.7068,21.352]]],[[[-159.3013,22.151],[-159.7165,22.1575],[-159.7598,21.9785],[-159.4373,21.8688],[-159.3013,22.151]]]]}},{"type":"Feature","id":"label-USA-3517","properties":{"kind":"division-label","code":"USA-3517","countryCode":"USA","name":"Hawaii","localName":"Hawaii","labelEnglish":"Hawaii","labelLocal":"Hawaii","labelBoth":"Hawaii","type":"State","iso":"US-HI","qid":"Q782"},"geometry":{"type":"Point","coordinates":[-157.999,21.4919]}},{"type":"Feature","id":"USA-3526","properties":{"kind":"division","code":"USA-3526","countryCode":"USA","name":"Utah","localName":"Utah","labelEnglish":"Utah","labelLocal":"Utah","labelBoth":"Utah","type":"State","iso":"US-UT","qid":"Q829"},"geometry":{"type":"Polygon","coordinates":[[[-111.0502,41.9998],[-114.0425,42.0001],[-114.0419,40.5947],[-114.0413,39.1893],[-114.0402,37.0031],[-112.0116,37.0018],[-110.7632,37.0009],[-109.0466,36.9998],[-109.0466,38.3748],[-109.0465,39.7498],[-109.0463,40.9998],[-111.0499,40.9998],[-111.0502,41.9998]]]}},{"type":"Feature","id":"label-USA-3526","properties":{"kind":"division-label","code":"USA-3526","countryCode":"USA","name":"Utah","localName":"Utah","labelEnglish":"Utah","labelLocal":"Utah","labelBoth":"Utah","type":"State","iso":"US-UT","qid":"Q829"},"geometry":{"type":"Point","coordinates":[-111.544,39.5007]}},{"type":"Feature","id":"USA-3527","properties":{"kind":"division","code":"USA-3527","countryCode":"USA","name":"Wyoming","localName":"Wyoming","labelEnglish":"Wyoming","labelLocal":"Wyoming","labelBoth":"Wyoming","type":"State","iso":"US-WY","qid":"Q1214"},"geometry":{"type":"Polygon","coordinates":[[[-111.0502,41.9998],[-111.0499,40.9998],[-109.0463,40.9998],[-106.0629,40.9998],[-104.0537,40.9998],[-104.0531,43.0004],[-104.0567,45.0001],[-106.3219,45.0001],[-107.8451,45],[-111.0508,45],[-111.0514,44.4979],[-111.0502,41.9998]]]}},{"type":"Feature","id":"label-USA-3527","properties":{"kind":"division-label","code":"USA-3527","countryCode":"USA","name":"Wyoming","localName":"Wyoming","labelEnglish":"Wyoming","labelLocal":"Wyoming","labelBoth":"Wyoming","type":"State","iso":"US-WY","qid":"Q1214"},"geometry":{"type":"Point","coordinates":[-107.552,42.9999]}},{"type":"Feature","id":"USA-3523","properties":{"kind":"division","code":"USA-3523","countryCode":"USA","name":"Nevada","localName":"Nevada","labelEnglish":"Nevada","labelLocal":"Nevada","labelBoth":"Nevada","type":"State","iso":"US-NV","qid":"Q1227"},"geometry":{"type":"Polygon","coordinates":[[[-114.0425,42.0001],[-117.0166,41.9995],[-120.0008,41.9995],[-120.0004,40.3509],[-120,38.9992],[-118.8289,38.1818],[-117.3929,37.1401],[-116.1776,36.2104],[-114.6282,35.0036],[-114.7212,36.0927],[-114.5548,36.1605],[-114.1239,36.0459],[-114.042,36.2198],[-114.0402,37.0031],[-114.0413,39.1893],[-114.0419,40.5947],[-114.0425,42.0001]]]}},{"type":"Feature","id":"label-USA-3523","properties":{"kind":"division-label","code":"USA-3523","countryCode":"USA","name":"Nevada","localName":"Nevada","labelEnglish":"Nevada","labelLocal":"Nevada","labelBoth":"Nevada","type":"State","iso":"US-NV","qid":"Q1227"},"geometry":{"type":"Point","coordinates":[-117.02,39.4299]}},{"type":"Feature","id":"USA-3522","properties":{"kind":"division","code":"USA-3522","countryCode":"USA","name":"Colorado","localName":"Colorado","labelEnglish":"Colorado","labelLocal":"Colorado","labelBoth":"Colorado","type":"State","iso":"US-CO","qid":"Q1261"},"geometry":{"type":"Polygon","coordinates":[[[-109.0463,40.9998],[-109.0465,39.7498],[-109.0466,38.3748],[-109.0466,36.9998],[-107.1573,36.9998],[-105.8347,36.9998],[-103.0008,36.9998],[-102.0396,36.9998],[-102.0444,38.2187],[-102.0513,40.0001],[-102.0518,40.9996],[-104.0537,40.9998],[-106.0629,40.9998],[-109.0463,40.9998]]]}},{"type":"Feature","id":"label-USA-3522","properties":{"kind":"division-label","code":"USA-3522","countryCode":"USA","name":"Colorado","localName":"Colorado","labelEnglish":"Colorado","labelLocal":"Colorado","labelBoth":"Colorado","type":"State","iso":"US-CO","qid":"Q1261"},"geometry":{"type":"Point","coordinates":[-105.543,38.9998]}},{"type":"Feature","id":"USA-3534","properties":{"kind":"division","code":"USA-3534","countryCode":"USA","name":"South Dakota","localName":"South Dakota","labelEnglish":"South Dakota","labelLocal":"South Dakota","labelBoth":"South Dakota","type":"State","iso":"US-SD","qid":"Q1211"},"geometry":{"type":"Polygon","coordinates":[[[-104.0449,45.942],[-104.0567,45.0001],[-104.0531,43.0004],[-100.9622,43.0003],[-98.4851,43.0002],[-98.0785,42.8025],[-97.3012,42.8871],[-96.4827,42.5183],[-96.638,42.7511],[-96.4554,43.1217],[-96.5953,43.4989],[-96.4536,43.5001],[-96.4536,45.2966],[-96.8631,45.6008],[-96.5563,45.9418],[-99.1189,45.9419],[-101.2155,45.9419],[-104.0449,45.942]]]}},{"type":"Feature","id":"label-USA-3534","properties":{"kind":"division-label","code":"USA-3534","countryCode":"USA","name":"South Dakota","localName":"South Dakota","labelEnglish":"South Dakota","labelLocal":"South Dakota","labelBoth":"South Dakota","type":"State","iso":"US-SD","qid":"Q1211"},"geometry":{"type":"Point","coordinates":[-100.255,44.4711]}},{"type":"Feature","id":"USA-3532","properties":{"kind":"division","code":"USA-3532","countryCode":"USA","name":"Nebraska","localName":"Nebraska","labelEnglish":"Nebraska","labelLocal":"Nebraska","labelBoth":"Nebraska","type":"State","iso":"US-NE","qid":"Q1553"},"geometry":{"type":"Polygon","coordinates":[[[-104.0537,40.9998],[-102.0518,40.9996],[-102.0513,40.0001],[-99.0901,40.0001],[-96.9941,40.0001],[-95.3173,40.0001],[-95.7676,40.6005],[-95.8698,41.3088],[-96.0821,41.5498],[-96.0642,41.796],[-96.4827,42.5183],[-97.3012,42.8871],[-98.0785,42.8025],[-98.4851,43.0002],[-100.9622,43.0003],[-104.0531,43.0004],[-104.0537,40.9998]]]}},{"type":"Feature","id":"label-USA-3532","properties":{"kind":"division-label","code":"USA-3532","countryCode":"USA","name":"Nebraska","localName":"Nebraska","labelEnglish":"Nebraska","labelLocal":"Nebraska","labelBoth":"Nebraska","type":"State","iso":"US-NE","qid":"Q1553"},"geometry":{"type":"Point","coordinates":[-99.6855,41.5002]}},{"type":"Feature","id":"USA-3530","properties":{"kind":"division","code":"USA-3530","countryCode":"USA","name":"Kansas","localName":"Kansas","labelEnglish":"Kansas","labelLocal":"Kansas","labelBoth":"Kansas","type":"State","iso":"US-KS","qid":"Q1558"},"geometry":{"type":"Polygon","coordinates":[[[-102.0396,36.9998],[-100.3951,36.9998],[-97.8532,36.9998],[-96.0045,36.9998],[-94.618,36.9998],[-94.6125,39.1528],[-94.8296,39.2173],[-95.0988,39.5302],[-94.8823,39.8209],[-95.3173,40.0001],[-96.9941,40.0001],[-99.0901,40.0001],[-102.0513,40.0001],[-102.0444,38.2187],[-102.0396,36.9998]]]}},{"type":"Feature","id":"label-USA-3530","properties":{"kind":"division-label","code":"USA-3530","countryCode":"USA","name":"Kansas","localName":"Kansas","labelEnglish":"Kansas","labelLocal":"Kansas","labelBoth":"Kansas","type":"State","iso":"US-KS","qid":"Q1558"},"geometry":{"type":"Point","coordinates":[-98.3309,38.5]}},{"type":"Feature","id":"USA-3533","properties":{"kind":"division","code":"USA-3533","countryCode":"USA","name":"Oklahoma","localName":"Oklahoma","labelEnglish":"Oklahoma","labelLocal":"Oklahoma","labelBoth":"Oklahoma","type":"State","iso":"US-OK","qid":"Q1649"},"geometry":{"type":"Polygon","coordinates":[[[-103.0002,36.5002],[-101.8075,36.5002],[-100.0024,36.4999],[-99.9993,34.5755],[-99.6808,34.3947],[-99.2655,34.4116],[-99.193,34.2322],[-98.4907,34.0752],[-98.0907,34.1383],[-97.9591,33.893],[-97.68,33.9835],[-97.1125,33.7261],[-96.9145,33.9559],[-96.6494,33.916],[-96.3288,33.7019],[-95.9379,33.8956],[-95.2203,33.9629],[-94.8727,33.7559],[-94.4841,33.6474],[-94.4391,35.3862],[-94.6183,36.4998],[-94.618,36.9998],[-96.0045,36.9998],[-97.8532,36.9998],[-100.3951,36.9998],[-102.0396,36.9998],[-103.0008,36.9998],[-103.0002,36.5002]]]}},{"type":"Feature","id":"label-USA-3533","properties":{"kind":"division-label","code":"USA-3533","countryCode":"USA","name":"Oklahoma","localName":"Oklahoma","labelEnglish":"Oklahoma","labelLocal":"Oklahoma","labelBoth":"Oklahoma","type":"State","iso":"US-OK","qid":"Q1649"},"geometry":{"type":"Point","coordinates":[-97.1309,35.452]}},{"type":"Feature","id":"USA-3529","properties":{"kind":"division","code":"USA-3529","countryCode":"USA","name":"Iowa","localName":"Iowa","labelEnglish":"Iowa","labelLocal":"Iowa","labelBoth":"Iowa","type":"State","iso":"US-IA","qid":"Q1546"},"geometry":{"type":"Polygon","coordinates":[[[-96.4536,43.5001],[-96.5953,43.4989],[-96.4554,43.1217],[-96.638,42.7511],[-96.4827,42.5183],[-96.0642,41.796],[-96.0821,41.5498],[-95.8698,41.3088],[-95.7676,40.6005],[-94.4783,40.573],[-93.095,40.5813],[-91.7307,40.6188],[-91.4419,40.3795],[-90.9666,40.9462],[-91.0824,41.1897],[-90.9915,41.4336],[-90.3463,41.6054],[-90.1697,42.1165],[-90.6413,42.5118],[-91.0455,42.7421],[-91.2501,43.501],[-92.8762,43.5006],[-94.8275,43.5003],[-96.4536,43.5001]]]}},{"type":"Feature","id":"label-USA-3529","properties":{"kind":"division-label","code":"USA-3529","countryCode":"USA","name":"Iowa","localName":"Iowa","labelEnglish":"Iowa","labelLocal":"Iowa","labelBoth":"Iowa","type":"State","iso":"US-IA","qid":"Q1546"},"geometry":{"type":"Point","coordinates":[-93.3891,42.0423]}},{"type":"Feature","id":"USA-3531","properties":{"kind":"division","code":"USA-3531","countryCode":"USA","name":"Missouri","localName":"Missouri","labelEnglish":"Missouri","labelLocal":"Missouri","labelBoth":"Missouri","type":"State","iso":"US-MO","qid":"Q1581"},"geometry":{"type":"Polygon","coordinates":[[[-95.7676,40.6005],[-95.3173,40.0001],[-94.8823,39.8209],[-95.0988,39.5302],[-94.8296,39.2173],[-94.6125,39.1528],[-94.618,36.9998],[-94.6183,36.4998],[-92.1506,36.4998],[-90.1622,36.4998],[-90.0675,36.2874],[-90.3733,35.9862],[-89.7238,36.0005],[-89.5599,36.5002],[-89.4944,36.5014],[-89.4245,36.499],[-89.1406,36.7346],[-89.1237,36.9796],[-89.5233,37.268],[-89.5496,37.6977],[-90.1108,38.0167],[-90.382,38.3005],[-90.1272,38.8303],[-90.4283,38.9674],[-90.5853,38.8781],[-90.8196,39.3201],[-91.3551,39.7108],[-91.5189,40.1749],[-91.4419,40.3795],[-91.7307,40.6188],[-93.095,40.5813],[-94.4783,40.573],[-95.7676,40.6005]]]}},{"type":"Feature","id":"label-USA-3531","properties":{"kind":"division-label","code":"USA-3531","countryCode":"USA","name":"Missouri","localName":"Missouri","labelEnglish":"Missouri","labelLocal":"Missouri","labelBoth":"Missouri","type":"State","iso":"US-MO","qid":"Q1581"},"geometry":{"type":"Point","coordinates":[-92.446,38.5487]}},{"type":"Feature","id":"USA-3553","properties":{"kind":"division","code":"USA-3553","countryCode":"USA","name":"Wisconsin","localName":"Wisconsin","labelEnglish":"Wisconsin","labelLocal":"Wisconsin","labelBoth":"Wisconsin","type":"State","iso":"US-WI","qid":"Q1537"},"geometry":{"type":"Polygon","coordinates":[[[-87.0188,42.4962],[-87.1472,43.3799],[-86.9999,44.1677],[-86.7146,44.8452],[-86.2506,45.2361],[-86.7636,45.4438],[-87.0924,45.4438],[-87.436,45.079],[-87.8583,45.3576],[-87.8026,45.687],[-88.1877,45.9594],[-88.8373,46.0356],[-89.1192,46.1482],[-90.1185,46.3406],[-90.4125,46.5842],[-89.9576,47.2861],[-90.654,47.3081],[-91.4683,46.9241],[-92.2916,46.6597],[-92.2926,46.0833],[-92.7041,45.9131],[-92.8832,45.5761],[-92.6677,45.4454],[-92.8198,44.7578],[-92.1026,44.4369],[-91.6626,44.0733],[-91.295,43.919],[-91.2501,43.501],[-91.0455,42.7421],[-90.6413,42.5118],[-89.3962,42.503],[-87.0188,42.4962]]]}},{"type":"Feature","id":"label-USA-3553","properties":{"kind":"division-label","code":"USA-3553","countryCode":"USA","name":"Wisconsin","localName":"Wisconsin","labelEnglish":"Wisconsin","labelLocal":"Wisconsin","labelBoth":"Wisconsin","type":"State","iso":"US-WI","qid":"Q1537"},"geometry":{"type":"Point","coordinates":[-89.5831,44.3709]}},{"type":"Feature","id":"USA-3546","properties":{"kind":"division","code":"USA-3546","countryCode":"USA","name":"Illinois","localName":"Illinois","labelEnglish":"Illinois","labelLocal":"Illinois","labelBoth":"Illinois","type":"State","iso":"US-IL","qid":"Q1204"},"geometry":{"type":"Polygon","coordinates":[[[-91.4419,40.3795],[-91.5189,40.1749],[-91.3551,39.7108],[-90.8196,39.3201],[-90.5853,38.8781],[-90.4283,38.9674],[-90.1272,38.8303],[-90.382,38.3005],[-90.1108,38.0167],[-89.5496,37.6977],[-89.5233,37.268],[-89.1237,36.9796],[-88.907,37.2202],[-88.4843,37.0725],[-88.465,37.4089],[-88.1231,37.4746],[-88.0453,37.8067],[-88.0299,38.0979],[-87.5112,38.7634],[-87.6668,39.1183],[-87.5327,39.3616],[-87.521,41.7597],[-87.2077,41.7597],[-87.0188,42.4962],[-89.3962,42.503],[-90.6413,42.5118],[-90.1697,42.1165],[-90.3463,41.6054],[-90.9915,41.4336],[-91.0824,41.1897],[-90.9666,40.9462],[-91.4419,40.3795]]]}},{"type":"Feature","id":"label-USA-3546","properties":{"kind":"division-label","code":"USA-3546","countryCode":"USA","name":"Illinois","localName":"Illinois","labelEnglish":"Illinois","labelLocal":"Illinois","labelBoth":"Illinois","type":"State","iso":"US-IL","qid":"Q1204"},"geometry":{"type":"Point","coordinates":[-89.1991,39.946]}},{"type":"Feature","id":"USA-3548","properties":{"kind":"division","code":"USA-3548","countryCode":"USA","name":"Kentucky","localName":"Kentucky","labelEnglish":"Kentucky","labelLocal":"Kentucky","labelBoth":"Kentucky","type":"State","iso":"US-KY","qid":"Q1603"},"geometry":{"type":"Polygon","coordinates":[[[-89.1237,36.9796],[-89.1406,36.7346],[-89.4245,36.499],[-88.0427,36.4986],[-88.0671,36.6897],[-87.8333,36.6442],[-86.0668,36.6345],[-83.7303,36.5858],[-83.6675,36.604],[-83.1372,36.75],[-82.6326,37.1639],[-81.9652,37.5387],[-82.2965,37.6884],[-82.6312,38.1529],[-82.5894,38.4193],[-82.8863,38.7448],[-83.3051,38.6014],[-83.5343,38.7074],[-84.1956,38.8106],[-84.4442,39.1018],[-84.8235,39.0974],[-84.8194,38.7893],[-85.4547,38.7264],[-85.4289,38.5386],[-85.8159,38.289],[-86.0513,37.9696],[-86.2827,38.1419],[-86.7422,37.9039],[-87.1649,37.8471],[-87.4266,37.9464],[-87.8877,37.9286],[-88.0453,37.8067],[-88.1231,37.4746],[-88.465,37.4089],[-88.4843,37.0725],[-88.907,37.2202],[-89.1237,36.9796]]]}},{"type":"Feature","id":"label-USA-3548","properties":{"kind":"division-label","code":"USA-3548","countryCode":"USA","name":"Kentucky","localName":"Kentucky","labelEnglish":"Kentucky","labelLocal":"Kentucky","labelBoth":"Kentucky","type":"State","iso":"US-KY","qid":"Q1603"},"geometry":{"type":"Point","coordinates":[-85.5729,37.3994]}},{"type":"Feature","id":"USA-3528","properties":{"kind":"division","code":"USA-3528","countryCode":"USA","name":"Arkansas","localName":"Arkansas","labelEnglish":"Arkansas","labelLocal":"Arkansas","labelBoth":"Arkansas","type":"State","iso":"US-AR","qid":"Q1612"},"geometry":{"type":"Polygon","coordinates":[[[-90.3042,35.0001],[-90.1061,35.1235],[-90.1031,35.3856],[-89.7238,36.0005],[-90.3733,35.9862],[-90.0675,36.2874],[-90.1622,36.4998],[-92.1506,36.4998],[-94.6183,36.4998],[-94.4391,35.3862],[-94.4841,33.6474],[-94.0473,33.5542],[-94.0413,33.0109],[-91.1665,33.0143],[-91.1272,33.4781],[-91.2259,33.6899],[-91.0846,33.9967],[-90.594,34.4251],[-90.5939,34.6423],[-90.3042,35.0001]]]}},{"type":"Feature","id":"label-USA-3528","properties":{"kind":"division-label","code":"USA-3528","countryCode":"USA","name":"Arkansas","localName":"Arkansas","labelEnglish":"Arkansas","labelLocal":"Arkansas","labelBoth":"Arkansas","type":"State","iso":"US-AR","qid":"Q1612"},"geometry":{"type":"Point","coordinates":[-92.1428,34.7563]}},{"type":"Feature","id":"USA-3551","properties":{"kind":"division","code":"USA-3551","countryCode":"USA","name":"Tennessee","localName":"Tennessee","labelEnglish":"Tennessee","labelLocal":"Tennessee","labelBoth":"Tennessee","type":"State","iso":"US-TN","qid":"Q1509"},"geometry":{"type":"Polygon","coordinates":[[[-89.7238,36.0005],[-90.1031,35.3856],[-90.1061,35.1235],[-90.3042,35.0001],[-88.1791,34.9978],[-85.6057,34.9852],[-84.3246,34.9871],[-84.2612,35.2557],[-83.7743,35.5562],[-83.4992,35.57],[-82.6298,36.0574],[-82.5837,35.9688],[-82.2041,36.1601],[-82.0866,36.1006],[-81.7429,36.3891],[-81.6589,36.6096],[-83.6675,36.604],[-83.7303,36.5858],[-86.0668,36.6345],[-87.8333,36.6442],[-88.0671,36.6897],[-88.0427,36.4986],[-89.4245,36.499],[-89.4944,36.5014],[-89.5599,36.5002],[-89.7238,36.0005]]]}},{"type":"Feature","id":"label-USA-3551","properties":{"kind":"division-label","code":"USA-3551","countryCode":"USA","name":"Tennessee","localName":"Tennessee","labelEnglish":"Tennessee","labelLocal":"Tennessee","labelBoth":"Tennessee","type":"State","iso":"US-TN","qid":"Q1509"},"geometry":{"type":"Point","coordinates":[-86.3415,35.7514]}},{"type":"Feature","id":"USA-3554","properties":{"kind":"division","code":"USA-3554","countryCode":"USA","name":"West Virginia","localName":"West Virginia","labelEnglish":"West Virginia","labelLocal":"West Virginia","labelBoth":"West Virginia","type":"State","iso":"US-WV","qid":"Q1371"},"geometry":{"type":"Polygon","coordinates":[[[-82.5894,38.4193],[-82.6312,38.1529],[-82.2965,37.6884],[-81.9652,37.5387],[-81.8238,37.2864],[-81.2241,37.2443],[-80.2943,37.5092],[-80.2849,37.6851],[-79.792,38.2802],[-79.636,38.5921],[-79.2974,38.4248],[-78.9882,38.8456],[-78.8807,38.7868],[-78.4139,39.1664],[-78.3222,39.4508],[-77.8357,39.1442],[-77.7347,39.3311],[-77.8469,39.6117],[-78.133,39.7013],[-78.469,39.5336],[-78.7786,39.6368],[-79.4879,39.2099],[-79.4774,39.7218],[-80.5194,39.7215],[-80.5202,40.6468],[-80.6768,40.5888],[-80.6146,40.2864],[-80.8752,39.6288],[-81.2269,39.3985],[-81.4789,39.4006],[-81.9017,38.8742],[-82.0584,39.0032],[-82.3317,38.4436],[-82.5894,38.4193]]]}},{"type":"Feature","id":"label-USA-3554","properties":{"kind":"division-label","code":"USA-3554","countryCode":"USA","name":"West Virginia","localName":"West Virginia","labelEnglish":"West Virginia","labelLocal":"West Virginia","labelBoth":"West Virginia","type":"State","iso":"US-WV","qid":"Q1371"},"geometry":{"type":"Point","coordinates":[-80.7128,38.6422]}},{"type":"Feature","id":"USA-3547","properties":{"kind":"division","code":"USA-3547","countryCode":"USA","name":"Indiana","localName":"Indiana","labelEnglish":"Indiana","labelLocal":"Indiana","labelBoth":"Indiana","type":"State","iso":"US-IN","qid":"Q1415"},"geometry":{"type":"Polygon","coordinates":[[[-84.8061,41.6968],[-84.8061,41.7583],[-87.2077,41.7597],[-87.521,41.7597],[-87.5327,39.3616],[-87.6668,39.1183],[-87.5112,38.7634],[-88.0299,38.0979],[-88.0453,37.8067],[-87.8877,37.9286],[-87.4266,37.9464],[-87.1649,37.8471],[-86.7422,37.9039],[-86.2827,38.1419],[-86.0513,37.9696],[-85.8159,38.289],[-85.4289,38.5386],[-85.4547,38.7264],[-84.8194,38.7893],[-84.8235,39.0974],[-84.8141,39.9922],[-84.8061,41.6968]]]}},{"type":"Feature","id":"label-USA-3547","properties":{"kind":"division-label","code":"USA-3547","countryCode":"USA","name":"Indiana","localName":"Indiana","labelEnglish":"Indiana","labelLocal":"Indiana","labelBoth":"Indiana","type":"State","iso":"US-IN","qid":"Q1415"},"geometry":{"type":"Point","coordinates":[-86.1396,39.8874]}}]}