{"type":"FeatureCollection","features":[{"type":"Feature","id":"UZB-364","properties":{"kind":"division","code":"UZB-364","countryCode":"UZB","name":"Fergana","localName":"Fergana","labelEnglish":"Fergana","labelLocal":"Fergana","labelBoth":"Fergana","type":"Region","iso":"UZ-FA","qid":"Q487089"},"geometry":{"type":"MultiPolygon","coordinates":[[[[72.0132,40.2621],[72.2283,40.4596],[72.2217,40.5604],[71.5818,40.7743],[71.271,40.6169],[70.9315,40.7747],[70.7563,40.6956],[70.3538,40.4561],[70.5818,40.2217],[70.959,40.2384],[71.2396,40.3211],[71.6731,40.1479],[72.0132,40.2621]]],[[[71.0086,40.1578],[71.1137,39.8745],[71.2373,40.0311],[71.0086,40.1578]]]]}},{"type":"Feature","id":"label-UZB-364","properties":{"kind":"division-label","code":"UZB-364","countryCode":"UZB","name":"Fergana","localName":"Fergana","labelEnglish":"Fergana","labelLocal":"Fergana","labelBoth":"Fergana","type":"Region","iso":"UZ-FA","qid":"Q487089"},"geometry":{"type":"Point","coordinates":[71.7275,39.9347]}},{"type":"Feature","id":"UZB-372","properties":{"kind":"division","code":"UZB-372","countryCode":"UZB","name":"Tashkent","localName":"Tashkent","labelEnglish":"Tashkent","labelLocal":"Tashkent","labelBoth":"Tashkent","type":"Region","iso":"UZ-TO","qid":"Q487585"},"geometry":{"type":"Polygon","coordinates":[[[71.2499,42.1984],[70.9478,42.2481],[70.6102,42.0274],[70.4554,42.0937],[69.9124,41.7129],[69.6246,41.6683],[69.0316,41.367],[69.0392,41.2203],[68.6495,40.9517],[69.1061,40.5986],[69.0736,40.2169],[69.2853,40.195],[69.198,40.5458],[69.4358,40.8027],[69.6601,40.6387],[70.458,41.0157],[70.4708,41.4049],[70.1693,41.5783],[71.2499,42.1984]],[[69.2434,41.2192],[69.2232,41.4033],[69.3638,41.2985],[69.2434,41.2192]]]}},{"type":"Feature","id":"label-UZB-372","properties":{"kind":"division-label","code":"UZB-372","countryCode":"UZB","name":"Tashkent","localName":"Tashkent","labelEnglish":"Tashkent","labelLocal":"Tashkent","labelBoth":"Tashkent","type":"Region","iso":"UZ-TO","qid":"Q487585"},"geometry":{"type":"Point","coordinates":[69.9511,41.247]}},{"type":"Feature","id":"UZB-365","properties":{"kind":"division","code":"UZB-365","countryCode":"UZB","name":"Namangan","localName":"Namangan","labelEnglish":"Namangan","labelLocal":"Namangan","labelBoth":"Namangan","type":"Region","iso":"UZ-NG","qid":"Q474876"},"geometry":{"type":"Polygon","coordinates":[[[70.4708,41.4049],[70.458,41.0157],[70.7563,40.6956],[70.9315,40.7747],[71.271,40.6169],[71.5818,40.7743],[71.6442,40.89],[72.1659,40.9069],[72.1955,41.0064],[72.1699,41.1687],[71.8716,41.1945],[71.7532,41.4473],[71.4215,41.1621],[71.1801,41.1081],[70.7704,41.2385],[70.6338,41.4675],[70.4708,41.4049]]]}},{"type":"Feature","id":"label-UZB-365","properties":{"kind":"division-label","code":"UZB-365","countryCode":"UZB","name":"Namangan","localName":"Namangan","labelEnglish":"Namangan","labelLocal":"Namangan","labelBoth":"Namangan","type":"Region","iso":"UZ-NG","qid":"Q474876"},"geometry":{"type":"Point","coordinates":[71.2964,40.8746]}},{"type":"Feature","id":"UZB-363","properties":{"kind":"division","code":"UZB-363","countryCode":"UZB","name":"Andijan","localName":"Andijan","labelEnglish":"Andijan","labelLocal":"Andijan","labelBoth":"Andijan","type":"Region","iso":"UZ-AN","qid":"Q487384"},"geometry":{"type":"Polygon","coordinates":[[[73.135,40.8353],[72.6195,40.8801],[72.1955,41.0064],[72.1659,40.9069],[71.6442,40.89],[71.5818,40.7743],[72.2217,40.5604],[72.2283,40.4596],[72.5858,40.5087],[73.135,40.8353]]]}},{"type":"Feature","id":"label-UZB-363","properties":{"kind":"division-label","code":"UZB-363","countryCode":"UZB","name":"Andijan","localName":"Andijan","labelEnglish":"Andijan","labelLocal":"Andijan","labelBoth":"Andijan","type":"Region","iso":"UZ-AN","qid":"Q487384"},"geometry":{"type":"Point","coordinates":[72.3651,40.4491]}},{"type":"Feature","id":"UZB-371","properties":{"kind":"division","code":"UZB-371","countryCode":"UZB","name":"Sirdaryo","localName":"Sirdaryo","labelEnglish":"Sirdaryo","labelLocal":"Sirdaryo","labelBoth":"Sirdaryo","type":"Region","iso":"UZ-SI","qid":"Q487547"},"geometry":{"type":"MultiPolygon","coordinates":[[[[69.0736,40.2169],[69.1061,40.5986],[68.6495,40.9517],[68.593,40.5995],[68.2665,40.6627],[68.1097,40.2329],[68.6641,40.2825],[68.6427,40.1837],[69.0736,40.2169]]],[[[68.6403,39.8481],[68.9307,40.1468],[68.6965,40.1117],[68.6403,39.8481]]]]}},{"type":"Feature","id":"label-UZB-371","properties":{"kind":"division-label","code":"UZB-371","countryCode":"UZB","name":"Sirdaryo","localName":"Sirdaryo","labelEnglish":"Sirdaryo","labelLocal":"Sirdaryo","labelBoth":"Sirdaryo","type":"Region","iso":"UZ-SI","qid":"Q487547"},"geometry":{"type":"Point","coordinates":[68.8037,39.9519]}},{"type":"Feature","id":"UZB-370","properties":{"kind":"division","code":"UZB-370","countryCode":"UZB","name":"Jizzakh","localName":"Jizzakh","labelEnglish":"Jizzakh","labelLocal":"Jizzakh","labelBoth":"Jizzakh","type":"Region","iso":"UZ-JI","qid":"Q488811"},"geometry":{"type":"Polygon","coordinates":[[[68.6427,40.1837],[68.6641,40.2825],[68.1097,40.2329],[68.2665,40.6627],[67.9909,40.8111],[68.1174,41.0667],[67.9374,41.2004],[66.7579,41.1531],[66.6143,41.0842],[66.8012,40.7752],[66.6202,40.4951],[66.883,40.4782],[66.94,40.0744],[67.4599,39.9382],[67.2948,39.5956],[67.4365,39.4857],[67.7645,39.6226],[68.5175,39.5484],[68.6403,39.8481],[68.6965,40.1117],[68.6427,40.1837]]]}},{"type":"Feature","id":"label-UZB-370","properties":{"kind":"division-label","code":"UZB-370","countryCode":"UZB","name":"Jizzakh","localName":"Jizzakh","labelEnglish":"Jizzakh","labelLocal":"Jizzakh","labelBoth":"Jizzakh","type":"Region","iso":"UZ-JI","qid":"Q488811"},"geometry":{"type":"Point","coordinates":[67.6556,40.3905]}},{"type":"Feature","id":"UZB-358","properties":{"kind":"division","code":"UZB-358","countryCode":"UZB","name":"Samarqand","localName":"Samarqand","labelEnglish":"Samarqand","labelLocal":"Samarqand","labelBoth":"Samarqand","type":"Region","iso":"UZ-SA","qid":"Q487532"},"geometry":{"type":"Polygon","coordinates":[[[67.4365,39.4857],[67.2948,39.5956],[67.4599,39.9382],[66.94,40.0744],[66.883,40.4782],[66.6202,40.4951],[66.523,40.6209],[66.2088,40.5379],[66.0943,40.0512],[65.5001,40.1395],[65.4353,39.9057],[65.1431,39.8662],[65.2556,39.4918],[65.8153,39.5529],[66.0886,39.3196],[66.6886,39.4306],[67.3587,39.2904],[67.4365,39.4857]]]}},{"type":"Feature","id":"label-UZB-358","properties":{"kind":"division-label","code":"UZB-358","countryCode":"UZB","name":"Samarqand","localName":"Samarqand","labelEnglish":"Samarqand","labelLocal":"Samarqand","labelBoth":"Samarqand","type":"Region","iso":"UZ-SA","qid":"Q487532"},"geometry":{"type":"Point","coordinates":[66.3126,39.9926]}},{"type":"Feature","id":"UZB-361","properties":{"kind":"division","code":"UZB-361","countryCode":"UZB","name":"Qashqadaryo","localName":"Qashqadaryo","labelEnglish":"Qashqadaryo","labelLocal":"Qashqadaryo","labelBoth":"Qashqadaryo","type":"Region","iso":"UZ-QA","qid":"Q487577"},"geometry":{"type":"Polygon","coordinates":[[[67.3587,39.2904],[66.6886,39.4306],[66.0886,39.3196],[65.8153,39.5529],[65.2556,39.4918],[65.1378,39.4643],[64.879,39.1612],[64.3676,38.9404],[65.6041,38.2374],[65.8767,38.273],[66.6365,37.9666],[66.8951,38.2739],[67.6733,39.003],[67.3587,39.2904]]]}},{"type":"Feature","id":"label-UZB-361","properties":{"kind":"division-label","code":"UZB-361","countryCode":"UZB","name":"Qashqadaryo","localName":"Qashqadaryo","labelEnglish":"Qashqadaryo","labelLocal":"Qashqadaryo","labelBoth":"Qashqadaryo","type":"Region","iso":"UZ-QA","qid":"Q487577"},"geometry":{"type":"Point","coordinates":[66.0231,38.7774]}},{"type":"Feature","id":"UZB-362","properties":{"kind":"division","code":"UZB-362","countryCode":"UZB","name":"Surxondaryo","localName":"Surxondaryo","labelEnglish":"Surxondaryo","labelLocal":"Surxondaryo","labelBoth":"Surxondaryo","type":"Region","iso":"UZ-SU","qid":"Q487537"},"geometry":{"type":"Polygon","coordinates":[[[67.6733,39.003],[66.8951,38.2739],[66.6365,37.9666],[66.5188,37.7827],[66.5196,37.3642],[67.0059,37.3844],[67.2368,37.1924],[67.4824,37.2774],[67.7805,37.1889],[67.8292,37.5279],[68.238,37.9427],[68.3607,38.1741],[68.0552,38.5363],[68.1534,38.8994],[67.6733,39.003]]]}},{"type":"Feature","id":"label-UZB-362","properties":{"kind":"division-label","code":"UZB-362","countryCode":"UZB","name":"Surxondaryo","localName":"Surxondaryo","labelEnglish":"Surxondaryo","labelLocal":"Surxondaryo","labelBoth":"Surxondaryo","type":"Region","iso":"UZ-SU","qid":"Q487537"},"geometry":{"type":"Point","coordinates":[67.4269,37.9835]}},{"type":"Feature","id":"UZB-356","properties":{"kind":"division","code":"UZB-356","countryCode":"UZB","name":"Karakalpakstan","localName":"Karakalpakstan","labelEnglish":"Karakalpakstan","labelLocal":"Karakalpakstan","labelBoth":"Karakalpakstan","type":"Automonous Region","iso":"UZ-QR","qid":"Q484245"},"geometry":{"type":"Polygon","coordinates":[[[59.0551,45.324],[58.5314,45.5587],[56.7076,45.1619],[55.9784,44.9962],[55.9768,43.6164],[55.9784,41.3217],[56.5337,41.299],[57.0102,41.2541],[56.9501,41.8661],[57.3823,42.1636],[57.8505,42.1914],[57.9977,42.4934],[58.4941,42.3057],[58.1306,42.6388],[58.4932,42.6455],[58.6123,42.7809],[58.8944,42.5478],[59.122,42.538],[59.4782,42.2856],[60.0282,42.1995],[59.9318,41.9476],[60.1411,41.8742],[60.459,41.9666],[60.55,41.7773],[61.2687,41.3019],[61.4464,41.3863],[61.8638,41.2846],[62.2395,40.999],[62.4646,41.0947],[62.1804,41.3923],[61.7516,41.8342],[61.9959,41.98],[61.8816,42.3969],[62.4654,43.2312],[62.0283,43.4809],[61.1617,44.1681],[61.0363,44.3828],[59.0551,45.324]]]}},{"type":"Feature","id":"label-UZB-356","properties":{"kind":"division-label","code":"UZB-356","countryCode":"UZB","name":"Karakalpakstan","localName":"Karakalpakstan","labelEnglish":"Karakalpakstan","labelLocal":"Karakalpakstan","labelBoth":"Karakalpakstan","type":"Automonous Region","iso":"UZ-QR","qid":"Q484245"},"geometry":{"type":"Point","coordinates":[59.2233,43.8529]}},{"type":"Feature","id":"UZB-357","properties":{"kind":"division","code":"UZB-357","countryCode":"UZB","name":"Navoiy","localName":"Navoiy","labelEnglish":"Navoiy","labelLocal":"Navoiy","labelBoth":"Navoiy","type":"Region","iso":"UZ-NW","qid":"Q487570"},"geometry":{"type":"Polygon","coordinates":[[[66.0132,42.3729],[66.1013,42.9903],[65.7952,42.8772],[65.5169,43.2972],[64.9565,43.6974],[64.4267,43.547],[63.208,43.6275],[62.0283,43.4809],[62.4654,43.2312],[61.8816,42.3969],[61.9959,41.98],[61.7516,41.8342],[62.1804,41.3923],[62.6191,41.4918],[62.9786,41.0746],[63.8542,40.758],[63.985,40.9328],[64.1647,40.7975],[64.802,40.9269],[64.8465,40.7704],[65.3175,40.6991],[65.134,40.3361],[64.8496,40.3511],[64.9047,40.1712],[64.59,39.9078],[64.9832,39.6999],[65.1378,39.4643],[65.2556,39.4918],[65.1431,39.8662],[65.4353,39.9057],[65.5001,40.1395],[66.0943,40.0512],[66.2088,40.5379],[66.523,40.6209],[66.6202,40.4951],[66.8012,40.7752],[66.6143,41.0842],[66.7579,41.1531],[66.6882,41.1992],[66.5041,41.9935],[66.0172,41.9976],[66.0132,42.3729]]]}},{"type":"Feature","id":"label-UZB-357","properties":{"kind":"division-label","code":"UZB-357","countryCode":"UZB","name":"Navoiy","localName":"Navoiy","labelEnglish":"Navoiy","labelLocal":"Navoiy","labelBoth":"Navoiy","type":"Region","iso":"UZ-NW","qid":"Q487570"},"geometry":{"type":"Point","coordinates":[64.2722,42.1726]}},{"type":"Feature","id":"UZB-355","properties":{"kind":"division","code":"UZB-355","countryCode":"UZB","name":"Xorazm","localName":"Xorazm","labelEnglish":"Xorazm","labelLocal":"Xorazm","labelBoth":"Xorazm","type":"Region","iso":"UZ-XO","qid":"Q487561"},"geometry":{"type":"Polygon","coordinates":[[[60.1411,41.8742],[60.0942,41.3895],[60.4145,41.2353],[61.0043,41.2295],[61.2814,41.1573],[61.4701,41.2972],[61.8779,41.125],[62.1871,40.5055],[62.4473,40.7883],[62.2395,40.999],[61.8638,41.2846],[61.4464,41.3863],[61.2687,41.3019],[60.55,41.7773],[60.459,41.9666],[60.1411,41.8742]]]}},{"type":"Feature","id":"label-UZB-355","properties":{"kind":"division-label","code":"UZB-355","countryCode":"UZB","name":"Xorazm","localName":"Xorazm","labelEnglish":"Xorazm","labelLocal":"Xorazm","labelBoth":"Xorazm","type":"Region","iso":"UZ-XO","qid":"Q487561"},"geometry":{"type":"Point","coordinates":[61.2481,41.2489]}},{"type":"Feature","id":"UZB-354","properties":{"kind":"division","code":"UZB-354","countryCode":"UZB","name":"Bukhara","localName":"Bukhara","labelEnglish":"Bukhara","labelLocal":"Bukhara","labelBoth":"Bukhara","type":"Region","iso":"UZ-BU","qid":"Q487372"},"geometry":{"type":"Polygon","coordinates":[[[62.1871,40.5055],[62.3533,40.4304],[62.4528,40.0092],[63.4776,39.4029],[64.1206,38.9617],[64.3676,38.9404],[64.879,39.1612],[65.1378,39.4643],[64.9832,39.6999],[64.59,39.9078],[64.9047,40.1712],[64.8496,40.3511],[65.134,40.3361],[65.3175,40.6991],[64.8465,40.7704],[64.802,40.9269],[64.1647,40.7975],[63.985,40.9328],[63.8542,40.758],[62.9786,41.0746],[62.6191,41.4918],[62.1804,41.3923],[62.4646,41.0947],[62.2395,40.999],[62.4473,40.7883],[62.1871,40.5055]]]}},{"type":"Feature","id":"label-UZB-354","properties":{"kind":"division-label","code":"UZB-354","countryCode":"UZB","name":"Bukhara","localName":"Bukhara","labelEnglish":"Bukhara","labelLocal":"Bukhara","labelBoth":"Bukhara","type":"Region","iso":"UZ-BU","qid":"Q487372"},"geometry":{"type":"Point","coordinates":[63.7729,39.946]}},{"type":"Feature","id":"UZB-4828","properties":{"kind":"division","code":"UZB-4828","countryCode":"UZB","name":"Tashkent","localName":"Tashkent","labelEnglish":"Tashkent","labelLocal":"Tashkent","labelBoth":"Tashkent","type":"Region","iso":"UZ-TK","qid":"Q269"},"geometry":{"type":"Polygon","coordinates":[[[69.2434,41.2192],[69.3638,41.2985],[69.2232,41.4033],[69.2434,41.2192]]]}},{"type":"Feature","id":"label-UZB-4828","properties":{"kind":"division-label","code":"UZB-4828","countryCode":"UZB","name":"Tashkent","localName":"Tashkent","labelEnglish":"Tashkent","labelLocal":"Tashkent","labelBoth":"Tashkent","type":"Region","iso":"UZ-TK","qid":"Q269"},"geometry":{"type":"Point","coordinates":[69.2464,41.323]}}]}