{"type":"FeatureCollection","features":[{"type":"Feature","id":"VAT+00?","properties":{"kind":"division","code":"VAT+00?","countryCode":"VAT","name":"Vatican City","localName":"Vatican City","labelEnglish":"Vatican City","labelLocal":"Vatican City","labelBoth":"Vatican City","type":null,"iso":"VA-X01~","qid":null},"geometry":{"type":"Polygon","coordinates":[[[12.453,41.9039],[12.4527,41.903],[12.454,41.9028],[12.453,41.9039]]]}},{"type":"Feature","id":"label-VAT+00?","properties":{"kind":"division-label","code":"VAT+00?","countryCode":"VAT","name":"Vatican City","localName":"Vatican City","labelEnglish":"Vatican City","labelLocal":"Vatican City","labelBoth":"Vatican City","type":null,"iso":"VA-X01~","qid":null},"geometry":{"type":"Point","coordinates":[12.4534,41.9034]}}]}