{"type":"FeatureCollection","features":[{"type":"Feature","id":"VCT-5064","properties":{"kind":"division","code":"VCT-5064","countryCode":"VCT","name":"Grenadines","localName":"Grenadines","labelEnglish":"Grenadines","labelLocal":"Grenadines","labelBoth":"Grenadines","type":"Parish","iso":"VC-06","qid":"Q2545297"},"geometry":{"type":"Polygon","coordinates":[[[-61.194,13.0369],[-61.2493,13.0163],[-61.2424,12.9822],[-61.194,13.0369]]]}},{"type":"Feature","id":"label-VCT-5064","properties":{"kind":"division-label","code":"VCT-5064","countryCode":"VCT","name":"Grenadines","localName":"Grenadines","labelEnglish":"Grenadines","labelLocal":"Grenadines","labelBoth":"Grenadines","type":"Parish","iso":"VC-06","qid":"Q2545297"},"geometry":{"type":"Point","coordinates":[-61.229,13.0161]}},{"type":"Feature","id":"VCT-5065","properties":{"kind":"division","code":"VCT-5065","countryCode":"VCT","name":"Saint Andrew","localName":"Saint Andrew","labelEnglish":"Saint Andrew","labelLocal":"Saint Andrew","labelBoth":"Saint Andrew","type":"Parish","iso":"VC-02","qid":"Q2305115"},"geometry":{"type":"Polygon","coordinates":[[[-61.2379,13.1634],[-61.1928,13.2167],[-61.1989,13.2393],[-61.2714,13.1865],[-61.2379,13.1634]]]}},{"type":"Feature","id":"label-VCT-5065","properties":{"kind":"division-label","code":"VCT-5065","countryCode":"VCT","name":"Saint Andrew","localName":"Saint Andrew","labelEnglish":"Saint Andrew","labelLocal":"Saint Andrew","labelBoth":"Saint Andrew","type":"Parish","iso":"VC-02","qid":"Q2305115"},"geometry":{"type":"Point","coordinates":[-61.2287,13.1977]}},{"type":"Feature","id":"VCT-5067","properties":{"kind":"division","code":"VCT-5067","countryCode":"VCT","name":"Saint George","localName":"Saint George","labelEnglish":"Saint George","labelLocal":"Saint George","labelBoth":"Saint George","type":"Parish","iso":"VC-04","qid":"Q2300294"},"geometry":{"type":"Polygon","coordinates":[[[-61.1355,13.1978],[-61.1928,13.2167],[-61.2379,13.1634],[-61.1355,13.1978]]]}},{"type":"Feature","id":"label-VCT-5067","properties":{"kind":"division-label","code":"VCT-5067","countryCode":"VCT","name":"Saint George","localName":"Saint George","labelEnglish":"Saint George","labelLocal":"Saint George","labelBoth":"Saint George","type":"Parish","iso":"VC-04","qid":"Q2300294"},"geometry":{"type":"Point","coordinates":[-61.1899,13.1695]}},{"type":"Feature","id":"VCT-5063","properties":{"kind":"division","code":"VCT-5063","countryCode":"VCT","name":"Charlotte","localName":"Charlotte","labelEnglish":"Charlotte","labelLocal":"Charlotte","labelBoth":"Charlotte","type":"Parish","iso":"VC-01","qid":"Q2075188"},"geometry":{"type":"Polygon","coordinates":[[[-61.1713,13.38],[-61.1877,13.2629],[-61.1989,13.2393],[-61.1928,13.2167],[-61.1355,13.1978],[-61.1713,13.38]]]}},{"type":"Feature","id":"label-VCT-5063","properties":{"kind":"division-label","code":"VCT-5063","countryCode":"VCT","name":"Charlotte","localName":"Charlotte","labelEnglish":"Charlotte","labelLocal":"Charlotte","labelBoth":"Charlotte","type":"Parish","iso":"VC-01","qid":"Q2075188"},"geometry":{"type":"Point","coordinates":[-61.1475,13.2825]}},{"type":"Feature","id":"VCT-5066","properties":{"kind":"division","code":"VCT-5066","countryCode":"VCT","name":"Saint David","localName":"Saint David","labelEnglish":"Saint David","labelLocal":"Saint David","labelBoth":"Saint David","type":"Parish","iso":"VC-03","qid":"Q2412394"},"geometry":{"type":"Polygon","coordinates":[[[-61.2684,13.2659],[-61.1877,13.2629],[-61.1713,13.38],[-61.2684,13.2659]]]}},{"type":"Feature","id":"label-VCT-5066","properties":{"kind":"division-label","code":"VCT-5066","countryCode":"VCT","name":"Saint David","localName":"Saint David","labelEnglish":"Saint David","labelLocal":"Saint David","labelBoth":"Saint David","type":"Parish","iso":"VC-03","qid":"Q2412394"},"geometry":{"type":"Point","coordinates":[-61.204,13.3142]}},{"type":"Feature","id":"VCT-5068","properties":{"kind":"division","code":"VCT-5068","countryCode":"VCT","name":"Saint Patrick","localName":"Saint Patrick","labelEnglish":"Saint Patrick","labelLocal":"Saint Patrick","labelBoth":"Saint Patrick","type":"Parish","iso":"VC-05","qid":"Q1864637"},"geometry":{"type":"Polygon","coordinates":[[[-61.2714,13.1865],[-61.1989,13.2393],[-61.1877,13.2629],[-61.2684,13.2659],[-61.2714,13.1865]]]}},{"type":"Feature","id":"label-VCT-5068","properties":{"kind":"division-label","code":"VCT-5068","countryCode":"VCT","name":"Saint Patrick","localName":"Saint Patrick","labelEnglish":"Saint Patrick","labelLocal":"Saint Patrick","labelBoth":"Saint Patrick","type":"Parish","iso":"VC-05","qid":"Q1864637"},"geometry":{"type":"Point","coordinates":[-61.2534,13.2313]}}]}