{"type":"FeatureCollection","features":[{"type":"Feature","id":"VEN-65","properties":{"kind":"division","code":"VEN-65","countryCode":"VEN","name":"Delta Amacuro","localName":"Delta Amacuro","labelEnglish":"Delta Amacuro","labelLocal":"Delta Amacuro","labelBoth":"Delta Amacuro","type":"State","iso":"VE-Y","qid":"Q201137"},"geometry":{"type":"MultiPolygon","coordinates":[[[[-60.021,8.558],[-60.3719,8.6354],[-60.9872,8.5649],[-61.284,8.3972],[-61.652,8.5858],[-61.2095,8.609],[-60.984,9.1674],[-60.7838,9.3386],[-61.6367,9.8988],[-61.8315,9.7919],[-62.1965,10.0197],[-62.3254,9.7189],[-62.4461,9.5254],[-62.3228,9.1483],[-62.0531,9.0454],[-62.0086,8.8955],[-62.2395,8.598],[-62.5976,8.448],[-62.2472,8.3138],[-61.6352,8.287],[-61.6092,8.1185],[-61.3192,7.8206],[-61.0245,7.9407],[-60.797,7.757],[-60.5391,7.9169],[-60.268,7.9213],[-59.8156,8.2878],[-60.021,8.558]]],[[[-60.9514,8.8278],[-61.1768,8.6038],[-60.8466,8.6377],[-60.686,8.789],[-60.9514,8.8278]]]]}},{"type":"Feature","id":"label-VEN-65","properties":{"kind":"division-label","code":"VEN-65","countryCode":"VEN","name":"Delta Amacuro","localName":"Delta Amacuro","labelEnglish":"Delta Amacuro","labelLocal":"Delta Amacuro","labelBoth":"Delta Amacuro","type":"State","iso":"VE-Y","qid":"Q201137"},"geometry":{"type":"Point","coordinates":[-61.5863,8.78915]}},{"type":"Feature","id":"VEN-39","properties":{"kind":"division","code":"VEN-39","countryCode":"VEN","name":"Bolívar","localName":"Bolívar","labelEnglish":"Bolívar","labelLocal":"Bolívar","labelBoth":"Bolívar","type":"State","iso":"VE-F","qid":"Q191164"},"geometry":{"type":"Polygon","coordinates":[[[-60.268,7.9213],[-60.5391,7.9169],[-60.797,7.757],[-61.0245,7.9407],[-61.3192,7.8206],[-61.6092,8.1185],[-61.6352,8.287],[-62.2472,8.3138],[-62.5976,8.448],[-62.6858,8.3857],[-62.8791,8.2741],[-63.1746,8.3134],[-63.4916,8.1456],[-63.8399,8.1104],[-63.961,7.9736],[-64.2833,8.0814],[-64.5236,7.9963],[-64.5232,7.7737],[-64.8573,7.6598],[-65.1037,7.8344],[-65.3567,7.8694],[-65.6482,7.8999],[-65.9395,7.6792],[-66.3305,7.6484],[-66.5957,7.3396],[-67.0898,7.0657],[-67.0344,6.9131],[-67.1311,6.4755],[-67.451,6.198],[-67.4563,6.1932],[-67.1895,6.1109],[-67.1996,5.7136],[-66.9773,5.6223],[-66.5353,5.7531],[-66.3455,5.9222],[-66.2205,5.7316],[-65.9935,5.7963],[-65.8271,6.1102],[-65.5803,6.0806],[-65.6089,5.7149],[-65.2246,5.7586],[-65.1357,5.3114],[-65.2884,5.2489],[-64.942,4.6252],[-64.6601,4.5419],[-64.648,4.2079],[-64.1251,4.0885],[-64.0638,3.9116],[-63.4254,3.9684],[-62.931,3.5638],[-62.7496,3.6604],[-62.7662,4.0207],[-62.3842,4.1735],[-62.1927,4.0947],[-61.5673,4.2485],[-61.2973,4.5237],[-61.012,4.5183],[-60.6126,4.9006],[-60.7399,5.2021],[-61.3796,5.9053],[-61.1216,6.1867],[-61.2097,6.541],[-61.1298,6.7158],[-60.7215,6.7597],[-60.3773,6.9385],[-60.3483,7.1527],[-60.548,7.1255],[-60.7306,7.5254],[-60.5033,7.8209],[-60.268,7.9213]]]}},{"type":"Feature","id":"label-VEN-39","properties":{"kind":"division-label","code":"VEN-39","countryCode":"VEN","name":"Bolívar","localName":"Bolívar","labelEnglish":"Bolívar","labelLocal":"Bolívar","labelBoth":"Bolívar","type":"State","iso":"VE-F","qid":"Q191164"},"geometry":{"type":"Point","coordinates":[-63.8628,6.00608]}},{"type":"Feature","id":"VEN-38","properties":{"kind":"division","code":"VEN-38","countryCode":"VEN","name":"Amazonas","localName":"Amazonas","labelEnglish":"Amazonas","labelLocal":"Amazonas","labelBoth":"Amazonas","type":"State","iso":"VE-Z","qid":"Q170453"},"geometry":{"type":"Polygon","coordinates":[[[-64.648,4.2079],[-64.6601,4.5419],[-64.942,4.6252],[-65.2884,5.2489],[-65.1357,5.3114],[-65.2246,5.7586],[-65.6089,5.7149],[-65.5803,6.0806],[-65.8271,6.1102],[-65.9935,5.7963],[-66.2205,5.7316],[-66.3455,5.9222],[-66.5353,5.7531],[-66.9773,5.6223],[-67.1996,5.7136],[-67.1895,6.1109],[-67.4563,6.1932],[-67.647,5.4834],[-67.8437,5.2972],[-67.7931,5.0633],[-67.8651,4.5121],[-67.7169,4.0399],[-67.6318,3.7619],[-67.3046,3.4257],[-67.8386,2.8861],[-67.6266,2.8134],[-67.1976,2.402],[-66.8751,1.2225],[-66.4071,0.8021],[-66.1563,0.733],[-65.7454,0.9742],[-65.5829,0.9777],[-65.5605,0.656],[-65.1368,1.1269],[-64.7309,1.2476],[-64.409,1.5075],[-64.3948,1.3922],[-64.0809,1.6474],[-63.995,1.958],[-63.7626,1.9857],[-63.3865,2.2359],[-63.3848,2.4206],[-64.048,2.4713],[-63.9979,2.706],[-64.2229,3.124],[-64.203,3.5947],[-64.6629,3.997],[-64.648,4.2079]]]}},{"type":"Feature","id":"label-VEN-38","properties":{"kind":"division-label","code":"VEN-38","countryCode":"VEN","name":"Amazonas","localName":"Amazonas","labelEnglish":"Amazonas","labelLocal":"Amazonas","labelBoth":"Amazonas","type":"State","iso":"VE-Z","qid":"Q170453"},"geometry":{"type":"Point","coordinates":[-65.6187,3.36185]}},{"type":"Feature","id":"VEN-31","properties":{"kind":"division","code":"VEN-31","countryCode":"VEN","name":"Zulia","localName":"Zulia","labelEnglish":"Zulia","labelLocal":"Zulia","labelBoth":"Zulia","type":"State","iso":"VE-V","qid":"Q43269"},"geometry":{"type":"MultiPolygon","coordinates":[[[[-71.3275,11.85],[-71.9711,11.6619],[-72.2566,11.1678],[-72.4993,11.1208],[-72.9152,10.4282],[-72.9776,9.8381],[-73.3636,9.165],[-73.0097,9.2954],[-72.8267,9.1417],[-72.6754,8.6515],[-72.4156,8.3827],[-72.2264,8.4015],[-71.9449,8.6114],[-71.6735,8.7188],[-71.1474,9.1278],[-71.2185,9.187],[-71.5148,9.049],[-71.7589,9.1201],[-71.7345,9.3076],[-72.1244,9.8261],[-71.9825,10.0883],[-71.6295,10.454],[-71.5763,10.7211],[-71.9393,11.3808],[-71.9605,11.5913],[-71.3782,11.7585],[-71.3275,11.85]]],[[[-71.0624,9.6174],[-70.8422,9.608],[-70.6612,9.9045],[-70.8482,10.0998],[-70.6581,10.3048],[-71.0221,10.5277],[-71.282,10.9914],[-71.5831,10.8092],[-71.5416,10.5649],[-71.2069,9.9806],[-71.0624,9.6174]]]]}},{"type":"Feature","id":"label-VEN-31","properties":{"kind":"division-label","code":"VEN-31","countryCode":"VEN","name":"Zulia","localName":"Zulia","labelEnglish":"Zulia","labelLocal":"Zulia","labelBoth":"Zulia","type":"State","iso":"VE-V","qid":"Q43269"},"geometry":{"type":"Point","coordinates":[-72.5482,9.58469]}},{"type":"Feature","id":"VEN-28","properties":{"kind":"division","code":"VEN-28","countryCode":"VEN","name":"Tachira","localName":"Tachira","labelEnglish":"Tachira","labelLocal":"Tachira","labelBoth":"Tachira","type":"State","iso":"VE-S","qid":"Q41144"},"geometry":{"type":"Polygon","coordinates":[[[-72.4156,8.3827],[-72.3358,8.1039],[-72.4878,7.9492],[-72.482,7.508],[-72.3958,7.4075],[-72.0688,7.375],[-71.8416,7.4948],[-71.3343,7.4887],[-71.4836,7.6845],[-71.5077,8.0054],[-71.8925,8.1717],[-71.778,8.4594],[-71.9449,8.6114],[-72.2264,8.4015],[-72.4156,8.3827]]]}},{"type":"Feature","id":"label-VEN-28","properties":{"kind":"division-label","code":"VEN-28","countryCode":"VEN","name":"Tachira","localName":"Tachira","labelEnglish":"Tachira","labelLocal":"Tachira","labelBoth":"Tachira","type":"State","iso":"VE-S","qid":"Q41144"},"geometry":{"type":"Point","coordinates":[-72.0039,7.85734]}},{"type":"Feature","id":"VEN-25","properties":{"kind":"division","code":"VEN-25","countryCode":"VEN","name":"Apure","localName":"Apure","labelEnglish":"Apure","labelLocal":"Apure","labelBoth":"Apure","type":"State","iso":"VE-C","qid":"Q41146"},"geometry":{"type":"Polygon","coordinates":[[[-72.3958,7.4075],[-72.2062,7.3819],[-71.9938,7.0129],[-71.964,7.0059],[-71.6204,7.0521],[-71.184,6.9626],[-70.5786,7.0858],[-70.3191,6.9383],[-70.0966,6.9444],[-69.432,6.1222],[-69.0611,6.2178],[-68.6353,6.1359],[-67.9241,6.2346],[-67.8391,6.3075],[-67.451,6.198],[-67.1311,6.4755],[-67.0344,6.9131],[-67.0898,7.0657],[-66.5957,7.3396],[-66.3305,7.6484],[-66.552,7.7938],[-67.2265,7.7985],[-67.5442,7.9588],[-68.0544,8.0485],[-68.2566,7.9565],[-68.8235,7.9025],[-69.2126,8.0758],[-69.4409,8.0717],[-69.7337,7.8444],[-70.2995,7.5904],[-70.6669,7.2874],[-70.8742,7.2875],[-71.2488,7.4545],[-71.8416,7.4948],[-72.0688,7.375],[-72.3958,7.4075]]]}},{"type":"Feature","id":"label-VEN-25","properties":{"kind":"division-label","code":"VEN-25","countryCode":"VEN","name":"Apure","localName":"Apure","labelEnglish":"Apure","labelLocal":"Apure","labelBoth":"Apure","type":"State","iso":"VE-C","qid":"Q41146"},"geometry":{"type":"Point","coordinates":[-68.55,7.0405]}},{"type":"Feature","id":"VEN-27","properties":{"kind":"division","code":"VEN-27","countryCode":"VEN","name":"Merida","localName":"Merida","labelEnglish":"Merida","labelLocal":"Merida","labelBoth":"Merida","type":"State","iso":"VE-L","qid":"Q165582"},"geometry":{"type":"Polygon","coordinates":[[[-71.2185,9.187],[-71.1474,9.1278],[-71.6735,8.7188],[-71.9449,8.6114],[-71.778,8.4594],[-71.8925,8.1717],[-71.5077,8.0054],[-71.4836,7.6845],[-71.0905,8.0675],[-71.0775,8.3763],[-70.7686,8.7815],[-70.5347,8.9553],[-71.0587,9.3379],[-71.2185,9.187]]]}},{"type":"Feature","id":"label-VEN-27","properties":{"kind":"division-label","code":"VEN-27","countryCode":"VEN","name":"Merida","localName":"Merida","labelEnglish":"Merida","labelLocal":"Merida","labelBoth":"Merida","type":"State","iso":"VE-L","qid":"Q165582"},"geometry":{"type":"Point","coordinates":[-71.2398,8.49098]}},{"type":"Feature","id":"VEN-29","properties":{"kind":"division","code":"VEN-29","countryCode":"VEN","name":"Trujillo","localName":"Trujillo","labelEnglish":"Trujillo","labelLocal":"Trujillo","labelBoth":"Trujillo","type":"State","iso":"VE-T","qid":"Q202068"},"geometry":{"type":"Polygon","coordinates":[[[-71.0587,9.3379],[-70.5347,8.9553],[-70.1825,9.0079],[-70.033,9.4303],[-70.086,9.77],[-70.6086,10.0316],[-70.6612,9.9045],[-70.8422,9.608],[-71.0624,9.6174],[-71.0587,9.3379]]]}},{"type":"Feature","id":"label-VEN-29","properties":{"kind":"division-label","code":"VEN-29","countryCode":"VEN","name":"Trujillo","localName":"Trujillo","labelEnglish":"Trujillo","labelLocal":"Trujillo","labelBoth":"Trujillo","type":"State","iso":"VE-T","qid":"Q202068"},"geometry":{"type":"Point","coordinates":[-70.5519,9.49508]}},{"type":"Feature","id":"VEN-23","properties":{"kind":"division","code":"VEN-23","countryCode":"VEN","name":"Falcón","localName":"Falcón","labelEnglish":"Falcón","labelLocal":"Falcón","labelBoth":"Falcón","type":"State","iso":"VE-I","qid":"Q202071"},"geometry":{"type":"Polygon","coordinates":[[[-71.282,10.9914],[-71.0221,10.5277],[-70.6581,10.3048],[-70.1575,10.6517],[-69.6639,10.7647],[-68.8855,10.6595],[-68.6336,10.7329],[-68.2738,10.6342],[-68.2627,10.9031],[-68.3887,11.1282],[-68.8632,11.4529],[-69.2704,11.536],[-69.6236,11.4678],[-69.8353,12.0152],[-70.0177,12.1989],[-70.2058,12.112],[-70.302,11.8581],[-70.1865,11.6027],[-69.816,11.6937],[-69.7471,11.4808],[-69.946,11.5198],[-70.5139,11.2532],[-70.8697,11.1963],[-71.282,10.9914]]]}},{"type":"Feature","id":"label-VEN-23","properties":{"kind":"division-label","code":"VEN-23","countryCode":"VEN","name":"Falcón","localName":"Falcón","labelEnglish":"Falcón","labelLocal":"Falcón","labelBoth":"Falcón","type":"State","iso":"VE-I","qid":"Q202071"},"geometry":{"type":"Point","coordinates":[-69.7604,11.0897]}},{"type":"Feature","id":"VEN-36","properties":{"kind":"division","code":"VEN-36","countryCode":"VEN","name":"Yaracuy","localName":"Yaracuy","labelEnglish":"Yaracuy","labelLocal":"Yaracuy","labelBoth":"Yaracuy","type":"State","iso":"VE-U","qid":"Q201121"},"geometry":{"type":"Polygon","coordinates":[[[-68.2738,10.6342],[-68.6336,10.7329],[-68.8855,10.6595],[-69.0317,10.538],[-69.015,10.2484],[-69.2275,10.1101],[-68.9777,9.8573],[-68.5906,10.0095],[-68.3705,9.99],[-68.3895,10.4935],[-68.2517,10.5951],[-68.2738,10.6342]]]}},{"type":"Feature","id":"label-VEN-36","properties":{"kind":"division-label","code":"VEN-36","countryCode":"VEN","name":"Yaracuy","localName":"Yaracuy","labelEnglish":"Yaracuy","labelLocal":"Yaracuy","labelBoth":"Yaracuy","type":"State","iso":"VE-U","qid":"Q201121"},"geometry":{"type":"Point","coordinates":[-68.7447,10.3466]}},{"type":"Feature","id":"VEN-33","properties":{"kind":"division","code":"VEN-33","countryCode":"VEN","name":"Carabobo","localName":"Carabobo","labelEnglish":"Carabobo","labelLocal":"Carabobo","labelBoth":"Carabobo","type":"State","iso":"VE-G","qid":"Q191186"},"geometry":{"type":"Polygon","coordinates":[[[-68.2517,10.5951],[-68.3895,10.4935],[-68.3705,9.99],[-67.7888,9.827],[-67.5341,9.9515],[-67.6886,10.0572],[-67.672,10.3244],[-67.8692,10.4613],[-68.2517,10.5951]]]}},{"type":"Feature","id":"label-VEN-33","properties":{"kind":"division-label","code":"VEN-33","countryCode":"VEN","name":"Carabobo","localName":"Carabobo","labelEnglish":"Carabobo","labelLocal":"Carabobo","labelBoth":"Carabobo","type":"State","iso":"VE-G","qid":"Q191186"},"geometry":{"type":"Point","coordinates":[-67.9745,10.1548]}},{"type":"Feature","id":"VEN-41","properties":{"kind":"division","code":"VEN-41","countryCode":"VEN","name":"Aragua","localName":"Aragua","labelEnglish":"Aragua","labelLocal":"Aragua","labelBoth":"Aragua","type":"State","iso":"VE-D","qid":"Q190687"},"geometry":{"type":"Polygon","coordinates":[[[-67.8692,10.4613],[-67.672,10.3244],[-67.6886,10.0572],[-67.5341,9.9515],[-67.1813,9.9198],[-66.8587,9.6723],[-67.0017,9.4597],[-66.5755,9.4095],[-66.6127,9.9664],[-67.1191,10.1115],[-67.2202,10.4167],[-67.3918,10.5431],[-67.8692,10.4613]]]}},{"type":"Feature","id":"label-VEN-41","properties":{"kind":"division-label","code":"VEN-41","countryCode":"VEN","name":"Aragua","localName":"Aragua","labelEnglish":"Aragua","labelLocal":"Aragua","labelBoth":"Aragua","type":"State","iso":"VE-D","qid":"Q190687"},"geometry":{"type":"Point","coordinates":[-67.3252,10.1618]}},{"type":"Feature","id":"VEN-42","properties":{"kind":"division","code":"VEN-42","countryCode":"VEN","name":"Vargas state","localName":"Vargas state","labelEnglish":"Vargas state","labelLocal":"Vargas state","labelBoth":"Vargas state","type":"State","iso":"VE-X","qid":"Q205843"},"geometry":{"type":"Polygon","coordinates":[[[-67.3918,10.5431],[-67.2202,10.4167],[-67.1532,10.4407],[-66.8738,10.547],[-66.3251,10.5307],[-66.3136,10.6295],[-67.0124,10.6112],[-67.3918,10.5431]]]}},{"type":"Feature","id":"label-VEN-42","properties":{"kind":"division-label","code":"VEN-42","countryCode":"VEN","name":"Vargas state","localName":"Vargas state","labelEnglish":"Vargas state","labelLocal":"Vargas state","labelBoth":"Vargas state","type":"State","iso":"VE-X","qid":"Q205843"},"geometry":{"type":"Point","coordinates":[-66.8566,10.5818]}},{"type":"Feature","id":"VEN-47","properties":{"kind":"division","code":"VEN-47","countryCode":"VEN","name":"Miranda","localName":"Miranda","labelEnglish":"Miranda","labelLocal":"Miranda","labelBoth":"Miranda","type":"State","iso":"VE-M","qid":"Q191174"},"geometry":{"type":"Polygon","coordinates":[[[-66.3136,10.6295],[-66.3251,10.5307],[-66.8738,10.547],[-66.8974,10.4162],[-67.1532,10.4407],[-67.2202,10.4167],[-67.1191,10.1115],[-66.6127,9.9664],[-65.6966,9.9534],[-65.4258,10.1434],[-65.8275,10.2344],[-66.3136,10.6295]]]}},{"type":"Feature","id":"label-VEN-47","properties":{"kind":"division-label","code":"VEN-47","countryCode":"VEN","name":"Miranda","localName":"Miranda","labelEnglish":"Miranda","labelLocal":"Miranda","labelBoth":"Miranda","type":"State","iso":"VE-M","qid":"Q191174"},"geometry":{"type":"Point","coordinates":[-66.3229,10.2616]}},{"type":"Feature","id":"VEN-40","properties":{"kind":"division","code":"VEN-40","countryCode":"VEN","name":"Anzoátegui","localName":"Anzoátegui","labelEnglish":"Anzoátegui","labelLocal":"Anzoátegui","labelBoth":"Anzoátegui","type":"State","iso":"VE-B","qid":"Q190922"},"geometry":{"type":"Polygon","coordinates":[[[-65.4258,10.1434],[-65.6966,9.9534],[-65.6941,9.6806],[-65.2182,9.5068],[-65.2637,9.2898],[-64.7899,8.8781],[-64.8641,8.741],[-65.1378,8.7391],[-65.2066,8.3694],[-65.4805,8.0239],[-65.3567,7.8694],[-65.1037,7.8344],[-64.8573,7.6598],[-64.5232,7.7737],[-64.5236,7.9963],[-64.2833,8.0814],[-63.961,7.9736],[-63.8399,8.1104],[-63.4916,8.1456],[-63.1746,8.3134],[-62.8791,8.2741],[-62.6858,8.3857],[-62.9883,8.5526],[-62.9758,8.7948],[-63.3402,8.809],[-63.4181,9.0083],[-63.9666,9.4167],[-63.8466,9.5506],[-64.061,10.0454],[-63.9488,10.0826],[-64.3473,10.0946],[-64.5361,10.2523],[-64.7481,10.1069],[-65.0802,10.0557],[-65.4258,10.1434]]]}},{"type":"Feature","id":"label-VEN-40","properties":{"kind":"division-label","code":"VEN-40","countryCode":"VEN","name":"Anzoátegui","localName":"Anzoátegui","labelEnglish":"Anzoátegui","labelLocal":"Anzoátegui","labelBoth":"Anzoátegui","type":"State","iso":"VE-B","qid":"Q190922"},"geometry":{"type":"Point","coordinates":[-64.1949,9.05586]}},{"type":"Feature","id":"VEN-49","properties":{"kind":"division","code":"VEN-49","countryCode":"VEN","name":"Sucre","localName":"Sucre","labelEnglish":"Sucre","labelLocal":"Sucre","labelBoth":"Sucre","type":"State","iso":"VE-R","qid":"Q205824"},"geometry":{"type":"Polygon","coordinates":[[[-64.5361,10.2523],[-64.3473,10.0946],[-63.9488,10.0826],[-63.4759,10.3128],[-63.0131,10.0974],[-62.6566,10.0822],[-62.675,10.2934],[-62.8959,10.5375],[-62.3349,10.5302],[-61.9625,10.6522],[-62.7196,10.76],[-64.1312,10.6197],[-63.7297,10.4975],[-64.1435,10.4801],[-64.5361,10.2523]]]}},{"type":"Feature","id":"label-VEN-49","properties":{"kind":"division-label","code":"VEN-49","countryCode":"VEN","name":"Sucre","localName":"Sucre","labelEnglish":"Sucre","labelLocal":"Sucre","labelBoth":"Sucre","type":"State","iso":"VE-R","qid":"Q205824"},"geometry":{"type":"Point","coordinates":[-63.3542,10.4729]}},{"type":"Feature","id":"VEN-46","properties":{"kind":"division","code":"VEN-46","countryCode":"VEN","name":"Monagas","localName":"Monagas","labelEnglish":"Monagas","labelLocal":"Monagas","labelBoth":"Monagas","type":"State","iso":"VE-N","qid":"Q205776"},"geometry":{"type":"Polygon","coordinates":[[[-63.0131,10.0974],[-63.4759,10.3128],[-63.9488,10.0826],[-64.061,10.0454],[-63.8466,9.5506],[-63.9666,9.4167],[-63.4181,9.0083],[-63.3402,8.809],[-62.9758,8.7948],[-62.9883,8.5526],[-62.6858,8.3857],[-62.5976,8.448],[-62.2395,8.598],[-62.0086,8.8955],[-62.0531,9.0454],[-62.3228,9.1483],[-62.4461,9.5254],[-62.3254,9.7189],[-62.4949,10.1518],[-62.7774,10.0185],[-63.0131,10.0974]]]}},{"type":"Feature","id":"label-VEN-46","properties":{"kind":"division-label","code":"VEN-46","countryCode":"VEN","name":"Monagas","localName":"Monagas","labelEnglish":"Monagas","labelLocal":"Monagas","labelBoth":"Monagas","type":"State","iso":"VE-N","qid":"Q205776"},"geometry":{"type":"Point","coordinates":[-63.0869,9.50395]}},{"type":"Feature","id":"VEN-48","properties":{"kind":"division","code":"VEN-48","countryCode":"VEN","name":"Nueva Esparta","localName":"Nueva Esparta","labelEnglish":"Nueva Esparta","labelLocal":"Nueva Esparta","labelBoth":"Nueva Esparta","type":"State","iso":"VE-O","qid":"Q204876"},"geometry":{"type":"Polygon","coordinates":[[[-63.8468,11.1354],[-64.0491,10.9907],[-64.1983,11.0876],[-64.4086,10.9675],[-64.0426,10.8685],[-63.7877,10.9738],[-63.8468,11.1354]]]}},{"type":"Feature","id":"label-VEN-48","properties":{"kind":"division-label","code":"VEN-48","countryCode":"VEN","name":"Nueva Esparta","localName":"Nueva Esparta","labelEnglish":"Nueva Esparta","labelLocal":"Nueva Esparta","labelBoth":"Nueva Esparta","type":"State","iso":"VE-O","qid":"Q204876"},"geometry":{"type":"Point","coordinates":[-63.9689,10.9719]}},{"type":"Feature","id":"VEN-44","properties":{"kind":"division","code":"VEN-44","countryCode":"VEN","name":"Federal Dependencies","localName":"Federal Dependencies","labelEnglish":"Federal Dependencies","labelLocal":"Federal Dependencies","labelBoth":"Federal Dependencies","type":"Federal Dependency","iso":"VE-W","qid":"Q130343"},"geometry":{"type":"Polygon","coordinates":[[[-65.2276,10.9538],[-65.4118,10.9248],[-65.2049,10.9044],[-65.2276,10.9538]]]}},{"type":"Feature","id":"label-VEN-44","properties":{"kind":"division-label","code":"VEN-44","countryCode":"VEN","name":"Federal Dependencies","localName":"Federal Dependencies","labelEnglish":"Federal Dependencies","labelLocal":"Federal Dependencies","labelBoth":"Federal Dependencies","type":"Federal Dependency","iso":"VE-W","qid":"Q130343"},"geometry":{"type":"Point","coordinates":[-65.3067,10.9337]}},{"type":"Feature","id":"VEN+99?","properties":{"kind":"division","code":"VEN+99?","countryCode":"VEN","name":"VEN+99?","localName":"VEN+99?","labelEnglish":"VEN+99?","labelLocal":"VEN+99?","labelBoth":"VEN+99?","type":null,"iso":"VE-X01~","qid":null},"geometry":{"type":"Polygon","coordinates":[[[-63.6399,15.696],[-63.6346,15.7006],[-63.6436,15.7006],[-63.6399,15.696]]]}},{"type":"Feature","id":"label-VEN+99?","properties":{"kind":"division-label","code":"VEN+99?","countryCode":"VEN","name":"VEN+99?","localName":"VEN+99?","labelEnglish":"VEN+99?","labelLocal":"VEN+99?","labelBoth":"VEN+99?","type":null,"iso":"VE-X01~","qid":null},"geometry":{"type":"Point","coordinates":[-63.6388,15.699]}},{"type":"Feature","id":"VEN-45","properties":{"kind":"division","code":"VEN-45","countryCode":"VEN","name":"Guárico State","localName":"Guárico State","labelEnglish":"Guárico State","labelLocal":"Guárico State","labelBoth":"Guárico State","type":"State","iso":"VE-J","qid":"Q202075"},"geometry":{"type":"Polygon","coordinates":[[[-65.6966,9.9534],[-66.6127,9.9664],[-66.5755,9.4095],[-67.0017,9.4597],[-66.8587,9.6723],[-67.1813,9.9198],[-67.5341,9.9515],[-67.7888,9.827],[-67.9641,9.5418],[-67.854,9.0852],[-68.0365,8.5385],[-67.6774,8.2095],[-67.5442,7.9588],[-67.2265,7.7985],[-66.552,7.7938],[-66.3305,7.6484],[-65.9395,7.6792],[-65.6482,7.8999],[-65.3567,7.8694],[-65.4805,8.0239],[-65.2066,8.3694],[-65.1378,8.7391],[-64.8641,8.741],[-64.7899,8.8781],[-65.2637,9.2898],[-65.2182,9.5068],[-65.6941,9.6806],[-65.6966,9.9534]]]}},{"type":"Feature","id":"label-VEN-45","properties":{"kind":"division-label","code":"VEN-45","countryCode":"VEN","name":"Guárico State","localName":"Guárico State","labelEnglish":"Guárico State","labelLocal":"Guárico State","labelBoth":"Guárico State","type":"State","iso":"VE-J","qid":"Q202075"},"geometry":{"type":"Point","coordinates":[-66.4794,8.7237]}},{"type":"Feature","id":"VEN-32","properties":{"kind":"division","code":"VEN-32","countryCode":"VEN","name":"Cojedes","localName":"Cojedes","labelEnglish":"Cojedes","labelLocal":"Cojedes","labelBoth":"Cojedes","type":"State","iso":"VE-H","qid":"Q205460"},"geometry":{"type":"Polygon","coordinates":[[[-67.7888,9.827],[-68.3705,9.99],[-68.5906,10.0095],[-68.9777,9.8573],[-68.9808,9.7823],[-68.8721,9.4395],[-68.6109,9.2436],[-68.7484,8.7955],[-68.5735,8.6354],[-68.0365,8.5385],[-67.854,9.0852],[-67.9641,9.5418],[-67.7888,9.827]]]}},{"type":"Feature","id":"label-VEN-32","properties":{"kind":"division-label","code":"VEN-32","countryCode":"VEN","name":"Cojedes","localName":"Cojedes","labelEnglish":"Cojedes","labelLocal":"Cojedes","labelBoth":"Cojedes","type":"State","iso":"VE-H","qid":"Q205460"},"geometry":{"type":"Point","coordinates":[-68.3738,9.30182]}},{"type":"Feature","id":"VEN-43","properties":{"kind":"division","code":"VEN-43","countryCode":"VEN","name":"Capital","localName":"Capital","labelEnglish":"Capital","labelLocal":"Capital","labelBoth":"Capital","type":"Capital District","iso":"VE-A","qid":"Q492791"},"geometry":{"type":"Polygon","coordinates":[[[-66.8738,10.547],[-67.1532,10.4407],[-66.8974,10.4162],[-66.8738,10.547]]]}},{"type":"Feature","id":"label-VEN-43","properties":{"kind":"division-label","code":"VEN-43","countryCode":"VEN","name":"Capital","localName":"Capital","labelEnglish":"Capital","labelLocal":"Capital","labelBoth":"Capital","type":"Capital District","iso":"VE-A","qid":"Q492791"},"geometry":{"type":"Point","coordinates":[-66.964,10.4857]}},{"type":"Feature","id":"VEN-26","properties":{"kind":"division","code":"VEN-26","countryCode":"VEN","name":"Barinas","localName":"Barinas","labelEnglish":"Barinas","labelLocal":"Barinas","labelBoth":"Barinas","type":"State","iso":"VE-E","qid":"Q43271"},"geometry":{"type":"Polygon","coordinates":[[[-68.0365,8.5385],[-68.5735,8.6354],[-68.8415,8.1125],[-69.1276,8.351],[-69.2864,8.639],[-69.7054,8.7238],[-70.1825,9.0079],[-70.5347,8.9553],[-70.7686,8.7815],[-71.0775,8.3763],[-71.0905,8.0675],[-71.4836,7.6845],[-71.3343,7.4887],[-71.8416,7.4948],[-71.2488,7.4545],[-70.8742,7.2875],[-70.6669,7.2874],[-70.2995,7.5904],[-69.7337,7.8444],[-69.4409,8.0717],[-69.2126,8.0758],[-68.8235,7.9025],[-68.2566,7.9565],[-68.0544,8.0485],[-67.5442,7.9588],[-67.6774,8.2095],[-68.0365,8.5385]]]}},{"type":"Feature","id":"label-VEN-26","properties":{"kind":"division-label","code":"VEN-26","countryCode":"VEN","name":"Barinas","localName":"Barinas","labelEnglish":"Barinas","labelLocal":"Barinas","labelBoth":"Barinas","type":"State","iso":"VE-E","qid":"Q43271"},"geometry":{"type":"Point","coordinates":[-69.9798,8.22379]}},{"type":"Feature","id":"VEN-34","properties":{"kind":"division","code":"VEN-34","countryCode":"VEN","name":"Lara","localName":"Lara","labelEnglish":"Lara","labelLocal":"Lara","labelBoth":"Lara","type":"State","iso":"VE-K","qid":"Q205796"},"geometry":{"type":"Polygon","coordinates":[[[-68.9777,9.8573],[-69.2275,10.1101],[-69.015,10.2484],[-69.0317,10.538],[-68.8855,10.6595],[-69.6639,10.7647],[-70.1575,10.6517],[-70.6581,10.3048],[-70.8482,10.0998],[-70.6612,9.9045],[-70.6086,10.0316],[-70.086,9.77],[-70.033,9.4303],[-69.6279,9.4265],[-69.5919,9.6182],[-68.9808,9.7823],[-68.9777,9.8573]]]}},{"type":"Feature","id":"label-VEN-34","properties":{"kind":"division-label","code":"VEN-34","countryCode":"VEN","name":"Lara","localName":"Lara","labelEnglish":"Lara","labelLocal":"Lara","labelBoth":"Lara","type":"State","iso":"VE-K","qid":"Q205796"},"geometry":{"type":"Point","coordinates":[-69.8053,10.1552]}},{"type":"Feature","id":"VEN-35","properties":{"kind":"division","code":"VEN-35","countryCode":"VEN","name":"Portuguesa","localName":"Portuguesa","labelEnglish":"Portuguesa","labelLocal":"Portuguesa","labelBoth":"Portuguesa","type":"State","iso":"VE-P","qid":"Q205784"},"geometry":{"type":"Polygon","coordinates":[[[-68.9808,9.7823],[-69.5919,9.6182],[-69.6279,9.4265],[-70.033,9.4303],[-70.1825,9.0079],[-69.7054,8.7238],[-69.2864,8.639],[-69.1276,8.351],[-68.8415,8.1125],[-68.5735,8.6354],[-68.7484,8.7955],[-68.6109,9.2436],[-68.8721,9.4395],[-68.9808,9.7823]]]}},{"type":"Feature","id":"label-VEN-35","properties":{"kind":"division-label","code":"VEN-35","countryCode":"VEN","name":"Portuguesa","localName":"Portuguesa","labelEnglish":"Portuguesa","labelLocal":"Portuguesa","labelBoth":"Portuguesa","type":"State","iso":"VE-P","qid":"Q205784"},"geometry":{"type":"Point","coordinates":[-69.3776,9.15625]}}]}