{"type":"FeatureCollection","features":[{"type":"Feature","id":"VGB+00?","properties":{"kind":"division","code":"VGB+00?","countryCode":"VGB","name":"British Virgin Islands","localName":"British Virgin Islands","labelEnglish":"British Virgin Islands","labelLocal":"British Virgin Islands","labelBoth":"British Virgin Islands","type":null,"iso":"VG-X01~","qid":null},"geometry":{"type":"Polygon","coordinates":[[[-64.6351,18.4055],[-64.5272,18.4491],[-64.6618,18.4404],[-64.6351,18.4055]]]}},{"type":"Feature","id":"label-VGB+00?","properties":{"kind":"division-label","code":"VGB+00?","countryCode":"VGB","name":"British Virgin Islands","localName":"British Virgin Islands","labelEnglish":"British Virgin Islands","labelLocal":"British Virgin Islands","labelBoth":"British Virgin Islands","type":null,"iso":"VG-X01~","qid":null},"geometry":{"type":"Point","coordinates":[-64.5854,18.3536]}}]}