{"type":"FeatureCollection","features":[{"type":"Feature","id":"VIR-4870","properties":{"kind":"division","code":"VIR-4870","countryCode":"VIR","name":"Saint Croix","localName":"Saint Croix","labelEnglish":"Saint Croix","labelLocal":"Saint Croix","labelBoth":"Saint Croix","type":null,"iso":"VI-X01~","qid":null},"geometry":{"type":"Polygon","coordinates":[[[-64.5594,17.7516],[-64.8765,17.7759],[-64.8764,17.6891],[-64.5594,17.7516]]]}},{"type":"Feature","id":"label-VIR-4870","properties":{"kind":"division-label","code":"VIR-4870","countryCode":"VIR","name":"Saint Croix","localName":"Saint Croix","labelEnglish":"Saint Croix","labelLocal":"Saint Croix","labelBoth":"Saint Croix","type":null,"iso":"VI-X01~","qid":null},"geometry":{"type":"Point","coordinates":[-64.7798,17.735]}},{"type":"Feature","id":"VIR-4869","properties":{"kind":"division","code":"VIR-4869","countryCode":"VIR","name":"Saint John","localName":"Saint John","labelEnglish":"Saint John","labelLocal":"Saint John","labelBoth":"Saint John","type":null,"iso":"VI-X03~","qid":"Q548816"},"geometry":{"type":"Polygon","coordinates":[[[-64.701,18.343],[-64.8013,18.3283],[-64.704,18.3033],[-64.701,18.343]]]}},{"type":"Feature","id":"label-VIR-4869","properties":{"kind":"division-label","code":"VIR-4869","countryCode":"VIR","name":"Saint John","localName":"Saint John","labelEnglish":"Saint John","labelLocal":"Saint John","labelBoth":"Saint John","type":null,"iso":"VI-X03~","qid":"Q548816"},"geometry":{"type":"Point","coordinates":[-64.7461,18.3422]}},{"type":"Feature","id":"VIR-4868","properties":{"kind":"division","code":"VIR-4868","countryCode":"VIR","name":"Saint Thomas","localName":"Saint Thomas","labelEnglish":"Saint Thomas","labelLocal":"Saint Thomas","labelBoth":"Saint Thomas","type":null,"iso":"VI-X02~","qid":null},"geometry":{"type":"Polygon","coordinates":[[[-64.8716,18.3146],[-64.9285,18.3804],[-65.0415,18.3537],[-64.8716,18.3146]]]}},{"type":"Feature","id":"label-VIR-4868","properties":{"kind":"division-label","code":"VIR-4868","countryCode":"VIR","name":"Saint Thomas","localName":"Saint Thomas","labelEnglish":"Saint Thomas","labelLocal":"Saint Thomas","labelBoth":"Saint Thomas","type":null,"iso":"VI-X02~","qid":null},"geometry":{"type":"Point","coordinates":[-64.9263,18.3543]}}]}