{"type":"FeatureCollection","features":[{"type":"Feature","id":"VNM-486","properties":{"kind":"division","code":"VNM-486","countryCode":"VNM","name":"Kon Tum","localName":"Kon Tum","labelEnglish":"Kon Tum","labelLocal":"Kon Tum","labelBoth":"Kon Tum","type":"Province","iso":"VN-28","qid":"Q36315"},"geometry":{"type":"Polygon","coordinates":[[[107.5204,14.7046],[107.3199,14.1198],[107.446,13.9216],[107.7872,14.2159],[108.3364,14.4307],[108.4094,14.6201],[108.6182,14.6406],[108.2966,15.0481],[108.1385,14.9565],[108.0625,15.1465],[107.5764,15.4031],[107.6576,15.2824],[107.5024,15.044],[107.5204,14.7046]]]}},{"type":"Feature","id":"label-VNM-486","properties":{"kind":"division-label","code":"VNM-486","countryCode":"VNM","name":"Kon Tum","localName":"Kon Tum","labelEnglish":"Kon Tum","labelLocal":"Kon Tum","labelBoth":"Kon Tum","type":"Province","iso":"VN-28","qid":"Q36315"},"geometry":{"type":"Point","coordinates":[107.969,14.7451]}},{"type":"Feature","id":"VNM-4835","properties":{"kind":"division","code":"VNM-4835","countryCode":"VNM","name":"Đắk Nông","localName":"Đắk Nông","labelEnglish":"Đắk Nông","labelLocal":"Đắk Nông","labelBoth":"Đắk Nông","type":"Region","iso":"VN-72","qid":"Q36723"},"geometry":{"type":"Polygon","coordinates":[[[107.5401,12.7167],[107.5567,12.4727],[107.393,12.2528],[107.2278,12.3106],[107.3904,11.7518],[107.702,11.9069],[107.9979,11.7696],[108.1176,12.1519],[107.9299,12.41],[107.8422,12.7207],[107.5401,12.7167]]]}},{"type":"Feature","id":"label-VNM-4835","properties":{"kind":"division-label","code":"VNM-4835","countryCode":"VNM","name":"Đắk Nông","localName":"Đắk Nông","labelEnglish":"Đắk Nông","labelLocal":"Đắk Nông","labelBoth":"Đắk Nông","type":"Region","iso":"VN-72","qid":"Q36723"},"geometry":{"type":"Point","coordinates":[107.66,12.1425]}},{"type":"Feature","id":"VNM-477","properties":{"kind":"division","code":"VNM-477","countryCode":"VNM","name":"Đắk Lắk","localName":"Đắk Lắk","labelEnglish":"Đắk Lắk","labelLocal":"Đắk Lắk","labelBoth":"Đắk Lắk","type":"Region","iso":"VN-33","qid":"Q36690"},"geometry":{"type":"Polygon","coordinates":[[[107.5401,12.7167],[107.8422,12.7207],[107.9299,12.41],[108.1176,12.1519],[108.6815,12.303],[109.0373,12.7527],[108.6608,12.9962],[108.3645,13.2949],[108.1075,13.3842],[107.5616,13.262],[107.4604,13.0216],[107.5401,12.7167]]]}},{"type":"Feature","id":"label-VNM-477","properties":{"kind":"division-label","code":"VNM-477","countryCode":"VNM","name":"Đắk Lắk","localName":"Đắk Lắk","labelEnglish":"Đắk Lắk","labelLocal":"Đắk Lắk","labelBoth":"Đắk Lắk","type":"Region","iso":"VN-33","qid":"Q36690"},"geometry":{"type":"Point","coordinates":[108.133,12.7691]}},{"type":"Feature","id":"VNM-478","properties":{"kind":"division","code":"VNM-478","countryCode":"VNM","name":"Gia Lai","localName":"Gia Lai","labelEnglish":"Gia Lai","labelLocal":"Gia Lai","labelBoth":"Gia Lai","type":"Region","iso":"VN-30","qid":"Q36662"},"geometry":{"type":"Polygon","coordinates":[[[107.5616,13.262],[108.1075,13.3842],[108.3645,13.2949],[108.6608,12.9962],[108.8748,13.2113],[108.8256,13.5575],[108.6347,14.2175],[108.6669,14.596],[108.6182,14.6406],[108.4094,14.6201],[108.3364,14.4307],[107.7872,14.2159],[107.446,13.9216],[107.5969,13.5351],[107.5749,13.2936],[107.5616,13.262]]]}},{"type":"Feature","id":"label-VNM-478","properties":{"kind":"division-label","code":"VNM-478","countryCode":"VNM","name":"Gia Lai","localName":"Gia Lai","labelEnglish":"Gia Lai","labelLocal":"Gia Lai","labelBoth":"Gia Lai","type":"Region","iso":"VN-30","qid":"Q36662"},"geometry":{"type":"Point","coordinates":[108.156,13.8493]}},{"type":"Feature","id":"VNM-484","properties":{"kind":"division","code":"VNM-484","countryCode":"VNM","name":"Bình Phước","localName":"Bình Phước","labelEnglish":"Bình Phước","labelLocal":"Bình Phước","labelBoth":"Bình Phước","type":"Province","iso":"VN-58","qid":"Q36672"},"geometry":{"type":"Polygon","coordinates":[[[107.2278,12.3106],[106.7906,12.0674],[106.3954,11.9658],[106.4346,11.6784],[106.4643,11.5533],[106.6476,11.3168],[106.9648,11.2836],[107.3085,11.5662],[107.3904,11.7518],[107.2278,12.3106]]]}},{"type":"Feature","id":"label-VNM-484","properties":{"kind":"division-label","code":"VNM-484","countryCode":"VNM","name":"Bình Phước","localName":"Bình Phước","labelEnglish":"Bình Phước","labelLocal":"Bình Phước","labelBoth":"Bình Phước","type":"Province","iso":"VN-58","qid":"Q36672"},"geometry":{"type":"Point","coordinates":[106.897,11.6805]}},{"type":"Feature","id":"VNM-444","properties":{"kind":"division","code":"VNM-444","countryCode":"VNM","name":"Tây Ninh","localName":"Tây Ninh","labelEnglish":"Tây Ninh","labelLocal":"Tây Ninh","labelBoth":"Tây Ninh","type":"Province","iso":"VN-37","qid":"Q36608"},"geometry":{"type":"Polygon","coordinates":[[[106.4346,11.6784],[106.0154,11.7705],[105.821,11.6415],[105.7932,11.5829],[105.8444,11.2899],[106.1704,10.9706],[106.3637,10.9821],[106.4296,11.1242],[106.3467,11.2727],[106.4643,11.5533],[106.4346,11.6784]]]}},{"type":"Feature","id":"label-VNM-444","properties":{"kind":"division-label","code":"VNM-444","countryCode":"VNM","name":"Tây Ninh","localName":"Tây Ninh","labelEnglish":"Tây Ninh","labelLocal":"Tây Ninh","labelBoth":"Tây Ninh","type":"Province","iso":"VN-37","qid":"Q36608"},"geometry":{"type":"Point","coordinates":[106.14,11.4121]}},{"type":"Feature","id":"VNM-503","properties":{"kind":"division","code":"VNM-503","countryCode":"VNM","name":"Long An","localName":"Long An","labelEnglish":"Long An","labelLocal":"Long An","labelBoth":"Long An","type":"Province","iso":"VN-41","qid":"Q26573"},"geometry":{"type":"Polygon","coordinates":[[[106.1704,10.9706],[106.1773,10.7669],[105.7529,11.0156],[105.6172,10.9708],[105.5236,10.9513],[105.9627,10.5535],[106.271,10.5864],[106.6154,10.4366],[106.7441,10.5522],[106.4949,10.736],[106.3637,10.9821],[106.1704,10.9706]]]}},{"type":"Feature","id":"label-VNM-503","properties":{"kind":"division-label","code":"VNM-503","countryCode":"VNM","name":"Long An","localName":"Long An","labelEnglish":"Long An","labelLocal":"Long An","labelBoth":"Long An","type":"Province","iso":"VN-41","qid":"Q26573"},"geometry":{"type":"Point","coordinates":[106.134,10.6869]}},{"type":"Feature","id":"VNM-500","properties":{"kind":"division","code":"VNM-500","countryCode":"VNM","name":"Đồng Tháp","localName":"Đồng Tháp","labelEnglish":"Đồng Tháp","labelLocal":"Đồng Tháp","labelBoth":"Đồng Tháp","type":"Province","iso":"VN-45","qid":"Q36676"},"geometry":{"type":"Polygon","coordinates":[[[105.5236,10.9513],[105.2091,10.8916],[105.583,10.4465],[105.849,10.3014],[105.9627,10.5535],[105.5236,10.9513]]]}},{"type":"Feature","id":"label-VNM-500","properties":{"kind":"division-label","code":"VNM-500","countryCode":"VNM","name":"Đồng Tháp","localName":"Đồng Tháp","labelEnglish":"Đồng Tháp","labelLocal":"Đồng Tháp","labelBoth":"Đồng Tháp","type":"Province","iso":"VN-45","qid":"Q36676"},"geometry":{"type":"Point","coordinates":[105.586,10.6644]}},{"type":"Feature","id":"VNM-498","properties":{"kind":"division","code":"VNM-498","countryCode":"VNM","name":"An Giang","localName":"An Giang","labelEnglish":"An Giang","labelLocal":"An Giang","labelBoth":"An Giang","type":"Province","iso":"VN-44","qid":"Q36592"},"geometry":{"type":"Polygon","coordinates":[[[105.2091,10.8916],[105.0385,10.9226],[105.0662,10.7464],[104.7244,10.5213],[105.2415,10.1996],[105.583,10.4465],[105.2091,10.8916]]]}},{"type":"Feature","id":"label-VNM-498","properties":{"kind":"division-label","code":"VNM-498","countryCode":"VNM","name":"An Giang","localName":"An Giang","labelEnglish":"An Giang","labelLocal":"An Giang","labelBoth":"An Giang","type":"Province","iso":"VN-44","qid":"Q36592"},"geometry":{"type":"Point","coordinates":[105.154,10.5736]}},{"type":"Feature","id":"VNM-502","properties":{"kind":"division","code":"VNM-502","countryCode":"VNM","name":"Kiên Giang","localName":"Kiên Giang","labelEnglish":"Kiên Giang","labelLocal":"Kiên Giang","labelBoth":"Kiên Giang","type":"Province","iso":"VN-47","qid":"Q36576"},"geometry":{"type":"MultiPolygon","coordinates":[[[[104.7006,10.5242],[104.4513,10.4197],[104.6077,10.1535],[104.8049,10.2071],[105.0877,9.9967],[104.8928,9.8511],[104.8341,9.5344],[105.2799,9.4058],[105.3923,9.5868],[105.504,9.8343],[105.4228,10.0436],[105.2415,10.1996],[104.7244,10.5213],[104.7006,10.5242]]],[[[104.082,10.371],[103.846,10.3713],[104.0106,10.0305],[104.082,10.371]]]]}},{"type":"Feature","id":"label-VNM-502","properties":{"kind":"division-label","code":"VNM-502","countryCode":"VNM","name":"Kiên Giang","localName":"Kiên Giang","labelEnglish":"Kiên Giang","labelLocal":"Kiên Giang","labelBoth":"Kiên Giang","type":"Province","iso":"VN-47","qid":"Q36576"},"geometry":{"type":"Point","coordinates":[105.284,9.85962]}},{"type":"Feature","id":"VNM-450","properties":{"kind":"division","code":"VNM-450","countryCode":"VNM","name":"Điện Biên","localName":"Điện Biên","labelEnglish":"Điện Biên","labelLocal":"Điện Biên","labelBoth":"Điện Biên","type":"Province","iso":"VN-71","qid":"Q36955"},"geometry":{"type":"Polygon","coordinates":[[[102.1187,22.3975],[102.591,21.9014],[102.6507,21.6578],[102.8265,21.8213],[102.9741,21.5753],[102.9259,21.1406],[103.2258,20.8264],[103.4377,21.0728],[103.3778,21.4061],[103.5616,21.6105],[103.5504,21.8869],[103.324,22.1495],[103.2644,22.048],[102.8455,22.2054],[102.5086,22.5668],[102.3246,22.5651],[102.1187,22.3975]]]}},{"type":"Feature","id":"label-VNM-450","properties":{"kind":"division-label","code":"VNM-450","countryCode":"VNM","name":"Điện Biên","localName":"Điện Biên","labelEnglish":"Điện Biên","labelLocal":"Điện Biên","labelBoth":"Điện Biên","type":"Province","iso":"VN-71","qid":"Q36955"},"geometry":{"type":"Point","coordinates":[103.226,21.7487]}},{"type":"Feature","id":"VNM-455","properties":{"kind":"division","code":"VNM-455","countryCode":"VNM","name":"Sơn La","localName":"Sơn La","labelEnglish":"Sơn La","labelLocal":"Sơn La","labelBoth":"Sơn La","type":"Region","iso":"VN-05","qid":"Q33379"},"geometry":{"type":"Polygon","coordinates":[[[103.3891,20.7943],[103.6654,20.6583],[104.0567,20.9588],[104.6141,20.6426],[104.8429,20.6257],[105.0771,20.7722],[104.9086,21.1014],[104.8285,21.3296],[104.4909,21.3657],[104.3498,21.671],[103.9253,21.7198],[103.5694,22.0336],[103.5504,21.8869],[103.5616,21.6105],[103.3778,21.4061],[103.4377,21.0728],[103.2258,20.8264],[103.3891,20.7943]]]}},{"type":"Feature","id":"label-VNM-455","properties":{"kind":"division-label","code":"VNM-455","countryCode":"VNM","name":"Sơn La","localName":"Sơn La","labelEnglish":"Sơn La","labelLocal":"Sơn La","labelBoth":"Sơn La","type":"Region","iso":"VN-05","qid":"Q33379"},"geometry":{"type":"Point","coordinates":[104.159,21.3011]}},{"type":"Feature","id":"VNM-456","properties":{"kind":"division","code":"VNM-456","countryCode":"VNM","name":"Thanh Hóa","localName":"Thanh Hóa","labelEnglish":"Thanh Hóa","labelLocal":"Thanh Hóa","labelBoth":"Thanh Hóa","type":"Province","iso":"VN-21","qid":"Q36512"},"geometry":{"type":"Polygon","coordinates":[[[104.6141,20.6426],[104.3598,20.4397],[104.6809,20.341],[104.9457,19.9924],[105.1796,19.891],[105.2622,19.62],[105.8062,19.2743],[105.8259,19.6422],[106.0342,19.9957],[105.5426,20.3671],[105.138,20.5908],[104.8429,20.6257],[104.6141,20.6426]]]}},{"type":"Feature","id":"label-VNM-456","properties":{"kind":"division-label","code":"VNM-456","countryCode":"VNM","name":"Thanh Hóa","localName":"Thanh Hóa","labelEnglish":"Thanh Hóa","labelLocal":"Thanh Hóa","labelBoth":"Thanh Hóa","type":"Province","iso":"VN-21","qid":"Q36512"},"geometry":{"type":"Point","coordinates":[105.215,20.0917]}},{"type":"Feature","id":"VNM-475","properties":{"kind":"division","code":"VNM-475","countryCode":"VNM","name":"Nghệ An","localName":"Nghệ An","labelEnglish":"Nghệ An","labelLocal":"Nghệ An","labelBoth":"Nghệ An","type":"Province","iso":"VN-22","qid":"Q36587"},"geometry":{"type":"Polygon","coordinates":[[[104.9457,19.9924],[104.5058,19.6028],[104.2002,19.6986],[103.8484,19.2999],[104.2596,19.1041],[104.722,18.792],[105.1695,18.6183],[105.6618,18.5702],[105.7507,18.6628],[105.6143,18.9986],[105.8062,19.2743],[105.2622,19.62],[105.1796,19.891],[104.9457,19.9924]]]}},{"type":"Feature","id":"label-VNM-475","properties":{"kind":"division-label","code":"VNM-475","countryCode":"VNM","name":"Nghệ An","localName":"Nghệ An","labelEnglish":"Nghệ An","labelLocal":"Nghệ An","labelBoth":"Nghệ An","type":"Province","iso":"VN-22","qid":"Q36587"},"geometry":{"type":"Point","coordinates":[104.827,19.3548]}},{"type":"Feature","id":"VNM-474","properties":{"kind":"division","code":"VNM-474","countryCode":"VNM","name":"Hà Tĩnh","localName":"Hà Tĩnh","labelEnglish":"Hà Tĩnh","labelLocal":"Hà Tĩnh","labelBoth":"Hà Tĩnh","type":"Region","iso":"VN-23","qid":"Q33351"},"geometry":{"type":"Polygon","coordinates":[[[105.1695,18.6183],[105.08,18.4544],[105.2569,18.2475],[105.6034,17.9692],[105.86,18.0639],[106.3009,17.913],[106.5186,17.957],[106.4348,18.1235],[106.0982,18.29],[105.7507,18.6628],[105.6618,18.5702],[105.1695,18.6183]]]}},{"type":"Feature","id":"label-VNM-474","properties":{"kind":"division-label","code":"VNM-474","countryCode":"VNM","name":"Hà Tĩnh","localName":"Hà Tĩnh","labelEnglish":"Hà Tĩnh","labelLocal":"Hà Tĩnh","labelBoth":"Hà Tĩnh","type":"Region","iso":"VN-23","qid":"Q33351"},"geometry":{"type":"Point","coordinates":[105.799,18.3563]}},{"type":"Feature","id":"VNM-476","properties":{"kind":"division","code":"VNM-476","countryCode":"VNM","name":"Quảng Bình","localName":"Quảng Bình","labelEnglish":"Quảng Bình","labelLocal":"Quảng Bình","labelBoth":"Quảng Bình","type":"Province","iso":"VN-24","qid":"Q23533"},"geometry":{"type":"Polygon","coordinates":[[[105.6034,17.9692],[105.7353,17.664],[106.404,17.0146],[106.5336,16.9506],[106.8169,16.9788],[107.0075,17.1622],[106.6346,17.4704],[106.4429,17.8466],[106.5186,17.957],[106.3009,17.913],[105.86,18.0639],[105.6034,17.9692]]]}},{"type":"Feature","id":"label-VNM-476","properties":{"kind":"division-label","code":"VNM-476","countryCode":"VNM","name":"Quảng Bình","localName":"Quảng Bình","labelEnglish":"Quảng Bình","labelLocal":"Quảng Bình","labelBoth":"Quảng Bình","type":"Province","iso":"VN-24","qid":"Q23533"},"geometry":{"type":"Point","coordinates":[106.357,17.4691]}},{"type":"Feature","id":"VNM-489","properties":{"kind":"division","code":"VNM-489","countryCode":"VNM","name":"Quảng Trị","localName":"Quảng Trị","labelEnglish":"Quảng Trị","labelLocal":"Quảng Trị","labelBoth":"Quảng Trị","type":"Province","iso":"VN-25","qid":"Q36579"},"geometry":{"type":"Polygon","coordinates":[[[106.5336,16.9506],[106.5351,16.6835],[106.7515,16.4283],[106.8229,16.531],[107.068,16.2908],[107.4116,16.75],[107.0075,17.1622],[106.8169,16.9788],[106.5336,16.9506]]]}},{"type":"Feature","id":"label-VNM-489","properties":{"kind":"division-label","code":"VNM-489","countryCode":"VNM","name":"Quảng Trị","localName":"Quảng Trị","labelEnglish":"Quảng Trị","labelLocal":"Quảng Trị","labelBoth":"Quảng Trị","type":"Province","iso":"VN-25","qid":"Q36579"},"geometry":{"type":"Point","coordinates":[106.973,16.7204]}},{"type":"Feature","id":"VNM-490","properties":{"kind":"division","code":"VNM-490","countryCode":"VNM","name":"Thừa Thiên Huế","localName":"Thừa Thiên Huế","labelEnglish":"Thừa Thiên Huế","labelLocal":"Thừa Thiên Huế","labelBoth":"Thừa Thiên Huế","type":"Province","iso":"VN-26","qid":"Q36399"},"geometry":{"type":"Polygon","coordinates":[[[107.136,16.1848],[107.4333,16.0555],[107.8562,16.0876],[108.2001,16.2116],[107.8965,16.2781],[107.4116,16.75],[107.068,16.2908],[107.136,16.1848]]]}},{"type":"Feature","id":"label-VNM-490","properties":{"kind":"division-label","code":"VNM-490","countryCode":"VNM","name":"Thừa Thiên Huế","localName":"Thừa Thiên Huế","labelEnglish":"Thừa Thiên Huế","labelLocal":"Thừa Thiên Huế","labelBoth":"Thừa Thiên Huế","type":"Province","iso":"VN-26","qid":"Q36399"},"geometry":{"type":"Point","coordinates":[107.634,16.312]}},{"type":"Feature","id":"VNM-487","properties":{"kind":"division","code":"VNM-487","countryCode":"VNM","name":"Quảng Nam","localName":"Quảng Nam","labelEnglish":"Quảng Nam","labelLocal":"Quảng Nam","labelBoth":"Quảng Nam","type":"Province","iso":"VN-27","qid":"Q33356"},"geometry":{"type":"Polygon","coordinates":[[[107.4333,16.0555],[107.1603,15.7587],[107.5764,15.4031],[108.0625,15.1465],[108.1385,14.9565],[108.2966,15.0481],[108.3364,15.2849],[108.7616,15.3966],[108.2823,15.9901],[107.8562,16.0876],[107.4333,16.0555]]]}},{"type":"Feature","id":"label-VNM-487","properties":{"kind":"division-label","code":"VNM-487","countryCode":"VNM","name":"Quảng Nam","localName":"Quảng Nam","labelEnglish":"Quảng Nam","labelLocal":"Quảng Nam","labelBoth":"Quảng Nam","type":"Province","iso":"VN-27","qid":"Q33356"},"geometry":{"type":"Point","coordinates":[107.955,15.6535]}},{"type":"Feature","id":"VNM-512","properties":{"kind":"division","code":"VNM-512","countryCode":"VNM","name":"Hà Giang","localName":"Hà Giang","labelEnglish":"Hà Giang","labelLocal":"Hà Giang","labelBoth":"Hà Giang","type":"Province","iso":"VN-03","qid":"Q36685"},"geometry":{"type":"Polygon","coordinates":[[[105.5213,23.1631],[105.3122,23.3658],[104.8701,23.1635],[104.8236,22.9241],[104.3619,22.6925],[104.6285,22.2579],[104.8483,22.1702],[105.1966,22.6478],[105.5676,22.5922],[105.3028,22.8546],[105.5352,23.099],[105.5213,23.1631]]]}},{"type":"Feature","id":"label-VNM-512","properties":{"kind":"division-label","code":"VNM-512","countryCode":"VNM","name":"Hà Giang","localName":"Hà Giang","labelEnglish":"Hà Giang","labelLocal":"Hà Giang","labelBoth":"Hà Giang","type":"Province","iso":"VN-03","qid":"Q36685"},"geometry":{"type":"Point","coordinates":[104.965,22.7655]}},{"type":"Feature","id":"VNM-511","properties":{"kind":"division","code":"VNM-511","countryCode":"VNM","name":"Cao Bằng","localName":"Cao Bằng","labelEnglish":"Cao Bằng","labelLocal":"Cao Bằng","labelBoth":"Cao Bằng","type":"Province","iso":"VN-04","qid":"Q36865"},"geometry":{"type":"Polygon","coordinates":[[[105.5352,23.099],[105.3028,22.8546],[105.5676,22.5922],[105.7249,22.7241],[105.8151,22.5053],[106.1079,22.5306],[106.193,22.4067],[106.533,22.4034],[106.7466,22.7443],[106.4878,22.9254],[106.3157,22.8538],[105.9992,22.9754],[105.8539,22.9047],[105.5352,23.099]]]}},{"type":"Feature","id":"label-VNM-511","properties":{"kind":"division-label","code":"VNM-511","countryCode":"VNM","name":"Cao Bằng","localName":"Cao Bằng","labelEnglish":"Cao Bằng","labelLocal":"Cao Bằng","labelBoth":"Cao Bằng","type":"Province","iso":"VN-04","qid":"Q36865"},"geometry":{"type":"Point","coordinates":[106.047,22.7595]}},{"type":"Feature","id":"VNM-5483","properties":{"kind":"division","code":"VNM-5483","countryCode":"VNM","name":"Lào Cai","localName":"Lào Cai","labelEnglish":"Lào Cai","labelLocal":"Lào Cai","labelBoth":"Lào Cai","type":"Province","iso":"VN-02","qid":"Q36446"},"geometry":{"type":"Polygon","coordinates":[[[104.3619,22.6925],[104.2133,22.825],[103.9854,22.5272],[103.6469,22.799],[103.5499,22.6487],[103.7717,22.2879],[103.5694,22.0336],[103.9253,21.7198],[103.9839,21.9742],[104.3942,21.8986],[104.381,22.0997],[104.6285,22.2579],[104.3619,22.6925]]]}},{"type":"Feature","id":"label-VNM-5483","properties":{"kind":"division-label","code":"VNM-5483","countryCode":"VNM","name":"Lào Cai","localName":"Lào Cai","labelEnglish":"Lào Cai","labelLocal":"Lào Cai","labelBoth":"Lào Cai","type":"Province","iso":"VN-02","qid":"Q36446"},"geometry":{"type":"Point","coordinates":[104.096,22.3559]}},{"type":"Feature","id":"VNM-453","properties":{"kind":"division","code":"VNM-453","countryCode":"VNM","name":"Lai Châu","localName":"Lai Châu","labelEnglish":"Lai Châu","labelLocal":"Lai Châu","labelBoth":"Lai Châu","type":"Province","iso":"VN-01","qid":"Q36409"},"geometry":{"type":"Polygon","coordinates":[[[103.5499,22.6487],[103.3096,22.7879],[102.9891,22.4376],[102.4427,22.7652],[102.3246,22.5651],[102.5086,22.5668],[102.8455,22.2054],[103.2644,22.048],[103.324,22.1495],[103.5504,21.8869],[103.5694,22.0336],[103.7717,22.2879],[103.5499,22.6487]]]}},{"type":"Feature","id":"label-VNM-453","properties":{"kind":"division-label","code":"VNM-453","countryCode":"VNM","name":"Lai Châu","localName":"Lai Châu","labelEnglish":"Lai Châu","labelLocal":"Lai Châu","labelBoth":"Lai Châu","type":"Province","iso":"VN-01","qid":"Q36409"},"geometry":{"type":"Point","coordinates":[103.255,22.3502]}},{"type":"Feature","id":"VNM-454","properties":{"kind":"division","code":"VNM-454","countryCode":"VNM","name":"Lạng Sơn","localName":"Lạng Sơn","labelEnglish":"Lạng Sơn","labelLocal":"Lạng Sơn","labelBoth":"Lạng Sơn","type":"Province","iso":"VN-09","qid":"Q33403"},"geometry":{"type":"Polygon","coordinates":[[[106.533,22.4034],[106.193,22.4067],[106.26,22.2621],[106.114,21.9481],[106.2533,21.6951],[106.1675,21.5708],[106.3987,21.4111],[106.5593,21.5866],[106.8394,21.5932],[107.0653,21.3605],[107.3336,21.6125],[106.6482,21.9955],[106.533,22.4034]]]}},{"type":"Feature","id":"label-VNM-454","properties":{"kind":"division-label","code":"VNM-454","countryCode":"VNM","name":"Lạng Sơn","localName":"Lạng Sơn","labelEnglish":"Lạng Sơn","labelLocal":"Lạng Sơn","labelBoth":"Lạng Sơn","type":"Province","iso":"VN-09","qid":"Q33403"},"geometry":{"type":"Point","coordinates":[106.724,21.7826]}},{"type":"Feature","id":"VNM-429","properties":{"kind":"division","code":"VNM-429","countryCode":"VNM","name":"Quảng Ninh","localName":"Quảng Ninh","labelEnglish":"Quảng Ninh","labelLocal":"Quảng Ninh","labelBoth":"Quảng Ninh","type":"Province","iso":"VN-13","qid":"Q33396"},"geometry":{"type":"Polygon","coordinates":[[[107.3336,21.6125],[107.0653,21.3605],[106.9635,21.1983],[106.5458,21.1937],[106.6053,21.0254],[106.6507,21.018],[107.1492,20.9308],[107.3743,21.0276],[107.3674,21.2734],[107.5623,21.298],[107.7835,21.5243],[107.9912,21.4857],[107.8324,21.6394],[107.3336,21.6125]]]}},{"type":"Feature","id":"label-VNM-429","properties":{"kind":"division-label","code":"VNM-429","countryCode":"VNM","name":"Quảng Ninh","localName":"Quảng Ninh","labelEnglish":"Quảng Ninh","labelLocal":"Quảng Ninh","labelBoth":"Quảng Ninh","type":"Province","iso":"VN-13","qid":"Q33396"},"geometry":{"type":"Point","coordinates":[107.181,21.223]}},{"type":"Feature","id":"VNM-508","properties":{"kind":"division","code":"VNM-508","countryCode":"VNM","name":"Sóc Trăng","localName":"Sóc Trăng","labelEnglish":"Sóc Trăng","labelLocal":"Sóc Trăng","labelBoth":"Sóc Trăng","type":"Province","iso":"VN-52","qid":"Q33272"},"geometry":{"type":"Polygon","coordinates":[[[105.9021,9.9167],[105.8204,9.7192],[105.5693,9.6104],[105.5997,9.418],[105.8683,9.2547],[106.1934,9.3693],[106.197,9.5412],[105.9021,9.9167]]]}},{"type":"Feature","id":"label-VNM-508","properties":{"kind":"division-label","code":"VNM-508","countryCode":"VNM","name":"Sóc Trăng","localName":"Sóc Trăng","labelEnglish":"Sóc Trăng","labelLocal":"Sóc Trăng","labelBoth":"Sóc Trăng","type":"Province","iso":"VN-52","qid":"Q33272"},"geometry":{"type":"Point","coordinates":[105.9,9.5614]}},{"type":"Feature","id":"VNM-4834","properties":{"kind":"division","code":"VNM-4834","countryCode":"VNM","name":"Tiền Giang","localName":"Tiền Giang","labelEnglish":"Tiền Giang","labelLocal":"Tiền Giang","labelBoth":"Tiền Giang","type":"Province","iso":"VN-46","qid":"Q36666"},"geometry":{"type":"Polygon","coordinates":[[[106.6154,10.4366],[106.271,10.5864],[105.9627,10.5535],[105.849,10.3014],[105.9549,10.2885],[106.4224,10.317],[106.7756,10.2754],[106.6154,10.4366]]]}},{"type":"Feature","id":"label-VNM-4834","properties":{"kind":"division-label","code":"VNM-4834","countryCode":"VNM","name":"Tiền Giang","localName":"Tiền Giang","labelEnglish":"Tiền Giang","labelLocal":"Tiền Giang","labelBoth":"Tiền Giang","type":"Province","iso":"VN-46","qid":"Q36666"},"geometry":{"type":"Point","coordinates":[106.217,10.4581]}},{"type":"Feature","id":"VNM-495","properties":{"kind":"division","code":"VNM-495","countryCode":"VNM","name":"Bà Rịa-Vũng Tàu","localName":"Bà Rịa-Vũng Tàu","labelEnglish":"Bà Rịa-Vũng Tàu","labelLocal":"Bà Rịa-Vũng Tàu","labelBoth":"Bà Rịa-Vũng Tàu","type":"Province","iso":"VN-43","qid":"Q36874"},"geometry":{"type":"Polygon","coordinates":[[[107.0202,10.5119],[107.0256,10.5014],[107.272,10.3785],[107.5865,10.5735],[107.5166,10.7561],[107.0253,10.6353],[107.0202,10.5119]]]}},{"type":"Feature","id":"label-VNM-495","properties":{"kind":"division-label","code":"VNM-495","countryCode":"VNM","name":"Bà Rịa-Vũng Tàu","localName":"Bà Rịa-Vũng Tàu","labelEnglish":"Bà Rịa-Vũng Tàu","labelLocal":"Bà Rịa-Vũng Tàu","labelBoth":"Bà Rịa-Vũng Tàu","type":"Province","iso":"VN-43","qid":"Q36874"},"geometry":{"type":"Point","coordinates":[107.143,10.3969]}},{"type":"Feature","id":"VNM-501","properties":{"kind":"division","code":"VNM-501","countryCode":"VNM","name":"Ho Chi Minh","localName":"Ho Chi Minh","labelEnglish":"Ho Chi Minh","labelLocal":"Ho Chi Minh","labelBoth":"Ho Chi Minh","type":"City|Municipality|Thanh Pho","iso":"VN-SG","qid":"Q1854"},"geometry":{"type":"Polygon","coordinates":[[[106.9841,10.5669],[106.757,10.7054],[106.836,10.8878],[106.4296,11.1242],[106.3637,10.9821],[106.4949,10.736],[106.7441,10.5522],[106.9841,10.5669]]]}},{"type":"Feature","id":"label-VNM-501","properties":{"kind":"division-label","code":"VNM-501","countryCode":"VNM","name":"Ho Chi Minh","localName":"Ho Chi Minh","labelEnglish":"Ho Chi Minh","labelLocal":"Ho Chi Minh","labelBoth":"Ho Chi Minh","type":"City|Municipality|Thanh Pho","iso":"VN-SG","qid":"Q1854"},"geometry":{"type":"Point","coordinates":[106.926,10.409]}},{"type":"Feature","id":"VNM-479","properties":{"kind":"division","code":"VNM-479","countryCode":"VNM","name":"Khánh Hòa","localName":"Khánh Hòa","labelEnglish":"Khánh Hòa","labelLocal":"Khánh Hòa","labelBoth":"Khánh Hòa","type":"Province","iso":"VN-34","qid":"Q33369"},"geometry":{"type":"Polygon","coordinates":[[[109.3846,12.834],[109.0373,12.7527],[108.6815,12.303],[108.7192,12.1811],[108.8779,11.9542],[109.2039,11.7887],[109.2066,12.3872],[109.346,12.3963],[109.2049,12.6464],[109.3846,12.834]]]}},{"type":"Feature","id":"label-VNM-479","properties":{"kind":"division-label","code":"VNM-479","countryCode":"VNM","name":"Khánh Hòa","localName":"Khánh Hòa","labelEnglish":"Khánh Hòa","labelLocal":"Khánh Hòa","labelBoth":"Khánh Hòa","type":"Province","iso":"VN-34","qid":"Q33369"},"geometry":{"type":"Point","coordinates":[109.359,12.6049]}},{"type":"Feature","id":"VNM-507","properties":{"kind":"division","code":"VNM-507","countryCode":"VNM","name":"Cà Mau","localName":"Cà Mau","labelEnglish":"Cà Mau","labelLocal":"Cà Mau","labelBoth":"Cà Mau","type":"Province","iso":"VN-59","qid":"Q33354"},"geometry":{"type":"Polygon","coordinates":[[[105.426,9.008],[105.2799,9.4058],[104.8341,9.5344],[104.7746,8.8179],[105.1015,8.6343],[105.426,9.008]]]}},{"type":"Feature","id":"label-VNM-507","properties":{"kind":"division-label","code":"VNM-507","countryCode":"VNM","name":"Cà Mau","localName":"Cà Mau","labelEnglish":"Cà Mau","labelLocal":"Cà Mau","labelBoth":"Cà Mau","type":"Province","iso":"VN-59","qid":"Q33354"},"geometry":{"type":"Point","coordinates":[105.073,9.05545]}},{"type":"Feature","id":"VNM-506","properties":{"kind":"division","code":"VNM-506","countryCode":"VNM","name":"Bạc Liêu","localName":"Bạc Liêu","labelEnglish":"Bạc Liêu","labelLocal":"Bạc Liêu","labelBoth":"Bạc Liêu","type":"Province","iso":"VN-55","qid":"Q36658"},"geometry":{"type":"Polygon","coordinates":[[[105.8683,9.2547],[105.5997,9.418],[105.5693,9.6104],[105.3923,9.5868],[105.2799,9.4058],[105.426,9.008],[105.8683,9.2547]]]}},{"type":"Feature","id":"label-VNM-506","properties":{"kind":"division-label","code":"VNM-506","countryCode":"VNM","name":"Bạc Liêu","localName":"Bạc Liêu","labelEnglish":"Bạc Liêu","labelLocal":"Bạc Liêu","labelBoth":"Bạc Liêu","type":"Province","iso":"VN-55","qid":"Q36658"},"geometry":{"type":"Point","coordinates":[105.573,9.33941]}},{"type":"Feature","id":"VNM-505","properties":{"kind":"division","code":"VNM-505","countryCode":"VNM","name":"Hậu Giang","localName":"Hậu Giang","labelEnglish":"Hậu Giang","labelLocal":"Hậu Giang","labelBoth":"Hậu Giang","type":"Region","iso":"VN-73","qid":"Q36320"},"geometry":{"type":"Polygon","coordinates":[[[105.8385,10.0048],[105.6922,10.1232],[105.4228,10.0436],[105.504,9.8343],[105.3923,9.5868],[105.5693,9.6104],[105.8204,9.7192],[105.9021,9.9167],[105.8385,10.0048]]]}},{"type":"Feature","id":"label-VNM-505","properties":{"kind":"division-label","code":"VNM-505","countryCode":"VNM","name":"Hậu Giang","localName":"Hậu Giang","labelEnglish":"Hậu Giang","labelLocal":"Hậu Giang","labelBoth":"Hậu Giang","type":"Region","iso":"VN-73","qid":"Q36320"},"geometry":{"type":"Point","coordinates":[105.663,9.84353]}},{"type":"Feature","id":"VNM-510","properties":{"kind":"division","code":"VNM-510","countryCode":"VNM","name":"Vĩnh Long","localName":"Vĩnh Long","labelEnglish":"Vĩnh Long","labelLocal":"Vĩnh Long","labelBoth":"Vĩnh Long","type":"Province","iso":"VN-49","qid":"Q7333405"},"geometry":{"type":"Polygon","coordinates":[[[105.9966,9.8886],[106.2464,10.0775],[106.1182,10.2381],[105.9549,10.2885],[105.849,10.3014],[105.6922,10.1232],[105.8385,10.0048],[105.9966,9.8886]]]}},{"type":"Feature","id":"label-VNM-510","properties":{"kind":"division-label","code":"VNM-510","countryCode":"VNM","name":"Vĩnh Long","localName":"Vĩnh Long","labelEnglish":"Vĩnh Long","labelLocal":"Vĩnh Long","labelBoth":"Vĩnh Long","type":"Province","iso":"VN-49","qid":"Q7333405"},"geometry":{"type":"Point","coordinates":[105.969,10.1042]}},{"type":"Feature","id":"VNM-509","properties":{"kind":"division","code":"VNM-509","countryCode":"VNM","name":"Trà Vinh","localName":"Trà Vinh","labelEnglish":"Trà Vinh","labelLocal":"Trà Vinh","labelBoth":"Trà Vinh","type":"Province","iso":"VN-51","qid":"Q36615"},"geometry":{"type":"Polygon","coordinates":[[[106.2464,10.0775],[105.9966,9.8886],[106.2503,9.6312],[106.4849,9.5471],[106.575,9.7391],[106.2464,10.0775]]]}},{"type":"Feature","id":"label-VNM-509","properties":{"kind":"division-label","code":"VNM-509","countryCode":"VNM","name":"Trà Vinh","localName":"Trà Vinh","labelEnglish":"Trà Vinh","labelLocal":"Trà Vinh","labelBoth":"Trà Vinh","type":"Province","iso":"VN-51","qid":"Q36615"},"geometry":{"type":"Point","coordinates":[106.289,9.82817]}},{"type":"Feature","id":"VNM-504","properties":{"kind":"division","code":"VNM-504","countryCode":"VNM","name":"Bến Tre","localName":"Bến Tre","labelEnglish":"Bến Tre","labelLocal":"Bến Tre","labelBoth":"Bến Tre","type":"Province","iso":"VN-50","qid":"Q33366"},"geometry":{"type":"Polygon","coordinates":[[[106.4224,10.317],[105.9549,10.2885],[106.1182,10.2381],[106.6113,9.817],[106.7976,10.1572],[106.4224,10.317]]]}},{"type":"Feature","id":"label-VNM-504","properties":{"kind":"division-label","code":"VNM-504","countryCode":"VNM","name":"Bến Tre","localName":"Bến Tre","labelEnglish":"Bến Tre","labelLocal":"Bến Tre","labelBoth":"Bến Tre","type":"Province","iso":"VN-50","qid":"Q33366"},"geometry":{"type":"Point","coordinates":[106.496,10.171]}},{"type":"Feature","id":"VNM-497","properties":{"kind":"division","code":"VNM-497","countryCode":"VNM","name":"Đông Nam Bộ","localName":"Đông Nam Bộ","labelEnglish":"Đông Nam Bộ","labelLocal":"Đông Nam Bộ","labelBoth":"Đông Nam Bộ","type":"Region","iso":"VN-39","qid":null},"geometry":{"type":"Polygon","coordinates":[[[106.9978,10.6249],[107.0025,10.6249],[107.0253,10.6353],[107.5166,10.7561],[107.4309,11.0381],[107.6095,11.3617],[107.3085,11.5662],[106.9648,11.2836],[106.836,10.8878],[106.757,10.7054],[106.9841,10.5669],[106.9978,10.6249]]]}},{"type":"Feature","id":"label-VNM-497","properties":{"kind":"division-label","code":"VNM-497","countryCode":"VNM","name":"Đông Nam Bộ","localName":"Đông Nam Bộ","labelEnglish":"Đông Nam Bộ","labelLocal":"Đông Nam Bộ","labelBoth":"Đông Nam Bộ","type":"Region","iso":"VN-39","qid":null},"geometry":{"type":"Point","coordinates":[107.178,11.1258]}},{"type":"Feature","id":"VNM-496","properties":{"kind":"division","code":"VNM-496","countryCode":"VNM","name":"Bình Thuận","localName":"Bình Thuận","labelEnglish":"Bình Thuận","labelLocal":"Bình Thuận","labelBoth":"Bình Thuận","type":"Province","iso":"VN-40","qid":"Q36869"},"geometry":{"type":"Polygon","coordinates":[[[108.906,11.3234],[108.6202,11.564],[108.3357,11.3687],[108.0102,11.3015],[107.6095,11.3617],[107.4309,11.0381],[107.5166,10.7561],[107.5865,10.5735],[107.9983,10.6994],[108.1065,10.9182],[108.7293,11.1815],[108.906,11.3234]]]}},{"type":"Feature","id":"label-VNM-496","properties":{"kind":"division-label","code":"VNM-496","countryCode":"VNM","name":"Bình Thuận","localName":"Bình Thuận","labelEnglish":"Bình Thuận","labelLocal":"Bình Thuận","labelBoth":"Bình Thuận","type":"Province","iso":"VN-40","qid":"Q36869"},"geometry":{"type":"Point","coordinates":[108.232,11.1284]}},{"type":"Feature","id":"VNM-481","properties":{"kind":"division","code":"VNM-481","countryCode":"VNM","name":"Ninh Thuận","localName":"Ninh Thuận","labelEnglish":"Ninh Thuận","labelLocal":"Ninh Thuận","labelBoth":"Ninh Thuận","type":"Province","iso":"VN-36","qid":"Q36903"},"geometry":{"type":"Polygon","coordinates":[[[109.2039,11.7887],[108.8779,11.9542],[108.7192,12.1811],[108.6202,11.564],[108.906,11.3234],[109.2039,11.7887]]]}},{"type":"Feature","id":"label-VNM-481","properties":{"kind":"division-label","code":"VNM-481","countryCode":"VNM","name":"Ninh Thuận","localName":"Ninh Thuận","labelEnglish":"Ninh Thuận","labelLocal":"Ninh Thuận","labelBoth":"Ninh Thuận","type":"Province","iso":"VN-36","qid":"Q36903"},"geometry":{"type":"Point","coordinates":[108.925,11.6242]}},{"type":"Feature","id":"VNM-482","properties":{"kind":"division","code":"VNM-482","countryCode":"VNM","name":"Phú Yên","localName":"Phú Yên","labelEnglish":"Phú Yên","labelLocal":"Phú Yên","labelBoth":"Phú Yên","type":"Province","iso":"VN-32","qid":"Q36725"},"geometry":{"type":"Polygon","coordinates":[[[109.2371,13.6986],[108.8256,13.5575],[108.8748,13.2113],[108.6608,12.9962],[109.0373,12.7527],[109.3846,12.834],[109.2371,13.6986]]]}},{"type":"Feature","id":"label-VNM-482","properties":{"kind":"division-label","code":"VNM-482","countryCode":"VNM","name":"Phú Yên","localName":"Phú Yên","labelEnglish":"Phú Yên","labelLocal":"Phú Yên","labelBoth":"Phú Yên","type":"Province","iso":"VN-32","qid":"Q36725"},"geometry":{"type":"Point","coordinates":[109.064,13.1647]}},{"type":"Feature","id":"VNM-485","properties":{"kind":"division","code":"VNM-485","countryCode":"VNM","name":"Bình Định","localName":"Bình Định","labelEnglish":"Bình Định","labelLocal":"Bình Định","labelBoth":"Bình Định","type":"Province","iso":"VN-31","qid":"Q36693"},"geometry":{"type":"Polygon","coordinates":[[[109.0773,14.6725],[108.6669,14.596],[108.6347,14.2175],[108.8256,13.5575],[109.2371,13.6986],[109.3074,13.8764],[109.0773,14.6725]]]}},{"type":"Feature","id":"label-VNM-485","properties":{"kind":"division-label","code":"VNM-485","countryCode":"VNM","name":"Bình Định","localName":"Bình Định","labelEnglish":"Bình Định","labelLocal":"Bình Định","labelBoth":"Bình Định","type":"Province","iso":"VN-31","qid":"Q36693"},"geometry":{"type":"Point","coordinates":[108.971,14.1075]}},{"type":"Feature","id":"VNM-488","properties":{"kind":"division","code":"VNM-488","countryCode":"VNM","name":"Quảng Ngãi","localName":"Quảng Ngãi","labelEnglish":"Quảng Ngãi","labelLocal":"Quảng Ngãi","labelBoth":"Quảng Ngãi","type":"Province","iso":"VN-29","qid":"Q33304"},"geometry":{"type":"Polygon","coordinates":[[[108.7616,15.3966],[108.3364,15.2849],[108.2966,15.0481],[108.6182,14.6406],[108.6669,14.596],[109.0773,14.6725],[108.8275,15.429],[108.7616,15.3966]]]}},{"type":"Feature","id":"label-VNM-488","properties":{"kind":"division-label","code":"VNM-488","countryCode":"VNM","name":"Quảng Ngãi","localName":"Quảng Ngãi","labelEnglish":"Quảng Ngãi","labelLocal":"Quảng Ngãi","labelBoth":"Quảng Ngãi","type":"Province","iso":"VN-29","qid":"Q33304"},"geometry":{"type":"Point","coordinates":[108.686,14.9971]}},{"type":"Feature","id":"VNM-491","properties":{"kind":"division","code":"VNM-491","countryCode":"VNM","name":"Da Nang","localName":"Da Nang","labelEnglish":"Da Nang","labelLocal":"Da Nang","labelBoth":"Da Nang","type":"City|Municipality|Thanh Pho","iso":"VN-DN","qid":"Q25282"},"geometry":{"type":"Polygon","coordinates":[[[108.2001,16.2116],[107.8562,16.0876],[108.2823,15.9901],[108.2001,16.2116]]]}},{"type":"Feature","id":"label-VNM-491","properties":{"kind":"division-label","code":"VNM-491","countryCode":"VNM","name":"Da Nang","localName":"Da Nang","labelEnglish":"Da Nang","labelLocal":"Da Nang","labelBoth":"Da Nang","type":"City|Municipality|Thanh Pho","iso":"VN-DN","qid":"Q25282"},"geometry":{"type":"Point","coordinates":[108.102,16.0912]}},{"type":"Feature","id":"VNM-466","properties":{"kind":"division","code":"VNM-466","countryCode":"VNM","name":"Ninh Bình","localName":"Ninh Bình","labelEnglish":"Ninh Bình","labelLocal":"Ninh Bình","labelBoth":"Ninh Bình","type":"Province","iso":"VN-18","qid":"Q36900"},"geometry":{"type":"Polygon","coordinates":[[[106.1145,20.0333],[106.1551,20.2176],[105.9512,20.3368],[105.8413,20.4195],[105.5426,20.3671],[106.0342,19.9957],[106.1145,20.0333]]]}},{"type":"Feature","id":"label-VNM-466","properties":{"kind":"division-label","code":"VNM-466","countryCode":"VNM","name":"Ninh Bình","localName":"Ninh Bình","labelEnglish":"Ninh Bình","labelLocal":"Ninh Bình","labelBoth":"Ninh Bình","type":"Province","iso":"VN-18","qid":"Q36900"},"geometry":{"type":"Point","coordinates":[105.852,20.2722]}},{"type":"Feature","id":"VNM-468","properties":{"kind":"division","code":"VNM-468","countryCode":"VNM","name":"Nam Định","localName":"Nam Định","labelEnglish":"Nam Định","labelLocal":"Nam Định","labelBoth":"Nam Định","type":"Province","iso":"VN-67","qid":"Q36907"},"geometry":{"type":"Polygon","coordinates":[[[106.5029,20.3005],[106.1845,20.4909],[105.9512,20.3368],[106.1551,20.2176],[106.1145,20.0333],[106.5029,20.3005]]]}},{"type":"Feature","id":"label-VNM-468","properties":{"kind":"division-label","code":"VNM-468","countryCode":"VNM","name":"Nam Định","localName":"Nam Định","labelEnglish":"Nam Định","labelLocal":"Nam Định","labelBoth":"Nam Định","type":"Province","iso":"VN-67","qid":"Q36907"},"geometry":{"type":"Point","coordinates":[106.254,20.2343]}},{"type":"Feature","id":"VNM-471","properties":{"kind":"division","code":"VNM-471","countryCode":"VNM","name":"Thái Bình","localName":"Thái Bình","labelEnglish":"Thái Bình","labelLocal":"Thái Bình","labelBoth":"Thái Bình","type":"Province","iso":"VN-20","qid":"Q36681"},"geometry":{"type":"Polygon","coordinates":[[[106.5936,20.6467],[106.4172,20.7193],[106.2574,20.6959],[106.1124,20.6316],[106.1845,20.4909],[106.5029,20.3005],[106.5936,20.6467]]]}},{"type":"Feature","id":"label-VNM-471","properties":{"kind":"division-label","code":"VNM-471","countryCode":"VNM","name":"Thái Bình","localName":"Thái Bình","labelEnglish":"Thái Bình","labelLocal":"Thái Bình","labelBoth":"Thái Bình","type":"Province","iso":"VN-20","qid":"Q36681"},"geometry":{"type":"Point","coordinates":[106.371,20.5303]}},{"type":"Feature","id":"VNM-4600","properties":{"kind":"division","code":"VNM-4600","countryCode":"VNM","name":"Haiphong","localName":"Haiphong","labelEnglish":"Haiphong","labelLocal":"Haiphong","labelBoth":"Haiphong","type":"Province","iso":"VN-HP","qid":"Q72818"},"geometry":{"type":"Polygon","coordinates":[[[106.6507,21.018],[106.6053,21.0254],[106.4172,20.7193],[106.5936,20.6467],[106.7888,20.7305],[106.6507,21.018]]]}},{"type":"Feature","id":"label-VNM-4600","properties":{"kind":"division-label","code":"VNM-4600","countryCode":"VNM","name":"Haiphong","localName":"Haiphong","labelEnglish":"Haiphong","labelLocal":"Haiphong","labelBoth":"Haiphong","type":"Province","iso":"VN-HP","qid":"Q72818"},"geometry":{"type":"Point","coordinates":[106.635,20.79]}},{"type":"Feature","id":"VNM-459","properties":{"kind":"division","code":"VNM-459","countryCode":"VNM","name":"Hòa Bình","localName":"Hòa Bình","labelEnglish":"Hòa Bình","labelLocal":"Hòa Bình","labelBoth":"Hòa Bình","type":"Province","iso":"VN-14","qid":"Q36015"},"geometry":{"type":"Polygon","coordinates":[[[105.8413,20.4195],[105.7858,20.5683],[105.3079,21.0119],[105.1153,20.9499],[104.9086,21.1014],[105.0771,20.7722],[104.8429,20.6257],[105.138,20.5908],[105.5426,20.3671],[105.8413,20.4195]]]}},{"type":"Feature","id":"label-VNM-459","properties":{"kind":"division-label","code":"VNM-459","countryCode":"VNM","name":"Hòa Bình","localName":"Hòa Bình","labelEnglish":"Hòa Bình","labelLocal":"Hòa Bình","labelBoth":"Hòa Bình","type":"Province","iso":"VN-14","qid":"Q36015"},"geometry":{"type":"Point","coordinates":[105.34,20.7292]}},{"type":"Feature","id":"VNM-457","properties":{"kind":"division","code":"VNM-457","countryCode":"VNM","name":"Tuyên Quang","localName":"Tuyên Quang","labelEnglish":"Tuyên Quang","labelLocal":"Tuyên Quang","labelBoth":"Tuyên Quang","type":"Province","iso":"VN-07","qid":"Q2332060"},"geometry":{"type":"Polygon","coordinates":[[[105.1118,21.7039],[105.3174,21.5141],[105.5777,21.5438],[105.5575,21.9509],[105.4886,22.1544],[105.5676,22.5922],[105.1966,22.6478],[104.8483,22.1702],[105.1118,21.7039]]]}},{"type":"Feature","id":"label-VNM-457","properties":{"kind":"division-label","code":"VNM-457","countryCode":"VNM","name":"Tuyên Quang","localName":"Tuyên Quang","labelEnglish":"Tuyên Quang","labelLocal":"Tuyên Quang","labelBoth":"Tuyên Quang","type":"Province","iso":"VN-07","qid":"Q2332060"},"geometry":{"type":"Point","coordinates":[105.229,22.131]}},{"type":"Feature","id":"VNM-458","properties":{"kind":"division","code":"VNM-458","countryCode":"VNM","name":"Yên Bái","localName":"Yên Bái","labelEnglish":"Yên Bái","labelLocal":"Yên Bái","labelBoth":"Yên Bái","type":"Province","iso":"VN-06","qid":"Q36349"},"geometry":{"type":"Polygon","coordinates":[[[104.8483,22.1702],[104.6285,22.2579],[104.381,22.0997],[104.3942,21.8986],[103.9839,21.9742],[103.9253,21.7198],[104.3498,21.671],[104.4909,21.3657],[104.8285,21.3296],[104.9219,21.6206],[105.1118,21.7039],[104.8483,22.1702]]]}},{"type":"Feature","id":"label-VNM-458","properties":{"kind":"division-label","code":"VNM-458","countryCode":"VNM","name":"Yên Bái","localName":"Yên Bái","labelEnglish":"Yên Bái","labelLocal":"Yên Bái","labelBoth":"Yên Bái","type":"Province","iso":"VN-06","qid":"Q36349"},"geometry":{"type":"Point","coordinates":[104.512,21.7484]}},{"type":"Feature","id":"VNM-464","properties":{"kind":"division","code":"VNM-464","countryCode":"VNM","name":"Vĩnh Phúc","localName":"Vĩnh Phúc","labelEnglish":"Vĩnh Phúc","labelLocal":"Vĩnh Phúc","labelBoth":"Vĩnh Phúc","type":"Province","iso":"VN-70","qid":"Q27566"},"geometry":{"type":"Polygon","coordinates":[[[105.4294,21.2764],[105.7627,21.105],[105.7721,21.3625],[105.5777,21.5438],[105.3174,21.5141],[105.4294,21.2764]]]}},{"type":"Feature","id":"label-VNM-464","properties":{"kind":"division-label","code":"VNM-464","countryCode":"VNM","name":"Vĩnh Phúc","localName":"Vĩnh Phúc","labelEnglish":"Vĩnh Phúc","labelLocal":"Vĩnh Phúc","labelBoth":"Vĩnh Phúc","type":"Province","iso":"VN-70","qid":"Q27566"},"geometry":{"type":"Point","coordinates":[105.549,21.3455]}},{"type":"Feature","id":"VNM-469","properties":{"kind":"division","code":"VNM-469","countryCode":"VNM","name":"Phú Thọ","localName":"Phú Thọ","labelEnglish":"Phú Thọ","labelLocal":"Phú Thọ","labelBoth":"Phú Thọ","type":"Province","iso":"VN-68","qid":"Q36610"},"geometry":{"type":"Polygon","coordinates":[[[105.3174,21.5141],[105.1118,21.7039],[104.9219,21.6206],[104.8285,21.3296],[104.9086,21.1014],[105.1153,20.9499],[105.3079,21.0119],[105.4294,21.2764],[105.3174,21.5141]]]}},{"type":"Feature","id":"label-VNM-469","properties":{"kind":"division-label","code":"VNM-469","countryCode":"VNM","name":"Phú Thọ","localName":"Phú Thọ","labelEnglish":"Phú Thọ","labelLocal":"Phú Thọ","labelBoth":"Phú Thọ","type":"Province","iso":"VN-68","qid":"Q36610"},"geometry":{"type":"Point","coordinates":[105.143,21.3127]}},{"type":"Feature","id":"VNM-462","properties":{"kind":"division","code":"VNM-462","countryCode":"VNM","name":"Hanoi","localName":"Hanoi","labelEnglish":"Hanoi","labelLocal":"Hanoi","labelBoth":"Hanoi","type":"Province","iso":"VN-HN","qid":"Q1858"},"geometry":{"type":"Polygon","coordinates":[[[105.7858,20.5683],[106.0072,20.7132],[106.0047,20.9913],[105.945,21.2475],[105.9208,21.3281],[105.7721,21.3625],[105.7627,21.105],[105.4294,21.2764],[105.3079,21.0119],[105.7858,20.5683]]]}},{"type":"Feature","id":"label-VNM-462","properties":{"kind":"division-label","code":"VNM-462","countryCode":"VNM","name":"Hanoi","localName":"Hanoi","labelEnglish":"Hanoi","labelLocal":"Hanoi","labelBoth":"Hanoi","type":"Province","iso":"VN-HN","qid":"Q1858"},"geometry":{"type":"Point","coordinates":[105.872,21.1306]}},{"type":"Feature","id":"VNM-451","properties":{"kind":"division","code":"VNM-451","countryCode":"VNM","name":"Northeast Vietnam","localName":"Northeast Vietnam","labelEnglish":"Northeast Vietnam","labelLocal":"Northeast Vietnam","labelBoth":"Northeast Vietnam","type":"Region","iso":"VN-53","qid":"Q1194516"},"geometry":{"type":"Polygon","coordinates":[[[105.5575,21.9509],[105.7172,22.0303],[105.8007,21.7877],[106.114,21.9481],[106.26,22.2621],[106.193,22.4067],[106.1079,22.5306],[105.8151,22.5053],[105.7249,22.7241],[105.5676,22.5922],[105.4886,22.1544],[105.5575,21.9509]]]}},{"type":"Feature","id":"label-VNM-451","properties":{"kind":"division-label","code":"VNM-451","countryCode":"VNM","name":"Northeast Vietnam","localName":"Northeast Vietnam","labelEnglish":"Northeast Vietnam","labelLocal":"Northeast Vietnam","labelBoth":"Northeast Vietnam","type":"Region","iso":"VN-53","qid":"Q1194516"},"geometry":{"type":"Point","coordinates":[105.874,22.1476]}},{"type":"Feature","id":"VNM-461","properties":{"kind":"division","code":"VNM-461","countryCode":"VNM","name":"Red River Delta","localName":"Red River Delta","labelEnglish":"Red River Delta","labelLocal":"Red River Delta","labelBoth":"Red River Delta","type":"Region","iso":"VN-66","qid":null},"geometry":{"type":"Polygon","coordinates":[[[106.2574,20.6959],[106.1522,20.9978],[106.0047,20.9913],[106.0072,20.7132],[106.1124,20.6316],[106.2574,20.6959]]]}},{"type":"Feature","id":"label-VNM-461","properties":{"kind":"division-label","code":"VNM-461","countryCode":"VNM","name":"Red River Delta","localName":"Red River Delta","labelEnglish":"Red River Delta","labelLocal":"Red River Delta","labelBoth":"Red River Delta","type":"Region","iso":"VN-66","qid":null},"geometry":{"type":"Point","coordinates":[106.076,20.8085]}},{"type":"Feature","id":"VNM-463","properties":{"kind":"division","code":"VNM-463","countryCode":"VNM","name":"Bắc Ninh","localName":"Bắc Ninh","labelEnglish":"Bắc Ninh","labelLocal":"Bắc Ninh","labelBoth":"Bắc Ninh","type":"Province","iso":"VN-56","qid":"Q33408"},"geometry":{"type":"Polygon","coordinates":[[[106.1522,20.9978],[106.298,21.1341],[105.945,21.2475],[106.0047,20.9913],[106.1522,20.9978]]]}},{"type":"Feature","id":"label-VNM-463","properties":{"kind":"division-label","code":"VNM-463","countryCode":"VNM","name":"Bắc Ninh","localName":"Bắc Ninh","labelEnglish":"Bắc Ninh","labelLocal":"Bắc Ninh","labelBoth":"Bắc Ninh","type":"Province","iso":"VN-56","qid":"Q33408"},"geometry":{"type":"Point","coordinates":[106.117,21.098]}},{"type":"Feature","id":"VNM-470","properties":{"kind":"division","code":"VNM-470","countryCode":"VNM","name":"Bắc Giang","localName":"Bắc Giang","labelEnglish":"Bắc Giang","labelLocal":"Bắc Giang","labelBoth":"Bắc Giang","type":"Province","iso":"VN-54","qid":"Q36367"},"geometry":{"type":"Polygon","coordinates":[[[107.0653,21.3605],[106.8394,21.5932],[106.5593,21.5866],[106.3987,21.4111],[106.1675,21.5708],[105.9208,21.3281],[105.945,21.2475],[106.298,21.1341],[106.5458,21.1937],[106.9635,21.1983],[107.0653,21.3605]]]}},{"type":"Feature","id":"label-VNM-470","properties":{"kind":"division-label","code":"VNM-470","countryCode":"VNM","name":"Bắc Giang","localName":"Bắc Giang","labelEnglish":"Bắc Giang","labelLocal":"Bắc Giang","labelBoth":"Bắc Giang","type":"Province","iso":"VN-54","qid":"Q36367"},"geometry":{"type":"Point","coordinates":[106.493,21.3512]}},{"type":"Feature","id":"VNM-452","properties":{"kind":"division","code":"VNM-452","countryCode":"VNM","name":"Thái Nguyên","localName":"Thái Nguyên","labelEnglish":"Thái Nguyên","labelLocal":"Thái Nguyên","labelBoth":"Thái Nguyên","type":"Province","iso":"VN-69","qid":"Q26575"},"geometry":{"type":"Polygon","coordinates":[[[105.5777,21.5438],[105.7721,21.3625],[105.9208,21.3281],[106.1675,21.5708],[106.2533,21.6951],[106.114,21.9481],[105.8007,21.7877],[105.7172,22.0303],[105.5575,21.9509],[105.5777,21.5438]]]}},{"type":"Feature","id":"label-VNM-452","properties":{"kind":"division-label","code":"VNM-452","countryCode":"VNM","name":"Thái Nguyên","localName":"Thái Nguyên","labelEnglish":"Thái Nguyên","labelLocal":"Thái Nguyên","labelBoth":"Thái Nguyên","type":"Province","iso":"VN-69","qid":"Q26575"},"geometry":{"type":"Point","coordinates":[105.887,21.5812]}},{"type":"Feature","id":"VNM-460","properties":{"kind":"division","code":"VNM-460","countryCode":"VNM","name":"Hải Dương","localName":"Hải Dương","labelEnglish":"Hải Dương","labelLocal":"Hải Dương","labelBoth":"Hải Dương","type":"Province","iso":"VN-61","qid":"Q36729"},"geometry":{"type":"Polygon","coordinates":[[[106.4172,20.7193],[106.6053,21.0254],[106.5458,21.1937],[106.298,21.1341],[106.1522,20.9978],[106.2574,20.6959],[106.4172,20.7193]]]}},{"type":"Feature","id":"label-VNM-460","properties":{"kind":"division-label","code":"VNM-460","countryCode":"VNM","name":"Hải Dương","localName":"Hải Dương","labelEnglish":"Hải Dương","labelLocal":"Hải Dương","labelBoth":"Hải Dương","type":"Province","iso":"VN-61","qid":"Q36729"},"geometry":{"type":"Point","coordinates":[106.364,20.9613]}},{"type":"Feature","id":"VNM-467","properties":{"kind":"division","code":"VNM-467","countryCode":"VNM","name":"Hà Nam","localName":"Hà Nam","labelEnglish":"Hà Nam","labelLocal":"Hà Nam","labelBoth":"Hà Nam","type":"Province","iso":"VN-63","qid":"Q36413"},"geometry":{"type":"Polygon","coordinates":[[[105.9512,20.3368],[106.1845,20.4909],[106.1124,20.6316],[106.0072,20.7132],[105.7858,20.5683],[105.8413,20.4195],[105.9512,20.3368]]]}},{"type":"Feature","id":"label-VNM-467","properties":{"kind":"division-label","code":"VNM-467","countryCode":"VNM","name":"Hà Nam","localName":"Hà Nam","labelEnglish":"Hà Nam","labelLocal":"Hà Nam","labelBoth":"Hà Nam","type":"Province","iso":"VN-63","qid":"Q36413"},"geometry":{"type":"Point","coordinates":[105.985,20.5569]}},{"type":"Feature","id":"VNM-483","properties":{"kind":"division","code":"VNM-483","countryCode":"VNM","name":"Bình Dương","localName":"Bình Dương","labelEnglish":"Bình Dương","labelLocal":"Bình Dương","labelBoth":"Bình Dương","type":"Province","iso":"VN-57","qid":"Q36866"},"geometry":{"type":"Polygon","coordinates":[[[106.4296,11.1242],[106.836,10.8878],[106.9648,11.2836],[106.6476,11.3168],[106.4643,11.5533],[106.3467,11.2727],[106.4296,11.1242]]]}},{"type":"Feature","id":"label-VNM-483","properties":{"kind":"division-label","code":"VNM-483","countryCode":"VNM","name":"Bình Dương","localName":"Bình Dương","labelEnglish":"Bình Dương","labelLocal":"Bình Dương","labelBoth":"Bình Dương","type":"Province","iso":"VN-57","qid":"Q36866"},"geometry":{"type":"Point","coordinates":[106.659,11.1382]}},{"type":"Feature","id":"VNM-480","properties":{"kind":"division","code":"VNM-480","countryCode":"VNM","name":"Lâm Đồng","localName":"Lâm Đồng","labelEnglish":"Lâm Đồng","labelLocal":"Lâm Đồng","labelBoth":"Lâm Đồng","type":"Province","iso":"VN-35","qid":"Q36721"},"geometry":{"type":"Polygon","coordinates":[[[108.7192,12.1811],[108.6815,12.303],[108.1176,12.1519],[107.9979,11.7696],[107.702,11.9069],[107.3904,11.7518],[107.3085,11.5662],[107.6095,11.3617],[108.0102,11.3015],[108.3357,11.3687],[108.6202,11.564],[108.7192,12.1811]]]}},{"type":"Feature","id":"label-VNM-480","properties":{"kind":"division-label","code":"VNM-480","countryCode":"VNM","name":"Lâm Đồng","localName":"Lâm Đồng","labelEnglish":"Lâm Đồng","labelLocal":"Lâm Đồng","labelBoth":"Lâm Đồng","type":"Province","iso":"VN-35","qid":"Q36721"},"geometry":{"type":"Point","coordinates":[108,11.5362]}},{"type":"Feature","id":"VNM-499","properties":{"kind":"division","code":"VNM-499","countryCode":"VNM","name":"Cần Thơ","localName":"Cần Thơ","labelEnglish":"Cần Thơ","labelLocal":"Cần Thơ","labelBoth":"Cần Thơ","type":"Province","iso":"VN-CT","qid":"Q216075"},"geometry":{"type":"Polygon","coordinates":[[[105.4228,10.0436],[105.6922,10.1232],[105.849,10.3014],[105.583,10.4465],[105.2415,10.1996],[105.4228,10.0436]]]}},{"type":"Feature","id":"label-VNM-499","properties":{"kind":"division-label","code":"VNM-499","countryCode":"VNM","name":"Cần Thơ","localName":"Cần Thơ","labelEnglish":"Cần Thơ","labelLocal":"Cần Thơ","labelBoth":"Cần Thơ","type":"Province","iso":"VN-CT","qid":"Q216075"},"geometry":{"type":"Point","coordinates":[105.685,10.2421]}}]}