{"type":"FeatureCollection","features":[{"type":"Feature","id":"VUT-562","properties":{"kind":"division","code":"VUT-562","countryCode":"VUT","name":"Tafea","localName":"Tafea","labelEnglish":"Tafea","labelLocal":"Tafea","labelBoth":"Tafea","type":"Province","iso":"VU-TAE","qid":"Q576417"},"geometry":{"type":"MultiPolygon","coordinates":[[[[169.4328,-19.4929],[169.3366,-19.3146],[169.2185,-19.4902],[169.4328,-19.4929]]],[[[169.3366,-18.9348],[169.1524,-18.6363],[168.9873,-18.8766],[169.3366,-18.9348]]]]}},{"type":"Feature","id":"label-VUT-562","properties":{"kind":"division-label","code":"VUT-562","countryCode":"VUT","name":"Tafea","localName":"Tafea","labelEnglish":"Tafea","labelLocal":"Tafea","labelBoth":"Tafea","type":"Province","iso":"VU-TAE","qid":"Q576417"},"geometry":{"type":"Point","coordinates":[169.818,-20.1892]}},{"type":"Feature","id":"VUT-565","properties":{"kind":"division","code":"VUT-565","countryCode":"VUT","name":"Shefa","localName":"Shefa","labelEnglish":"Shefa","labelLocal":"Shefa","labelBoth":"Shefa","type":"Province","iso":"VU-SEE","qid":"Q650617"},"geometry":{"type":"MultiPolygon","coordinates":[[[[168.5496,-17.691],[168.2666,-17.5585],[168.1748,-17.741],[168.396,-17.8235],[168.5496,-17.691]]],[[[168.1921,-16.8139],[168.4807,-16.8002],[168.1442,-16.573],[168.1921,-16.8139]]]]}},{"type":"Feature","id":"label-VUT-565","properties":{"kind":"division-label","code":"VUT-565","countryCode":"VUT","name":"Shefa","localName":"Shefa","labelEnglish":"Shefa","labelLocal":"Shefa","labelBoth":"Shefa","type":"Province","iso":"VU-SEE","qid":"Q650617"},"geometry":{"type":"Point","coordinates":[168.301,-16.7385]}},{"type":"Feature","id":"VUT-563","properties":{"kind":"division","code":"VUT-563","countryCode":"VUT","name":"Malampa","localName":"Malampa","labelEnglish":"Malampa","labelLocal":"Malampa","labelBoth":"Malampa","type":"Province","iso":"VU-MAP","qid":"Q740656"},"geometry":{"type":"MultiPolygon","coordinates":[[[[168.1824,-16.3478],[168.3213,-16.2829],[168.1716,-16.0803],[167.9209,-16.2589],[168.1824,-16.3478]]],[[[167.8125,-16.4195],[167.1853,-15.8907],[167.5007,-16.5873],[167.8125,-16.4195]]]]}},{"type":"Feature","id":"label-VUT-563","properties":{"kind":"division-label","code":"VUT-563","countryCode":"VUT","name":"Malampa","localName":"Malampa","labelEnglish":"Malampa","labelLocal":"Malampa","labelBoth":"Malampa","type":"Province","iso":"VU-MAP","qid":"Q740656"},"geometry":{"type":"Point","coordinates":[167.494,-16.3765]}},{"type":"Feature","id":"VUT-561","properties":{"kind":"division","code":"VUT-561","countryCode":"VUT","name":"Sanma","localName":"Sanma","labelEnglish":"Sanma","labelLocal":"Sanma","labelBoth":"Sanma","type":"Province","iso":"VU-SAM","qid":"Q740640"},"geometry":{"type":"Polygon","coordinates":[[[167.1406,-15.5356],[167.2334,-15.5236],[167.054,-14.9604],[166.8018,-15.1523],[166.6099,-14.6347],[166.5226,-14.8321],[166.6161,-15.385],[166.7931,-15.6563],[167.1406,-15.5356]]]}},{"type":"Feature","id":"label-VUT-561","properties":{"kind":"division-label","code":"VUT-561","countryCode":"VUT","name":"Sanma","localName":"Sanma","labelEnglish":"Sanma","labelLocal":"Sanma","labelBoth":"Sanma","type":"Province","iso":"VU-SAM","qid":"Q740640"},"geometry":{"type":"Point","coordinates":[167.155,-15.6781]}},{"type":"Feature","id":"VUT-564","properties":{"kind":"division","code":"VUT-564","countryCode":"VUT","name":"Penama","localName":"Penama","labelEnglish":"Penama","labelLocal":"Penama","labelBoth":"Penama","type":"Province","iso":"VU-PAM","qid":"Q836649"},"geometry":{"type":"Polygon","coordinates":[[[168.1858,-15.5178],[168.1196,-15.6628],[168.2678,-15.9492],[168.1858,-15.5178]]]}},{"type":"Feature","id":"label-VUT-564","properties":{"kind":"division-label","code":"VUT-564","countryCode":"VUT","name":"Penama","localName":"Penama","labelEnglish":"Penama","labelLocal":"Penama","labelBoth":"Penama","type":"Province","iso":"VU-PAM","qid":"Q836649"},"geometry":{"type":"Point","coordinates":[168.195,-15.7575]}},{"type":"Feature","id":"VUT-560","properties":{"kind":"division","code":"VUT-560","countryCode":"VUT","name":"Torba","localName":"Torba","labelEnglish":"Torba","labelLocal":"Torba","labelBoth":"Torba","type":"Province","iso":"VU-TOB","qid":"Q822514"},"geometry":{"type":"Polygon","coordinates":[[[167.4528,-13.9186],[167.5811,-13.8487],[167.4889,-13.7082],[167.4528,-13.9186]]]}},{"type":"Feature","id":"label-VUT-560","properties":{"kind":"division-label","code":"VUT-560","countryCode":"VUT","name":"Torba","localName":"Torba","labelEnglish":"Torba","labelLocal":"Torba","labelBoth":"Torba","type":"Province","iso":"VU-TOB","qid":"Q822514"},"geometry":{"type":"Point","coordinates":[167.5,-14.2328]}}]}