{"type":"FeatureCollection","features":[{"type":"Feature","id":"WLF-4995","properties":{"kind":"division","code":"WLF-4995","countryCode":"WLF","name":"Sigave","localName":"Sigave","labelEnglish":"Sigave","labelLocal":"Sigave","labelBoth":"Sigave","type":null,"iso":"WF-SG","qid":"Q2554877"},"geometry":{"type":"Polygon","coordinates":[[[-178.1266,-14.3131],[-178.1308,-14.2555],[-178.178,-14.2326],[-178.1266,-14.3131]]]}},{"type":"Feature","id":"label-WLF-4995","properties":{"kind":"division-label","code":"WLF-4995","countryCode":"WLF","name":"Sigave","localName":"Sigave","labelEnglish":"Sigave","labelLocal":"Sigave","labelBoth":"Sigave","type":null,"iso":"WF-SG","qid":"Q2554877"},"geometry":{"type":"Point","coordinates":[-178.161,-14.2659]}},{"type":"Feature","id":"WLF-4997","properties":{"kind":"division","code":"WLF-4997","countryCode":"WLF","name":"Alo","localName":"Alo","labelEnglish":"Alo","labelLocal":"Alo","labelBoth":"Alo","type":null,"iso":"WF-AL","qid":"Q2734700"},"geometry":{"type":"Polygon","coordinates":[[[-178.1308,-14.2555],[-178.1266,-14.3131],[-178.0467,-14.3194],[-178.1308,-14.2555]]]}},{"type":"Feature","id":"label-WLF-4997","properties":{"kind":"division-label","code":"WLF-4997","countryCode":"WLF","name":"Alo","localName":"Alo","labelEnglish":"Alo","labelLocal":"Alo","labelBoth":"Alo","type":null,"iso":"WF-AL","qid":"Q2734700"},"geometry":{"type":"Point","coordinates":[-178.094,-14.3029]}},{"type":"Feature","id":"WLF-4996","properties":{"kind":"division","code":"WLF-4996","countryCode":"WLF","name":"Uvea","localName":"Uvea","labelEnglish":"Uvea","labelLocal":"Uvea","labelBoth":"Uvea","type":null,"iso":"WF-UV","qid":"Q7903676"},"geometry":{"type":"Polygon","coordinates":[[[-176.1555,-13.2089],[-176.1996,-13.2906],[-176.1418,-13.3359],[-176.1555,-13.2089]]]}},{"type":"Feature","id":"label-WLF-4996","properties":{"kind":"division-label","code":"WLF-4996","countryCode":"WLF","name":"Uvea","localName":"Uvea","labelEnglish":"Uvea","labelLocal":"Uvea","labelBoth":"Uvea","type":null,"iso":"WF-UV","qid":"Q7903676"},"geometry":{"type":"Point","coordinates":[-176.169,-13.2768]}}]}