{"type":"FeatureCollection","features":[{"type":"Feature","id":"WSM-4990","properties":{"kind":"division","code":"WSM-4990","countryCode":"WSM","name":"Gaga'emauga","localName":"Gaga'emauga","labelEnglish":"Gaga'emauga","labelLocal":"Gaga'emauga","labelBoth":"Gaga'emauga","type":null,"iso":"WS-GE","qid":"Q1193143"},"geometry":{"type":"MultiPolygon","coordinates":[[[[-172.3662,-13.4628],[-172.4142,-13.6369],[-172.391,-13.6375],[-172.3474,-13.6386],[-172.311,-13.6395],[-172.2228,-13.5584],[-172.3662,-13.4628]]],[[[-171.8541,-14.0019],[-171.8479,-13.9437],[-171.8756,-14.0047],[-171.8541,-14.0019]]]]}},{"type":"Feature","id":"label-WSM-4990","properties":{"kind":"division-label","code":"WSM-4990","countryCode":"WSM","name":"Gaga'emauga","localName":"Gaga'emauga","labelEnglish":"Gaga'emauga","labelLocal":"Gaga'emauga","labelBoth":"Gaga'emauga","type":null,"iso":"WS-GE","qid":"Q1193143"},"geometry":{"type":"Point","coordinates":[-171.861,-13.9658]}},{"type":"Feature","id":"WSM-4991","properties":{"kind":"division","code":"WSM-4991","countryCode":"WSM","name":"Gaga'ifomauga","localName":"Gaga'ifomauga","labelEnglish":"Gaga'ifomauga","labelLocal":"Gaga'ifomauga","labelBoth":"Gaga'ifomauga","type":null,"iso":"WS-GI","qid":"Q1193134"},"geometry":{"type":"Polygon","coordinates":[[[-172.639,-13.5221],[-172.6318,-13.5999],[-172.5787,-13.6326],[-172.4142,-13.6369],[-172.3662,-13.4628],[-172.639,-13.5221]]]}},{"type":"Feature","id":"label-WSM-4991","properties":{"kind":"division-label","code":"WSM-4991","countryCode":"WSM","name":"Gaga'ifomauga","localName":"Gaga'ifomauga","labelEnglish":"Gaga'ifomauga","labelLocal":"Gaga'ifomauga","labelBoth":"Gaga'ifomauga","type":null,"iso":"WS-GI","qid":"Q1193134"},"geometry":{"type":"Point","coordinates":[-172.467,-13.5461]}},{"type":"Feature","id":"WSM-4992","properties":{"kind":"division","code":"WSM-4992","countryCode":"WSM","name":"Vaisigano","localName":"Vaisigano","labelEnglish":"Vaisigano","labelLocal":"Vaisigano","labelBoth":"Vaisigano","type":null,"iso":"WS-VS","qid":"Q1193139"},"geometry":{"type":"Polygon","coordinates":[[[-172.7035,-13.6166],[-172.6318,-13.5999],[-172.639,-13.5221],[-172.7035,-13.6166]]]}},{"type":"Feature","id":"label-WSM-4992","properties":{"kind":"division-label","code":"WSM-4992","countryCode":"WSM","name":"Vaisigano","localName":"Vaisigano","labelEnglish":"Vaisigano","labelLocal":"Vaisigano","labelBoth":"Vaisigano","type":null,"iso":"WS-VS","qid":"Q1193139"},"geometry":{"type":"Point","coordinates":[-172.701,-13.5561]}},{"type":"Feature","id":"WSM-4993","properties":{"kind":"division","code":"WSM-4993","countryCode":"WSM","name":"Satupa'itea","localName":"Satupa'itea","labelEnglish":"Satupa'itea","labelLocal":"Satupa'itea","labelBoth":"Satupa'itea","type":null,"iso":"WS-SA","qid":"Q651573"},"geometry":{"type":"MultiPolygon","coordinates":[[[[-172.609,-13.693],[-172.5787,-13.6326],[-172.6318,-13.5999],[-172.7035,-13.6166],[-172.609,-13.693]]],[[[-172.3184,-13.7713],[-172.3474,-13.6386],[-172.391,-13.6375],[-172.3545,-13.784],[-172.3184,-13.7713]]]]}},{"type":"Feature","id":"label-WSM-4993","properties":{"kind":"division-label","code":"WSM-4993","countryCode":"WSM","name":"Satupa'itea","localName":"Satupa'itea","labelEnglish":"Satupa'itea","labelLocal":"Satupa'itea","labelBoth":"Satupa'itea","type":null,"iso":"WS-SA","qid":"Q651573"},"geometry":{"type":"Point","coordinates":[-172.635,-13.6365]}},{"type":"Feature","id":"WSM-4994","properties":{"kind":"division","code":"WSM-4994","countryCode":"WSM","name":"Palauli","localName":"Palauli","labelEnglish":"Palauli","labelLocal":"Palauli","labelBoth":"Palauli","type":null,"iso":"WS-PA","qid":"Q1147216"},"geometry":{"type":"MultiPolygon","coordinates":[[[[-172.3545,-13.784],[-172.391,-13.6375],[-172.4142,-13.6369],[-172.5787,-13.6326],[-172.609,-13.693],[-172.3545,-13.784]]],[[[-172.213,-13.801],[-172.311,-13.6395],[-172.3474,-13.6386],[-172.3184,-13.7713],[-172.213,-13.801]]]]}},{"type":"Feature","id":"label-WSM-4994","properties":{"kind":"division-label","code":"WSM-4994","countryCode":"WSM","name":"Palauli","localName":"Palauli","labelEnglish":"Palauli","labelLocal":"Palauli","labelBoth":"Palauli","type":null,"iso":"WS-PA","qid":"Q1147216"},"geometry":{"type":"Point","coordinates":[-172.454,-13.7195]}},{"type":"Feature","id":"WSM-4989","properties":{"kind":"division","code":"WSM-4989","countryCode":"WSM","name":"Fa'asaleleaga","localName":"Fa'asaleleaga","labelEnglish":"Fa'asaleleaga","labelLocal":"Fa'asaleleaga","labelBoth":"Fa'asaleleaga","type":null,"iso":"WS-FA","qid":"Q1154134"},"geometry":{"type":"Polygon","coordinates":[[[-172.2228,-13.5584],[-172.311,-13.6395],[-172.213,-13.801],[-172.2228,-13.5584]]]}},{"type":"Feature","id":"label-WSM-4989","properties":{"kind":"division-label","code":"WSM-4989","countryCode":"WSM","name":"Fa'asaleleaga","localName":"Fa'asaleleaga","labelEnglish":"Fa'asaleleaga","labelLocal":"Fa'asaleleaga","labelBoth":"Fa'asaleleaga","type":null,"iso":"WS-FA","qid":"Q1154134"},"geometry":{"type":"Point","coordinates":[-172.243,-13.6516]}},{"type":"Feature","id":"WSM-4987","properties":{"kind":"division","code":"WSM-4987","countryCode":"WSM","name":"Atua","localName":"Atua","labelEnglish":"Atua","labelLocal":"Atua","labelBoth":"Atua","type":null,"iso":"WS-AT","qid":"Q1154332"},"geometry":{"type":"Polygon","coordinates":[[[-171.5676,-13.8967],[-171.5852,-13.8839],[-171.6502,-13.8713],[-171.6524,-14.0452],[-171.4693,-13.9694],[-171.5923,-13.9691],[-171.5591,-13.9254],[-171.5676,-13.8967]]]}},{"type":"Feature","id":"label-WSM-4987","properties":{"kind":"division-label","code":"WSM-4987","countryCode":"WSM","name":"Atua","localName":"Atua","labelEnglish":"Atua","labelLocal":"Atua","labelBoth":"Atua","type":null,"iso":"WS-AT","qid":"Q1154332"},"geometry":{"type":"Point","coordinates":[-171.592,-14.0212]}},{"type":"Feature","id":"WSM-4988","properties":{"kind":"division","code":"WSM-4988","countryCode":"WSM","name":"Va'a-o-Fonoti","localName":"Va'a-o-Fonoti","labelEnglish":"Va'a-o-Fonoti","labelLocal":"Va'a-o-Fonoti","labelBoth":"Va'a-o-Fonoti","type":null,"iso":"WS-VF","qid":"Q1154109"},"geometry":{"type":"Polygon","coordinates":[[[-171.5591,-13.9254],[-171.5923,-13.9691],[-171.4693,-13.9694],[-171.5591,-13.9254]]]}},{"type":"Feature","id":"label-WSM-4988","properties":{"kind":"division-label","code":"WSM-4988","countryCode":"WSM","name":"Va'a-o-Fonoti","localName":"Va'a-o-Fonoti","labelEnglish":"Va'a-o-Fonoti","labelLocal":"Va'a-o-Fonoti","labelBoth":"Va'a-o-Fonoti","type":null,"iso":"WS-VF","qid":"Q1154109"},"geometry":{"type":"Point","coordinates":[-171.549,-13.9633]}},{"type":"Feature","id":"WSM-4984","properties":{"kind":"division","code":"WSM-4984","countryCode":"WSM","name":"Tuamasaga","localName":"Tuamasaga","labelEnglish":"Tuamasaga","labelLocal":"Tuamasaga","labelBoth":"Tuamasaga","type":null,"iso":"WS-TU","qid":"Q1144482"},"geometry":{"type":"Polygon","coordinates":[[[-171.7923,-13.8165],[-171.8149,-13.8116],[-171.8579,-13.8063],[-171.8479,-13.9437],[-171.8541,-14.0019],[-171.6524,-14.0452],[-171.6502,-13.8713],[-171.7923,-13.8165]]]}},{"type":"Feature","id":"label-WSM-4984","properties":{"kind":"division-label","code":"WSM-4984","countryCode":"WSM","name":"Tuamasaga","localName":"Tuamasaga","labelEnglish":"Tuamasaga","labelLocal":"Tuamasaga","labelBoth":"Tuamasaga","type":null,"iso":"WS-TU","qid":"Q1144482"},"geometry":{"type":"Point","coordinates":[-171.752,-13.9415]}},{"type":"Feature","id":"WSM-4985","properties":{"kind":"division","code":"WSM-4985","countryCode":"WSM","name":"A'ana","localName":"A'ana","labelEnglish":"A'ana","labelLocal":"A'ana","labelBoth":"A'ana","type":null,"iso":"WS-AA","qid":"Q1154121"},"geometry":{"type":"Polygon","coordinates":[[[-171.9926,-13.8282],[-172.0406,-13.9152],[-171.8756,-14.0047],[-171.8479,-13.9437],[-171.8579,-13.8063],[-171.9926,-13.8282]]]}},{"type":"Feature","id":"label-WSM-4985","properties":{"kind":"division-label","code":"WSM-4985","countryCode":"WSM","name":"A'ana","localName":"A'ana","labelEnglish":"A'ana","labelLocal":"A'ana","labelBoth":"A'ana","type":null,"iso":"WS-AA","qid":"Q1154121"},"geometry":{"type":"Point","coordinates":[-171.919,-13.9005]}},{"type":"Feature","id":"WSM-4986","properties":{"kind":"division","code":"WSM-4986","countryCode":"WSM","name":"Aiga-i-le-Tai","localName":"Aiga-i-le-Tai","labelEnglish":"Aiga-i-le-Tai","labelLocal":"Aiga-i-le-Tai","labelBoth":"Aiga-i-le-Tai","type":null,"iso":"WS-AL","qid":"Q1144488"},"geometry":{"type":"Polygon","coordinates":[[[-172.028,-13.8407],[-172.0556,-13.8619],[-172.0406,-13.9152],[-171.9926,-13.8282],[-172.028,-13.8407]]]}},{"type":"Feature","id":"label-WSM-4986","properties":{"kind":"division-label","code":"WSM-4986","countryCode":"WSM","name":"Aiga-i-le-Tai","localName":"Aiga-i-le-Tai","labelEnglish":"Aiga-i-le-Tai","labelLocal":"Aiga-i-le-Tai","labelBoth":"Aiga-i-le-Tai","type":null,"iso":"WS-AL","qid":"Q1144488"},"geometry":{"type":"Point","coordinates":[-172.039,-13.8904]}}]}