{"type":"FeatureCollection","features":[{"type":"Feature","id":"YEM-3497","properties":{"kind":"division","code":"YEM-3497","countryCode":"YEM","name":"Hadhramaut","localName":"حضرموت","labelEnglish":"Hadhramaut","labelLocal":"حضرموت","labelBoth":"Hadhramaut · حضرموت","type":"Governorate","iso":"YE-HD","qid":"Q241135"},"geometry":{"type":"MultiPolygon","coordinates":[[[[51.9786,18.9956],[51.0198,18.8666],[49.1288,18.6121],[48.1619,18.1489],[47.589,17.4633],[47.4286,17.0931],[46.997,16.9485],[47.0387,16.3454],[46.8327,16.1497],[46.3397,15.5707],[47.7492,15.6752],[47.8517,15.6127],[47.6547,15.3162],[47.6643,14.9812],[47.486,14.7939],[47.7445,14.6008],[48.0493,14.5352],[48.2603,14.3003],[48.5804,14.2331],[48.6815,14.0436],[49.0037,14.3248],[49.078,14.5061],[49.5781,14.7373],[50.1795,14.8433],[50.805,15.0974],[50.7284,15.2612],[50.3414,15.2735],[50.1924,15.6093],[50.3019,16.0017],[50.2354,16.1456],[50.3969,16.6237],[50.5722,16.6946],[51.1324,17.1528],[51.2624,17.3381],[51.7123,18.5962],[51.9857,18.9797],[51.9786,18.9956]]],[[[54.4707,12.5436],[54.1194,12.7011],[53.7629,12.6197],[53.396,12.6565],[53.3342,12.5155],[53.5721,12.3346],[54.1405,12.3513],[54.4707,12.5436]]]]}},{"type":"Feature","id":"label-YEM-3497","properties":{"kind":"division-label","code":"YEM-3497","countryCode":"YEM","name":"Hadhramaut","localName":"حضرموت","labelEnglish":"Hadhramaut","labelLocal":"حضرموت","labelBoth":"Hadhramaut · حضرموت","type":"Governorate","iso":"YE-HD","qid":"Q241135"},"geometry":{"type":"Point","coordinates":[48.9133,16.3779]}},{"type":"Feature","id":"YEM-332","properties":{"kind":"division","code":"YEM-332","countryCode":"YEM","name":"Al Mahrah","localName":"المهره","labelEnglish":"Al Mahrah","labelLocal":"المهره","labelBoth":"Al Mahrah · المهره","type":"Governorate","iso":"YE-MR","qid":"Q275752"},"geometry":{"type":"Polygon","coordinates":[[[51.9857,18.9797],[51.7123,18.5962],[51.2624,17.3381],[51.1324,17.1528],[50.5722,16.6946],[50.3969,16.6237],[50.2354,16.1456],[50.3019,16.0017],[50.1924,15.6093],[50.3414,15.2735],[50.7284,15.2612],[50.805,15.0974],[51.3678,15.2297],[52.2284,15.6161],[52.1555,15.9839],[52.2927,16.2638],[52.5977,16.4767],[53.0903,16.6424],[52.7301,17.2999],[51.9857,18.9797]]]}},{"type":"Feature","id":"label-YEM-332","properties":{"kind":"division-label","code":"YEM-332","countryCode":"YEM","name":"Al Mahrah","localName":"المهره","labelEnglish":"Al Mahrah","labelLocal":"المهره","labelBoth":"Al Mahrah · المهره","type":"Governorate","iso":"YE-MR","qid":"Q275752"},"geometry":{"type":"Point","coordinates":[51.6413,16.8785]}},{"type":"Feature","id":"YEM-150","properties":{"kind":"division","code":"YEM-150","countryCode":"YEM","name":"Sa'dah","localName":"صعدة","labelEnglish":"Sa'dah","labelLocal":"صعدة","labelBoth":"Sa'dah · صعدة","type":"Governorate","iso":"YE-SD","qid":null},"geometry":{"type":"Polygon","coordinates":[[[43.6384,17.4385],[43.342,17.4825],[43.165,17.3259],[43.1087,16.927],[43.1857,16.6848],[43.5999,16.6085],[44.1888,16.6315],[44.4909,16.9792],[44.9502,17.1114],[44.9725,17.4297],[43.7506,17.3457],[43.6384,17.4385]]]}},{"type":"Feature","id":"label-YEM-150","properties":{"kind":"division-label","code":"YEM-150","countryCode":"YEM","name":"Sa'dah","localName":"صعدة","labelEnglish":"Sa'dah","labelLocal":"صعدة","labelBoth":"Sa'dah · صعدة","type":"Governorate","iso":"YE-SD","qid":null},"geometry":{"type":"Point","coordinates":[44.0404,16.9876]}},{"type":"Feature","id":"YEM-154","properties":{"kind":"division","code":"YEM-154","countryCode":"YEM","name":"Hajjah","localName":"حجه","labelEnglish":"Hajjah","labelLocal":"حجه","labelBoth":"Hajjah · حجه","type":"Governorate","iso":"YE-HJ","qid":"Q328158"},"geometry":{"type":"Polygon","coordinates":[[[43.1857,16.6848],[42.7895,16.371],[42.8346,15.9141],[43.2853,15.8636],[43.3139,15.5097],[43.7053,15.5263],[43.7752,15.9307],[43.6146,16.2035],[43.5999,16.6085],[43.1857,16.6848]]]}},{"type":"Feature","id":"label-YEM-154","properties":{"kind":"division-label","code":"YEM-154","countryCode":"YEM","name":"Hajjah","localName":"حجه","labelEnglish":"Hajjah","labelLocal":"حجه","labelBoth":"Hajjah · حجه","type":"Governorate","iso":"YE-HJ","qid":"Q328158"},"geometry":{"type":"Point","coordinates":[43.1804,16.1813]}},{"type":"Feature","id":"YEM-335","properties":{"kind":"division","code":"YEM-335","countryCode":"YEM","name":"Al Jawf","localName":"الجوف","labelEnglish":"Al Jawf","labelLocal":"الجوف","labelBoth":"Al Jawf · الجوف","type":"Governorate","iso":"YE-JA","qid":"Q328128"},"geometry":{"type":"Polygon","coordinates":[[[44.9725,17.4297],[44.9502,17.1114],[44.4909,16.9792],[44.1888,16.6315],[44.3143,16.549],[44.4258,16.0283],[44.661,16.0114],[45.239,15.813],[45.5642,15.7904],[45.9945,16],[46.8327,16.1497],[47.0387,16.3454],[46.997,16.9485],[46.7101,17.2754],[46.3226,17.2241],[45.4304,17.312],[44.9725,17.4297]]]}},{"type":"Feature","id":"label-YEM-335","properties":{"kind":"division-label","code":"YEM-335","countryCode":"YEM","name":"Al Jawf","localName":"الجوف","labelEnglish":"Al Jawf","labelLocal":"الجوف","labelBoth":"Al Jawf · الجوف","type":"Governorate","iso":"YE-JA","qid":"Q328128"},"geometry":{"type":"Point","coordinates":[45.6137,16.5629]}},{"type":"Feature","id":"YEM-151","properties":{"kind":"division","code":"YEM-151","countryCode":"YEM","name":"Al Hudaydah","localName":"الحديده","labelEnglish":"Al Hudaydah","labelLocal":"الحديده","labelBoth":"Al Hudaydah · الحديده","type":"Governorate","iso":"YE-HU","qid":"Q275755"},"geometry":{"type":"Polygon","coordinates":[[[43.2843,13.6649],[43.6843,13.912],[43.7976,14.114],[43.5794,14.1556],[43.5583,14.3743],[43.5569,14.8484],[43.702,14.9334],[43.571,15.0443],[43.3322,15.3056],[43.3139,15.5097],[43.2853,15.8636],[42.8346,15.9141],[42.6992,15.7174],[43.0287,14.538],[43.0955,14.084],[43.2843,13.6649]]]}},{"type":"Feature","id":"label-YEM-151","properties":{"kind":"division-label","code":"YEM-151","countryCode":"YEM","name":"Al Hudaydah","localName":"الحديده","labelEnglish":"Al Hudaydah","labelLocal":"الحديده","labelBoth":"Al Hudaydah · الحديده","type":"Governorate","iso":"YE-HU","qid":"Q275755"},"geometry":{"type":"Point","coordinates":[43.2214,14.928]}},{"type":"Feature","id":"YEM-158","properties":{"kind":"division","code":"YEM-158","countryCode":"YEM","name":"Ta'izz","localName":"تعز","labelEnglish":"Ta'izz","labelLocal":"تعز","labelBoth":"Ta'izz · تعز","type":"Governorate","iso":"YE-TA","qid":"Q388330"},"geometry":{"type":"Polygon","coordinates":[[[43.5307,12.6955],[43.882,13.1134],[44.0207,13.0473],[44.3568,13.2513],[44.5332,13.5771],[44.4069,13.761],[44.3453,13.7054],[43.6843,13.912],[43.2843,13.6649],[43.2489,13.2127],[43.5307,12.6955]]]}},{"type":"Feature","id":"label-YEM-158","properties":{"kind":"division-label","code":"YEM-158","countryCode":"YEM","name":"Ta'izz","localName":"تعز","labelEnglish":"Ta'izz","labelLocal":"تعز","labelBoth":"Ta'izz · تعز","type":"Governorate","iso":"YE-TA","qid":"Q388330"},"geometry":{"type":"Point","coordinates":[43.7305,13.4282]}},{"type":"Feature","id":"YEM-157","properties":{"kind":"division","code":"YEM-157","countryCode":"YEM","name":"Lahij","localName":"لحج","labelEnglish":"Lahij","labelLocal":"لحج","labelBoth":"Lahij · لحج","type":"Governorate","iso":"YE-LA","qid":"Q388318"},"geometry":{"type":"Polygon","coordinates":[[[44.4147,12.6733],[44.4842,12.7776],[44.6189,12.8357],[45.0932,12.9247],[45.0995,12.9362],[45.2523,13.4075],[45.2155,13.667],[45.405,13.8966],[45.1805,13.9644],[44.8576,13.7081],[44.8531,13.5909],[44.5332,13.5771],[44.3568,13.2513],[44.0207,13.0473],[43.882,13.1134],[43.5307,12.6955],[43.9463,12.598],[44.4147,12.6733]]]}},{"type":"Feature","id":"label-YEM-157","properties":{"kind":"division-label","code":"YEM-157","countryCode":"YEM","name":"Lahij","localName":"لحج","labelEnglish":"Lahij","labelLocal":"لحج","labelBoth":"Lahij · لحج","type":"Governorate","iso":"YE-LA","qid":"Q388318"},"geometry":{"type":"Point","coordinates":[44.6561,13.1832]}},{"type":"Feature","id":"YEM-3510","properties":{"kind":"division","code":"YEM-3510","countryCode":"YEM","name":"'Adan","localName":"عدن","labelEnglish":"'Adan","labelLocal":"عدن","labelBoth":"'Adan · عدن","type":"Governorate","iso":"YE-AD","qid":"Q275729"},"geometry":{"type":"Polygon","coordinates":[[[45.0932,12.9247],[44.6189,12.8357],[44.4842,12.7776],[44.4147,12.6733],[44.5428,12.7973],[44.6936,12.8035],[44.8814,12.7299],[45.0586,12.762],[45.0932,12.9247]]]}},{"type":"Feature","id":"label-YEM-3510","properties":{"kind":"division-label","code":"YEM-3510","countryCode":"YEM","name":"'Adan","localName":"عدن","labelEnglish":"'Adan","labelLocal":"عدن","labelBoth":"'Adan · عدن","type":"Governorate","iso":"YE-AD","qid":"Q275729"},"geometry":{"type":"Point","coordinates":[44.7544,12.8087]}},{"type":"Feature","id":"YEM-3511","properties":{"kind":"division","code":"YEM-3511","countryCode":"YEM","name":"Abyan","localName":"أبين‎","labelEnglish":"Abyan","labelLocal":"أبين‎","labelBoth":"Abyan · أبين‎","type":"Governorate","iso":"YE-AB","qid":"Q241774"},"geometry":{"type":"Polygon","coordinates":[[[47.3245,13.6328],[47.2419,14.1376],[46.865,14.2139],[46.4923,14.1251],[46.3966,14.3024],[46.0438,14.1917],[45.986,14.0236],[45.637,13.8228],[45.405,13.8966],[45.2155,13.667],[45.2523,13.4075],[45.0995,12.9362],[45.403,13.0701],[45.6658,13.342],[46.2345,13.4363],[46.7007,13.4303],[47.3245,13.6328]]]}},{"type":"Feature","id":"label-YEM-3511","properties":{"kind":"division-label","code":"YEM-3511","countryCode":"YEM","name":"Abyan","localName":"أبين‎","labelEnglish":"Abyan","labelLocal":"أبين‎","labelBoth":"Abyan · أبين‎","type":"Governorate","iso":"YE-AB","qid":"Q241774"},"geometry":{"type":"Point","coordinates":[46.2119,13.8269]}},{"type":"Feature","id":"YEM-336","properties":{"kind":"division","code":"YEM-336","countryCode":"YEM","name":"Shabwah","localName":"شبوة","labelEnglish":"Shabwah","labelLocal":"شبوة","labelBoth":"Shabwah · شبوة","type":"Governorate","iso":"YE-SH","qid":"Q328180"},"geometry":{"type":"Polygon","coordinates":[[[48.6815,14.0436],[48.5804,14.2331],[48.2603,14.3003],[48.0493,14.5352],[47.7445,14.6008],[47.486,14.7939],[47.6643,14.9812],[47.6547,15.3162],[47.8517,15.6127],[47.7492,15.6752],[46.3397,15.5707],[45.6143,15.0602],[45.5686,14.6893],[45.7218,14.6632],[46.0438,14.1917],[46.3966,14.3024],[46.4923,14.1251],[46.865,14.2139],[47.2419,14.1376],[47.3245,13.6328],[48.0169,14.0573],[48.1887,13.9691],[48.6815,14.0436]]]}},{"type":"Feature","id":"label-YEM-336","properties":{"kind":"division-label","code":"YEM-336","countryCode":"YEM","name":"Shabwah","localName":"شبوة","labelEnglish":"Shabwah","labelLocal":"شبوة","labelBoth":"Shabwah · شبوة","type":"Governorate","iso":"YE-SH","qid":"Q328180"},"geometry":{"type":"Point","coordinates":[47.0989,14.8965]}},{"type":"Feature","id":"YEM-337","properties":{"kind":"division","code":"YEM-337","countryCode":"YEM","name":"Ma'rib","localName":"مأرب","labelEnglish":"Ma'rib","labelLocal":"مأرب","labelBoth":"Ma'rib · مأرب","type":"Governorate","iso":"YE-MA","qid":"Q498465"},"geometry":{"type":"Polygon","coordinates":[[[46.8327,16.1497],[45.9945,16],[45.5642,15.7904],[45.239,15.813],[44.661,16.0114],[44.8282,15.5956],[44.6631,15.4495],[45.1541,15.2385],[45.0059,14.8143],[45.215,14.4977],[45.5686,14.6893],[45.6143,15.0602],[46.3397,15.5707],[46.8327,16.1497]]]}},{"type":"Feature","id":"label-YEM-337","properties":{"kind":"division-label","code":"YEM-337","countryCode":"YEM","name":"Ma'rib","localName":"مأرب","labelEnglish":"Ma'rib","labelLocal":"مأرب","labelBoth":"Ma'rib · مأرب","type":"Governorate","iso":"YE-MA","qid":"Q498465"},"geometry":{"type":"Point","coordinates":[45.7376,15.5368]}},{"type":"Feature","id":"YEM-3496","properties":{"kind":"division","code":"YEM-3496","countryCode":"YEM","name":"Sanaa","localName":"Sanaa","labelEnglish":"Sanaa","labelLocal":"Sanaa","labelBoth":"Sanaa","type":"Governorate","iso":"YE-SN","qid":"Q2471"},"geometry":{"type":"Polygon","coordinates":[[[44.661,16.0114],[44.4258,16.0283],[44.2545,15.9738],[44.1672,15.6206],[43.9842,15.5047],[43.6401,15.217],[43.571,15.0443],[43.702,14.9334],[43.824,14.8504],[44.1919,14.9933],[44.7845,14.9715],[44.8687,14.7562],[45.0059,14.8143],[45.1541,15.2385],[44.6631,15.4495],[44.8282,15.5956],[44.661,16.0114]],[[44.3684,15.5334],[44.1811,15.2934],[44.122,15.4649],[44.3684,15.5334]]]}},{"type":"Feature","id":"label-YEM-3496","properties":{"kind":"division-label","code":"YEM-3496","countryCode":"YEM","name":"Sanaa","localName":"Sanaa","labelEnglish":"Sanaa","labelLocal":"Sanaa","labelBoth":"Sanaa","type":"Governorate","iso":"YE-SN","qid":"Q2471"},"geometry":{"type":"Point","coordinates":[44.368,15.2262]}},{"type":"Feature","id":"YEM-3499","properties":{"kind":"division","code":"YEM-3499","countryCode":"YEM","name":"Raymah","localName":"ريمة","labelEnglish":"Raymah","labelLocal":"ريمة","labelBoth":"Raymah · ريمة","type":"Governorate","iso":"YE-RA","qid":"Q475033"},"geometry":{"type":"Polygon","coordinates":[[[43.702,14.9334],[43.5569,14.8484],[43.5583,14.3743],[43.9814,14.5987],[43.824,14.8504],[43.702,14.9334]]]}},{"type":"Feature","id":"label-YEM-3499","properties":{"kind":"division-label","code":"YEM-3499","countryCode":"YEM","name":"Raymah","localName":"ريمة","labelEnglish":"Raymah","labelLocal":"ريمة","labelBoth":"Raymah · ريمة","type":"Governorate","iso":"YE-RA","qid":"Q475033"},"geometry":{"type":"Point","coordinates":[43.758,14.6655]}},{"type":"Feature","id":"YEM-333","properties":{"kind":"division","code":"YEM-333","countryCode":"YEM","name":"Al Bayda'","localName":"البيضاء","labelEnglish":"Al Bayda'","labelLocal":"البيضاء","labelBoth":"Al Bayda' · البيضاء","type":"Governorate","iso":"YE-BA","qid":"Q221212"},"geometry":{"type":"Polygon","coordinates":[[[45.0059,14.8143],[44.8687,14.7562],[44.6304,14.2766],[44.718,14.1617],[45.0075,14.2052],[45.1805,13.9644],[45.405,13.8966],[45.637,13.8228],[45.986,14.0236],[46.0438,14.1917],[45.7218,14.6632],[45.5686,14.6893],[45.215,14.4977],[45.0059,14.8143]]]}},{"type":"Feature","id":"label-YEM-333","properties":{"kind":"division-label","code":"YEM-333","countryCode":"YEM","name":"Al Bayda'","localName":"البيضاء","labelEnglish":"Al Bayda'","labelLocal":"البيضاء","labelBoth":"Al Bayda' · البيضاء","type":"Governorate","iso":"YE-BA","qid":"Q221212"},"geometry":{"type":"Point","coordinates":[45.3371,14.2903]}},{"type":"Feature","id":"YEM-155","properties":{"kind":"division","code":"YEM-155","countryCode":"YEM","name":"'Amran","localName":"عمران","labelEnglish":"'Amran","labelLocal":"عمران","labelBoth":"'Amran · عمران","type":"Governorate","iso":"YE-AM","qid":"Q275720"},"geometry":{"type":"Polygon","coordinates":[[[44.1888,16.6315],[43.5999,16.6085],[43.6146,16.2035],[43.7752,15.9307],[43.7053,15.5263],[43.9842,15.5047],[44.1672,15.6206],[44.2545,15.9738],[44.4258,16.0283],[44.3143,16.549],[44.1888,16.6315]]]}},{"type":"Feature","id":"label-YEM-155","properties":{"kind":"division-label","code":"YEM-155","countryCode":"YEM","name":"'Amran","localName":"عمران","labelEnglish":"'Amran","labelLocal":"عمران","labelBoth":"'Amran · عمران","type":"Governorate","iso":"YE-AM","qid":"Q275720"},"geometry":{"type":"Point","coordinates":[44.0107,16.0938]}},{"type":"Feature","id":"YEM-334","properties":{"kind":"division","code":"YEM-334","countryCode":"YEM","name":"Ad Dali'","localName":"الضالع","labelEnglish":"Ad Dali'","labelLocal":"الضالع","labelBoth":"Ad Dali' · الضالع","type":"Governorate","iso":"YE-DA","qid":"Q328187"},"geometry":{"type":"Polygon","coordinates":[[[45.1805,13.9644],[45.0075,14.2052],[44.718,14.1617],[44.4069,13.761],[44.5332,13.5771],[44.8531,13.5909],[44.8576,13.7081],[45.1805,13.9644]]]}},{"type":"Feature","id":"label-YEM-334","properties":{"kind":"division-label","code":"YEM-334","countryCode":"YEM","name":"Ad Dali'","localName":"الضالع","labelEnglish":"Ad Dali'","labelLocal":"الضالع","labelBoth":"Ad Dali' · الضالع","type":"Governorate","iso":"YE-DA","qid":"Q328187"},"geometry":{"type":"Point","coordinates":[44.7937,13.8965]}},{"type":"Feature","id":"YEM-156","properties":{"kind":"division","code":"YEM-156","countryCode":"YEM","name":"Ibb","localName":"إب","labelEnglish":"Ibb","labelLocal":"إب","labelBoth":"Ibb · إب","type":"Governorate","iso":"YE-IB","qid":"Q388274"},"geometry":{"type":"Polygon","coordinates":[[[43.7976,14.114],[43.6843,13.912],[44.3453,13.7054],[44.4069,13.761],[44.718,14.1617],[44.6304,14.2766],[44.2407,14.441],[43.9625,14.3353],[43.7976,14.114]]]}},{"type":"Feature","id":"label-YEM-156","properties":{"kind":"division-label","code":"YEM-156","countryCode":"YEM","name":"Ibb","localName":"إب","labelEnglish":"Ibb","labelLocal":"إب","labelBoth":"Ibb · إب","type":"Governorate","iso":"YE-IB","qid":"Q388274"},"geometry":{"type":"Point","coordinates":[44.2012,14.0543]}},{"type":"Feature","id":"YEM-152","properties":{"kind":"division","code":"YEM-152","countryCode":"YEM","name":"Al Mahwit","localName":"المحويت","labelEnglish":"Al Mahwit","labelLocal":"المحويت","labelBoth":"Al Mahwit · المحويت","type":"Governorate","iso":"YE-MW","qid":"Q388280"},"geometry":{"type":"Polygon","coordinates":[[[43.571,15.0443],[43.6401,15.217],[43.9842,15.5047],[43.7053,15.5263],[43.3139,15.5097],[43.3322,15.3056],[43.571,15.0443]]]}},{"type":"Feature","id":"label-YEM-152","properties":{"kind":"division-label","code":"YEM-152","countryCode":"YEM","name":"Al Mahwit","localName":"المحويت","labelEnglish":"Al Mahwit","labelLocal":"المحويت","labelBoth":"Al Mahwit · المحويت","type":"Governorate","iso":"YE-MW","qid":"Q388280"},"geometry":{"type":"Point","coordinates":[43.649,15.38]}},{"type":"Feature","id":"YEM-153","properties":{"kind":"division","code":"YEM-153","countryCode":"YEM","name":"Dhamar","localName":"ذمار","labelEnglish":"Dhamar","labelLocal":"ذمار","labelBoth":"Dhamar · ذمار","type":"Governorate","iso":"YE-DH","qid":"Q328193"},"geometry":{"type":"Polygon","coordinates":[[[43.5583,14.3743],[43.5794,14.1556],[43.7976,14.114],[43.9625,14.3353],[44.2407,14.441],[44.6304,14.2766],[44.8687,14.7562],[44.7845,14.9715],[44.1919,14.9933],[43.824,14.8504],[43.9814,14.5987],[43.5583,14.3743]]]}},{"type":"Feature","id":"label-YEM-153","properties":{"kind":"division-label","code":"YEM-153","countryCode":"YEM","name":"Dhamar","localName":"ذمار","labelEnglish":"Dhamar","labelLocal":"ذمار","labelBoth":"Dhamar · ذمار","type":"Governorate","iso":"YE-DH","qid":"Q328193"},"geometry":{"type":"Point","coordinates":[44.2001,14.6805]}},{"type":"Feature","id":"YEM-3498","properties":{"kind":"division","code":"YEM-3498","countryCode":"YEM","name":"Sanaa","localName":"أمانة العاصمة","labelEnglish":"Sanaa","labelLocal":"أمانة العاصمة","labelBoth":"Sanaa · أمانة العاصمة","type":"Governorate","iso":"YE-SA","qid":"Q2471"},"geometry":{"type":"Polygon","coordinates":[[[44.3684,15.5334],[44.122,15.4649],[44.1811,15.2934],[44.3684,15.5334]]]}},{"type":"Feature","id":"label-YEM-3498","properties":{"kind":"division-label","code":"YEM-3498","countryCode":"YEM","name":"Sanaa","localName":"أمانة العاصمة","labelEnglish":"Sanaa","labelLocal":"أمانة العاصمة","labelBoth":"Sanaa · أمانة العاصمة","type":"Governorate","iso":"YE-SA","qid":"Q2471"},"geometry":{"type":"Point","coordinates":[44.2115,15.3494]}}]}