{"type":"FeatureCollection","features":[{"type":"Feature","id":"ZAF-1188","properties":{"kind":"division","code":"ZAF-1188","countryCode":"ZAF","name":"Northern Cape","localName":"Northern Cape","labelEnglish":"Northern Cape","labelLocal":"Northern Cape","labelBoth":"Northern Cape","type":"Province","iso":"ZA-NC","qid":"Q132418"},"geometry":{"type":"Polygon","coordinates":[[[19.9821,-25.619],[19.9827,-26.8955],[19.9817,-28.4223],[19.5688,-28.5312],[19.2889,-28.871],[19.0817,-28.9594],[18.7457,-28.8399],[18.1665,-28.9019],[17.9133,-28.7813],[17.4036,-28.7043],[17.3457,-28.2276],[17.0978,-28.0312],[16.893,-28.0826],[16.8039,-28.3661],[16.4871,-28.5729],[16.8088,-29.0783],[17.282,-30.3478],[17.7671,-31.1558],[18.024,-30.7751],[18.2472,-30.7828],[18.5608,-30.4707],[18.9387,-30.724],[18.905,-31.0095],[19.0667,-31.5772],[19.0286,-31.8932],[19.4782,-32.087],[19.4251,-32.31],[19.5336,-32.6376],[19.6098,-32.4575],[20.1392,-32.1896],[20.0823,-32.4117],[20.2093,-32.7643],[20.4212,-32.9369],[20.7051,-32.9181],[20.8651,-32.6769],[21.5534,-32.2415],[21.8527,-32.243],[22.1012,-32.0574],[22.2915,-31.5702],[23.0698,-31.9765],[23.4009,-31.6813],[24.147,-31.7899],[24.4996,-31.7048],[24.5587,-31.4018],[25.2151,-31.2016],[25.3501,-31.2277],[25.522,-30.8019],[25.4675,-30.6131],[24.9069,-30.2012],[24.7845,-29.9882],[24.3408,-29.649],[24.8743,-28.6499],[25.0135,-28.0682],[24.8245,-27.909],[25.0267,-27.7077],[24.6713,-27.6717],[24.5197,-28.0996],[24.3626,-27.8989],[24.4075,-27.6844],[24.1124,-27.7427],[24.0849,-27.3589],[23.8943,-27.2577],[24.0235,-27.0161],[23.4937,-26.7366],[23.5809,-26.6153],[23.2707,-26.4795],[23.2222,-26.2682],[23.3741,-26.0158],[23.0995,-25.9868],[22.8151,-26.4477],[22.6209,-26.1115],[22.2573,-26.3409],[22.0577,-26.6176],[21.7806,-26.6782],[21.6872,-26.8552],[20.6908,-26.8918],[20.6225,-26.4275],[20.8414,-26.1313],[20.612,-25.431],[20.3649,-25.0332],[19.9814,-24.7525],[19.9821,-25.619]]]}},{"type":"Feature","id":"label-ZAF-1188","properties":{"kind":"division-label","code":"ZAF-1188","countryCode":"ZAF","name":"Northern Cape","localName":"Northern Cape","labelEnglish":"Northern Cape","labelLocal":"Northern Cape","labelBoth":"Northern Cape","type":"Province","iso":"ZA-NC","qid":"Q132418"},"geometry":{"type":"Point","coordinates":[20.9961,-29.7437]}},{"type":"Feature","id":"ZAF-1216","properties":{"kind":"division","code":"ZAF-1216","countryCode":"ZAF","name":"KwaZulu-Natal","localName":"KwaZulu-Natal","labelEnglish":"KwaZulu-Natal","labelLocal":"KwaZulu-Natal","labelBoth":"KwaZulu-Natal","type":"Province","iso":"ZA-NL","qid":"Q81725"},"geometry":{"type":"Polygon","coordinates":[[[28.859,-28.773],[29.3118,-29.0898],[29.4359,-29.3424],[29.2752,-29.5283],[29.1136,-29.7529],[29.0158,-29.9786],[29.2977,-30.3178],[29.1176,-30.5812],[29.7939,-30.7088],[30.196,-31.0779],[30.3923,-30.8471],[31.1869,-29.5603],[31.7521,-28.9662],[32.0121,-28.8665],[32.3794,-28.5528],[32.544,-28.1901],[32.6765,-27.5207],[32.8931,-26.8461],[32.1139,-26.84],[31.9901,-26.8083],[31.9442,-27.1623],[31.9683,-27.3163],[31.2447,-27.2326],[30.9801,-27.3547],[30.4225,-27.2752],[29.7712,-27.4523],[29.5889,-28.2502],[28.973,-28.5748],[28.859,-28.773]]]}},{"type":"Feature","id":"label-ZAF-1216","properties":{"kind":"division-label","code":"ZAF-1216","countryCode":"ZAF","name":"KwaZulu-Natal","localName":"KwaZulu-Natal","labelEnglish":"KwaZulu-Natal","labelLocal":"KwaZulu-Natal","labelBoth":"KwaZulu-Natal","type":"Province","iso":"ZA-NL","qid":"Q81725"},"geometry":{"type":"Point","coordinates":[30.8231,-28.7468]}},{"type":"Feature","id":"ZAF-1206","properties":{"kind":"division","code":"ZAF-1206","countryCode":"ZAF","name":"Free State","localName":"Free State","labelEnglish":"Free State","labelLocal":"Free State","labelBoth":"Free State","type":"Province","iso":"ZA-FS","qid":"Q160284"},"geometry":{"type":"Polygon","coordinates":[[[28.859,-28.773],[28.973,-28.5748],[29.5889,-28.2502],[29.7712,-27.4523],[29.6153,-27.5018],[29.4423,-27.2532],[28.9586,-26.995],[28.5499,-27.0221],[28.2558,-26.8936],[27.9697,-26.6713],[27.5825,-26.7376],[27.4803,-26.874],[26.9327,-26.8649],[26.4111,-27.1768],[26.0141,-27.7032],[25.7987,-27.5807],[25.4214,-27.7104],[25.0135,-28.0682],[24.8743,-28.6499],[24.3408,-29.649],[24.7845,-29.9882],[24.9069,-30.2012],[25.4675,-30.6131],[25.7254,-30.6806],[26.1464,-30.4851],[26.5346,-30.6511],[26.8521,-30.6769],[27.2978,-30.4882],[27.3777,-30.3123],[27.1714,-29.9215],[27.0149,-29.6256],[27.3003,-29.5201],[27.5107,-29.2708],[27.6345,-29.091],[27.7474,-28.9086],[28.2181,-28.7007],[28.6343,-28.5708],[28.8279,-28.7595],[28.859,-28.773]]]}},{"type":"Feature","id":"label-ZAF-1206","properties":{"kind":"division-label","code":"ZAF-1206","countryCode":"ZAF","name":"Free State","localName":"Free State","labelEnglish":"Free State","labelLocal":"Free State","labelBoth":"Free State","type":"Province","iso":"ZA-FS","qid":"Q160284"},"geometry":{"type":"Point","coordinates":[26.4914,-28.5815]}},{"type":"Feature","id":"ZAF-1926","properties":{"kind":"division","code":"ZAF-1926","countryCode":"ZAF","name":"Eastern Cape","localName":"Eastern Cape","labelEnglish":"Eastern Cape","labelLocal":"Eastern Cape","labelBoth":"Eastern Cape","type":"Province","iso":"ZA-EC","qid":"Q130840"},"geometry":{"type":"Polygon","coordinates":[[[29.0158,-29.9786],[28.3556,-30.1732],[28.216,-30.2674],[28.0788,-30.6588],[27.7436,-30.6003],[27.5334,-30.3934],[27.3777,-30.3123],[27.2978,-30.4882],[26.8521,-30.6769],[26.5346,-30.6511],[26.1464,-30.4851],[25.7254,-30.6806],[25.4675,-30.6131],[25.522,-30.8019],[25.3501,-31.2277],[25.2151,-31.2016],[24.5587,-31.4018],[24.4996,-31.7048],[24.147,-31.7899],[24.0901,-32.1248],[23.7571,-32.1959],[23.2425,-32.4245],[23.3704,-32.7682],[23.0007,-32.8892],[22.7495,-33.4016],[23.2616,-33.3989],[23.6182,-33.644],[23.3665,-33.7807],[23.6355,-33.9797],[24.8579,-34.1869],[24.9529,-33.9851],[25.7044,-34.0207],[25.679,-33.7952],[25.9553,-33.7109],[26.5151,-33.7553],[27.1431,-33.4794],[27.8971,-33.04],[28.8704,-32.287],[29.3919,-31.7355],[30.0099,-31.2922],[30.196,-31.0779],[29.7939,-30.7088],[29.1176,-30.5812],[29.2977,-30.3178],[29.0158,-29.9786]]]}},{"type":"Feature","id":"label-ZAF-1926","properties":{"kind":"division-label","code":"ZAF-1926","countryCode":"ZAF","name":"Eastern Cape","localName":"Eastern Cape","labelEnglish":"Eastern Cape","labelLocal":"Eastern Cape","labelBoth":"Eastern Cape","type":"Province","iso":"ZA-EC","qid":"Q130840"},"geometry":{"type":"Point","coordinates":[26.6417,-32.0622]}},{"type":"Feature","id":"ZAF-1210","properties":{"kind":"division","code":"ZAF-1210","countryCode":"ZAF","name":"Limpopo","localName":"Limpopo","labelEnglish":"Limpopo","labelLocal":"Limpopo","labelBoth":"Limpopo","type":"Province","iso":"ZA-LP","qid":"Q134907"},"geometry":{"type":"Polygon","coordinates":[[[29.3501,-22.1867],[29.0478,-22.2203],[28.9125,-22.4537],[28.3386,-22.5846],[27.7536,-23.2208],[27.1274,-23.525],[26.9645,-23.7471],[26.8497,-24.2481],[26.404,-24.6328],[26.4554,-24.8123],[26.768,-24.8662],[27.023,-24.724],[27.1825,-24.9909],[27.5262,-25.1042],[27.6676,-24.9708],[28.0982,-25.0094],[28.2937,-25.3171],[28.6057,-25.1579],[28.3545,-25.1886],[28.917,-24.9036],[29.1432,-25.395],[29.77,-25.395],[30.0042,-25.3322],[30.1836,-24.8553],[30.4921,-24.9476],[30.7199,-24.7042],[30.7392,-24.4574],[30.9752,-24.5816],[31.2595,-24.5081],[31.0592,-24.3213],[31.203,-24.0353],[31.7123,-24.05],[31.8565,-23.963],[31.5215,-23.4156],[31.5363,-23.157],[31.2889,-22.3973],[31.097,-22.3349],[30.8379,-22.2823],[30.3008,-22.337],[29.7589,-22.1309],[29.3501,-22.1867]]]}},{"type":"Feature","id":"label-ZAF-1210","properties":{"kind":"division-label","code":"ZAF-1210","countryCode":"ZAF","name":"Limpopo","localName":"Limpopo","labelEnglish":"Limpopo","labelLocal":"Limpopo","labelBoth":"Limpopo","type":"Province","iso":"ZA-LP","qid":"Q134907"},"geometry":{"type":"Point","coordinates":[29.1301,-23.5859]}},{"type":"Feature","id":"ZAF-1201","properties":{"kind":"division","code":"ZAF-1201","countryCode":"ZAF","name":"North West","localName":"North West","labelEnglish":"North West","labelLocal":"North West","labelBoth":"North West","type":"Province","iso":"ZA-NW","qid":"Q165956"},"geometry":{"type":"Polygon","coordinates":[[[26.404,-24.6328],[26.1659,-24.6608],[25.8684,-24.7482],[25.6528,-25.4633],[25.3865,-25.7435],[24.7986,-25.8292],[24.5009,-25.7578],[23.9248,-25.6292],[23.4593,-25.2822],[23.007,-25.3108],[22.8446,-25.4811],[22.6209,-26.1115],[22.8151,-26.4477],[23.0995,-25.9868],[23.3741,-26.0158],[23.2222,-26.2682],[23.2707,-26.4795],[23.5809,-26.6153],[23.4937,-26.7366],[24.0235,-27.0161],[23.8943,-27.2577],[24.0849,-27.3589],[24.1124,-27.7427],[24.4075,-27.6844],[24.3626,-27.8989],[24.5197,-28.0996],[24.6713,-27.6717],[25.0267,-27.7077],[24.8245,-27.909],[25.0135,-28.0682],[25.4214,-27.7104],[25.7987,-27.5807],[26.0141,-27.7032],[26.4111,-27.1768],[26.9327,-26.8649],[27.4803,-26.874],[27.5825,-26.7376],[27.1573,-26.5251],[27.4593,-25.8853],[27.9428,-25.8068],[27.9493,-25.4103],[28.2937,-25.3171],[28.0982,-25.0094],[27.6676,-24.9708],[27.5262,-25.1042],[27.1825,-24.9909],[27.023,-24.724],[26.768,-24.8662],[26.4554,-24.8123],[26.404,-24.6328]]]}},{"type":"Feature","id":"label-ZAF-1201","properties":{"kind":"division-label","code":"ZAF-1201","countryCode":"ZAF","name":"North West","localName":"North West","labelEnglish":"North West","labelLocal":"North West","labelBoth":"North West","type":"Province","iso":"ZA-NW","qid":"Q165956"},"geometry":{"type":"Point","coordinates":[25.7403,-26.3999]}},{"type":"Feature","id":"ZAF-1209","properties":{"kind":"division","code":"ZAF-1209","countryCode":"ZAF","name":"Mpumalanga","localName":"Mpumalanga","labelEnglish":"Mpumalanga","labelLocal":"Mpumalanga","labelBoth":"Mpumalanga","type":"Province","iso":"ZA-MP","qid":"Q132410"},"geometry":{"type":"Polygon","coordinates":[[[31.9263,-24.2767],[31.8565,-23.963],[31.7123,-24.05],[31.203,-24.0353],[31.0592,-24.3213],[31.2595,-24.5081],[30.9752,-24.5816],[30.7392,-24.4574],[30.7199,-24.7042],[30.4921,-24.9476],[30.1836,-24.8553],[30.0042,-25.3322],[29.77,-25.395],[29.1432,-25.395],[28.917,-24.9036],[28.3545,-25.1886],[28.6057,-25.1579],[28.6698,-25.6639],[29.089,-25.5025],[28.8701,-26.0049],[28.6343,-25.973],[28.5325,-26.2211],[28.8637,-26.4006],[28.5293,-26.5048],[28.2558,-26.8936],[28.5499,-27.0221],[28.9586,-26.995],[29.4423,-27.2532],[29.6153,-27.5018],[29.7712,-27.4523],[30.4225,-27.2752],[30.9801,-27.3547],[31.2447,-27.2326],[30.9761,-27.035],[30.8853,-26.7856],[30.7829,-26.4724],[30.8973,-26.2917],[31.1198,-25.91],[31.4269,-25.7436],[31.747,-25.9308],[31.9492,-25.9581],[31.9916,-25.6502],[31.9866,-24.4231],[31.9263,-24.2767]]]}},{"type":"Feature","id":"label-ZAF-1209","properties":{"kind":"division-label","code":"ZAF-1209","countryCode":"ZAF","name":"Mpumalanga","localName":"Mpumalanga","labelEnglish":"Mpumalanga","labelLocal":"Mpumalanga","labelBoth":"Mpumalanga","type":"Province","iso":"ZA-MP","qid":"Q132410"},"geometry":{"type":"Point","coordinates":[30.1421,-25.9893]}},{"type":"Feature","id":"ZAF-1189","properties":{"kind":"division","code":"ZAF-1189","countryCode":"ZAF","name":"Western Cape","localName":"Western Cape","labelEnglish":"Western Cape","labelLocal":"Western Cape","labelBoth":"Western Cape","type":"Province","iso":"ZA-WC","qid":"Q127167"},"geometry":{"type":"Polygon","coordinates":[[[23.6355,-33.9797],[23.3665,-33.7807],[23.6182,-33.644],[23.2616,-33.3989],[22.7495,-33.4016],[23.0007,-32.8892],[23.3704,-32.7682],[23.2425,-32.4245],[23.7571,-32.1959],[24.0901,-32.1248],[24.147,-31.7899],[23.4009,-31.6813],[23.0698,-31.9765],[22.2915,-31.5702],[22.1012,-32.0574],[21.8527,-32.243],[21.5534,-32.2415],[20.8651,-32.6769],[20.7051,-32.9181],[20.4212,-32.9369],[20.2093,-32.7643],[20.0823,-32.4117],[20.1392,-32.1896],[19.6098,-32.4575],[19.5336,-32.6376],[19.4251,-32.31],[19.4782,-32.087],[19.0286,-31.8932],[19.0667,-31.5772],[18.905,-31.0095],[18.9387,-30.724],[18.5608,-30.4707],[18.2472,-30.7828],[18.024,-30.7751],[17.7671,-31.1558],[18.1729,-31.6633],[18.3494,-32.2603],[18.2731,-32.6476],[17.8439,-32.8146],[18.4888,-33.863],[18.3163,-34.1575],[18.4701,-34.3474],[18.555,-34.0738],[18.8582,-34.1503],[18.8083,-34.3647],[19.2777,-34.4065],[19.6424,-34.7721],[19.9535,-34.8087],[20.5244,-34.4543],[20.9134,-34.3604],[21.7026,-34.3906],[22.564,-33.9972],[23.4084,-34.11],[23.6355,-33.9797]]]}},{"type":"Feature","id":"label-ZAF-1189","properties":{"kind":"division-label","code":"ZAF-1189","countryCode":"ZAF","name":"Western Cape","localName":"Western Cape","labelEnglish":"Western Cape","labelLocal":"Western Cape","labelBoth":"Western Cape","type":"Province","iso":"ZA-WC","qid":"Q127167"},"geometry":{"type":"Point","coordinates":[20.9745,-33.5035]}},{"type":"Feature","id":"ZAF-1208","properties":{"kind":"division","code":"ZAF-1208","countryCode":"ZAF","name":"Gauteng","localName":"Gauteng","labelEnglish":"Gauteng","labelLocal":"Gauteng","labelBoth":"Gauteng","type":"Province","iso":"ZA-GT","qid":"Q133083"},"geometry":{"type":"Polygon","coordinates":[[[27.5825,-26.7376],[27.9697,-26.6713],[28.2558,-26.8936],[28.5293,-26.5048],[28.8637,-26.4006],[28.5325,-26.2211],[28.6343,-25.973],[28.8701,-26.0049],[29.089,-25.5025],[28.6698,-25.6639],[28.6057,-25.1579],[28.2937,-25.3171],[27.9493,-25.4103],[27.9428,-25.8068],[27.4593,-25.8853],[27.1573,-26.5251],[27.5825,-26.7376]]]}},{"type":"Feature","id":"label-ZAF-1208","properties":{"kind":"division-label","code":"ZAF-1208","countryCode":"ZAF","name":"Gauteng","localName":"Gauteng","labelEnglish":"Gauteng","labelLocal":"Gauteng","labelBoth":"Gauteng","type":"Province","iso":"ZA-GT","qid":"Q133083"},"geometry":{"type":"Point","coordinates":[28.2074,-26.1682]}}]}