{"type":"FeatureCollection","features":[{"type":"Feature","id":"ZMB-5511","properties":{"kind":"division","code":"ZMB-5511","countryCode":"ZMB","name":"Muchinga","localName":"Muchinga","labelEnglish":"Muchinga","labelLocal":"Muchinga","labelBoth":"Muchinga","type":"Province","iso":"ZM-10","qid":"Q6714242"},"geometry":{"type":"Polygon","coordinates":[[[32.9209,-9.4079],[32.2314,-9.1338],[32.3293,-9.4621],[32.0192,-9.4202],[31.5749,-9.5711],[31.3654,-9.5041],[31.1139,-9.7555],[31.3402,-10.183],[31.5498,-10.3088],[31.5528,-10.558],[31.335,-10.6125],[31.1008,-10.9554],[31.001,-10.9201],[30.4558,-11.5017],[30.2451,-11.8258],[29.7895,-11.899],[29.7994,-12.1558],[29.7996,-12.159],[29.9973,-12.0005],[30.1618,-12.2023],[30.5052,-12.3146],[30.5645,-12.574],[30.763,-12.6681],[30.7502,-12.8715],[31.1208,-13.0407],[31.3496,-13.0102],[31.4291,-13.4357],[31.9132,-13.0308],[32.0678,-12.7846],[32.2913,-12.2012],[32.5421,-12.0679],[33.0882,-11.9503],[33.305,-11.644],[33.2303,-11.4166],[33.3909,-11.1648],[33.291,-10.9751],[33.6738,-10.573],[33.5333,-10.2312],[33.3175,-10.0821],[33.3656,-9.8988],[33.1754,-9.6023],[32.9747,-9.6013],[32.9209,-9.4079]]]}},{"type":"Feature","id":"label-ZMB-5511","properties":{"kind":"division-label","code":"ZMB-5511","countryCode":"ZMB","name":"Muchinga","localName":"Muchinga","labelEnglish":"Muchinga","labelLocal":"Muchinga","labelBoth":"Muchinga","type":"Province","iso":"ZM-10","qid":"Q6714242"},"geometry":{"type":"Point","coordinates":[32.0234,-11.3701]}},{"type":"Feature","id":"ZMB-518","properties":{"kind":"division","code":"ZMB-518","countryCode":"ZMB","name":"Eastern","localName":"Eastern","labelEnglish":"Eastern","labelLocal":"Eastern","labelBoth":"Eastern","type":"Province","iso":"ZM-03","qid":"Q823810"},"geometry":{"type":"Polygon","coordinates":[[[33.305,-11.644],[33.0882,-11.9503],[32.5421,-12.0679],[32.2913,-12.2012],[32.0678,-12.7846],[31.9132,-13.0308],[31.4291,-13.4357],[31.1352,-13.6075],[30.8731,-13.9297],[30.0977,-13.9319],[30.2915,-14.2068],[30.0346,-14.4424],[30.0512,-14.6712],[30.2144,-14.982],[31.6584,-14.5196],[33.2027,-14.0139],[32.9998,-14.0505],[32.6751,-13.6281],[32.9055,-13.3514],[32.9951,-13.1909],[32.9581,-12.7252],[33.5139,-12.3743],[33.2527,-12.1395],[33.305,-11.644]]]}},{"type":"Feature","id":"label-ZMB-518","properties":{"kind":"division-label","code":"ZMB-518","countryCode":"ZMB","name":"Eastern","localName":"Eastern","labelEnglish":"Eastern","labelLocal":"Eastern","labelBoth":"Eastern","type":"Province","iso":"ZM-03","qid":"Q823810"},"geometry":{"type":"Point","coordinates":[31.8341,-13.7617]}},{"type":"Feature","id":"ZMB-515","properties":{"kind":"division","code":"ZMB-515","countryCode":"ZMB","name":"Northern","localName":"Northern","labelEnglish":"Northern","labelLocal":"Northern","labelBoth":"Northern","type":"Province","iso":"ZM-05","qid":"Q778738"},"geometry":{"type":"Polygon","coordinates":[[[30.7521,-8.1941],[29.5758,-8.3727],[29.3372,-8.6441],[29.1201,-9.1071],[29.3309,-9.2132],[29.3582,-9.5238],[29.8073,-9.715],[29.9376,-10.0725],[29.4382,-10.3847],[29.3573,-10.6304],[29.0859,-10.9535],[29.3901,-11.106],[29.3378,-10.908],[29.6412,-10.739],[29.8926,-11.0193],[29.8347,-11.3953],[30.138,-11.2544],[30.4558,-11.5017],[31.001,-10.9201],[31.1008,-10.9554],[31.335,-10.6125],[31.5528,-10.558],[31.5498,-10.3088],[31.3402,-10.183],[31.1139,-9.7555],[31.3654,-9.5041],[31.5749,-9.5711],[32.0192,-9.4202],[32.3293,-9.4621],[32.2314,-9.1338],[32.1456,-9.0703],[31.6727,-8.913],[31.3533,-8.5872],[30.9595,-8.5505],[30.7521,-8.1941]]]}},{"type":"Feature","id":"label-ZMB-515","properties":{"kind":"division-label","code":"ZMB-515","countryCode":"ZMB","name":"Northern","localName":"Northern","labelEnglish":"Northern","labelLocal":"Northern","labelBoth":"Northern","type":"Province","iso":"ZM-05","qid":"Q778738"},"geometry":{"type":"Point","coordinates":[30.7539,-9.79906]}},{"type":"Feature","id":"ZMB-520","properties":{"kind":"division","code":"ZMB-520","countryCode":"ZMB","name":"Lusaka","localName":"Lusaka","labelEnglish":"Lusaka","labelLocal":"Lusaka","labelBoth":"Lusaka","type":"Province","iso":"ZM-09","qid":"Q819998"},"geometry":{"type":"Polygon","coordinates":[[[28.9469,-15.9572],[29.407,-15.7142],[29.8373,-15.6148],[30.2962,-15.639],[30.3963,-15.636],[30.2144,-14.982],[30.0512,-14.6712],[29.9092,-14.6534],[28.8231,-15.1494],[28.4043,-15.1457],[28.2908,-15.3417],[27.8625,-15.2606],[27.9056,-15.5317],[27.7568,-15.6489],[28.2461,-15.817],[28.3911,-15.7844],[28.9469,-15.9572]]]}},{"type":"Feature","id":"label-ZMB-520","properties":{"kind":"division-label","code":"ZMB-520","countryCode":"ZMB","name":"Lusaka","localName":"Lusaka","labelEnglish":"Lusaka","labelLocal":"Lusaka","labelBoth":"Lusaka","type":"Province","iso":"ZM-09","qid":"Q819998"},"geometry":{"type":"Point","coordinates":[29.0846,-15.4426]}},{"type":"Feature","id":"ZMB-522","properties":{"kind":"division","code":"ZMB-522","countryCode":"ZMB","name":"Southern","localName":"Southern","labelEnglish":"Southern","labelLocal":"Southern","labelBoth":"Southern","type":"Province","iso":"ZM-07","qid":"Q738382"},"geometry":{"type":"Polygon","coordinates":[[[28.9469,-15.9572],[28.3911,-15.7844],[28.2461,-15.817],[27.7568,-15.6489],[27.5341,-15.4874],[27.2796,-15.7145],[27.2277,-15.4971],[26.7463,-15.3361],[25.3248,-15.2989],[25.2279,-15.5834],[25.3765,-15.7284],[25.4261,-16.0837],[24.9997,-16.5489],[25.2514,-16.7057],[24.97,-17.56],[25.2598,-17.7941],[25.6814,-17.8115],[25.9785,-17.999],[26.203,-17.8872],[26.7119,-18.0658],[27.0485,-17.9443],[27.5773,-17.3631],[27.7773,-17.0012],[28.023,-16.8654],[28.7329,-16.5581],[28.8572,-16.3882],[28.9469,-15.9572]]]}},{"type":"Feature","id":"label-ZMB-522","properties":{"kind":"division-label","code":"ZMB-522","countryCode":"ZMB","name":"Southern","localName":"Southern","labelEnglish":"Southern","labelLocal":"Southern","labelBoth":"Southern","type":"Province","iso":"ZM-07","qid":"Q738382"},"geometry":{"type":"Point","coordinates":[26.9583,-16.6906]}},{"type":"Feature","id":"ZMB-523","properties":{"kind":"division","code":"ZMB-523","countryCode":"ZMB","name":"Western","localName":"Western","labelEnglish":"Western","labelLocal":"Western","labelBoth":"Western","type":"Province","iso":"ZM-01","qid":"Q748486"},"geometry":{"type":"Polygon","coordinates":[[[21.9838,-16.1659],[22.1081,-16.5439],[22.3337,-16.6737],[22.7559,-17.1549],[23.3817,-17.6411],[24.2205,-17.4795],[24.97,-17.56],[25.2514,-16.7057],[24.9997,-16.5489],[25.4261,-16.0837],[25.3765,-15.7284],[25.2279,-15.5834],[25.3248,-15.2989],[25.5484,-14.5852],[25.0402,-14.636],[24.964,-14.4806],[25.0883,-14.2479],[24.7539,-14.1245],[24.6613,-13.9585],[24.3011,-13.8924],[24.0117,-13.9972],[23.6835,-13.9904],[23.2646,-14.1685],[22.8342,-13.8727],[22.7217,-13.9886],[22.233,-13.6814],[21.9804,-13.6948],[21.9838,-16.1659]]]}},{"type":"Feature","id":"label-ZMB-523","properties":{"kind":"division-label","code":"ZMB-523","countryCode":"ZMB","name":"Western","localName":"Western","labelEnglish":"Western","labelLocal":"Western","labelBoth":"Western","type":"Province","iso":"ZM-01","qid":"Q748486"},"geometry":{"type":"Point","coordinates":[23.7642,-15.7815]}},{"type":"Feature","id":"ZMB-521","properties":{"kind":"division","code":"ZMB-521","countryCode":"ZMB","name":"Northwestern","localName":"Northwestern","labelEnglish":"Northwestern","labelLocal":"Northwestern","labelBoth":"Northwestern","type":"Province","iso":"ZM-06","qid":"Q846320"},"geometry":{"type":"Polygon","coordinates":[[[21.9804,-13.6948],[22.233,-13.6814],[22.7217,-13.9886],[22.8342,-13.8727],[23.2646,-14.1685],[23.6835,-13.9904],[24.0117,-13.9972],[24.3011,-13.8924],[24.6613,-13.9585],[24.7539,-14.1245],[25.0883,-14.2479],[24.964,-14.4806],[25.0402,-14.636],[25.5484,-14.5852],[26.1737,-14.6211],[26.3248,-14.7166],[26.5883,-14.4428],[26.9277,-14.4099],[26.8526,-13.7166],[26.789,-13.6437],[27.0942,-13.0008],[26.8797,-12.8864],[26.8862,-12.6376],[27.0768,-12.516],[27.0515,-12.3342],[27.5898,-12.243],[27.4207,-11.922],[27.2342,-11.8091],[27.1801,-11.5696],[27.0103,-11.6098],[26.9673,-11.8704],[26.6971,-12.0175],[26.4146,-11.9118],[25.9941,-11.9048],[25.352,-11.6461],[25.2788,-11.1999],[24.7125,-11.326],[24.4465,-11.4636],[24.2855,-11.3812],[24.3818,-11.1206],[23.9675,-10.8723],[24.0611,-11.395],[23.9599,-11.6172],[23.9596,-12.1967],[24.0308,-12.3851],[23.8657,-12.7897],[24.0006,-13.0015],[21.9799,-13.0015],[21.9804,-13.6948]]]}},{"type":"Feature","id":"label-ZMB-521","properties":{"kind":"division-label","code":"ZMB-521","countryCode":"ZMB","name":"Northwestern","localName":"Northwestern","labelEnglish":"Northwestern","labelLocal":"Northwestern","labelBoth":"Northwestern","type":"Province","iso":"ZM-06","qid":"Q846320"},"geometry":{"type":"Point","coordinates":[24.7847,-12.7303]}},{"type":"Feature","id":"ZMB-514","properties":{"kind":"division","code":"ZMB-514","countryCode":"ZMB","name":"Luapula","localName":"Luapula","labelEnglish":"Luapula","labelLocal":"Luapula","labelBoth":"Luapula","type":"Province","iso":"ZM-04","qid":"Q386667"},"geometry":{"type":"Polygon","coordinates":[[[29.5758,-8.3727],[28.9153,-8.4729],[28.8931,-8.7658],[28.3723,-9.2351],[28.516,-9.3783],[28.6781,-9.8038],[28.6349,-10.5195],[28.4396,-11.3482],[28.357,-11.4469],[28.5079,-11.8728],[28.9447,-12.2061],[29.0304,-12.3762],[29.4997,-12.4531],[29.4743,-12.2427],[29.7994,-12.1558],[29.7895,-11.899],[30.2451,-11.8258],[30.4558,-11.5017],[30.138,-11.2544],[29.8347,-11.3953],[29.8926,-11.0193],[29.6412,-10.739],[29.3378,-10.908],[29.3901,-11.106],[29.0859,-10.9535],[29.3573,-10.6304],[29.4382,-10.3847],[29.9376,-10.0725],[29.8073,-9.715],[29.3582,-9.5238],[29.3309,-9.2132],[29.1201,-9.1071],[29.3372,-8.6441],[29.5758,-8.3727]]]}},{"type":"Feature","id":"label-ZMB-514","properties":{"kind":"division-label","code":"ZMB-514","countryCode":"ZMB","name":"Luapula","localName":"Luapula","labelEnglish":"Luapula","labelLocal":"Luapula","labelBoth":"Luapula","type":"Province","iso":"ZM-04","qid":"Q386667"},"geometry":{"type":"Point","coordinates":[29.4045,-11.6471]}},{"type":"Feature","id":"ZMB-517","properties":{"kind":"division","code":"ZMB-517","countryCode":"ZMB","name":"Copperbelt","localName":"Copperbelt","labelEnglish":"Copperbelt","labelLocal":"Copperbelt","labelBoth":"Copperbelt","type":"Province","iso":"ZM-08","qid":"Q1131523"},"geometry":{"type":"Polygon","coordinates":[[[27.5898,-12.243],[27.0515,-12.3342],[27.0768,-12.516],[26.8862,-12.6376],[26.8797,-12.8864],[27.0942,-13.0008],[26.789,-13.6437],[26.8526,-13.7166],[27.3471,-13.7403],[27.4168,-13.9196],[27.6367,-13.6477],[27.9524,-13.9211],[28.6748,-13.8506],[28.6669,-13.7401],[29.0654,-13.3887],[28.3397,-12.4505],[27.5898,-12.243]]]}},{"type":"Feature","id":"label-ZMB-517","properties":{"kind":"division-label","code":"ZMB-517","countryCode":"ZMB","name":"Copperbelt","localName":"Copperbelt","labelEnglish":"Copperbelt","labelLocal":"Copperbelt","labelBoth":"Copperbelt","type":"Province","iso":"ZM-08","qid":"Q1131523"},"geometry":{"type":"Point","coordinates":[27.9272,-13.1044]}},{"type":"Feature","id":"ZMB-516","properties":{"kind":"division","code":"ZMB-516","countryCode":"ZMB","name":"Central","localName":"Central","labelEnglish":"Central","labelLocal":"Central","labelBoth":"Central","type":"Province","iso":"ZM-02","qid":"Q190718"},"geometry":{"type":"Polygon","coordinates":[[[29.7996,-12.159],[29.7976,-13.4242],[29.6261,-13.4298],[29.5744,-13.2254],[29.1689,-13.4339],[29.0654,-13.3887],[28.6669,-13.7401],[28.6748,-13.8506],[27.9524,-13.9211],[27.6367,-13.6477],[27.4168,-13.9196],[27.3471,-13.7403],[26.8526,-13.7166],[26.9277,-14.4099],[26.5883,-14.4428],[26.3248,-14.7166],[26.1737,-14.6211],[25.5484,-14.5852],[25.3248,-15.2989],[26.7463,-15.3361],[27.2277,-15.4971],[27.2796,-15.7145],[27.5341,-15.4874],[27.7568,-15.6489],[27.9056,-15.5317],[27.8625,-15.2606],[28.2908,-15.3417],[28.4043,-15.1457],[28.8231,-15.1494],[29.9092,-14.6534],[30.0512,-14.6712],[30.0346,-14.4424],[30.2915,-14.2068],[30.0977,-13.9319],[30.8731,-13.9297],[31.1352,-13.6075],[31.4291,-13.4357],[31.3496,-13.0102],[31.1208,-13.0407],[30.7502,-12.8715],[30.763,-12.6681],[30.5645,-12.574],[30.5052,-12.3146],[30.1618,-12.2023],[29.9973,-12.0005],[29.7996,-12.159]]]}},{"type":"Feature","id":"label-ZMB-516","properties":{"kind":"division-label","code":"ZMB-516","countryCode":"ZMB","name":"Central","localName":"Central","labelEnglish":"Central","labelLocal":"Central","labelBoth":"Central","type":"Province","iso":"ZM-02","qid":"Q190718"},"geometry":{"type":"Point","coordinates":[28.3755,-14.5199]}}]}