{"type":"FeatureCollection","features":[{"type":"Feature","id":"ZWE-526","properties":{"kind":"division","code":"ZWE-526","countryCode":"ZWE","name":"Matabeleland North","localName":"Matabeleland North","labelEnglish":"Matabeleland North","labelLocal":"Matabeleland North","labelBoth":"Matabeleland North","type":"Province","iso":"ZW-MN","qid":"Q456562"},"geometry":{"type":"Polygon","coordinates":[[[25.9674,-18.9999],[26.1303,-19.5011],[26.6772,-19.8868],[26.9384,-19.8102],[27.5261,-19.8605],[27.8424,-20.1806],[28.1423,-20.0838],[28.339,-20.3356],[28.4997,-20.2298],[28.4312,-20.0312],[28.5821,-20.0408],[28.5999,-20.2367],[28.6726,-20.2762],[29.085,-19.8118],[29.2239,-19.4874],[28.9982,-19.1837],[28.8812,-18.7474],[29.1072,-18.5652],[28.0566,-18.5613],[28.0092,-18.2223],[28.0872,-17.7545],[28.2476,-17.4096],[28.0426,-17.0846],[28.023,-16.8654],[27.7773,-17.0012],[27.5773,-17.3631],[27.0485,-17.9443],[26.7119,-18.0658],[26.203,-17.8872],[25.9785,-17.999],[25.6814,-17.8115],[25.2598,-17.7941],[25.2261,-17.9319],[25.5085,-18.3991],[25.7619,-18.6303],[25.9674,-18.9999]]]}},{"type":"Feature","id":"label-ZWE-526","properties":{"kind":"division-label","code":"ZWE-526","countryCode":"ZWE","name":"Matabeleland North","localName":"Matabeleland North","labelEnglish":"Matabeleland North","labelLocal":"Matabeleland North","labelBoth":"Matabeleland North","type":"Province","iso":"ZW-MN","qid":"Q456562"},"geometry":{"type":"Point","coordinates":[27.2215,-18.7582]}},{"type":"Feature","id":"ZWE-530","properties":{"kind":"division","code":"ZWE-530","countryCode":"ZWE","name":"Matabeleland South","localName":"Matabeleland South","labelEnglish":"Matabeleland South","labelLocal":"Matabeleland South","labelBoth":"Matabeleland South","type":"Province","iso":"ZW-MS","qid":"Q498355"},"geometry":{"type":"Polygon","coordinates":[[[26.6772,-19.8868],[27.2149,-20.1105],[27.2684,-20.4957],[27.6981,-20.5091],[27.6748,-21.0901],[27.9904,-21.5519],[28.6297,-21.6513],[29.0387,-21.7979],[29.0708,-22.051],[29.3501,-22.1867],[29.7589,-22.1309],[30.3008,-22.337],[30.8379,-22.2823],[31.097,-22.3349],[30.628,-21.7477],[30.2563,-21.5923],[29.9607,-21.3583],[29.728,-21.0242],[29.6186,-20.6675],[29.871,-20.0608],[29.4399,-19.8793],[29.2239,-19.4874],[29.085,-19.8118],[28.6726,-20.2762],[28.5999,-20.2367],[28.4997,-20.2298],[28.339,-20.3356],[28.1423,-20.0838],[27.8424,-20.1806],[27.5261,-19.8605],[26.9384,-19.8102],[26.6772,-19.8868]]]}},{"type":"Feature","id":"label-ZWE-530","properties":{"kind":"division-label","code":"ZWE-530","countryCode":"ZWE","name":"Matabeleland South","localName":"Matabeleland South","labelEnglish":"Matabeleland South","labelLocal":"Matabeleland South","labelBoth":"Matabeleland South","type":"Province","iso":"ZW-MS","qid":"Q498355"},"geometry":{"type":"Point","coordinates":[28.8871,-20.8913]}},{"type":"Feature","id":"ZWE-532","properties":{"kind":"division","code":"ZWE-532","countryCode":"ZWE","name":"Masvingo","localName":"Masvingo","labelEnglish":"Masvingo","labelLocal":"Masvingo","labelBoth":"Masvingo","type":"Province","iso":"ZW-MV","qid":"Q498351"},"geometry":{"type":"Polygon","coordinates":[[[31.097,-22.3349],[31.2889,-22.3973],[31.4338,-22.302],[32.4085,-21.2903],[32.135,-20.9198],[32.2485,-20.672],[32.3283,-20.0051],[31.9395,-19.7973],[31.7007,-19.4991],[31.1987,-19.2484],[30.8593,-19.2724],[30.7093,-19.3935],[30.6866,-19.8629],[30.1784,-20.037],[30.153,-20.2019],[30.4103,-20.4723],[30.4321,-20.9513],[30.1576,-21.0312],[29.9886,-20.9172],[29.728,-21.0242],[29.9607,-21.3583],[30.2563,-21.5923],[30.628,-21.7477],[31.097,-22.3349]]]}},{"type":"Feature","id":"label-ZWE-532","properties":{"kind":"division-label","code":"ZWE-532","countryCode":"ZWE","name":"Masvingo","localName":"Masvingo","labelEnglish":"Masvingo","labelLocal":"Masvingo","labelBoth":"Masvingo","type":"Province","iso":"ZW-MV","qid":"Q498351"},"geometry":{"type":"Point","coordinates":[31.0875,-20.7844]}},{"type":"Feature","id":"ZWE-533","properties":{"kind":"division","code":"ZWE-533","countryCode":"ZWE","name":"Mashonaland West","localName":"Mashonaland West","labelEnglish":"Mashonaland West","labelLocal":"Mashonaland West","labelBoth":"Mashonaland West","type":"Province","iso":"ZW-MW","qid":"Q457189"},"geometry":{"type":"Polygon","coordinates":[[[30.2962,-15.639],[29.8373,-15.6148],[29.407,-15.7142],[28.9469,-15.9572],[28.8572,-16.3882],[28.7329,-16.5581],[28.023,-16.8654],[28.0426,-17.0846],[28.2476,-17.4096],[28.5016,-17.395],[28.9322,-17.1423],[29.4024,-17.4854],[29.2001,-18.0079],[29.3147,-18.2128],[29.5909,-18.3841],[29.581,-18.5922],[30.1806,-18.7516],[30.3631,-18.8615],[30.656,-18.7159],[30.7963,-18.3849],[30.7026,-18.2331],[30.879,-17.949],[30.9821,-17.7217],[30.6354,-17.5631],[30.7349,-17.0797],[30.5564,-17.057],[30.4355,-16.4101],[30.2923,-16.2693],[30.0509,-16.3895],[30.1463,-16.1661],[30.0506,-15.9952],[30.3117,-15.7768],[30.2962,-15.639]]]}},{"type":"Feature","id":"label-ZWE-533","properties":{"kind":"division-label","code":"ZWE-533","countryCode":"ZWE","name":"Mashonaland West","localName":"Mashonaland West","labelEnglish":"Mashonaland West","labelLocal":"Mashonaland West","labelBoth":"Mashonaland West","type":"Province","iso":"ZW-MW","qid":"Q457189"},"geometry":{"type":"Point","coordinates":[29.5025,-17.0176]}},{"type":"Feature","id":"ZWE-524","properties":{"kind":"division","code":"ZWE-524","countryCode":"ZWE","name":"Mashonaland Central","localName":"Mashonaland Central","labelEnglish":"Mashonaland Central","labelLocal":"Mashonaland Central","labelBoth":"Mashonaland Central","type":"Province","iso":"ZW-MC","qid":"Q596156"},"geometry":{"type":"Polygon","coordinates":[[[30.2962,-15.639],[30.3117,-15.7768],[30.0506,-15.9952],[30.1463,-16.1661],[30.0509,-16.3895],[30.2923,-16.2693],[30.4355,-16.4101],[30.5564,-17.057],[30.7349,-17.0797],[30.6354,-17.5631],[30.9821,-17.7217],[31.0887,-17.6661],[31.1511,-17.4683],[31.3739,-17.6265],[31.7547,-17.2814],[32.042,-16.8152],[32.731,-16.7087],[32.2905,-16.4518],[31.9103,-16.4289],[31.6861,-16.2072],[31.26,-16.0235],[30.4026,-16.0012],[30.3963,-15.636],[30.2962,-15.639]]]}},{"type":"Feature","id":"label-ZWE-524","properties":{"kind":"division-label","code":"ZWE-524","countryCode":"ZWE","name":"Mashonaland Central","localName":"Mashonaland Central","labelEnglish":"Mashonaland Central","labelLocal":"Mashonaland Central","labelBoth":"Mashonaland Central","type":"Province","iso":"ZW-MC","qid":"Q596156"},"geometry":{"type":"Point","coordinates":[31.3922,-16.8822]}},{"type":"Feature","id":"ZWE-528","properties":{"kind":"division","code":"ZWE-528","countryCode":"ZWE","name":"Mashonaland East","localName":"Mashonaland East","labelEnglish":"Mashonaland East","labelLocal":"Mashonaland East","labelBoth":"Mashonaland East","type":"Province","iso":"ZW-ME","qid":"Q465853"},"geometry":{"type":"Polygon","coordinates":[[[32.731,-16.7087],[32.042,-16.8152],[31.7547,-17.2814],[31.3739,-17.6265],[31.1511,-17.4683],[31.0887,-17.6661],[31.2221,-17.8518],[31.0633,-18.0542],[30.879,-17.949],[30.7026,-18.2331],[30.7963,-18.3849],[30.656,-18.7159],[30.3631,-18.8615],[30.6891,-18.9838],[30.8593,-19.2724],[31.1987,-19.2484],[31.6057,-19.0231],[31.9852,-19.1322],[31.9925,-18.9971],[31.7435,-18.5091],[32.1563,-17.8616],[32.5715,-17.6104],[32.9691,-17.2661],[32.8288,-16.9351],[32.9685,-16.6816],[32.731,-16.7087]]]}},{"type":"Feature","id":"label-ZWE-528","properties":{"kind":"division-label","code":"ZWE-528","countryCode":"ZWE","name":"Mashonaland East","localName":"Mashonaland East","labelEnglish":"Mashonaland East","labelLocal":"Mashonaland East","labelBoth":"Mashonaland East","type":"Province","iso":"ZW-ME","qid":"Q465853"},"geometry":{"type":"Point","coordinates":[31.666,-18.2141]}},{"type":"Feature","id":"ZWE-529","properties":{"kind":"division","code":"ZWE-529","countryCode":"ZWE","name":"Manicaland","localName":"Manicaland","labelEnglish":"Manicaland","labelLocal":"Manicaland","labelBoth":"Manicaland","type":"Province","iso":"ZW-MA","qid":"Q465847"},"geometry":{"type":"Polygon","coordinates":[[[33.0117,-17.384],[32.9691,-17.2661],[32.5715,-17.6104],[32.1563,-17.8616],[31.7435,-18.5091],[31.9925,-18.9971],[31.9852,-19.1322],[31.6057,-19.0231],[31.1987,-19.2484],[31.7007,-19.4991],[31.9395,-19.7973],[32.3283,-20.0051],[32.2485,-20.672],[32.135,-20.9198],[32.4085,-21.2903],[32.4458,-21.309],[32.3398,-21.1341],[32.4972,-20.8981],[32.5131,-20.5646],[32.6465,-20.558],[33.0073,-20.032],[33.0328,-19.7842],[32.8311,-19.6852],[32.7634,-19.464],[32.8623,-19.1181],[32.6914,-18.8342],[32.8852,-18.7878],[32.8707,-18.5358],[33.035,-18.3329],[32.9369,-17.875],[33.0117,-17.384]]]}},{"type":"Feature","id":"label-ZWE-529","properties":{"kind":"division-label","code":"ZWE-529","countryCode":"ZWE","name":"Manicaland","localName":"Manicaland","labelEnglish":"Manicaland","labelLocal":"Manicaland","labelBoth":"Manicaland","type":"Province","iso":"ZW-MA","qid":"Q465847"},"geometry":{"type":"Point","coordinates":[32.1206,-18.9399]}},{"type":"Feature","id":"ZWE-527","properties":{"kind":"division","code":"ZWE-527","countryCode":"ZWE","name":"Midlands","localName":"Midlands","labelEnglish":"Midlands","labelLocal":"Midlands","labelBoth":"Midlands","type":"Province","iso":"ZW-MI","qid":"Q456556"},"geometry":{"type":"Polygon","coordinates":[[[30.3631,-18.8615],[30.1806,-18.7516],[29.581,-18.5922],[29.5909,-18.3841],[29.3147,-18.2128],[29.2001,-18.0079],[29.4024,-17.4854],[28.9322,-17.1423],[28.5016,-17.395],[28.2476,-17.4096],[28.0872,-17.7545],[28.0092,-18.2223],[28.0566,-18.5613],[29.1072,-18.5652],[28.8812,-18.7474],[28.9982,-19.1837],[29.2239,-19.4874],[29.4399,-19.8793],[29.871,-20.0608],[29.6186,-20.6675],[29.728,-21.0242],[29.9886,-20.9172],[30.1576,-21.0312],[30.4321,-20.9513],[30.4103,-20.4723],[30.153,-20.2019],[30.1784,-20.037],[30.6866,-19.8629],[30.7093,-19.3935],[30.8593,-19.2724],[30.6891,-18.9838],[30.3631,-18.8615]]]}},{"type":"Feature","id":"label-ZWE-527","properties":{"kind":"division-label","code":"ZWE-527","countryCode":"ZWE","name":"Midlands","localName":"Midlands","labelEnglish":"Midlands","labelLocal":"Midlands","labelBoth":"Midlands","type":"Province","iso":"ZW-MI","qid":"Q456556"},"geometry":{"type":"Point","coordinates":[29.4323,-19.0828]}},{"type":"Feature","id":"ZWE-525","properties":{"kind":"division","code":"ZWE-525","countryCode":"ZWE","name":"Harare","localName":"Harare","labelEnglish":"Harare","labelLocal":"Harare","labelBoth":"Harare","type":"City","iso":"ZW-HA","qid":"Q16928358"},"geometry":{"type":"Polygon","coordinates":[[[31.0887,-17.6661],[30.9821,-17.7217],[30.879,-17.949],[31.0633,-18.0542],[31.2221,-17.8518],[31.0887,-17.6661]]]}},{"type":"Feature","id":"label-ZWE-525","properties":{"kind":"division-label","code":"ZWE-525","countryCode":"ZWE","name":"Harare","localName":"Harare","labelEnglish":"Harare","labelLocal":"Harare","labelBoth":"Harare","type":"City","iso":"ZW-HA","qid":"Q16928358"},"geometry":{"type":"Point","coordinates":[31.0506,-17.8928]}},{"type":"Feature","id":"ZWE-531","properties":{"kind":"division","code":"ZWE-531","countryCode":"ZWE","name":"Bulawayo","localName":"Bulawayo","labelEnglish":"Bulawayo","labelLocal":"Bulawayo","labelBoth":"Bulawayo","type":"City","iso":"ZW-BU","qid":"Q193250"},"geometry":{"type":"Polygon","coordinates":[[[28.5999,-20.2367],[28.5821,-20.0408],[28.4312,-20.0312],[28.4997,-20.2298],[28.5999,-20.2367]]]}},{"type":"Feature","id":"label-ZWE-531","properties":{"kind":"division-label","code":"ZWE-531","countryCode":"ZWE","name":"Bulawayo","localName":"Bulawayo","labelEnglish":"Bulawayo","labelLocal":"Bulawayo","labelBoth":"Bulawayo","type":"City","iso":"ZW-BU","qid":"Q193250"},"geometry":{"type":"Point","coordinates":[28.5463,-20.1393]}}]}